district	police	center	dose1	dose2	fuzzy_key	alt_name	district_name_norm	district_id	district_lat	district_lng	ps_name_norm	ps_id	ps_lat	ps_lng	lat	lng	formatted_address	dis_center_to_police	tags	district_si	police_si	center_si	district_ta	police_ta	center_ta	formatted_address_si	formatted_address_ta
Colombo	Cinnamon Gardens	Viharamahadevi Park	True	True	CLMBCNNMNGRDNSVHRMHDVPRK		Colombo	LK-11	6.869636	80.019598	Cinnamon Garden	PS-110324	6.907289	79.863819	6.913391	79.86174	Viharamahadevi Park, Colombo, Sri Lanka	0.716497		කොළඹ	කුරුඳු උද්‍යාන	විහාරමහාදේවි උද්‍යානය	கொழும்பு	இலவங்கப்பட்டை தோட்டங்கள்	விஹாரமஹாதேவி பூங்கா	විහාරමහාදේවි උද්‍යානය, කොළඹ, ශ්‍රී ලංකාව	விஹாரமஹாதேவி பூங்கா, கொழும்பு, இலங்கை
Colombo	Grandpass	Sugathadasa Outdoor Stadium	False	True	CLMBGRNDPSSSGTHDSTDRSTDM		Colombo	LK-11	6.869636	80.019598	Grandpass	PS-110215	6.949052	79.872983	6.94806	79.868842	Prince of Wales Ave, Colombo 01400, Sri Lanka	0.470345		කොළඹ	ග්‍රෑන්ඩ්පාස්	සුගතදාස එළිමහන් ක්‍රීඩාංගනය	கொழும்பு	கிராண்ட்பாஸ்	சுகததாச வெளிப்புற அரங்கம்	වේල්ස් කුමර මාවත, කොළඹ 01400, ශ්‍රී ලංකාව	பிரின்ஸ் ஆஃப் வேல்ஸ் அவே, கொழும்பு 01400, இலங்கை
Colombo	Boralesgamuwa	Kotelawala Defence Hospital	False	True	CLMBBRLSGMWKTLWLDFNCHSPTL		Colombo	LK-11	6.869636	80.019598	Boralesgamuwa	PS-110464	6.841331	79.901255	6.82518	79.907167	RWG4+3VF, Boralesgamuwa, Sri Lanka	1.911444		කොළඹ	බොරලැස්ගමුව	කොතලාවල ආරක්‍ෂක රෝහල	கொழும்பு	பொரலஸ்கமுவா	கொத்தலாவல பாதுகாப்பு மருத்துவமனை	RWG4+3VF, බොරලැස්ගමුව, ශ්‍රී ලංකාව	RWG4+3VF, பொரலஸ்கமுவா, இலங்கை
Colombo	Narahenpita	Army Hospital Narahenpita	False	False	CLMBNRHNPTRMYHSPTLNRHNPT		Colombo	LK-11	6.869636	80.019598	Narahenpita	PS-110321	6.891832	79.876715	6.900252	79.87618	08 Elvitigala Mawatha, Colombo 00800, Sri Lanka	0.938417		කොළඹ	නාරාහේන්පිට	නාරාහේන්පිට හමුදා රෝහල	கொழும்பு	நரஹேன்பிட்ட	இராணுவ மருத்துவமனை நாரஹேன்பிட்ட	08 ඇල්විටිගල මාවත, කොළඹ 00800, ශ්‍රී ලංකාව	08 எல்விட்டிகல மாவத்தை, கொழும்பு 00800, இலங்கை
Colombo	Boralesgamuwa	MOH Office - Werahera	False	False	CLMBBRLSGMWMHFFCWRHR		Colombo	LK-11	6.869636	80.019598	Boralesgamuwa	PS-110464	6.841331	79.901255	6.833094	79.905583	RWM4+66P, Boralesgamuwa, Sri Lanka	1.033386		කොළඹ	බොරලැස්ගමුව	MOH කාර්යාලය - වේරහැර	கொழும்பு	பொரலஸ்கமுவா	MOH அலுவலகம் - வெரஹெரா	RWM4+66P, බොරලැස්ගමුව, ශ්‍රී ලංකාව	RWM4+66P, பொரலஸ்கமுவா, இலங்கை
Colombo	Maradana	Colombo National Hospital	False	False	CLMBMRDNCLMBNTNLHSPTL		Colombo	LK-11	6.869636	80.019598	Maradana	PS-110107	6.927939	79.865471	6.918743	79.868992	Colombo 00700, Sri Lanka	1.094265		කොළඹ	මරදාන	කොළඹ ජාතික රෝහල	கொழும்பு	மரதானா	கொழும்பு தேசிய மருத்துவமனை	කොළඹ 00700, ශ්‍රී ලංකාව	கொழும்பு 00700, இலங்கை
Colombo	Borella	St. Luke's Church - Borella	False	False	CLMBBRLLSTLKSCHRCHBRLL		Colombo	LK-11	6.869636	80.019598	Borella	PS-110323	6.915266	79.87829	6.918035	79.874548	1091 Gnanartha Pradeepa Mawatha, Colombo 00800, Sri Lanka	0.515354		කොළඹ	බොරැල්ල	ශාන්ත ලූක් දේවස්ථානය - බොරැල්ල	கொழும்பு	பொரெல்லா	செயின்ட் லூக்கா தேவாலயம் - பொரெல்லா	1091 ඥානාර්ථ ප්‍රදීපා මාවත, කොළඹ 00800, ශ්‍රී ලංකාව	1091 ஞானார்த்த பிரதீப மாவத்தை, கொழும்பு 00800, இலங்கை
Colombo	Wellawatta	MOH Office - Wellawatta	False	False	CLMBWLLWTTMHFFCWLLWTT		Colombo	LK-11	6.869636	80.019598	Wellawatta	PS-110320	6.873107	79.86167	6.874483	79.861558	235 Galle Rd, Colombo, Sri Lanka	0.153551		කොළඹ	වැල්ලවත්ත	MOH කාර්යාලය - වැල්ලවත්ත	கொழும்பு	வெள்ளவத்தை	MOH அலுவலகம் - வெள்ளவத்தை	235 ගාල්ල පාර, කොළඹ, ශ්‍රී ලංකාව	235 காலி சாலை, கொழும்பு, இலங்கை
Colombo	Fore shore	MOH Office - Jinthupitiya	False	False	CLMBFRSHRMHFFCJNTHPTY		Colombo	LK-11	6.869636	80.019598	Fore shore	PS-110210	6.949589	79.857355	6.943258	79.859238	No.27 Vivekananda Hill, Colombo 01300, Sri Lanka	0.734247		කොළඹ	ඉදිරිපස වෙරළ	MOH කාර්යාලය - ජින්තුපිටිය	கொழும்பு	முன் கரை	MOH அலுவலகம் - ஜிந்துபிடியா	අංක 27 විවේකානන්ද කන්ද, කොළඹ 01300, ශ්‍රී ලංකාව	எண் .27 விவேகானந்த மலை, கொழும்பு 01300, இலங்கை
Colombo	Fort	Navy Headquarters	False	False	CLMBFRTNVYHDQRTRS		Colombo	LK-11	6.869636	80.019598	Fort	PS-110105	6.9334	79.842895	6.936952	79.842104	WRPR+QRQ, Colombo, Sri Lanka	0.404627		කොළඹ	කොටුව	නාවික හමුදා මූලස්ථානය	கொழும்பு	கோட்டை	கடற்படை தலைமையகம்	WRPR+QRQ, කොළඹ, ශ්‍රී ලංකාව	WRPR+QRQ, கொழும்பு, இலங்கை
Colombo	Wellampitiya	MOH Office - Kolonnawa	False	False	CLMBWLLMPTYMHFFCKLNNW		Colombo	LK-11	6.869636	80.019598	Wellampitiya	PS-110465	6.937514	79.896298	6.938303	79.889664	25 Pansalhena 1st Ln, 10600, Sri Lanka	0.737734		කොළඹ	වැල්ලම්පිටිය	MOH කාර්යාලය - කොළොන්නාව	கொழும்பு	வெல்லம்பிட்டிய	MOH அலுவலகம் - கொலன்னாவா	25 පන්සල්හේන 1 වන අංකය, 10600, ශ්‍රී ලංකාව	25 பன்சால்ஹேனா 1 வது எண், 10600, இலங்கை
Colombo	Nawagamuwa	MOH Office - Kaduwela	False	False	CLMBNWGMWMHFFCKDWL		Colombo	LK-11	6.869636	80.019598	Nawagamuwa	PS-110468	6.925169	80.017207	6.934127	79.984398	B263, Kaduwela, Sri Lanka	3.75721		කොළඹ	නවගමුව	MOH කාර්යාලය - කඩුවෙල	கொழும்பு	நவகமுவா	MOH அலுவலகம் - கடுவெல	බී 263, කඩුවෙල, ශ්‍රී ලංකාව	பி 263, கடுவெல, இலங்கை
Gampaha	Katunayaka	MOH Office - Seeduwa	False	False	GMPHKTNYKMHFFCSDW		Gampaha	LK-12	7.123598	80.018508	Katunayaka	PS-120358	7.165898	79.882607	7.131527	79.879964	24 Kotugoda Rd, Katunayake 11410, Sri Lanka	3.834192		ගම්පහ	කටුනායක	MOH කාර්යාලය - සීදුව	கம்பஹா	கட்டுநாயக்க	MOH அலுவலகம் - சீதுவா	24 කොටුගොඩ පාර, කටුනායක 11410, ශ්‍රී ලංකාව	24 கொடுகொட வீதி, கட்டுநாயக்க 11410, இலங்கை
Gampaha	Gampaha	MOH Office - Gampaha	False	False	GMPHGMPHMHFFCGMPH		Gampaha	LK-12	7.123598	80.018508	Gampaha	PS-120237	7.087765	80.01228	7.090643	80.002094	Colombo Rd, Gampaha, Sri Lanka	1.16901		ගම්පහ	ගම්පහ	MOH කාර්යාලය - ගම්පහ	கம்பஹா	கம்பஹா	MOH அலுவலகம் - கம்பஹா	කොළඹ පාර, ගම්පහ, ශ්‍රී ලංකාව	கொழும்பு வீதி, கம்பஹா, இலங்கை
Gampaha	Nittambuwa	Kiththammahara Vidyalaya	False	False	GMPHNTTMBWKTHTHMMHRVDYLY		Gampaha	LK-12	7.123598	80.018508	Nittambuwa	PS-120246	7.149726	80.10046	7.132516	80.106428	44M4+2H3, Nittambuwa, Sri Lanka	2.024416		ගම්පහ	නිට්ටඹුව	කිත්තම්මහාර විද්‍යාලය	கம்பஹா	நிட்டம்புவா	கித்தம்மாஹரா வித்யாலயா	44 එම් 4+2 එච් 3, නිට්ටඹුව, ශ්‍රී ලංකාව	44M4+2H3, நிட்டம்புவா, இலங்கை
Gampaha	Nittambuwa	Ranpokunagama Maha Vidyalaya	False	False	GMPHNTTMBWRNPKNGMMHVDYLY		Gampaha	LK-12	7.123598	80.018508	Nittambuwa	PS-120246	7.149726	80.10046	7.132516	80.106428	44M4+2H3, Nittambuwa, Sri Lanka	2.024416		ගම්පහ	නිට්ටඹුව	රන්පොකුණගම මහා විද්‍යාලය	கம்பஹா	நிட்டம்புவா	ரன்போகுனகம மகா வித்தியாலயம்	44 එම් 4+2 එච් 3, නිට්ටඹුව, ශ්‍රී ලංකාව	44M4+2H3, நிட்டம்புவா, இலங்கை
Gampaha	Nittambuwa	Kahatowita Albadriya College	False	False	GMPHNTTMBWKHTWTLBDRYCLLG		Gampaha	LK-12	7.123598	80.018508	Nittambuwa	PS-120246	7.149726	80.10046	7.097455	80.112239	Kahatowita, Sri Lanka	5.957672		ගම්පහ	නිට්ටඹුව	කහටෝවිට ඇල්බද්‍රියා විද්‍යාලය	கம்பஹா	நிட்டம்புவா	கஹடோவிட அல்பத்ரியா கல்லூரி	කහටෝවිට, ශ්‍රී ලංකාව	கஹடோவிட, இலங்கை
Gampaha	Nittambuwa	Ellakkala Maha Vidyalaya	False	False	GMPHNTTMBWLLKKLMHVDYLY		Gampaha	LK-12	7.123598	80.018508	Nittambuwa	PS-120246	7.149726	80.10046	7.132287	80.137212	Pasyala - Attanagalla Rd, Allalamulla, Sri Lanka	4.496156		ගම්පහ	නිට්ටඹුව	ඇල්ලක්කල මහා විද්‍යාලය	கம்பஹா	நிட்டம்புவா	எல்லக்கல மகா வித்தியாலயம்	පස්යාල - අත්තනගල්ල පාර, අල්ලමුල්ල, ශ්‍රී ලංකාව	பாஸ்யாலா - அத்தனகல்லா சாலை, அல்லாமல்லா, இலங்கை
Gampaha	Divulapitiya	MOH Office - Divulapitiya	False	False	GMPHDVLPTYMHFFCDVLPTY		Gampaha	LK-12	7.123598	80.018508	Diulapitiya	PS-120355	7.174215	79.957874	7.215486	80.013606	6287+5CX, Divulapitiya, Sri Lanka	7.67456		ගම්පහ	දිවුලපිටිය	එම්ඕඑච් කාර්යාලය - දිවුලපිටිය	கம்பஹா	திவுலபிட்டிய	MOH அலுவலகம் - திவுலபிட்டிய	6287+5CX, දිවුලපිටිය, ශ්‍රී ලංකාව	6287+5CX, திவுலபிட்டிய, இலங்கை
Gampaha	Katana	MOH Office - Katana	False	False	GMPHKTNMHFFCKTN		Gampaha	LK-12	7.123598	80.018508	Katana	PS-120360	7.224796	79.880015	7.22436	79.88271	Katana, Negombo - Mirigama Rd, Negombo, Sri Lanka	0.301313		ගම්පහ	කටාන	MOH කාර්යාලය - කටාන	கம்பஹா	கட்டானா	MOH அலுவலகம் - கட்டானா	කටාන, මීගමුව - මීරිගම පාර, මීගමුව, ශ්‍රී ලංකාව	கட்டானா, நீர்கொழும்பு - மீரிகம வீதி, நீர்கொழும்பு, இலங்கை
Gampaha	Negombo	Town Hall - Negombo	False	False	GMPHNGMBTWNHLLNGMB		Gampaha	LK-12	7.123598	80.018508	Negombo	PS-120351	7.224796	79.880015	7.206667	79.851863	Negombo, Sri Lanka	3.703623		ගම්පහ	මීගමුව	පුරහල - මීගමුව	கம்பஹா	நீர்கொழும்பு	டவுன் ஹால் - நீர்கொழும்பு	මීගමුව, ශ්‍රී ලංකාව	நீர்கொழும்பு, இலங்கை
Gampaha	Biyagama	Makola Community Hall	False	False	GMPHBYGMMKLCMMNTYHLL		Gampaha	LK-12	7.123598	80.018508	Biyagama	PS-120131	6.962284	80.009037	6.978008	79.936628	336 Makola Rd, Kiribathgoda, Sri Lanka	8.183596		ගම්පහ	බියගම	මාකොල ප්‍රජා ශාලාව	கம்பஹா	பியகம	மகோலா சமுதாயக் கூடம்	336 මාකොල පාර, කිරිබත්ගොඩ, ශ්‍රී ලංකාව	336 மகோலா சாலை, கிரிபத்கோடா, இலங்கை
Gampaha	Biyagama	Daranagama Maternity Clinic	False	False	GMPHBYGMDRNGMMTRNTYCLNC		Gampaha	LK-12	7.123598	80.018508	Biyagama	PS-120131	6.962284	80.009037	6.977261	79.997929	609, Kumarapeli Mawatha, Daranagama, 11700, Sri Lanka	2.06864		ගම්පහ	බියගම	දරණාගම මාතෘ සායනය	கம்பஹா	பியகம	தரணகம மகப்பேறு மருத்துவமனை	609, කුමාරපේලි මාවත, දරණාගම, 11700, ශ්‍රී ලංකාව	609, குமாரபெலி மாவத்தை, தரணகம, 11700, இலங்கை
Gampaha	Ja Ela	MOH Office - Ja Ela	False	False	GMPHJLMHFFCJL		Gampaha	LK-12	7.123598	80.018508	Ja - Ela	PS-120133	7.081055	79.890504	7.075216	79.893879	60 Mount Kalvary Rd, Ja-Ela, Sri Lanka	0.748731		ගම්පහ	ජා ඇල	MOH කාර්යාලය - ජා ඇල	கம்பஹா	ஜா எல	MOH அலுவலகம் - ஜா எல	60 කල්වාරි පාර, ජා-ඇල, ශ්‍රී ලංකාව	60 மவுண்ட் கல்வாரி சாலை, ஜா-எல, இலங்கை
Gampaha	Wattala	MOH Office - Wattala	False	False	GMPHWTTLMHFFCWTTL		Gampaha	LK-12	7.123598	80.018508	Wattala	PS-120128	6.993713	79.894506	6.995817	79.885793	301 Hendala Rd, Wattala, Sri Lanka	0.989991		ගම්පහ	වත්තල	MOH කාර්යාලය - වත්තල	கம்பஹா	வத்தளை	MOH அலுவலகம் - வத்தளை	301 හැඳල පාර, වත්තල, ශ්‍රී ලංකාව	301 ஹெந்தலா சாலை, வத்தளை, இலங்கை
Gampaha	Ragama	MOH Office - Ragama	False	False	GMPHRGMMHFFCRGM		Gampaha	LK-12	7.123598	80.018508	Ragama	PS-120134	7.034975	79.924148	7.027386	79.920232	2WGC+X35, Ragama, Sri Lanka	0.948382		ගම්පහ	රාගම	MOH කාර්යාලය - රාගම	கம்பஹா	ராகம	MOH அலுவலகம் - ராகம	2WGC+X35, රාගම, ශ්‍රී ලංකාව	2WGC+X35, ராகம, இலங்கை
Kalutara	Aluthgama	Al Pathiatul Nasria Balika Maha Vidyalaya	False	True	KLTRLTHGMLPTHTLNSRBLKMHVDYLY	Al Fasiyathul Nasriya Muslim Balika Navodaya School	Kalutara	LK-13	6.577316	80.127363	Aluthgama	PS-1302100	6.432842	79.998032	6.465274	79.975427	12/7 Maradana Rd, Beruwala, Sri Lanka	4.388118		කළුතර	අලුත්ගම	අල් ෆසියාතුල් නස්රියා මුස්ලිම් බාලිකා නවෝදය පාසල	களுத்துறை	அளுத்கம	அல் ஃபாசியத்துல் நஸ்ரியா முஸ்லிம் பாலிகா நவோதயா பள்ளி	12/7 මරදාන පාර, බේරුවල, ශ්‍රී ලංකාව	12/7 மருதானை சாலை, பேருவளை, இலங்கை
Kalutara	Kalutara South	Mobile Medical Team - Kalutara	True	True	KLTRKLTRSTHMBLMDCLTMKLTR		Kalutara	LK-13	6.577316	80.127363	Kalutara South	PS-130296	6.58486	79.961043					#CenterLocationUnknown	කළුතර	කළුතර දකුණ	ජංගම වෛද්‍ය කණ්ඩායම - කළුතර	களுத்துறை	களுத்துறை தெற்கு	நடமாடும் மருத்துவ குழு - களுத்துறை		
Kalutara	Kalutara South	NIHS	False	False	KLTRKLTRSTHNHS		Kalutara	LK-13	6.577316	80.127363	Kalutara South	PS-130296	6.58486	79.961043	6.55864	79.977416	HX5G+FX3, Katukurunda, Sri Lanka	3.432035		කළුතර	කළුතර දකුණ	NIHS	களுத்துறை	களுத்துறை தெற்கு	என்ஐஎச்எஸ்	HX5G+FX3, කටුකුරුන්ද, ශ්‍රී ලංකාව	HX5G+FX3, கட்டுக்குருந்தா, இலங்கை
Kalutara	Kalutara South	General Hospital Nagoda – Kalutara	False	False	KLTRKLTRSTHGNRLHSPTLNGDKLTR		Kalutara	LK-13	6.577316	80.127363	Kalutara South	PS-130296	6.58486	79.961043	6.563228	79.985261	Kalutara-Matugama Rd, Sri Lanka	3.598706		කළුතර	කළුතර දකුණ	මහ රෝහල නාගොඩ - කළුතර	களுத்துறை	களுத்துறை தெற்கு	பொது மருத்துவமனை நாகொட - களுத்துறை	කළුතර මතුගම පාර, ශ්‍රී ලංකාව	களுத்துறை-மத்துகம வீதி, இலங்கை
Kalutara	Beruwala	MOH Office - Beruwala	False	False	KLTRBRWLMHFFCBRWL		Kalutara	LK-13	6.577316	80.127363	Beruwala	PS-1302102	6.480329	79.983498	6.437559	79.999356	CXQX+2PH, Aluthgama, Sri Lanka	5.069893		කළුතර	බේරුවල	MOH කාර්යාලය - බේරුවල	களுத்துறை	பேருவளை	MOH அலுவலகம் - பேருவளை	CXQX+2PH, අළුත්ගම, ශ්‍රී ලංකාව	CXQX+2PH, அளுத்கம, இலங்கை
Kalutara	Dodangoda	MOH Office – Dodangoda	False	False	KLTRDDNGDMHFFCDDNGD	6.540366199937832,80.03661033076219	Kalutara	LK-13	6.577316	80.127363	Dodangoda	PS-130299	6.553375	80.023569	6.541731	80.04335	Dodangoda, Sri Lanka	2.540775		කළුතර	දොඩන්ගොඩ	6.540366199937832,80.03661033076219	களுத்துறை	தொடங்கொட	6.540366199937832,80.03661033076219	දොඩන්ගොඩ, ශ්‍රී ලංකාව	தொடங்கொட, இலங்கை
Kalutara	Dodangoda	Dodangoda Hospital	False	False	KLTRDDNGDDDNGDHSPTL		Kalutara	LK-13	6.577316	80.127363	Dodangoda	PS-130299	6.553375	80.023569	6.540961	80.036553	Wilpatha Rd, Sri Lanka	1.991373		කළුතර	දොඩන්ගොඩ	දොඩන්ගොඩ රෝහල	களுத்துறை	தொடங்கொட	தொடங்கொட மருத்துவமனை	විල්පත පාර, ශ්‍රී ලංකාව	வில்பதா சாலை, இலங்கை
Kalutara	Wadduwa	Gonaduwa Hospital	False	False	KLTRWDDWGNDWHSPTL		Kalutara	LK-13	6.577316	80.127363	Wadduwa	PS-130188	6.664403	79.929851	6.671445	79.972598	Hospital Bus Stop, Waskaduwa - Bandaragama Rd, Maha Gonaduwa, Sri Lanka	4.787096		කළුතර	වාද්දුව	ගෝනඩුව රෝහල	களுத்துறை	வாத்துவா	கோனடுவா மருத்துவமனை	රෝහල් බස් නැවතුම, වස්කඩුව - බණ්ඩාරගම පාර, මහා ගොනඩුව, ශ්‍රී ලංකාව	மருத்துவமனை பேருந்து நிறுத்தம், வாஸ்கடுவ - பண்டாரகம வீதி, மகா கோனடுவ, இலங்கை
Kalutara	Matugama	MOH Office - Matugama	False	False	KLTRMTGMMHFFCMTGM		Kalutara	LK-13	6.577316	80.127363	Mathugama	PS-1302103	6.520881	80.117908	6.523544	80.126443	G4FG+CH8, Matugama, Sri Lanka	0.988725		කළුතර	මතුගම	MOH කාර්යාලය - මතුගම	களுத்துறை	மத்துகம	MOH அலுவலகம் - மத்துகம	G4FG+CH8, මතුගම, ශ්‍රී ලංකාව	G4FG+CH8, மத்துகம, இலங்கை
Kalutara	Baduraliya	Vipulasiri Primary School	False	False	KLTRBDRLYVPLSRPRMRYSCHL		Kalutara	LK-13	6.577316	80.127363	Baduraliya	PS-1302106	6.516756	80.226716	6.514948	80.234482	G67M+XQH, Baduraliya, Sri Lanka	0.881478		කළුතර	බදුරලිය	විපුලසිරි ප්‍රාථමික විද්‍යාලය	களுத்துறை	பதுரலியா	விபுலசிறி தொடக்கப்பள்ளி	G67M+XQH, බදුරලිය, ශ්‍රී ලංකාව	G67M+XQH, பதுரலியா, இலங்கை
Kalutara	Baduraliya	Magura Primary School	False	False	KLTRBDRLYMGRPRMRYSCHL		Kalutara	LK-13	6.577316	80.127363	Baduraliya	PS-1302106	6.516756	80.226716	6.48815	80.236711	F6QP+7M4, කළුතර, Sri Lanka	3.36812		කළුතර	බදුරලිය	මගුරා ප්‍රාථමික පාසල	களுத்துறை	பதுரலியா	மகுரா ஆரம்பப் பள்ளி	F6QP+7M4, කළුතර, ශ්‍රී ලංකාව	F6QP+7M4, கருப்புதர, இலங்கை
Kalutara	Baduraliya	Baduraliya Hospital	False	False	KLTRBDRLYBDRLYHSPTL		Kalutara	LK-13	6.577316	80.127363	Baduraliya	PS-1302106	6.516756	80.226716	6.514727	80.232731	Tiruwanaketiya-Agalawatte Rd, Baduraliya, Sri Lanka	0.702098		කළුතර	බදුරලිය	බදුරලිය රෝහල	களுத்துறை	பதுரலியா	பதுரலியா மருத்துவமனை	තිරුවානකැටිය-අගලවත්ත පාර, බදුරලිය, ශ්‍රී ලංකාව	திருவனகெட்டிய-அகலவத்தை சாலை, பதுரலியா, இலங்கை
Kalutara	Thebuwana	Nebada Hospital	False	False	KLTRTHBWNNBDHSPTL		Kalutara	LK-13	6.577316	80.127363	Thebuwana	PS-1302105	6.654997	80.058183	6.563228	79.985261	Kalutara-Matugama Rd, Sri Lanka	13.004249		කළුතර	තෙබුවන	නෙබාඩා රෝහල	களுத்துறை	தேபுவானா	நெபாடா மருத்துவமனை	කළුතර මතුගම පාර, ශ්‍රී ලංකාව	களுத்துறை-மத்துகம வீதி, இலங்கை
Kalutara	Agalawatta	Pimbura Hospital	False	False	KLTRGLWTTPMBRHSPTL		Kalutara	LK-13	6.577316	80.127363	Agalawatta		6.542566	80.157178	6.575949	80.158371	H5G5+98H, කළුතර, Sri Lanka	3.715525		කළුතර	අගලවත්ත	පිඹුර රෝහල	களுத்துறை	அகலவத்தை	பிம்புரா மருத்துவமனை	H5G5+98H, කළුතර, ශ්‍රී ලංකාව	H5G5+98H, கருப்புதர, இலங்கை
Kalutara	Bulathsinhala	MOH Office - Bulathsinhala	False	False	KLTRBLTHSNHLMHFFCBLTHSNHL		Kalutara	LK-13	6.577316	80.127363	Bulathsinhala	PS-1302104	6.650425	80.17703	6.644683	80.179607	J5VH+VRH, Bulathsinhala, Sri Lanka	0.699369		කළුතර	බුලත්සිංහල	MOH කාර්යාලය - බුලත්සිංහල	களுத்துறை	புலத்சிங்களா	MOH அலுவலகம் - புலத்சிங்களா	J5VH+VRH, බුලත්සිංහල, ශ්‍රී ලංකාව	J5VH+VRH, புலத்சிங்களா, இலங்கை
Kalutara	Panadura	Panadura Hospital	False	False	KLTRPNDRPNDRHSPTL	Base Hospital Panadura	Kalutara	LK-13	6.577316	80.127363	Panadura North		6.756309	79.898939	6.721556	79.906851	A2, Panadura, Sri Lanka	3.963137		කළුතර	පානදුර	පානදුර මූලික රෝහල	களுத்துறை	பாணந்துறை	பாணந்துறை அடிப்படை மருத்துவமனை	ඒ 2, පානදුර, ශ්‍රී ලංකාව	ஏ 2, பாணந்துரா, இலங்கை
Kalutara	Panadura	Panadura Mahanama Vidyalaya	False	False	KLTRPNDRPNDRMHNMVDYLY		Kalutara	LK-13	6.577316	80.127363	Panadura North		6.756309	79.898939	6.725866	79.907901	PWG5+85R, Panadura, Sri Lanka	3.52791		කළුතර	පානදුර	පානදුර මහානාම විද්‍යාලය	களுத்துறை	பாணந்துறை	பாணாதுரா மகாநாம வித்யாலயா	PWG5+85R, පානදුර, ශ්‍රී ලංකාව	PWG5+85R, பாணந்துரா, இலங்கை
Kalutara	Bandaragama	Mobile Vaccination	False	False	KLTRBNDRGMMBLVCCNTN		Kalutara	LK-13	6.577316	80.127363	Bandaragama	PS-130189	6.715179	79.987674					#CenterLocationUnknown	කළුතර	බණ්ඩාරගම	ජංගම එන්නත	களுத்துறை	பண்டாரகம	மொபைல் தடுப்பூசி		
Kurunegala	Giribawa	Sadagala Society Hall	False	False	KRNGLGRBWSDGLSCTYHLL		Kurunegala	LK-61	7.66477	80.23677	Giribawa	PS-610329	8.117314	80.189061	7.472535	80.319098	B247, Kurunegala, Sri Lanka	73.13633	#CenterFarFromPolice	කුරුණෑගල	ගිරිබාව	සදගල සමාජ ශාලාව	குருநாகல்	கிரிபாவா	சதகலா சொசைட்டி ஹால்	බී 247, කුරුණෑගල, ශ්‍රී ලංකාව	பி 247, குருநாகல், இலங்கை
Kurunegala	Nikaweratiya	MOH Office - Nikaweratiya	False	False	KRNGLNKWRTYMHFFCNKWRTY		Kurunegala	LK-61	7.66477	80.23677	Nikaweratiya	PS-610320	7.742612	80.121177	7.7475	80.115183	Nikaweratiya-Heelogama Rd, Nikaweratiya, Sri Lanka	0.855589		කුරුණෑගල	නිකවැරටිය	MOH කාර්යාලය - නිකවැරටිය	குருநாகல்	நிகவெரட்டியா	MOH அலுவலகம் - நிகவெரட்டிய	නිකවැරටිය-හීලොගම පාර, නිකවැරටිය, ශ්‍රී ලංකාව	நிகவெரட்டிய-ஹீலோகம வீதி, நிகவெரட்டிய, இலங்கை
Kurunegala	Girilla	Girilla Vidyalaya	False	False	KRNGLGRLLGRLLVDYLY		Kurunegala	LK-61	7.66477	80.23677	Giriulla	PS-610215	7.334527	80.125021	7.829249	80.138325	R4HQ+M8W, Kurunegala, Sri Lanka	55.047393	#CenterFarFromPolice	කුරුණෑගල	ගිරිල්ල	ගිරිල්ල විද්‍යාලය	குருநாகல்	கிரில்லா	கிரில்லா வித்யாலயா	R4HQ+M8W, කුරුණෑගල, ශ්‍රී ලංකාව	R4HQ+M8W, குருநாகல், இலங்கை
Kurunegala	Kotawehera	Unale Viharaya	False	False	KRNGLKTWHRNLVHRY		Kurunegala	LK-61	7.66477	80.23677	Kotawehera	PS-610322	7.809001	80.077977	7.537105	80.490915	Ridee Vihara Rd, Ridigama, Sri Lanka	54.650438	#CenterFarFromPolice	කුරුණෑගල	කොටවෙහෙර	උනේල් විහාරය	குருநாகல்	கொட்டவெஹெரா	உனலே விஹாராயா	රිදී විහාර පාර, රිදිගම, ශ්‍රී ලංකාව	ரைடி விஹார வீதி, ரிதிகம, இலங்கை
Kurunegala	Kotawehera	Digannea Vidyalaya	False	False	KRNGLKTWHRDGNNVDYLY		Kurunegala	LK-61	7.66477	80.23677	Kotawehera	PS-610322	7.809001	80.077977	7.809001	80.077977	Kotawehera, Kurunegala, Sri Lanka	0.0		කුරුණෑගල	කොටවෙහෙර	දිගන්න විද්‍යාලය	குருநாகல்	கொட்டவெஹெரா	திகன்னியா வித்யாலயா	කොටවෙහෙර, කුරුණෑගල, ශ්‍රී ලංකාව	கொட்டவெஹெரா, குருநாகல், இலங்கை
Puttalam	Chilaw	Ambakadawila Vidyalaya	False	False	PTTLMCHLWMBKDWLVDYLY		Puttalam	LK-62	7.973531	79.913833	Chilaw	PS-620241	7.576197	79.788003	7.527563	79.793632	Ambakandawila, Sri Lanka	5.445043		පුත්තලම	භලාවත	අඹකඩවිල විද්‍යාලය	புத்தளம்	சிலாபம்	அம்பகடவில வித்யாலயா	අම්බකන්දවිල, ශ්‍රී ලංකාව	அம்பகண்டவில, இலங்கை
Puttalam	Chilaw	Aluthwatta Church	False	False	PTTLMCHLWLTHWTTCHRCH		Puttalam	LK-62	7.973531	79.913833	Chilaw	PS-620241	7.576197	79.788003	7.561989	79.801657	HR62+QMV, Chilaw, Sri Lanka	2.182669		පුත්තලම	භලාවත	අළුත් වත්ත පල්ලිය	புத்தளம்	சிலாபம்	அளுத்வத்த தேவாலயம்	HR62+QMV, හලාවත, ශ්‍රී ලංකාව	HR62+QMV, சிலாபம், இலங்கை
Puttalam	Chilaw	Medawatta Churach	False	False	PTTLMCHLWMDWTTCHRCH		Puttalam	LK-62	7.973531	79.913833	Chilaw	PS-620241	7.576197	79.788003	7.55716	79.789132	Ambakandawila Rd, Chilaw, Sri Lanka	2.121138		පුත්තලම	භලාවත	මැදවත්ත චුරාච්	புத்தளம்	சிலாபம்	மேடவத்தா சுராச்	අම්බකන්දවිල පාර, හලාවත, ශ්‍රී ලංකාව	அம்பகண்டவில சாலை, சிலாபம், இலங்கை
Puttalam	Chilaw	Weralabada South College	False	False	PTTLMCHLWWRLBDSTHCLLG		Puttalam	LK-62	7.973531	79.913833	Chilaw	PS-620241	7.576197	79.788003	7.571297	79.799123	Puttalam - Colombo Rd, Chilaw, Sri Lanka	1.341767		පුත්තලම	භලාවත	වේරලබඩ දකුණු විද්‍යාලය	புத்தளம்	சிலாபம்	வெரலபடா தெற்கு கல்லூரி	පුත්තලම - කොළඹ පාර, හලාවත, ශ්‍රී ලංකාව	புத்தளம் - கொழும்பு வீதி, சிலாபம், இலங்கை
Puttalam	Chilaw	Wella Church	False	False	PTTLMCHLWWLLCHRCH		Puttalam	LK-62	7.973531	79.913833	Chilaw	PS-620241	7.576197	79.788003	7.588391	79.798495	HQQX+995, Chilaw, Sri Lanka	1.782661		පුත්තලම	භලාවත	වැල්ල පල්ලිය	புத்தளம்	சிலாபம்	வெல்லா தேவாலயம்	HQQX+995, හලාවත, ශ්‍රී ලංකාව	HQQX+995, சிலாபம், இலங்கை
Puttalam	Chilaw	Kurusapaduwa Church	False	False	PTTLMCHLWKRSPDWCHRCH		Puttalam	LK-62	7.973531	79.913833	Chilaw	PS-620241	7.576197	79.788003	8.1255	79.726198	4PGG+5FW, Puttalam, Sri Lanka	61.477237	#CenterFarFromPolice	පුත්තලම	භලාවත	කුරුසපාඩුව පල්ලිය	புத்தளம்	சிலாபம்	குருசபடுவா தேவாலயம்	4PGG+5FW, පුත්තලම, ශ්‍රී ලංකාව	4PGG+5FW, புத்தளம், இலங்கை
Puttalam	Chilaw	Iranawila Catholic Church	False	False	PTTLMCHLWRNWLCTHLCCHRCH		Puttalam	LK-62	7.973531	79.913833	Chilaw	PS-620241	7.576197	79.788003	7.495154	79.807481	Iranawila Rd, Sri Lanka	9.266744		පුත්තලම	භලාවත	ඉරණවිල කතෝලික පල්ලිය	புத்தளம்	சிலாபம்	இரணைவில கத்தோலிக்க தேவாலயம்	ඉරණවිල පාර, ශ්‍රී ලංකාව	இரணவில வீதி, இலங்கை
Puttalam	Puttalam	Veppamadu Muslim Vidyalaya	False	False	PTTLMPTTLMVPPMDMSLMVDYLY		Puttalam	LK-62	7.973531	79.913833	Puttalam	PS-620130	8.029904	79.834396	8.074579	79.837711	Mannar Rd, Puttalam 61300, Sri Lanka	4.982587		පුත්තලම	පුත්තලම	වෙප්පමඩු මුස්ලිම් විද්‍යාලය	புத்தளம்	புத்தளம்	வேப்பமடு முஸ்லிம் வித்யாலயா	මන්නාරම පාර, පුත්තලම 61300, ශ්‍රී ලංකාව	மன்னார் சாலை, புத்தளம் 61300, இலங்கை
Puttalam	Puttalam	Attavilluwa Kanishta Vidyalaya	False	False	PTTLMPTTLMTTVLLWKNSHTVDYLY		Puttalam	LK-62	7.973531	79.913833	Puttalam	PS-620130	8.029904	79.834396					#CenterLocationUnknown	පුත්තලම	පුත්තලම	අත්තවිල්ලුව කනිෂ්ඨ විද්‍යාලය	புத்தளம்	புத்தளம்	அட்டவில்லுவ கனிஷ்ட வித்தியாலயம்		
Puttalam	Puttalam	Thilladi Muslim Maha Vidyalaya	False	False	PTTLMPTTLMTHLLDMSLMMHVDYLY		Puttalam	LK-62	7.973531	79.913833	Puttalam	PS-620130	8.029904	79.834396	8.004413	79.844478	2R3V+QQ9, Puttalam, Sri Lanka	3.045059		පුත්තලම	පුත්තලම	තිල්ලාඩි මුස්ලිම් මහා විද්‍යාලය	புத்தளம்	புத்தளம்	தில்லாடி முஸ்லிம் மகா வித்தியாலயம்	2R3V+QQ9, පුත්තලම, ශ්‍රී ලංකාව	2R3V+QQ9, புத்தளம், இலங்கை
Puttalam	Puttalam	Ananda National College	False	False	PTTLMPTTLMNNDNTNLCLLG		Puttalam	LK-62	7.973531	79.913833	Puttalam	PS-620130	8.029904	79.834396	7.571297	79.799123	Puttalam - Colombo Rd, Chilaw, Sri Lanka	51.158667	#CenterFarFromPolice	පුත්තලම	පුත්තලම	ආනන්ද ජාතික විද්‍යාලය	புத்தளம்	புத்தளம்	ஆனந்தா தேசிய கல்லூரி	පුත්තලම - කොළඹ පාර, හලාවත, ශ්‍රී ලංකාව	புத்தளம் - கொழும்பு வீதி, சிலாபம், இலங்கை
Puttalam	Puttalam	Fathima National School	False	False	PTTLMPTTLMFTHMNTNLSCHL		Puttalam	LK-62	7.973531	79.913833	Puttalam	PS-620130	8.029904	79.834396	8.032756	79.832857	37 Poles Rd, Puttalam 61300, Sri Lanka	0.359673		පුත්තලම	පුත්තලම	ෆාතිමා ජාතික පාසල	புத்தளம்	புத்தளம்	பாத்திமா தேசிய பள்ளி	37 ධ්‍රැව පාර, පුත්තලම 61300, ශ්‍රී ලංකාව	37 துருவங்கள் சாலை, புத்தளம் 61300, இலங்கை
Puttalam	Puttalam	Visadarrama Viharaya	False	False	PTTLMPTTLMVSDRRMVHRY		Puttalam	LK-62	7.973531	79.913833	Puttalam	PS-620130	8.029904	79.834396	8.028546	79.853854	2VH3+CG9, Puttalam, Sri Lanka	2.14841		පුත්තලම	පුත්තලම	විසාදාරාම විහාරය	புத்தளம்	புத்தளம்	விசாதரராம விஹாராயா	2VH3+CG9, පුත්තලම, ශ්‍රී ලංකාව	2VH3+CG9, புத்தளம், இலங்கை
Puttalam	Puttalam	Manalgundu Muslim Vidyalaya	False	False	PTTLMPTTLMMNLGNDMSLMVDYLY		Puttalam	LK-62	7.973531	79.913833	Puttalam	PS-620130	8.029904	79.834396	7.951082	79.806461	Puluthivayal Rd, Puluthivayal, Sri Lanka	9.291648		පුත්තලම	පුත්තලම	මනල්ගුන්ඩු මුස්ලිම් විද්‍යාලය	புத்தளம்	புத்தளம்	மணல்குண்டு முஸ்லிம் வித்தியாலயம்	පුලුතිවායල් පාර, පුලුතිවායල්, ශ්‍රී ලංකාව	புழுதிவயல் சாலை, புழுதிவயல், இலங்கை
Puttalam	Puttalam	Palavi Sinhala Vidyalaya	False	False	PTTLMPTTLMPLVSNHLVDYLY		Puttalam	LK-62	7.973531	79.913833	Puttalam	PS-620130	8.029904	79.834396	8.02676	79.838078	Puttalam South, Sri Lanka	0.535493		පුත්තලම	පුත්තලම	පලවි සිංහල විද්‍යාලය	புத்தளம்	புத்தளம்	பாலாவி சிங்கள வித்யாலயா	පුත්තලම දකුණ, ශ්‍රී ලංකාව	புத்தளம் தெற்கு, இலங்கை
Puttalam	Puttalam	Divisional Secretariat Office - Puttalam	False	False	PTTLMPTTLMDVSNLSCRTRTFFCPTTLM		Puttalam	LK-62	7.973531	79.913833	Puttalam	PS-620130	8.029904	79.834396	8.030562	79.835452	2RJP+65G, Puttalam, Sri Lanka	0.137419		පුත්තලම	පුත්තලම	ප්‍රාදේශීය ලේකම් කාර්යාලය - පුත්තලම	புத்தளம்	புத்தளம்	பிரதேச செயலக அலுவலகம் - புத்தளம்	2RJP+65G, පුත්තලම, ශ්‍රී ලංකාව	2RJP+65G, புத்தளம், இலங்கை
Puttalam	Udappu	Udappuwa Hospital	False	False	PTTLMDPPDPPWHSPTL		Puttalam	LK-62	7.973531	79.913833	Udappuwa	PS-620140	7.759695	79.788518	7.75967	79.789379	QQ5Q+VQ6, Udappu, Sri Lanka	0.094933		පුත්තලම	උඩප්පු	උඩප්පුව රෝහල	புத்தளம்	உடப்பு	உடப்புவா மருத்துவமனை	QQ5Q+VQ6, උඩප්පු, ශ්‍රී ලංකාව	QQ5Q+VQ6, உடப்பு, இலங்கை
Puttalam	Mundalama	Andimunei Vidyalaya	False	False	PTTLMMNDLMNDMNVDYLY		Puttalam	LK-62	7.973531	79.913833	Mundal	PS-620138	7.808859	79.825729	8.028082	79.840608	Katugastota-Kurunegala-Puttalam Hwy, Puttalam, Sri Lanka	24.439173	#CenterFarFromPolice	පුත්තලම	මුන්දලම	අන්දිමුණි විද්‍යාලය	புத்தளம்	முண்டாலமா	ஆண்டிமுனை வித்யாலயா	කටුගස්තොට-කුරුණෑගල-පුත්තලම හ්වි, පුත්තලම, ශ්‍රී ලංකාව	கட்டுகஸ்தோட்டா-குருநாகல்-புத்தளம் Hwy, புத்தளம், இலங்கை
Puttalam	Mundalama	Pandalaya	False	False	PTTLMMNDLMPNDLY		Puttalam	LK-62	7.973531	79.913833	Mundal	PS-620138	7.808859	79.825729	7.819828	79.835277	Mundalama, Sri Lanka	1.611098		පුත්තලම	මුන්දලම	පණ්ඩලය	புத்தளம்	முண்டாலமா	பந்தலயா	මුන්දලම, ශ්‍රී ලංකාව	முண்டாலமா, இலங்கை
Puttalam	Mundalama	Kandathoduwawa	False	False	PTTLMMNDLMKNDTHDWW		Puttalam	LK-62	7.973531	79.913833	Mundal	PS-620138	7.808859	79.825729	7.891957	79.766623	Kandathoduwawa, Sri Lanka	11.307004		පුත්තලම	මුන්දලම	කන්දතොඩුවාව	புத்தளம்	முண்டாலமா	கண்டதொடுவாவா	කන්දතොඩුවාව, ශ්‍රී ලංකාව	கண்டதொடுவாவா, இலங்கை
Puttalam	Mundalama	Mukku Thoduwawa	False	False	PTTLMMNDLMMKKTHDWW		Puttalam	LK-62	7.973531	79.913833	Mundal	PS-620138	7.808859	79.825729	7.485903	79.803058	Thoduwawa, Sri Lanka	36.009179	#CenterFarFromPolice	පුත්තලම	මුන්දලම	මුක්කු තොඩුවාව	புத்தளம்	முண்டாலமா	முக்கு தொடுவாவா	තොඩුවාව, ශ්‍රී ලංකාව	தொடுவாவா, இலங்கை
Puttalam	Arachchikattuwa	Karukapanai Churach	False	False	PTTLMRCHCHKTTWKRKPNCHRCH		Puttalam	LK-62	7.973531	79.913833	Arachchikattuwa	PS-620247	7.65944	79.837772	7.591399	79.827877	Chilaw-Munneswarama-Tissogama, Sri Lanka	7.646406		පුත්තලම	ආරච්චිකට්ටුව	කරුකාපානායි චුරාච්	புத்தளம்	ஆராச்சிக்கட்டுவா	கருகப்பனைச் சூரச்	හලාවත-මුන්නේශ්වරම-තිසෝගම, ශ්‍රී ලංකාව	சிலாபம்-முன்னேஸ்வரமா-திசோகம, இலங்கை
Puttalam	Arachchikattuwa	Muthupalliya Churach	False	False	PTTLMRCHCHKTTWMTHPLLYCHRCH		Puttalam	LK-62	7.973531	79.913833	Arachchikattuwa	PS-620247	7.65944	79.837772	7.591399	79.827877	Chilaw-Munneswarama-Tissogama, Sri Lanka	7.646406		පුත්තලම	ආරච්චිකට්ටුව	මුතුපල්ලියා චුරාච්	புத்தளம்	ஆராச்சிக்கட்டுவா	முத்துப்பள்ளியா சூரச்	හලාවත-මුන්නේශ්වරම-තිසෝගම, ශ්‍රී ලංකාව	சிலாபம்-முன்னேஸ்வரமா-திசோகம, இலங்கை
Puttalam	Arachchikattuwa	Arachchikattuwa Viharaya	False	False	PTTLMRCHCHKTTWRCHCHKTTWVHRY		Puttalam	LK-62	7.973531	79.913833	Arachchikattuwa	PS-620247	7.65944	79.837772	7.461124	79.842169	FR6R+CVV, Madampe, Sri Lanka	22.063983	#CenterFarFromPolice	පුත්තලම	ආරච්චිකට්ටුව	ආරච්චිකට්ටුව විහාරය	புத்தளம்	ஆராச்சிக்கட்டுவா	ஆராச்சிக்கட்டுவ விஹாராயா	FR6R+CVV, මාදම්පේ, ශ්‍රී ලංකාව	FR6R+CVV, மாதம்பே, இலங்கை
Puttalam	Arachchikattuwa	Kottapitiya Churach	False	False	PTTLMRCHCHKTTWKTTPTYCHRCH		Puttalam	LK-62	7.973531	79.913833	Arachchikattuwa	PS-620247	7.65944	79.837772	7.656449	79.838078	Rajakadaluwa, Sri Lanka	0.334394		පුත්තලම	ආරච්චිකට්ටුව	කෝට්ටපිටිය චුරාච්	புத்தளம்	ஆராச்சிக்கட்டுவா	கோட்டாபிட்டிய சுராச்	රාජකදළුව, ශ්‍රී ලංකාව	ராஜகடலுவா, இலங்கை
Puttalam	Arachchikattuwa	Nalladarankattuwa Viharaya	False	False	PTTLMRCHCHKTTWNLLDRNKTTWVHRY		Puttalam	LK-62	7.973531	79.913833	Arachchikattuwa	PS-620247	7.65944	79.837772	7.669298	79.835761	Puttalam - Colombo Rd, Nalladarankattuwa, Sri Lanka	1.118689		පුත්තලම	ආරච්චිකට්ටුව	නල්ලදරන්කට්ටුව විහාරය	புத்தளம்	ஆராச்சிக்கட்டுவா	நல்லடரன்கட்டுவ விஹாராயா	පුත්තලම - කොළඹ පාර, නල්ලදරන්කට්ටුව, ශ්‍රී ලංකාව	புத்தளம் - கொழும்பு வீதி, நல்லதரன்கட்டுவா, இலங்கை
Puttalam	Arachchikattuwa	Anavilundawa Churach	False	False	PTTLMRCHCHKTTWNVLNDWCHRCH		Puttalam	LK-62	7.973531	79.913833	Arachchikattuwa	PS-620247	7.65944	79.837772	7.663717	79.839303	Nalladarankattuwa, Sri Lanka	0.50478		පුත්තලම	ආරච්චිකට්ටුව	ආනවිලුන්දාව චුරාච්	புத்தளம்	ஆராச்சிக்கட்டுவா	அனவிலுண்டவா சுராச்	නල්ලදරන්කට්ටුව, ශ්‍රී ලංකාව	நல்லதரன்கட்டுவா, இலங்கை
Puttalam	Kalpitiya	District Hospital - Kalpitiya	False	False	PTTLMKLPTYDSTRCTHSPTLKLPTY		Puttalam	LK-62	7.973531	79.913833	Kalpitiya	PS-620137	8.235145	79.764567	8.235596	79.766951	6QP8+6QP, Kalpitiya, Sri Lanka	0.267189		පුත්තලම	කල්පිටිය	දිසා රෝහල - කල්පිටිය	புத்தளம்	கல்பிட்டிய	மாவட்ட மருத்துவமனை - கல்பிட்டி	6QP8+6QP, කල්පිටිය, ශ්‍රී ලංකාව	6QP8+6QP, கல்பிட்டிய, இலங்கை
Puttalam	Kalpitiya	Al Aksha National School - Kalpitiya	False	False	PTTLMKLPTYLKSHNTNLSCHLKLPTY		Puttalam	LK-62	7.973531	79.913833	Kalpitiya	PS-620137	8.235145	79.764567	8.231092	79.76204	Al Aqsa School Rd, Kalpitiya, Sri Lanka	0.529734		පුත්තලම	කල්පිටිය	අල් අක්ෂා ජාතික පාසල - කල්පිටිය	புத்தளம்	கல்பிட்டிய	அல் அக்ஷா தேசிய பள்ளி - கல்பிட்டி	අල් අක්සා පාසල පාර, කල්පිටිය, ශ්‍රී ලංකාව	அல் அக்ஸா பள்ளி வீதி, கல்பிட்டிய, இலங்கை
Puttalam	Kalpitiya	Kandakkuliya Sinhala Vidyalaya	False	False	PTTLMKLPTYKNDKKLYSNHLVDYLY		Puttalam	LK-62	7.973531	79.913833	Kalpitiya	PS-620137	8.235145	79.764567	8.237069	79.760536	6QP6+R6F, Kalpitiya, Sri Lanka	0.492653		පුත්තලම	කල්පිටිය	කන්දක්කුලිය සිංහල විද්‍යාලය	புத்தளம்	கல்பிட்டிய	கண்டக்குளிய சிங்கள சித்தியாலயம்	6QP6+R6F, කල්පිටිය, ශ්‍රී ලංකාව	6QP6+R6F, கல்பிட்டிய, இலங்கை
Puttalam	Kalpitiya	St. Peter's College - Palakudawa	False	False	PTTLMKLPTYSTPTRSCLLGPLKDW		Puttalam	LK-62	7.973531	79.913833	Kalpitiya	PS-620137	8.235145	79.764567					#CenterLocationUnknown	පුත්තලම	කල්පිටිය	ශාන්ත පීතර විද්‍යාලය - පලකුඩාව	புத்தளம்	கல்பிட்டிய	செயின்ட் பீட்டர்ஸ் கல்லூரி - பாலக்குடாவா		
Puttalam	Kalpitiya	Musalpitiya Muslim Maha Vidyalaya	False	False	PTTLMKLPTYMSLPTYMSLMMHVDYLY		Puttalam	LK-62	7.973531	79.913833	Kalpitiya	PS-620137	8.235145	79.764567	8.102367	79.73026	Etalai, Sri Lanka	15.244252		පුත්තලම	කල්පිටිය	මුසල්පිටිය මුස්ලිම් මහා විද්‍යාලය	புத்தளம்	கல்பிட்டிய	முசல்பிட்டிய முஸ்லிம் மகா வித்தியாலயம்	ඇතාලෙයි, ශ්‍රී ලංකාව	எத்தலை, இலங்கை
Puttalam	Norochcholai	Daluwa St. Anthony's College	False	False	PTTLMNRCHCHLDLWSTNTHNYSCLLG		Puttalam	LK-62	7.973531	79.913833	Norochcholey	PS-620139	6.900777	79.872638	7.979176	79.755536	XQH4+M6F, Puttalam, Sri Lanka	120.643455	#CenterFarFromPolice	පුත්තලම	නොරොච්චෝලේ	දළුව ශාන්ත අන්තෝනි විද්‍යාලය	புத்தளம்	நொரோச்சோலை	தாலுவா புனித அந்தோனியார் கல்லூரி	XQH4+M6F, පුත්තලම, ශ්‍රී ලංකාව	XQH4+M6F, புத்தளம், இலங்கை
Puttalam	Norochcholai	Ulukkapallama Muslim College	False	False	PTTLMNRCHCHLLKKPLLMMSLMCLLG		Puttalam	LK-62	7.973531	79.913833	Norochcholey	PS-620139	6.900777	79.872638	8.050195	79.736044	3P2P+3CF, Norochcholai, Sri Lanka	128.73397	#CenterFarFromPolice	පුත්තලම	නොරොච්චෝලේ	උලුක්කපල්ලම මුස්ලිම් විද්‍යාලය	புத்தளம்	நொரோச்சோலை	உலகப்பல்லாமா முஸ்லிம் கல்லூரி	3 පී 2 පී+3 සීඑෆ්, නොරොච්චෝලේ, ශ්‍රී ලංකාව	3P2P+3CF, நொரோச்சோலை, இலங்கை
Puttalam	Norochcholai	Norochcholai Centarl College	False	False	PTTLMNRCHCHLNRCHCHLCNTRLCLLG		Puttalam	LK-62	7.973531	79.913833	Norochcholey	PS-620139	6.900777	79.872638	8.050195	79.736044	3P2P+3CF, Norochcholai, Sri Lanka	128.73397	#CenterFarFromPolice	පුත්තලම	නොරොච්චෝලේ	නොරොච්චෝලේ සෙන්ටර්ල් විද්‍යාලය	புத்தளம்	நொரோச்சோலை	நொரோச்சோலை மையக் கல்லூரி	3 පී 2 පී+3 සීඑෆ්, නොරොච්චෝලේ, ශ්‍රී ලංකාව	3P2P+3CF, நொரோச்சோலை, இலங்கை
Puttalam	Norochcholai	Narakkalliya Roman Catholic College	False	False	PTTLMNRCHCHLNRKKLLYRMNCTHLCCLLG		Puttalam	LK-62	7.973531	79.913833	Norochcholey	PS-620139	6.900777	79.872638	8.018727	79.731575	Narakkalliya, Sri Lanka	125.318804	#CenterFarFromPolice	පුත්තලම	නොරොච්චෝලේ	නාරක්කල්ලිය රෝමානු කතෝලික විද්‍යාලය	புத்தளம்	நொரோச்சோலை	நரக்கல்லியா ரோமன் கத்தோலிக்க கல்லூரி	නාරක්කල්ලිය, ශ්‍රී ලංකාව	நரக்கல்லியா, இலங்கை
Puttalam	Wennappuwa	Ulhitiyawa St. Xavier Catholic Church	False	False	PTTLMWNNPPWLHTYWSTXVRCTHLCCHRCH		Puttalam	LK-62	7.973531	79.913833	Wennappuwa	PS-620245	7.339623	79.843017	7.345648	79.831869	8RWJ+7P5, Wennappuwa, Sri Lanka	1.400563		පුත්තලම	වෙන්නප්පුව	උල්හිටියාව ශාන්ත සේවියර් කතෝලික පල්ලිය	புத்தளம்	வென்னப்புவா	உல்ஹித்தியாவா புனித சேவியர் கத்தோலிக்க தேவாலயம்	8RWJ+7P5, වෙන්නප්පුව, ශ්‍රී ලංකාව	8RWJ+7P5, வென்னப்புவா, இலங்கை
Puttalam	Wennappuwa	Fransis Xaviour College	False	False	PTTLMWNNPPWFRNSSXVRCLLG		Puttalam	LK-62	7.973531	79.913833	Wennappuwa	PS-620245	7.339623	79.843017	7.345183	79.83172	Ulhitiyawa Government School, Wennappuwa, Wennappuwa, Sri Lanka	1.391269		පුත්තලම	වෙන්නප්පුව	ෆ්‍රැන්සිස් සේවියර් විද්‍යාලය	புத்தளம்	வென்னப்புவா	பிரான்சிஸ் சேவியர் கல்லூரி	උල්හිටියාව රජයේ පාසල, වෙන්නප්පුව, වෙන්නප්පුව, ශ්‍රී ලංකාව	உல்ஹிட்டியாவா அரசு பள்ளி, வென்னப்புவா, வென்னப்புவா, இலங்கை
Puttalam	Marawila	Sebastian Primary School - Katuneriya	False	False	PTTLMMRWLSBSTNPRMRYSCHLKTNRY		Puttalam	LK-62	7.973531	79.913833	Marawila	PS-620243	7.415075	79.839776	7.364706	79.832758	9R7M+V4J, Katuneriya, Sri Lanka	5.655765		පුත්තලම	මාරවිල	සෙබස්තියන් ප්‍රාථමික විද්‍යාලය - කටුනේරිය	புத்தளம்	மாரவில	செபாஸ்டியன் ஆரம்பப் பள்ளி - கட்டுனேரியா	9 ආර් 7 එම්+වී 4 ජේ, කටුනේරිය, ශ්‍රී ලංකාව	9R7M+V4J, கட்டுனேரியா, இலங்கை
Puttalam	Marawila	At St. Anthony's Church, Thoduwawa	False	False	PTTLMMRWLTSTNTHNYSCHRCHTHDWW		Puttalam	LK-62	7.973531	79.913833	Marawila	PS-620243	7.415075	79.839776	7.476679	79.804902	FRG3+MXC, Thoduwawa, Sri Lanka	7.857917		පුත්තලම	මාරවිල	තොඩුවාව ශාන්ත අන්තෝනි දේවස්ථානයේදී	புத்தளம்	மாரவில	புனித அந்தோனியார் தேவாலயத்தில், தொடுவாவா	FRG3+MXC, තොඩුවාව, ශ්‍රී ලංකාව	FRG3+MXC, தொடுவாவா, இலங்கை
Kandy	Theldeniya	Theldeniya National College	False	False	KNDYTHLDNYTHLDNYNTNLCLLG		Kandy	LK-21	7.27337	80.709602	Theldeniya	PS-210356	7.309853	80.76426	7.308862	80.762491	8Q56+GXX, Karalliyadda, Sri Lanka	0.224144		මහනුවර	තෙල්දෙණිය	තෙල්දෙණිය ජාතික විද්‍යාලය	கண்டி	தெல்தெனியா	தெல்தெனிய தேசிய கல்லூரி	8Q56+GXX, කරල්ලියද්ද, ශ්‍රී ලංකාව	8Q56+GXX, கரல்லியத்த, இலங்கை
Kandy	Poojapitiya	Poojapitiya Maha Vidyalaya	False	False	KNDYPJPTYPJPTYMHVDYLY		Kandy	LK-21	7.27337	80.709602	Poojapitiya	PS-210115	7.372938	80.587619	7.371519	80.593387	Poojapitiya Road, Poojapitiya, Sri Lanka	0.655554		මහනුවර	පූජාපිටිය	පූජාපිටිය මහා විද්‍යාලය	கண்டி	பூஜாபிட்டிய	பூஜாபிட்டிய மகா வித்தியாலயம்	පූජාපිටිය පාර, පූජාපිටිය, ශ්‍රී ලංකාව	பூஜாபிட்டிய சாலை, பூஜாபிட்டிய, இலங்கை
Kandy	Wattegama	Walala A.Rathnayake Central College	False	False	KNDYWTTGMWLLRTHNYKCNTRLCLLG		Kandy	LK-21	7.27337	80.709602	Wattegama	PS-210357	7.350603	80.68335	7.318909	80.693359	8M9V+H89, Menikhinna, Sri Lanka	3.694199		මහනුවර	වත්තේගම	වලල ඒ. රත්නායක මධ්‍ය මහා විද්‍යාලය	கண்டி	வட்டேகம	வாலாலா ஏ.ரத்நாயக்க மத்திய கல்லூரி	8 එම් 9 වී+එච් 89, මැණික්හින්න, ශ්‍රී ලංකාව	8M9V+H89, மெனிகின்னா, இலங்கை
Kandy	Galaha	Nillambe Maha Vidyalaya	False	False	KNDYGLHNLLMBMHVDYLY		Kandy	LK-21	7.27337	80.709602	Galaha	PS-210220	7.196074	80.669961	7.191434	80.635919	5JRP+H9F, Galaha, Sri Lanka	3.792076		මහනුවර	ගලහා	නිල්ලඹේ මහා විද්‍යාලය	கண்டி	கலஹா	நிலம்பே மகா வித்தியாலயம்	5JRP+H9F, ගලහ, ශ්‍රී ලංකාව	5JRP+H9F, கலஹா, இலங்கை
Kandy	Galaha	DH - Galaha	False	False	KNDYGLHDHGLH		Kandy	LK-21	7.27337	80.709602	Galaha	PS-210220	7.196074	80.669961	7.196844	80.671532	Galaha, Sri Lanka	0.193368		මහනුවර	ගලහා	ඩීඑච් - ගලහ	கண்டி	கலஹா	DH - கலஹா	ගලහ, ශ්‍රී ලංකාව	கலஹா, இலங்கை
Kandy	Katugastota	Nugawela Maha Vidyalaya	False	False	KNDYKTGSTTNGWLMHVDYLY		Kandy	LK-21	7.27337	80.709602	Katugastota	PS-210103	7.332014	80.623006	7.326749	80.586953	8HGP+MQW, Nugawela, Sri Lanka	4.020285		මහනුවර	කටුගස්තොට	නුගවෙල මහා විද්‍යාලය	கண்டி	கட்டுகஸ்தோட்டா	நுகவெல மகா வித்தியாலயம்	8HGP+MQW, නුගවෙල, ශ්‍රී ලංකාව	8HGP+MQW, நுகவேலா, இலங்கை
Kandy	Katugastota	Kandy Ananda College - Gonigoda	False	False	KNDYKTGSTTKNDYNNDCLLGGNGD		Kandy	LK-21	7.27337	80.709602	Katugastota	PS-210103	7.332014	80.623006	7.346769	80.580787	B206, Medawala, Sri Lanka	4.938236		මහනුවර	කටුගස්තොට	මහනුවර ආනන්ද විද්‍යාලය - ගෝනිගොඩ	கண்டி	கட்டுகஸ்தோட்டா	கண்டி ஆனந்த கல்லூரி - கோனிகொட	බී 206, මැදවල, ශ්‍රී ලංකාව	B206, மேடவாலா, இலங்கை
Kandy	Ankumbura	Gilihinna Primary School	False	False	KNDYNKMBRGLHNNPRMRYSCHL		Kandy	LK-21	7.27337	80.709602	Ankumbura	PS-210104	7.438826	80.571939	7.380409	80.543718	Henegama, Harankahawa, Kandy, Galagedara, Sri Lanka	7.204848		මහනුවර	අංකුඹුර	ගිලිහින්න ප්‍රාථමික විද්‍යාලය	கண்டி	அங்கும்புரா	கிலிஹின்னா ஆரம்பப் பள்ளி	හේනේගම, හරංකහාව, මහනුවර, ගලගෙදර, ශ්‍රී ලංකාව	ஹெனேகம, ஹரன்கஹவா, கண்டி, கலகெதரா, இலங்கை
Kandy	Gampola	Doluwa Maha Vidyalaya	False	False	KNDYGMPLDLWMHVDYLY		Kandy	LK-21	7.27337	80.709602	Gampola	PS-210216	7.132941	80.56799	7.18627	80.608269	5JP5+G82, Doluwa, Sri Lanka	7.412597		මහනුවර	ගම්පොල	දොළුව මහා විද්‍යාලය	கண்டி	கம்போலா	டோலுவ மகா வித்தியாலயம்	5JP5+G82, දොළුව, ශ්‍රී ලංකාව	5 ஜேபி 5+ஜி 82, டோலுவா, இலங்கை
Kandy	Udadumbara	Udadumbara Secondary College	False	False	KNDYDDMBRDDMBRSCNDRYCLLG		Kandy	LK-21	7.27337	80.709602	Ududumbara	PS-210358	7.318133	80.8791	7.316615	80.878515	Udadumbara - Madiwaka Rd, Udadumbara, Sri Lanka	0.180761		මහනුවර	උඩදුම්බර	උඩදුම්බර ද්විතීයික විද්‍යාලය	கண்டி	உடதும்பரா	உடதும்பரா இரண்டாம் நிலை கல்லூரி	උඩදුම්බර - මඩිවක පාර, උඩදුම්බර, ශ්‍රී ලංකාව	உடதும்பரா - மதிவாகா சாலை, உடதும்பரா, இலங்கை
Kandy	Udadumbara	Mahinda Primary School	False	False	KNDYDDMBRMHNDPRMRYSCHL		Kandy	LK-21	7.27337	80.709602	Ududumbara	PS-210358	7.318133	80.8791	7.306372	80.903558	8W43+GCV, Udadumbara, Sri Lanka	2.998721		මහනුවර	උඩදුම්බර	මහින්ද ප්‍රාථමික විද්‍යාලය	கண்டி	உடதும்பரா	மஹிந்த தொடக்கப்பள்ளி	8W43+GCV, උඩදුම්බර, ශ්‍රී ලංකාව	8W43+GCV, உடதும்பரா, இலங்கை
Kandy	Kandy	Mahanama Vidyalaya	False	False	KNDYKNDYMHNMVDYLY		Kandy	LK-21	7.27337	80.709602	Kandy	PS-210101	7.292948	80.642368	7.272228	80.607279	396, 17 Peradeniya Rd, Kandy 20000, Sri Lanka	4.505525		මහනුවර	මහනුවර	මහානාම විද්‍යාලය	கண்டி	கண்டி	மகாநாம வித்யாலயா	396, 17 පේරාදෙණිය පාර, මහනුවර 20000, ශ්‍රී ලංකාව	396, 17 பேராதெனிய சாலை, கண்டி 20000, இலங்கை
Kandy	Kandy	Gurudeniya Central College	False	False	KNDYKNDYGRDNYCNTRLCLLG		Kandy	LK-21	7.27337	80.709602	Kandy	PS-210101	7.292948	80.642368	7.252506	80.690643	Talatuoya-Gurudeniya, Thalathuoya, Sri Lanka	6.971798		මහනුවර	මහනුවර	ගුරුදෙනිය මධ්‍ය විද්‍යාලය	கண்டி	கண்டி	குருதேனியா மத்திய கல்லூரி	තලාතුඔය-ගුරුදෙනිය, තලාතුඔය, ශ්‍රී ලංකාව	தலதுஓயா-குருதேனியா, தலத்துஓயா, இலங்கை
Kandy	Kandy	Mahamaya Balika Vidyalaya	False	False	KNDYKNDYMHMYBLKVDYLY		Kandy	LK-21	7.27337	80.709602	Kandy	PS-210101	7.292948	80.642368	7.286638	80.64566	Sangaraja Mawatha, Kandy, Sri Lanka	0.790271		මහනුවර	මහනුවර	මහාමායා බාලිකා විද්‍යාලය	கண்டி	கண்டி	மகாமாயா பாலிகா வித்யாலயா	සංඝරාජ මාවත, මහනුවර, ශ්‍රී ලංකාව	சங்கராஜா மாவத்தை, கண்டி, இலங்கை
Nuwara Eliya	Kotmale	Kotmale Hospital	False	False	NWRLYKTMLKTMLHSPTL		Nuwara Eliya	LK-23	6.97423	80.711222	Kotmale	PS-230134	7.063602	80.685054	7.062436	80.685675	Ramboda - Sangilipalama Rd, Kothmale New Town, Sri Lanka	0.146696		නුවරඑලිය	කොත්මලේ	කොත්මලේ රෝහල	நுவரெலியா	கொத்மலை	கொத்மலை மருத்துவமனை	රම්බොඩ - සංගිලිපාලම පාර, කොත්මලේ නව නගරය, ශ්‍රී ලංකාව	ரம்போடா - சங்கிலிபாலமா சாலை, கொத்தமலை புதிய நகரம், இலங்கை
Nuwara Eliya	Nanuoya	Pradeshiya Shabha - Nanuoya	False	False	NWRLYNNYPRDSHYSHBHNNY		Nuwara Eliya	LK-23	6.97423	80.711222	Nanuoya	PS-230133	6.939692	80.744185	6.942	80.745395	Nanuoya Rd, Nanuoya, Sri Lanka	0.289402		නුවරඑලිය	නානුඔය	ප්‍රාදේශීය සභාව - නානුඔය	நுவரெலியா	நானுஓயா	பிரதேச சபா - நான்ஓயா	නානුඔය පාර, නානුඔය, ශ්‍රී ලංකාව	நானுஓயா சாலை, நானுஓயா, இலங்கை
Matale	Dambulla	Sigiriya National College	False	False	MTLDMBLLSGRYNTNLCLLG		Matale	LK-22	7.667587	80.731008	Dambulla	PS-220128	7.86208	80.649166	7.957253	80.760037	Sigiriya, 8 Ela pahalawewa, Dambulla 21100, Sri Lanka	16.163764		මාතලේ	දඹුල්ල	සීගිරිය ජාතික විද්‍යාලය	மாத்தளை	தம்புள்ளை	சிகிரியா தேசிய கல்லூரி	සීගිරිය, 8 ඇල පහලවැව, දඹුල්ල 21100, ශ්‍රී ලංකාව	சிகிரியா, 8 எல பஹலவெவ, தம்புள்ள 21100, இலங்கை
Matale	Galewela	Galewela Hospital	False	False	MTLGLWLGLWLHSPTL		Matale	LK-22	7.667587	80.731008	Galewela	PS-220129	7.763244	80.574149	7.760542	80.571552	QH6C+6J7, Galewela, Sri Lanka	0.415026		මාතලේ	ගලේවෙල	ගලේවෙල රෝහල	மாத்தளை	கலேவெல	கலேவெல மருத்துவமனை	QH6C+6J7, ගලේවෙල, ශ්‍රී ලංකාව	QH6C+6J7, கலேவெல, இலங்கை
Matale	Galewela	Nilagama Viharaya - Bambaragaswewa	False	False	MTLGLWLNLGMVHRYBMBRGSWW		Matale	LK-22	7.667587	80.731008	Galewela	PS-220129	7.763244	80.574149	7.777961	80.536053	Nilagama, Moragolla - Dambagahamula Rd, Sri Lanka	4.506275		මාතලේ	ගලේවෙල	නිලගම විහාරය - බඹරගස්වැව	மாத்தளை	கலேவெல	நிலகம விகாரை - பம்பரகஸ்வெவ	නිලගම, මොරගොල්ල - දඹගහමුල පාර, ශ්‍රී ලංකාව	நிலகம, மொரகொல்ல - தம்பகஹாமுலா சாலை, இலங்கை
Matale	Naula	Sri Naga National College	False	False	MTLNLSRNGNTNLCLLG		Matale	LK-22	7.667587	80.731008	Naula	PS-220126	7.692051	80.64963	7.706636	80.656564	Elahera Road, Naula, Sri Lanka	1.793319		මාතලේ	නාවුලා	ශ්‍රී නාගා ජාතික විද්‍යාලය	மாத்தளை	நாவுலா	ஸ்ரீ நாகா தேசிய கல்லூரி	ඇලහැර පාර, නාඋල, ශ්‍රී ලංකාව	எலஹெரா சாலை, நாவுலா, இலங்கை
Matale	Naula	Nalanda Hospital	False	False	MTLNLNLNDHSPTL		Matale	LK-22	7.667587	80.731008	Naula	PS-220126	7.692051	80.64963	7.664927	80.636821	Nalanda, Kandy - Jaffna Hwy, Sri Lanka	3.331055		මාතලේ	නාවුලා	නාලන්දා රෝහල	மாத்தளை	நாவுலா	நாளந்தா மருத்துவமனை	නාලන්දා, මහනුවර - යාපනය හ්වි, ශ්‍රී ලංකාව	நாளந்தா, கண்டி - யாழ்ப்பாணம், இலங்கை
Matale	Naula	Kongahwela Hospital	False	False	MTLNLKNGHWLHSPTL		Matale	LK-22	7.667587	80.731008	Naula	PS-220126	7.692051	80.64963	7.682647	80.712102	MPM6+3R5, Kongahawela, Sri Lanka	6.965289		මාතලේ	නාවුලා	කෝන්ගහවෙල රෝහල	மாத்தளை	நாவுலா	கொங்கஹ்வேலா மருத்துவமனை	එම්පීඑම් 6+3 ආර් 5, කෝන්ගහවෙල, ශ්‍රී ලංකාව	MPM6+3R5, கொங்கஹவெல, இலங்கை
Matale	Rattota	Kaikawala Central College	False	False	MTLRTTTKKWLCNTRLCLLG		Matale	LK-22	7.667587	80.731008	Rattota	PS-220122	7.520684	80.678809	7.505709	80.663587	B274, kaikawela, Sri Lanka	2.364775		මාතලේ	රත්තොට	කයිකාවල මධ්‍ය මහා විද්‍යාලය	மாத்தளை	ரத்தோட்டா	கைகவாலா மத்திய கல்லூரி	බී 274, කයිකවෙල, ශ්‍රී ලංකාව	பி 274, கைகவேலா, இலங்கை
Matale	Matale	Aluvihara Aloka Rajamaha Viharaya	False	False	MTLMTLLVHRLKRJMHVHRY		Matale	LK-22	7.667587	80.731008	Matale	PS-220121	7.462789	80.626211	7.497726	80.621784	FJXC+3PV, Thotagamuwa, Sri Lanka	3.916586		මාතලේ	මාතලේ	අළුවිහාර ආලෝක රජමහා විහාරය	மாத்தளை	மாத்தளை	அலுவிஹார அலோக ராஜமஹா விஹாராயா	FJXC+3PV, තොටගමුව, ශ්‍රී ලංකාව	FJXC+3PV, தொட்டகமுவா, இலங்கை
Matale	Matale	St. Thomas College	False	False	MTLMTLSTTHMSCLLG		Matale	LK-22	7.667587	80.731008	Matale	PS-220121	7.462789	80.626211	7.470517	80.621246	Kings St, Matale, Sri Lanka	1.019177		මාතලේ	මාතලේ	ශාන්ත තෝමස් විද්‍යාලය	மாத்தளை	மாத்தளை	செயின்ட் தாமஸ் கல்லூரி	කිංග්ස් ශාන්ත, මාතලේ, ශ්‍රී ලංකාව	கிங்ஸ் செயின்ட், மாத்தளை, இலங்கை
Matale	Matale	Katudeniya Primary School	False	False	MTLMTLKTDNYPRMRYSCHL		Matale	LK-22	7.667587	80.731008	Matale	PS-220121	7.462789	80.626211	7.509599	80.647679	GJ5X+R3M, Matale, Sri Lanka	5.719667		මාතලේ	මාතලේ	කටුදෙණිය ප්‍රාථමික විද්‍යාලය	மாத்தளை	மாத்தளை	கட்டுதேனியா ஆரம்பப் பள்ளி	ජීජේ 5 එක්ස්+ආර් 3 එම්, මාතලේ, ශ්‍රී ලංකාව	GJ5X+R3M, மாத்தளை, இலங்கை
Matale	Matale	Leliabe Vidyalaya	False	False	MTLMTLLLBVDYLY		Matale	LK-22	7.667587	80.731008	Matale	PS-220121	7.462789	80.626211	7.475768	80.620534	Harasgama Rd, Matale, Sri Lanka	1.573571		මාතලේ	මාතලේ	ලීලියාබේ විද්‍යාලය	மாத்தளை	மாத்தளை	லீலியாபே வித்யாலயா	හරස්ගම පාර, මාතලේ, ශ්‍රී ලංකාව	ஹரஸ்கம வீதி, மாத்தளை, இலங்கை
Matale	Matale	Thenna Maha Vidyalaya	False	False	MTLMTLTHNNMHVDYLY		Matale	LK-22	7.667587	80.731008	Matale	PS-220121	7.462789	80.626211	7.437811	80.609941	Mt/Sri Saranankara Maha Vidyalaya, Udupihilla, Matale 21000, Sri Lanka	3.307405		මාතලේ	මාතලේ	තෙන්න මහා විද්‍යාලය	மாத்தளை	மாத்தளை	தென்னா மகா வித்தியாலயம்	කන්ද/ශ්‍රී සරණංකර මහා විද්‍යාලය, උඩුපිහිල්ල, මාතලේ 21000, ශ්‍රී ලංකාව	மவுண்ட்/ஸ்ரீ சரணங்கர மகா வித்தியாலயம், உடுப்பிஹில்லா, மாத்தளை 21000, இலங்கை
Matale	Mahawela	Pallepola Hospital	False	False	MTLMHWLPLLPLHSPTL		Matale	LK-22	7.667587	80.731008	Mahawela	PS-220123	7.589247	80.61027	7.627907	80.606017	Pallepola 21000, Sri Lanka	4.325634		මාතලේ	මහවෙල	පල්ලෙපොල රෝහල	மாத்தளை	மகாவெல	பல்லெபோலா மருத்துவமனை	පල්ලේපොල 21000, ශ්‍රී ලංකාව	பல்லெபோலா 21000, இலங்கை
Matale	Mahawela	Millawana Vidyalaya	False	False	MTLMHWLMLLWNVDYLY		Matale	LK-22	7.667587	80.731008	Mahawela	PS-220123	7.589247	80.61027	7.64828	80.575953	JHXG+898, Millawana, Sri Lanka	7.578214		මාතලේ	මහවෙල	මිල්ලවාන විද්‍යාලය	மாத்தளை	மகாவெல	மில்லானா வித்யாலயா	JHXG+898, මිල්ලවාන, ශ්‍රී ලංකාව	JHXG+898, மில்லவானா, இலங்கை
Matale	Yatawatta	Dullewa Maha Vidyalaya	False	False	MTLYTWTTDLLWMHVDYLY		Matale	LK-22	7.667587	80.731008	Yatawatta	PS-220124	7.563527	80.567967	7.507898	80.597512	GH5X+522, Matale, Sri Lanka	6.992881		මාතලේ	යටවත්ත	දුල්ලෑව මහා විද්‍යාලය	மாத்தளை	யதவத்த	துல்லேவா மகா வித்தியாலயம்	GH5X+522, මාතලේ, ශ්‍රී ලංකාව	GH5X+522, மாத்தளை, இலங்கை
Matale	Yatawatta	Udasgiriya Vidyalaya	False	False	MTLYTWTTDSGRYVDYLY		Matale	LK-22	7.667587	80.731008	Yatawatta	PS-220124	7.563527	80.567967	7.539384	80.578578	GHQH+QC4, Matale, Sri Lanka	2.92924		මාතලේ	යටවත්ත	උදස්ගිරිය විද්‍යාලය	மாத்தளை	யதவத்த	உதஸ்கிரிய வித்யாலயா	GHQH+QC4, මාතලේ, ශ්‍රී ලංකාව	GHQH+QC4, மாத்தளை, இலங்கை
Matale	Laggala	Mahakotuwa Vidyalaya	False	False	MTLLGGLMHKTWVDYLY		Matale	LK-22	7.667587	80.731008	Laggala	PS-220125	7.549634	80.835428	7.509599	80.647679	GJ5X+R3M, Matale, Sri Lanka	21.176714	#CenterFarFromPolice	මාතලේ	ලග්ගල	මහකොටුව විද්‍යාලය	மாத்தளை	லக்கலா	மஹாகொட்டுவ வித்யாலயா	ජීජේ 5 එක්ස්+ආර් 3 එම්, මාතලේ, ශ්‍රී ලංකාව	GJ5X+R3M, மாத்தளை, இலங்கை
Matale	Laggala	Puwakpitiya Vidyalaya	False	False	MTLLGGLPWKPTYVDYLY		Matale	LK-22	7.667587	80.731008	Laggala	PS-220125	7.549634	80.835428	7.588247	80.754967	Puwakpitiya, Illukkumbura 21406, Sri Lanka	9.856629		මාතලේ	ලග්ගල	පුවක්පිටිය විද්‍යාලය	மாத்தளை	லக்கலா	புவக்பிட்டிய வித்தியாலயம்	පුවක්පිටිය, ඉලුක්කුඹුර 21406, ශ්‍රී ලංකාව	புவக்பிட்டிய, இல்லுகும்புரா 21406, இலங்கை
Matale	Wilgamuwa	Hettipola Hospital	False	False	MTLWLGMWHTTPLHSPTL		Matale	LK-22	7.667587	80.731008	Wilgamuwa	PS-220127	7.542012	80.916496	7.540274	80.914435	GWR7+4Q3, Hettipola, Sri Lanka	0.298362		මාතලේ	විල්ගමුව	හෙට්ටිපොල රෝහල	மாத்தளை	வில்கமுவா	ஹெட்டிபொல மருத்துவமனை	GWR7+4Q3, හෙට්ටිපොල, ශ්‍රී ලංකාව	GWR7+4Q3, ஹெட்டிபொல, இலங்கை
Matale	Wilgamuwa	Handungamuwa Hospital	False	False	MTLWLGMWHNDNGMWHSPTL		Matale	LK-22	7.667587	80.731008	Wilgamuwa	PS-220127	7.542012	80.916496	7.631848	80.927985	JWJH+P5Q, Matale, Sri Lanka	10.072414		මාතලේ	විල්ගමුව	හඳුන්ගමුව රෝහල	மாத்தளை	வில்கமுவா	ஹந்துங்கமுவ மருத்துவமனை	JWJH+P5Q, මාතලේ, ශ්‍රී ලංකාව	JWJH+P5Q, மாத்தளை, இலங்கை
Matale	Wilgamuwa	Nugagolla Centarl College	False	False	MTLWLGMWNGGLLCNTRLCLLG		Matale	LK-22	7.667587	80.731008	Wilgamuwa	PS-220127	7.542012	80.916496	7.632376	80.927241	JWJG+XV5, Matale, Sri Lanka	10.12075		මාතලේ	විල්ගමුව	නුගගොල්ල සෙන්ටර්ල් විද්‍යාලය	மாத்தளை	வில்கமுவா	நாககொல்லா சென்டர்ல் கல்லூரி	JWJG+XV5, මාතලේ, ශ්‍රී ලංකාව	JWJG+XV5, மாத்தளை, இலங்கை
Badulla	Badulla	Army Base Hospital - Badulla	False	True	BDLLBDLLRMYBSHSPTLBDLL		Badulla	LK-81	7.074529	81.04486	Badulla	PS-810101	6.991337	81.055246	6.991808	81.05235	Daya Gunasekara Mawatha, Badulla, Sri Lanka	0.32399		බදුල්ල	බදුල්ල	හමුදා මුලික රෝහල - බදුල්ල	பதுளை	பதுளை	இராணுவ அடிப்படை மருத்துவமனை - பதுளை	දයා ගුණසේකර මාවත, බදුල්ල, ශ්‍රී ලංකාව	தயா குணசேகர மாவத்தை, பதுளை, இலங்கை
Badulla	Uva Paranagama	Uva Paranagama Hospital	False	False	BDLLVPRNGMVPRNGMHSPTL	Divisional Hospital - Uva Paranagama	Badulla	LK-81	7.074529	81.04486	Uvaparanagama	PS-810213	6.958341	80.930364	6.938076	80.890525	Rendapola-Galahagama-Ambagasdowa Rd, Himbiliyagahamadiththa, Sri Lanka	4.942648		බදුල්ල	Vaව පරණගම	ප්‍රාදේශීය රෝහල - vaව පරණගම	பதுளை	ஊவ பரணகம	பிரதேச மருத்துவமனை - ஊவா பரணகம	රෙන්ඳපොල-ගලහගම-අඹගස්දෝව පාර, හිම්බිලියගහමදිත්ත, ශ්‍රී ලංකාව	ரெண்டபொல-கலஹகம-அம்பகஸ்தோவ வீதி, ஹிம்பிலியகஹமாதித்த, இலங்கை
Badulla	Haldummulla	Ohio Udaweriya College	False	False	BDLLHLDMMLLHDWRYCLLG		Badulla	LK-81	7.074529	81.04486	Haldummulla		6.762216	80.885856					#CenterLocationUnknown	බදුල්ල	හල්දුම්මුල්ල	ඔහියෝ උඩවේරිය විද්‍යාලය	பதுளை	ஹல்தும்முல்லா	ஓஹியோ உடவேரிய கல்லூரி		
Badulla	Haldummulla	Ella Halpe Tea Factory	False	False	BDLLHLDMMLLLLHLPTFCTRY		Badulla	LK-81	7.074529	81.04486	Haldummulla		6.762216	80.885856	6.889288	81.034507	Uva Halpewatte Tea Factory, Badulla Road, Hela Halpe, Ella, Sri Lanka 90090, Sri Lanka	21.663355	#CenterFarFromPolice	බදුල්ල	හල්දුම්මුල්ල	ඇල්ල හල්පේ තේ කර්මාන්ත ශාලාව	பதுளை	ஹல்தும்முல்லா	எல்ல ஹல்பே தேயிலை தொழிற்சாலை	Vaව හල්පෙවත්ත තේ කර්මාන්ත ශාලාව, බදුල්ල පාර, හෙළ හල්පේ, ඇල්ල, ශ්‍රී ලංකාව 90090, ශ්‍රී ලංකාව	ஊவா ஹல்பேவத்தை தேயிலை தொழிற்சாலை, பதுல்லா சாலை, ஹெலா ஹல்பே, எல்லா, இலங்கை 90090, இலங்கை
Badulla	Haputale	MOH Office - Haputale	False	False	BDLLHPTLMHFFCHPTL		Badulla	LK-81	7.074529	81.04486	Haputale	PS-810215	6.767653	80.957218	6.779645	80.964114	QXH7+WC4, Badulla, Sri Lanka	1.536024		බදුල්ල	හපුතලේ	MOH කාර්යාලය - හපුතලේ	பதுளை	ஹப்புதலே	MOH அலுவலகம் - ஹப்புத்தளை	QXH7+WC4, බදුල්ල, ශ්‍රී ලංකාව	QXH7+WC4, பதுளை, இலங்கை
Moneragala	Bibila	Bibila Cultural Centre	False	False	MNRGLBBLBBLCLTRLCNTR		Moneragala	LK-82	6.787517	81.303744	Bibila	PS-820125	7.165232	81.225463	7.162409	81.22159	Bibile, Sri Lanka	0.530371		මොණරාගල	බිබිල	බිබිල සංස්කෘතික මධ්‍යස්ථානය	மொனராகலை	பிபிலா	பிபிலா கலாச்சார மையம்	බිබිලේ, ශ්‍රී ලංකාව	பிபிலே, இலங்கை
Galle	Elpitiya	Elpitiya Base Hospital	False	False	GLLLPTYLPTYBSHSPTL		Galle	LK-31	6.222805	80.251977	Elpitiya	PS-310235	6.279163	80.142917	6.2933	80.164066	Elpitiya 80400, Sri Lanka	2.817811		ගාල්ල	ඇල්පිටිය	ඇල්පිටිය මූලික රෝහල	காலி	எல்பிட்டிய	எல்பிட்டிய அடிப்படை மருத்துவமனை	ඇල්පිටිය 80400, ශ්‍රී ලංකාව	எல்பிட்டிய 80400, இலங்கை
Galle	Elpitiya	MOH Office - Elpitiya	False	False	GLLLPTYMHFFCLPTY		Galle	LK-31	6.222805	80.251977	Elpitiya	PS-310235	6.279163	80.142917	6.295308	80.164521	75W7+4RC, Elpitiya, Sri Lanka	2.98833		ගාල්ල	ඇල්පිටිය	MOH කාර්යාලය - ඇල්පිටිය	காலி	எல்பிட்டிய	MOH அலுவலகம் - எல்பிட்டிய	75W7+4RC, ඇල්පිටිය, ශ්‍රී ලංකාව	75W7+4RC, எல்பிட்டிய, இலங்கை
Galle	Ambalangoda	Manana Community Hall	False	False	GLLMBLNGDMNNCMMNTYHLL		Galle	LK-31	6.222805	80.251977	Ambalangoda	PS-310243	6.244958	80.047598	6.239826	80.052609	Main St, Ambalangoda, Sri Lanka	0.795512		ගාල්ල	අම්බලන්ගොඩ	මනානා ප්‍රජා ශාලාව	காலி	அம்பலங்கொட	மனனா சமுதாய கூடம்	ප්‍රධාන ශාන්ත, අම්බලන්ගොඩ, ශ්‍රී ලංකාව	பிரதான செயின்ட், அம்பலங்கொட, இலங்கை
Matara	Weligama	Weligama Marriott Hotel	False	False	MTRWLGMWLGMMRRTTHTL		Matara	LK-32	6.142734	80.539994	Weligama	PS-320111	5.973301	80.426455	5.972906	80.438992	700 Matara Rd, Weligama 81700, Sri Lanka	1.387613		මාතර	වැලිගම	වැලිගම මැරියට් හෝටලය	மாத்தறை	வெலிகம	வெலிகம மேரியட் ஹோட்டல்	700 මාතර පාර, වැලිගම 81700, ශ්‍රී ලංකාව	700 மாத்தறை வீதி, வெலிகம 81700, இலங்கை
Matara	Deniyaya	MOH Office - Kotapola	False	False	MTRDNYYMHFFCKTPL		Matara	LK-32	6.142734	80.539994	Deniyaya	PS-320110	6.341435	80.558719	6.327334	80.556547	Deniyaya - Galle Main Rd, Deniyaya, Sri Lanka	1.586725		මාතර	දෙනියාය	MOH කාර්යාලය - කොටපොළ	மாத்தறை	தெனியாய	MOH அலுவலகம் - கொட்டபொல	දෙනියාය - ගාල්ල ප්‍රධාන පාර, දෙනියාය, ශ්‍රී ලංකාව	தெனியாயா - காலி மெயின் சாலை, தெனியாயா, இலங்கை
Hambantota	Walasmulla	MOH Office - Walasmulla	False	False	HMBNTTWLSMLLMHFFCWLSMLL		Hambantota	LK-33	6.259779	81.098619	Walasmulla	PS-330151	6.154102	80.698256	6.150889	80.693718	Walasmulla, Sri Lanka	0.616099		හම්බන්තොට	වලස්මුල්ල	MOH කාර්යාලය - වලස්මුල්ල	அம்பாந்தோட்டை	வலஸ்முல்லா	MOH அலுவலகம் - வலஸ்முல்லா	වලස්මුල්ල, ශ්‍රී ලංකාව	வலஸ்முல்லா, இலங்கை
Hambantota	Lunugamvehera	Pahala Maththala Primary School	False	False	HMBNTTLNGMVHRPHLMTHTHLPRMRYSCHL		Hambantota	LK-33	6.259779	81.098619	Lunugamwehera	PS-330160	6.341544	81.202699	6.310806	81.106907	Mattala - Lunugamwehera Old Rd, Mattala, Sri Lanka	11.128277		හම්බන්තොට	ලුණුගම්වෙහෙර	පහළ මත්තල ප්‍රාථමික විද්‍යාලය	அம்பாந்தோட்டை	லுனுகம்வெஹெரா	பஹல மத்தல ஆரம்பப் பள்ளி	මත්තල - ලුණුගම්වෙහෙර පැරණි පාර, මත්තල, ශ්‍රී ලංකාව	மத்தள - லுனுகம்வெஹெரா பழைய வீதி, மத்தள, இலங்கை
Hambantota	Tangalle	MOH Office - Tangalle	False	False	HMBNTTTNGLLMHFFCTNGLL		Hambantota	LK-33	6.259779	81.098619	Tangalle	PS-330147	6.023954	80.797255	6.02363	80.795742	2QFW+F75, Tangalle, Sri Lanka	0.171198		හම්බන්තොට	තංගල්ල	MOH කාර්යාලය - තංගල්ල	அம்பாந்தோட்டை	தங்காலை	MOH அலுவலகம் - தங்காலை	2QFW+F75, තංගල්ල, ශ්‍රී ලංකාව	2QFW+F75, தங்காலை, இலங்கை
Hambantota	Katuwana	Katuwana Primary School	False	False	HMBNTTKTWNKTWNPRMRYSCHL		Hambantota	LK-33	6.259779	81.098619	Katuwana	PS-330153	6.269722	80.690963					#CenterLocationUnknown	හම්බන්තොට	කටුවන	කටුවන ප්‍රාථමික විද්‍යාලය	அம்பாந்தோட்டை	கட்டுவானா	கட்டுவானா ஆரம்பப் பள்ளி		
Hambantota	Agunukolapelessa	MH Office - Agunukolapelessa	False	False	HMBNTTGNKLPLSSMHFFCGNKLPLSS		Hambantota	LK-33	6.259779	81.098619	Angunakolapelessa	PS-330150	6.321993	80.844883	6.146942	80.896312	Ranna - Ebilipitiya Rd, Agunukolapelessa, Sri Lanka	20.284309	#CenterFarFromPolice	හම්බන්තොට	අගුණුකොලපැලැස්ස	එම්එච් කාර්යාලය - අගුණුකොලපැලැස්ස	அம்பாந்தோட்டை	அகுணுகோலாபெலெஸ்ஸா	எம்எச் அலுவலகம் - அகுனுகோலபெலஸ்ஸா	රන්න - ඇඹිලිපිටිය පාර, අගුණුකොලපැලැස්ස, ශ්‍රී ලංකාව	ரன்னா - எபிலிப்பிட்டிய சாலை, அகுணுகொலபெலஸ்ஸா, இலங்கை
Hambantota	Sooriyawewa	Andawewa Viharaya	False	False	HMBNTTSRYWWNDWWVHRY		Hambantota	LK-33	6.259779	81.098619	Sooriyawewa	PS-330155	6.306022	81.003873	6.194762	80.94959	5WVX+WR4, Hambantota, Sri Lanka	13.7541		හම්බන්තොට	සූරියවැව	අන්දවැව විහාරය	அம்பாந்தோட்டை	சூரியவெவ	அந்தவெவ விஹாராயா	5WVX+WR4, හම්බන්තොට, ශ්‍රී ලංකාව	5WVX+WR4, ஹம்பாந்தோட்டை, இலங்கை
Hambantota	Sooriyawewa	Thelawilla Sri Pushparamaya	False	False	HMBNTTSRYWWTHLWLLSRPSHPRMY		Hambantota	LK-33	6.259779	81.098619	Sooriyawewa	PS-330155	6.306022	81.003873	6.227191	81.042228	62GR+VVH, Hambantota, Sri Lanka	9.740015		හම්බන්තොට	සූරියවැව	තෙලවිල්ල ශ්‍රී පුෂ්පාරාමය	அம்பாந்தோட்டை	சூரியவெவ	தெலவில்லா ஸ்ரீ புஷ்பராமையா	62GR+VVH, හම්බන්තොට, ශ්‍රී ලංකාව	62GR+VVH, ஹம்பாந்தோட்டை, இலங்கை
Hambantota	Beliatta	MOH Office - Beliatta	False	False	HMBNTTBLTTMHFFCBLTT		Hambantota	LK-33	6.259779	81.098619	Beliatta	PS-330152	6.046936	80.735408	6.051828	80.741735	3P2R+PMQ, Hambantota, Sri Lanka	0.886482		හම්බන්තොට	බෙලිඅත්ත	MOH කාර්යාලය - බෙලිඅත්ත	அம்பாந்தோட்டை	பெலியாட்டா	MOH அலுவலகம் - பெலியாட்ட	3P2R+PMQ, හම්බන්තොට, ශ්‍රී ලංකාව	3P2R+PMQ, ஹம்பாந்தோட்டை, இலங்கை
Rathnapura	Balangoda	Polwathugoda Viharaya	False	False	RTHNPRBLNGDPLWTHGDVHRY		Ratnapura	LK-91	6.586826	80.566158	Balangoda	PS-910103	6.649474	80.700276	6.668931	80.638581	Massenne Waththa, Massenna, Balangoda., Meddekanda Rd, Sri Lanka	7.151363		රත්නපුර	බලන්ගොඩ	පොල්වතුගොඩ විහාරය	இரத்தினபுரி	பலாங்கொடை	பொல்வத்துகொட விஹாராயா	මැසෙන් වත්තා, මස්සැන්න, බලංගොඩ., මැද්දෙකන්ද පාර, ශ්‍රී ලංකාව	மசென்னே வத்தா, மாசென்னா, பலாங்கொட., மெடேகண்டா சாலை, இலங்கை
Rathnapura	Balangoda	Vikiliya Tea Factory	False	False	RTHNPRBLNGDVKLYTFCTRY		Ratnapura	LK-91	6.586826	80.566158	Balangoda	PS-910103	6.649474	80.700276	6.628321	80.714799	Randola Road, Balangoda, Sri Lanka	2.847892		රත්නපුර	බලන්ගොඩ	විකිලිය තේ කම්හල	இரத்தினபுரி	பலாங்கொடை	விக்கிலியா தேயிலை தொழிற்சாலை	රන්දොල පාර, බලංගොඩ, ශ්‍රී ලංකාව	ரந்தோலா சாலை, பலாங்கொடை, இலங்கை
Rathnapura	Balangoda	Boskomibe Tea Factory	False	False	RTHNPRBLNGDBSKMBTFCTRY		Ratnapura	LK-91	6.586826	80.566158	Balangoda	PS-910103	6.649474	80.700276	6.628321	80.714799	Randola Road, Balangoda, Sri Lanka	2.847892		රත්නපුර	බලන්ගොඩ	බොස්කොමිබේ තේ කර්මාන්ත ශාලාව	இரத்தினபுரி	பலாங்கொடை	போஸ்கோமிப் தேயிலை தொழிற்சாலை	රන්දොල පාර, බලංගොඩ, ශ්‍රී ලංකාව	ரந்தோலா சாலை, பலாங்கொடை, இலங்கை
Rathnapura	Balangoda	Wewewatta Tea Factory	False	False	RTHNPRBLNGDWWWTTTFCTRY		Ratnapura	LK-91	6.586826	80.566158	Balangoda	PS-910103	6.649474	80.700276	6.628321	80.714799	Randola Road, Balangoda, Sri Lanka	2.847892		රත්නපුර	බලන්ගොඩ	වැවවත්ත තේ කම්හල	இரத்தினபுரி	பலாங்கொடை	வெவெவத்த தேயிலை தொழிற்சாலை	රන්දොල පාර, බලංගොඩ, ශ්‍රී ලංකාව	ரந்தோலா சாலை, பலாங்கொடை, இலங்கை
Rathnapura	Balangoda	Asiri Tea Factory	False	False	RTHNPRBLNGDSRTFCTRY		Ratnapura	LK-91	6.586826	80.566158	Balangoda	PS-910103	6.649474	80.700276	6.668818	80.715813	Ellearawa Pinnawala Bogawantalawa Rd, Balangoda, Sri Lanka	2.752513		රත්නපුර	බලන්ගොඩ	ආසිරි තේ කර්මාන්ත ශාලාව	இரத்தினபுரி	பலாங்கொடை	ஆசிரி தேயிலை தொழிற்சாலை	එල්ලේරාව පින්නවල බගවන්තලාව පාර, බලංගොඩ, ශ්‍රී ලංකාව	எல்லேராவ பின்னவல பொகவந்தலாவ வீதி, பலாங்கொடை, இலங்கை
Rathnapura	Imbulpe	Ratmalawinna Vidyalaya	False	False	RTHNPRMBLPRTMLWNNVDYLY		Ratnapura	LK-91	6.586826	80.566158	Imbulpe		6.688314	80.743773	6.676503	80.7256	Ratmalawinna, Sri Lanka	2.399281		රත්නපුර	ඉඹුල්පේ	රත්මලාවින්න විද්‍යාලය	இரத்தினபுரி	இம்புல்பே	ரத்மாலவின்னா வித்யாலயா	රත්මලාවින්න, ශ්‍රී ලංකාව	ரத்மாலவின்னா, இலங்கை
Rathnapura	Rathnapura	Sumana Balika Vidyalaya	False	False	RTHNPRRTHNPRSMNBLKVDYLY		Ratnapura	LK-91	6.586826	80.566158	Ratnapura	PS-910101	6.679456	80.40223	6.679009	80.391964	212 Pothgul Vihara Mawatha, Ratnapura, Sri Lanka	1.135225		රත්නපුර	රත්නපුර	සුමනා බාලිකා විද්‍යාලය	இரத்தினபுரி	இரத்தினபுரி	சுமனா பாலிகா வித்யாலயா	212 පොත්ගුල් විහාර මාවත, රත්නපුර, ශ්‍රී ලංකාව	212 பொத்குல் விஹார மாவத்தை, இரத்தினபுரி, இலங்கை
Rathnapura	Kolonna	Nandanagama Viharaya	False	False	RTHNPRKLNNNNDNGMVHRY		Ratnapura	LK-91	6.586826	80.566158	Kolonna	PS-910235	6.40194	80.687615	6.440955	80.759711	Pelmadulla - Embilipitiya Hwy, Ratnapura, Sri Lanka	9.074016		රත්නපුර	කොළොන්න	නන්දනගම විහාරය	இரத்தினபுரி	கொலோன்னா	நந்தனாகம விஹாராயா	පැල්මඩුල්ල - ඇඹිලිපිටිය හ්වි, රත්නපුර, ශ්‍රී ලංකාව	பெல்மதுல்லா - எம்பிலிப்பிட்டிய ஹ்வி, இரத்தினபுரி, இலங்கை
Rathnapura	Godakawela	Siddhartha Vidyalaya	False	False	RTHNPRGDKWLSDDHRTHVDYLY		Ratnapura	LK-91	6.586826	80.566158	Godakawela	PS-910233	6.50224	80.655642	6.504312	80.645764	Godakawela, Sri Lanka	1.115721		රත්නපුර	ගොඩකවෙල	සිද්ධාර්ථ විද්‍යාලය	இரத்தினபுரி	கோடகவேலா	சித்தார்த்த வித்யாலயா	ගොඩකවෙල, ශ්‍රී ලංකාව	கோடகவேலா, இலங்கை
Rathnapura	Godakawela	Demuwatha Vidyalaya	False	False	RTHNPRGDKWLDMWTHVDYLY		Ratnapura	LK-91	6.586826	80.566158	Godakawela	PS-910233	6.50224	80.655642	6.504468	80.5818	Demuwawatha Rd, Sri Lanka	8.164344		රත්නපුර	ගොඩකවෙල	දෙමුවත විද්‍යාලය	இரத்தினபுரி	கோடகவேலா	தேமுவத வித்யாலயா	දෙමුවාවත පාර, ශ්‍රී ලංකාව	தேமுவவத்த சாலை, இலங்கை
Rathnapura	Kuttigala	Gunanandarama Viharaya	False	False	RTHNPRKTTGLGNNNDRMVHRY		Ratnapura	LK-91	6.586826	80.566158	Kuttigala	PS-910238	6.260475	80.907389	6.278259	80.888278	In front of Gunanandarama Temple, Embilipitiya 70205, Sri Lanka	2.894501		රත්නපුර	කුට්ටිගල	ගුණනන්දාරාම විහාරය	இரத்தினபுரி	குட்டிகலா	குணானந்தராம விஹாராயா	70205, ඇඹිලිපිටිය, ගුණනන්දාරාම පන්සල ඉදිරිපිට, ශ්‍රී ලංකාව	இலங்கை, எம்பிலிப்பிட்டிய 70205, குணானந்தராம கோவிலுக்கு முன்னால்
Rathnapura	Kuruwita	Pohorabawa Vidyalaya	False	False	RTHNPRKRWTPHRBWVDYLY		Ratnapura	LK-91	6.586826	80.566158	Kuruwita	PS-910112	6.778839	80.364712	6.799357	80.312954	Pohorabawa, Sri Lanka	6.155385		රත්නපුර	කුරුවිට	පොහොරබව විද්‍යාලය	இரத்தினபுரி	குருவிடா	போஹோராபாவா வித்யாலயா	පොහොරබාවා, ශ්‍රී ලංකාව	போஹோராபாவா, இலங்கை
Rathnapura	Kuruwita	Mudunkattuwa East Vidyalaya	False	False	RTHNPRKRWTMDNKTTWSTVDYLY		Ratnapura	LK-91	6.586826	80.566158	Kuruwita	PS-910112	6.778839	80.364712	6.776404	80.305578	Mudunkotuwa E Rd, Ratnapura, Sri Lanka	6.537113		රත්නපුර	කුරුවිට	මුදුන්කට්ටුව නැගෙනහිර විද්‍යාලය	இரத்தினபுரி	குருவிடா	முடுங்கத்துவ கிழக்கு வித்தியாலயம்	මුදුන්කොටුව ඊ පාර, රත්නපුර, ශ්‍රී ලංකාව	முடுங்கொட்டுவ மின் சாலை, இரத்தினபுரி, இலங்கை
Rathnapura	Kuruwita	Walandura Viharaya	False	False	RTHNPRKRWTWLNDRVHRY		Ratnapura	LK-91	6.586826	80.566158	Kuruwita	PS-910112	6.778839	80.364712	6.778114	80.366735	Kuruwita Erathna Rd, Kuruwita, Sri Lanka	0.237552		රත්නපුර	කුරුවිට	වලඳුර විහාරය	இரத்தினபுரி	குருவிடா	வாலாந்துரா விஹாராயா	කුරුවිට එරත්න පාර, කුරුවිට, ශ්‍රී ලංකාව	குருவிட எரத்னா சாலை, குருவிட, இலங்கை
Rathnapura	Kuruwita	Bosath Asapuwa Viharaya	False	False	RTHNPRKRWTBSTHSPWVHRY		Ratnapura	LK-91	6.586826	80.566158	Kuruwita	PS-910112	6.778839	80.364712	6.796899	80.364714	Agalawatta, HiggasHena - Devipahala Road, Kuruwita, Sri Lanka	2.008811		රත්නපුර	කුරුවිට	බෝසත් අසපුව විහාරය	இரத்தினபுரி	குருவிடா	போசாத் அசபுவா விஹாராயா	අගලවත්ත, හිග්ගස්හේන - දෙවිපහල පාර, කුරුවිට, ශ්‍රී ලංකාව	அகலவத்த, ஹிக்காஸ்ஹேனா - தேவிபஹலா சாலை, குருவிட, இலங்கை
Rathnapura	Nivithigala	Brighton Tamil College	False	False	RTHNPRNVTHGLBRGHTNTMLCLLG		Ratnapura	LK-91	6.586826	80.566158	Nivithigala	PS-910111	6.592765	80.459492	6.596655	80.456909	Tiruwanaketiya-Agalawatte Rd, Nivithigala, Sri Lanka	0.518275		රත්නපුර	නිවිතිගල	බ්‍රයිටන් දෙමළ විද්‍යාලය	இரத்தினபுரி	நிவித்திகலா	பிரைட்டன் தமிழ் கல்லூரி	තිරුවානකැටිය-අගලවත්ත පාර, නිවිතිගල, ශ්‍රී ලංකාව	திருவனகெட்டிய-அகலவத்தை சாலை, நிவிதிகலா, இலங்கை
Rathnapura	Nivithigala	Udakarawita Primary School	False	False	RTHNPRNVTHGLDKRWTPRMRYSCHL		Ratnapura	LK-91	6.586826	80.566158	Nivithigala	PS-910111	6.592765	80.459492	6.583294	80.41945	Karawita, Sri Lanka	4.54814		රත්නපුර	නිවිතිගල	උඩකරවිට ප්‍රාථමික විද්‍යාලය	இரத்தினபுரி	நிவித்திகலா	உதகரவிட்ட ஆரம்பப் பள்ளி	කරවිට, ශ්‍රී ලංකාව	கரவிட்டா, இலங்கை
Rathnapura	Kalawana	Sisiliya Tea Factory	False	False	RTHNPRKLWNSSLYTFCTRY		Ratnapura	LK-91	6.586826	80.566158	Kalawana	PS-910110	6.530738	80.390719	6.534753	80.383675	G9MM+WF3, Thapassarakanda, Sri Lanka	0.897425		රත්නපුර	කලවාන	සිසිලියා තේ කර්මාන්ත ශාලාව	இரத்தினபுரி	கலவானா	சிசிலியா தேயிலை தொழிற்சாலை	ජී 9 එම්එම්+ඩබ්ලිව්එෆ් 3, තපස්සරකන්ද, ශ්‍රී ලංකාව	G9MM+WF3, தபசரகந்தா, இலங்கை
Rathnapura	Kalawana	Galaxy Tea Factory	False	False	RTHNPRKLWNGLXYTFCTRY		Ratnapura	LK-91	6.586826	80.566158	Kalawana	PS-910110	6.530738	80.390719	6.531714	80.396482	nawalakanda, Kalawana 70469, Sri Lanka	0.646044		රත්නපුර	කලවාන	ගැලැක්සි තේ කම්හල	இரத்தினபுரி	கலவானா	கேலக்ஸி டீ தொழிற்சாலை	නාවලකන්ද, කලවාන 70469, ශ්‍රී ලංකාව	நாவலகந்தா, கலவானா 70469, இலங்கை
Rathnapura	Kalawana	Kalawana Tea Factory	False	False	RTHNPRKLWNKLWNTFCTRY		Ratnapura	LK-91	6.586826	80.566158	Kalawana	PS-910110	6.530738	80.390719	6.531766	80.38899	G9JQ+PH5, Kalawana 70450, Sri Lanka	0.222669		රත්නපුර	කලවාන	කලවාන තේ කර්මාන්ත ශාලාව	இரத்தினபுரி	கலவானா	கலவானா தேயிலை தொழிற்சாலை	G9JQ+PH5, කලවාන 70450, ශ්‍රී ලංකාව	G9JQ+PH5, கலவானா 70450, இலங்கை
Rathnapura	Ayagama	Seelarathana Vidyalaya	False	False	RTHNPRYGMSLRTHNVDYLY		Ratnapura	LK-91	6.586826	80.566158	Ayagama	PS-910109	6.637727	80.312554	6.57224	80.358545	Ayagama-Kukulegama Rd, Nikagoda, Sri Lanka	8.881502		රත්නපුර	අයගම	සීලරතන විද්‍යාලය	இரத்தினபுரி	அயகம	சீலரதன வித்யாலயா	අයගම-කුකුලේගම පාර, නිකගොඩ, ශ්‍රී ලංකාව	அயகம-குக்குலேகம வீதி, நிகாகொட, இலங்கை
Rathnapura	Kiriella	Epitawela Maha Vidyalaya	False	False	RTHNPRKRLLPTWLMHVDYLY		Ratnapura	LK-91	6.586826	80.566158	Kiriella	PS-910114	6.735338	80.276481	6.743776	80.240076	P6VR+G28, Ratnapura, Sri Lanka	4.129415		රත්නපුර	කිරිඇල්ල	එපිටවෙල මහා විද්‍යාලය	இரத்தினபுரி	கிரியெல்லா	எபிடவெல மகா வித்தியாலயம்	පී 6 වීආර්+ජී 28, රත්නපුර, ශ්‍රී ලංකාව	P6VR+G28, இரத்தினபுரி, இலங்கை
Rathnapura	Kiriella	Dumbara Tea Factory	False	False	RTHNPRKRLLDMBRTFCTRY		Ratnapura	LK-91	6.586826	80.566158	Kiriella	PS-910114	6.735338	80.276481	6.695043	80.227281	Dumbara Manana, Sri Lanka	7.044659		රත්නපුර	කිරිඇල්ල	දුම්බර තේ කර්මාන්ත ශාලාව	இரத்தினபுரி	கிரியெல்லா	தும்பரா தேயிலை தொழிற்சாலை	දුම්බර මනන, ශ්‍රී ලංකාව	தும்பரா மனனா, இலங்கை
Rathnapura	Kiriella	Dumbara Rubber Factory	False	False	RTHNPRKRLLDMBRRBBRFCTRY		Ratnapura	LK-91	6.586826	80.566158	Kiriella	PS-910114	6.735338	80.276481	6.74486	80.248221	Kiriella, Hadunkanda Rd, Sri Lanka	3.296412		රත්නපුර	කිරිඇල්ල	දුම්බර රබර් කර්මාන්ත ශාලාව	இரத்தினபுரி	கிரியெல்லா	தும்பரா ரப்பர் தொழிற்சாலை	කිරිඇල්ල, හදුන්කන්ද පාර, ශ්‍රී ලංකාව	கிரியெல்லா, ஹடுங்கண்டா சாலை, இலங்கை
Rathnapura	Kiriella	Dumbara Vidyalaya	False	False	RTHNPRKRLLDMBRVDYLY		Ratnapura	LK-91	6.586826	80.566158	Kiriella	PS-910114	6.735338	80.276481	6.726255	80.212907	Dumbara Rd, Sri Lanka	7.094889		රත්නපුර	කිරිඇල්ල	දුම්බර විද්‍යාලය	இரத்தினபுரி	கிரியெல்லா	தும்பரா வித்யாலயா	දුම්බර පාර, ශ්‍රී ලංකාව	தும்பரா சாலை, இலங்கை
Rathnapura	Kahawatta	Bungiriya Vidyalaya	False	False	RTHNPRKHWTTBNGRYVDYLY		Ratnapura	LK-91	6.586826	80.566158	Kahawatta	PS-910107	6.591434	80.56893	6.555967	80.563288	Bungiriya, Sri Lanka	3.993946		රත්නපුර	කහවත්ත	බංගිරිය විද්‍යාලය	இரத்தினபுரி	கஹவத்த	பங்கிரிய வித்யாலயா	බංගිරිය, ශ්‍රී ලංකාව	பங்கிரியா, இலங்கை
Rathnapura	Kahawatta	Pilana Vidyalaya	False	False	RTHNPRKHWTTPLNVDYLY		Ratnapura	LK-91	6.586826	80.566158	Kahawatta	PS-910107	6.591434	80.56893	6.594629	80.579426	HHVH+VQ3, රත්නපුර, Sri Lanka	1.212975		රත්නපුර	කහවත්ත	පිලාන විද්‍යාලය	இரத்தினபுரி	கஹவத்த	பிலானா வித்யாலயா	HHVH+VQ3, රත්නපුර, ශ්‍රී ලංකාව	HHVH+VQ3, ரத்னபுரம், இலங்கை
Rathnapura	Kahawatta	Kotakethana Vidyalaya	False	False	RTHNPRKHWTTKTKTHNVDYLY		Ratnapura	LK-91	6.586826	80.566158	Kahawatta	PS-910107	6.591434	80.56893	6.5726	80.587007	Kotakethana, kahawatta., Pelmadulla - Embilipitiya Hwy, Sri Lanka	2.894474		රත්නපුර	කහවත්ත	කොටකෙතන විද්‍යාලය	இரத்தினபுரி	கஹவத்த	கோடகேதன வித்யாலயா	කොටකෙතන, කහවත්ත., පැල්මඩුල්ල - ඇඹිලිපිටිය හ්වි, ශ්‍රී ලංකාව	கோடகேதன, கஹவத்த., பெல்மடுல்லா - எம்பிலிப்பிட்டிய ஹ்வை, இலங்கை
Rathnapura	Kahawatta	Nawalakanda Vidyalaya	False	False	RTHNPRKHWTTNWLKNDVDYLY		Ratnapura	LK-91	6.586826	80.566158	Kahawatta	PS-910107	6.591434	80.56893	6.54544	80.540911	Manandola - Endana Rd, Kahawatta 70154, Sri Lanka	5.979822		රත්නපුර	කහවත්ත	නාවලකන්ද විද්‍යාලය	இரத்தினபுரி	கஹவத்த	நாவலகந்தா வித்தியாலயம்	මානන්දොල - එන්දන පාර, කහවත්ත 70154, ශ්‍රී ලංකාව	மனந்தோலா - எண்டானா சாலை, கஹவத்த 70154, இலங்கை
Rathnapura	Wewelwatta	Galabada Tamil College	False	False	RTHNPRWWLWTTGLBDTMLCLLG		Ratnapura	LK-91	6.586826	80.566158	Wewalwatta	PS-910102	6.707202	80.555569	6.70638	80.46859	Ratnapura-Wewelwatte Rd, Galabada, Sri Lanka	9.608889		රත්නපුර	වේවැල්වත්ත	ගලබඩ දෙමළ විද්‍යාලය	இரத்தினபுரி	வெவெல்வத்தை	கலபடா தமிழ் கல்லூரி	රත්නපුර-වේවැල්වත්ත පාර, ගලබඩ, ශ්‍රී ලංකාව	இரத்தினபுரி-வெவெல்வத்த வீதி, கலபடா, இலங்கை
Rathnapura	Panamura	Walalgoda Vidyalaya	False	False	RTHNPRPNMRWLLGDVDYLY		Ratnapura	LK-91	6.586826	80.566158	Panamure	PS-910236	6.40194	80.687615	6.32955	80.757703	Embilipitiya-Panamure-Urubokka Rd, Sri Lanka	11.174171		රත්නපුර	පනාමුර	වලල්ගොඩ විද්‍යාලය	இரத்தினபுரி	பனமுரா	வலல்கொட வித்யாலயா	ඇඹිලිපිටිය-පනාමුරේ-ruරුබොක්ක පාර, ශ්‍රී ලංකාව	எம்பிலிபிட்டிய-பனமுரே-ஊருபொக்க வீதி, இலங்கை
Rathnapura	Panamura	Panamura Rajamaha Viharaya	False	False	RTHNPRPNMRPNMRRJMHVHRY		Ratnapura	LK-91	6.586826	80.566158	Panamure	PS-910236	6.40194	80.687615	6.34411	80.775471	B115, Panamure, Sri Lanka	11.648932		රත්නපුර	පනාමුර	පනාමුර රජමහා විහාරය	இரத்தினபுரி	பனமுரா	பனமுரா ராஜமஹா விஹாராயா	බී 115, පනාමුරේ, ශ්‍රී ලංකාව	B115, பனமுரே, இலங்கை
Kegalle	Warakapola	MOH Office - Warakapola	False	False	KGLLWRKPLMHFFCWRKPL		Kegalle	LK-92	7.104216	80.342866	Wrakapola	PS-920119	7.227488	80.199696	7.226501	80.197818	65GX+J44, Warakapola, Sri Lanka	0.234514		කෑගල්ල	වරකාපොල	MOH කාර්යාලය - වරකාපොල	கேகாலை	வாரகபொல	MOH அலுவலகம் - வாரகபொல	65GX+J44, වරකාපොල, ශ්‍රී ලංකාව	65GX+J44, வராகபொல, இலங்கை
Kegalle	Yatiyantota	Ganepalla Primary School	False	False	KGLLYTYNTTGNPLLPRMRYSCHL		Kegalle	LK-92	7.104216	80.342866	Yatiyantota	PS-920230	7.027207	80.290753	7.012132	80.351944	Ganepalla, Sri Lanka	6.960243		කෑගල්ල	යටියන්තොට	ගනේපැල්ල ප්‍රාථමික විද්‍යාලය	கேகாலை	யடியந்தோட்டா	கணேபல்லா தொடக்கப்பள்ளி	ගනේපැල්ල, ශ්‍රී ලංකාව	கணேபல்லா, இலங்கை
Kegalle	Yatiyantota	Gonagamuwa Viharaya	False	False	KGLLYTYNTTGNGMWVHRY		Kegalle	LK-92	7.104216	80.342866	Yatiyantota	PS-920230	7.027207	80.290753	7.08313	80.429741	3CMH+7V5, Kegalle, Sri Lanka	16.55555		කෑගල්ල	යටියන්තොට	ගොනාගමුව විහාරය	கேகாலை	யடியந்தோட்டா	கோனகமுவா விஹாராயா	3CMH+7V5, කෑගල්ල, ශ්‍රී ලංකාව	3CMH+7V5, கேகாலை, இலங்கை
Kegalle	Yatiyantota	Paramalathenna Viharaya	False	False	KGLLYTYNTTPRMLTHNNVHRY		Kegalle	LK-92	7.104216	80.342866	Yatiyantota	PS-920230	7.027207	80.290753	7.099956	80.386783	39XP+XPM, Kegalle, Sri Lanka	13.335862		කෑගල්ල	යටියන්තොට	පරමලතැන්න විහාරය	கேகாலை	யடியந்தோட்டா	பரமலதென்ன விஹாராயா	39XP+XPM, කෑගල්ල, ශ්‍රී ලංකාව	39XP+XPM, கேகாலை, இலங்கை
Kegalle	Yatiyantota	Kirikohuthenna Community Hall	False	False	KGLLYTYNTTKRKHTHNNCMMNTYHLL		Kegalle	LK-92	7.104216	80.342866	Yatiyantota	PS-920230	7.027207	80.290753					#CenterLocationUnknown	කෑගල්ල	යටියන්තොට	කිරිකොහුතැන්න ප්‍රජා ශාලාව	கேகாலை	யடியந்தோட்டா	கிரிகொழுதென்ன சமுதாயக் கூடம்		
Kegalle	Rambukkana	MOH Office - Rambukkana	False	False	KGLLRMBKKNMHFFCRMBKKN		Kegalle	LK-92	7.104216	80.342866	Rambukkana	PS-920123	7.324319	80.387808	7.327307	80.394886	89GV+WXC, Rambukkana, Sri Lanka	0.848646		කෑගල්ල	රඹුක්කන	MOH කාර්යාලය - රඹුක්කන	கேகாலை	ரம்புக்கானா	MOH அலுவலகம் - ரம்புக்கானா	89GV+WXC, රඹුක්කන, ශ්‍රී ලංකාව	89GV+WXC, ரம்புக்கானா, இலங்கை
Kegalle	Hemmathagama	Nagaragiri Maha Vidyalaya	False	False	KGLLHMMTHGMNGRGRMHVDYLY		Kegalle	LK-92	7.104216	80.342866	Hemmathagama	PS-920125	7.175402	80.500292	7.172829	80.499212	Horewala - Hemmathagama Rd, Hemmathagama, Sri Lanka	0.310021		කෑගල්ල	හෙම්මාතගම	නාගගිරි මහා විද්‍යාලය	கேகாலை	ஹேமதகம	நகரகிரி மகா வித்தியாலயம்	හොරේවල - හෙම්මාතගම පාර, හෙම්මාතගම, ශ්‍රී ලංකාව	ஹோரேவாலா - ஹெம்மாதகம வீதி, ஹேமதகம, இலங்கை
Kegalle	Mawanella	MOH Office - Mawanella	False	False	KGLLMWNLLMHFFCMWNLL		Kegalle	LK-92	7.104216	80.342866	Mawanella	PS-920122	7.256966	80.445912	7.253248	80.44561	Rambukkana-Mawanella Rd, Mawanella, Sri Lanka	0.414893		කෑගල්ල	මාවනැල්ල	MOH කාර්යාලය - මාවනැල්ල	கேகாலை	மாவனெல்லா	MOH அலுவலகம் - மாவனெல்லா	රඹුක්කන-මාවනැල්ල පාර, මාවනැල්ල, ශ්‍රී ලංකාව	ரம்புக்கான-மாவனெல்லா சாலை, மாவனெல்லா, இலங்கை
Kegalle	Mawanella	Uthuwanakandha Ishan Hotel	False	False	KGLLMWNLLTHWNKNDHSHNHTL		Kegalle	LK-92	7.104216	80.342866	Mawanella	PS-920122	7.256966	80.445912	7.256484	80.405741	Colombo - Kandy Rd, Molagoda, Sri Lanka	4.432748		කෑගල්ල	මාවනැල්ල	උතුවන්කන්ද ඉෂාන් හෝටලය	கேகாலை	மாவனெல்லா	உத்துவனகந்தா இஷான் ஹோட்டல்	කොළඹ - නුවර පාර, මොලගොඩ, ශ්‍රී ලංකාව	கொழும்பு - கண்டி வீதி, மொலகொட, இலங்கை
Kegalle	Mawanella	Aluthnuwara Vidyalaya	False	False	KGLLMWNLLLTHNWRVDYLY		Kegalle	LK-92	7.104216	80.342866	Mawanella	PS-920122	7.256966	80.445912	7.226113	80.481714	Mawanella - Aluthnuwara Rd, Sri Lanka	5.232917		කෑගල්ල	මාවනැල්ල	අලුත්නුවර විද්‍යාලය	கேகாலை	மாவனெல்லா	அளுத்துவாரா வித்தியாலயம்	මාවනැල්ල - අලුත්නුවර පාර, ශ්‍රී ලංකාව	மாவனெல்ல - அளுத்துவாரா வீதி, இலங்கை
Kegalle	Mawanella	Balawathgama Maha Vidyalaya	False	False	KGLLMWNLLBLWTHGMMHVDYLY		Kegalle	LK-92	7.104216	80.342866	Mawanella	PS-920122	7.256966	80.445912	7.20502	80.494198	Mawanella - Hemmaththagama - Singhapitiya, Sri Lanka	7.859618		කෑගල්ල	මාවනැල්ල	බලවත්ගම මහා විද්‍යාලය	கேகாலை	மாவனெல்லா	பாலவத்கம மகா வித்தியாலயம்	මාවනැල්ල - හෙම්මත්තාගම - සිංගපිටිය, ශ්‍රී ලංකාව	மாவனெல்லா - ஹெம்மத்தாகம - சிங்கப்பிட்டிய, இலங்கை
Kegalle	Mawanella	Ganethenna Vidyalaya	False	False	KGLLMWNLLGNTHNNVDYLY		Kegalle	LK-92	7.104216	80.342866	Mawanella	PS-920122	7.256966	80.445912	7.247264	80.489941	H 36 Ganethenna - Mahanthegama Rd, Sri Lanka	4.976575		කෑගල්ල	මාවනැල්ල	ගනේතැන්න විද්‍යාලය	கேகாலை	மாவனெல்லா	கணேதென்ன வித்தியாலயம்	එච් 36 ගනේතැන්න - මහන්තේගම පාර, ශ්‍රී ලංකාව	எச் 36 கணேதென்ன - மஹந்தேகம வீதி, இலங்கை
Kegalle	Mawanella	Dehimadulla Maha Vidyalaya	False	False	KGLLMWNLLDHMDLLMHVDYLY		Kegalle	LK-92	7.104216	80.342866	Mawanella	PS-920122	7.256966	80.445912	7.248421	80.464111	Colombo - Kandy Rd, Mawanella, Sri Lanka	2.221652		කෑගල්ල	මාවනැල්ල	දෙහිමඩුල්ල මහා විද්‍යාලය	கேகாலை	மாவனெல்லா	தெஹிமதுல்லா மகா வித்தியாலயம்	කොළඹ - නුවර පාර, මාවනැල්ල, ශ්‍රී ලංකාව	கொழும்பு - கண்டி வீதி, மாவனெல்லா, இலங்கை
Kegalle	Kegalle	MOH Office - Kegalle	False	False	KGLLKGLLMHFFCKGLL		Kegalle	LK-92	7.104216	80.342866	Kegalle	PS-920118	7.255928	80.353156	7.24797	80.343583	Kegalle-Bulathkohupitiya-Karawanella Hwy, Kegalle, Sri Lanka	1.378052		කෑගල්ල	කෑගල්ල	MOH කාර්යාලය - කෑගල්ල	கேகாலை	கேகாலை	MOH அலுவலகம் - கேகாலை	කෑගල්ල-බුලත්කොහුපිටිය-කරවනැල්ල හ්වි, කෑගල්ල, ශ්‍රී ලංකාව	கேகாலை-புலத்கோஹுபிட்டிய-கரவனெல்லா ஹ்வி, கேகாலை, இலங்கை
Kegalle	Kegalle	MOH Office - Galigamuwa	False	False	KGLLKGLLMHFFCGLGMW		Kegalle	LK-92	7.104216	80.342866	Kegalle	PS-920118	7.255928	80.353156	7.240448	80.300505	ballapana, galigamuwa town, Sri Lanka	6.059352		කෑගල්ල	කෑගල්ල	MOH කාර්යාලය - ගලිගමුව	கேகாலை	கேகாலை	MOH அலுவலகம் - கலிகமுவா	බැල්ලපන, ගලිගමුව නගරය, ශ්‍රී ලංකාව	பலபனா, கலிகமுவா நகரம், இலங்கை
Kegalle	Aranayaka	MOH Office - Aranayaka	False	False	KGLLRNYKMHFFCRNYK		Kegalle	LK-92	7.104216	80.342866	Aranayaka	PS-920120	7.186505	80.455273	7.177667	80.457992	5FH5+359, Dippitiya, Sri Lanka	1.027824		කෑගල්ල	අරණායක	MOH කාර්යාලය - අරණායක	கேகாலை	அரநாயகம்	MOH அலுவலகம் - அரநாயக்கா	5FH5+359, දිප්පිටිය, ශ්‍රී ලංකාව	5FH5+359, திப்பிட்டிய, இலங்கை
Kegalle	Aranayaka	Viyan Eliya Viharaya	False	False	KGLLRNYKVYNLYVHRY		Kegalle	LK-92	7.104216	80.342866	Aranayaka	PS-920120	7.186505	80.455273	7.149665	80.464983	Aranayaka, Sri Lanka	4.235508		කෑගල්ල	අරණායක	වියන්එලිය විහාරය	கேகாலை	அரநாயகம்	வியான் எலியா விஹாராயா	අරණායක, ශ්‍රී ලංකාව	அரநாயக்க, இலங்கை
Kegalle	Rawanwella	Imbulana Sri Sena Vidyalaya	False	False	KGLLRWNWLLMBLNSRSNVDYLY		Kegalle	LK-92	7.104216	80.342866	Ruwanwella	PS-920229	7.046189	80.254174	7.071095	80.254427	Ruwanwella, Warakapola Road, Sri Lanka	2.770431		කෑගල්ල	රුවන්වැල්ල	ඉඹුලාන ශ්‍රී සේන විද්‍යාලය	கேகாலை	ராவன்வெல்ல	இம்புலான ஸ்ரீ சேனா வித்யாலயா	රුවන්වැල්ල, වරකාපොල පාර, ශ්‍රී ලංකාව	ருவன்வெல்ல, வரகபொல சாலை, இலங்கை
Kegalle	Rawanwella	Galapitamada Walagamba Vidyalaya	False	False	KGLLRWNWLLGLPTMDWLGMBVDYLY		Kegalle	LK-92	7.104216	80.342866	Ruwanwella	PS-920229	7.046189	80.254174	7.14118	80.234662	galapitamada, Ruwanwella Rd, Sri Lanka	10.783101		කෑගල්ල	රුවන්වැල්ල	ගලපිටමඩ වලගම්බා විද්‍යාලය	கேகாலை	ராவன்வெல்ல	கலாபிடமட வலகம்பா வித்தியாலயம்	ගලපිටමඩ, රුවන්වැල්ල පාර, ශ්‍රී ලංකාව	கலாபிடமடா, ருவன்வெல்லா சாலை, இலங்கை
Kegalle	Rawanwella	Moraliya Proja Shakthi Centre	False	False	KGLLRWNWLLMRLYPRJSHKTHCNTR		Kegalle	LK-92	7.104216	80.342866	Ruwanwella	PS-920229	7.046189	80.254174	7.045873	80.253706	Ruwanwella, Sri Lanka	0.062423		කෑගල්ල	රුවන්වැල්ල	මොරලිය ප්‍රෝජ ශක්ති මධ්‍යස්ථානය	கேகாலை	ராவன்வெல்ல	மொரலிய ப்ரோஜா சக்தி மையம்	රුවන්වැල්ල, ශ්‍රී ලංකාව	ருவன்வெல்ல, இலங்கை
Kegalle	Rawanwella	DH - Gonagaldeniya	False	False	KGLLRWNWLLDHGNGLDNY		Kegalle	LK-92	7.104216	80.342866	Ruwanwella	PS-920229	7.046189	80.254174	7.261771	80.449296	14/7 Rambukkana-Mawanella Rd, Sri Lanka	32.229344	#CenterFarFromPolice	කෑගල්ල	රුවන්වැල්ල	ඩීඑච් - ගෝනගල්දෙණිය	கேகாலை	ராவன்வெல்ல	DH - கோனகல்டெனியா	14/7 රඹුක්කන-මාවනැල්ල පාර, ශ්‍රී ලංකාව	14/7 ரம்புக்கன-மாவனெல்லா சாலை, இலங்கை
Kegalle	Rawanwella	Amithirigala Maha Vidyalaya	False	False	KGLLRWNWLLMTHRGLMHVDYLY		Kegalle	LK-92	7.104216	80.342866	Ruwanwella	PS-920229	7.046189	80.254174	7.187842	80.201629	Weligalla Rd, Sri Lanka	16.789504		කෑගල්ල	රුවන්වැල්ල	අමිතිරිගල මහා විද්‍යාලය	கேகாலை	ராவன்வெல்ல	அமித்திரிகல மகா வித்தியாலயம்	වැලිගල්ල පාර, ශ්‍රී ලංකාව	வெலிகல்லா சாலை, இலங்கை
Kegalle	Rawanwella	Gonagala Clinic	False	False	KGLLRWNWLLGNGLCLNC		Kegalle	LK-92	7.104216	80.342866	Ruwanwella	PS-920229	7.046189	80.254174	7.235941	80.311561	68P6+9JF, Galigamuwa, Sri Lanka	22.035917	#CenterFarFromPolice	කෑගල්ල	රුවන්වැල්ල	ගෝනගල සායනය	கேகாலை	ராவன்வெல்ல	கோனகலா கிளினிக்	68 පී 6+9 ජේඑෆ්, ගලිගමුව, ශ්‍රී ලංකාව	68P6+9JF, கலிகமுவா, இலங்கை
Anuradhapura	Anuradhapura	Army Hospital - Anuradhapura	False	True	NRDHPRNRDHPRRMYHSPTLNRDHPR		Anuradhapura	LK-71	8.39199	80.512958	Anuradapura	PS-710101	8.329752	80.407265	8.338302	80.407646	AB02, Anuradhapura, Sri Lanka	0.951939		අනුරාධපුර	අනුරාධපුර	හමුදා රෝහල - අනුරාධපුර	அனுராதபுரம்	அனுராதபுரம்	இராணுவ மருத்துவமனை - அனுராதபுரம்	ඒබී 02, අනුරාධපුර, ශ්‍රී ලංකාව	ஏபி 02, அனுராதபுரம், இலங்கை
Anuradhapura	Anuradhapura	Anuradhapra Teaching Hospital	False	False	NRDHPRNRDHPRNRDHPRTCHNGHSPTL		Anuradhapura	LK-71	8.39199	80.512958	Anuradapura	PS-710101	8.329752	80.407265	8.324765	80.413968	Harischandra Mawatha, Anuradhapura, Sri Lanka	0.922993		අනුරාධපුර	අනුරාධපුර	අනුරාධපුර ශික්ෂණ රෝහල	அனுராதபுரம்	அனுராதபுரம்	அனுராதபிரா போதனா மருத்துவமனை	හරිශ්චන්ද්‍ර මාවත, අනුරාධපුර, ශ්‍රී ලංකාව	ஹரிச்சந்திர மாவத்தை, அனுராதபுரம், இலங்கை
Anuradhapura	Mihintale	MAS Garment - Mihintale	False	False	NRDHPRMHNTLMSGRMNTMHNTL		Anuradhapura	LK-71	8.39199	80.512958	Mihintale	PS-710104	8.360062	80.511889	8.36903	80.509467	9G95+JQ8, Mihintale, Sri Lanka	1.032504		අනුරාධපුර	මිහින්තලය	MAS ඇඟලුම් - මිහින්තලය	அனுராதபுரம்	மிஹிந்தலை	MAS ஆடை - மிஹிந்தலை	9G95+JQ8, මිහින්තලය, ශ්‍රී ලංකාව	9G95+JQ8, மிஹிந்தலை, இலங்கை
Anuradhapura	Kahatagasdigiliya	Ranpathwila Viharaya	False	False	NRDHPRKHTGSDGLYRNPTHWLVHRY		Anuradhapura	LK-71	8.39199	80.512958	Kahatagasdigiliya	PS-710118	8.427328	80.688349	8.416327	80.672495	Puttalam - Anuradhapura - Trincomalee Hwy, Sri Lanka	2.130734		අනුරාධපුර	කහටගස්දිගිලිය	රන්පත්විල විහාරය	அனுராதபுரம்	கஹதகஸ்திகிலியா	ரன்பத்வில விஹாராயா	පුත්තලම - අනුරාධපුර - ත්‍රිකුණාමලය හ්වි, ශ්‍රී ලංකාව	புத்தளம் - அனுராதபுரம் - திருகோணமலை Hwy, இலங்கை
Anuradhapura	Kahatagasdigiliya	Kekulewa Viharaya	False	False	NRDHPRKHTGSDGLYKKLWVHRY		Anuradhapura	LK-71	8.39199	80.512958	Kahatagasdigiliya	PS-710118	8.427328	80.688349	8.416327	80.672495	Puttalam - Anuradhapura - Trincomalee Hwy, Sri Lanka	2.130734		අනුරාධපුර	කහටගස්දිගිලිය	කැකුළෑව විහාරය	அனுராதபுரம்	கஹதகஸ்திகிலியா	கேகுலேவா விஹாராயா	පුත්තලම - අනුරාධපුර - ත්‍රිකුණාමලය හ්වි, ශ්‍රී ලංකාව	புத்தளம் - அனுராதபுரம் - திருகோணமலை Hwy, இலங்கை
Anuradhapura	Galenbindunuwewa	MOH Office - Galenbindunuwewa	False	False	NRDHPRGLNBNDNWWMHFFCGLNBNDNWW		Anuradhapura	LK-71	8.39199	80.512958	Galenbidunuwewa	PS-710121	8.29037	80.71501	8.292134	80.717284	7PR8+VW3, Galenbindunuwewa, Sri Lanka	0.318033		අනුරාධපුර	ගලෙන්බිඳුණුවැව	MOH කාර්යාලය - ගලෙන්බිඳුණුවැව	அனுராதபுரம்	கலென்பிந்துனுவேவா	MOH அலுவலகம் - கலென்பிந்துனுவேவா	7PR8+VW3, ගලෙන්බිඳුණුවැව, ශ්‍රී ලංකාව	7PR8+VW3, கலென்பிந்துனுவேவா, இலங்கை
Jaffna	Wadukkotte	MOH Office - Karainagar	False	False	JFFNWDKKTTMHFFCKRNGR		Jaffna	LK-41	9.691792	80.098594	Vaddukoddai		9.728886	79.947771	9.725097	79.99772	Sri Lanka, Manipay, Sri Lanka	5.492143		යාපනය	වඩුක්කෝට්ටේ	MOH කාර්යාලය - කරෙයිනගර්	யாழ்	வட்டுக்கோட்டை	MOH அலுவலகம் - காரைநகர்	ශ්‍රී ලංකාව, මනිපායි, ශ්‍රී ලංකාව	இலங்கை, மானிப்பாய், இலங்கை
Jaffna	Kayts	MOH Office – Kayts	False	False	JFFNKYTSMHFFCKYTS		Jaffna	LK-41	9.691792	80.098594	Kayts	PS-410212	9.728654	79.94775	9.697759	79.866366	Sri Lanka, Kayts, Sri Lanka	9.561445		යාපනය	කයිට්ස්	MOH කාර්යාලය - කයිට්ස්	யாழ்	ஊர்காவற்துறையினர்	MOH அலுவலகம் - ஊர்காவற்துறை	ශ්‍රී ලංකාව, කයිට්ස්, ශ්‍රී ලංකාව	இலங்கை, ஊர்காவற்துறை, இலங்கை
Jaffna	Kayts	MOH Office - Velanai	False	False	JFFNKYTSMHFFCVLN		Jaffna	LK-41	9.691792	80.098594	Kayts	PS-410212	9.728654	79.94775	9.636317	79.903777	Chatty vangkalvady road, Velanai, Sri Lanka	11.346015		යාපනය	කයිට්ස්	එම්ඕඑච් කාර්යාලය - වෙලනායි	யாழ்	ஊர்காவற்துறையினர்	MOH அலுவலகம் - வேலணை	චැටි වංගල්වඩි පාර, වෙලනායි, ශ්‍රී ලංකාව	சட்டி வாங்கல்வாடி சாலை, வேலணை, இலங்கை
Jaffna	Thelippalai	MOH Office - Thelippalai	False	False	JFFNTHLPPLMHFFCTHLPPL		Jaffna	LK-41	9.691792	80.098594	Thelippalay	PS-410104	6.933075	79.857181	9.785272	80.032899	Q2PM+452, Tellippalai, Sri Lanka	317.838063	#CenterFarFromPolice	යාපනය	තෙලිප්පලෙයි	MOH කාර්යාලය - තෙලිප්පලෙයි	யாழ்	தெளிப்பளை	MOH அலுவலகம் - தெல்லிப்பழை	Q2PM+452, තෙලිප්පලෙයි, ශ්‍රී ලංකාව	Q2PM+452, தெல்லிப்பழை, இலங்கை
Jaffna	Chavakachcheri	Town Hall - Chavakachcheri	False	False	JFFNCHVKCHCHRTWNHLLCHVKCHCHR		Jaffna	LK-41	9.691792	80.098594	Chawakachcheri	PS-410215	9.666459	80.132384	9.659136	80.160946	M556+M94, Chavakachcheri, Sri Lanka	3.236063		යාපනය	චාවකච්චේරි	නගර ශාලාව - චාවකච්චේරි	யாழ்	சாவகச்சேரி	டவுன் ஹால் - சாவகச்சேரி	එම් 556+එම් 94, චාවකච්චේරි, ශ්‍රී ලංකාව	M556+M94, சாவகச்சேரி, இலங்கை
Jaffna	Manippai	MOH Office - Chankanai	False	False	JFFNMNPPMHFFCCHNKN		Jaffna	LK-41	9.691792	80.098594	Manippai	PS-410210	9.727151	79.996905	9.753617	79.976004	QX3G+CCR, Sri Lanka	3.730425		යාපනය	මනිප්පායි	MOH කාර්යාලය - චංකනායි	யாழ்	மணிப்பை	MOH அலுவலகம் - சங்கனை	QX3G+CCR, ශ්‍රී ලංකාව	QX3G+CCR, இலங்கை
Jaffna	Nelliadi	MOH Office - Karaveddy	False	False	JFFNNLLDMHFFCKRVDDY		Jaffna	LK-41	9.691792	80.098594	Nelliadi	PS-410108	9.778397	80.113303	9.792126	80.201799	Q6R2+VP3, Point Pedro, Sri Lanka	9.819656		යාපනය	නෙල්ලියාඩි	MOH කාර්යාලය - කරවෙඩ්ඩි	யாழ்	நெல்லியடி	MOH அலுவலகம் - கரவெட்டி	Q6R2+VP3, පේදුරුතුඩුව, ශ්‍රී ලංකාව	Q6R2+VP3, பருத்தித்துறை, இலங்கை
Jaffna	Kopay	MOH Office - Kopay	False	False	JFFNKPYMHFFCKPY		Jaffna	LK-41	9.691792	80.098594	Kopai	PS-410216	9.686887	80.03856	9.706729	80.065433	B268, Jaffna, Sri Lanka	3.681313		යාපනය	කෝපායි	MOH කාර්යාලය - කෝපායි	யாழ்	கோப்பாய்	MOH அலுவலகம் - கோப்பாய்	බී 268, යාපනය, ශ්‍රී ලංකාව	பி 268, யாழ்ப்பாணம், இலங்கை
Jaffna	Kopay	MOH Office- Nallur	False	False	JFFNKPYMHFFCNLLR		Jaffna	LK-41	9.691792	80.098594	Kopai	PS-410216	9.686887	80.03856	9.673947	80.027736	M2FH+H3H, Jaffna, Sri Lanka	1.865513		යාපනය	කෝපායි	එම්ඕඑච් කාර්යාලය- නල්ලූර්	யாழ்	கோப்பாய்	MOH அலுவலகம்- நல்லூர்	M2FH+H3H, යාපනය, ශ්‍රී ලංකාව	M2FH+H3H, யாழ்ப்பாணம், இலங்கை
Jaffna	Chunnakam	MOH Office - Uduvil	False	False	JFFNCHNNKMMHFFCDVL		Jaffna	LK-41	9.691792	80.098594	Chunnakam	PS-410211	9.745309	80.029151	9.742938	80.035132	P2VP+53C, Chunnakam, Sri Lanka	0.706719		යාපනය	චුන්නාකම්	MOH කාර්යාලය - උඩුවිල්	யாழ்	சுன்னாகம்	MOH அலுவலகம் - உடுவில்	පී 2 වීපී+53 සී, චුන්නාකම්, ශ්‍රී ලංකාව	P2VP+53C, சுன்னாகம், இலங்கை
Jaffna	Point Pedro	MOH Office - Point Pedro	False	False	JFFNPNTPDRMHFFCPNTPDR		Jaffna	LK-41	9.691792	80.098594	Point Pedro	PS-410106	9.827018	80.233187	9.805763	80.222952	R64F+854, Point Pedro, Sri Lanka	2.616722		යාපනය	පේදුරුතුඩුව	MOH කාර්යාලය - පේදුරුතුඩුව	யாழ்	பருத்தித்துறை	MOH அலுவலகம் - பருத்தித்துறை	ආර් 64 එෆ්+854, පේදුරුතුඩුව, ශ්‍රී ලංකාව	R64F+854, பருத்தித்துறை, இலங்கை
Kilinochchi	Kilinochchi	Army Base Hospital - Kilinochchi	False	True	KLNCHCHKLNCHCHRMYBSHSPTLKLNCHCH		Kilinochchi	LK-45	9.415742	80.30358	Kilinochchi	PS-450131	9.392265	80.407846	9.372728	80.411786	Ananthapuram, A9, Kilinochchi, Sri Lanka	2.215695		කිලිනොච්චි	කිලිනොච්චි	යුද හමුදා මූලික රෝහල - කිලිනොච්චිය	கிளிநொச்சி	கிளிநொச்சி	இராணுவ அடிப்படை மருத்துவமனை - கிளிநொச்சி	අනන්තරපුරම්, ඒ 9, කිලිනොච්චිය, ශ්‍රී ලංකාව	அனந்தபுரம், ஏ 9, கிளிநொச்சி, இலங்கை
Kilinochchi	Kilinochchi	MOH Office - Kilinochchi	False	False	KLNCHCHKLNCHCHMHFFCKLNCHCH		Kilinochchi	LK-45	9.415742	80.30358	Kilinochchi	PS-450131	9.392265	80.407846	9.396965	80.407782	Kandy - Jaffna Hwy, Kilinochchi, Sri Lanka	0.522827		කිලිනොච්චි	කිලිනොච්චි	එම්ඕඑච් කාර්යාලය - කිලිනොච්චිය	கிளிநொச்சி	கிளிநொச்சி	MOH அலுவலகம் - கிளிநொச்சி	මහනුවර - යාපනය හ්වි, කිලිනොච්චි, ශ්‍රී ලංකාව	கண்டி - யாழ்ப்பாணம், கிளிநொச்சி, இலங்கை
Kilinochchi	Pooneryn	MOH Office - Pooneryn	False	False	KLNCHCHPNRYNMHFFCPNRYN		Kilinochchi	LK-45	9.415742	80.30358	Pooneryn		9.505717	80.21101	9.507968	80.208317	G655+58P, Pooneryn, Sri Lanka	0.387256		කිලිනොච්චි	පුනරීන්	MOH කාර්යාලය - පුනරීන්	கிளிநொச்சி	பூனெரின்	MOH அலுவலகம் - பூனெரின்	ජී 655+58 පී, පූනරීන්, ශ්‍රී ලංකාව	G655+58P, பூனெரின், இலங்கை
Kilinochchi	Dharmapuram	MOH Office - Dharmapuram	False	False	KLNCHCHDHRMPRMMHFFCDHRMPRM		Kilinochchi	LK-45	9.415742	80.30358	Dharmapuram	PS-450136	6.873107	79.86167	9.410652	80.523364	CG6F+789, Kilinochchi, Sri Lanka	291.501054	#CenterFarFromPolice	කිලිනොච්චි	ධර්මපුරම්	MOH කාර්යාලය - ධර්මපුරම්	கிளிநொச்சி	தர்மபுரம்	MOH அலுவலகம் - தர்மபுரம்	සීජී 6 එෆ්+789, කිලිනොච්චිය, ශ්‍රී ලංකාව	CG6F+789, கிளிநொச்சி, இலங்கை
Mullaitivu	Mullaitivu	Army Base Hospital - Mullaitivu	False	True	MLLTVMLLTVRMYBSHSPTLMLLTV		Mullaitivu	LK-44	9.167643	80.549091	Mullativu	PS-440148	9.212825	80.760159	9.259639	80.766401	7Q58+VH2, Mullaitivu, Sri Lanka	5.252015		මුලතිව්	මුලතිව්	මුලතිව් යුද හමුදා මූලික රෝහල	முல்லைத்தீவு	முல்லைத்தீவு	இராணுவ அடிப்படை மருத்துவமனை - முல்லைத்தீவு	7Q58+VH2, මුලතිව්, ශ්‍රී ලංකාව	7Q58+VH2, முல்லைத்தீவு, இலங்கை
Mullaitivu	Mallavi	Nattakandal Hospital	False	False	MLLTVMLLVNTTKNDLHSPTL		Mullaitivu	LK-44	9.167643	80.549091	Mallavi	PS-440153	9.137878	80.307257	9.134704	80.308726	48M5+VFQ, Mallavi, Sri Lanka	0.388156		මුලතිව්	මල්ලාවි	නාට්ටකන්දල් රෝහල	முல்லைத்தீவு	மல்லவி	நாட்டகண்டல் மருத்துவமனை	48M5+VFQ, මල්ලාවි, ශ්‍රී ලංකාව	48M5+VFQ, மல்லாவி, இலங்கை
Mullaitivu	Pudukudiruppu	MOH Office - Pudukudiruppu	False	False	MLLTVPDKDRPPMHFFCPDKDRPP		Mullaitivu	LK-44	9.167643	80.549091	Pudukuduiruppu	PS-440149	7.00152	79.95003	9.320965	80.683013	Parantan-Mullaitivu Hwy, Velikkandal, Sri Lanka	270.317914	#CenterFarFromPolice	මුලතිව්	පුදුකුඩිරුප්පු	එම්ඕඑච් කාර්යාලය - පුදුකුඩිරුප්පු	முல்லைத்தீவு	புதுக்குடியிருப்பு	MOH அலுவலகம் - புதுக்குடியிருப்பு	පරන්තන්-මුලතිව් හ්වි, වේලිකන්දල්, ශ්‍රී ලංකාව	பரந்தன்-முல்லைத்தீவு Hwy, வேலிக்கண்டல், இலங்கை
Mannar	Adampan	Pallamadu Hospital	False	False	MNNRDMPNPLLMDHSPTL		Mannar	LK-42	8.877429	80.088628	Adampan		8.939451	80.002055	8.981662	79.904574	Thalvupadu - Mannar Rd, Mannar 41000, Sri Lanka	11.69437		මන්නාරම	අඩම්පන්	පල්ලමඩු රෝහල	மன்னார்	அடம்பன்	பள்ளமடு மருத்துவமனை	තල්වුපාඩු - මන්නාරම පාර, මන්නාරම 41000, ශ්‍රී ලංකාව	தல்வுபடு - மன்னார் சாலை, மன்னார் 41000, இலங்கை
Mannar	Adampan	DH - Vedithalathivu	False	True	MNNRDMPNDHVDTHLTHV		Mannar	LK-42	8.877429	80.088628	Adampan		8.939451	80.002055	8.945073	79.996994	WXWW+2QH, Adampan, Sri Lanka	0.836828		මන්නාරම	අඩම්පන්	ඩීඑච් - වේදිතලතිව්	மன்னார்	அடம்பன்	DH - வேதித்தலத்தீவு	WXWW+2QH, අඩම්පන්, ශ්‍රී ලංකාව	WXWW+2QH, அடம்பன், இலங்கை
Mannar	Mannar	RDHS Office - Mannar	False	True	MNNRMNNRRDHSFFCMNNR		Mannar	LK-42	8.877429	80.088628	Mannar	PS-420138	8.978123	79.911642	8.983382	79.902565	Thalvupadu - Mannar Rd, Mannar 41000, Sri Lanka	1.156155		මන්නාරම	මන්නාරම	ආර්ඩීඑච්එස් කාර්යාලය - මන්නාරම	மன்னார்	மன்னார்	RDHS அலுவலகம் - மன்னார்	තල්වුපාඩු - මන්නාරම පාර, මන්නාරම 41000, ශ්‍රී ලංකාව	தல்வுபடு - மன்னார் சாலை, மன்னார் 41000, இலங்கை
Mannar	Mannar	Educational Training Center - Mannar	False	True	MNNRMNNRDCTNLTRNNGCNTRMNNR		Mannar	LK-42	8.877429	80.088628	Mannar	PS-420138	8.978123	79.911642	8.983627	79.916777	new steet, Uppukulam Mosque, Mannar, Sri Lanka	0.832514		මන්නාරම	මන්නාරම	අධ්‍යාපන පුහුණු මධ්‍යස්ථානය - මන්නාරම	மன்னார்	மன்னார்	கல்வி பயிற்சி மையம் - மன்னார்	නව වාෂ්ප, උප්පුකුලම් පල්ලිය, මන්නාරම, ශ්‍රී ලංකාව	புதிய ஸ்டீட், உப்புக்குளம் மசூதி, மன்னார், இலங்கை
Mannar	Madu	Iranail Iruppukullam Maha Vidyalaya	False	True	MNNRMDRNLRPPKLLMMHVDYLY		Mannar	LK-42	8.877429	80.088628	Madu	PS-420144	6.914115	79.849048	8.85502	80.202842	Puliyadi Irakkamam, Madhu Road, Madu, Sri Lanka	219.377113	#CenterFarFromPolice	මන්නාරම	මඩු	ඉරානෙයිල් ඉරුප්පුකුලම් මහා විද්‍යාලය	மன்னார்	மது	இரணைல் இருப்புக்குள்ளம் மகா வித்தியாலயம்	පුලියඩි ඉරක්කමම්, මඩු පාර, මඩු, ශ්‍රී ලංකාව	புளியடி இறக்காமம், மது சாலை, மடு, இலங்கை
Trincomalee	Muttur	MOH Office – Muttur	False	False	TRNCMLMTTRMHFFCMTTR		Trincomalee	LK-53	8.551241	81.092014	Mutur	PS-530138	8.461133	81.259371	8.453916	81.264494	1 Old Batticaloa Rd, Mutur, Sri Lanka	0.980859		ත්රිකුණාමලය	මුතූර්	MOH කාර්යාලය - මුතූර්	திருகோணமலை	மூதூர்	MOH அலுவலகம் - மூதூர்	1 පරණ මඩකලපුව පාර, මුතූර්, ශ්‍රී ලංකාව	1 பழைய மட்டக்களப்பு வீதி, மூதூர், இலங்கை
Trincomalee	Kinniya	MOH Office - Kuruggankeni	False	False	TRNCMLKNNYMHFFCKRGGNKN		Trincomalee	LK-53	8.551241	81.092014	Kinnia	PS-530140	6.907289	79.863819	8.498696	81.179644	F5XH+FVC, Kinniya 31100, Sri Lanka	228.840304	#CenterFarFromPolice	ත්රිකුණාමලය	කින්නියා	MOH කාර්යාලය - කුරුගන්කේනි	திருகோணமலை	கிண்ணியா	MOH அலுவலகம் - குருக்கன்கேணி	F5XH+FVC, කින්නියා 31100, ශ්‍රී ලංකාව	F5XH+FVC, கிண்ணியா 31100, இலங்கை
Trincomalee	Kinniya	MOH Office – Kinniya	False	False	TRNCMLKNNYMHFFCKNNY		Trincomalee	LK-53	8.551241	81.092014	Kinnia	PS-530140	6.907289	79.863819	8.498696	81.179644	F5XH+FVC, Kinniya 31100, Sri Lanka	228.840304	#CenterFarFromPolice	ත්රිකුණාමලය	කින්නියා	MOH කාර්යාලය - කින්නියා	திருகோணமலை	கிண்ணியா	MOH அலுவலகம் - கிண்ணியா	F5XH+FVC, කින්නියා 31100, ශ්‍රී ලංකාව	F5XH+FVC, கிண்ணியா 31100, இலங்கை
Trincomalee	Sripura	MOH Office – Sripura	False	False	TRNCMLSRPRMHFFCSRPR		Trincomalee	LK-53	8.551241	81.092014	Sripura	PS-530136	8.929617	80.81428	8.926697	80.814799	Padavi Sripura, Padaviya - Sripura Road, Welioya, Sri Lanka	0.329869		ත්රිකුණාමලය	ශ්‍රීපුර	MOH කාර්යාලය - ශ්‍රීපුර	திருகோணமலை	ஸ்ரீபுரா	MOH அலுவலகம் - ஸ்ரீபுரா	පදවි ශ්‍රීපුර, පදවිය - ශ්‍රීපුර පාර, වැලිඔය, ශ්‍රී ලංකාව	படவி ஸ்ரீபுரா, படாவியா - ஸ்ரீபுரா சாலை, வெலிஓயா, இலங்கை
Trincomalee	Kantale	MOH Office – Kantale	False	False	TRNCMLKNTLMHFFCKNTL		Trincomalee	LK-53	8.551241	81.092014	Kantale	PS-530241	8.356129	81.007739	8.349617	81.009107	අග්‍රබෝධි මාවත, Kantale, Sri Lanka	0.739809		ත්රිකුණාමලය	කන්තලේ	MOH කාර්යාලය - කන්තලේ	திருகோணமலை	கந்தலே	MOH அலுவலகம் - கந்தலே	වැඩි දියුණු කිරීම මාවත, කන්තලේ, ශ්‍රී ලංකාව	தீவிரப்படுத்தி மாவத்த, கந்தலே, இலங்கை
Trincomalee	Kuchchaveli	MOH Office - Kuchchaveli	False	False	TRNCMLKCHCHVLMHFFCKCHCHVL		Trincomalee	LK-53	8.551241	81.092014	Kuchchaweli	PS-530133	8.81895	81.100438	8.740082	81.161616	P5R6+2JQ, Kumpurupiddi, Sri Lanka	11.053646		ත්රිකුණාමලය	කුච්චවේලි	MOH කාර්යාලය - කුච්චවේලි	திருகோணமலை	குச்சவெளி	MOH அலுவலகம் - குச்சவெளி	P5R6+2JQ, කුඹුරුපිඩි, ශ්‍රී ලංකාව	P5R6+2JQ, கும்புறுப்பிடி, இலங்கை
Trincomalee	Kuchchaveli	Divisional Hospital - Kuchchaveli	False	False	TRNCMLKCHCHVLDVSNLHSPTLKCHCHVL		Trincomalee	LK-53	8.551241	81.092014	Kuchchaweli	PS-530133	8.81895	81.100438	8.814795	81.102358	R472+WW9, Kuchchaveli, Sri Lanka	0.508064		ත්රිකුණාමලය	කුච්චවේලි	ප්‍රාදේශීය රෝහල - කුච්චවේලි	திருகோணமலை	குச்சவெளி	பிரதேச மருத்துவமனை - குச்சவெளி	ආර් 472+WW9, කුච්චවේලි, ශ්‍රී ලංකාව	R472+WW9, குச்சவெளி, இலங்கை
Trincomalee	Kuchchaveli	Divisional Hospital - Nilaveli	False	False	TRNCMLKCHCHVLDVSNLHSPTLNLVL		Trincomalee	LK-53	8.551241	81.092014	Kuchchaweli	PS-530133	8.81895	81.100438	8.681035	81.193632	M5JV+CF6, Nilaveli, Sri Lanka	18.44695		ත්රිකුණාමලය	කුච්චවේලි	ප්‍රාදේශීය රෝහල - නිලාවේලි	திருகோணமலை	குச்சவெளி	பிரதேச மருத்துவமனை - நிலாவெளி	M5JV+CF6, නිලාවේලි, ශ්‍රී ලංකාව	M5JV+CF6, நிலவேலி, இலங்கை
Trincomalee	Pulmoddai	Pulmoddai Base Hospital	False	False	TRNCMLPLMDDPLMDDBSHSPTL	Base Hospital - Pulmoddai	Trincomalee	LK-53	8.551241	81.092014	Pulmudai	PS-530135	6.915266	79.87829	8.941204	80.983139	WXRM+F7J, Pulmoddai, Sri Lanka	256.112801	#CenterFarFromPolice	ත්රිකුණාමලය	පුල්මොඩෙයි	මූලික රෝහල - පුල්මොඩෙයි	திருகோணமலை	புல்மோட்டை	அடிப்படை மருத்துவமனை - புல்மோட்டை	ඩබ්ලිව්එක්ස්ආර්එම්+එෆ් 7 ජේ, පුල්මොඩෙයි, ශ්‍රී ලංකාව	WXRM+F7J, புல்மோடை, இலங்கை
Trincomalee	Harbour Police	MOH Office - Trincomalee	False	False	TRNCMLHRBRPLCMHFFCTRNCML		Trincomalee	LK-53	8.551241	81.092014	Trinco Harbour Police	PS-530131	8.56705	81.231407	8.598974	81.216963	MOH Office, Farm Rd, Trincomalee, Sri Lanka	3.890062		ත්රිකුණාමලය	වරාය පොලිසිය	එම්ඕඑච් කාර්යාලය - ත්‍රිකුණාමලය	திருகோணமலை	துறைமுக காவல்துறை	MOH அலுவலகம் - திருகோணமலை	එම්ඕඑච් කාර්යාලය, ගොවිපල පාර, ත්‍රිකුණාමලය, ශ්‍රී ලංකාව	MOH அலுவலகம், பண்ணை சாலை, திருகோணமலை, இலங்கை
Trincomalee	Uppuveli	MOH Office - Uppuveli	False	False	TRNCMLPPVLMHFFCPPVL		Trincomalee	LK-53	8.551241	81.092014	Uppuweli	PS-530134	8.593614	81.21743	8.607961	81.216512	Nilaveli Rd, Trincomalee, Sri Lanka	1.599005		ත්රිකුණාමලය	උප්පුවේලි	MOH කාර්යාලය - උප්පුවේලි	திருகோணமலை	உப்புவேலி	MOH அலுவலகம் - உப்புவேலி	නිලාවේලි පාර, ත්‍රිකුණාමලය, ශ්‍රී ලංකාව	நிலவேலி வீதி, திருகோணமலை, இலங்கை
Trincomalee	Gomarankadawala	MOH Office - Gomarankadawala	False	False	TRNCMLGMRNKDWLMHFFCGMRNKDWL		Trincomalee	LK-53	8.551241	81.092014	Gomarankadawala	PS-530248	8.674487	80.967555	8.674726	80.955691	Unnamed Road, Gomarankadawala, Sri Lanka	1.304806		ත්රිකුණාමලය	ගෝමරන්කඩවල	එම්ඕඑච් කාර්යාලය - ගෝමරන්කඩවල	திருகோணமலை	கோமரன்கடவாலா	MOH அலுவலகம் - கோமரன்கடவாலா	නම් නොකළ පාර, ගෝමරන්කඩවල, ශ්‍රී ලංකාව	பெயரிடப்படாத சாலை, கோமரன்கடவாலா, இலங்கை
Trincomalee	Thambalagamuwa	MOH Office - Thambalagamuwa	False	False	TRNCMLTHMBLGMWMHFFCTHMBLGMW		Trincomalee	LK-53	8.551241	81.092014	Thambalagamuva	PS-530243	6.907289	79.863819	8.563603	81.239584	Hospital Ln, Trincomalee, Sri Lanka	238.604889	#CenterFarFromPolice	ත්රිකුණාමලය	තඹලගමුව	MOH කාර්යාලය - තඹලගමුව	திருகோணமலை	தம்பலகாமுவா	MOH அலுவலகம் - தம்பலகமுவ	රෝහල, ත්‍රිකුණාමලය, ශ්‍රී ලංකාව	மருத்துவமனை Ln, திருகோணமலை, இலங்கை
Trincomalee	Serunuwara	MOH Office - Serunuwara	False	False	TRNCMLSRNWRMHFFCSRNWR		Trincomalee	LK-53	8.551241	81.092014	Serunuwara	PS-530244	8.321863	81.299322	8.323143	81.299894	B10, Sri Lanka	0.155671		ත්රිකුණාමලය	සේරුනුවර	MOH කාර්යාලය - සේරුනුවර	திருகோணமலை	சேருநுவரா	MOH அலுவலகம் - சேருநுவரா	බී 10, ශ්‍රී ලංකාව	பி 10, இலங்கை
Batticaloa	Kokkadichcholai	MOH Office - Mahaladithivu	False	False	BTTCLKKKDCHCHLMHFFCMHLDTHV		Batticaloa	LK-51	7.792772	81.486513	Kokkadicholai	PS-510112	7.715979	81.698757	5.940664	80.533126	WGRM+776, Matara, Sri Lanka	235.721187	#CenterFarFromPolice	මඩකලපුව	කොක්කඩිච්චෝලේ	MOH කාර්යාලය - මහලදිතිව්	மட்டக்களப்பு	கொக்கட்டிச்சோலை	MOH அலுவலகம் - மகாலடித்தீவு	ඩබ්ලිව්ජීආර්එම්+776, මාතර, ශ්‍රී ලංකාව	WGRM+776, மாத்தறை, இலங்கை
Batticaloa	Kaluwanchikudy	Kaluwanchikudy Hospital	False	False	BTTCLKLWNCHKDYKLWNCHKDYHSPTL	Base Hospital - Kaluwanchikudy	Batticaloa	LK-51	7.792772	81.486513	Kalawanchikudy	PS-510110	7.515908	81.787051	7.51724	81.785184	GQ8P+V3V, Kaluwanchikudy, Sri Lanka	0.25365		මඩකලපුව	කළුවන්චිකුඩි	මූලික රෝහල - කළුවන්චිකුඩි	மட்டக்களப்பு	களுவாஞ்சிக்குடி	அடிப்படை மருத்துவமனை - களுவாஞ்சிக்குடி	GQ8P+V3V, කළුවාංචිකුඩි, ශ්‍රී ලංකාව	GQ8P+V3V, களுவாஞ்சிக்குடி, இலங்கை
Batticaloa	Valachchenai	MOH Office - Valachchenai	False	False	BTTCLVLCHCHNMHFFCVLCHCHN		Batticaloa	LK-51	7.792772	81.486513	Valachchanai	PS-510107	7.908015	81.533004	7.912281	81.532775	WG6M+W46, Batticaloa, Sri Lanka	0.475177		මඩකලපුව	වාලච්චේන	MOH කාර්යාලය - වාලච්චේන	மட்டக்களப்பு	வாலாச்சேனை	MOH அலுவலகம் - வாலாச்சேனை	WG6M+W46, මඩකලපුව, ශ්‍රී ලංකාව	WG6M+W46, மட்டக்களப்பு, இலங்கை
Batticaloa	Valachchenai	MOH Office - Oddamavadi	False	False	BTTCLVLCHCHNMHFFCDDMVD		Batticaloa	LK-51	7.792772	81.486513	Valachchanai	PS-510107	7.908015	81.533004	7.912281	81.532775	WG6M+W46, Batticaloa, Sri Lanka	0.475177		මඩකලපුව	වාලච්චේන	එම්ඕඑච් කාර්යාලය - ඔද්දමවඩි	மட்டக்களப்பு	வாலாச்சேனை	MOH அலுவலகம் - ஓட்டமாவடி	WG6M+W46, මඩකලපුව, ශ්‍රී ලංකාව	WG6M+W46, மட்டக்களப்பு, இலங்கை
Batticaloa	Valachchenai	MOH Office - Nawaladi	False	False	BTTCLVLCHCHNMHFFCNWLD		Batticaloa	LK-51	7.792772	81.486513	Valachchanai	PS-510107	7.908015	81.533004	6.862775	79.901065	Delakada Plaza, Delkada, Nugegoda, Sri Lanka	214.291922	#CenterFarFromPolice	මඩකලපුව	වාලච්චේන	MOH කාර්යාලය - නාවලඩි	மட்டக்களப்பு	வாலாச்சேனை	MOH அலுவலகம் - நாவலடி	දෙලකද ප්ලාසා, දෙල්කඩ, නුගේගොඩ, ශ්‍රී ලංකාව	தெலகடா பிளாசா, தெல்கடா, நுகேகொட, இலங்கை
Batticaloa	Valachchenai	Mobile Vaccination	False	False	BTTCLVLCHCHNMBLVCCNTN		Batticaloa	LK-51	7.792772	81.486513	Valachchanai	PS-510107	7.908015	81.533004					#CenterLocationUnknown	මඩකලපුව	වාලච්චේන	ජංගම එන්නත	மட்டக்களப்பு	வாலாச்சேனை	மொபைல் தடுப்பூசி		
Batticaloa	Valachchenai	Valachchenai Base Hospital	False	False	BTTCLVLCHCHNVLCHCHNBSHSPTL		Batticaloa	LK-51	7.792772	81.486513	Valachchanai	PS-510107	7.908015	81.533004	7.911315	81.533046	Valaichchenai-Nasuvantivu-Navaladi Road, Sri Lanka	0.367088		මඩකලපුව	වාලච්චේන	වාලච්චේන මූලික රෝහල	மட்டக்களப்பு	வாலாச்சேனை	வாலாச்சேனை ஆதார மருத்துவமனை	වාලච්චේනයි-නසුවන්ටිව්-නවාලාඩි පාර, ශ්‍රී ලංකාව	வாழைச்சேனை-நசுவந்திவு-நாவலடி சாலை, இலங்கை
Batticaloa	Vavunathivu	MOH Office - Vavunathivu	False	False	BTTCLVVNTHVMHFFCVVNTHV		Batticaloa	LK-51	7.792772	81.486513	Vavunathive	PS-510102	6.933075	79.857181	7.708253	81.691368	Hospital Rd, Batticaloa, Sri Lanka	219.95575	#CenterFarFromPolice	මඩකලපුව	වවුනතිව්	MOH කාර්යාලය - වවුනතිව්	மட்டக்களப்பு	வவுணதீவு	MOH அலுவலகம் - வவுணதீவு	රෝහල පාර, මඩකලපුව, ශ්‍රී ලංකාව	மருத்துவமனை சாலை, மட்டக்களப்பு, இலங்கை
Ampara	Kalmunai	MOH Office - Kalmunai North	False	False	MPRKLMNMHFFCKLMNNRTH		Ampara	LK-52	7.23699	81.550391	Kalmunai	PS-520123	7.414289	81.825006	7.411712	81.838462	CR6Q+M9P, Kalmunai 32300, Sri Lanka	1.511625		අම්පාර	කල්මුණේ	MOH කාර්යාලය - කල්මුණේ උතුර	அம்பாறை	கல்முனை	MOH அலுவலகம் - கல்முனை வடக்கு	CR6Q+M9P, කල්මුණේ 32300, ශ්‍රී ලංකාව	CR6Q+M9P, கல்முனை 32300, இலங்கை
Ampara	Karaitivu	MOH Office – Karaitivu	False	False	MPRKRTVMHFFCKRTV		Ampara	LK-52	7.23699	81.550391	Karaitivu		9.744059	79.870587	7.377712	81.838796	Colombo-Ratnapura-Wellawaya-Batticaloa Highway, Karativu 32250, Sri Lanka	340.788666	#CenterFarFromPolice	අම්පාර	කාරතිව්	MOH කාර්යාලය - කරෙයිතිව්	அம்பாறை	காரைதீவு	MOH அலுவலகம் - காரைதீவு	කොළඹ-රත්නපුර-වැල්ලවාය-මඩකලපුව අධිවේගී මාර්ගය, කරතිවු 32250, ශ්‍රී ලංකාව	கொழும்பு-இரத்தினபுரி-வெள்ளவாயா-மட்டக்களப்பு நெடுஞ்சாலை, காரடிவு 32250, இலங்கை
Ampara	Sammanthurai	MOH Office - Sammanthurai	False	False	MPRSMMNTHRMHFFCSMMNTHR		Ampara	LK-52	7.23699	81.550391	Samanthurai	PS-520124	7.365785	81.810859	7.369857	81.812264	9R96+WWR, Sammanthurai, Sri Lanka	0.478712		අම්පාර	සමන්තුරේ	MOH කාර්යාලය - සම්මන්තුරේ	அம்பாறை	சம்மாந்துறை	MOH அலுவலகம் - சம்மாந்துறை	9R96+ඩබ්ලිව්ඩබ්ලිව්ආර්, සම්මන්තුරේ, ශ්‍රී ලංකාව	9R96+WWR, சம்மாந்துறை, இலங்கை
Ampara	Akkaraipattu	MOH Office - Akkaraipattu	False	False	MPRKKRPTTMHFFCKKRPTT		Ampara	LK-52	7.23699	81.550391	Akkaraipattu	PS-520126	7.216084	81.853254	7.228134	81.851123	6VH2+7C5, Akkaraipattu, Sri Lanka	1.360772		අම්පාර	අක්කරපත්තුව	MOH කාර්යාලය - අක්කරපත්තුව	அம்பாறை	அக்கரைப்பற்று	MOH அலுவலகம் - அக்கரைப்பற்று	6VH2+7C5, අක්කරපත්තුව, ශ්‍රී ලංකාව	6VH2+7C5, அக்கரைப்பற்று, இலங்கை
