district	police	center	dose1	dose2	fuzzy_key	alt_name	district_name_norm	district_id	district_lat	district_lng	ps_name_norm	ps_id	ps_lat	ps_lng	lat	lng	formatted_address	dis_center_to_police	tags	district_si	police_si	center_si	district_ta	police_ta	center_ta	formatted_address_si	formatted_address_ta
Colombo	Cinnamon Gardens	Viharamahadevi Park	False	False	CLMBCNNMNGRDNSVHRMHDVPRK		Colombo	LK-11	6.869636	80.019598	Cinnamon Garden	PS-110324	6.907289	79.863819	6.913391	79.86174	Viharamahadevi Park, Colombo, Sri Lanka	0.716497		කොළඹ	කුරුඳු උද්‍යාන	විහාරමහාදේවි උද්‍යානය	கொழும்பு	இலவங்கப்பட்டை தோட்டங்கள்	விஹாரமஹாதேவி பூங்கா	විහාරමහාදේවි උද්‍යානය, කොළඹ, ශ්‍රී ලංකාව	விஹாரமஹாதேவி பூங்கா, கொழும்பு, இலங்கை
Colombo	Thalangama	MOH Office – Battaramulla	False	False	CLMBTHLNGMMHFFCBTTRMLL		Colombo	LK-11	6.869636	80.019598	Thalangama	PS-110466	6.91089	79.929325	6.901538	79.919128	WW29+JM6, Battaramulla 10120, Sri Lanka	1.532936		කොළඹ	තලංගම	MOH කාර්යාලය - බත්තරමුල්ල	கொழும்பு	தலங்கம	MOH அலுவலகம் - பத்தரமுல்ல	WW29+JM6, බත්තරමුල්ල 10120, ශ්‍රී ලංකාව	WW29+JM6, பத்தரமுல்ல 10120, இலங்கை
Colombo	Narahenpita	Army Hospital- Narahenpita	False	False	CLMBNRHNPTRMYHSPTLNRHNPT		Colombo	LK-11	6.869636	80.019598	Narahenpita	PS-110321	6.891832	79.876715	6.900252	79.87618	08 Elvitigala Mawatha, Colombo 00800, Sri Lanka	0.938417		කොළඹ	නාරාහේන්පිට	යුද හමුදා රෝහල- නාරාහේන්පිට	கொழும்பு	நரஹேன்பிட்ட	இராணுவ மருத்துவமனை- நாரஹேன்பிட்ட	08 ඇල්විටිගල මාවත, කොළඹ 00800, ශ්‍රී ලංකාව	08 எல்விட்டிகல மாவத்தை, கொழும்பு 00800, இலங்கை
Colombo	Narahenpita	Mobile Team	False	False	CLMBNRHNPTMBLTM		Colombo	LK-11	6.869636	80.019598	Narahenpita	PS-110321	6.891832	79.876715					#CenterLocationUnknown	කොළඹ	නාරාහේන්පිට	ජංගම කණ්ඩායම	கொழும்பு	நரஹேன்பிட்ட	மொபைல் குழு		
Colombo	Homagama	Panagoda Bodhirajarama Viharaya	False	False	CLMBHMGMPNGDBDHRJRMVHRY		Colombo	LK-11	6.869636	80.019598	Homagama	PS-110470	6.836155	80.003474	6.929161	79.88265	Gnanawimala Rd, Colombo, Sri Lanka	16.883101		කොළඹ	හෝමාගම	පනාගොඩ බෝධිරාජාරාම විහාරය	கொழும்பு	ஹோமாகம	பனகொட போதிராஜாராம விஹாராயா	ඥානවිමල පාර, කොළඹ, ශ්‍රී ලංකාව	ஞானவிமல வீதி, கொழும்பு, இலங்கை
Colombo	Borella	St. Luke's Church – Borella	False	False	CLMBBRLLSTLKSCHRCHBRLL		Colombo	LK-11	6.869636	80.019598	Borella	PS-110323	6.915266	79.87829	6.918035	79.874548	1091 Gnanartha Pradeepa Mawatha, Colombo 00800, Sri Lanka	0.515354		කොළඹ	බොරැල්ල	ශාන්ත ලූක් දේවස්ථානය - බොරැල්ල	கொழும்பு	பொரெல்லா	செயின்ட் லூக்கா தேவாலயம் - பொரெல்லா	1091 ඥානාර්ථ ප්‍රදීපා මාවත, කොළඹ 00800, ශ්‍රී ලංකාව	1091 ஞானார்த்த பிரதீப மாவத்தை, கொழும்பு 00800, இலங்கை
Colombo	Mirihana	MOH Office – Beddagana	False	False	CLMBMRHNMHFFCBDDGN		Colombo	LK-11	6.869636	80.019598	Mirihana	PS-110462	6.873714	79.901724	6.885731	79.908328	Baddagana Rd, Sri Jayawardenepura Kotte 10100, Sri Lanka	1.522652		කොළඹ	මිරිහාන	MOH කාර්යාලය - බැද්දගාන	கொழும்பு	மிரிஹானா	MOH அலுவலகம் - பெத்தகனா	බද්දගාන පාර, ශ්‍රී ජයවර්ධනපුර කෝට්ටේ 10100, ශ්‍රී ලංකාව	பதகனா சாலை, ஸ்ரீ ஜெயவர்தனபுரா கோட்டே 10100, இலங்கை
Colombo	Boralesgamuwa	Kotelawala Defence Hospital	False	False	CLMBBRLSGMWKTLWLDFNCHSPTL		Colombo	LK-11	6.869636	80.019598	Boralesgamuwa	PS-110464	6.841331	79.901255	6.82518	79.907167	RWG4+3VF, Boralesgamuwa, Sri Lanka	1.911444		කොළඹ	බොරලැස්ගමුව	කොතලාවල ආරක්‍ෂක රෝහල	கொழும்பு	பொரலஸ்கமுவா	கொத்தலாவல பாதுகாப்பு மருத்துவமனை	RWG4+3VF, බොරලැස්ගමුව, ශ්‍රී ලංකාව	RWG4+3VF, பொரலஸ்கமுவா, இலங்கை
Colombo	Dehiwala	MOH Office – Dehiwala	False	False	CLMBDHWLMHFFCDHWL		Colombo	LK-11	6.869636	80.019598	Dehiwala	PS-110580	6.850088	79.871696	6.861346	79.865943	VV68+G9P, Dehiwala-Mount Lavinia, Sri Lanka	1.404177		කොළඹ	දෙහිවල	MOH කාර්යාලය - දෙහිවල	கொழும்பு	தெஹிவளை	MOH அலுவலகம் - தெஹிவளை	VV68+G9P, දෙහිවල-ගල්කිස්ස, ශ්‍රී ලංකාව	VV68+G9P, தெஹிவளை-கல்கிசை, இலங்கை
Colombo	Grandpass	Fouzi Maternity Clinic	False	False	CLMBGRNDPSSFZMTRNTYCLNC		Colombo	LK-11	6.869636	80.019598	Grandpass	PS-110215	6.949052	79.872983	6.967647	79.870269	Hubert Pl, Colombo, Sri Lanka	2.089913		කොළඹ	ග්‍රෑන්ඩ්පාස්	ෆවුසි මාතෘ සායනය	கொழும்பு	கிராண்ட்பாஸ்	ஃபouஸி மகப்பேறு மருத்துவமனை	හියුබර්ට් පීඑල්, ​​කොළඹ, ශ්‍රී ලංකාව	ஹூபர்ட் பிஎல், கொழும்பு, இலங்கை
Colombo	Foreshore	MOH Office - Jinthupitiya	False	False	CLMBFRSHRMHFFCJNTHPTY		Colombo	LK-11	6.869636	80.019598	Fore shore	PS-110210	6.949589	79.857355	6.943258	79.859238	No.27 Vivekananda Hill, Colombo 01300, Sri Lanka	0.734247		කොළඹ	මුහුදු වෙරළ	MOH කාර්යාලය - ජින්තුපිටිය	கொழும்பு	கடற்கரை	MOH அலுவலகம் - ஜிந்துபிடியா	අංක 27 විවේකානන්ද කන්ද, කොළඹ 01300, ශ්‍රී ලංකාව	எண் .27 விவேகானந்த மலை, கொழும்பு 01300, இலங்கை
Colombo	Mulleriyawa	MOH Office - Gothatuwa	False	False	CLMBMLLRYWMHFFCGTHTW		Colombo	LK-11	6.869636	80.019598	Mulleriyawa	PS-110469	6.927187	79.929108	6.922088	79.916237	Mandavila Rd, Kotikawatta, Sri Lanka	1.530186		කොළඹ	මුල්ලේරියාව	MOH කාර්යාලය - ගොතටුව	கொழும்பு	முல்லேரியாவா	MOH அலுவலகம் - கோததுவா	මණ්ඩවිල පාර, කොටිකාවත්ත, ශ්‍රී ලංකාව	மண்டவில வீதி, கொட்டிகாவத்த, இலங்கை
Colombo	Wellampitiya	MOH Office – Kolonnawa	False	False	CLMBWLLMPTYMHFFCKLNNW		Colombo	LK-11	6.869636	80.019598	Wellampitiya	PS-110465	6.937514	79.896298	6.922088	79.916237	Mandavila Rd, Kotikawatta, Sri Lanka	2.791266		කොළඹ	වැල්ලම්පිටිය	MOH කාර්යාලය - කොළොන්නාව	கொழும்பு	வெல்லம்பிட்டிய	MOH அலுவலகம் - கொலன்னாவா	මණ්ඩවිල පාර, කොටිකාවත්ත, ශ්‍රී ලංකාව	மண்டவில வீதி, கொட்டிகாவத்த, இலங்கை
Colombo	Kaduwela	MOH Office – Kaduwela	False	False	CLMBKDWLMHFFCKDWL		Colombo	LK-11	6.869636	80.019598	Kaduwela		6.936234	79.970183	6.934127	79.984398	B263, Kaduwela, Sri Lanka	1.586964		කොළඹ	කඩුවෙල	MOH කාර්යාලය - කඩුවෙල	கொழும்பு	கடுவெல	MOH அலுவலகம் - கடுவெல	බී 263, කඩුවෙල, ශ්‍රී ලංකාව	பி 263, கடுவெல, இலங்கை
Colombo	Maradana	National Hospital – Colombo	False	False	CLMBMRDNNTNLHSPTLCLMB		Colombo	LK-11	6.869636	80.019598	Maradana	PS-110107	6.927939	79.865471	6.918743	79.868992	Colombo 00700, Sri Lanka	1.094265		කොළඹ	මරදාන	ජාතික රෝහල - කොළඹ	கொழும்பு	மரதானா	தேசிய மருத்துவமனை - கொழும்பு	කොළඹ 00700, ශ්‍රී ලංකාව	கொழும்பு 00700, இலங்கை
Colombo	Kosgama	Kosgama Hospital	False	False	CLMBKSGMKSGMHSPTL		Colombo	LK-11	6.869636	80.019598	Kosgama	PS-920227	6.946597	80.137869	6.940956	80.124888	Salawa-Akarawita, 10730, Sri Lanka	1.564606		කොළඹ	කොස්ගම	කොස්ගම රෝහල	கொழும்பு	கொஸ்கம	கொஸ்கம மருத்துவமனை	සාලාව-අකරවිට, 10730, ශ්‍රී ලංකාව	சலாவா-அகரவிட, 10730, இலங்கை
Gampaha	Gampaha	Mobile Team 1	False	False	GMPHGMPHMBLTM		Gampaha	LK-12	7.123598	80.018508	Gampaha	PS-120237	7.087765	80.01228					#CenterLocationUnknown	ගම්පහ	ගම්පහ	ජංගම කණ්ඩායම 1	கம்பஹா	கம்பஹா	மொபைல் குழு 1		
Gampaha	Minuwangoda	Marapola Maha Vidyalaya	False	False	GMPHMNWNGDMRPLMHVDYLY		Gampaha	LK-12	7.123598	80.018508	Minuwangoda	PS-120238	7.174215	79.957874	7.156315	80.029757	Udugampola - Divulapitiya Rd, Veyangoda, Sri Lanka	8.179126		ගම්පහ	මිනුවන්ගොඩ	මාරපොළ මහා විද්‍යාලය	கம்பஹா	மினுவாங்கொட	மரபொல மகா வித்தியாலயம்	උඩුගම්පොල - දිවුලපිටිය පාර, වේයන්ගොඩ, ශ්‍රී ලංකාව	உடுகம்பொல - திவுலபிட்டிய வீதி, வேயங்கொடை, இலங்கை
Gampaha	Minuwangoda	Wijaya Mangala Pirivena – Yatiyana	False	False	GMPHMNWNGDWJYMNGLPRVNYTYN		Gampaha	LK-12	7.123598	80.018508	Minuwangoda	PS-120238	7.174215	79.957874	7.183944	79.920757	64 Siddartha Mawata, Katunayake, Sri Lanka	4.236687		ගම්පහ	මිනුවන්ගොඩ	විජය මංගල පිරිවෙන - යටියන	கம்பஹா	மினுவாங்கொட	விஜய மங்கள பிரிவேனா - யத்தியானா	64 සිද්ධාර්ථ මාවත, කටුනායක, ශ්‍රී ලංකාව	64 சித்தார்த்த மாவட, கட்டுநாயக்க, இலங்கை
Gampaha	Biyagama	MOH Office – Biyagama	False	False	GMPHBYGMMHFFCBYGM		Gampaha	LK-12	7.123598	80.018508	Biyagama	PS-120131	6.962284	80.009037	6.946824	79.994052	Hospital Rd, Sri Lanka	2.386313		ගම්පහ	බියගම	MOH කාර්යාලය - බියගම	கம்பஹா	பியகம	MOH அலுவலகம் - பியாகம	රෝහල පාර, ශ්‍රී ලංකාව	மருத்துவமனை Rd, இலங்கை
Gampaha	Kelaniya	Dalugama Clinic	False	False	GMPHKLNYDLGMCLNC		Gampaha	LK-12	7.123598	80.018508	Kelaniya	PS-120126	6.950251	79.917459	6.97451	79.922566	No 102/c.kandy road.dalugama, Kelaniya 11600, Sri Lanka	2.756609		ගම්පහ	කැලණිය	දළුගම සායනය	கம்பஹா	களனி	தாலுகம கிளினிக்	අංක 102/c. මහනුවර පාර.දළුගම, කැලණිය 11600, ශ්‍රී ලංකාව	எண் 102/சி.கண்டி சாலை.தழுகம, களனியா 11600, இலங்கை
Gampaha	Kadawata	Hinigama Viharaya	False	False	GMPHKDWTHNGMVHRY		Gampaha	LK-12	7.123598	80.018508	Kadawatha	PS-120136	7.00152	79.95003	7.537105	80.490915	Ridee Vihara Rd, Ridigama, Sri Lanka	84.323699	#CenterFarFromPolice	ගම්පහ	කඩවත	හිනිගම විහාරය	கம்பஹா	கடவாடா	ஹினிகாமா விஹாராயா	රිදී විහාර පාර, රිදිගම, ශ්‍රී ලංකාව	ரைடி விஹார வீதி, ரிதிகம, இலங்கை
Gampaha	Nittambuwa	Sangabodhi Central College	False	False	GMPHNTTMBWSNGBDHCNTRLCLLG		Gampaha	LK-12	7.123598	80.018508	Nittambuwa	PS-120246	7.149726	80.10046	7.132766	80.082302	A1, Nittambuwa, Sri Lanka	2.752256		ගම්පහ	නිට්ටඹුව	සංඝබෝධි මධ්‍ය විද්‍යාලය	கம்பஹா	நிட்டம்புவா	சங்கபோதி மத்திய கல்லூரி	ඒ 1, නිට්ටඹුව, ශ්‍රී ලංකාව	ஏ 1, நிட்டம்புவா, இலங்கை
Gampaha	Nittambuwa	Alawala Mobile Vaccination	False	False	GMPHNTTMBWLWLMBLVCCNTN		Gampaha	LK-12	7.123598	80.018508	Nittambuwa	PS-120246	7.149726	80.10046					#CenterLocationUnknown	ගම්පහ	නිට්ටඹුව	අලවල ජංගම එන්නත	கம்பஹா	நிட்டம்புவா	அலவாலா மொபைல் தடுப்பூசி		
Gampaha	Nittambuwa	Nambuluwa Government Dispensary	False	False	GMPHNTTMBWNMBLWGVRNMNTDSPNSRY		Gampaha	LK-12	7.123598	80.018508	Nittambuwa	PS-120246	7.149726	80.10046	7.119722	80.070471	439C+V5Q, Kalagedihena, Sri Lanka	4.700308		ගම්පහ	නිට්ටඹුව	නම්බුළුව රජයේ බෙහෙත් ශාලාව	கம்பஹா	நிட்டம்புவா	நம்புலுவ அரசு மருந்தகம்	439 සී+වී 5Q, කලගෙඩිහේන, ශ්‍රී ලංකාව	439C+V5Q, கலகெடிஹேனா, இலங்கை
Gampaha	Mirigama	Maligathenna Government Dispensary	False	False	GMPHMRGMMLGTHNNGVRNMNTDSPNSRY		Gampaha	LK-12	7.123598	80.018508	Meerigama	PS-120248	7.245169	80.128647	7.197393	80.094227	Kaleliya - Medagampitiya Rd, Pallewela, Sri Lanka	6.531912		ගම්පහ	මීරිගම	මාලිගාතැන්න රජයේ බෙහෙත් ශාලාව	கம்பஹா	மீரிகம	மாளிகத்தென்ன அரசு மருந்தகம்	කලෙළිය - මැදගම්පිටිය පාර, පල්ලෙවෙල, ශ්‍රී ලංකාව	கலேலியா - மேடகம்பிட்டிய வீதி, பல்லெவெல, இலங்கை
Gampaha	Pugoda	MOH Office – Dompe	False	False	GMPHPGDMHFFCDMP		Gampaha	LK-12	7.123598	80.018508	Pugoda	PS-120241	6.98283	80.111189	6.976767	80.117422	Dompe, Pugoda-Mandawala Rd, Pugoda, Sri Lanka	0.963513		ගම්පහ	පූගොඩ	MOH කාර්යාලය - දොම්පේ	கம்பஹா	புகோடா	MOH அலுவலகம் - Dompe	දොම්පේ, පූගොඩ-මණ්ඩාවල පාර, පූගොඩ, ශ්‍රී ලංකාව	டோம்பே, புகோடா-மண்டவாலா சாலை, புகோடா, இலங்கை
Gampaha	Negombo	Municipal Council – Negombo	False	False	GMPHNGMBMNCPLCNCLNGMB		Gampaha	LK-12	7.123598	80.018508	Negombo	PS-120351	7.224796	79.880015	7.20614	79.851928	Colombo Rd, Negombo, Sri Lanka	3.729901		ගම්පහ	මීගමුව	නගර සභාව - මීගමුව	கம்பஹா	நீர்கொழும்பு	மாநகர சபை - நீர்கொழும்பு	කොළඹ පාර, මීගමුව, ශ්‍රී ලංකාව	கொழும்பு வீதி, நீர்கொழும்பு, இலங்கை
Gampaha	Katana	MOH Office – Katana	False	False	GMPHKTNMHFFCKTN		Gampaha	LK-12	7.123598	80.018508	Katana	PS-120360	7.224796	79.880015	7.22436	79.88271	Katana, Negombo - Mirigama Rd, Negombo, Sri Lanka	0.301313		ගම්පහ	කටාන	MOH කාර්යාලය - කටාන	கம்பஹா	கட்டானா	MOH அலுவலகம் - கட்டானா	කටාන, මීගමුව - මීරිගම පාර, මීගමුව, ශ්‍රී ලංකාව	கட்டானா, நீர்கொழும்பு - மீரிகம வீதி, நீர்கொழும்பு, இலங்கை
Gampaha	Katana	Akkara 50 Porude Hall	False	False	GMPHKTNKKRPRDHLL		Gampaha	LK-12	7.123598	80.018508	Katana	PS-120360	7.224796	79.880015	7.198426	79.871684	Akkara 50, Negombo, Sri Lanka	3.073827		ගම්පහ	කටාන	අක්කර 50 පෝරුඩ් ශාලාව	கம்பஹா	கட்டானா	அக்கரை 50 பொருட் ஹால்	අක්කර 50, මීගමුව, ශ්‍රී ලංකාව	அக்கரை 50, நீர்கொழும்பு, இலங்கை
Gampaha	Divulapitiya	MOH Office – Divulapitiya	False	False	GMPHDVLPTYMHFFCDVLPTY		Gampaha	LK-12	7.123598	80.018508	Diulapitiya	PS-120355	7.174215	79.957874	7.215486	80.013606	6287+5CX, Divulapitiya, Sri Lanka	7.67456		ගම්පහ	දිවුලපිටිය	එම්ඕඑච් කාර්යාලය - දිවුලපිටිය	கம்பஹா	திவுலபிட்டிய	MOH அலுவலகம் - திவுலபிட்டிய	6287+5CX, දිවුලපිටිය, ශ්‍රී ලංකාව	6287+5CX, திவுலபிட்டிய, இலங்கை
Gampaha	Pamunugama	Pamunugama Hospital	False	False	GMPHPMNGMPMNGMHSPTL		Gampaha	LK-12	7.123598	80.018508	Pamunugama	PS-120353	7.078892	79.859696	7.093543	79.850191	3VV2+C38, Negombo, Sri Lanka	1.938152		ගම්පහ	පමුණුගම	පමුණුගම රෝහල	கம்பஹா	பமுனுகம	பமுனுகம மருத்துவமனை	3VV2+C38, මීගමුව, ශ්‍රී ලංකාව	3VV2+C38, நீர்கொழும்பு, இலங்கை
Gampaha	Ja Ela	MOH Office – Ja Ela	False	False	GMPHJLMHFFCJL		Gampaha	LK-12	7.123598	80.018508	Ja - Ela	PS-120133	7.081055	79.890504	7.075216	79.893879	60 Mount Kalvary Rd, Ja-Ela, Sri Lanka	0.748731		ගම්පහ	ජා ඇල	MOH කාර්යාලය - ජා ඇල	கம்பஹா	ஜா எல	MOH அலுவலகம் - ஜா எல	60 කල්වාරි පාර, ජා-ඇල, ශ්‍රී ලංකාව	60 மவுண்ட் கல்வாரி சாலை, ஜா-எல, இலங்கை
Gampaha	Wattala	MOH Office – Wattala	False	False	GMPHWTTLMHFFCWTTL		Gampaha	LK-12	7.123598	80.018508	Wattala	PS-120128	6.993713	79.894506	6.995817	79.885793	301 Hendala Rd, Wattala, Sri Lanka	0.989991		ගම්පහ	වත්තල	MOH කාර්යාලය - වත්තල	கம்பஹா	வத்தளை	MOH அலுவலகம் - வத்தளை	301 හැඳල පාර, වත්තල, ශ්‍රී ලංකාව	301 ஹெந்தலா சாலை, வத்தளை, இலங்கை
Gampaha	Ragama	MOH Office – Ragama	False	False	GMPHRGMMHFFCRGM		Gampaha	LK-12	7.123598	80.018508	Ragama	PS-120134	7.034975	79.924148	7.027386	79.920232	2WGC+X35, Ragama, Sri Lanka	0.948382		ගම්පහ	රාගම	MOH කාර්යාලය - රාගම	கம்பஹா	ராகம	MOH அலுவலகம் - ராகம	2WGC+X35, රාගම, ශ්‍රී ලංකාව	2WGC+X35, ராகம, இலங்கை
Kalutara	Kalutara	Mobile Team 1	False	False	KLTRKLTRMBLTM		Kalutara	LK-13	6.577316	80.127363	Kalutara South		6.584968	79.96102					#CenterLocationUnknown	කළුතර	කළුතර	ජංගම කණ්ඩායම 1	களுத்துறை	களுத்துறை	மொபைல் குழு 1		
Kalutara	Beruwala	Beruwala Hospital	False	False	KLTRBRWLBRWLHSPTL		Kalutara	LK-13	6.577316	80.127363	Beruwala	PS-1302102	6.480329	79.983498	6.472087	79.983492	FXCM+R9Q, Beruwala, Sri Lanka	0.916757		කළුතර	බේරුවල	බේරුවල රෝහල	களுத்துறை	பேருவளை	பேருவளை மருத்துவமனை	FXCM+R9Q, බේරුවල, ශ්‍රී ලංකාව	FXCM+R9Q, பேருவளை, இலங்கை
Kalutara	Bandaragama	Bandaragama Hospital	False	False	KLTRBNDRGMBNDRGMHSPTL		Kalutara	LK-13	6.577316	80.127363	Bandaragama	PS-130189	6.715179	79.987674	6.716162	79.991484	Horana Rd, Bandaragama, Sri Lanka	0.434849		කළුතර	බණ්ඩාරගම	බණ්ඩාරගම රෝහල	களுத்துறை	பண்டாரகம	பண்டாரகம மருத்துவமனை	හොරණ පාර, බණ්ඩාරගම, ශ්‍රී ලංකාව	ஹொரானா வீதி, பண்டாரகம, இலங்கை
Kalutara	Bandaragama	Atulugama Al Gazzaly College	False	False	KLTRBNDRGMTLGMLGZZLYCLLG		Kalutara	LK-13	6.577316	80.127363	Bandaragama	PS-130189	6.715179	79.987674	6.694166	79.995198	MXVW+M38, Bandaragama, Sri Lanka	2.480662		කළුතර	බණ්ඩාරගම	අටුලුගම අල් ගැසලි විද්‍යාලය	களுத்துறை	பண்டாரகம	அதுலுகம அல் கஸ்ஸாலி கல்லூரி	MXVW+M38, බණ්ඩාරගම, ශ්‍රී ලංකාව	MXVW+M38, பண்டாரகம, இலங்கை
Kalutara	Panadura	Panadura Hospital	False	False	KLTRPNDRPNDRHSPTL	Base Hospital Panadura	Kalutara	LK-13	6.577316	80.127363	Panadura North		6.756309	79.898939	6.721556	79.906851	A2, Panadura, Sri Lanka	3.963137		කළුතර	පානදුර	පානදුර මූලික රෝහල	களுத்துறை	பாணந்துறை	பாணந்துறை அடிப்படை மருத்துவமனை	ඒ 2, පානදුර, ශ්‍රී ලංකාව	ஏ 2, பாணந்துரா, இலங்கை
Kalutara	Thebuwana	Nebada Hospital	False	False	KLTRTHBWNNBDHSPTL		Kalutara	LK-13	6.577316	80.127363	Thebuwana	PS-1302105	6.654997	80.058183	6.563228	79.985261	Kalutara-Matugama Rd, Sri Lanka	13.004249		කළුතර	තෙබුවන	නෙබාඩා රෝහල	களுத்துறை	தேபுவானா	நெபாடா மருத்துவமனை	කළුතර මතුගම පාර, ශ්‍රී ලංකාව	களுத்துறை-மத்துகம வீதி, இலங்கை
Kalutara	Dodangoda	MOH Office – Dodangoda	False	False	KLTRDDNGDMHFFCDDNGD	6.540366199937832,80.03661033076219	Kalutara	LK-13	6.577316	80.127363	Dodangoda	PS-130299	6.553375	80.023569	6.541731	80.04335	Dodangoda, Sri Lanka	2.540775		කළුතර	දොඩන්ගොඩ	6.540366199937832,80.03661033076219	களுத்துறை	தொடங்கொட	6.540366199937832,80.03661033076219	දොඩන්ගොඩ, ශ්‍රී ලංකාව	தொடங்கொட, இலங்கை
Kalutara	Agalawatta	Pimbura Hospital	False	False	KLTRGLWTTPMBRHSPTL		Kalutara	LK-13	6.577316	80.127363	Agalawatta		6.542566	80.157178	6.575949	80.158371	H5G5+98H, කළුතර, Sri Lanka	3.715525		කළුතර	අගලවත්ත	පිඹුර රෝහල	களுத்துறை	அகலவத்தை	பிம்புரா மருத்துவமனை	H5G5+98H, කළුතර, ශ්‍රී ලංකාව	H5G5+98H, கருப்புதர, இலங்கை
Kalutara	Meegahathenna	MOH Office – Meegahathenna	False	False	KLTRMGHTHNNMHFFCMGHTHNN		Kalutara	LK-13	6.577316	80.127363	Meegahathenna	PS-1302107	6.436941	80.1943	6.435016	80.198501	B158, Meegahathenna, Sri Lanka	0.511322		කළුතර	මීගහතැන්න	MOH කාර්යාලය - මීගහතැන්න	களுத்துறை	மீகஹதென்ன	MOH அலுவலகம் - மீகஹதென்ன	බී 158, මීගහතැන්න, ශ්‍රී ලංකාව	பி 158, மீகஹதென்ன, இலங்கை
Kalutara	Baduraliya	Baduraliya Hospital	False	False	KLTRBDRLYBDRLYHSPTL		Kalutara	LK-13	6.577316	80.127363	Baduraliya	PS-1302106	6.516756	80.226716	6.514727	80.232731	Tiruwanaketiya-Agalawatte Rd, Baduraliya, Sri Lanka	0.702098		කළුතර	බදුරලිය	බදුරලිය රෝහල	களுத்துறை	பதுரலியா	பதுரலியா மருத்துவமனை	තිරුවානකැටිය-අගලවත්ත පාර, බදුරලිය, ශ්‍රී ලංකාව	திருவனகெட்டிய-அகலவத்தை சாலை, பதுரலியா, இலங்கை
Kalutara	Baduraliya	Kelinkanda Colony Vidyalaya	False	False	KLTRBDRLYKLNKNDCLNYVDYLY		Kalutara	LK-13	6.577316	80.127363	Baduraliya	PS-1302106	6.516756	80.226716	6.588616	80.272552	Kelinkanda Colony, Sri Lanka	9.462671		කළුතර	බදුරලිය	කෙලින්කන්ද ජනපද විද්‍යාලය	களுத்துறை	பதுரலியா	கெலிங்கந்தா காலனி வித்யாலயா	කෙලින්කන්ද ජනපද, ශ්‍රී ලංකාව	கெலிங்கண்டா காலனி, இலங்கை
Kalutara	Matugama	Weththewa Hospital	False	False	KLTRMTGMWTHTHWHSPTL		Kalutara	LK-13	6.577316	80.127363	Mathugama	PS-1302103	6.520881	80.117908	6.523087	80.125192	District Hospital, Hospital Road,Weththewa,., Matugama, Sri Lanka	0.841523		කළුතර	මතුගම	වෙත්තෑව රෝහල	களுத்துறை	மத்துகம	வெத்தேவா மருத்துவமனை	දිසා රෝහල, රෝහල් පාර, වෙත්තෑව,., මතුගම, ශ්‍රී ලංකාව	மாவட்ட மருத்துவமனை, மருத்துவமனை சாலை, வெத்தேவா,., மத்துகம, இலங்கை
Kalutara	Matugama	Katugahahena Hospital	False	False	KLTRMTGMKTGHHNHSPTL		Kalutara	LK-13	6.577316	80.127363	Mathugama	PS-1302103	6.520881	80.117908	6.489328	80.08471	F3QM+PVP, Bopitiya, Sri Lanka	5.077192		කළුතර	මතුගම	කටුගහහේන රෝහල	களுத்துறை	மத்துகம	கட்டுகஹஹேனா மருத்துவமனை	F3QM+PVP, බෝපිටිය, ශ්‍රී ලංකාව	F3QM+PVP, போபிடியா, இலங்கை
Kalutara	Horana	Base Hospital Horana	False	False	KLTRHRNBSHSPTLHRN		Kalutara	LK-13	6.577316	80.127363	Horana	PS-130192	6.714613	80.069091	6.710644	80.066589	Hospital Ln, Horana, Sri Lanka	0.520853		කළුතර	හොරණ	හොරණ මූලික රෝහල	களுத்துறை	ஹொரானா	ஹொரணை அடிப்படை மருத்துவமனை	හොරණ රෝහල, ශ්‍රී ලංකාව	மருத்துவமனை Ln, ஹொரானா, இலங்கை
Kalutara	Ingiriya	Ingiriya Hospital	False	False	KLTRNGRYNGRYHSPTL		Kalutara	LK-13	6.577316	80.127363	Ingiriya	PS-130193	6.743614	80.175077	6.741133	80.162046	Panadura-Nambapana-Ratnapura Hwy, Ingiriya, Sri Lanka	1.465626		කළුතර	ඉංගිරිය	ඉංගිරිය රෝහල	களுத்துறை	இங்கிரிய	இங்கிரிய மருத்துவமனை	පානදුර-නාම්බපන-රත්නපුර හ්වි, ඉංගිරිය, ශ්‍රී ලංකාව	பாணாதுரா-நம்பபனா-ரத்னபுரா ஹ்வி, இங்கிரிய, இலங்கை
Kurunegala	Kurunegala	Mobile Vaccination	False	False	KRNGLKRNGLMBLVCCNTN		Kurunegala	LK-61	7.66477	80.23677	Kurunegala	PS-610101	7.485852	80.364137					#CenterLocationUnknown	කුරුණෑගල	කුරුණෑගල	ජංගම එන්නත	குருநாகல்	குருநாகல்	மொபைல் தடுப்பூசி		
Kurunegala	Mundalama	Velasiya Maha Vidyalaya	False	False	KRNGLMNDLMVLSYMHVDYLY		Kurunegala	LK-61	7.66477	80.23677	Mundal	PS-620138	7.808859	79.825729	7.548169	80.308962	Katugastota-Kurunegala-Puttalam Hwy, Sri Lanka	60.648731	#CenterFarFromPolice	කුරුණෑගල	මුන්දලම	වෙලසිය මහා විද්‍යාලය	குருநாகல்	முண்டாலமா	வேலசிய மகா வித்தியாலயம்	කටුගස්තොට-කුරුණෑගල-පුත්තලම හ්වි, ශ්‍රී ලංකාව	கட்டுகஸ்தோட்டா-குருநாகல்-புத்தளம் Hwy, இலங்கை
Puttalam	Kalpitiya	MOH Office – Kalpitiya	False	False	PTTLMKLPTYMHFFCKLPTY		Puttalam	LK-62	7.973531	79.913833	Kalpitiya	PS-620137	8.235145	79.764567	8.228618	79.761271	6QH6+CGR, Kalpitiya, Sri Lanka	0.811617		පුත්තලම	කල්පිටිය	MOH කාර්යාලය - කල්පිටිය	புத்தளம்	கல்பிட்டிய	MOH அலுவலகம் - கல்பிட்டி	6QH6+CGR, කල්පිටිය, ශ්‍රී ලංකාව	6QH6+CGR, கல்பிட்டிய, இலங்கை
Kandy	Kandy	Mobile Vaccination	False	False	KNDYKNDYMBLVCCNTN		Kandy	LK-21	7.27337	80.709602	Kandy	PS-210101	7.292948	80.642368					#CenterLocationUnknown	මහනුවර	මහනුවර	ජංගම එන්නත	கண்டி	கண்டி	மொபைல் தடுப்பூசி		
Kandy	Kandy	Pushpadana Girls' College	False	False	KNDYKNDYPSHPDNGRLSCLLG		Kandy	LK-21	7.27337	80.709602	Kandy	PS-210101	7.292948	80.642368	7.293989	80.633	16 Kandy Rd, Kandy 20000, Sri Lanka	1.040036		මහනුවර	මහනුවර	පුෂ්පදාන බාලිකා විද්‍යාලය	கண்டி	கண்டி	புஷ்படனா பெண்கள் கல்லூரி	16 මහනුවර පාර, මහනුවර 20000, ශ්‍රී ලංකාව	16 கண்டி வீதி, கண்டி 20000, இலங்கை
Kandy	Kandy	Mahanama Vidyalaya	False	False	KNDYKNDYMHNMVDYLY		Kandy	LK-21	7.27337	80.709602	Kandy	PS-210101	7.292948	80.642368	7.272228	80.607279	396, 17 Peradeniya Rd, Kandy 20000, Sri Lanka	4.505525		මහනුවර	මහනුවර	මහානාම විද්‍යාලය	கண்டி	கண்டி	மகாநாம வித்யாலயா	396, 17 පේරාදෙණිය පාර, මහනුවර 20000, ශ්‍රී ලංකාව	396, 17 பேராதெனிய சாலை, கண்டி 20000, இலங்கை
Kandy	Kandy	MOH Office – Thennekumbura	False	False	KNDYKNDYMHFFCTHNNKMBR		Kandy	LK-21	7.27337	80.709602	Kandy	PS-210101	7.292948	80.642368	7.27939	80.666711	7MH8+QM4, Tennekumbura, Sri Lanka	3.080222		මහනුවර	මහනුවර	එම්ඕඑච් කාර්යාලය - තෙන්නකුඹුර	கண்டி	கண்டி	MOH அலுவலகம் - தென்னேகும்புரா	7MH8+QM4, තෙන්නකුඹුර, ශ්‍රී ලංකාව	7MH8+QM4, தென்னேகும்புரா, இலங்கை
Kandy	Kandy	Department of Social Services - Ketawala	False	False	KNDYKNDYDPRTMNTFSCLSRVCSKTWL		Kandy	LK-21	7.27337	80.709602	Kandy	PS-210101	7.292948	80.642368	7.275455	80.614964	No.615, William Gopallawa Mawatha, Kandy 20000, Sri Lanka	3.595515		මහනුවර	මහනුවර	සමාජ සේවා දෙපාර්තමේන්තුව - කැටවල	கண்டி	கண்டி	சமூக சேவைகள் துறை - கெடவாலா	අංක 615, විලියම් ගොපල්ලව මාවත, මහනුවර 20000, ශ්‍රී ලංකාව	எண் .615, வில்லியம் கோபல்லவா மாவத்தை, கண்டி 20000, இலங்கை
Kandy	Panwila	Kosgama Central College	False	False	KNDYPNWLKSGMCNTRLCLLG		Kandy	LK-21	7.27337	80.709602	Panwila	PS-210361	7.362355	80.713731	7.35866	80.708571	Kudugala-Wattegama Rd, Panwila 20830, Sri Lanka	0.702085		මහනුවර	පන්විල	කොස්ගම මධ්‍ය මහා විද්‍යාලය	கண்டி	பன்விலா	கொஸ்கம மத்திய கல்லூரி	කුඩුගල-වත්තේගම පාර, පන්විල 20830, ශ්‍රී ලංකාව	குடுகல-வட்டேகம சாலை, பன்விலா 20830, இலங்கை
Kandy	Nawalapitiya	Anurudha Kumara Primary School	False	False	KNDYNWLPTYNRDHKMRPRMRYSCHL		Kandy	LK-21	7.27337	80.709602	Nawalapitiya	PS-210219	7.057355	80.536075	7.05644	80.532084	3G4J+HRG, Nawalapitiya 20650, Sri Lanka	0.452158		මහනුවර	නාවලපිටිය	අනුරුධ කුමාර ප්‍රාථමික විද්‍යාලය	கண்டி	நாவலப்பிட்டி	அனுருத குமார தொடக்கப் பள்ளி	3G4J+HRG, නාවලපිටිය 20650, ශ්‍රී ලංකාව	3G4J+HRG, நாவலப்பிட்டி 20650, இலங்கை
Kandy	Nawalapitiya	Nawalapitiya Central College	False	False	KNDYNWLPTYNWLPTYCNTRLCLLG		Kandy	LK-21	7.27337	80.709602	Nawalapitiya	PS-210219	7.057355	80.536075	7.046305	80.537454	Weligampola Road, Nawalapitiya, Sri Lanka	1.238481		මහනුවර	නාවලපිටිය	නාවලපිටිය මධ්‍ය මහා විද්‍යාලය	கண்டி	நாவலப்பிட்டி	நாவலப்பிட்டி மத்திய கல்லூரி	වැලිගම්පොල පාර, නාවලපිටිය, ශ්‍රී ලංකාව	வெலிகம்பொல வீதி, நாவலப்பிட்டி, இலங்கை
Nuwara Eliya	Nuwara Eliya	Mobile Vaccination	False	False	NWRLYNWRLYMBLVCCNTN		Nuwara Eliya	LK-23	6.97423	80.711222	Nuwaraeliya	PS-230131	6.974148	80.767627					#CenterLocationUnknown	නුවරඑලිය	නුවරඑලිය	ජංගම එන්නත	நுவரெலியா	நுவரெலியா	மொபைல் தடுப்பூசி		
Nuwara Eliya	Walapane	Batagolla Pussadewa National College	False	False	NWRLYWLPNBTGLLPSSDWNTNLCLLG		Nuwara Eliya	LK-23	6.97423	80.711222	Walapone	PS-230141	7.093348	80.862513	7.09941	80.866318	Walapane - Watarakgoda Rd, Walapane, Sri Lanka	0.794378		නුවරඑලිය	වලපනේ	බටගොල්ල පුස්සදේව ජාතික විද්‍යාලය	நுவரெலியா	வலப்பனே	படகோல்ல புஸ்ஸதேவா தேசிய கல்லூரி	වලපනේ - වටරක්ගොඩ පාර, වලපනේ, ශ්‍රී ලංකාව	வலப்பனே - வடரகொட வீதி, வலப்பனே, இலங்கை
Matale	Matale	Matale District	False	False	MTLMTLMTLDSTRCT		Matale	LK-22	7.667587	80.731008	Matale	PS-220121	7.462789	80.626211	7.467465	80.623416	Matale, Sri Lanka	0.604595		මාතලේ	මාතලේ	මාතලේ දිස්ත්‍රික්කය	மாத்தளை	மாத்தளை	மாத்தளை மாவட்டம்	මාතලේ, ශ්‍රී ලංකාව	மாத்தளை, இலங்கை
Matale	Matale	Aluvihare	False	False	MTLMTLLVHR		Matale	LK-22	7.667587	80.731008	Matale	PS-220121	7.462789	80.626211	7.497535	80.624366	Aluvihare, Sri Lanka	3.870144		මාතලේ	මාතලේ	අලුවිහාරේ	மாத்தளை	மாத்தளை	அலுவிஹாரே	අළුවිහාරේ, ශ්‍රී ලංකාව	அலுவிஹாரே, இலங்கை
Matale	Matale	St. Thomas College	False	False	MTLMTLSTTHMSCLLG		Matale	LK-22	7.667587	80.731008	Matale	PS-220121	7.462789	80.626211	7.470517	80.621246	Kings St, Matale, Sri Lanka	1.019177		මාතලේ	මාතලේ	ශාන්ත තෝමස් විද්‍යාලය	மாத்தளை	மாத்தளை	செயின்ட் தாமஸ் கல்லூரி	කිංග්ස් ශාන්ත, මාතලේ, ශ්‍රී ලංකාව	கிங்ஸ் செயின்ட், மாத்தளை, இலங்கை
Matale	Mahawela	Pallepola Hospital	False	False	MTLMHWLPLLPLHSPTL		Matale	LK-22	7.667587	80.731008	Mahawela	PS-220123	7.589247	80.61027	7.627907	80.606017	Pallepola 21000, Sri Lanka	4.325634		මාතලේ	මහවෙල	පල්ලෙපොල රෝහල	மாத்தளை	மகாவெல	பல்லெபோலா மருத்துவமனை	පල්ලේපොල 21000, ශ්‍රී ලංකාව	பல்லெபோலா 21000, இலங்கை
Badulla	Badulla	Mobile Vaccination	False	False	BDLLBDLLMBLVCCNTN		Badulla	LK-81	7.074529	81.04486	Badulla	PS-810101	6.991337	81.055246					#CenterLocationUnknown	බදුල්ල	බදුල්ල	ජංගම එන්නත	பதுளை	பதுளை	மொபைல் தடுப்பூசி		
Badulla	Badulla	University of Uva Wellassa	False	False	BDLLBDLLNVRSTYFVWLLSS		Badulla	LK-81	7.074529	81.04486	Badulla	PS-810101	6.991337	81.055246	6.981895	81.076283	Badulla, Sri Lanka	2.548981		බදුල්ල	බදුල්ල	Uව වෙල්ලස්ස විශ්ව විද්‍යාලය	பதுளை	பதுளை	ஊவா வெல்லஸ்ஸா பல்கலைக்கழகம்	බදුල්ල, ශ්‍රී ලංකාව	பதுல்லா, இலங்கை
Badulla	Haldummulla	MOH Office – Haldummulla	False	False	BDLLHLDMMLLMHFFCHLDMMLL		Badulla	LK-81	7.074529	81.04486	Haldummulla		6.762216	80.885856	6.761089	80.876292	QV6G+CGM, Badulla, Sri Lanka	1.063814		බදුල්ල	හල්දුම්මුල්ල	MOH කාර්යාලය - හල්දුම්මුල්ල	பதுளை	ஹல்தும்முல்லா	MOH அலுவலகம் - ஹல்தும்முல்லா	QV6G+CGM, බදුල්ල, ශ්‍රී ලංකාව	QV6G+CGM, பதுளை, இலங்கை
Badulla	Uva Paranagama	MOH Office - Uva Paranagama	False	False	BDLLVPRNGMMHFFCVPRNGM		Badulla	LK-81	7.074529	81.04486	Uvaparanagama	PS-810213	6.958341	80.930364	6.927934	80.896475	Udapussellawa-Welimada Road, Ambagasdowa, Sri Lanka	5.043837		බදුල්ල	Vaව පරණගම	MOH කාර්යාලය - vaව පරණගම	பதுளை	ஊவ பரணகம	MOH அலுவலகம் - ஊவா பரணகம	උඩපුස්සැල්ලාව-වැලිමඩ පාර, අඹගස්දෝව, ශ්‍රී ලංකාව	உடபுசெல்லவா-வெலிமட சாலை, அம்பகஸ்தோவா, இலங்கை
Badulla	Haputale	MOH Office – Haputale	False	False	BDLLHPTLMHFFCHPTL		Badulla	LK-81	7.074529	81.04486	Haputale	PS-810215	6.767653	80.957218	6.779645	80.964114	QXH7+WC4, Badulla, Sri Lanka	1.536024		බදුල්ල	හපුතලේ	MOH කාර්යාලය - හපුතලේ	பதுளை	ஹப்புதலே	MOH அலுவலகம் - ஹப்புத்தளை	QXH7+WC4, බදුල්ල, ශ්‍රී ලංකාව	QXH7+WC4, பதுளை, இலங்கை
Badulla	Welimada	MOH Office - Welimada	False	False	BDLLWLMDMHFFCWLMD		Badulla	LK-81	7.074529	81.04486	Welimada	PS-810212	6.900481	80.905809	6.927934	80.896475	Udapussellawa-Welimada Road, Ambagasdowa, Sri Lanka	3.222841		බදුල්ල	වැලිමඞ	MOH කාර්යාලය - වැලිමඩ	பதுளை	வெலிமடா	MOH அலுவலகம் - வெலிமடை	උඩපුස්සැල්ලාව-වැලිමඩ පාර, අඹගස්දෝව, ශ්‍රී ලංකාව	உடபுசெல்லவா-வெலிமட சாலை, அம்பகஸ்தோவா, இலங்கை
Badulla	Ella	MOH Office – Ella	False	False	BDLLLLMHFFCLL		Badulla	LK-81	7.074529	81.04486	Ella	PS-810211	6.876609	81.048276	6.779645	80.964114	QXH7+WC4, Badulla, Sri Lanka	14.237912		බදුල්ල	ඇලා	MOH කාර්යාලය - ඇල්ල	பதுளை	எல்ல	MOH அலுவலகம் - எல்ல	QXH7+WC4, බදුල්ල, ශ්‍රී ලංකාව	QXH7+WC4, பதுளை, இலங்கை
Badulla	Bandarawela	MOH Office – Bandarawela	False	False	BDLLBNDRWLMHFFCBNDRWL		Badulla	LK-81	7.074529	81.04486	Bandarawela	PS-810210	6.831526	80.986784	6.841272	80.98482	Hospital Junction Helamuduna Bus Stop, Etampitiya Rd, Bandarawela, Sri Lanka	1.105533		බදුල්ල	බණ්ඩාරවෙල	MOH කාර්යාලය - බණ්ඩාරවෙල	பதுளை	பண்டாரவளை	MOH அலுவலகம் - பண்டாரவளை	රෝහල් හන්දිය හෙළමුදුන බස් නැවතුම, ඇටම්පිටිය පාර, බණ්ඩාරවෙල, ශ්‍රී ලංකාව	மருத்துவமனை சந்திப்பு ஹெலமுதுனா பேருந்து நிறுத்தம், இடம்பிட்டிய சாலை, பண்டாரவளை, இலங்கை
Badulla	Passara	Passara Hospital	False	False	BDLLPSSRPSSRHSPTL		Badulla	LK-81	7.074529	81.04486	Passara	PS-810102	6.934481	81.154796	6.933517	81.152592	Demodera - Spring Valley - Badulla Road, Passara, Sri Lanka	0.265888		බදුල්ල	පස්සර	පස්සර රෝහල	பதுளை	பசர	பசாரா மருத்துவமனை	දෙමෝදර - වසන්ත නිම්නය - බදුල්ල පාර, පස්සර, ශ්‍රී ලංකාව	டெமோடெரா - வசந்த பள்ளத்தாக்கு - பதுல்லா சாலை, பசாரா, இலங்கை
Moneragala	Monaragala	Mobile Vaccination	False	False	MNRGLMNRGLMBLVCCNTN		Moneragala	LK-82	6.787517	81.303744	Monaragala	PS-820121	6.869866	81.348106					#CenterLocationUnknown	මොණරාගල	මොනරාගල	ජංගම එන්නත	மொனராகலை	மொனராகலை	மொபைல் தடுப்பூசி		
Moneragala	Thanamalwila	Cultural Centre – Thanamalwila	False	False	MNRGLTHNMLWLCLTRLCNTRTHNMLWL		Moneragala	LK-82	6.787517	81.303744	Thanamalwila	PS-820131	6.437696	81.131051	6.434468	81.132405	C4MJ+QXJ, Thanamalwila, Sri Lanka	0.388991		මොණරාගල	තණමල්විල	සංස්කෘතික මධ්‍යස්ථානය - තණමල්විල	மொனராகலை	தனமல்வில	கலாச்சார மையம் - தனமல்வில	C4MJ+QXJ, තණමල්විල, ශ්‍රී ලංකාව	C4MJ+QXJ, தனமல்வில, இலங்கை
Moneragala	Thanamalwila	Kethsirigama Primary School	False	False	MNRGLTHNMLWLKTHSRGMPRMRYSCHL		Moneragala	LK-82	6.787517	81.303744	Thanamalwila	PS-820131	6.437696	81.131051	6.431306	81.122683	Udawalawa Rd, Thanamalwila, Sri Lanka	1.166462		මොණරාගල	තණමල්විල	කෙත්සිරිගම ප්‍රාථමික විද්‍යාලය	மொனராகலை	தனமல்வில	கெத்சிரிகம தொடக்கப்பள்ளி	උඩවලව පාර, තණමල්විල, ශ්‍රී ලංකාව	உடவலவா வீதி, தனமல்வில, இலங்கை
Moneragala	Dambagalla	Koswelpola Maha Vidyalaya	False	False	MNRGLDMBGLLKSWLPLMHVDYLY		Moneragala	LK-82	6.787517	81.303744	Dambagalla	PS-820123	6.978806	81.372037	6.961757	81.371229	X96C+PF5, Dambagalla, Sri Lanka	1.898455		මොණරාගල	දඹගල්ල	කොස්වැල්පොල මහා විද්‍යාලය	மொனராகலை	தம்பகல்லா	கொஸ்வெல்பொல மகா வித்தியாலயம்	X96C+PF5, දඹගල්ල, ශ්‍රී ලංකාව	X96C+PF5, தம்பகல்லா, இலங்கை
Moneragala	Dambagalla	Alpitiya Maha Vidyalaya	False	False	MNRGLDMBGLLLPTYMHVDYLY		Moneragala	LK-82	6.787517	81.303744	Dambagalla	PS-820123	6.978806	81.372037	6.989221	81.40116	XCQ2+MFM, Meegahapitiya, Sri Lanka	3.417638		මොණරාගල	දඹගල්ල	ඇල්පිටිය මහා විද්‍යාලය	மொனராகலை	தம்பகல்லா	அல்பிட்டிய மகா வித்தியாலயம்	XCQ2+MFM, මීගහපිටිය, ශ්‍රී ලංකාව	XCQ2+MFM, மீகஹாபிட்டிய, இலங்கை
Galle	Galle	Mobile Vaccination	False	False	GLLGLLMBLVCCNTN		Galle	LK-31	6.222805	80.251977	Galle	PS-310120	6.032983	80.21714					#CenterLocationUnknown	ගාල්ල	ගාල්ල	ජංගම එන්නත	காலி	காலி	மொபைல் தடுப்பூசி		
Galle	Yakkalamulla	Thellambura Dutugemunu Vidyalaya	False	False	GLLYKKLMLLTHLLMBRDTGMNVDYLY		Galle	LK-31	6.222805	80.251977	Yakkalamulla	PS-310125	6.106186	80.348152	6.120463	80.340113	Galle - Udugama Rd, Sri Lanka	1.819977		ගාල්ල	යක්කලමුල්ල	තෙල්ලඹුර දුටුගැමුණු විදුහල	காலி	யக்கலாமுல்லா	தெல்லம்புரா துதுகேமுனு வித்யாலயா	ගාල්ල - උඩුගම පාර, ශ්‍රී ලංකාව	காலி - உடுகம வீதி, இலங்கை
Galle	Matara	Mobile Vaccination	False	False	GLLMTRMBLVCCNTN		Galle	LK-31	6.222805	80.251977	Matara	PS-320101	5.94904	80.533659					#CenterLocationUnknown	ගාල්ල	මාතර	ජංගම එන්නත	காலி	மாத்தறை	மொபைல் தடுப்பூசி		
Matara	Mawarala	Makandura Vidyalaya	False	False	MTRMWRLMKNDRVDYLY		Matara	LK-32	6.142734	80.539994	Mawarala	PS-320109	6.198061	80.587045	6.144031	80.561965	Thihagoda-Kamburupitiya-Mawarala-Kotapola Rd, Sri Lanka	6.618856		මාතර	මාවරල	මාකඳුර විද්‍යාලය	மாத்தறை	மவரல	மகந்துரா வித்யாலயா	තිහගොඩ-කඹුරුපිටිය-මාවරල-කොටපොල පාර, ශ්‍රී ලංකාව	திஹகொட-கம்புருபிட்டிய-மாவரலா-கொட்டபொல சாலை, இலங்கை
Hambantota	Hambantota	Mobile Vaccination	False	False	HMBNTTHMBNTTMBLVCCNTN		Hambantota	LK-33	6.259779	81.098619	Hambantota	PS-330156	6.125872	81.12521					#CenterLocationUnknown	හම්බන්තොට	හම්බන්තොට	ජංගම එන්නත	அம்பாந்தோட்டை	அம்பாந்தோட்டை	மொபைல் தடுப்பூசி		
Hambantota	Hambantota	MOH Office – Hambantota	False	False	HMBNTTHMBNTTMHFFCHMBNTT		Hambantota	LK-33	6.259779	81.098619	Hambantota	PS-330156	6.125872	81.12521	6.171162	81.127	54CG+FQ9, Hambantota, Sri Lanka	5.041487		හම්බන්තොට	හම්බන්තොට	MOH කාර්යාලය - හම්බන්තොට	அம்பாந்தோட்டை	அம்பாந்தோட்டை	MOH அலுவலகம் - அம்பாந்தோட்டை	54CG+FQ9, හම්බන්තොට, ශ්‍රී ලංකාව	54CG+FQ9, ஹம்பாந்தோட்டை, இலங்கை
Hambantota	Walasmulla	MOH Office – Walasmulla	False	False	HMBNTTWLSMLLMHFFCWLSMLL		Hambantota	LK-33	6.259779	81.098619	Walasmulla	PS-330151	6.154102	80.698256	6.150889	80.693718	Walasmulla, Sri Lanka	0.616099		හම්බන්තොට	වලස්මුල්ල	MOH කාර්යාලය - වලස්මුල්ල	அம்பாந்தோட்டை	வலஸ்முல்லா	MOH அலுவலகம் - வலஸ்முல்லா	වලස්මුල්ල, ශ්‍රී ලංකාව	வலஸ்முல்லா, இலங்கை
Hambantota	Weeraketiya	MOH Office – Weeraketiya	False	False	HMBNTTWRKTYMHFFCWRKTY		Hambantota	LK-33	6.259779	81.098619	Weeraketiya	PS-330149	6.153899	80.76737	6.144703	80.765287	4QV8+V4M, Weeraketiya, Sri Lanka	1.048488		හම්බන්තොට	වීරකැටිය	MOH කාර්යාලය - වීරකැටිය	அம்பாந்தோட்டை	வீரகெட்டிய	MOH அலுவலகம் - வீரகெட்டிய	4QV8+V4M, වීරකැටිය, ශ්‍රී ලංකාව	4QV8+V4M, வீரகெட்டிய, இலங்கை
Hambantota	Katuwana	MOH Office – Katuwana	False	False	HMBNTTKTWNMHFFCKTWN		Hambantota	LK-33	6.259779	81.098619	Katuwana	PS-330153	6.269722	80.690963	6.26627	80.693035	7M8V+G63, Katuwana, Sri Lanka	0.447115		හම්බන්තොට	කටුවන	MOH කාර්යාලය - කටුවන	அம்பாந்தோட்டை	கட்டுவானா	MOH அலுவலகம் - கட்டுவானா	7 එම් 8 වී+ජී 63, කටුවන, ශ්‍රී ලංකාව	7M8V+G63, கட்டுவானா, இலங்கை
Hambantota	Ambalantota	MOH Office – Ambalantota	False	False	HMBNTTMBLNTTMHFFCMBLNTT		Hambantota	LK-33	6.259779	81.098619	Ambalantota	PS-330157	6.12516	81.023981	6.122767	81.005973	Walawa watta Road, Malpeththawa, Ambalantota, Sri Lanka	2.009195		හම්බන්තොට	අම්බලන්තොට	MOH කාර්යාලය - අම්බලන්තොට	அம்பாந்தோட்டை	அம்பலாந்தோட்டை	MOH அலுவலகம் - அம்பலாந்தோட்டை	වලව වත්ත පාර, මල්පෙත්තාව, අම්බලන්තොට, ශ්‍රී ලංකාව	வலவா வாட்டா சாலை, மால்பெத்தவா, அம்பலாந்தோட்டை, இலங்கை
Hambantota	Sooriyawewa	MOH Office – Sooriyawewa	False	False	HMBNTTSRYWWMHFFCSRYWW		Hambantota	LK-33	6.259779	81.098619	Sooriyawewa	PS-330155	6.306022	81.003873	6.304862	81.004768	8233+WWR, Sooriyawewa, Sri Lanka	0.1626		හම්බන්තොට	සූරියවැව	MOH කාර්යාලය - සූරියවැව	அம்பாந்தோட்டை	சூரியவெவ	MOH அலுவலகம் - சூரியவெவ	8233+ඩබ්ලිව්ඩබ්ලිව්ආර්, සූරියවැව, ශ්‍රී ලංකාව	8233+WWR, சூரியவெவ, இலங்கை
Hambantota	Beliatta	MOH Office – Beliatta	False	False	HMBNTTBLTTMHFFCBLTT		Hambantota	LK-33	6.259779	81.098619	Beliatta	PS-330152	6.046936	80.735408	6.051828	80.741735	3P2R+PMQ, Hambantota, Sri Lanka	0.886482		හම්බන්තොට	බෙලිඅත්ත	MOH කාර්යාලය - බෙලිඅත්ත	அம்பாந்தோட்டை	பெலியாட்டா	MOH அலுவலகம் - பெலியாட்ட	3P2R+PMQ, හම්බන්තොට, ශ්‍රී ලංකාව	3P2R+PMQ, ஹம்பாந்தோட்டை, இலங்கை
Hambantota	Tangalle	MOH Office – Tangalle	False	False	HMBNTTTNGLLMHFFCTNGLL		Hambantota	LK-33	6.259779	81.098619	Tangalle	PS-330147	6.023954	80.797255	6.02363	80.795742	2QFW+F75, Tangalle, Sri Lanka	0.171198		හම්බන්තොට	තංගල්ල	MOH කාර්යාලය - තංගල්ල	அம்பாந்தோட்டை	தங்காலை	MOH அலுவலகம் - தங்காலை	2QFW+F75, තංගල්ල, ශ්‍රී ලංකාව	2QFW+F75, தங்காலை, இலங்கை
Rathnapura	Samanalawewa	University of Sabaragamuwa	False	False	RTHNPRSMNLWWNVRSTYFSBRGMW		Ratnapura	LK-91	6.586826	80.566158									#PoliceLocationUnknown	රත්නපුර	සමනලවැව	සබරගමුව විශ්ව විද්‍යාලය	இரத்தினபுரி	சமனலவெவ	சப்ரகமுவா பல்கலைக்கழகம்		
Rathnapura	Balangoda	MOH Office – Balangoda	False	False	RTHNPRBLNGDMHFFCBLNGD		Ratnapura	LK-91	6.586826	80.566158	Balangoda	PS-910103	6.649474	80.700276	6.649195	80.698245	26 Siri Weerasundararama Mawatha, Balangoda, Sri Lanka	0.226524		රත්නපුර	බලන්ගොඩ	MOH කාර්යාලය - බලංගොඩ	இரத்தினபுரி	பலாங்கொடை	MOH அலுவலகம் - பலாங்கொடை	26 සිරි වීරසුන්දරාරාම මාවත, බලංගොඩ, ශ්‍රී ලංකාව	26 ஸ்ரீ வீரசுந்தரராம மாவத்தை, பலாங்கொடை, இலங்கை
Rathnapura	Weligepola	Galpaya Vidyalaya	False	False	RTHNPRWLGPLGLPYVDYLY		Ratnapura	LK-91	6.586826	80.566158	Weligepola	PS-910106	6.596426	80.723695	6.504662	80.755842	Unnamed Road,, Sri Lanka	10.807403		රත්නපුර	වැලිගෙපොළ	ගල්පාය විද්‍යාලය	இரத்தினபுரி	வெலிகெபொல	கல்பயா வித்யாலயா	නම් නොකළ පාර, ශ්‍රී ලංකාව	பெயரிடப்படாத சாலை ,, இலங்கை
Rathnapura	Weligepola	Ambewila Vidyalaya	False	False	RTHNPRWLGPLMBWLVDYLY		Ratnapura	LK-91	6.586826	80.566158	Weligepola	PS-910106	6.596426	80.723695	6.574518	80.706607	HPF4+RJ5, Weligepola, Sri Lanka	3.082732		රත්නපුර	වැලිගෙපොළ	අඹේවිල විද්‍යාලය	இரத்தினபுரி	வெலிகெபொல	அம்பேவில வித்யாலயா	HPF4+RJ5, වැලිගෙපොල, ශ්‍රී ලංකාව	HPF4+RJ5, வெலிகெபொல, இலங்கை
Rathnapura	Weligepola	Ranwala Vidyalaya	False	False	RTHNPRWLGPLRNWLVDYLY		Ratnapura	LK-91	6.586826	80.566158	Weligepola	PS-910106	6.596426	80.723695	6.548117	80.671963	Ranwala Rd, Godakawela, Sri Lanka	7.845371		රත්නපුර	වැලිගෙපොළ	රන්වල විද්‍යාලය	இரத்தினபுரி	வெலிகெபொல	ரன்வாலா வித்யாலயா	රන්වල පාර, ගොඩකවෙල, ශ්‍රී ලංකාව	ரன்வாலா ஆர்ட், கோடகவேலா, இலங்கை
Rathnapura	Weligepola	Talagaskanda Community Hall	False	False	RTHNPRWLGPLTLGSKNDCMMNTYHLL		Ratnapura	LK-91	6.586826	80.566158	Weligepola	PS-910106	6.596426	80.723695	6.583202	80.711558	Galgoda - Weligepola Rd, Weligepola, Sri Lanka	1.990489		රත්නපුර	වැලිගෙපොළ	තලගස්කන්ද ප්‍රජා ශාලාව	இரத்தினபுரி	வெலிகெபொல	தலகஸ்கந்தா சமுதாயக் கூடம்	ගල්ගොඩ - වැලිගෙපොල පාර, වැලිගෙපොල, ශ්‍රී ලංකාව	கல்கொட - வெலிகெபொல வீதி, வெலிகெபொல, இலங்கை
Rathnapura	Bulathkohupitiya	MOH Office – Bulathkohupitiya	False	False	RTHNPRBLTHKHPTYMHFFCBLTHKHPTY		Ratnapura	LK-91	6.586826	80.566158	Bulathkohupitiya	PS-920232	7.106684	80.3347	7.109127	80.334565	485M+MR4, Bulathkohupitiya, Sri Lanka	0.272143		රත්නපුර	බුලත්කොහුපිටිය	MOH කාර්යාලය - බුලත්කොහුපිටිය	இரத்தினபுரி	புலத்கோஹுபிடியா	MOH அலுவலகம் - புலத்கோஹுபிட்டிய	485 එම්+එම්ආර් 4, බුලත්කොහුපිටිය, ශ්‍රී ලංකාව	485M+MR4, புலத்கோஹுபிட்டிய, இலங்கை
Anuradhapura	Anuradhapura	62 DIV Mobile Vaccination	False	False	NRDHPRNRDHPRDVMBLVCCNTN		Anuradhapura	LK-71	8.39199	80.512958	Anuradapura	PS-710101	8.329752	80.407265					#CenterLocationUnknown	අනුරාධපුර	අනුරාධපුර	62 ඩීඅයිවී ජංගම එන්නත	அனுராதபுரம்	அனுராதபுரம்	62 DIV மொபைல் தடுப்பூசி		
Anuradhapura	Anuradhapura	MOH Office - Nuwaragampalatha Central	False	False	NRDHPRNRDHPRMHFFCNWRGMPLTHCNTRL		Anuradhapura	LK-71	8.39199	80.512958	Anuradapura	PS-710101	8.329752	80.407265	8.341215	80.374096	Unnamed Road, Anuradhapura, Sri Lanka	3.866675		අනුරාධපුර	අනුරාධපුර	MOH කාර්යාලය - නුවරගම්පලතා මධ්‍ය	அனுராதபுரம்	அனுராதபுரம்	MOH அலுவலகம் - நுவரகம்பலதா சென்ட்ரல்	නම් නොකළ පාර, අනුරාධපුර, ශ්‍රී ලංකාව	பெயரிடப்படாத சாலை, அனுராதபுரம், இலங்கை
Anuradhapura	Anuradhapura	Teaching Hospital Anuradhapura	False	False	NRDHPRNRDHPRTCHNGHSPTLNRDHPR		Anuradhapura	LK-71	8.39199	80.512958	Anuradapura	PS-710101	8.329752	80.407265	8.324765	80.413968	Harischandra Mawatha, Anuradhapura, Sri Lanka	0.922993		අනුරාධපුර	අනුරාධපුර	අනුරාධපුර ශික්ෂණ රෝහල	அனுராதபுரம்	அனுராதபுரம்	போதனா மருத்துவமனை அனுராதபுரம்	හරිශ්චන්ද්‍ර මාවත, අනුරාධපුර, ශ්‍රී ලංකාව	ஹரிச்சந்திர மாவத்தை, அனுராதபுரம், இலங்கை
Anuradhapura	Anuradhapura	MOH Office - Nuwaragampalatha East	False	False	NRDHPRNRDHPRMHFFCNWRGMPLTHST		Anuradhapura	LK-71	8.39199	80.512958	Anuradapura	PS-710101	8.329752	80.407265	8.324809	80.412262	Kandy Rd, Anuradhapura, Sri Lanka	0.777651		අනුරාධපුර	අනුරාධපුර	MOH කාර්යාලය - නුවරගම්පලතා නැගෙනහිර	அனுராதபுரம்	அனுராதபுரம்	MOH அலுவலகம் - நுவரகம்பலதா கிழக்கு	මහනුවර පාර, අනුරාධපුර, ශ්‍රී ලංකාව	கண்டி வீதி, அனுராதபுரம், இலங்கை
Anuradhapura	Tirappane	MOH Office – Thirappane	False	False	NRDHPRTRPPNMHFFCTHRPPN		Anuradhapura	LK-71	8.39199	80.512958	Thirappone	PS-710106	6.907289	79.863819	8.22274	80.520301	6GFC+34V, Tirappane, Sri Lanka	163.242456	#CenterFarFromPolice	අනුරාධපුර	තිරප්පනේ	MOH කාර්යාලය - තිරප්පනේ	அனுராதபுரம்	திறப்பனே	MOH அலுவலகம் - திரப்பனே	6GFC+34V, තිරප්පනේ, ශ්‍රී ලංකාව	6GFC+34V, திரப்பனே, இலங்கை
Anuradhapura	Mihintale	MOH Office – Mihintale	False	False	NRDHPRMHNTLMHFFCMHNTL		Anuradhapura	LK-71	8.39199	80.512958	Mihintale	PS-710104	8.360062	80.511889	8.357612	80.509049	Puttalam - Anuradhapura - Trincomalee Hwy, Mihintale, Sri Lanka	0.41466		අනුරාධපුර	මිහින්තලය	MOH කාර්යාලය - මිහින්තලය	அனுராதபுரம்	மிஹிந்தலை	MOH அலுவலகம் - மிஹிந்தலை	පුත්තලම - අනුරාධපුර - ත්‍රිකුණාමලය හ්වි, මිහින්තලය, ශ්‍රී ලංකාව	புத்தளம் - அனுராதபுரம் - திருகோணமலை Hwy, மிஹிந்தலை, இலங்கை
Jaffna	Jaffna	Mobile Vaccination	False	False	JFFNJFFNMBLVCCNTN		Jaffna	LK-41	9.691792	80.098594	Jaffna	PS-410209	9.659919	80.010965					#CenterLocationUnknown	යාපනය	යාපනය	ජංගම එන්නත	யாழ்	யாழ்	மொபைல் தடுப்பூசி		
Jaffna	Waddukkottai	MOH Office – Chankanai	False	False	JFFNWDDKKTTMHFFCCHNKN		Jaffna	LK-41	9.691792	80.098594									#PoliceLocationUnknown	යාපනය	වාද්ඩුක්කොට්ටෙයි	MOH කාර්යාලය - චංකනායි	யாழ்	வாட்டுக்கோட்டை	MOH அலுவலகம் - சங்கனை		
Jaffna	Kayts	MOH Office – Velanai	False	False	JFFNKYTSMHFFCVLN		Jaffna	LK-41	9.691792	80.098594	Kayts	PS-410212	9.728654	79.94775	9.636317	79.903777	Chatty vangkalvady road, Velanai, Sri Lanka	11.346015		යාපනය	කයිට්ස්	එම්ඕඑච් කාර්යාලය - වෙලනායි	யாழ்	ஊர்காவற்துறையினர்	MOH அலுவலகம் - வேலணை	චැටි වංගල්වඩි පාර, වෙලනායි, ශ්‍රී ලංකාව	சட்டி வாங்கல்வாடி சாலை, வேலணை, இலங்கை
Jaffna	Kayts	MOH Office – Kayts	False	False	JFFNKYTSMHFFCKYTS		Jaffna	LK-41	9.691792	80.098594	Kayts	PS-410212	9.728654	79.94775	9.697759	79.866366	Sri Lanka, Kayts, Sri Lanka	9.561445		යාපනය	කයිට්ස්	MOH කාර්යාලය - කයිට්ස්	யாழ்	ஊர்காவற்துறையினர்	MOH அலுவலகம் - ஊர்காவற்துறை	ශ්‍රී ලංකාව, කයිට්ස්, ශ්‍රී ලංකාව	இலங்கை, ஊர்காவற்துறை, இலங்கை
Jaffna	Kayts	MOH Office – Karainagar	False	False	JFFNKYTSMHFFCKRNGR		Jaffna	LK-41	9.691792	80.098594	Kayts	PS-410212	9.728654	79.94775	9.725097	79.99772	Sri Lanka, Manipay, Sri Lanka	5.492521		යාපනය	කයිට්ස්	MOH කාර්යාලය - කරෙයිනගර්	யாழ்	ஊர்காவற்துறையினர்	MOH அலுவலகம் - காரைநகர்	ශ්‍රී ලංකාව, මනිපායි, ශ්‍රී ලංකාව	இலங்கை, மானிப்பாய், இலங்கை
Jaffna	Thelippalai	MOH Office – Thelippalai	False	False	JFFNTHLPPLMHFFCTHLPPL		Jaffna	LK-41	9.691792	80.098594	Thelippalay	PS-410104	6.933075	79.857181	9.785272	80.032899	Q2PM+452, Tellippalai, Sri Lanka	317.838063	#CenterFarFromPolice	යාපනය	තෙලිප්පලෙයි	MOH කාර්යාලය - තෙලිප්පලෙයි	யாழ்	தெளிப்பளை	MOH அலுவலகம் - தெல்லிப்பழை	Q2PM+452, තෙලිප්පලෙයි, ශ්‍රී ලංකාව	Q2PM+452, தெல்லிப்பழை, இலங்கை
Jaffna	Chavakachcheri	Town Hall – Chavakachcheri	False	False	JFFNCHVKCHCHRTWNHLLCHVKCHCHR		Jaffna	LK-41	9.691792	80.098594	Chawakachcheri	PS-410215	9.666459	80.132384	9.659136	80.160946	M556+M94, Chavakachcheri, Sri Lanka	3.236063		යාපනය	චාවකච්චේරි	නගර ශාලාව - චාවකච්චේරි	யாழ்	சாவகச்சேரி	டவுன் ஹால் - சாவகச்சேரி	එම් 556+එම් 94, චාවකච්චේරි, ශ්‍රී ලංකාව	M556+M94, சாவகச்சேரி, இலங்கை
Kilinochchi	Mulankavil	Mulankavil Hospital	False	False	KLNCHCHMLNKVLMLNKVLHSPTL		Kilinochchi	LK-45	9.415742	80.30358	Mulankavil	PS-450135	9.254463	80.141528	9.243423	80.143894	Base Hospital Mulankavil, A32 Road, Mulankavil, Kumulamunai, Sri Lanka	1.255148		කිලිනොච්චි	මුලංකාවිල්	මුලංකාවිල් රෝහල	கிளிநொச்சி	முழங்காவில்	முழங்காவில் மருத்துவமனை	මුලික රෝහල මුලංකාවිල්, ඒ 32 පාර, මුලංකාවිල්, කුමුලමුනෙයි, ශ්‍රී ලංකාව	அடிப்படை மருத்துவமனை முழங்காவில், A32 சாலை, முழங்காவில், குமுலமுனை, இலங்கை
Kilinochchi	Pooneryn	MOH Office – Pooneryn	False	False	KLNCHCHPNRYNMHFFCPNRYN		Kilinochchi	LK-45	9.415742	80.30358	Pooneryn		9.505717	80.21101	9.507968	80.208317	G655+58P, Pooneryn, Sri Lanka	0.387256		කිලිනොච්චි	පුනරීන්	MOH කාර්යාලය - පුනරීන්	கிளிநொச்சி	பூனெரின்	MOH அலுவலகம் - பூனெரின்	ජී 655+58 පී, පූනරීන්, ශ්‍රී ලංකාව	G655+58P, பூனெரின், இலங்கை
Kilinochchi	Kilinochchi	MOH Office – Karachchi	False	False	KLNCHCHKLNCHCHMHFFCKRCHCH		Kilinochchi	LK-45	9.415742	80.30358	Kilinochchi	PS-450131	9.392265	80.407846	7.683586	81.730767	MPMJ+C8J, Kattankudy, Sri Lanka	239.363691	#CenterFarFromPolice	කිලිනොච්චි	කිලිනොච්චි	MOH කාර්යාලය - කරච්චි	கிளிநொச்சி	கிளிநொச்சி	MOH அலுவலகம் - கராச்சி	එම්පීඑම්ජේ+සී 8 ජේ, කාත්තන්කුඩි, ශ්‍රී ලංකාව	MPMJ+C8J, காத்தான்குடி, இலங்கை
Kilinochchi	Kilinochchi	MOH Office – Kandavalai	False	False	KLNCHCHKLNCHCHMHFFCKNDVL		Kilinochchi	LK-45	9.415742	80.30358	Kilinochchi	PS-450131	9.392265	80.407846	9.411006	80.516427	Parantan-Mullaitivu Hwy, Sri Lanka	12.096188		කිලිනොච්චි	කිලිනොච්චි	MOH කාර්යාලය - කඳවලයි	கிளிநொச்சி	கிளிநொச்சி	MOH அலுவலகம் - கண்டாவளை	පරන්තන්-මුලතිව් හ්වි, ශ්‍රී ලංකාව	பரந்தன்-முல்லைத்தீவு, இலங்கை
Mullaitivu	Mullaitivu	Kokilai Primary School	False	False	MLLTVMLLTVKKLPRMRYSCHL		Mullaitivu	LK-44	9.167643	80.549091	Mullativu	PS-440148	9.212825	80.760159	8.99994	80.948975	XWXX+XHH, Mullaitivu, Sri Lanka	31.475967	#CenterFarFromPolice	මුලතිව්	මුලතිව්	කෝකිලායි ප්‍රාථමික විද්‍යාලය	முல்லைத்தீவு	முல்லைத்தீவு	கோகிலை தொடக்கப்பள்ளி	XWXX+XHH, මුලතිව්, ශ්‍රී ලංකාව	XWXX+XHH, முல்லைத்தீவு, இலங்கை
Mullaitivu	Oddusuddan	Medical Superintendent of Health Office	False	False	MLLTVDDSDDNMDCLSPRNTNDNTFHLTHFFC		Mullaitivu	LK-44	9.167643	80.549091	Oddusudan	PS-440151	9.160983	80.652821	9.261573	80.813807	Mullaittivu-Kokkilai Rd, Mullaitivu, Sri Lanka	20.919119	#CenterFarFromPolice	මුලතිව්	ඔඩ්ඩුසුඩාන්	සෞඛ්‍ය අධිකාරී කාර්යාලය	முல்லைத்தீவு	ஒட்டுசுட்டான்	சுகாதார மேற்பார்வையாளர் அலுவலகம்	මුලතිව්-කොකිලායි පාර, මුලතිව්, ශ්‍රී ලංකාව	முல்லைத்தீவு-கொக்கிளாய் சாலை, முல்லைத்தீவு, இலங்கை
Mullaitivu	Puthukudiyiruppu	Medical Superintendent of Health Office	False	False	MLLTVPTHKDYRPPMDCLSPRNTNDNTFHLTHFFC		Mullaitivu	LK-44	9.167643	80.549091	Pudukuduiruppu	PS-440149	7.00152	79.95003	9.320996	80.683002	8MCM+96R, Puthukkudiyiruppu, Sri Lanka	270.320843	#CenterFarFromPolice	මුලතිව්	පුදුකුඩියිරුප්පු	සෞඛ්‍ය අධිකාරී කාර්යාලය	முல்லைத்தீவு	புதுக்குடியிருப்பு	சுகாதார மேற்பார்வையாளர் அலுவலகம்	8MCM+96R, පුදුක්කුඩියිරුප්පු, ශ්‍රී ලංකාව	8 எம்சிஎம்+96 ஆர், புதுக்குடியிருப்பு, இலங்கை
Vavuniya	Vavuniya	Mobile Vaccination	False	False	VVNYVVNYMBLVCCNTN		Vavuniya	LK-43	8.852071	80.467404	Vavuniya	PS-430119	8.754431	80.498604					#CenterLocationUnknown	වවුනියාව	වවුනියාව	ජංගම එන්නත	வவுனியா	வவுனியா	மொபைல் தடுப்பூசி		
Mannar	Mannar	Medical Superintendent of Health Office	False	False	MNNRMNNRMDCLSPRNTNDNTFHLTHFFC		Mannar	LK-42	8.877429	80.088628	Mannar	PS-420138	8.978123	79.911642	8.983382	79.902565	Thalvupadu - Mannar Rd, Mannar 41000, Sri Lanka	1.156155		මන්නාරම	මන්නාරම	සෞඛ්‍ය අධිකාරී කාර්යාලය	மன்னார்	மன்னார்	சுகாதார மேற்பார்வையாளர் அலுவலகம்	තල්වුපාඩු - මන්නාරම පාර, මන්නාරම 41000, ශ්‍රී ලංකාව	தல்வுபடு - மன்னார் சாலை, மன்னார் 41000, இலங்கை
Mannar	Mannar	RDHS Office	False	False	MNNRMNNRRDHSFFC		Mannar	LK-42	8.877429	80.088628	Mannar	PS-420138	8.978123	79.911642	8.983382	79.902565	Thalvupadu - Mannar Rd, Mannar 41000, Sri Lanka	1.156155		මන්නාරම	මන්නාරම	ආර්ඩීඑච්එස් කාර්යාලය	மன்னார்	மன்னார்	RDHS அலுவலகம்	තල්වුපාඩු - මන්නාරම පාර, මන්නාරම 41000, ශ්‍රී ලංකාව	தல்வுபடு - மன்னார் சாலை, மன்னார் 41000, இலங்கை
Mannar	Mannar	Mn / Kaddaiyadampan School	False	False	MNNRMNNRMNKDDYDMPNSCHL		Mannar	LK-42	8.877429	80.088628	Mannar	PS-420138	8.978123	79.911642	8.97968	79.919795	Pallimunai Rd, Mannar, Sri Lanka	0.912332		මන්නාරම	මන්නාරම	Mn / කඩ්ඩයඩම්පන් පාසල	மன்னார்	மன்னார்	Mn / கட்டையடம்பன் பள்ளி	පල්ලිමුනෙයි පාර, මන්නාරම, ශ්‍රී ලංකාව	பள்ளிமுனை வீதி, மன்னார், இலங்கை
Mannar	Mannar	MOH Office – Mannar	False	False	MNNRMNNRMHFFCMNNR		Mannar	LK-42	8.877429	80.088628	Mannar	PS-420138	8.978123	79.911642	8.979156	79.91391	Uppukulam, Mannar, Sri Lanka	0.274394		මන්නාරම	මන්නාරම	MOH කාර්යාලය - මන්නාරම	மன்னார்	மன்னார்	MOH அலுவலகம் - மன்னார்	උප්පුකුලම්, මන්නාරම, ශ්‍රී ලංකාව	உப்புக்குளம், மன்னார், இலங்கை
Mannar	Murungan	MOH Office – Nanatton	False	False	MNNRMRNGNMHFFCNNTTN		Mannar	LK-42	8.877429	80.088628	Murunkan	PS-420143	8.838186	80.038298	8.836611	80.036129	Murunkan - Nanattan Rd, Sri Lanka	0.295841		මන්නාරම	මුරුංගන්	MOH කාර්යාලය - නැනටන්	மன்னார்	முருங்கன்	MOH அலுவலகம் - நானாட்டன்	මුරුංකන් - නානාටන් පාර, ශ්‍රී ලංකාව	முருங்கன் - நானாட்டான் சாலை, இலங்கை
Trincomalee	Kinniya	MOH Office – Kinniya	False	False	TRNCMLKNNYMHFFCKNNY		Trincomalee	LK-53	8.551241	81.092014	Kinnia	PS-530140	6.907289	79.863819	8.498696	81.179644	F5XH+FVC, Kinniya 31100, Sri Lanka	228.840304	#CenterFarFromPolice	ත්රිකුණාමලය	කින්නියා	MOH කාර්යාලය - කින්නියා	திருகோணமலை	கிண்ணியா	MOH அலுவலகம் - கிண்ணியா	F5XH+FVC, කින්නියා 31100, ශ්‍රී ලංකාව	F5XH+FVC, கிண்ணியா 31100, இலங்கை
Trincomalee	Kinniya	Surangal Rural Health Medical Center	False	False	TRNCMLKNNYSRNGLRRLHLTHMDCLCNTR		Trincomalee	LK-53	8.551241	81.092014	Kinnia	PS-530140	6.907289	79.863819	8.47091	81.139893	F4CQ+9X6, Kinniya, Sri Lanka	223.680372	#CenterFarFromPolice	ත්රිකුණාමලය	කින්නියා	සුරංගල් ග්‍රාමීය සෞඛ්‍ය වෛද්‍ය මධ්‍යස්ථානය	திருகோணமலை	கிண்ணியா	சுரங்கல் கிராம சுகாதார மருத்துவ மையம்	F4CQ+9X6, කින්නියා, ශ්‍රී ලංකාව	F4CQ+9X6, கிண்ணியா, இலங்கை
Trincomalee	Sripura	MOH Office – Sripura	False	False	TRNCMLSRPRMHFFCSRPR		Trincomalee	LK-53	8.551241	81.092014	Sripura	PS-530136	8.929617	80.81428	8.926697	80.814799	Padavi Sripura, Padaviya - Sripura Road, Welioya, Sri Lanka	0.329869		ත්රිකුණාමලය	ශ්‍රීපුර	MOH කාර්යාලය - ශ්‍රීපුර	திருகோணமலை	ஸ்ரீபுரா	MOH அலுவலகம் - ஸ்ரீபுரா	පදවි ශ්‍රීපුර, පදවිය - ශ්‍රීපුර පාර, වැලිඔය, ශ්‍රී ලංකාව	படவி ஸ்ரீபுரா, படாவியா - ஸ்ரீபுரா சாலை, வெலிஓயா, இலங்கை
Trincomalee	Kuchchaveli	MOH Office – Kuchchaveli	False	False	TRNCMLKCHCHVLMHFFCKCHCHVL		Trincomalee	LK-53	8.551241	81.092014	Kuchchaweli	PS-530133	8.81895	81.100438	8.740082	81.161616	P5R6+2JQ, Kumpurupiddi, Sri Lanka	11.053646		ත්රිකුණාමලය	කුච්චවේලි	MOH කාර්යාලය - කුච්චවේලි	திருகோணமலை	குச்சவெளி	MOH அலுவலகம் - குச்சவெளி	P5R6+2JQ, කුඹුරුපිඩි, ශ්‍රී ලංකාව	P5R6+2JQ, கும்புறுப்பிடி, இலங்கை
Trincomalee	Kuchchaveli	Kuchchaveli Hospital	False	False	TRNCMLKCHCHVLKCHCHVLHSPTL		Trincomalee	LK-53	8.551241	81.092014	Kuchchaweli	PS-530133	8.81895	81.100438	8.814795	81.102358	R472+WW9, Kuchchaveli, Sri Lanka	0.508064		ත්රිකුණාමලය	කුච්චවේලි	කුච්චවේලි රෝහල	திருகோணமலை	குச்சவெளி	குச்சவெளி மருத்துவமனை	ආර් 472+WW9, කුච්චවේලි, ශ්‍රී ලංකාව	R472+WW9, குச்சவெளி, இலங்கை
Trincomalee	Kuchchaveli	Divisional Hospital – Nilaveli	False	False	TRNCMLKCHCHVLDVSNLHSPTLNLVL		Trincomalee	LK-53	8.551241	81.092014	Kuchchaweli	PS-530133	8.81895	81.100438	8.681035	81.193632	M5JV+CF6, Nilaveli, Sri Lanka	18.44695		ත්රිකුණාමලය	කුච්චවේලි	ප්‍රාදේශීය රෝහල - නිලාවේලි	திருகோணமலை	குச்சவெளி	பிரதேச மருத்துவமனை - நிலாவெளி	M5JV+CF6, නිලාවේලි, ශ්‍රී ලංකාව	M5JV+CF6, நிலவேலி, இலங்கை
Trincomalee	Pulmoddai	MOH Office - Pulmoddai	False	False	TRNCMLPLMDDMHFFCPLMDD		Trincomalee	LK-53	8.551241	81.092014	Pulmudai	PS-530135	6.915266	79.87829	8.599018	81.217151	H6X8+JV2, Trincomalee, Sri Lanka	238.425888	#CenterFarFromPolice	ත්රිකුණාමලය	පුල්මොඩෙයි	MOH කාර්යාලය - පුල්මොඩෙයි	திருகோணமலை	புல்மோட்டை	MOH அலுவலகம் - புல்மோட்டை	H6X8+JV2, ත්‍රිකුණාමලය, ශ්‍රී ලංකාව	H6X8+JV2, திருகோணமலை, இலங்கை
Trincomalee	Thambalagamuwa	MOH Office – Thambalagamuwa	False	False	TRNCMLTHMBLGMWMHFFCTHMBLGMW		Trincomalee	LK-53	8.551241	81.092014	Thambalagamuva	PS-530243	6.907289	79.863819	8.563603	81.239584	Hospital Ln, Trincomalee, Sri Lanka	238.604889	#CenterFarFromPolice	ත්රිකුණාමලය	තඹලගමුව	MOH කාර්යාලය - තඹලගමුව	திருகோணமலை	தம்பலகாமுவா	MOH அலுவலகம் - தம்பலகமுவ	රෝහල, ත්‍රිකුණාමලය, ශ්‍රී ලංකාව	மருத்துவமனை Ln, திருகோணமலை, இலங்கை
Trincomalee	Ichchalampattu	MOH Office – Ichchalampattu	False	False	TRNCMLCHCHLMPTTMHFFCCHCHLMPTT	Eachchilampattu Hospital	Trincomalee	LK-53	8.551241	81.092014	Ichchalampattu		8.289549	81.359002	8.289644	81.358983	Highway, Ichchalampattu, Trincomalee, Sri Lanka	0.010772		ත්රිකුණාමලය	ඉච්චලම්පත්තු	එක්ර්චිලම්පත්තු රෝහල	திருகோணமலை	இச்சலம்பட்டு	ஒவ்வொருசிலம்பட்டு மருத்துவமனை	අධිවේගී මාර්ගය, ඉච්චලම්පත්තු, ත්‍රිකුණාමලය, ශ්‍රී ලංකාව	நெடுஞ்சாலை, ஈச்சலாம்பட்டு, திருகோணமலை, இலங்கை
Trincomalee	Serunuwara	MOH Office – Serunuwara	False	False	TRNCMLSRNWRMHFFCSRNWR		Trincomalee	LK-53	8.551241	81.092014	Serunuwara	PS-530244	8.321863	81.299322	8.323143	81.299894	B10, Sri Lanka	0.155671		ත්රිකුණාමලය	සේරුනුවර	MOH කාර්යාලය - සේරුනුවර	திருகோணமலை	சேருநுவரா	MOH அலுவலகம் - சேருநுவரா	බී 10, ශ්‍රී ලංකාව	பி 10, இலங்கை
Trincomalee	Kantale	MOH Office - Kantale	False	False	TRNCMLKNTLMHFFCKNTL		Trincomalee	LK-53	8.551241	81.092014	Kantale	PS-530241	8.356129	81.007739	8.349617	81.009107	අග්‍රබෝධි මාවත, Kantale, Sri Lanka	0.739809		ත්රිකුණාමලය	කන්තලේ	MOH කාර්යාලය - කන්තලේ	திருகோணமலை	கந்தலே	MOH அலுவலகம் - கந்தலே	වැඩි දියුණු කිරීම මාවත, කන්තලේ, ශ්‍රී ලංකාව	தீவிரப்படுத்தி மாவத்த, கந்தலே, இலங்கை
Trincomalee	Batticaloa	Mobile Vaccination	False	False	TRNCMLBTTCLMBLVCCNTN		Trincomalee	LK-53	8.551241	81.092014	Batticaloa	PS-510101	7.717949	81.699294					#CenterLocationUnknown	ත්රිකුණාමලය	මඩකලපුව	ජංගම එන්නත	திருகோணமலை	மட்டக்களப்பு	மொபைல் தடுப்பூசி		
Batticaloa	Batticaloa	MOH Office - Batticaloa	False	False	BTTCLBTTCLMHFFCBTTCL		Batticaloa	LK-51	7.792772	81.486513	Batticaloa	PS-510101	7.717949	81.699294	7.708253	81.691368	Hospital Rd, Batticaloa, Sri Lanka	1.387934		මඩකලපුව	මඩකලපුව	MOH කාර්යාලය - මඩකලපුව	மட்டக்களப்பு	மட்டக்களப்பு	MOH அலுவலகம் - மட்டக்களப்பு	රෝහල පාර, මඩකලපුව, ශ්‍රී ලංකාව	மருத்துவமனை சாலை, மட்டக்களப்பு, இலங்கை
Batticaloa	Vakarai	MOH Office - Vakarai	False	False	BTTCLVKRMHFFCVKR	Divisional Hospital Vakarai	Batticaloa	LK-51	7.792772	81.486513	Wakarai	PS-510109	6.934132	79.856305	8.134552	81.435328	Trincomalee Hwy, Vakarai, Sri Lanka	219.417822	#CenterFarFromPolice	මඩකලපුව	වාකරේ	වාකරේ ප්‍රාදේශීය රෝහල	மட்டக்களப்பு	வாகரை	வாகரை பிரதேச மருத்துவமனை	ත්‍රිකුණාමලය හ්වි, වාකරේ, ශ්‍රී ලංකාව	திருகோணமலை Hwy, வாகரை, இலங்கை
Batticaloa	Valachchenai	Valachchenai Base Hospital	False	False	BTTCLVLCHCHNVLCHCHNBSHSPTL		Batticaloa	LK-51	7.792772	81.486513	Valachchanai	PS-510107	7.908015	81.533004	7.911315	81.533046	Valaichchenai-Nasuvantivu-Navaladi Road, Sri Lanka	0.367088		මඩකලපුව	වාලච්චේන	වාලච්චේන මූලික රෝහල	மட்டக்களப்பு	வாலாச்சேனை	வாலாச்சேனை ஆதார மருத்துவமனை	වාලච්චේනයි-නසුවන්ටිව්-නවාලාඩි පාර, ශ්‍රී ලංකාව	வாழைச்சேனை-நசுவந்திவு-நாவலடி சாலை, இலங்கை
Batticaloa	Valachchenai	MOH Office - Valachchenai	False	False	BTTCLVLCHCHNMHFFCVLCHCHN		Batticaloa	LK-51	7.792772	81.486513	Valachchanai	PS-510107	7.908015	81.533004	7.912281	81.532775	WG6M+W46, Batticaloa, Sri Lanka	0.475177		මඩකලපුව	වාලච්චේන	MOH කාර්යාලය - වාලච්චේන	மட்டக்களப்பு	வாலாச்சேனை	MOH அலுவலகம் - வாலாச்சேனை	WG6M+W46, මඩකලපුව, ශ්‍රී ලංකාව	WG6M+W46, மட்டக்களப்பு, இலங்கை
Batticaloa	Valachchenai	MOH Office – Oddamavadi	False	False	BTTCLVLCHCHNMHFFCDDMVD		Batticaloa	LK-51	7.792772	81.486513	Valachchanai	PS-510107	7.908015	81.533004	7.912281	81.532775	WG6M+W46, Batticaloa, Sri Lanka	0.475177		මඩකලපුව	වාලච්චේන	එම්ඕඑච් කාර්යාලය - ඔද්දමවඩි	மட்டக்களப்பு	வாலாச்சேனை	MOH அலுவலகம் - ஓட்டமாவடி	WG6M+W46, මඩකලපුව, ශ්‍රී ලංකාව	WG6M+W46, மட்டக்களப்பு, இலங்கை
Batticaloa	Valachchenai	MOH Office – Kiran	False	False	BTTCLVLCHCHNMHFFCKRN		Batticaloa	LK-51	7.792772	81.486513	Valachchanai	PS-510107	7.908015	81.533004	7.623441	81.717877	Muthalaikudah Kanchirankudah Rd, Sri Lanka	37.64378	#CenterFarFromPolice	මඩකලපුව	වාලච්චේන	MOH කාර්යාලය - කිරාන්	மட்டக்களப்பு	வாலாச்சேனை	MOH அலுவலகம் - கிரண்	මුතලෙයිකුඩා කාංචිරන්කුඩා පාර, ශ්‍රී ලංකාව	முத்தலைக்கூடா காஞ்சிரங்குடா சாலை, இலங்கை
Batticaloa	Valachchenai	MOH Office – Navallady	False	False	BTTCLVLCHCHNMHFFCNVLLDY		Batticaloa	LK-51	7.792772	81.486513	Valachchanai	PS-510107	7.908015	81.533004	7.912281	81.532775	WG6M+W46, Batticaloa, Sri Lanka	0.475177		මඩකලපුව	වාලච්චේන	MOH කාර්යාලය - නවල්ලඩි	மட்டக்களப்பு	வாலாச்சேனை	MOH அலுவலகம் - நாவல்லடி	WG6M+W46, මඩකලපුව, ශ්‍රී ලංකාව	WG6M+W46, மட்டக்களப்பு, இலங்கை
Batticaloa	Kaluwanchikudy	MOH Office - Kaluwanchikudy	False	False	BTTCLKLWNCHKDYMHFFCKLWNCHKDY	Medical Officer of Health Kaluwanchikudy	Batticaloa	LK-51	7.792772	81.486513	Kalawanchikudy	PS-510110	7.515908	81.787051	7.509333	81.79204	Colombo - Batticaloa Hwy, Kaluwanchikudy, Sri Lanka	0.915167		මඩකලපුව	කළුවන්චිකුඩි	කළුවන්චිකුඩි සෞඛ්‍ය වෛද්‍ය නිලධාරී	மட்டக்களப்பு	களுவாஞ்சிக்குடி	சுகாதார மருத்துவ அதிகாரி களுவாஞ்சிக்குடி	කොළඹ - මඩකලපුව හ්වි, කලුවාංචිකුඩි, ශ්‍රී ලංකාව	கொழும்பு - மட்டக்களப்பு Hwy, களுவாஞ்சிக்குடி, இலங்கை
Batticaloa	Kaluwanchikudy	Base Hospital Kaluwanchikudy	False	False	BTTCLKLWNCHKDYBSHSPTLKLWNCHKDY		Batticaloa	LK-51	7.792772	81.486513	Kalawanchikudy	PS-510110	7.515908	81.787051	7.51724	81.785184	GQ8P+V3V, Kaluwanchikudy, Sri Lanka	0.25365		මඩකලපුව	කළුවන්චිකුඩි	කලුවන්චිකුඩි මූලික රෝහල	மட்டக்களப்பு	களுவாஞ்சிக்குடி	களுவாஞ்சிக்குடி அடிப்படை மருத்துவமனை	GQ8P+V3V, කළුවාංචිකුඩි, ශ්‍රී ලංකාව	GQ8P+V3V, களுவாஞ்சிக்குடி, இலங்கை
Batticaloa	Kokkadicholai	MOH Office – Pattipala	False	False	BTTCLKKKDCHLMHFFCPTTPL		Batticaloa	LK-51	7.792772	81.486513	Kokkadicholai	PS-510112	7.715979	81.698757	7.023407	80.262082	A7, Karawanella, Sri Lanka	176.210764	#CenterFarFromPolice	මඩකලපුව	කොක්කඩිචෝලේ	MOH කාර්යාලය - පට්ටිපාල	மட்டக்களப்பு	கொக்கடிச்சோலை	MOH அலுவலகம் - பட்டிபால	ඒ 7, කරවනැල්ල, ශ්‍රී ලංකාව	A7, கரவனெல்லா, இலங்கை
Batticaloa	Kattankudy	MOH Office – Kattankudy	False	False	BTTCLKTTNKDYMHFFCKTTNKDY		Batticaloa	LK-51	7.792772	81.486513	Kaththankudi	PS-510103	7.715979	81.698757	7.683586	81.730767	MPMJ+C8J, Kattankudy, Sri Lanka	5.042961		මඩකලපුව	කාත්තන්කුඩි	MOH කාර්යාලය - කාත්තන්කුඩි	மட்டக்களப்பு	காத்தான்குடி	MOH அலுவலகம் - காத்தான்குடி	එම්පීඑම්ජේ+සී 8 ජේ, කාත්තන්කුඩි, ශ්‍රී ලංකාව	MPMJ+C8J, காத்தான்குடி, இலங்கை
Batticaloa	Kattankudy	MOH Office - Arayampathy	False	False	BTTCLKTTNKDYMHFFCRYMPTHY		Batticaloa	LK-51	7.792772	81.486513	Kaththankudi	PS-510103	7.715979	81.698757	7.672862	81.735019	MPFP+42R, Sri Lanka	6.243191		මඩකලපුව	කාත්තන්කුඩි	MOH කාර්යාලය - අරයම්පති	மட்டக்களப்பு	காத்தான்குடி	MOH அலுவலகம் - ஆரையம்பதி	එම්පීඑෆ්පී+42 ආර්, ශ්‍රී ලංකාව	MPFP+42R, இலங்கை
Batticaloa	Vavunathivu	MOH Office – Vavunathivu	False	False	BTTCLVVNTHVMHFFCVVNTHV		Batticaloa	LK-51	7.792772	81.486513	Vavunathive	PS-510102	6.933075	79.857181	7.708253	81.691368	Hospital Rd, Batticaloa, Sri Lanka	219.95575	#CenterFarFromPolice	මඩකලපුව	වවුනතිව්	MOH කාර්යාලය - වවුනතිව්	மட்டக்களப்பு	வவுணதீவு	MOH அலுவலகம் - வவுணதீவு	රෝහල පාර, මඩකලපුව, ශ්‍රී ලංකාව	மருத்துவமனை சாலை, மட்டக்களப்பு, இலங்கை
Batticaloa	Eravur	Sandiveli Hospital	False	False	BTTCLRVRSNDVLHSPTL		Batticaloa	LK-51	7.792772	81.486513	Eravur	PS-510104	7.715979	81.698757	7.777289	81.602853	Trincomalee Hwy, Eravur, Sri Lanka	12.578998		මඩකලපුව	එරාවුර්	සඳිවේලි රෝහල	மட்டக்களப்பு	ஏறாவூர்	சண்டிவேலி மருத்துவமனை	ත්‍රිකුණාමලය හ්වි, එරාවුර්, ශ්‍රී ලංකාව	திருகோணமலை Hwy, ஏறாவூர், இலங்கை
Batticaloa	Eravur	MOH Office – Eravur	False	False	BTTCLRVRMHFFCRVR		Batticaloa	LK-51	7.792772	81.486513	Eravur	PS-510104	7.715979	81.698757	7.783664	81.605626	QJM4+F76, Eravur, Sri Lanka	12.729342		මඩකලපුව	එරාවුර්	MOH කාර්යාලය - එරාවුර්	மட்டக்களப்பு	ஏறாவூர்	MOH அலுவலகம் - ஏறாவூர்	QJM4+F76, එරාවුර්, ශ්‍රී ලංකාව	QJM4+F76, ஏறாவூர், இலங்கை
Batticaloa	Eravur	Eravur Hospital	False	False	BTTCLRVRRVRHSPTL		Batticaloa	LK-51	7.792772	81.486513	Eravur	PS-510104	7.715979	81.698757	7.783168	81.605999	QJM4+799, Eravur 30300, Sri Lanka	12.663585		මඩකලපුව	එරාවුර්	එරාවුර් රෝහල	மட்டக்களப்பு	ஏறாவூர்	ஏறாவூர் மருத்துவமனை	QJM4+799, එරාවුර් 30300, ශ්‍රී ලංකාව	QJM4+799, ஏறாவூர் 30300, இலங்கை
Batticaloa	Eravur	MOH Office – Chenkaladi	False	False	BTTCLRVRMHFFCCHNKLD		Batticaloa	LK-51	7.792772	81.486513	Eravur	PS-510104	7.715979	81.698757	7.783599	81.593367	Trincomalee Hwy, Chenkaladi 30350, Sri Lanka	13.837876		මඩකලපුව	එරාවුර්	MOH කාර්යාලය - චෙන්කලාඩි	மட்டக்களப்பு	ஏறாவூர்	MOH அலுவலகம் - செங்கலடி	ත්‍රිකුණාමලය හ්වි, චෙන්කලාඩි 30350, ශ්‍රී ලංකාව	திருகோணமலை Hwy, செங்கலடி 30350, இலங்கை
Batticaloa	Eravur	Chenkaladi Hospital	False	False	BTTCLRVRCHNKLDHSPTL		Batticaloa	LK-51	7.792772	81.486513	Eravur	PS-510104	7.715979	81.698757	7.783546	81.589961	Batticaloa Rd, Chenkaladi, Sri Lanka	14.151406		මඩකලපුව	එරාවුර්	චෙන්කලාඩි රෝහල	மட்டக்களப்பு	ஏறாவூர்	செங்கலடி மருத்துவமனை	මඩකලපුව පාර, චෙන්කලාඩි, ශ්‍රී ලංකාව	மட்டக்களப்பு வீதி, செங்கலடி, இலங்கை
Batticaloa	Eravur	Eastern University, Vandarammulla	False	False	BTTCLRVRSTRNNVRSTYVNDRMMLL		Batticaloa	LK-51	7.792772	81.486513	Eravur	PS-510104	7.715979	81.698757	7.794437	81.579017	Trincomalee Hwy, Chenkaladi, Sri Lanka	15.821343		මඩකලපුව	එරාවුර්	නැගෙනහිර විශ්ව විද්‍යාලය, වන්දාරමුල්ල	மட்டக்களப்பு	ஏறாவூர்	கிழக்கு பல்கலைக்கழகம், வந்தரம்முல்லா	ත්‍රිකුණාමලය හ්වි, චෙන්කලාඩි, ශ්‍රී ලංකාව	திருகோணமலை Hwy, செங்கலடி, இலங்கை
Batticaloa	Eravur	Mawadiwembu Hospital	False	False	BTTCLRVRMWDWMBHSPTL		Batticaloa	LK-51	7.792772	81.486513	Eravur	PS-510104	7.715979	81.698757	7.808545	81.566328	Mawadiwembu Hospital, Sri Lanka	17.861302		මඩකලපුව	එරාවුර්	මාවඩිවේඹු රෝහල	மட்டக்களப்பு	ஏறாவூர்	மாவடிவெம்பு மருத்துவமனை	මාවඩිවේඹු රෝහල, ශ්‍රී ලංකාව	மாவடிவெம்பு மருத்துவமனை, இலங்கை
Batticaloa	Karadiyanaru	Karadiyanaru Hospital	False	False	BTTCLKRDYNRKRDYNRHSPTL		Batticaloa	LK-51	7.792772	81.486513	Karadiyanaru	PS-510105	7.701992	81.537252	7.700216	81.539779	PG2Q+3WJ, Karadiyanaru, Sri Lanka	0.341482		මඩකලපුව	කරදියනාරු	කරදියනාරු රෝහල	மட்டக்களப்பு	கரடியனாறு	கரடியனாறு மருத்துவமனை	PG2Q+3WJ, කරදියනාරු, ශ්‍රී ලංකාව	PG2Q+3WJ, கரடியனாறு, இலங்கை
Ampara	Karaitivu	MOH Office – Karaitivu	False	False	MPRKRTVMHFFCKRTV		Ampara	LK-52	7.23699	81.550391	Karaitivu		9.744059	79.870587	7.377712	81.838796	Colombo-Ratnapura-Wellawaya-Batticaloa Highway, Karativu 32250, Sri Lanka	340.788666	#CenterFarFromPolice	අම්පාර	කාරතිව්	MOH කාර්යාලය - කරෙයිතිව්	அம்பாறை	காரைதீவு	MOH அலுவலகம் - காரைதீவு	කොළඹ-රත්නපුර-වැල්ලවාය-මඩකලපුව අධිවේගී මාර්ගය, කරතිවු 32250, ශ්‍රී ලංකාව	கொழும்பு-இரத்தினபுரி-வெள்ளவாயா-மட்டக்களப்பு நெடுஞ்சாலை, காரடிவு 32250, இலங்கை
Ampara	Chavalakade	MOH Office – Navidanveli	False	False	MPRCHVLKDMHFFCNVDNVL		Ampara	LK-52	7.23699	81.550391	Chawalakade	PS-520125	7.413559	81.776822	7.420081	81.788401	B77, Sri Lanka	1.468805		අම්පාර	චවලකඩේ	MOH කාර්යාලය - නාවිදන්වේලි	அம்பாறை	சவளகடே	MOH அலுவலகம் - நாவிதன்வெளி	බී 77, ශ්‍රී ලංකාව	பி 77, இலங்கை
Ampara	Sainthamarthu	MOH Office – Sainthamarthu	False	False	MPRSNTHMRTHMHFFCSNTHMRTH		Ampara	LK-52	7.23699	81.550391									#PoliceLocationUnknown	අම්පාර	සයින්දමර්තු	MOH කාර්යාලය - සයින්දමර්තු	அம்பாறை	சாய்ந்தமருது	MOH அலுவலகம் - சாய்ந்தமருது		
Ampara	Akkaraipattu	MOH Office – Addalachenai	False	False	MPRKKRPTTMHFFCDDLCHN		Ampara	LK-52	7.23699	81.550391	Akkaraipattu	PS-520126	7.216084	81.853254	7.260916	81.853493	7V63+999, Addalaichenai, Sri Lanka	4.986726		අම්පාර	අක්කරපත්තුව	MOH කාර්යාලය - අද්දලචේනයි	அம்பாறை	அக்கரைப்பற்று	MOH அலுவலகம் - ஆடலச்சேனை	7V63+999, අද්දලෙයිචේනෙයි, ශ්‍රී ලංකාව	7V63+999, அடிலைச்சேனை, இலங்கை
Ampara	Akkaraipattu	MOH Office – Alayadiwembu	False	False	MPRKKRPTTMHFFCLYDWMB		Ampara	LK-52	7.23699	81.550391	Akkaraipattu	PS-520126	7.216084	81.853254	7.269806	80.604059	13 Colombo - Kandy Rd, Kandy 20400, Sri Lanka	137.968428	#CenterFarFromPolice	අම්පාර	අක්කරපත්තුව	එම්ඕඑච් කාර්යාලය - අලයඩිවෙම්බු	அம்பாறை	அக்கரைப்பற்று	MOH அலுவலகம் - ஆலையடிவேம்பு	13 කොළඹ - මහනුවර පාර, මහනුවර 20400, ශ්‍රී ලංකාව	13 கொழும்பு - கண்டி வீதி, கண்டி 20400, இலங்கை
Ampara	Akkaraipattu	MOH Office – Akkaraipattu	False	False	MPRKKRPTTMHFFCKKRPTT		Ampara	LK-52	7.23699	81.550391	Akkaraipattu	PS-520126	7.216084	81.853254	7.228134	81.851123	6VH2+7C5, Akkaraipattu, Sri Lanka	1.360772		අම්පාර	අක්කරපත්තුව	MOH කාර්යාලය - අක්කරපත්තුව	அம்பாறை	அக்கரைப்பற்று	MOH அலுவலகம் - அக்கரைப்பற்று	6VH2+7C5, අක්කරපත්තුව, ශ්‍රී ලංකාව	6VH2+7C5, அக்கரைப்பற்று, இலங்கை
Ampara	Thirukkovil	MOH Office – Thirukkovil	False	False	MPRTHRKKVLMHFFCTHRKKVL		Ampara	LK-52	7.23699	81.550391	Thirukkovil	PS-520127	7.113998	81.852219	7.111635	81.852892	Central Rd, Vinayagapuram, Sri Lanka	0.273131		අම්පාර	තිරුක්කෝවිල්	MOH කාර්යාලය - තිරුක්කෝවිල්	அம்பாறை	திருக்கோவில்	MOH அலுவலகம் - திருக்கோவில்	මධ්‍යම පාර, විනයාගපුරම්, ශ්‍රී ලංකාව	மத்திய வீதி, விநாயகபுரம், இலங்கை
Ampara	Kalmunai	MOH Office - Kalmunai South	False	False	MPRKLMNMHFFCKLMNSTH		Ampara	LK-52	7.23699	81.550391	Kalmunai	PS-520123	7.414289	81.825006	7.411712	81.838462	CR6Q+M9P, Kalmunai 32300, Sri Lanka	1.511625		අම්පාර	කල්මුණේ	MOH කාර්යාලය - කල්මුණේ දකුණ	அம்பாறை	கல்முனை	MOH அலுவலகம் - கல்முனை தெற்கு	CR6Q+M9P, කල්මුණේ 32300, ශ්‍රී ලංකාව	CR6Q+M9P, கல்முனை 32300, இலங்கை
Ampara	Kalmunai	MOH Office - Kalmunai North	False	False	MPRKLMNMHFFCKLMNNRTH		Ampara	LK-52	7.23699	81.550391	Kalmunai	PS-520123	7.414289	81.825006	7.411712	81.838462	CR6Q+M9P, Kalmunai 32300, Sri Lanka	1.511625		අම්පාර	කල්මුණේ	MOH කාර්යාලය - කල්මුණේ උතුර	அம்பாறை	கல்முனை	MOH அலுவலகம் - கல்முனை வடக்கு	CR6Q+M9P, කල්මුණේ 32300, ශ්‍රී ලංකාව	CR6Q+M9P, கல்முனை 32300, இலங்கை
Ampara	Sammanthurai	MOH Office – Sammanthurai	False	False	MPRSMMNTHRMHFFCSMMNTHR		Ampara	LK-52	7.23699	81.550391	Samanthurai	PS-520124	7.365785	81.810859	7.369857	81.812264	9R96+WWR, Sammanthurai, Sri Lanka	0.478712		අම්පාර	සමන්තුරේ	MOH කාර්යාලය - සම්මන්තුරේ	அம்பாறை	சம்மாந்துறை	MOH அலுவலகம் - சம்மாந்துறை	9R96+ඩබ්ලිව්ඩබ්ලිව්ආර්, සම්මන්තුරේ, ශ්‍රී ලංකාව	9R96+WWR, சம்மாந்துறை, இலங்கை
Ampara	Sammanthurai	MOH Office – Nintavur	False	False	MPRSMMNTHRMHFFCNNTVR		Ampara	LK-52	7.23699	81.550391	Samanthurai	PS-520124	7.365785	81.810859	7.352821	81.856939	Hospital Rd, Nintavur 32340, Sri Lanka	5.283925		අම්පාර	සමන්තුරේ	එම්ඕඑච් කාර්යාලය - නින්දවූර්	அம்பாறை	சம்மாந்துறை	MOH அலுவலகம் - நிந்தவூர்	රෝහල පාර, නින්දවූර් 32340, ශ්‍රී ලංකාව	மருத்துவமனை Rd, நிந்தவூர் 32340, இலங்கை
Ampara	Pottuvil	MOH Office – Pottuvil	False	False	MPRPTTVLMHFFCPTTVL		Ampara	LK-52	7.23699	81.550391	Pothuvil	PS-520128	6.878387	81.826859	6.877076	81.828969	B374, Pottuvil, Sri Lanka	0.274874		අම්පාර	පොතුවිල්	එම්ඕඑච් කාර්යාලය - පොතුවිල්	அம்பாறை	பொட்டுவில்	MOH அலுவலகம் - பொத்துவில்	බී 374, පොතුවිල්, ශ්‍රී ලංකාව	B374, பொத்துவில், இலங்கை
Ampara	Pottuvil	Al Ashraf Vidyalaya	False	False	MPRPTTVLLSHRFVDYLY		Ampara	LK-52	7.23699	81.550391	Pothuvil	PS-520128	6.878387	81.826859	6.865124	81.82898	Unnamed Road, Pottuvil, Sri Lanka	1.493719		අම්පාර	පොතුවිල්	අල් අෂ්රෆ් විද්‍යාලය	அம்பாறை	பொட்டுவில்	அல் அஷ்ரப் வித்யாலயா	නම් නොකළ පාර, පොතුවිල්, ශ්‍රී ලංකාව	பெயரிடப்படாத சாலை, பொத்துவில், இலங்கை
