district	police	center	dose1	dose2	fuzzy_key	alt_name	district_name_norm	district_id	district_lat	district_lng	ps_name_norm	ps_id	ps_lat	ps_lng	lat	lng	formatted_address	dis_center_to_police	tags
Colombo	Thalangama	Diyatha Uyana	False	False	CLMBTHLNGMDYTHYN		Colombo	LK-11	6.869636	80.019598	Thalangama	PS-110466	6.91089	79.929325	6.904575	79.909831	Diyatha Uyana, B240, Sri Jayawardenepura Kotte, Sri Lanka	2.264281	
Colombo	Thalangama	MOH Office - Battaramulla	False	False	CLMBTHLNGMMHFFCBTTRMLL		Colombo	LK-11	6.869636	80.019598	Thalangama	PS-110466	6.91089	79.929325	6.901538	79.919128	WW29+JM6, Battaramulla 10120, Sri Lanka	1.532936	
Colombo	Narahenpita	Army Hospital - Narahenpita	False	False	CLMBNRHNPTRMYHSPTLNRHNPT		Colombo	LK-11	6.869636	80.019598	Narahenpita	PS-110321	6.891832	79.876715	6.900252	79.87618	08 Elvitigala Mawatha, Colombo 00800, Sri Lanka	0.938417	
Colombo	Homagama	Panagoda Bodhirajarama Viharaya	False	False	CLMBHMGMPNGDBDHRJRMVHRY		Colombo	LK-11	6.869636	80.019598	Homagama	PS-110470	6.836155	80.003474	6.929161	79.88265	Gnanawimala Rd, Colombo, Sri Lanka	16.883101	
Colombo	Borella	St. Luke's Church - Borella	False	False	CLMBBRLLSTLKSCHRCHBRLL		Colombo	LK-11	6.869636	80.019598	Borella	PS-110323	6.915266	79.87829	6.918035	79.874548	1091 Gnanartha Pradeepa Mawatha, Colombo 00800, Sri Lanka	0.515354	
Colombo	Padukka	Halpe Nagadushmanarama Viharaya	False	False	CLMBPDKKHLPNGDSHMNRMVHRY		Colombo	LK-11	6.869636	80.019598	Padukka	PS-110473	6.842195	80.09247	6.858332	80.09737	No. 07, Meepe, Ingiriya Road, Padukka 10500, Sri Lanka	1.874713	
Colombo	Mirihana	MOH Office - Beddagana	False	False	CLMBMRHNMHFFCBDDGN		Colombo	LK-11	6.869636	80.019598	Mirihana	PS-110462	6.873714	79.901724	6.885731	79.908328	Baddagana Rd, Sri Jayawardenepura Kotte 10100, Sri Lanka	1.522652	
Colombo	Dehiwala	MOH Office - Dehiwala	False	False	CLMBDHWLMHFFCDHWL		Colombo	LK-11	6.869636	80.019598	Dehiwala	PS-110580	6.850088	79.871696	6.861346	79.865943	VV68+G9P, Dehiwala-Mount Lavinia, Sri Lanka	1.404177	
Colombo	Grandpass	Fowzie Maternity Clinic	False	False	CLMBGRNDPSSFWZMTRNTYCLNC		Colombo	LK-11	6.869636	80.019598	Grandpass	PS-110215	6.949052	79.872983	6.967647	79.870269	Hubert Pl, Colombo, Sri Lanka	2.089913	
Colombo	Fore Shore	MOH Office - Jinthupitiya	False	False	CLMBFRSHRMHFFCJNTHPTY		Colombo	LK-11	6.869636	80.019598	Fore shore	PS-110210	6.949589	79.857355	6.943258	79.859238	No.27 Vivekananda Hill, Colombo 01300, Sri Lanka	0.734247	
Colombo	Maradana	National Hospital - Colombo	False	False	CLMBMRDNNTNLHSPTLCLMB		Colombo	LK-11	6.869636	80.019598	Maradana	PS-110107	6.927939	79.865471	6.918743	79.868992	Colombo 00700, Sri Lanka	1.094265	
Colombo	Kosgama	Kosgama Hospital	False	False	CLMBKSGMKSGMHSPTL		Colombo	LK-11	6.869636	80.019598	Kosgama	PS-920227	6.946597	80.137869	6.940956	80.124888	Salawa-Akarawita, 10730, Sri Lanka	1.564606	
Gampaha	Kelaniya	Pradeshiya Shabha - Kelaniya	False	False	GMPHKLNYPRDSHYSHBHKLNY		Gampaha	LK-12	7.123598	80.018508	Kelaniya	PS-120126	6.950251	79.917459	6.967072	79.906385	Colombo - Kandy Rd, Peliyagoda, Sri Lanka	2.235082	
Gampaha	Biyagama	MOH Office - Biyagama	False	False	GMPHBYGMMHFFCBYGM		Gampaha	LK-12	7.123598	80.018508	Biyagama	PS-120131	6.962284	80.009037	6.946824	79.994052	Hospital Rd, Sri Lanka	2.386313	
Gampaha	Kadawata	Kirillawala Maha Vidyalaya	False	False	GMPHKDWTKRLLWLMHVDYLY		Gampaha	LK-12	7.123598	80.018508	Kadawatha	PS-120136	7.00152	79.95003	7.015981	79.969223	2X89+9MX, Eldeniya, Sri Lanka	2.660247	
Gampaha	Weliweriya	Henegama Mahabodhi Vidyalaya	False	False	GMPHWLWRYHNGMMHBDHVDYLY		Gampaha	LK-12	7.123598	80.018508	Weliweriya	PS-120244	7.03451	80.026114	7.002487	79.94454	Mahabodhi Road, Kadawatha 11850, Sri Lanka	9.684305	
Gampaha	Nittambuwa	Urapola Central College	False	False	GMPHNTTMBWRPLCNTRLCLLG		Gampaha	LK-12	7.123598	80.018508	Nittambuwa	PS-120246	7.149726	80.10046	7.098949	80.144672	No. 280, Nittambuwa - Ruwanwella Rd, Urapola, Sri Lanka	7.463959	
Gampaha	Nittambuwa	Sanghabodhi Vidyalaya	False	False	GMPHNTTMBWSNGHBDHVDYLY		Gampaha	LK-12	7.123598	80.018508	Nittambuwa	PS-120246	7.149726	80.10046	7.132766	80.082302	A1, Nittambuwa, Sri Lanka	2.752256	
Gampaha	Nittambuwa	Mathalana Primary School	False	False	GMPHNTTMBWMTHLNPRMRYSCHL		Gampaha	LK-12	7.123598	80.018508	Nittambuwa	PS-120246	7.149726	80.10046	7.115656	80.099626	438X+7V6, Nittambuwa, Sri Lanka	3.790718	
Gampaha	Pallewela	Pallewela Central Dispensary	False	False	GMPHPLLWLPLLWLCNTRLDSPNSRY		Gampaha	LK-12	7.123598	80.018508	Pallewela	PS-120249	7.197365	80.094856	7.19666	80.093998	Pallewela, Sri Lanka	0.12294	
Gampaha	Gampaha	MOH Office - Gampaha	False	False	GMPHGMPHMHFFCGMPH		Gampaha	LK-12	7.123598	80.018508	Gampaha	PS-120237	7.087765	80.01228	7.090643	80.002094	Colombo Rd, Gampaha, Sri Lanka	1.16901	
Gampaha	Gampaha	Pahalagama Viharaya	False	False	GMPHGMPHPHLGMVHRY		Gampaha	LK-12	7.123598	80.018508	Gampaha	PS-120237	7.087765	80.01228	7.08886	79.986232	Gampaha, Sri Lanka	2.877749	
Gampaha	Seeduwa	MOH Office - Seeduwa	False	False	GMPHSDWMHFFCSDW		Gampaha	LK-12	7.123598	80.018508	Seeduwa	PS-120356	7.128721	79.877371	7.131527	79.879964	24 Kotugoda Rd, Katunayake 11410, Sri Lanka	0.423459	
Gampaha	Pugoda	MOH Office – Dompe	False	False	GMPHPGDMHFFCDMP		Gampaha	LK-12	7.123598	80.018508	Pugoda	PS-120241	6.98283	80.111189	6.976767	80.117422	Dompe, Pugoda-Mandawala Rd, Pugoda, Sri Lanka	0.963513	
Gampaha	Divulapitiya	MOH Office - Divulapitiya	False	False	GMPHDVLPTYMHFFCDVLPTY		Gampaha	LK-12	7.123598	80.018508	Diulapitiya	PS-120355	7.174215	79.957874	7.215486	80.013606	6287+5CX, Divulapitiya, Sri Lanka	7.67456	
Gampaha	Negombo	Municipal Council – Negombo	False	False	GMPHNGMBMNCPLCNCLNGMB		Gampaha	LK-12	7.123598	80.018508	Negombo	PS-120351	7.224796	79.880015	7.20614	79.851928	Colombo Rd, Negombo, Sri Lanka	3.729901	
Gampaha	Ja Ela	MOH Office – Ja Ela	False	False	GMPHJLMHFFCJL		Gampaha	LK-12	7.123598	80.018508	Ja - Ela	PS-120133	7.081055	79.890504	7.075216	79.893879	60 Mount Kalvary Rd, Ja-Ela, Sri Lanka	0.748731	
Gampaha	Wattala	MOH Office – Wattala	False	False	GMPHWTTLMHFFCWTTL		Gampaha	LK-12	7.123598	80.018508	Wattala	PS-120128	6.993713	79.894506	6.995817	79.885793	301 Hendala Rd, Wattala, Sri Lanka	0.989991	
Gampaha	Ragama	MOH Office – Ragama	False	False	GMPHRGMMHFFCRGM		Gampaha	LK-12	7.123598	80.018508	Ragama	PS-120134	7.034975	79.924148	7.027386	79.920232	2WGC+X35, Ragama, Sri Lanka	0.948382	
Gampaha	Pamunugama	Pamunugama Hospital	False	False	GMPHPMNGMPMNGMHSPTL		Gampaha	LK-12	7.123598	80.018508	Pamunugama	PS-120353	7.078892	79.859696	7.093543	79.850191	3VV2+C38, Negombo, Sri Lanka	1.938152	
Kalutara	Bandaragama	Sri Saralankara Vidyalaya Kidelpitiya	False	False	KLTRBNDRGMSRSRLNKRVDYLYKDLPTY		Kalutara	LK-13	6.577316	80.127363	Bandaragama	PS-130189	6.715179	79.987674	6.748894	79.971239	PXXC+HF5, Welmilla, Sri Lanka	4.166442	
Kalutara	Bandaragama	Raigama Viharaya	False	False	KLTRBNDRGMRGMVHRY		Kalutara	LK-13	6.577316	80.127363	Bandaragama	PS-130189	6.715179	79.987674	6.721581	80.012636	P2C7+J3J, Bandaragama, Sri Lanka	2.847916	
Kalutara	Bandaragama	Weeragaha Viharaya	False	False	KLTRBNDRGMWRGHVHRY		Kalutara	LK-13	6.577316	80.127363	Bandaragama	PS-130189	6.715179	79.987674	6.712917	80.00252	Southern Expy, Bandaragama, Sri Lanka	1.659181	
Kalutara	Bandaragama	Kolamediriya Viharaya	False	False	KLTRBNDRGMKLMDRYVHRY		Kalutara	LK-13	6.577316	80.127363	Bandaragama	PS-130189	6.715179	79.987674	6.7075	79.991389	Kalutara Rd., Bandaragama., Waskaduwa - Bandaragama Rd, Bandaragama, Sri Lanka	0.947609	
Kalutara	Wadduwa	Dharmapala Vidyalaya	False	False	KLTRWDDWDHRMPLVDYLY		Kalutara	LK-13	6.577316	80.127363	Wadduwa	PS-130188	6.664403	79.929851	6.668381	79.930516	MW9J+962, Wadduwa, Sri Lanka	0.44853	
Kalutara	Wadduwa	Mobile Vaccination	False	False	KLTRWDDWMBLVCCNTN		Kalutara	LK-13	6.577316	80.127363	Wadduwa	PS-130188	6.664403	79.929851					#CenterLocationUnknown
Kalutara	Millaniya	MOH Office - Millaniya	False	False	KLTRMLLNYMHFFCMLLNY		Kalutara	LK-13	6.577316	80.127363	Millaniya	PS-130191	6.681692	80.020847	6.724224	79.907284	A2, Panadura, Sri Lanka	13.407612	
Kalutara	Thebuwana	Wellatha Rural Hospital	False	False	KLTRTHBWNWLLTHRRLHSPTL		Kalutara	LK-13	6.577316	80.127363	Thebuwana	PS-1302105	6.654997	80.058183	6.570354	80.073048	wellatha Neboda ., Neboda - Wellatha Rd, Sri Lanka	9.557015	
Kalutara	Panadura	Panadura Hospital	False	False	KLTRPNDRPNDRHSPTL	Base Hospital Panadura	Kalutara	LK-13	6.577316	80.127363	Panadura North		6.756309	79.898939	6.721556	79.906851	A2, Panadura, Sri Lanka	3.963137	
Kalutara	Beruwala	Beruwala Hospital	False	False	KLTRBRWLBRWLHSPTL		Kalutara	LK-13	6.577316	80.127363	Beruwala	PS-1302102	6.480329	79.983498	6.472087	79.983492	FXCM+R9Q, Beruwala, Sri Lanka	0.916757	
Kalutara	Anguruwatota	MOH Office - Madurawala	False	False	KLTRNGRWTTMHFFCMDRWL		Kalutara	LK-13	6.577316	80.127363	Anguruwatota	PS-130190	6.654997	80.058183	6.654814	80.057811	M335+W4F, Keselhenawa, Sri Lanka	0.045863	
Kalutara	Agalawatta	Pimbura Hospital	False	False	KLTRGLWTTPMBRHSPTL		Kalutara	LK-13	6.577316	80.127363	Agalawatta		6.542566	80.157178	6.575949	80.158371	H5G5+98H, කළුතර, Sri Lanka	3.715525	
Kalutara	Matugama	Katugahahena Hospital	False	False	KLTRMTGMKTGHHNHSPTL		Kalutara	LK-13	6.577316	80.127363	Mathugama	PS-1302103	6.520881	80.117908	6.489328	80.08471	F3QM+PVP, Bopitiya, Sri Lanka	5.077192	
Kalutara	Baduraliya	Baduraliya Hospital	False	False	KLTRBDRLYBDRLYHSPTL		Kalutara	LK-13	6.577316	80.127363	Baduraliya	PS-1302106	6.516756	80.226716	6.514727	80.232731	Tiruwanaketiya-Agalawatte Rd, Baduraliya, Sri Lanka	0.702098	
Kalutara	Mathugama	Weththewa Hospital	False	False	KLTRMTHGMWTHTHWHSPTL		Kalutara	LK-13	6.577316	80.127363	Mathugama	PS-1302103	6.520881	80.117908	6.523087	80.125192	District Hospital, Hospital Road,Weththewa,., Matugama, Sri Lanka	0.841523	
Kalutara	Horana	Thakshila Central College	False	False	KLTRHRNTHKSHLCNTRLCLLG		Kalutara	LK-13	6.577316	80.127363	Horana	PS-130192	6.714613	80.069091	6.71141	80.062945	Moronthuduwa Horana Rd, Horana 12400, Sri Lanka	0.766731	
Kalutara	Ingiriya	Ingiriya Hospital	False	False	KLTRNGRYNGRYHSPTL		Kalutara	LK-13	6.577316	80.127363	Ingiriya	PS-130193	6.743614	80.175077	6.741133	80.162046	Panadura-Nambapana-Ratnapura Hwy, Ingiriya, Sri Lanka	1.465626	
Kalutara	Ingiriya	MOH Office - Ingiriya	False	False	KLTRNGRYMHFFCNGRY		Kalutara	LK-13	6.577316	80.127363	Ingiriya	PS-130193	6.743614	80.175077	6.74328	80.166145	A8, Ingiriya, Sri Lanka	0.987331	
Kalutara	Rasnayakapura	MOH Office - Rasnayakapura	False	False	KLTRRSNYKPRMHFFCRSNYKPR		Kalutara	LK-13	6.577316	80.127363	Rasnayakapura	PS-610323	7.776658	80.012692	7.812336	80.080579	R36J+W6P, Sri Lanka	8.468673	
Kurunegala	Nikaweratiya	Nikaweratiya Hospital	False	False	KRNGLNKWRTYNKWRTYHSPTL		Kurunegala	LK-61	7.66477	80.23677	Nikaweratiya	PS-610320	7.742612	80.121177	7.747476	80.114446	Nikaweratiya-Heelogama Rd, Nikaweratiya, Sri Lanka	0.918182	
Kurunegala	Puttalam	MOH Office - Puttalam	False	False	KRNGLPTTLMMHFFCPTTLM		Kurunegala	LK-61	7.66477	80.23677	Puttalam	PS-620130	8.029904	79.834396	8.022836	79.833312	Colombo Puttalam Rd, Puttalam, Sri Lanka	0.795187	
Kandy	Wattegama	Walala A.Rathnayake Central College	False	False	KNDYWTTGMWLLRTHNYKCNTRLCLLG		Kandy	LK-21	7.27337	80.709602	Wattegama	PS-210357	7.350603	80.68335	7.318909	80.693359	8M9V+H89, Menikhinna, Sri Lanka	3.694199	
Kandy	Pujapitiya	Pujapitiya Central College	False	False	KNDYPJPTYPJPTYCNTRLCLLG		Kandy	LK-21	7.27337	80.709602	Poojapitiya	PS-210115	7.372938	80.587619	7.371519	80.593387	Poojapitiya Road, Poojapitiya, Sri Lanka	0.655554	
Kandy	Daulagala	Alapalawa Piriven Viharaya	False	False	KNDYDLGLLPLWPRVNVHRY		Kandy	LK-21	7.27337	80.709602	Daulagala	PS-210111	7.227283	80.574409	7.21821	80.584983	6H9M+7XQ, Muruthagahamula, Sri Lanka	1.542696	
Kandy	Pallekele	Bandaranayake National College - Kundasale	False	False	KNDYPLLKLBNDRNYKNTNLCLLGKNDSL		Kandy	LK-21	7.27337	80.709602	Pallekele	PS-210109	7.279688	80.682945	7.280986	80.687993	A26, Kundasale 20168, Sri Lanka	0.57537	
Kandy	Peradeniya	Gelioya Maha Vidyalaya	False	False	KNDYPRDNYGLYMHVDYLY		Kandy	LK-21	7.27337	80.709602	Peradeniya	PS-210110	7.267283	80.601901	7.266783	80.601296	Galaha Rd, Peradeniya, Sri Lanka	0.086885	
Kandy	Kadugannawa	D.B. Wijetunga National School	False	False	KNDYKDGNNWDBWJTNGNTNLSCHL		Kandy	LK-21	7.27337	80.709602	Kadugannawa	PS-210112	7.256285	80.516908	7.208613	80.578297	D.B. Wijetunga National School , Daskara , Muruthagahamula., Geli Oya - Embekke Rd, Kovilakanda, Sri Lanka	8.602531	
Kandy	Teldeniya	Teldeniya National College	False	False	KNDYTLDNYTLDNYNTNLCLLG		Kandy	LK-21	7.27337	80.709602	Theldeniya	PS-210356	7.309853	80.76426	7.308862	80.762491	8Q56+GXX, Karalliyadda, Sri Lanka	0.224144	
Matale	Galewela	Galewela Hospital	False	False	MTLGLWLGLWLHSPTL		Matale	LK-22	7.667587	80.731008	Galewela	PS-220129	7.763244	80.574149	7.760542	80.571552	QH6C+6J7, Galewela, Sri Lanka	0.415026	
Matale	Galewela	Madipola Hospital	False	False	MTLGLWLMDPLHSPTL		Matale	LK-22	7.667587	80.731008	Galewela	PS-220129	7.763244	80.574149	7.685835	80.576848	MHPG+8PQ, Madipola, Sri Lanka	8.615328	
Matale	Galewela	Aluthwewa Hospital	False	False	MTLGLWLLTHWWHSPTL		Matale	LK-22	7.667587	80.731008	Galewela	PS-220129	7.763244	80.574149	7.788566	80.520555	Aluthwewa Hospital Rd, Sri Lanka	6.543624	
Matale	Galewela	Makulugaswewa Vidyalaya	False	False	MTLGLWLMKLGSWWVDYLY		Matale	LK-22	7.667587	80.731008	Galewela	PS-220129	7.763244	80.574149	7.842251	80.579391	RHRH+WQ2, Makulugaswewa, Sri Lanka	8.806901	
Matale	Galewela	Kalakiriyagama Vidyalaya	False	False	MTLGLWLKLKRYGMVDYLY		Matale	LK-22	7.667587	80.731008	Galewela	PS-220129	7.763244	80.574149	7.75947	80.572049	Ambepussa - Kurunegala - Trincomalee Hwy, Galewela, Sri Lanka	0.479356	
Monaragala	Siyambalanduwa	Siyambalanduwa Maha Vidyalaya	False	False	MNRGLSYMBLNDWSYMBLNDWMHVDYLY		Moneragala	LK-82	6.787517	81.303744	Siyambalanduwa	PS-820122	6.906851	81.547598	6.909655	81.561921	WH56+VQ7, Siyambalanduwa, Sri Lanka	1.612038	
Moneragala	Bibila	Radaliyadda Viharaya	False	False	MNRGLBBLRDLYDDVHRY		Moneragala	LK-82	6.787517	81.303744	Bibila	PS-820125	7.165232	81.225463	7.183482	81.232146	Peradeniya-Badulla-Chenkaladi Hwy, Radaliyadda, Sri Lanka	2.159774	
Moneragala	Bibila	Wellassa Central College	False	False	MNRGLBBLWLLSSCNTRLCLLG		Moneragala	LK-82	6.787517	81.303744	Bibila	PS-820125	7.165232	81.225463	7.131231	81.23558	46JP+F6W, Kanulwela, Sri Lanka	3.943308	
Moneragala	Bibila	Bibila Cultural Centre	False	False	MNRGLBBLBBLCLTRLCNTR		Moneragala	LK-82	6.787517	81.303744	Bibila	PS-820125	7.165232	81.225463	7.162409	81.22159	Bibile, Sri Lanka	0.530371	
Moneragala	Hikkaduwa	International Buddhist Center - Patuwatha	False	False	MNRGLHKKDWNTRNTNLBDDHSTCNTRPTWTH		Moneragala	LK-82	6.787517	81.303744	Hikkaduwa	PS-310122	6.145115	80.099693					#CenterLocationUnknown
Moneragala	Udugama	Yatalamaththa Maha Vidyalaya	False	False	MNRGLDGMYTLMTHTHMHVDYLY		Moneragala	LK-82	6.787517	81.303744	Udugama	PS-310133	6.210944	80.339616	6.373966	80.134659	Ittapane - Avittava Raod, Sri Lanka	29.022011	#CenterFarFromPolice
Galle	Elpitiya	Elpitiya Central College	False	False	GLLLPTYLPTYCNTRLCLLG		Galle	LK-31	6.222805	80.251977	Elpitiya	PS-310235	6.279163	80.142917	6.295674	80.166231	Ambalangoda - Elpitiya - Pitigala Rd, Elpitiya, Sri Lanka	3.164946	
Matara	Urubokka	Urubokka National College	False	False	MTRRBKKRBKKNTNLCLLG		Matara	LK-32	6.142734	80.539994	Urubokka	PS-320108	6.310257	80.629013	6.30653	80.63061	Urubokka, Sri Lanka	0.450586	
Matara	Urubokka	Pattigala Primary School	False	False	MTRRBKKPTTGLPRMRYSCHL		Matara	LK-32	6.142734	80.539994	Urubokka	PS-320108	6.310257	80.629013	6.319119	80.625275	Kotapola - Urubokka - Mulatiyana Rd, Sri Lanka	1.068884	
Matara	Hakmana	Mobile Vaccination	False	False	MTRHKMNMBLVCCNTN		Matara	LK-32	6.142734	80.539994	Hakmana	PS-320106	6.084824	80.643227					#CenterLocationUnknown
Matara	Gandara	MOH Office - Devinuwara	False	False	MTRGNDRMHFFCDVNWR		Matara	LK-32	6.142734	80.539994	Gandara	PS-320102	5.941629	80.614037	5.925907	80.586456	Port Access Road, Dondra, Sri Lanka	3.516979	
Matara	Walasmulla	MOH Office - Walasmulla	False	False	MTRWLSMLLMHFFCWLSMLL		Matara	LK-32	6.142734	80.539994	Walasmulla	PS-330151	6.154102	80.698256	6.150889	80.693718	Walasmulla, Sri Lanka	0.616099	
Matara	Walasmulla	MOH Office - Okewela	False	False	MTRWLSMLLMHFFCKWL		Matara	LK-32	6.142734	80.539994	Walasmulla	PS-330151	6.154102	80.698256	6.098886	80.715898	Okewela, Sri Lanka	6.444136	
Matara	Weeraketiya	MOH Office - Weeraketiya	False	False	MTRWRKTYMHFFCWRKTY		Matara	LK-32	6.142734	80.539994	Weeraketiya	PS-330149	6.153899	80.76737	6.144703	80.765287	4QV8+V4M, Weeraketiya, Sri Lanka	1.048488	
Hambantota	Hambantota	MOH Office - Hambantota	False	False	HMBNTTHMBNTTMHFFCHMBNTT		Hambantota	LK-33	6.259779	81.098619	Hambantota	PS-330156	6.125872	81.12521	6.171162	81.127	54CG+FQ9, Hambantota, Sri Lanka	5.041487	
Hambantota	Katuwana	MOH Office - Katuwana	False	False	HMBNTTKTWNMHFFCKTWN		Hambantota	LK-33	6.259779	81.098619	Katuwana	PS-330153	6.269722	80.690963	6.26627	80.693035	7M8V+G63, Katuwana, Sri Lanka	0.447115	
Hambantota	Ambalantota	MOH Office - Ambalantota	False	False	HMBNTTMBLNTTMHFFCMBLNTT		Hambantota	LK-33	6.259779	81.098619	Ambalantota	PS-330157	6.12516	81.023981	6.122767	81.005973	Walawa watta Road, Malpeththawa, Ambalantota, Sri Lanka	2.009195	
Hambantota	Sooriyawewa	MOH Office - Sooriyawewa	False	False	HMBNTTSRYWWMHFFCSRYWW		Hambantota	LK-33	6.259779	81.098619	Sooriyawewa	PS-330155	6.306022	81.003873	6.304862	81.004768	8233+WWR, Sooriyawewa, Sri Lanka	0.1626	
Hambantota	Beliatta	MOH Office – Beliatta	False	False	HMBNTTBLTTMHFFCBLTT		Hambantota	LK-33	6.259779	81.098619	Beliatta	PS-330152	6.046936	80.735408	6.051828	80.741735	3P2R+PMQ, Hambantota, Sri Lanka	0.886482	
Hambantota	Tangalle	MOH Office – Tangalle	False	False	HMBNTTTNGLLMHFFCTNGLL		Hambantota	LK-33	6.259779	81.098619	Tangalle	PS-330147	6.023954	80.797255	6.02363	80.795742	2QFW+F75, Tangalle, Sri Lanka	0.171198	
Hambantota	Balangoda	Base Hospital - Balangoda	False	False	HMBNTTBLNGDBSHSPTLBLNGD		Hambantota	LK-33	6.259779	81.098619	Balangoda	PS-910103	6.649474	80.700276	6.65828	80.712444	A4, Balangoda, Sri Lanka	1.663316	
Anuradhapura	Anuradhapura	Teaching Hospital Anuradhapura	False	False	NRDHPRNRDHPRTCHNGHSPTLNRDHPR		Anuradhapura	LK-71	8.39199	80.512958	Anuradapura	PS-710101	8.329752	80.407265	8.324765	80.413968	Harischandra Mawatha, Anuradhapura, Sri Lanka	0.922993	
Anuradhapura	Anuradhapura	MOH Office - Nuwaragampalatha East	False	False	NRDHPRNRDHPRMHFFCNWRGMPLTHST		Anuradhapura	LK-71	8.39199	80.512958	Anuradapura	PS-710101	8.329752	80.407265	8.324809	80.412262	Kandy Rd, Anuradhapura, Sri Lanka	0.777651	
Anuradhapura	Anuradhapura	MOH Office - Nuwaragampalatha Central	False	False	NRDHPRNRDHPRMHFFCNWRGMPLTHCNTRL		Anuradhapura	LK-71	8.39199	80.512958	Anuradapura	PS-710101	8.329752	80.407265	8.341215	80.374096	Unnamed Road, Anuradhapura, Sri Lanka	3.866675	
Anuradhapura	Tirappanaya	MOH Office - Thirappanane	False	False	NRDHPRTRPPNYMHFFCTHRPPNN		Anuradhapura	LK-71	8.39199	80.512958									#PoliceLocationUnknown
Anuradhapura	Mihintale	MOH Office - Mihintale	False	False	NRDHPRMHNTLMHFFCMHNTL		Anuradhapura	LK-71	8.39199	80.512958	Mihintale	PS-710104	8.360062	80.511889	8.357612	80.509049	Puttalam - Anuradhapura - Trincomalee Hwy, Mihintale, Sri Lanka	0.41466	
Anuradhapura	Parasangaswewa	Parasangaswewa Vidyalaya	False	False	NRDHPRPRSNGSWWPRSNGSWWVDYLY		Anuradhapura	LK-71	8.39199	80.512958	Parasangaswewa	PS-710123	8.650981	80.314759	8.422674	80.45927	A20, Sri Lanka	29.959317	#CenterFarFromPolice
Anuradhapura	Hingurakgoda	MOH Office - Hingurakgoda	False	False	NRDHPRHNGRKGDMHFFCHNGRKGD		Anuradhapura	LK-71	8.39199	80.512958	Hingurakgoda	PS-720129	8.048819	80.965751	8.046007	80.96576	2XW8+C82, Hingurakgoda, Sri Lanka	0.31278	
Jaffna	Achchuveli	Achchuveli Hospital	False	False	JFFNCHCHVLCHCHVLHSPTL		Jaffna	LK-41	9.691792	80.098594	Achchuweli	PS-410103	6.934132	79.856305	9.772721	80.115501	Avarankal-Tondaimanar Rd, Sri Lanka	317.021383	#CenterFarFromPolice
Jaffna	Kayts	MOH Office - Velanai	False	False	JFFNKYTSMHFFCVLN		Jaffna	LK-41	9.691792	80.098594	Kayts	PS-410212	9.728654	79.94775	9.636317	79.903777	Chatty vangkalvady road, Velanai, Sri Lanka	11.346015	
Jaffna	Kayts	MOH Office - Kayts	False	False	JFFNKYTSMHFFCKYTS		Jaffna	LK-41	9.691792	80.098594	Kayts	PS-410212	9.728654	79.94775	9.697759	79.866366	Sri Lanka, Kayts, Sri Lanka	9.561445	
Jaffna	Kayts	MOH Office - Karainagar	False	False	JFFNKYTSMHFFCKRNGR		Jaffna	LK-41	9.691792	80.098594	Kayts	PS-410212	9.728654	79.94775	9.725097	79.99772	Sri Lanka, Manipay, Sri Lanka	5.492521	
Jaffna	Manippai	Manippai Hospital	False	False	JFFNMNPPMNPPHSPTL		Jaffna	LK-41	9.691792	80.098594	Manippai	PS-410210	9.727151	79.996905	9.725939	79.998028	Manipay, Sri Lanka	0.182569	
Jaffna	Thelippalai	MOH Office - Thelippalai	False	False	JFFNTHLPPLMHFFCTHLPPL		Jaffna	LK-41	9.691792	80.098594	Thelippalay	PS-410104	6.933075	79.857181	9.785272	80.032899	Q2PM+452, Tellippalai, Sri Lanka	317.838063	#CenterFarFromPolice
Jaffna	Waddukkottai	MOH Office – Chankanai	False	False	JFFNWDDKKTTMHFFCCHNKN		Jaffna	LK-41	9.691792	80.098594									#PoliceLocationUnknown
Kilinochchi	Mulankavil	Mulankavil Hospital	False	False	KLNCHCHMLNKVLMLNKVLHSPTL		Kilinochchi	LK-45	9.415742	80.30358	Mulankavil	PS-450135	9.254463	80.141528	9.243423	80.143894	Base Hospital Mulankavil, A32 Road, Mulankavil, Kumulamunai, Sri Lanka	1.255148	
Kilinochchi	Pooneryn	MOH Office – Pooneryn	False	False	KLNCHCHPNRYNMHFFCPNRYN		Kilinochchi	LK-45	9.415742	80.30358	Pooneryn		9.505717	80.21101	9.507968	80.208317	G655+58P, Pooneryn, Sri Lanka	0.387256	
Kilinochchi	Kilinochchi	MOH Office – Karachchi	False	False	KLNCHCHKLNCHCHMHFFCKRCHCH		Kilinochchi	LK-45	9.415742	80.30358	Kilinochchi	PS-450131	9.392265	80.407846	7.683586	81.730767	MPMJ+C8J, Kattankudy, Sri Lanka	239.363691	#CenterFarFromPolice
Kilinochchi	Kilinochchi	MOH Office - Kandavalai	False	False	KLNCHCHKLNCHCHMHFFCKNDVL		Kilinochchi	LK-45	9.415742	80.30358	Kilinochchi	PS-450131	9.392265	80.407846	9.411006	80.516427	Parantan-Mullaitivu Hwy, Sri Lanka	12.096188	
Kilinochchi	Palei	MOH Office – Palei	False	False	KLNCHCHPLMHFFCPL		Kilinochchi	LK-45	9.415742	80.30358	Palei	PS-450132	6.900777	79.872638	9.610611	80.328165	Office of the Medical Officer for Health, Pallai Pradwshasaba, A9, Pachchilapalli, Sri Lanka	305.555993	#CenterFarFromPolice
Mullaitivu	Mallavi	MOH Office - Mallavi	False	False	MLLTVMLLVMHFFCMLLV		Mullaitivu	LK-44	9.167643	80.549091	Mallavi	PS-440153	9.137878	80.307257	9.136526	80.307948	48P5+J58, Mallavi, Sri Lanka	0.168444	
Mullaitivu	Mallavi	Vidyananda Maha Vidyalaya	False	False	MLLTVMLLVVDYNNDMHVDYLY		Mullaitivu	LK-44	9.167643	80.549091	Mallavi	PS-440153	9.137878	80.307257	9.130417	80.307209	Hospital road mallavi mullaitivu, 42000, Sri Lanka	0.829903	
Mullaitivu	Puthukudiyiruppu	Medical Superintendent of Health Office	False	False	MLLTVPTHKDYRPPMDCLSPRNTNDNTFHLTHFFC		Mullaitivu	LK-44	9.167643	80.549091	Pudukuduiruppu	PS-440149	7.00152	79.95003	9.320996	80.683002	8MCM+96R, Puthukkudiyiruppu, Sri Lanka	270.320843	#CenterFarFromPolice
Mullaitivu	Oddusuddan	Medical Superintendent of Health Office	False	False	MLLTVDDSDDNMDCLSPRNTNDNTFHLTHFFC		Mullaitivu	LK-44	9.167643	80.549091	Oddusudan	PS-440151	9.160983	80.652821	9.261573	80.813807	Mullaittivu-Kokkilai Rd, Mullaitivu, Sri Lanka	20.919119	#CenterFarFromPolice
Trincomalee	Muttur	MOH Office – Muttur	False	False	TRNCMLMTTRMHFFCMTTR		Trincomalee	LK-53	8.551241	81.092014	Mutur	PS-530138	8.461133	81.259371	8.453916	81.264494	1 Old Batticaloa Rd, Mutur, Sri Lanka	0.980859	
Trincomalee	Kinniya	MOH Office – Kinniya	False	False	TRNCMLKNNYMHFFCKNNY		Trincomalee	LK-53	8.551241	81.092014	Kinnia	PS-530140	6.907289	79.863819	8.498696	81.179644	F5XH+FVC, Kinniya 31100, Sri Lanka	228.840304	#CenterFarFromPolice
Trincomalee	Kinniya	Surangal Rural Health Medical Center	False	False	TRNCMLKNNYSRNGLRRLHLTHMDCLCNTR		Trincomalee	LK-53	8.551241	81.092014	Kinnia	PS-530140	6.907289	79.863819	8.47091	81.139893	F4CQ+9X6, Kinniya, Sri Lanka	223.680372	#CenterFarFromPolice
Trincomalee	Sripura	MOH Office – Sripura	False	False	TRNCMLSRPRMHFFCSRPR		Trincomalee	LK-53	8.551241	81.092014	Sripura	PS-530136	8.929617	80.81428	8.926697	80.814799	Padavi Sripura, Padaviya - Sripura Road, Welioya, Sri Lanka	0.329869	
Trincomalee	Kuchchaveli	MOH Office - Kuchchaveli	False	False	TRNCMLKCHCHVLMHFFCKCHCHVL		Trincomalee	LK-53	8.551241	81.092014	Kuchchaweli	PS-530133	8.81895	81.100438	8.740082	81.161616	P5R6+2JQ, Kumpurupiddi, Sri Lanka	11.053646	
Trincomalee	Kuchchaveli	Kuchchaveli Hospital	False	False	TRNCMLKCHCHVLKCHCHVLHSPTL		Trincomalee	LK-53	8.551241	81.092014	Kuchchaweli	PS-530133	8.81895	81.100438	8.814795	81.102358	R472+WW9, Kuchchaveli, Sri Lanka	0.508064	
Trincomalee	Kuchchaveli	Divisional Hospital - Nilaveli	False	False	TRNCMLKCHCHVLDVSNLHSPTLNLVL		Trincomalee	LK-53	8.551241	81.092014	Kuchchaweli	PS-530133	8.81895	81.100438	8.681035	81.193632	M5JV+CF6, Nilaveli, Sri Lanka	18.44695	
Trincomalee	Pulmoddai	MOH Office - Pulmoddai	False	False	TRNCMLPLMDDMHFFCPLMDD		Trincomalee	LK-53	8.551241	81.092014	Pulmudai	PS-530135	6.915266	79.87829	8.599018	81.217151	H6X8+JV2, Trincomalee, Sri Lanka	238.425888	#CenterFarFromPolice
Trincomalee	Uppuveli	MOH Office - Uppuveli	False	False	TRNCMLPPVLMHFFCPPVL		Trincomalee	LK-53	8.551241	81.092014	Uppuweli	PS-530134	8.593614	81.21743	8.607961	81.216512	Nilaveli Rd, Trincomalee, Sri Lanka	1.599005	
Trincomalee	Harbour Police	MOH Office - Trincomalee	False	False	TRNCMLHRBRPLCMHFFCTRNCML		Trincomalee	LK-53	8.551241	81.092014	Trinco Harbour Police	PS-530131	8.56705	81.231407	8.598974	81.216963	MOH Office, Farm Rd, Trincomalee, Sri Lanka	3.890062	
Trincomalee	Harbour Police	Base Hospital - Trincomalee	False	False	TRNCMLHRBRPLCBSHSPTLTRNCML		Trincomalee	LK-53	8.551241	81.092014	Trinco Harbour Police	PS-530131	8.56705	81.231407	8.56486	81.239445	Hospital Ln, Trincomalee, Sri Lanka	0.917037	
Trincomalee	Ichchalampattu	MOH Office - Ichchalampattu	False	False	TRNCMLCHCHLMPTTMHFFCCHCHLMPTT	Eachchilampattu Hospital	Trincomalee	LK-53	8.551241	81.092014	Ichchalampattu		8.289549	81.359002	8.289644	81.358983	Highway, Ichchalampattu, Trincomalee, Sri Lanka	0.010772	
Trincomalee	Serunuwara	MOH Office - Serunuwara	False	False	TRNCMLSRNWRMHFFCSRNWR		Trincomalee	LK-53	8.551241	81.092014	Serunuwara	PS-530244	8.321863	81.299322	8.323143	81.299894	B10, Sri Lanka	0.155671	
Trincomalee	Kantale	MOH Office - Kantale	False	False	TRNCMLKNTLMHFFCKNTL		Trincomalee	LK-53	8.551241	81.092014	Kantale	PS-530241	8.356129	81.007739	8.349617	81.009107	අග්‍රබෝධි මාවත, Kantale, Sri Lanka	0.739809	
Batticaloa	Vakarai	MOH Office - Vakarai	False	False	BTTCLVKRMHFFCVKR	Divisional Hospital Vakarai	Batticaloa	LK-51	7.792772	81.486513	Wakarai	PS-510109	6.934132	79.856305	8.134552	81.435328	Trincomalee Hwy, Vakarai, Sri Lanka	219.417822	#CenterFarFromPolice
Batticaloa	Valachchenai	Valachchenai Base Hospital	False	False	BTTCLVLCHCHNVLCHCHNBSHSPTL		Batticaloa	LK-51	7.792772	81.486513	Valachchanai	PS-510107	7.908015	81.533004	7.911315	81.533046	Valaichchenai-Nasuvantivu-Navaladi Road, Sri Lanka	0.367088	
Batticaloa	Valachchenai	MOH Office - Valachchenai	False	False	BTTCLVLCHCHNMHFFCVLCHCHN		Batticaloa	LK-51	7.792772	81.486513	Valachchanai	PS-510107	7.908015	81.533004	7.912281	81.532775	WG6M+W46, Batticaloa, Sri Lanka	0.475177	
Batticaloa	Valachchenai	MOH Office - Oddamavadi	False	False	BTTCLVLCHCHNMHFFCDDMVD		Batticaloa	LK-51	7.792772	81.486513	Valachchanai	PS-510107	7.908015	81.533004	7.912281	81.532775	WG6M+W46, Batticaloa, Sri Lanka	0.475177	
Batticaloa	Valachchenai	MOH Office - Kiran	False	False	BTTCLVLCHCHNMHFFCKRN		Batticaloa	LK-51	7.792772	81.486513	Valachchanai	PS-510107	7.908015	81.533004	7.502211	79.839254	GR2Q+VPJ, Madampe, Sri Lanka	192.073036	#CenterFarFromPolice
Batticaloa	Valachchenai	MOH Office - Navallady	False	False	BTTCLVLCHCHNMHFFCNVLLDY		Batticaloa	LK-51	7.792772	81.486513	Valachchanai	PS-510107	7.908015	81.533004	7.912281	81.532775	WG6M+W46, Batticaloa, Sri Lanka	0.475177	
Batticaloa	Kaluwanchikudy	MOH Office - Kaluwanchikudy	False	False	BTTCLKLWNCHKDYMHFFCKLWNCHKDY	Medical Officer of Health Kaluwanchikudy	Batticaloa	LK-51	7.792772	81.486513	Kalawanchikudy	PS-510110	7.515908	81.787051	7.509333	81.79204	Colombo - Batticaloa Hwy, Kaluwanchikudy, Sri Lanka	0.915167	
Batticaloa	Kaluwanchikudy	Kaluwanchikudy Hospital	False	False	BTTCLKLWNCHKDYKLWNCHKDYHSPTL	Base Hospital - Kaluwanchikudy	Batticaloa	LK-51	7.792772	81.486513	Kalawanchikudy	PS-510110	7.515908	81.787051	7.51724	81.785184	GQ8P+V3V, Kaluwanchikudy, Sri Lanka	0.25365	
Batticaloa	Kokkadicholai	MOH Office - Pattipala	False	False	BTTCLKKKDCHLMHFFCPTTPL		Batticaloa	LK-51	7.792772	81.486513	Kokkadicholai	PS-510112	7.715979	81.698757	7.539982	80.915581	GWQ8+X6W, Hettipola, Sri Lanka	88.533038	#CenterFarFromPolice
Batticaloa	Vellavely	MOH Office - Vellavely	False	False	BTTCLVLLVLYMHFFCVLLVLY		Batticaloa	LK-51	7.792772	81.486513									#PoliceLocationUnknown
Batticaloa	Kattankudy	MOH Office - Kattankudy	False	False	BTTCLKTTNKDYMHFFCKTTNKDY		Batticaloa	LK-51	7.792772	81.486513	Kaththankudi	PS-510103	7.715979	81.698757	7.683586	81.730767	MPMJ+C8J, Kattankudy, Sri Lanka	5.042961	
Batticaloa	Kattankudy	MOH Office - Arayampathy	False	False	BTTCLKTTNKDYMHFFCRYMPTHY		Batticaloa	LK-51	7.792772	81.486513	Kaththankudi	PS-510103	7.715979	81.698757	7.672862	81.735019	MPFP+42R, Sri Lanka	6.243191	
Batticaloa	Vavunathivu	MOH Office - Vavunathivu	False	False	BTTCLVVNTHVMHFFCVVNTHV		Batticaloa	LK-51	7.792772	81.486513	Vavunathive	PS-510102	6.933075	79.857181	7.708253	81.691368	Hospital Rd, Batticaloa, Sri Lanka	219.95575	#CenterFarFromPolice
Batticaloa	Batticaloa	MOH Office - Batticaloa	False	False	BTTCLBTTCLMHFFCBTTCL		Batticaloa	LK-51	7.792772	81.486513	Batticaloa	PS-510101	7.717949	81.699294	7.708253	81.691368	Hospital Rd, Batticaloa, Sri Lanka	1.387934	
Batticaloa	Eravur	Sandiveli Hospital	False	False	BTTCLRVRSNDVLHSPTL		Batticaloa	LK-51	7.792772	81.486513	Eravur	PS-510104	7.715979	81.698757	7.777289	81.602853	Trincomalee Hwy, Eravur, Sri Lanka	12.578998	
Batticaloa	Eravur	MOH Office – Eravur	False	False	BTTCLRVRMHFFCRVR		Batticaloa	LK-51	7.792772	81.486513	Eravur	PS-510104	7.715979	81.698757	7.783664	81.605626	QJM4+F76, Eravur, Sri Lanka	12.729342	
Batticaloa	Eravur	Eravur Hospital	False	False	BTTCLRVRRVRHSPTL		Batticaloa	LK-51	7.792772	81.486513	Eravur	PS-510104	7.715979	81.698757	7.783168	81.605999	QJM4+799, Eravur 30300, Sri Lanka	12.663585	
Batticaloa	Eravur	Muhaidin Mosque	False	False	BTTCLRVRMHDNMSQ		Batticaloa	LK-51	7.792772	81.486513	Eravur	PS-510104	7.715979	81.698757	7.772927	81.609849	Town,, Eravur 30300, Sri Lanka	11.668	
Batticaloa	Eravur	MOH Office - Chenkaladi	False	False	BTTCLRVRMHFFCCHNKLD		Batticaloa	LK-51	7.792772	81.486513	Eravur	PS-510104	7.715979	81.698757	7.783599	81.593367	Trincomalee Hwy, Chenkaladi 30350, Sri Lanka	13.837876	
Batticaloa	Eravur	Chenkaladi Hospital	False	False	BTTCLRVRCHNKLDHSPTL		Batticaloa	LK-51	7.792772	81.486513	Eravur	PS-510104	7.715979	81.698757	7.783546	81.589961	Batticaloa Rd, Chenkaladi, Sri Lanka	14.151406	
Batticaloa	Eravur	Joseph College	False	False	BTTCLRVRJSPHCLLG		Batticaloa	LK-51	7.792772	81.486513	Eravur	PS-510104	7.715979	81.698757	7.75875	81.648713	Thannamunai, Sri Lanka	7.283871	
Batticaloa	Eravur	Kommanthurai Clinic	False	False	BTTCLRVRKMMNTHRCLNC		Batticaloa	LK-51	7.792772	81.486513	Eravur	PS-510104	7.715979	81.698757	7.780325	81.604389	Town, Eravur, Sri Lanka	12.625376	
Batticaloa	Eravur	Mawadiwembu Hospital	False	False	BTTCLRVRMWDWMBHSPTL		Batticaloa	LK-51	7.792772	81.486513	Eravur	PS-510104	7.715979	81.698757	7.808545	81.566328	Mawadiwembu Hospital, Sri Lanka	17.861302	
Batticaloa	Karadiyanaru	Karadiyanaru Hospital	False	False	BTTCLKRDYNRKRDYNRHSPTL		Batticaloa	LK-51	7.792772	81.486513	Karadiyanaru	PS-510105	7.701992	81.537252	7.700216	81.539779	PG2Q+3WJ, Karadiyanaru, Sri Lanka	0.341482	
Ampara	Chavalakade	MOH Office - Navidanveli	False	False	MPRCHVLKDMHFFCNVDNVL		Ampara	LK-52	7.23699	81.550391	Chawalakade	PS-520125	7.413559	81.776822	7.420081	81.788401	B77, Sri Lanka	1.468805	
Ampara	Akkaraipattu	MOH Office - Akkaraipattu	False	False	MPRKKRPTTMHFFCKKRPTT		Ampara	LK-52	7.23699	81.550391	Akkaraipattu	PS-520126	7.216084	81.853254	7.228134	81.851123	6VH2+7C5, Akkaraipattu, Sri Lanka	1.360772	
Ampara	Akkaraipattu	MOH Office - Addalaichenai	False	False	MPRKKRPTTMHFFCDDLCHN		Ampara	LK-52	7.23699	81.550391	Akkaraipattu	PS-520126	7.216084	81.853254	7.260916	81.853493	7V63+999, Addalaichenai, Sri Lanka	4.986726	
Ampara	Akkaraipattu	MOH Office - Alayadiwembu	False	False	MPRKKRPTTMHFFCLYDWMB		Ampara	LK-52	7.23699	81.550391	Akkaraipattu	PS-520126	7.216084	81.853254	7.413484	81.826588	Colombo - Batticaloa Hwy, Kalmunai 32300, Sri Lanka	22.152981	#CenterFarFromPolice
Ampara	Thirukkovil	MOH Office – Thirukkovil	False	False	MPRTHRKKVLMHFFCTHRKKVL		Ampara	LK-52	7.23699	81.550391	Thirukkovil	PS-520127	7.113998	81.852219	7.111635	81.852892	Central Rd, Vinayagapuram, Sri Lanka	0.273131	
Ampara	Dehiattakandiya	Henanigala South College	False	False	MPRDHTTKNDYHNNGLSTHCLLG		Ampara	LK-52	7.23699	81.550391	Dehiaththakandiya	PS-520121	7.672072	81.044241	7.704478	81.079838	P33H+QWW, Bandanagala, Sri Lanka	5.328148	
Ampara	Dehiattakandiya	Diyaviddagama Community Hall	False	False	MPRDHTTKNDYDYVDDGMCMMNTYHLL		Ampara	LK-52	7.23699	81.550391	Dehiaththakandiya	PS-520121	7.672072	81.044241	7.668027	81.047433	M29W+6X7, Dehiattakandiya, Sri Lanka	0.571178	
Ampara	Dehiattakandiya	Serupitiya Viharaya	False	False	MPRDHTTKNDYSRPTYVHRY		Ampara	LK-52	7.23699	81.550391	Dehiaththakandiya	PS-520121	7.672072	81.044241	7.52674	81.485504	Ampara-Uhana-Maha Oya Hwy, aranthalava 32250, Sri Lanka	51.265848	#CenterFarFromPolice
Ampara	Dehiattakandiya	Sadamadulla Vidyalaya	False	False	MPRDHTTKNDYSDMDLLVDYLY		Ampara	LK-52	7.23699	81.550391	Dehiaththakandiya	PS-520121	7.672072	81.044241	7.210268	81.845672	6R6W+473, Akkaraipattu, Sri Lanka	102.233352	#CenterFarFromPolice
Ampara	Dehiattakandiya	Lihiniyagama Vidyalaya	False	False	MPRDHTTKNDYLHNYGMVDYLY		Ampara	LK-52	7.23699	81.550391	Dehiaththakandiya	PS-520121	7.672072	81.044241	7.632293	81.027045	J2JG+WR7, Sandunpura, Sri Lanka	4.813603	
Ampara	Dehiattakandiya	Bakmeedeniya Vidyalaya	False	False	MPRDHTTKNDYBKMDNYVDYLY		Ampara	LK-52	7.23699	81.550391	Dehiaththakandiya	PS-520121	7.672072	81.044241	7.682795	81.023899	M2MF+4H6, Dehiattakandiya, Sri Lanka	2.539829	
Ampara	Dehiattakandiya	Rathmalkandura Vidyalaya	False	False	MPRDHTTKNDYRTHMLKNDRVDYLY		Ampara	LK-52	7.23699	81.550391	Dehiaththakandiya	PS-520121	7.672072	81.044241	7.710574	81.015578	P268+66G, Bandanagala, Sri Lanka	5.321921	
Ampara	Dehiattakandiya	Nawamedagama Vidyalaya	False	False	MPRDHTTKNDYNWMDGMVDYLY		Ampara	LK-52	7.23699	81.550391	Dehiaththakandiya	PS-520121	7.672072	81.044241	7.533823	81.045377	G2MW+G5C, Diyawiddagama, Sri Lanka	15.377923	
Ampara	Dehiattakandiya	Pahalagama Viharaya	False	False	MPRDHTTKNDYPHLGMVHRY		Ampara	LK-52	7.23699	81.550391	Dehiaththakandiya	PS-520121	7.672072	81.044241	7.594037	81.024321	H2VF+JP8, Diyawiddagama, Sri Lanka	8.953349	
Ampara	Dehiattakandiya	Sadunpura Vidyalaya	False	False	MPRDHTTKNDYSDNPRVDYLY		Ampara	LK-52	7.23699	81.550391	Dehiaththakandiya	PS-520121	7.672072	81.044241	7.628748	81.044783	Lihiniyagama Road, Sandunpura, Sri Lanka	4.819292	
Ampara	Sainthamarthu	MOH Office – Sainthamarthu	False	False	MPRSNTHMRTHMHFFCSNTHMRTH		Ampara	LK-52	7.23699	81.550391									#PoliceLocationUnknown
Ampara	Karaitivu	MOH Office – Karaitivu	False	False	MPRKRTVMHFFCKRTV		Ampara	LK-52	7.23699	81.550391	Karaitivu		9.744059	79.870587	7.377712	81.838796	Colombo-Ratnapura-Wellawaya-Batticaloa Highway, Karativu 32250, Sri Lanka	340.788666	#CenterFarFromPolice
Ampara	Kalmunai	MOH Office - Kalmunai South	False	False	MPRKLMNMHFFCKLMNSTH		Ampara	LK-52	7.23699	81.550391	Kalmunai	PS-520123	7.414289	81.825006	7.411712	81.838462	CR6Q+M9P, Kalmunai 32300, Sri Lanka	1.511625	
Ampara	Kalmunai	Base Hospital Kalmunai North	False	False	MPRKLMNBSHSPTLKLMNNRTH		Ampara	LK-52	7.23699	81.550391	Kalmunai	PS-520123	7.414289	81.825006	7.420034	81.82232	hospital near, Kalmunai 32300, Sri Lanka	0.704353	
Ampara	Kalmunai	MOH Office - Kalmunai North	False	False	MPRKLMNMHFFCKLMNNRTH		Ampara	LK-52	7.23699	81.550391	Kalmunai	PS-520123	7.414289	81.825006	7.411712	81.838462	CR6Q+M9P, Kalmunai 32300, Sri Lanka	1.511625	
Ampara	Sammanthurai	MOH Office - Sammanthurai	False	False	MPRSMMNTHRMHFFCSMMNTHR		Ampara	LK-52	7.23699	81.550391	Samanthurai	PS-520124	7.365785	81.810859	7.369857	81.812264	9R96+WWR, Sammanthurai, Sri Lanka	0.478712	
Ampara	Sammanthurai	MOH Office - Nintavur	False	False	MPRSMMNTHRMHFFCNNTVR		Ampara	LK-52	7.23699	81.550391	Samanthurai	PS-520124	7.365785	81.810859	7.352821	81.856939	Hospital Rd, Nintavur 32340, Sri Lanka	5.283925	
Ampara	Sammanthurai	Base Hospital - Sammanthurai	False	False	MPRSMMNTHRBSHSPTLSMMNTHR		Ampara	LK-52	7.23699	81.550391	Samanthurai	PS-520124	7.365785	81.810859	7.368355	81.813042	9R96+MWM, Hospital Rd, Sammanthurai, Sri Lanka	0.373773	
Ampara	Pottuvil	MOH Office - Pottuvil	False	False	MPRPTTVLMHFFCPTTVL		Ampara	LK-52	7.23699	81.550391	Pothuvil	PS-520128	6.878387	81.826859	6.877076	81.828969	B374, Pottuvil, Sri Lanka	0.274874	
Ampara	Pottuvil	Base Hospital - Pottuvil	False	False	MPRPTTVLBSHSPTLPTTVL		Ampara	LK-52	7.23699	81.550391	Pothuvil	PS-520128	6.878387	81.826859	6.876098	81.830463	Main Street Colombo - Batticaloa Hwy, Pottuvil 32500, Sri Lanka	0.47246	
