district	police	center	dose1	dose2	fuzzy_key	alt_name	district_name_norm	district_id	district_lat	district_lng	ps_name_norm	ps_id	ps_lat	ps_lng	lat	lng	formatted_address	dis_center_to_police	tags	district_si	police_si	center_si	district_ta	police_ta	center_ta	formatted_address_si	formatted_address_ta
Colombo	Cinnamon Gardens	Viharamahadevi Park	False	False	CLMBCNNMNGRDNSVHRMHDVPRK		Colombo	LK-11	6.869636	80.019598	Cinnamon Garden	PS-110324	6.907289	79.863819	6.913391	79.86174	Viharamahadevi Park, Colombo, Sri Lanka	0.716497		කොළඹ	කුරුඳු උද්‍යාන	විහාරමහාදේවි උද්‍යානය	கொழும்பு	இலவங்கப்பட்டை தோட்டங்கள்	விஹாரமஹாதேவி பூங்கா	විහාරමහාදේවි උද්‍යානය, කොළඹ, ශ්‍රී ලංකාව	விஹாரமஹாதேவி பூங்கா, கொழும்பு, இலங்கை
Colombo	Thalangama	Diyatha Uyana	False	False	CLMBTHLNGMDYTHYN		Colombo	LK-11	6.869636	80.019598	Thalangama	PS-110466	6.91089	79.929325	6.904575	79.909831	Diyatha Uyana, B240, Sri Jayawardenepura Kotte, Sri Lanka	2.264281		කොළඹ	තලංගම	දියත උයන	கொழும்பு	தலங்கம	தியாத உயனா	දියත උයන, බී 240, ශ්‍රී ජයවර්ධනපුර කෝට්ටේ, ශ්‍රී ලංකාව	தியாத உயனா, B240, ஸ்ரீ ஜெயவர்தனபுர கோட்டே, இலங்கை
Colombo	Grandpass	Sugathadasa Outdoor Stadium	False	False	CLMBGRNDPSSSGTHDSTDRSTDM		Colombo	LK-11	6.869636	80.019598	Grandpass	PS-110215	6.949052	79.872983	6.94806	79.868842	Prince of Wales Ave, Colombo 01400, Sri Lanka	0.470345		කොළඹ	ග්‍රෑන්ඩ්පාස්	සුගතදාස එළිමහන් ක්‍රීඩාංගනය	கொழும்பு	கிராண்ட்பாஸ்	சுகததாச வெளிப்புற அரங்கம்	වේල්ස් කුමර මාවත, කොළඹ 01400, ශ්‍රී ලංකාව	பிரின்ஸ் ஆஃப் வேல்ஸ் அவே, கொழும்பு 01400, இலங்கை
Colombo	Narahenpita	Army Hospital Narahenpita	False	False	CLMBNRHNPTRMYHSPTLNRHNPT		Colombo	LK-11	6.869636	80.019598	Narahenpita	PS-110321	6.891832	79.876715	6.900252	79.87618	08 Elvitigala Mawatha, Colombo 00800, Sri Lanka	0.938417		කොළඹ	නාරාහේන්පිට	නාරාහේන්පිට හමුදා රෝහල	கொழும்பு	நரஹேன்பிட்ட	இராணுவ மருத்துவமனை நாரஹேன்பிட்ட	08 ඇල්විටිගල මාවත, කොළඹ 00800, ශ්‍රී ලංකාව	08 எல்விட்டிகல மாவத்தை, கொழும்பு 00800, இலங்கை
Colombo	Borella	St. Luke's Church - Borella	False	False	CLMBBRLLSTLKSCHRCHBRLL		Colombo	LK-11	6.869636	80.019598	Borella	PS-110323	6.915266	79.87829	6.918035	79.874548	1091 Gnanartha Pradeepa Mawatha, Colombo 00800, Sri Lanka	0.515354		කොළඹ	බොරැල්ල	ශාන්ත ලූක් දේවස්ථානය - බොරැල්ල	கொழும்பு	பொரெல்லா	செயின்ட் லூக்கா தேவாலயம் - பொரெல்லா	1091 ඥානාර්ථ ප්‍රදීපා මාවත, කොළඹ 00800, ශ්‍රී ලංකාව	1091 ஞானார்த்த பிரதீப மாவத்தை, கொழும்பு 00800, இலங்கை
Colombo	Boralesgamuwa	Kotelawala Defence Hospital	False	False	CLMBBRLSGMWKTLWLDFNCHSPTL		Colombo	LK-11	6.869636	80.019598	Boralesgamuwa	PS-110464	6.841331	79.901255	6.82518	79.907167	RWG4+3VF, Boralesgamuwa, Sri Lanka	1.911444		කොළඹ	බොරලැස්ගමුව	කොතලාවල ආරක්‍ෂක රෝහල	கொழும்பு	பொரலஸ்கமுவா	கொத்தலாவல பாதுகாப்பு மருத்துவமனை	RWG4+3VF, බොරලැස්ගමුව, ශ්‍රී ලංකාව	RWG4+3VF, பொரலஸ்கமுவா, இலங்கை
Colombo	Maradana	National Hospital - Colombo	False	False	CLMBMRDNNTNLHSPTLCLMB		Colombo	LK-11	6.869636	80.019598	Maradana	PS-110107	6.927939	79.865471	6.918743	79.868992	Colombo 00700, Sri Lanka	1.094265		කොළඹ	මරදාන	ජාතික රෝහල - කොළඹ	கொழும்பு	மரதானா	தேசிய மருத்துவமனை - கொழும்பு	කොළඹ 00700, ශ්‍රී ලංකාව	கொழும்பு 00700, இலங்கை
Colombo	Fort	Navy Headquarters	False	False	CLMBFRTNVYHDQRTRS		Colombo	LK-11	6.869636	80.019598	Fort	PS-110105	6.9334	79.842895	6.936952	79.842104	WRPR+QRQ, Colombo, Sri Lanka	0.404627		කොළඹ	කොටුව	නාවික හමුදා මූලස්ථානය	கொழும்பு	கோட்டை	கடற்படை தலைமையகம்	WRPR+QRQ, කොළඹ, ශ්‍රී ලංකාව	WRPR+QRQ, கொழும்பு, இலங்கை
Colombo	Wellawatta	MOH Office - Wellawatta	False	False	CLMBWLLWTTMHFFCWLLWTT		Colombo	LK-11	6.869636	80.019598	Wellawatta	PS-110320	6.873107	79.86167	6.874483	79.861558	235 Galle Rd, Colombo, Sri Lanka	0.153551		කොළඹ	වැල්ලවත්ත	MOH කාර්යාලය - වැල්ලවත්ත	கொழும்பு	வெள்ளவத்தை	MOH அலுவலகம் - வெள்ளவத்தை	235 ගාල්ල පාර, කොළඹ, ශ්‍රී ලංකාව	235 காலி சாலை, கொழும்பு, இலங்கை
Colombo	Wellampitiya	MOH Office - Kolonnawa	False	False	CLMBWLLMPTYMHFFCKLNNW		Colombo	LK-11	6.869636	80.019598	Wellampitiya	PS-110465	6.937514	79.896298	6.938303	79.889664	25 Pansalhena 1st Ln, 10600, Sri Lanka	0.737734		කොළඹ	වැල්ලම්පිටිය	MOH කාර්යාලය - කොළොන්නාව	கொழும்பு	வெல்லம்பிட்டிய	MOH அலுவலகம் - கொலன்னாவா	25 පන්සල්හේන 1 වන අංකය, 10600, ශ්‍රී ලංකාව	25 பன்சால்ஹேனா 1 வது எண், 10600, இலங்கை
Colombo	Mulleriyawa	MOH Office - Gothatuwa	False	False	CLMBMLLRYWMHFFCGTHTW		Colombo	LK-11	6.869636	80.019598	Mulleriyawa	PS-110469	6.927187	79.929108	6.922088	79.916237	Mandavila Rd, Kotikawatta, Sri Lanka	1.530186		කොළඹ	මුල්ලේරියාව	MOH කාර්යාලය - ගොතටුව	கொழும்பு	முல்லேரியாவா	MOH அலுவலகம் - கோததுவா	මණ්ඩවිල පාර, කොටිකාවත්ත, ශ්‍රී ලංකාව	மண்டவில வீதி, கொட்டிகாவத்த, இலங்கை
Colombo	Kaduwela	MOH Office - Kaduwela	False	False	CLMBKDWLMHFFCKDWL		Colombo	LK-11	6.869636	80.019598	Kaduwela		6.936234	79.970183	6.934127	79.984398	B263, Kaduwela, Sri Lanka	1.586964		කොළඹ	කඩුවෙල	MOH කාර්යාලය - කඩුවෙල	கொழும்பு	கடுவெல	MOH அலுவலகம் - கடுவெல	බී 263, කඩුවෙල, ශ්‍රී ලංකාව	பி 263, கடுவெல, இலங்கை
Colombo	Kosgama	Kosgama Hospital	False	False	CLMBKSGMKSGMHSPTL		Colombo	LK-11	6.869636	80.019598	Kosgama	PS-920227	6.946597	80.137869	6.940956	80.124888	Salawa-Akarawita, 10730, Sri Lanka	1.564606		කොළඹ	කොස්ගම	කොස්ගම රෝහල	கொழும்பு	கொஸ்கம	கொஸ்கம மருத்துவமனை	සාලාව-අකරවිට, 10730, ශ්‍රී ලංකාව	சலாவா-அகரவிட, 10730, இலங்கை
Gampaha	Gampaha	Galahitiyawa Community Hall	False	False	GMPHGMPHGLHTYWCMMNTYHLL		Gampaha	LK-12	7.123598	80.018508	Gampaha	PS-120237	7.087765	80.01228	7.059587	80.008739	Gampaha, Sri Lanka	3.158513		ගම්පහ	ගම්පහ	ගලහිටියාව ප්‍රජා ශාලාව	கம்பஹா	கம்பஹா	கலாஹித்தியவா சமூக மண்டபம்	ගම්පහ, ශ්‍රී ලංකාව	கம்பஹா, இலங்கை
Gampaha	Pugoda	MOH Office - Dompe	False	False	GMPHPGDMHFFCDMP		Gampaha	LK-12	7.123598	80.018508	Pugoda	PS-120241	6.98283	80.111189	6.976767	80.117422	Dompe, Pugoda-Mandawala Rd, Pugoda, Sri Lanka	0.963513		ගම්පහ	පූගොඩ	MOH කාර්යාලය - දොම්පේ	கம்பஹா	புகோடா	MOH அலுவலகம் - Dompe	දොම්පේ, පූගොඩ-මණ්ඩාවල පාර, පූගොඩ, ශ්‍රී ලංකාව	டோம்பே, புகோடா-மண்டவாலா சாலை, புகோடா, இலங்கை
Gampaha	Minuwangoda	Dagonna Maternity Clinic	False	False	GMPHMNWNGDDGNNMTRNTYCLNC		Gampaha	LK-12	7.123598	80.018508	Minuwangoda	PS-120238	7.174215	79.957874	7.172386	79.957553	Katunayake-Veyangoda Rd, Minuwangoda, Sri Lanka	0.206501		ගම්පහ	මිනුවන්ගොඩ	දාගොන්න මාතෘ සායනය	கம்பஹா	மினுவாங்கொட	தகோனா மகப்பேறு மருத்துவமனை	කටුනායක-වේයන්ගොඩ පාර, මිනුවන්ගොඩ, ශ්‍රී ලංකාව	கட்டுநாயக்க-வெயங்கொட வீதி, மினுவாங்கொட, இலங்கை
Gampaha	Minuwangoda	Mobile Vaccination	False	False	GMPHMNWNGDMBLVCCNTN		Gampaha	LK-12	7.123598	80.018508	Minuwangoda	PS-120238	7.174215	79.957874					#CenterLocationUnknown	ගම්පහ	මිනුවන්ගොඩ	ජංගම එන්නත	கம்பஹா	மினுவாங்கொட	மொபைல் தடுப்பூசி		
Gampaha	Minuwangoda	Minuwangoda Hospital	False	False	GMPHMNWNGDMNWNGDHSPTL		Gampaha	LK-12	7.123598	80.018508	Minuwangoda	PS-120238	7.174215	79.957874	7.172257	79.956152	Veyangoda Rd, Minuwangoda 11550, Sri Lanka	0.289044		ගම්පහ	මිනුවන්ගොඩ	මිනුවන්ගොඩ රෝහල	கம்பஹா	மினுவாங்கொட	மினுவாங்கொட மருத்துவமனை	වේයන්ගොඩ පාර, මිනුවන්ගොඩ 11550, ශ්‍රී ලංකාව	வேயங்கொட வீதி, மினுவாங்கொட 11550, இலங்கை
Gampaha	Minuwangoda	MOH Office - Minuwangoda	False	False	GMPHMNWNGDMHFFCMNWNGD		Gampaha	LK-12	7.123598	80.018508	Minuwangoda	PS-120238	7.174215	79.957874	7.17227	79.956823	Katunayake-Veyangoda Rd, Minuwangoda, Sri Lanka	0.245525		ගම්පහ	මිනුවන්ගොඩ	MOH කාර්යාලය - මිනුවන්ගොඩ	கம்பஹா	மினுவாங்கொட	MOH அலுவலகம் - மினுவாங்கொட	කටුනායක-වේයන්ගොඩ පාර, මිනුවන්ගොඩ, ශ්‍රී ලංකාව	கட்டுநாயக்க-வெயங்கொட வீதி, மினுவாங்கொட, இலங்கை
Gampaha	Nittambuwa	MOH Office - Aththanagalla	False	False	GMPHNTTMBWMHFFCTHTHNGLL		Gampaha	LK-12	7.123598	80.018508	Nittambuwa	PS-120246	7.149726	80.10046	7.154005	80.062741	B445, Veyangoda 11100, Sri Lanka	4.189956		ගම්පහ	නිට්ටඹුව	MOH කාර්යාලය - අත්තනගල්ල	கம்பஹா	நிட்டம்புவா	MOH அலுவலகம் - அத்தனகல்ல	බී 445, වේයන්ගොඩ 11100, ශ්‍රී ලංකාව	B445, வேயங்கொட 11100, இலங்கை
Gampaha	Sapugaskanda	Heiyanthuduwa Maternity Clinic	False	False	GMPHSPGSKNDHYNTHDWMTRNTYCLNC		Gampaha	LK-12	7.123598	80.018508	Sapugaskanda	PS-120130	6.970586	79.953588	6.97029	79.976879	Power House Bus Stop, Oil Refinery Junction - Free Trade Zone Rd, Sri Lanka	2.571717		ගම්පහ	සපුගස්කන්ද	හෙයියන්තුඩුව මාතෘ සායනය	கம்பஹா	சபுகஸ்கந்தா	ஹெய்யந்துடுவா மகப்பேறு மருத்துவமனை	පවර් හවුස් බස් නැවතුම, තෙල් පිරිපහදු හන්දිය - නිදහස් වෙළඳ කලාප පාර, ශ්‍රී ලංකාව	பவர் ஹவுஸ் பஸ் ஸ்டாப், எண்ணெய் சுத்திகரிப்பு சந்திப்பு - சுதந்திர வர்த்தக மண்டலம் ஆர்ட், இலங்கை
Gampaha	Peliyagoda	Gangarama Viharaya	False	False	GMPHPLYGDGNGRMVHRY		Gampaha	LK-12	7.123598	80.018508	Peliyagoda	PS-120125	6.955193	79.88612	6.967181	79.882488	29 Negombo-Colombo Main Rd, Wattala, Sri Lanka	1.392417		ගම්පහ	පෑලියගොඩ	ගංගාරාම විහාරය	கம்பஹா	பேலியகொட	கங்காராம விகாரை	29 මීගමුව-කොළඹ ප්‍රධාන පාර, වත්තල, ශ්‍රී ලංකාව	29 நீர்கொழும்பு-கொழும்பு பிரதான வீதி, வத்தளை, இலங்கை
Gampaha	Katana	MOH Office - Katana	False	False	GMPHKTNMHFFCKTN		Gampaha	LK-12	7.123598	80.018508	Katana	PS-120360	7.224796	79.880015	7.22436	79.88271	Katana, Negombo - Mirigama Rd, Negombo, Sri Lanka	0.301313		ගම්පහ	කටාන	MOH කාර්යාලය - කටාන	கம்பஹா	கட்டானா	MOH அலுவலகம் - கட்டானா	කටාන, මීගමුව - මීරිගම පාර, මීගමුව, ශ්‍රී ලංකාව	கட்டானா, நீர்கொழும்பு - மீரிகம வீதி, நீர்கொழும்பு, இலங்கை
Gampaha	Kadawata	Kirillawala Central College	False	False	GMPHKDWTKRLLWLCNTRLCLLG		Gampaha	LK-12	7.123598	80.018508	Kadawatha	PS-120136	7.00152	79.95003	7.015981	79.969223	2X89+9MX, Eldeniya, Sri Lanka	2.660247		ගම්පහ	කඩවත	කිරිල්ලවල මධ්‍ය මහා විද්‍යාලය	கம்பஹா	கடவாடா	கிரில்லாவாலா மத்திய கல்லூரி	2X89+9MX, ඇල්දෙනිය, ශ්‍රී ලංකාව	2X89+9MX, எல்டெனியா, இலங்கை
Gampaha	Negombo	Town Hall - Negombo	False	False	GMPHNGMBTWNHLLNGMB		Gampaha	LK-12	7.123598	80.018508	Negombo	PS-120351	7.224796	79.880015	7.206667	79.851863	Negombo, Sri Lanka	3.703623		ගම්පහ	මීගමුව	පුරහල - මීගමුව	கம்பஹா	நீர்கொழும்பு	டவுன் ஹால் - நீர்கொழும்பு	මීගමුව, ශ්‍රී ලංකාව	நீர்கொழும்பு, இலங்கை
Gampaha	Ja Ela	MOH Office - Ja Ela	False	False	GMPHJLMHFFCJL		Gampaha	LK-12	7.123598	80.018508	Ja - Ela	PS-120133	7.081055	79.890504	7.075216	79.893879	60 Mount Kalvary Rd, Ja-Ela, Sri Lanka	0.748731		ගම්පහ	ජා ඇල	MOH කාර්යාලය - ජා ඇල	கம்பஹா	ஜா எல	MOH அலுவலகம் - ஜா எல	60 කල්වාරි පාර, ජා-ඇල, ශ්‍රී ලංකාව	60 மவுண்ட் கல்வாரி சாலை, ஜா-எல, இலங்கை
Gampaha	Wattala	MOH Office - Wattala	False	False	GMPHWTTLMHFFCWTTL		Gampaha	LK-12	7.123598	80.018508	Wattala	PS-120128	6.993713	79.894506	6.995817	79.885793	301 Hendala Rd, Wattala, Sri Lanka	0.989991		ගම්පහ	වත්තල	MOH කාර්යාලය - වත්තල	கம்பஹா	வத்தளை	MOH அலுவலகம் - வத்தளை	301 හැඳල පාර, වත්තල, ශ්‍රී ලංකාව	301 ஹெந்தலா சாலை, வத்தளை, இலங்கை
Gampaha	Ragama	MOH Office - Ragama	False	False	GMPHRGMMHFFCRGM		Gampaha	LK-12	7.123598	80.018508	Ragama	PS-120134	7.034975	79.924148	7.027386	79.920232	2WGC+X35, Ragama, Sri Lanka	0.948382		ගම්පහ	රාගම	MOH කාර්යාලය - රාගම	கம்பஹா	ராகம	MOH அலுவலகம் - ராகம	2WGC+X35, රාගම, ශ්‍රී ලංකාව	2WGC+X35, ராகம, இலங்கை
Gampaha	Kotadeniyawa	Badalgamuwa Maternity Clinic	False	False	GMPHKTDNYWBDLGMWMTRNTYCLNC		Gampaha	LK-12	7.123598	80.018508	Kotadeniyawa	PS-120354	7.283643	80.06649	7.500881	80.392656	Badagamuwa, Sri Lanka	43.33897	#CenterFarFromPolice	ගම්පහ	කොටදෙනියාව	බඩල්ගමුව මාතෘ සායනය	கம்பஹா	கோடதெனியாவா	படல்கமுவா மகப்பேறு மருத்துவமனை	බඩගමුව, ශ්‍රී ලංකාව	படகமுவா, இலங்கை
Gampaha	Kotadeniyawa	Kotadeniyawa Maternity Clinic	False	False	GMPHKTDNYWKTDNYWMTRNTYCLNC		Gampaha	LK-12	7.123598	80.018508	Kotadeniyawa	PS-120354	7.283643	80.06649	7.283881	80.066065	Kotadeniyawa, Sri Lanka	0.053848		ගම්පහ	කොටදෙනියාව	කොටදෙනියාව මාතෘ සායනය	கம்பஹா	கோடதெனியாவா	கோடதெனியாவா மகப்பேறு மருத்துவமனை	කොටදෙනියාව, ශ්‍රී ලංකාව	கொட்டதெனியாவா, இலங்கை
Gampaha	Divulapitiya	MOH Office - Divulapitiya	False	False	GMPHDVLPTYMHFFCDVLPTY		Gampaha	LK-12	7.123598	80.018508	Diulapitiya	PS-120355	7.174215	79.957874	7.215486	80.013606	6287+5CX, Divulapitiya, Sri Lanka	7.67456		ගම්පහ	දිවුලපිටිය	එම්ඕඑච් කාර්යාලය - දිවුලපිටිය	கம்பஹா	திவுலபிட்டிய	MOH அலுவலகம் - திவுலபிட்டிய	6287+5CX, දිවුලපිටිය, ශ්‍රී ලංකාව	6287+5CX, திவுலபிட்டிய, இலங்கை
Gampaha	Ingiriya	District Hospital - Ingiriya	False	False	GMPHNGRYDSTRCTHSPTLNGRY		Gampaha	LK-12	7.123598	80.018508	Ingiriya	PS-130193	6.743614	80.175077	6.741114	80.162065	Ratnapura - Horana - Panadura Hwy, Ingiriya, Sri Lanka	1.463965		ගම්පහ	ඉංගිරිය	දිස්ත්‍රික් රෝහල - ඉංගිරිය	கம்பஹா	இங்கிரிய	மாவட்ட மருத்துவமனை - இங்கிரிய	රත්නපුර - හොරණ - පානදුර හ්වි, ඉංගිරිය, ශ්‍රී ලංකාව	இரத்தினபுரி - ஹொரணை - பாணாதுரா ஹ்வி, இங்கிரிய, இலங்கை
Kalutara	Horana	Moragahahena Purvarama	False	False	KLTRHRNMRGHHNPRVRM		Kalutara	LK-13	6.577316	80.127363	Horana	PS-130192	6.714613	80.069091	6.586943	79.960167	Galle Rd, Kalutara, Sri Lanka	18.613945		කළුතර	හොරණ	මොරගහහේන පූර්වාරාමය	களுத்துறை	ஹொரானா	மொரகஹஹேன பூர்வராம	ගාල්ල පාර, කළුතර, ශ්‍රී ලංකාව	காலி வீதி, களுத்துறை, இலங்கை
Kalutara	Dodamgoda	Wilpatha Hospital	False	False	KLTRDDMGDWLPTHHSPTL		Kalutara	LK-13	6.577316	80.127363	Dodangoda	PS-130299	6.553375	80.023569	6.540961	80.036553	Wilpatha Rd, Sri Lanka	1.991373		කළුතර	දොඩම්ගොඩ	විල්පත රෝහල	களுத்துறை	தோடம்கோடா	வில்பதா மருத்துவமனை	විල්පත පාර, ශ්‍රී ලංකාව	வில்பதா சாலை, இலங்கை
Kalutara	Beruwala	MOH Office - Beruwala	False	False	KLTRBRWLMHFFCBRWL		Kalutara	LK-13	6.577316	80.127363	Beruwala	PS-1302102	6.480329	79.983498	6.437559	79.999356	CXQX+2PH, Aluthgama, Sri Lanka	5.069893		කළුතර	බේරුවල	MOH කාර්යාලය - බේරුවල	களுத்துறை	பேருவளை	MOH அலுவலகம் - பேருவளை	CXQX+2PH, අළුත්ගම, ශ්‍රී ලංකාව	CXQX+2PH, அளுத்கம, இலங்கை
Kalutara	Matugama	MOH Office - Matugama	False	False	KLTRMTGMMHFFCMTGM		Kalutara	LK-13	6.577316	80.127363	Mathugama	PS-1302103	6.520881	80.117908	6.523544	80.126443	G4FG+CH8, Matugama, Sri Lanka	0.988725		කළුතර	මතුගම	MOH කාර්යාලය - මතුගම	களுத்துறை	மத்துகம	MOH அலுவலகம் - மத்துகம	G4FG+CH8, මතුගම, ශ්‍රී ලංකාව	G4FG+CH8, மத்துகம, இலங்கை
Kalutara	Panadura	Mahanama National College	False	False	KLTRPNDRMHNMNTNLCLLG		Kalutara	LK-13	6.577316	80.127363	Panadura North		6.756309	79.898939	6.742886	79.911867	Kandy Road, Panadura, Sri Lanka	2.066007		කළුතර	පානදුර	මහානාම ජාතික විද්‍යාලය	களுத்துறை	பாணந்துறை	மகாநாம தேசிய கல்லூரி	නුවර පාර, පානදුර, ශ්‍රී ලංකාව	கண்டி சாலை, பாணந்துறை, இலங்கை
Kalutara	Baduraliya	Baduraliya Hospital	False	False	KLTRBDRLYBDRLYHSPTL		Kalutara	LK-13	6.577316	80.127363	Baduraliya	PS-1302106	6.516756	80.226716	6.514727	80.232731	Tiruwanaketiya-Agalawatte Rd, Baduraliya, Sri Lanka	0.702098		කළුතර	බදුරලිය	බදුරලිය රෝහල	களுத்துறை	பதுரலியா	பதுரலியா மருத்துவமனை	තිරුවානකැටිය-අගලවත්ත පාර, බදුරලිය, ශ්‍රී ලංකාව	திருவனகெட்டிய-அகலவத்தை சாலை, பதுரலியா, இலங்கை
Kalutara	Bandragama	MOH Office - Bandaragama	False	False	KLTRBNDRGMMHFFCBNDRGM		Kalutara	LK-13	6.577316	80.127363	Bandaragama	PS-130189	6.715179	79.987674	6.713351	79.991671	Library Path, Bandaragama, Sri Lanka	0.486104		කළුතර	බණ්ඩාරගම	MOH කාර්යාලය - බණ්ඩාරගම	களுத்துறை	பந்த்ரகம	MOH அலுவலகம் - பண்டாரகம	පුස්තකාල මාවත, බණ්ඩාරගම, ශ්‍රී ලංකාව	நூலகப் பாதை, பண்டாரகம, இலங்கை
Kalutara	Millaniya	MOH Office - Millaniya	False	False	KLTRMLLNYMHFFCMLLNY		Kalutara	LK-13	6.577316	80.127363	Millaniya	PS-130191	6.681692	80.020847	6.724224	79.907284	A2, Panadura, Sri Lanka	13.407612		කළුතර	මිල්ලනිය	MOH කාර්යාලය - මිල්ලනිය	களுத்துறை	மில்லனியா	MOH அலுவலகம் - மில்லனியா	ඒ 2, පානදුර, ශ්‍රී ලංකාව	ஏ 2, பாணந்துரா, இலங்கை
Kurunegala	Kurunegala	Kurunegala Teaching  Hospital	False	False	KRNGLKRNGLKRNGLTCHNGHSPTL		Kurunegala	LK-61	7.66477	80.23677	Kurunegala	PS-610101	7.485852	80.364137	7.479122	80.359115	No. 176, Ambepussa - Trincomalee Hwy, Kurunegala 60000, Sri Lanka	0.931185		කුරුණෑගල	කුරුණෑගල	කුරුණෑගල ශික්ෂණ රෝහල	குருநாகல்	குருநாகல்	குருநாகல் போதனா மருத்துவமனை	අංක 176, අඹේපුස්ස - ත්‍රිකුණාමලය හ්වි, කුරුණෑගල 60000, ශ්‍රී ලංකාව	எண் 176, அம்பேபுஸ்ஸா - திருகோணமலை ஹ்வி, குருநாகல் 60000, இலங்கை
Kurunegala	Mawathagama	Udanagama Medical Centre	False	False	KRNGLMWTHGMDNGMMDCLCNTR		Kurunegala	LK-61	7.66477	80.23677	Mawathagama	PS-610109	7.432976	80.449904	7.474266	80.39225	Keppetigala Rd, Mallawapitiya 60000, Sri Lanka	7.843802		කුරුණෑගල	මාවතගම	උදානගම වෛද්‍ය මධ්‍යස්ථානය	குருநாகல்	மாவத்தகம	உடனாகம மருத்துவ மையம்	කැප්පෙටිගල පාර, මල්ලවපිටිය 60000, ශ්‍රී ලංකාව	கெப்பெட்டிகல வீதி, மல்லவாபிட்டிய 60000, இலங்கை
Kurunegala	Mawathagama	Kotikapola Viharaya	False	False	KRNGLMWTHGMKTKPLVHRY		Kurunegala	LK-61	7.66477	80.23677	Mawathagama	PS-610109	7.432976	80.449904	7.434223	80.443251	Katugastota-Kurunegala-Puttalam Hwy, Mawathagama, Sri Lanka	0.746787		කුරුණෑගල	මාවතගම	කොටිකාපොල විහාරය	குருநாகல்	மாவத்தகம	கோடிக்கபொல விஹாராயா	කටුගස්තොට-කුරුණෑගල-පුත්තලම හ්වි, මාවතගම, ශ්‍රී ලංකාව	கட்டுகஸ்தோட்டை-குருநாகல்-புத்தளம் Hwy, மாவத்தகம, இலங்கை
Kurunegala	Giribawa	Pahala Giribawa Vidyalaya	False	False	KRNGLGRBWPHLGRBWVDYLY		Kurunegala	LK-61	7.66477	80.23677	Giribawa	PS-610329	8.117314	80.189061	8.116653	80.192352	Mahagalkadawala - Warawewa, Pahala Giribawa, Sri Lanka	0.369773		කුරුණෑගල	ගිරිබාව	පහළ ගිරිබාව විද්‍යාලය	குருநாகல்	கிரிபாவா	பஹல கிரிபாவா வித்யாலயா	මහගල්කඩවල - වරවැව, පහළ ගිරිබාව, ශ්‍රී ලංකාව	மகாகல்கடவாலா - வாரவெவ, பஹால கிரிபாவா, இலங்கை
Kurunegala	Giribawa	Gurupitigama Vidyalaya	False	False	KRNGLGRBWGRPTGMVDYLY		Kurunegala	LK-61	7.66477	80.23677	Giribawa	PS-610329	8.117314	80.189061	8.03503	80.276477	27PG+2H9, Galgamuwa, Sri Lanka	13.283184		කුරුණෑගල	ගිරිබාව	ගුරුපිටිගම විද්‍යාලය	குருநாகல்	கிரிபாவா	குருபிடிகம வித்யாலயா	27 පීජී+2 එච් 9, ගල්ගමුව, ශ්‍රී ලංකාව	27PG+2H9, கல்கமுவா, இலங்கை
Kurunegala	Giribawa	Bambare Primary School	False	False	KRNGLGRBWBMBRPRMRYSCHL		Kurunegala	LK-61	7.66477	80.23677	Giribawa	PS-610329	8.117314	80.189061	8.118351	80.192415	459R+8XV, Pahala Giribawa, Sri Lanka	0.38692		කුරුණෑගල	ගිරිබාව	බඹරැ ප්‍රාථමික විද්‍යාලය	குருநாகல்	கிரிபாவா	பம்பரே ஆரம்பப் பள்ளி	459R+8XV, පහළ ගිරිබාව, ශ්‍රී ලංකාව	459R+8XV, பஹல கிரிபாவா, இலங்கை
Kurunegala	Wariyapola	Wariyapola Sumangala Vidyalaya	False	False	KRNGLWRYPLWRYPLSMNGLVDYLY		Kurunegala	LK-61	7.66477	80.23677	Wariyapola	PS-610105	7.628129	80.241019	7.619472	80.233697	Chilaw Road, වාරියපොල නගරය, Sri Lanka	1.256512		කුරුණෑගල	වාරියපොළ	වාරියපොළ සුමංගල විද්‍යාලය	குருநாகல்	வாரியபொல	வாரியபொல சுமங்கல வித்தியாலயம்	හලාවත පාර, වාරියපොල නගරය, ශ්‍රී ලංකාව	சிலாவ் சாலை, வாரியபொல நகரம், இலங்கை
Kurunegala	Maho	Pailigam Society Hall	False	False	KRNGLMHPLGMSCTYHLL		Kurunegala	LK-61	7.66477	80.23677	Maho	PS-610324	7.824001	80.28038	7.848667	80.238321	Maho 60600, Sri Lanka	5.385737		කුරුණෑගල	මහෝ	පයිලිගම් සමිති ශාලාව	குருநாகல்	மஹோ	பைலிகம் சொசைட்டி ஹால்	මහෝ 60600, ශ්‍රී ලංකාව	மஹோ 60600, இலங்கை
Kurunegala	Maho	Maho Hospital	False	False	KRNGLMHMHHSPTL		Kurunegala	LK-61	7.66477	80.23677	Maho	PS-610324	7.824001	80.28038	7.824003	80.282165	siyambalangamuwa road, මහව 60600, Sri Lanka	0.196697		කුරුණෑගල	මහෝ	මහෝ රෝහල	குருநாகல்	மஹோ	மஹோ மருத்துவமனை	සියඹලන්ගමුව පාර, මහව 60600, ශ්‍රී ලංකාව	சியம்பலங்கமுவ சாலை, மஹவ 60600, இலங்கை
Puttalam	Nawagattegama	Moragahawewa Clinic	False	False	PTTLMNWGTTGMMRGHWWCLNC		Puttalam	LK-62	7.973531	79.913833	Nawagaththegama	PS-620133	8.002882	80.106543	8.001291	80.10379	Nawagattegama, Sri Lanka	0.351096		පුත්තලම	නවගත්තේගම	මොරගහවැව සායනය	புத்தளம்	நவகத்தேகம	மொரகஹவெவ கிளினிக்	නවගත්තේගම, ශ්‍රී ලංකාව	நவகத்தேகம, இலங்கை
Puttalam	Wennappuwa	Holy Family Convent Wennappuwa	False	False	PTTLMWNNPPWHLYFMLYCNVNTWNNPPW		Puttalam	LK-62	7.973531	79.913833	Wennappuwa	PS-620245	7.339623	79.843017	7.340487	79.843438	8RRV+59W, Wennappuwa, Sri Lanka	0.106737		පුත්තලම	වෙන්නප්පුව	වෙන්නප්පුව ශුද්ධ වූ පවුල් කන්‍යාරාමය	புத்தளம்	வென்னப்புவா	புனித குடும்ப கான்வென்ட் வெண்ணப்புவா	8RRV+59W, වෙන්නප්පුව, ශ්‍රී ලංකාව	8RRV+59W, வென்னப்புவா, இலங்கை
Puttalam	Dankotuwa	Dankotuwa Balika Vidyalaya	False	False	PTTLMDNKTWDNKTWBLKVDYLY		Puttalam	LK-62	7.973531	79.913833	Dankotuwa	PS-620246	7.300337	79.882595	7.29238	79.878239	Toppuwa - Madampe Rd, Dankotuwa, Sri Lanka	1.007122		පුත්තලම	දන්කොටුව	දංකොටුව බාලිකා විද්‍යාලය	புத்தளம்	டாங்கொட்டுவா	தங்கொட்டுவ பாலிகா வித்தியாலயம்	තොප්පුව - මාදම්පේ පාර, දංකොටුව, ශ්‍රී ලංකාව	தொப்புவா - மாதம்பே வீதி, தங்கொட்டுவா, இலங்கை
Puttalam	Puttalam	Puttalam Hospital	False	False	PTTLMPTTLMPTTLMHSPTL		Puttalam	LK-62	7.973531	79.913833	Puttalam	PS-620130	8.029904	79.834396	8.027902	79.83874	Katugastota-Kurunegala-Puttalam Hwy, Puttalam, Sri Lanka	0.527729		පුත්තලම	පුත්තලම	පුත්තලම රෝහල	புத்தளம்	புத்தளம்	புத்தளம் மருத்துவமனை	කටුගස්තොට-කුරුණෑගල-පුත්තලම හ්වි, පුත්තලම, ශ්‍රී ලංකාව	கட்டுகஸ்தோட்டா-குருநாகல்-புத்தளம் Hwy, புத்தளம், இலங்கை
Puttalam	Koswatta	Naranwala Maha Vidyalaya	False	False	PTTLMKSWTTNRNWLMHVDYLY		Puttalam	LK-62	7.973531	79.913833	Koswatta	PS-620244	7.374528	79.898302	7.011896	80.024149	Naranwala, Sri Lanka	42.659369	#CenterFarFromPolice	පුත්තලම	කොස්වත්ත	නාරංවල මහා විද්‍යාලය	புத்தளம்	கொஸ்வத்த	நரன்வாலா மகா வித்தியாலயம்	නාරංවල, ශ්‍රී ලංකාව	நரன்வாலா, இலங்கை
Puttalam	Koswatta	Haldanduwana Maha Vidyalaya	False	False	PTTLMKSWTTHLDNDWNMHVDYLY		Puttalam	LK-62	7.973531	79.913833	Koswatta	PS-620244	7.374528	79.898302	6.908863	79.931357	Koswatta, Sri Jayawardenepura Kotte, Sri Lanka	51.924158	#CenterFarFromPolice	පුත්තලම	කොස්වත්ත	හල්දandුවන මහා විද්‍යාලය	புத்தளம்	கொஸ்வத்த	ஹல்தண்டுவன மகா வித்தியாலயம்	කොස්වත්ත, ශ්‍රී ජයවර්ධනපුර කෝට්ටේ, ශ්‍රී ලංකාව	கொஸ்வத்த, ஸ்ரீ ஜெயவர்தனபுர கோட்டே, இலங்கை
Puttalam	Anamaduwa	MOH Office – Anamaduwa	False	False	PTTLMNMDWMHFFCNMDW		Puttalam	LK-62	7.973531	79.913833	Anamaduwa	PS-620131	7.874852	80.01316	7.889992	80.010421	V2Q6+X5V, Anamaduwa, Sri Lanka	1.710846		පුත්තලම	ආණමඩුව	MOH කාර්යාලය - ආණමඩුව	புத்தளம்	ஆனமடுவா	MOH அலுவலகம் - ஆனமடுவா	V2Q6+X5V, ආණමඩුව, ශ්‍රී ලංකාව	V2Q6+X5V, ஆனமடுவா, இலங்கை
Puttalam	Mundalama	MOH Office - Mundalama	False	False	PTTLMMNDLMMHFFCMNDLM		Puttalam	LK-62	7.973531	79.913833	Mundal	PS-620138	7.808859	79.825729	7.78892	79.82751	Puttalam - Colombo Rd, Sri Lanka	2.226479		පුත්තලම	මුන්දලම	MOH කාර්යාලය - මුන්දලම	புத்தளம்	முண்டாலமா	MOH அலுவலகம் - முண்டலமா	පුත්තලම - කොළඹ පාර, ශ්‍රී ලංකාව	புத்தளம் - கொழும்பு வீதி, இலங்கை
Puttalam	Kandy	Pushpadhana Balika Vidyalaya	False	False	PTTLMKNDYPSHPDHNBLKVDYLY		Puttalam	LK-62	7.973531	79.913833	Kandy	PS-210101	7.292948	80.642368	7.293989	80.633	16 Kandy Rd, Kandy 20000, Sri Lanka	1.040036		පුත්තලම	මහනුවර	පුෂ්පධාන බාලිකා විද්‍යාලය	புத்தளம்	கண்டி	புஷ்பதான பாலிகா வித்யாலயா	16 මහනුවර පාර, මහනුවර 20000, ශ්‍රී ලංකාව	16 கண்டி வீதி, கண்டி 20000, இலங்கை
Puttalam	Kandy	DS Senanayaka Vidyalaya	False	False	PTTLMKNDYDSSNNYKVDYLY		Puttalam	LK-62	7.973531	79.913833	Kandy	PS-210101	7.292948	80.642368	7.290139	80.647085	66 Anagarika Dharmapala Mawatha, Kandy 20000, Sri Lanka	0.607015		පුත්තලම	මහනුවර	ඩීඑස් සේනානායක විද්‍යාලය	புத்தளம்	கண்டி	டிஎஸ் சேனாநாயக்க வித்யாலயா	66 අනගාරික ධර්මපාල මාවත, මහනුවර 20000, ශ්‍රී ලංකාව	66 அனகாரிகா தர்மபால மாவத்தை, கண்டி 20000, இலங்கை
Puttalam	Kandy	Girls' High School Kandy	False	False	PTTLMKNDYGRLSHGHSCHLKNDY		Puttalam	LK-62	7.973531	79.913833	Kandy	PS-210101	7.292948	80.642368	7.286871	80.626752	7JPG+PPR, Kandy, Sri Lanka	1.850775		පුත්තලම	මහනුවර	මහනුවර උසස් බාලිකා විද්‍යාලය	புத்தளம்	கண்டி	பெண்கள் மேல்நிலைப்பள்ளி கண்டி	7JPG+PPR, මහනුවර, ශ්‍රී ලංකාව	7JPG+PPR, கண்டி, இலங்கை
Puttalam	Galewela	MOH Office - Galewela	False	False	PTTLMGLWLMHFFCGLWL		Puttalam	LK-62	7.973531	79.913833	Galewela	PS-220129	7.763244	80.574149	7.760791	80.571896	A6, Galewela, Sri Lanka	0.368918		පුත්තලම	ගලේවෙල	MOH කාර්යාලය - ගලේවෙල	புத்தளம்	கலேவெல	MOH அலுவலகம் - கலேவெல	ඒ 6, ගලේවෙල, ශ්‍රී ලංකාව	A6, கலேவெல, இலங்கை
Matale	Dambulla	MOH Office - Dambulla	False	False	MTLDMBLLMHFFCDMBLL		Matale	LK-22	7.667587	80.731008	Dambulla	PS-220128	7.86208	80.649166	7.870886	80.650631	A36,Bus stand, Dambulla, Sri Lanka	0.992702		මාතලේ	දඹුල්ල	MOH කාර්යාලය - දඹුල්ල	மாத்தளை	தம்புள்ளை	MOH அலுவலகம் - தம்புள்ளை	ඒ 36, බස් නැවතුම, දඹුල්ල, ශ්‍රී ලංකාව	ஏ 36, பேருந்து நிலையம், தம்புள்ளை, இலங்கை
Badulla	Uva Paranagama	MOH Office - Uva Paranagama	False	False	BDLLVPRNGMMHFFCVPRNGM		Badulla	LK-81	7.074529	81.04486	Uvaparanagama	PS-810213	6.958341	80.930364	6.927934	80.896475	Udapussellawa-Welimada Road, Ambagasdowa, Sri Lanka	5.043837		බදුල්ල	Vaව පරණගම	MOH කාර්යාලය - vaව පරණගම	பதுளை	ஊவ பரணகம	MOH அலுவலகம் - ஊவா பரணகம	උඩපුස්සැල්ලාව-වැලිමඩ පාර, අඹගස්දෝව, ශ්‍රී ලංකාව	உடபுசெல்லவா-வெலிமட சாலை, அம்பகஸ்தோவா, இலங்கை
Badulla	Ella	MOH Office – Ella	False	False	BDLLLLMHFFCLL		Badulla	LK-81	7.074529	81.04486	Ella	PS-810211	6.876609	81.048276	6.779645	80.964114	QXH7+WC4, Badulla, Sri Lanka	14.237912		බදුල්ල	ඇලා	MOH කාර්යාලය - ඇල්ල	பதுளை	எல்ல	MOH அலுவலகம் - எல்ல	QXH7+WC4, බදුල්ල, ශ්‍රී ලංකාව	QXH7+WC4, பதுளை, இலங்கை
Badulla	Hali Ela	Sambodhi Viharaya	False	False	BDLLHLLSMBDHVHRY		Badulla	LK-81	7.074529	81.04486	Haliela	PS-810108	6.958216	81.034447	6.984218	81.061356	Muthiyangana Temple, Station Rd, Badulla, Sri Lanka	4.14625		බදුල්ල	හාලි ඇල	සම්බෝධි විහාරය	பதுளை	ஹாலி எல	சம்போதி விஹாராயா	මුතියංගන පන්සල, දුම්රිය ස්ථානය පාර, බදුල්ල, ශ්‍රී ලංකාව	முத்தியங்கனா கோவில், நிலையம் சாலை, பதுளை, இலங்கை
Badulla	Welimada	MOH Office - Welimada	False	False	BDLLWLMDMHFFCWLMD		Badulla	LK-81	7.074529	81.04486	Welimada	PS-810212	6.900481	80.905809	6.927934	80.896475	Udapussellawa-Welimada Road, Ambagasdowa, Sri Lanka	3.222841		බදුල්ල	වැලිමඞ	MOH කාර්යාලය - වැලිමඩ	பதுளை	வெலிமடா	MOH அலுவலகம் - வெலிமடை	උඩපුස්සැල්ලාව-වැලිමඩ පාර, අඹගස්දෝව, ශ්‍රී ලංකාව	உடபுசெல்லவா-வெலிமட சாலை, அம்பகஸ்தோவா, இலங்கை
Badulla	Haputale	MOH Office - Haputale	False	False	BDLLHPTLMHFFCHPTL		Badulla	LK-81	7.074529	81.04486	Haputale	PS-810215	6.767653	80.957218	6.779645	80.964114	QXH7+WC4, Badulla, Sri Lanka	1.536024		බදුල්ල	හපුතලේ	MOH කාර්යාලය - හපුතලේ	பதுளை	ஹப்புதலே	MOH அலுவலகம் - ஹப்புத்தளை	QXH7+WC4, බදුල්ල, ශ්‍රී ලංකාව	QXH7+WC4, பதுளை, இலங்கை
Badulla	Bandarawela	MOH Office – Bandarawela	False	False	BDLLBNDRWLMHFFCBNDRWL		Badulla	LK-81	7.074529	81.04486	Bandarawela	PS-810210	6.831526	80.986784	6.841272	80.98482	Hospital Junction Helamuduna Bus Stop, Etampitiya Rd, Bandarawela, Sri Lanka	1.105533		බදුල්ල	බණ්ඩාරවෙල	MOH කාර්යාලය - බණ්ඩාරවෙල	பதுளை	பண்டாரவளை	MOH அலுவலகம் - பண்டாரவளை	රෝහල් හන්දිය හෙළමුදුන බස් නැවතුම, ඇටම්පිටිය පාර, බණ්ඩාරවෙල, ශ්‍රී ලංකාව	மருத்துவமனை சந்திப்பு ஹெலமுதுனா பேருந்து நிறுத்தம், இடம்பிட்டிய சாலை, பண்டாரவளை, இலங்கை
Moneragala	Monaragala	Mahanama Vidyalaya	False	False	MNRGLMNRGLMHNMVDYLY		Moneragala	LK-82	6.787517	81.303744	Monaragala	PS-820121	6.869866	81.348106	6.876259	81.348364	Potuvile Road Colombo - Batticaloa Hwy, Monaragala, Sri Lanka	0.711663		මොණරාගල	මොනරාගල	මහානාම විද්‍යාලය	மொனராகலை	மொனராகலை	மகாநாம வித்யாலயா	පොතුවිලේ පාර කොළඹ - මඩකලපුව හ්වි, මොනරාගල, ශ්‍රී ලංකාව	பொட்டுவிலே சாலை கொழும்பு - மட்டக்களப்பு எச்வி, மொனராகலை, இலங்கை
Moneragala	Monaragala	Royal College	False	False	MNRGLMNRGLRYLCLLG		Moneragala	LK-82	6.787517	81.303744	Monaragala	PS-820121	6.869866	81.348106	6.86108	81.33918	V86Q+CMM, Monaragala, Sri Lanka	1.388052		මොණරාගල	මොනරාගල	රාජකීය විද්‍යාලය	மொனராகலை	மொனராகலை	ராயல் கல்லூரி	V86Q+CMM, මොනරාගල, ශ්‍රී ලංකාව	V86Q+CMM, மொனராகலை, இலங்கை
Moneragala	Monaragala	Weliyaya Pirivena	False	False	MNRGLMNRGLWLYYPRVN		Moneragala	LK-82	6.787517	81.303744	Monaragala	PS-820121	6.869866	81.348106	6.907098	81.341043	W84R+RCM, Monaragala, Sri Lanka	4.214114		මොණරාගල	මොනරාගල	වැලිය පිරිවෙන	மொனராகலை	மொனராகலை	வெலியாய பிரிவேனா	ඩබ්ලිව් 84 ආර්+ආර්සීඑම්, මොනරාගල, ශ්‍රී ලංකාව	W84R+RCM, மொனராகலை, இலங்கை
Moneragala	Monaragala	Monaragala Community Hall	False	False	MNRGLMNRGLMNRGLCMMNTYHLL		Moneragala	LK-82	6.787517	81.303744	Monaragala	PS-820121	6.869866	81.348106	6.872778	81.350683	Moneragala, Sri Lanka	0.431159		මොණරාගල	මොනරාගල	මොනරාගල ප්‍රජා ශාලාව	மொனராகலை	மொனராகலை	மொனராகலை சமூக மண்டபம்	මොනරාගල, ශ්‍රී ලංකාව	மொனராகலை, இலங்கை
Moneragala	Siyambalanduwa	03 Piyawara Maha Vidyalaya	False	False	MNRGLSYMBLNDWPYWRMHVDYLY		Moneragala	LK-82	6.787517	81.303744	Siyambalanduwa	PS-820122	6.906851	81.547598	6.906464	81.561014	Siyambalanduwa, Sri Lanka	1.482056		මොණරාගල	සියඹලාණ්ඩුව	03 පියවර මහා විද්‍යාලය	மொனராகலை	சியம்பலாண்டுவா	03 பியாரா மகா வித்தியாலயம்	සියඹලාණ්ඩුව, ශ්‍රී ලංකාව	சியம்பலாண்டுவா, இலங்கை
Moneragala	Siyambalanduwa	Siyambalanduwa Maha Vidyalaya	False	False	MNRGLSYMBLNDWSYMBLNDWMHVDYLY		Moneragala	LK-82	6.787517	81.303744	Siyambalanduwa	PS-820122	6.906851	81.547598	6.906464	81.561014	Siyambalanduwa, Sri Lanka	1.482056		මොණරාගල	සියඹලාණ්ඩුව	සියඹලාණ්ඩුව මහා විද්‍යාලය	மொனராகலை	சியம்பலாண்டுவா	சியம்பலாண்டுவா மகா வித்தியாலயம்	සියඹලාණ්ඩුව, ශ්‍රී ලංකාව	சியம்பலாண்டுவா, இலங்கை
Moneragala	Badalkumbura	Nishsanka National College	False	False	MNRGLBDLKMBRNSHSNKNTNLCLLG		Moneragala	LK-82	6.787517	81.303744	Badalkumbura	PS-820128	6.889017	81.235441	6.892079	81.237627	Mo/ Nissanka National School, Buttala Rd, Badalkumbura, Sri Lanka	0.417455		මොණරාගල	බඩල්කුඹුර	නිශ්ශංක ජාතික විද්‍යාලය	மொனராகலை	படல்கும்புரா	நிஷ்சங்க தேசிய கல்லூரி	මා/ නිශ්ශංක ජාතික පාසල, බුත්තල පාර, බඩල්කුඹුර, ශ්‍රී ලංකාව	மோ/ நிசங்க தேசிய பள்ளி, புத்தலா சாலை, படல்கும்புரா, இலங்கை
Moneragala	Badalkumbura	Madukotan Arawa Maha Vidyalaya	False	False	MNRGLBDLKMBRMDKTNRWMHVDYLY		Moneragala	LK-82	6.787517	81.303744	Badalkumbura	PS-820128	6.889017	81.235441	6.890448	81.262146	Passara-Moneragala Hwy, Sri Lanka	2.953236		මොණරාගල	බඩල්කුඹුර	මඩුකොටන් අරාව මහා විද්‍යාලය	மொனராகலை	படல்கும்புரா	மதுகோடன் அரவா மகா வித்தியாலயம்	පස්සර-මොනරාගල හ්වි, ශ්‍රී ලංකාව	பசர-மொனராகல ஹ்வி, இலங்கை
Moneragala	Badalkumbura	Hingurukaduwa Vidyalaya	False	False	MNRGLBDLKMBRHNGRKDWVDYLY		Moneragala	LK-82	6.787517	81.303744	Badalkumbura	PS-820128	6.889017	81.235441	6.892605	81.237366	V6VP+2WX, Badalkumbura, Sri Lanka	0.452174		මොණරාගල	බඩල්කුඹුර	හිඟුරුකඩුව විද්‍යාලය	மொனராகலை	படல்கும்புரா	ஹிங்குருகடுவ வித்யாலயா	V6VP+2WX, බඩල්කුඹුර, ශ්‍රී ලංකාව	V6VP+2WX, படல்கும்புரா, இலங்கை
Moneragala	Wellawaya	Kumaradasa Vidyalaya	False	False	MNRGLWLLWYKMRDSVDYLY		Moneragala	LK-82	6.787517	81.303744	wellawaya	PS-820130	6.730804	81.100708	6.755702	81.099926	Q34X+7XM, මොණරාගල, Sri Lanka	2.770747		මොණරාගල	වැල්ලවාය	කුමාරදාස විද්‍යාලය	மொனராகலை	வெள்ளவாயா	குமாரதாச வித்யாலயா	Q34X+7XM, මොනරාගල, ශ්‍රී ලංකාව	கியூ 34 எக்ஸ்+7 எக்ஸ்எம், மோனராங்களா, இலங்கை
Moneragala	Wellawaya	Mahinda RajapakshaConference Hall	False	False	MNRGLWLLWYMHNDRJPKSHCNFRNCHLL		Moneragala	LK-82	6.787517	81.303744	wellawaya	PS-820130	6.730804	81.100708	6.732053	81.100032	A23, Wellawaya, Sri Lanka	0.157723		මොණරාගල	වැල්ලවාය	මහින්ද රාජපක්ෂ සම්මන්ත්‍රණ ශාලාව	மொனராகலை	வெள்ளவாயா	மஹிந்த ராஜபக்ஷ மாநாட்டு மண்டபம்	ඒ 23, වැල්ලවාය, ශ්‍රී ලංකාව	A23, வெள்ளவாயா, இலங்கை
Moneragala	Wellawaya	Hadapanagala Maha Vidyalaya	False	False	MNRGLWLLWYHDPNGLMHVDYLY		Moneragala	LK-82	6.787517	81.303744	wellawaya	PS-820130	6.730804	81.100708	6.657036	81.122021	Handapanagala, Sri Lanka	8.53633		මොණරාගල	වැල්ලවාය	හදපනගල මහා විද්‍යාලය	மொனராகலை	வெள்ளவாயா	ஹடபனகல மகா வித்தியாலயம்	හඳපානාගල, ශ්‍රී ලංකාව	ஹந்தபனகலா, இலங்கை
Moneragala	Wellawaya	Kinkiniwehera Viharaya	False	False	MNRGLWLLWYKNKNWHRVHRY		Moneragala	LK-82	6.787517	81.303744	wellawaya	PS-820130	6.730804	81.100708	6.75399	81.288013	B522, Sri Lanka	20.849932	#CenterFarFromPolice	මොණරාගල	වැල්ලවාය	කිංකිනිවෙහෙර විහාරය	மொனராகலை	வெள்ளவாயா	கிங்கினிவெஹெரா விஹாராயா	බී 522, ශ්‍රී ලංකාව	B522, இலங்கை
Moneragala	Bibila	Bibila Cultural Centre	False	False	MNRGLBBLBBLCLTRLCNTR		Moneragala	LK-82	6.787517	81.303744	Bibila	PS-820125	7.165232	81.225463	7.162409	81.22159	Bibile, Sri Lanka	0.530371		මොණරාගල	බිබිල	බිබිල සංස්කෘතික මධ්‍යස්ථානය	மொனராகலை	பிபிலா	பிபிலா கலாச்சார மையம்	බිබිලේ, ශ්‍රී ලංකාව	பிபிலே, இலங்கை
Moneragala	Medagama	Bakinigahwela Muslim Maha Vidyalaya	False	False	MNRGLMDGMBKNGHWLMSLMMHVDYLY		Moneragala	LK-82	6.787517	81.303744	Medagama	PS-820126	7.033608	81.276708	7.031205	81.276445	Moneragala Road,Medagama, B56, Monaragala 91550, Sri Lanka	0.268858		මොණරාගල	මැදගම	බකිණිගහවෙල මුස්ලිම් මහා විද්‍යාලය	மொனராகலை	மேடகம	பகினிகஹ்வேலா முஸ்லிம் மகா வித்தியாலயம்	මොනරාගල පාර, මැදගම, බී 56, මොනරාගල 91550, ශ්‍රී ලංකාව	மொனராகல சாலை, மேடகம, பி 56, மொனராகலை 91550, இலங்கை
Moneragala	Medagama	Kendavinna Maha Vidyalaya	False	False	MNRGLMDGMKNDVNNMHVDYLY		Moneragala	LK-82	6.787517	81.303744	Medagama	PS-820126	7.033608	81.276708	7.031205	81.276445	Moneragala Road,Medagama, B56, Monaragala 91550, Sri Lanka	0.268858		මොණරාගල	මැදගම	කෙන්දවින්න මහා විද්‍යාලය	மொனராகலை	மேடகம	கெண்டவின்ன மகா வித்தியாலயம்	මොනරාගල පාර, මැදගම, බී 56, මොනරාගල 91550, ශ්‍රී ලංකාව	மொனராகல சாலை, மேடகம, பி 56, மொனராகலை 91550, இலங்கை
Moneragala	Medagama	Amunekandura Maha Vidyalaya	False	False	MNRGLMDGMMNKNDRMHVDYLY		Moneragala	LK-82	6.787517	81.303744	Medagama	PS-820126	7.033608	81.276708	7.031205	81.276445	Moneragala Road,Medagama, B56, Monaragala 91550, Sri Lanka	0.268858		මොණරාගල	මැදගම	අමුණුකඳුර මහා විද්‍යාලය	மொனராகலை	மேடகம	அமுனேகாந்துரா மகா வித்தியாலயம்	මොනරාගල පාර, මැදගම, බී 56, මොනරාගල 91550, ශ්‍රී ලංකාව	மொனராகல சாலை, மேடகம, பி 56, மொனராகலை 91550, இலங்கை
Moneragala	Medagama	Pubbara Primary School	False	False	MNRGLMDGMPBBRPRMRYSCHL		Moneragala	LK-82	6.787517	81.303744	Medagama	PS-820126	7.033608	81.276708	6.977969	81.316933	X8H8+5QM, Bakinigahawela, Sri Lanka	7.617155		මොණරාගල	මැදගම	පුබ්බාරා ප්‍රාථමික පාසල	மொனராகலை	மேடகம	புப்பாரா ஆரம்பப் பள்ளி	X8H8+5QM, බකිණිගහවෙල, ශ්‍රී ලංකාව	X8H8+5QM, பகினிகஹவெல, இலங்கை
Moneragala	Medagama	Medagama National College	False	False	MNRGLMDGMMDGMNTNLCLLG		Moneragala	LK-82	6.787517	81.303744	Medagama	PS-820126	7.033608	81.276708	7.031205	81.276445	Moneragala Road,Medagama, B56, Monaragala 91550, Sri Lanka	0.268858		මොණරාගල	මැදගම	මැදගම ජාතික විද්‍යාලය	மொனராகலை	மேடகம	மெடகம தேசிய கல்லூரி	මොනරාගල පාර, මැදගම, බී 56, මොනරාගල 91550, ශ්‍රී ලංකාව	மொனராகல சாலை, மேடகம, பி 56, மொனராகலை 91550, இலங்கை
Moneragala	Medagama	Bakinigahwela Sinhala Maha Vidyalaya	False	False	MNRGLMDGMBKNGHWLSNHLMHVDYLY		Moneragala	LK-82	6.787517	81.303744	Medagama	PS-820126	7.033608	81.276708	6.996628	81.284772	X7WM+MW2, Monaragala, Sri Lanka	4.208515		මොණරාගල	මැදගම	බකිණිගහවෙල සිංහල මහා විද්‍යාලය	மொனராகலை	மேடகம	பகினிகஹ்வேல சிங்கள மகா வித்தியாலயம்	X7WM+MW2, මොනරාගල, ශ්‍රී ලංකාව	X7WM+MW2, மொனராகலை, இலங்கை
Moneragala	Buttala	Colony Primary School	False	False	MNRGLBTTLCLNYPRMRYSCHL		Moneragala	LK-82	6.787517	81.303744	Buttala	PS-820127	6.762499	81.250445	6.761476	81.247194	Q66W+HVW, Buttala, Sri Lanka	0.37669		මොණරාගල	බුත්තල	ජනපද ප්‍රාථමික විද්‍යාලය	மொனராகலை	புத்தலா	காலனி தொடக்கப்பள்ளி	Q66W+HVW, බුත්තල, ශ්‍රී ලංකාව	Q66W+HVW, புத்தலா, இலங்கை
Moneragala	Buttala	Maligawila Viharaya	False	False	MNRGLBTTLMLGWLVHRY		Moneragala	LK-82	6.787517	81.303744	Buttala	PS-820127	6.762499	81.250445	6.728384	81.352364	P9H2+9W5, Okkampitiya, Sri Lanka	11.880265		මොණරාගල	බුත්තල	මාලිගවිල විහාරය	மொனராகலை	புத்தலா	மாளிகவில விஹாராயா	P9H2+9W5, ඔක්කම්පිටිය, ශ්‍රී ලංකාව	P9H2+9W5, ஒக்கம்பிட்டிய, இலங்கை
Moneragala	Buttala	Galtemmandiya Primary School	False	False	MNRGLBTTLGLTMMNDYPRMRYSCHL		Moneragala	LK-82	6.787517	81.303744	Buttala	PS-820127	6.762499	81.250445	6.746287	81.329153	Galtemmandiya,Okkampitiya, 91060, Sri Lanka	8.878958		මොණරාගල	බුත්තල	ගල්තෙමණ්ඩිය ප්‍රාථමික විද්‍යාලය	மொனராகலை	புத்தலா	கல்தெமண்டியா ஆரம்பப் பள்ளி	ගල්තෙමණ්ඩිය, ඔක්කම්පිටිය, 91060, ශ්‍රී ලංකාව	கல்தெமண்டியா, ஒக்கம்பிட்டிய, 91060, இலங்கை
Moneragala	Buttala	Divisional Hospital – Buttala	False	False	MNRGLBTTLDVSNLHSPTLBTTL		Moneragala	LK-82	6.787517	81.303744	Buttala	PS-820127	6.762499	81.250445	6.75781	81.239724	Colombo - Batticaloa Hwy, Buttala, Sri Lanka	1.293971		මොණරාගල	බුත්තල	ප්‍රාදේශීය රෝහල - බුත්තල	மொனராகலை	புத்தலா	பிரதேச மருத்துவமனை - புத்தலை	කොළඹ - මඩකලපුව හ්වි, බුත්තල, ශ්‍රී ලංකාව	கொழும்பு - மட்டக்களப்பு Hwy, புத்தலா, இலங்கை
Galle	Galle	River View Hotel	False	False	GLLGLLRVRVWHTL		Galle	LK-31	6.222805	80.251977	Galle	PS-310120	6.032983	80.21714	6.072891	80.17869	220, Kurunduwatta, Gintota, Galle 80280, Sri Lanka	6.147511		ගාල්ල	ගාල්ල	රිවර් වීව් හෝටලය	காலி	காலி	ரிவர் வியூ ஹோட்டல்	220, කුරුඳුවත්ත, ගිංතොට, ගාල්ල 80280, ශ්‍රී ලංකාව	220, குருந்துவத்த, கிந்தோட்டா, காலி 80280, இலங்கை
Galle	Habaraduwa	Katukurunda Dharmika Maha Vidyalaya	False	False	GLLHBRDWKTKRNDDHRMKMHVDYLY		Galle	LK-31	6.222805	80.251977	Habaraduwa	PS-310127	5.9871	80.327098	6.002705	80.309994	Habaraduwa, Sri Lanka	2.567631		ගාල්ල	හබරාදුව	කටුකුරුන්ද ධාර්මික මහා විද්‍යාලය	காலி	ஹபராடுவா	கட்டுக்குருந்த தர்மிகா மகா வித்தியாலயம்	හබරාදූව, ශ්‍රී ලංකාව	ஹபரதுவா, இலங்கை
Galle	Nagoda	Yatalamaththa Sumangalarama Viharaya	False	False	GLLNGDYTLMTHTHSMNGLRMVHRY		Galle	LK-31	6.222805	80.251977	Nagoda	PS-310130	6.197616	80.274707	6.173733	80.286486	Yatalamatta, Sri Lanka	2.958654		ගාල්ල	නාගොඩ	යටලමත්ත සුමංගලාරාම විහාරය	காலி	நாகோடா	யதலமத்த சுமங்கலராம விகாரய	යටලමත්ත, ශ්‍රී ලංකාව	யதலமட்டா, இலங்கை
Galle	Uragasmanhandiya	Hamburugala Primary School	False	False	GLLRGSMNHNDYHMBRGLPRMRYSCHL		Galle	LK-31	6.222805	80.251977	Uragasmanhandiya	PS-310236	6.343756	80.080679	6.327462	80.083131	83GM+X7J, Uragasmanhandiya, Sri Lanka	1.832538		ගාල්ල	Raරගස්මංහන්දිය	හඹුරුගල ප්‍රාථමික විද්‍යාලය	காலி	உரகஸ்மன்ஹந்தியா	ஹம்புருகலா ஆரம்பப் பள்ளி	83GM+X7J, raරගස්මංහන්දිය, ශ්‍රී ලංකාව	83GM+X7J, உரகஸ்மன்ஹந்தியா, இலங்கை
Galle	Batapola	Nindana Maha Vidyalaya	False	False	GLLBTPLNNDNMHVDYLY		Galle	LK-31	6.222805	80.251977									#PoliceLocationUnknown	ගාල්ල	බටපොල	නින්දන මහා විද්‍යාලය	காலி	படபொல	நிந்தனா மகா வித்தியாலயம்		
Galle	Karandeniya	Karandeniya Samaravima Ground	False	False	GLLKRNDNYKRNDNYSMRVMGRND		Galle	LK-31	6.222805	80.251977	Karandeniya	PS-310238	6.271732	80.08479	6.271531	80.093801	73CV+JG7, Karandeniya, Sri Lanka	0.996544		ගාල්ල	කරන්දෙණිය	කරන්දෙණිය සමරවිම පිටිය	காலி	கரந்தெனியா	கரந்தெனிய சமரவிமா மைதானம்	73 සීවී+ජේජී 7, කරන්දෙණිය, ශ්‍රී ලංකාව	73CV+JG7, கரந்தெனியா, இலங்கை
Galle	Yakkalamulla	Yakkalamulla	False	False	GLLYKKLMLLYKKLMLL		Galle	LK-31	6.222805	80.251977	Yakkalamulla	PS-310125	6.106186	80.348152	6.10135	80.3591	Yakkalamulla, Sri Lanka	1.324945		ගාල්ල	යක්කලමුල්ල	යක්කලමුල්ල	காலி	யக்கலாமுல்லா	யக்கலாமுல்லா	යක්කලමුල්ල, ශ්‍රී ලංකාව	யக்கலமுல்லா, இலங்கை
Galle	Gonapeenuwala	MOH Office - Gonapeenuwala	False	False	GLLGNPNWLMHFFCGNPNWL		Galle	LK-31	6.222805	80.251977									#PoliceLocationUnknown	ගාල්ල	ගෝනපීනුවල	MOH කාර්යාලය - ගෝනපීනුවල	காலி	கோணபீனுவல	MOH அலுவலகம் - கோணபீனுவல		
Galle	Hikkaduwa	Hikkaduwa Jayanthi vidyalaya	False	False	GLLHKKDWHKKDWJYNTHVDYLY		Galle	LK-31	6.222805	80.251977	Hikkaduwa	PS-310122	6.145115	80.099693	6.139012	80.112446	Hikkaduwa - Baddegama Rd, Hikkaduwa, Sri Lanka	1.565236		ගාල්ල	හික්කඩුව	හික්කඩුව ජයන්ති විද්‍යාලය	காலி	ஹிக்கடுவா	ஹிக்கடுவா ஜெயந்தி வித்யாலயா	හික්කඩුව - බද්දේගම පාර, හික්කඩුව, ශ්‍රී ලංකාව	ஹிக்கடுவா - பத்தேகம வீதி, ஹிக்கடுவா, இலங்கை
Galle	Akmeemana	Ketandola Mahindarama Viharaya	False	False	GLLKMMNKTNDLMHNDRMVHRY		Galle	LK-31	6.222805	80.251977	Akmeemana	PS-310123	6.073453	80.276627	6.027007	80.215356	Parawa St, Galle 80000, Sri Lanka	8.52173		ගාල්ල	අක්මීමන	කැටන්දොල මහින්දාරාම විහාරය	காலி	அக்மீமானா	கேடந்தோலா மஹிந்தராம விஹாராயா	පරාව ශාන්ත, ගාල්ල 80000, ශ්‍රී ලංකාව	பரவா செயின்ட், காலி 80000, இலங்கை
Galle	Akmeemana	Kandurugahena Vidyalaya	False	False	GLLKMMNKNDRGHNVDYLY		Galle	LK-31	6.222805	80.251977	Akmeemana	PS-310123	6.073453	80.276627	6.08641	80.242064	Ganegoda,Akmeemana., Wanduramba - Mapalagama Rd, 80090, Sri Lanka	4.085458		ගාල්ල	අක්මීමන	කඳුරුහේන විද්‍යාලය	காலி	அக்மீமானா	கந்துருகஹேனா வித்தியாலயம்	ගනේගොඩ, අක්මීමන., වඳුරඹ - මාපලගම පාර, 80090, ශ්‍රී ලංකාව	கணேகொட, அக்மீமானா., வண்டுரம்பா - மாபலகம வீதி, 80090, இலங்கை
Matara	Akuressa	Godapitiya Sadath Vidyalaya	False	False	MTRKRSSGDPTYSDTHVDYLY		Matara	LK-32	6.142734	80.539994	Akuressa	PS-320112	6.099044	80.4776	6.122979	80.483403	4FFM+59R, Akuressa, Sri Lanka	2.738553		මාතර	අකුරැස්ස	ගොඩපිටිය සදාත් විද්‍යාලය	மாத்தறை	அக்குரஸ்ஸா	கோடாபிட்டிய சாதத் வித்யாலயா	4FFM+59 ආර්, අකුරැස්ස, ශ්‍රී ලංකාව	4FFM+59R, அக்குரஸ்ஸா, இலங்கை
Matara	Malimbada	Sumeda Maha Vidyalaya	False	False	MTRMLMBDSMDMHVDYLY		Matara	LK-32	6.142734	80.539994	Malimbada	PS-320117	6.010503	80.517438	6.00944	80.51813	Malimbada, Matara 81000, Sri Lanka	0.140853		මාතර	මාලිම්බඩ	සුමේධා මහා විද්‍යාලය	மாத்தறை	மாலிம்படா	சுமேதா மகா வித்யாலயா	මාලිම්බඩ, මාතර 81000, ශ්‍රී ලංකාව	மாலிம்படா, மாத்தாரா 81000, இலங்கை
Matara	Hakmana	Bodhirukkarama Vidyalaya	False	False	MTRHKMNBDHRKKRMVDYLY		Matara	LK-32	6.142734	80.539994	Hakmana	PS-320106	6.084824	80.643227	6.155168	80.492691	5F4V+338, Matara, Sri Lanka	18.395612		මාතර	හක්මන	බෝධිරුක්ඛාරාම විද්‍යාලය	மாத்தறை	ஹக்மனா	போதிருக்கராம வித்யாலயா	5F4V+338, මාතර, ශ්‍රී ලංකාව	5F4V+338, மாத்தறை, இலங்கை
Matara	Dickwella	Divisional Secretariat -  Dickwella	False	False	MTRDCKWLLDVSNLSCRTRTDCKWLL		Matara	LK-32	6.142734	80.539994	Dikwella	PS-320103	5.964296	80.693198	5.964398	80.689583	Tnagalle Road, Batigama, Sri Lanka	0.40008		මාතර	දික්වැල්ල	ප්‍රාදේශීය ලේකම් කාර්යාලය - දික්වැල්ල	மாத்தறை	டிக்வெல்லா	பிரதேச செயலகம் - டிக்வெல்ல	තනගල්ල පාර, බතිගම, ශ්‍රී ලංකාව	தனகல்லே சாலை, படிகாமா, இலங்கை
Matara	Urubokka	Ginnaliya Maha Vidyalaya	False	False	MTRRBKKGNNLYMHVDYLY		Matara	LK-32	6.142734	80.539994	Urubokka	PS-320108	6.310257	80.629013	6.321623	80.649867	8JCX+JWX, Matara, Sri Lanka	2.629385		මාතර	Ruරුබොක්ක	ගින්නලිය මහා විද්‍යාලය	மாத்தறை	உரூபோக்கா	கின்னலியா மகா வித்தியாலயம்	8JCX+JWX, මාතර, ශ්‍රී ලංකාව	8JCX+JWX, மாத்தறை, இலங்கை
Hambantota	Ambalantota	Malpeththawa Maha Vidyalaya	False	False	HMBNTTMBLNTTMLPTHTHWMHVDYLY		Hambantota	LK-33	6.259779	81.098619	Ambalantota	PS-330157	6.12516	81.023981	6.121096	81.008692	42C5+CFP, Ambalantota, Sri Lanka	1.750272		හම්බන්තොට	අම්බලන්තොට	මල්පෙත්තාව මහා විද්‍යාලය	அம்பாந்தோட்டை	அம்பலாந்தோட்டை	மால்பெத்தவா மகா வித்தியாலயம்	42C5+CFP, අම්බලන්තොට, ශ්‍රී ලංකාව	42C5+CFP, அம்பலாந்தோட்டை, இலங்கை
Hambantota	Walasmulla	Warapitiya Siththmgala Viharaya	False	False	HMBNTTWLSMLLWRPTYSTHTHMGLVHRY		Hambantota	LK-33	6.259779	81.098619	Walasmulla	PS-330151	6.154102	80.698256	6.221987	80.636854	Warapitiya, Sri Lanka	10.154725		හම්බන්තොට	වලස්මුල්ල	වරාපිටිය සිත්තම්ගල විහාරය	அம்பாந்தோட்டை	வலஸ்முல்லா	வாராபிட்டிய சித்ம்கல விஹாராயா	වරාපිටිය, ශ්‍රී ලංකාව	வாராபிட்டிய, இலங்கை
Hambantota	Beliatta	MOH Office - Beliatta	False	False	HMBNTTBLTTMHFFCBLTT		Hambantota	LK-33	6.259779	81.098619	Beliatta	PS-330152	6.046936	80.735408	6.051828	80.741735	3P2R+PMQ, Hambantota, Sri Lanka	0.886482		හම්බන්තොට	බෙලිඅත්ත	MOH කාර්යාලය - බෙලිඅත්ත	அம்பாந்தோட்டை	பெலியாட்டா	MOH அலுவலகம் - பெலியாட்ட	3P2R+PMQ, හම්බන්තොට, ශ්‍රී ලංකාව	3P2R+PMQ, ஹம்பாந்தோட்டை, இலங்கை
Hambantota	Tangalla	Town Hall - Tangalla	False	False	HMBNTTTNGLLTWNHLLTNGLL		Hambantota	LK-33	6.259779	81.098619	Tangalle	PS-330147	6.023954	80.797255	6.026547	80.795587	Matara Rd, Tangalle, Sri Lanka	0.342386		හම්බන්තොට	තංගල්ල	නගර ශාලාව - තංගල්ල	அம்பாந்தோட்டை	தங்கல்லா	டவுன் ஹால் - தங்கல்ல	මාතර පාර, තංගල්ල, ශ්‍රී ලංකාව	மாத்தறை வீதி, தங்காலை, இலங்கை
Hambantota	Hungama	MOH Office - Hungama	False	False	HMBNTTHNGMMHFFCHNGM		Hambantota	LK-33	6.259779	81.098619	Hungama	PS-330148	6.111262	80.932642	6.081379	80.641425	3JJR+HH3, Hakmana, Sri Lanka	32.379888	#CenterFarFromPolice	හම්බන්තොට	හුංගම	MOH කාර්යාලය - හුංගම	அம்பாந்தோட்டை	ஹங்காமா	MOH அலுவலகம் - ஹங்காமா	3JJR+HH3, හක්මන, ශ්‍රී ලංකාව	3JJR+HH3, ஹக்மனா, இலங்கை
Hambantota	Katuwana	MOH Office - Katuwana	False	False	HMBNTTKTWNMHFFCKTWN		Hambantota	LK-33	6.259779	81.098619	Katuwana	PS-330153	6.269722	80.690963	6.26627	80.693035	7M8V+G63, Katuwana, Sri Lanka	0.447115		හම්බන්තොට	කටුවන	MOH කාර්යාලය - කටුවන	அம்பாந்தோட்டை	கட்டுவானா	MOH அலுவலகம் - கட்டுவானா	7 එම් 8 වී+ජී 63, කටුවන, ශ්‍රී ලංකාව	7M8V+G63, கட்டுவானா, இலங்கை
Hambantota	Angunukolapelessa	Mahanaga National College	False	False	HMBNTTNGNKLPLSSMHNGNTNLCLLG		Hambantota	LK-33	6.259779	81.098619	Angunakolapelessa	PS-330150	6.321993	80.844883	6.164902	80.895901	5V7W+X96, Agunukolapelessa, Sri Lanka	18.361223		හම්බන්තොට	අඟුණුකොළපැලැස්ස	මහානාග ජාතික විද්‍යාලය	அம்பாந்தோட்டை	அங்குனுகோலபெலெஸ்ஸா	மகாநாகா தேசிய கல்லூரி	5V7W+X96, අගුණුකොලපැලැස්ස, ශ්‍රී ලංකාව	5V7W+X96, அகுனுகோலபெலஸ்ஸா, இலங்கை
Hambantota	Angunukolapelessa	MOH Office - Angunukolapelessa	False	False	HMBNTTNGNKLPLSSMHFFCNGNKLPLSS		Hambantota	LK-33	6.259779	81.098619	Angunakolapelessa	PS-330150	6.321993	80.844883	6.164691	80.898963	Unnamed Road, Agunukolapelessa, Sri Lanka	18.490258		හම්බන්තොට	අඟුණුකොළපැලැස්ස	MOH කාර්යාලය - අඟුණුකොලපැලැස්ස	அம்பாந்தோட்டை	அங்குனுகோலபெலெஸ்ஸா	MOH அலுவலகம் - அங்குனுகோலபெலஸ்ஸா	නම් නොකළ පාර, අගුණුකොලපැලැස්ස, ශ්‍රී ලංකාව	பெயரிடப்படாத சாலை, அகுனுகோலபெலஸ்ஸா, இலங்கை
Rathnapura	Opanayaka	Galkanda Vidyalaya	False	False	RTHNPRPNYKGLKNDVDYLY		Ratnapura	LK-91	6.586826	80.566158	Opanayaka	PS-910104	6.608519	80.619285	6.611693	80.591317	JH6R+MGG, රත්නපුර, Sri Lanka	3.110298		රත්නපුර	ඕපනායක	ගල්කන්ද විද්‍යාලය	இரத்தினபுரி	ஓபநாயக்கா	கல்கந்தா வித்தியாலயம்	JH6R+MGG, රත්නපුර, ශ්‍රී ලංකාව	JH6R+MGG, ரத்னபுரம், இலங்கை
Rathnapura	Opanayaka	Batadura Vidyalaya	False	False	RTHNPRPNYKBTDRVDYLY		Ratnapura	LK-91	6.586826	80.566158	Opanayaka	PS-910104	6.608519	80.619285	6.564489	80.646658	Unnamed Road, Sri Lanka	5.756145		රත්නපුර	ඕපනායක	බටදුර විද්‍යාලය	இரத்தினபுரி	ஓபநாயக்கா	படாதுரா வித்யாலயா	නම් නොකළ පාර, ශ්‍රී ලංකාව	பெயரிடப்படாத சாலை, இலங்கை
Rathnapura	Opanayaka	Haththella Vidyalaya	False	False	RTHNPRPNYKHTHTHLLVDYLY		Ratnapura	LK-91	6.586826	80.566158	Opanayaka	PS-910104	6.608519	80.619285	6.580578	80.632245	opanayaka haththella, Sri Lanka	3.421961		රත්නපුර	ඕපනායක	හත්තැල්ල විද්‍යාලය	இரத்தினபுரி	ஓபநாயக்கா	ஹத்தெல்லா வித்தியாலயம்	ඕපානායක හතැල්ල, ශ්‍රී ලංකාව	ஓபநாயக்க ஹத்தெல்லா, இலங்கை
Rathnapura	Opanayaka	Narissa Vidyalaya	False	False	RTHNPRPNYKNRSSVDYLY		Ratnapura	LK-91	6.586826	80.566158	Opanayaka	PS-910104	6.608519	80.619285	6.695088	80.382654	M9WM+23J, Ratnapura, Sri Lanka	27.860151	#CenterFarFromPolice	රත්නපුර	ඕපනායක	නරිස්ස විද්‍යාලය	இரத்தினபுரி	ஓபநாயக்கா	நரிஸ்ஸா வித்யாலயா	M9WM+23J, රත්නපුර, ශ්‍රී ලංකාව	M9WM+23J, இரத்தினபுரா, இலங்கை
Rathnapura	Pinnawala	MOH Office - Pinnawala	False	False	RTHNPRPNNWLMHFFCPNNWL		Ratnapura	LK-91	6.586826	80.566158	Pinnawala	PS-910115	7.299943	80.386604	7.297707	80.386872	B199, Rambukkana, Sri Lanka	0.250461		රත්නපුර	පින්නවල	MOH කාර්යාලය - පින්නවල	இரத்தினபுரி	பின்னாவாலா	MOH அலுவலகம் - பின்னவாலா	බී 199, රඹුක්කන, ශ්‍රී ලංකාව	B199, ரம்புக்கானா, இலங்கை
Rathnapura	Balangoda	Balangoda Central College	False	False	RTHNPRBLNGDBLNGDCNTRLCLLG		Ratnapura	LK-91	6.586826	80.566158	Balangoda	PS-910103	6.649474	80.700276	6.641498	80.714138	JPR7+HMR, Balangoda, Sri Lanka	1.769912		රත්නපුර	බලන්ගොඩ	බලංගොඩ මධ්‍ය මහා විද්‍යාලය	இரத்தினபுரி	பலாங்கொடை	பலாங்கொட மத்திய கல்லூரி	JPR7+HMR, බලංගොඩ, ශ්‍රී ලංකාව	JPR7+HMR, பலாங்கோடா, இலங்கை
Rathnapura	Balangoda	Balangoda Budda Jayanthi Vidyalaya	False	False	RTHNPRBLNGDBLNGDBDDJYNTHVDYLY		Ratnapura	LK-91	6.586826	80.566158	Balangoda	PS-910103	6.649474	80.700276	6.655127	80.700689	MP42+374, Balangoda, Sri Lanka	0.630436		රත්නපුර	බලන්ගොඩ	බලංගොඩ බුද්ධ ජයන්ති විද්‍යාලය	இரத்தினபுரி	பலாங்கொடை	பலாங்கொட புத்த ஜெயந்தி வித்யாலயா	MP42+374, බලංගොඩ, ශ්‍රී ලංකාව	MP42+374, பலாங்கோடா, இலங்கை
Rathnapura	Balangoda	Kanaganayagam Tamil College	False	False	RTHNPRBLNGDKNGNYGMTMLCLLG		Ratnapura	LK-91	6.586826	80.566158	Balangoda	PS-910103	6.649474	80.700276	6.662512	80.693789	Puwakgahamulla Rd, Bulathgama, Sri Lanka	1.61764		රත්නපුර	බලන්ගොඩ	කනගනායගම් දෙමළ විද්‍යාලය	இரத்தினபுரி	பலாங்கொடை	கனகநாயகம் தமிழ் கல்லூரி	පුවක්ගහමුල්ල පාර, බුලත්ගම, ශ්‍රී ලංකාව	புவகஹமுல்லா சாலை, புலத்கம, இலங்கை
Rathnapura	Kuruwita	Eknaligoda Vidyalaya	False	False	RTHNPRKRWTKNLGDVDYLY		Ratnapura	LK-91	6.586826	80.566158	Kuruwita	PS-910112	6.778839	80.364712	6.778372	80.377222	Kuruwita Erathna Rd, Kuruwita, Sri Lanka	1.382734		රත්නපුර	කුරුවිට	එක්නැලිගොඩ විද්‍යාලය	இரத்தினபுரி	குருவிடா	எக்னலிகொட வித்யாலயா	කුරුවිට එරත්න පාර, කුරුවිට, ශ්‍රී ලංකාව	குருவிட எரத்னா சாலை, குருவிட, இலங்கை
Rathnapura	Eheliyagoda	Iddamalgoda Vidyalaya	False	False	RTHNPRHLYGDDDMLGDVDYLY		Ratnapura	LK-91	6.586826	80.566158	Ehaliyagoda	PS-910113	6.854603	80.260446	6.878474	80.230444	Iddamalgoda Rd, 70620, Sri Lanka	4.245831		රත්නපුර	ඇහැලියගොඩ	ඉද්දමල්ගොඩ විද්‍යාලය	இரத்தினபுரி	எஹெலியகொட	இடமல்கொட வித்தியாலயம்	ඉද්දමල්ගොඩ පාර, 70620, ශ්‍රී ලංකාව	இடமல்கொட வீதி, 70620, இலங்கை
Rathnapura	Embilipitiya	Moraketiya Maha Vidyalaya	False	False	RTHNPRMBLPTYMRKTYMHVDYLY		Ratnapura	LK-91	6.586826	80.566158	Embilipitiya	PS-910237	6.321993	80.844883	6.340635	80.880629	8VRJ+772, Embilipitiya, Sri Lanka	4.462745		රත්නපුර	ඇඹිලිපිටිය	මොරකැටිය මහා විද්‍යාලය	இரத்தினபுரி	எம்பிலிப்பிட்டிய	மொரகெட்டிய மகா வித்தியாலயம்	8VRJ+772, ඇඹිලිපිටිය, ශ්‍රී ලංකාව	8VRJ+772, எம்பிலிப்பிட்டிய, இலங்கை
Rathnapura	Embilipitiya	Modarawana Maha Vidyalaya	False	False	RTHNPRMBLPTYMDRWNMHVDYLY		Ratnapura	LK-91	6.586826	80.566158	Embilipitiya	PS-910237	6.321993	80.844883	6.337086	80.845788	8RPW+R8M, Embilipitiya, Sri Lanka	1.681771		රත්නපුර	ඇඹිලිපිටිය	මෝදරවාන මහා විද්‍යාලය	இரத்தினபுரி	எம்பிலிப்பிட்டிய	மோதரவன மகா வித்தியாலயம்	8RPW+R8M, ඇඹිලිපිටිය, ශ්‍රී ලංකාව	8RPW+R8M, எம்பிலிப்பிட்டிய, இலங்கை
Rathnapura	Embilipitiya	Vijayaba Model College	False	False	RTHNPRMBLPTYVJYBMDLCLLG		Ratnapura	LK-91	6.586826	80.566158	Embilipitiya	PS-910237	6.321993	80.844883	6.326441	80.850977	Middeniya Road, ඇඹිලිපිටිය, Sri Lanka	0.83586		රත්නපුර	ඇඹිලිපිටිය	විජයබා ආදර්ශ විද්‍යාලය	இரத்தினபுரி	எம்பிலிப்பிட்டிய	விஜயபா மாதிரி கல்லூரி	මිද්දෙණිය පාර, ඇඹිලිපිටිය, ශ්‍රී ලංකාව	மித்தெனியா சாலை, ஆம்பிலிபிட்டிய, இலங்கை
Rathnapura	Udawalawa	Miriswepotha Vidyalaya	False	False	RTHNPRDWLWMRSWPTHVDYLY		Ratnapura	LK-91	6.586826	80.566158	Udawalawa	PS-910234	6.422661	80.814293	6.337086	80.845788	8RPW+R8M, Embilipitiya, Sri Lanka	10.135209		රත්නපුර	උඩවලව	මිරිස්වැපොත විද්‍යාලය	இரத்தினபுரி	உடவலவா	மிரிஸ்வேபோத வித்தியாலயம்	8RPW+R8M, ඇඹිලිපිටිය, ශ්‍රී ලංකාව	8RPW+R8M, எம்பிலிப்பிட்டிய, இலங்கை
Rathnapura	Udawalawa	Nidamgampelessa Vidyalaya	False	False	RTHNPRDWLWNDMGMPLSSVDYLY		Ratnapura	LK-91	6.586826	80.566158	Udawalawa	PS-910234	6.422661	80.814293	6.337086	80.845788	8RPW+R8M, Embilipitiya, Sri Lanka	10.135209		රත්නපුර	උඩවලව	නිදම්ගම්පැලැස්ස විද්‍යාලය	இரத்தினபுரி	உடவலவா	நித்கம்பேலெஸ்ஸா வித்யாலயா	8RPW+R8M, ඇඹිලිපිටිය, ශ්‍රී ලංකාව	8RPW+R8M, எம்பிலிப்பிட்டிய, இலங்கை
Rathnapura	Udawalawa	Gageyaya Vidyalaya	False	False	RTHNPRDWLWGGYYVDYLY		Ratnapura	LK-91	6.586826	80.566158	Udawalawa	PS-910234	6.422661	80.814293	6.682615	80.39899	Vinisuru Mw, රත්නපුර 70000, Sri Lanka	54.241657	#CenterFarFromPolice	රත්නපුර	උඩවලව	ගගේයාය විද්‍යාලය	இரத்தினபுரி	உடவலவா	Gageyaya Vidyalaya	විනිසුරු මාවත, රත්නපුර 70000, ශ්‍රී ලංකාව	வினிசுரு Mw, இரத்தினபுரம் 70000, இலங்கை
Rathnapura	Kolonna	Koppakanda Vidyalaya	False	False	RTHNPRKLNNKPPKNDVDYLY		Ratnapura	LK-91	6.586826	80.566158	Kolonna	PS-910235	6.40194	80.687615	6.345406	80.684299	Urubokka Rd,Koppakanda, Sri Lanka	6.298942		රත්නපුර	කොළොන්න	කොප්පකන්ද විද්‍යාලය	இரத்தினபுரி	கொலோன்னா	கொப்பகந்தா வித்தியாலயம்	Ruරුබොක්ක පාර, කොප්පකන්ද, ශ්‍රී ලංකාව	உருபொக்க வீதி, கொப்பகந்தா, இலங்கை
Rathnapura	Sewanagala	Sugar Factory - Sewanagala	False	False	RTHNPRSWNGLSGRFCTRYSWNGL		Ratnapura	LK-91	6.586826	80.566158	Sewanagala	PS-910239	6.360663	80.918555	6.382583	80.90543	9WM4+25M, Samanalagama, Sri Lanka	2.83719		රත්නපුර	සෙවනගල	සීනි කර්මාන්ත ශාලාව - සෙවනගල	இரத்தினபுரி	செவனகலா	சர்க்கரை ஆலை - செவனகலை	9WM4+25M, සමනලගම, ශ්‍රී ලංකාව	9WM4+25M, சமனலகம, இலங்கை
Rathnapura	Rathnapura	Karangoda Viharaya	False	False	RTHNPRRTHNPRKRNGDVHRY		Ratnapura	LK-91	6.586826	80.566158	Ratnapura	PS-910101	6.679456	80.40223	6.678994	80.374216	Karangoda, Sri Lanka	3.095271		රත්නපුර	රත්නපුර	කරන්ගොඩ විහාරය	இரத்தினபுரி	இரத்தினபுரி	கரங்கொட விஹாராயா	කරන්ගොඩ, ශ්‍රී ලංකාව	கரங்கொடை, இலங்கை
Rathnapura	Rathnapura	Karangoda Vidyalaya	False	False	RTHNPRRTHNPRKRNGDVDYLY		Ratnapura	LK-91	6.586826	80.566158	Ratnapura	PS-910101	6.679456	80.40223					#CenterLocationUnknown	රත්නපුර	රත්නපුර	කරන්ගොඩ විද්‍යාලය	இரத்தினபுரி	இரத்தினபுரி	கரங்கொடை வித்தியாலயம்		
Rathnapura	Rambukkana	MOH Office - Rambukkana	False	False	RTHNPRRMBKKNMHFFCRMBKKN		Ratnapura	LK-91	6.586826	80.566158	Rambukkana	PS-920123	7.324319	80.387808	7.327307	80.394886	89GV+WXC, Rambukkana, Sri Lanka	0.848646		රත්නපුර	රඹුක්කන	MOH කාර්යාලය - රඹුක්කන	இரத்தினபுரி	ரம்புக்கானா	MOH அலுவலகம் - ரம்புக்கானா	89GV+WXC, රඹුක්කන, ශ්‍රී ලංකාව	89GV+WXC, ரம்புக்கானா, இலங்கை
Kegalle	Bulathkohupitiya	MOH Office - Bulathkohupitiya	False	False	KGLLBLTHKHPTYMHFFCBLTHKHPTY		Kegalle	LK-92	7.104216	80.342866	Bulathkohupitiya	PS-920232	7.106684	80.3347	7.109127	80.334565	485M+MR4, Bulathkohupitiya, Sri Lanka	0.272143		කෑගල්ල	බුලත්කොහුපිටිය	MOH කාර්යාලය - බුලත්කොහුපිටිය	கேகாலை	புலத்கோஹுபிடியா	MOH அலுவலகம் - புலத்கோஹுபிட்டிய	485 එම්+එම්ආර් 4, බුලත්කොහුපිටිය, ශ්‍රී ලංකාව	485M+MR4, புலத்கோஹுபிட்டிய, இலங்கை
Anuradhapura	Anuradhapura	Anuradhapura Teaching Hospital	False	False	NRDHPRNRDHPRNRDHPRTCHNGHSPTL		Anuradhapura	LK-71	8.39199	80.512958	Anuradapura	PS-710101	8.329752	80.407265	8.324765	80.413968	Harischandra Mawatha, Anuradhapura, Sri Lanka	0.922993		අනුරාධපුර	අනුරාධපුර	අනුරාධපුර ශික්ෂණ රෝහල	அனுராதபுரம்	அனுராதபுரம்	அனுராதபுரம் போதனா மருத்துவமனை	හරිශ්චන්ද්‍ර මාවත, අනුරාධපුර, ශ්‍රී ලංකාව	ஹரிச்சந்திர மாவத்தை, அனுராதபுரம், இலங்கை
Anuradhapura	Anuradhapura	Neeraviya Devanampiyatissa Vidyalaya	False	False	NRDHPRNRDHPRNRVYDVNMPYTSSVDYLY		Anuradhapura	LK-71	8.39199	80.512958	Anuradapura	PS-710101	8.329752	80.407265	8.311352	80.403651	Anuradhapura, Sri Lanka	2.084922		අනුරාධපුර	අනුරාධපුර	නීරාවිය දේවානම්පියතිස්ස විද්‍යාලය	அனுராதபுரம்	அனுராதபுரம்	நீரவியா தேவனாம்பியாதிஸ்ஸா வித்யாலயா	අනුරාධපුර, ශ්‍රී ලංකාව	அனுராதபுரம், இலங்கை
Anuradhapura	Ealayapattuwa	Ulukkulama Viharaya	False	False	NRDHPRLYPTTWLKKLMVHRY		Anuradhapura	LK-71	8.39199	80.512958									#PoliceLocationUnknown	අනුරාධපුර	ඇලයාපත්තුව	උළුක්කුලම විහාරය	அனுராதபுரம்	எலயாபட்டுவா	உலக்குலம விஹாராயா		
Anuradhapura	Mihintale	Pahalagama Viharaya	False	False	NRDHPRMHNTLPHLGMVHRY		Anuradhapura	LK-71	8.39199	80.512958	Mihintale	PS-710104	8.360062	80.511889	8.350531	80.516783	9G28+6P7, Mihintale, Sri Lanka	1.189096		අනුරාධපුර	මිහින්තලය	පහළගම විහාරය	அனுராதபுரம்	மிஹிந்தலை	பஹலகம விஹாராயா	9 ජී 28+6 පී 7, මිහින්තලය, ශ්‍රී ලංකාව	9 ஜி 28+6 பி 7, மிஹிந்தலை, இலங்கை
Anuradhapura	Thirappane	Galkulama Dammathissa Vidyalaya	False	False	NRDHPRTHRPPNGLKLMDMMTHSSVDYLY		Anuradhapura	LK-71	8.39199	80.512958	Thirappone	PS-710106	6.907289	79.863819	8.213268	80.527191	Vocational Training Center, Pradesiya sabawa, Thirappane, Tirappane, Sri Lanka	162.639397	#CenterFarFromPolice	අනුරාධපුර	තිරප්පනේ	ගල්කුලම දම්මතිස්ස විද්‍යාලය	அனுராதபுரம்	திரப்பனே	கல்குலமா தம்மதிஸ்ஸா வித்தியாலயம்	වෘත්තීය පුහුණු මධ්‍යස්ථානය, ප්‍රාදේශිය සබාව, තිරප්පනේ, තිරප්පනේ, ශ්‍රී ලංකාව	தொழிற்பயிற்சி மையம், பிரதேச சபாவா, திரப்பனே, திறப்பனே, இலங்கை
Polonnaruwa	Polonnaruwa	Brandix Apparel Ltd	False	False	PLNNRWPLNNRWBRNDXPPRLLTD		Polonnaruwa	LK-72	7.993659	81.026061	Polonnaruwa	PS-720125	7.924307	81.036895	7.948668	81.016574	Somawathiya Rd, Polonnaruwa, Sri Lanka	3.514808		පොළොන්නරුව	පොළොන්නරුව	බ්‍රැන්ඩික්ස් ඇඟලුම් සමාගම	பொலன்னறுவை	பொலன்னறுவை	பிராண்டிக்ஸ் ஆப்பரேல் லிமிடெட்	සෝමාවතිය පාර, පොළොන්නරුව, ශ්‍රී ලංකාව	சோமாவதியா சாலை, பொலன்னறுவை, இலங்கை
Polonnaruwa	Polonnaruwa	Kanduruwela Nagara Maha Vidyalaya	False	False	PLNNRWPLNNRWKNDRWLNGRMHVDYLY		Polonnaruwa	LK-72	7.993659	81.026061	Polonnaruwa	PS-720125	7.924307	81.036895	7.927939	81.036362	W2HP+5GH, Polonnaruwa, Sri Lanka	0.408232		පොළොන්නරුව	පොළොන්නරුව	කඳුරුවෙල නගර මහා විද්‍යාලය	பொலன்னறுவை	பொலன்னறுவை	கந்துருவெல நகர மகா வித்தியாலயம்	W2HP+5GH, පොළොන්නරුව, ශ්‍රී ලංකාව	W2HP+5GH, பொலன்னறுவை, இலங்கை
Polonnaruwa	Polonnaruwa	Muslim Maha Vidyalaya	False	False	PLNNRWPLNNRWMSLMMHVDYLY		Polonnaruwa	LK-72	7.993659	81.026061	Polonnaruwa	PS-720125	7.924307	81.036895	7.927202	81.038607	Kaduruwela, පොළොන්නරු, Sri Lanka	0.37318		පොළොන්නරුව	පොළොන්නරුව	මුස්ලිම් මහා විද්‍යාලය	பொலன்னறுவை	பொலன்னறுவை	முஸ்லிம் மகா வித்தியாலயம்	කදුරුවෙල, පොළොන්නරු, ශ්‍රී ලංකාව	கடுருவெல, நிலன்னரு, இலங்கை
Polonnaruwa	Minneriya	Brandix Garment Factory	False	False	PLNNRWMNNRYBRNDXGRMNTFCTRY		Polonnaruwa	LK-72	7.993659	81.026061	Minneriya	PS-720133	8.036341	80.904489	7.948668	81.016574	Somawathiya Rd, Polonnaruwa, Sri Lanka	15.732915		පොළොන්නරුව	මින්නේරිය	බ්‍රැන්ඩික්ස් ඇඟලුම් කම්හල	பொலன்னறுவை	மின்னேரியா	பிராண்டிக்ஸ் ஆடை தொழிற்சாலை	සෝමාවතිය පාර, පොළොන්නරුව, ශ්‍රී ලංකාව	சோமாவதியா சாலை, பொலன்னறுவை, இலங்கை
Polonnaruwa	Minneriya	Civil Security Force Camp - Paluwewa	False	False	PLNNRWMNNRYCVLSCRTYFRCCMPPLWW		Polonnaruwa	LK-72	7.993659	81.026061	Minneriya	PS-720133	8.036341	80.904489	8.129143	80.196573	Paluwewa, Sri Lanka	78.639569	#CenterFarFromPolice	පොළොන්නරුව	මින්නේරිය	සිවිල් ආරක්ෂක බලකා කඳවුර - පළුවැව	பொலன்னறுவை	மின்னேரியா	சிவில் பாதுகாப்பு படை முகாம் - பலுவேவ	පළුවැව, ශ්‍රී ලංකාව	பலுவேவா, இலங்கை
Polonnaruwa	Bakamuna	Aththanakadawala Maha Vidyalaya	False	False	PLNNRWBKMNTHTHNKDWLMHVDYLY		Polonnaruwa	LK-72	7.993659	81.026061	Bakamuna	PS-720132	7.778789	80.816102	7.780602	80.818401	Bakamuna, Sri Lanka	0.323821		පොළොන්නරුව	බකමූනා	අත්තනකඩවල මහා විද්‍යාලය	பொலன்னறுவை	பக்கமுனா	அத்தனகடவல மகா வித்தியாலயம்	බකමූණ, ශ්‍රී ලංකාව	பகமுனா, இலங்கை
Polonnaruwa	Bakamuna	Bakamuna Mahasen Vidyalaya	False	False	PLNNRWBKMNBKMNMHSNVDYLY		Polonnaruwa	LK-72	7.993659	81.026061	Bakamuna	PS-720132	7.778789	80.816102	7.775622	80.819812	Dambulla - Bakamuna - Kalugahawela Road, Bakamuna, Sri Lanka	0.539688		පොළොන්නරුව	බකමූනා	බකමූණ මහසෙන් විද්‍යාලය	பொலன்னறுவை	பக்கமுனா	பக்கமுனா மஹாசென் வித்யாலயா	දඹුල්ල - බකමූණ - කළුගහවෙල පාර, බකමූණ, ශ්‍රී ලංකාව	தம்புள்ளை - பகமுனா - கலுகஹவெல சாலை, பக்கமுனா, இலங்கை
Polonnaruwa	Bakamuna	Namalwewa Maha Vidyalaya	False	False	PLNNRWBKMNNMLWWMHVDYLY		Polonnaruwa	LK-72	7.993659	81.026061	Bakamuna	PS-720132	7.778789	80.816102	7.780602	80.818401	Bakamuna, Sri Lanka	0.323821		පොළොන්නරුව	බකමූනා	නාමල්වැව මහා විද්‍යාලය	பொலன்னறுவை	பக்கமுனா	நாமல்வெவ மகா வித்தியாலயம்	බකමූණ, ශ්‍රී ලංකාව	பகமுனா, இலங்கை
Jaffna	Jaffna	St. John's College	False	False	JFFNJFFNSTJHNSCLLG		Jaffna	LK-41	9.691792	80.098594	Jaffna	PS-410209	9.659919	80.010965	9.657495	80.026568	Main Street, Chundikuli-Columbuthurai Rd, section, Sri Lanka	1.732049		යාපනය	යාපනය	ශාන්ත ජෝන් විද්‍යාලය	யாழ்	யாழ்	செயின்ட் ஜான்ஸ் கல்லூரி	ප්‍රධාන වීදිය, චුන්දිකුලි-කොළම්බුතුරේ පාර, කොටස, ශ්‍රී ලංකාව	பிரதான வீதி, சுண்டிக்குளி-கொலம்புதுறை வீதி, பிரிவு, இலங்கை
Jaffna	Jaffna	Vaithiswara Vidyalaya	False	False	JFFNJFFNVTHSWRVDYLY		Jaffna	LK-41	9.691792	80.098594	Jaffna	PS-410209	9.659919	80.010965	9.672726	80.009234	M2F5+3MX, Jaffna, Sri Lanka	1.43711		යාපනය	යාපනය	වෛතිස්වර විද්‍යාලය	யாழ்	யாழ்	வைத்தீஸ்வரா வித்யாலயா	M2F5+3MX, යාපනය, ශ්‍රී ලංකාව	M2F5+3MX, யாழ்ப்பாணம், இலங்கை
Jaffna	Jaffna	Ilankai Venthan Hall	False	False	JFFNJFFNLNKVNTHNHLL		Jaffna	LK-41	9.691792	80.098594	Jaffna	PS-410209	9.659919	80.010965	9.680239	80.013492	No: 63 College Ln, Jaffna, Sri Lanka	2.277111		යාපනය	යාපනය	ඉලංකෙයි වෙන්තාන් ශාලාව	யாழ்	யாழ்	இளங்காய் வேந்தன் மண்டபம்	අංක: 63 විද්‍යාලය, යාපනය, යාපනය, ශ්‍රී ලංකාව	எண்: 63 கல்லூரி எல்என், யாழ்ப்பாணம், இலங்கை
Jaffna	Kopay	MOH Office- Nallur	False	False	JFFNKPYMHFFCNLLR		Jaffna	LK-41	9.691792	80.098594	Kopai	PS-410216	9.686887	80.03856	9.673947	80.027736	M2FH+H3H, Jaffna, Sri Lanka	1.865513		යාපනය	කෝපායි	එම්ඕඑච් කාර්යාලය- නල්ලූර්	யாழ்	கோப்பாய்	MOH அலுவலகம்- நல்லூர்	M2FH+H3H, යාපනය, ශ්‍රී ලංකාව	M2FH+H3H, யாழ்ப்பாணம், இலங்கை
Jaffna	Kopay	Senkunda Vidyalaya	False	False	JFFNKPYSNKNDVDYLY		Jaffna	LK-41	9.691792	80.098594	Kopai	PS-410216	9.686887	80.03856	9.711206	80.059962	Kopay Base Hospital, Jaffna, Sri Lanka	3.580942		යාපනය	කෝපායි	සෙංකුණ්ඩා විද්‍යාලය	யாழ்	கோப்பாய்	செங்குந்தா வித்யாலயா	කෝපායි මූලික රෝහල, යාපනය, ශ්‍රී ලංකාව	கோப்பாய் அடிப்படை மருத்துவமனை, யாழ்ப்பாணம், இலங்கை
Jaffna	Chunnagam	Uduvil Girls College	False	False	JFFNCHNNGMDVLGRLSCLLG		Jaffna	LK-41	9.691792	80.098594	Chunnakam	PS-410211	9.745309	80.029151	9.734484	80.015916	Uduvil Road, Uduvil, Sri Lanka	1.885444		යාපනය	චුන්නාගම්	උඩුවිල් බාලිකා විද්‍යාලය	யாழ்	சுன்னாகம்	உடுவில் பெண்கள் கல்லூரி	උඩුවිල් පාර, උඩුවිල්, ශ්‍රී ලංකාව	உடுவில் சாலை, உடுவில், இலங்கை
Jaffna	Chunnagam	Thavadi HTM School	False	False	JFFNCHNNGMTHVDHTMSCHL		Jaffna	LK-41	9.691792	80.098594	Chunnakam	PS-410211	9.745309	80.029151	9.731084	80.024908	Jaffna-Kankesanturai Rd, Uduvil Rd, Chunnakam, Sri Lanka	1.6492		යාපනය	චුන්නාගම්	තවඩි එච්ටීඑම් පාසල	யாழ்	சுன்னாகம்	தவடி எச்.டி.எம் பள்ளி	යාපනය-කන්කසන්තුරේ පාර, උඩුවිල් පාර, චුන්නාකම්, ශ්‍රී ලංකාව	யாழ்ப்பாணம்-காங்கேசன்துறை வீதி, உடுவில் வீதி, சுன்னாகம், இலங்கை
Jaffna	Chunnagam	MOH Office - Uduvil	False	False	JFFNCHNNGMMHFFCDVL		Jaffna	LK-41	9.691792	80.098594	Chunnakam	PS-410211	9.745309	80.029151	9.742938	80.035132	P2VP+53C, Chunnakam, Sri Lanka	0.706719		යාපනය	චුන්නාගම්	MOH කාර්යාලය - උඩුවිල්	யாழ்	சுன்னாகம்	MOH அலுவலகம் - உடுவில்	පී 2 වීපී+53 සී, චුන්නාකම්, ශ්‍රී ලංකාව	P2VP+53C, சுன்னாகம், இலங்கை
Jaffna	Chunnagam	Erlalai Muththumil Hall	False	False	JFFNCHNNGMRLLMTHTHMLHLL		Jaffna	LK-41	9.691792	80.098594	Chunnakam	PS-410211	9.745309	80.029151	9.750062	80.029209	Jaffna-Kankesanturai Rd, Chunnakam, Sri Lanka	0.528714		යාපනය	චුන්නාගම්	Erlalai Muththumil ශාලාව	யாழ்	சுன்னாகம்	எர்லாலை முத்துமில் மண்டபம்	යාපනය-කන්කසන්තුරේ පාර, චුන්නාකම්, ශ්‍රී ලංකාව	யாழ்ப்பாணம்-காங்கேசன்துறை வீதி, சுன்னாகம், இலங்கை
Jaffna	Chunnagam	Inuvil Ariwalyam Hall	False	False	JFFNCHNNGMNVLRWLYMHLL		Jaffna	LK-41	9.691792	80.098594	Chunnakam	PS-410211	9.745309	80.029151	9.734523	80.023895	Jaffna-Kankesanturai Rd, Chunnakam, Sri Lanka	1.330918		යාපනය	චුන්නාගම්	ඉනුවිල් ආරිවලයම් ශාලාව	யாழ்	சுன்னாகம்	இணுவில் அறிவாலயம் மண்டபம்	යාපනය-කන්කසන්තුරේ පාර, චුන්නාකම්, ශ්‍රී ලංකාව	யாழ்ப்பாணம்-காங்கேசன்துறை வீதி, சுன்னாகம், இலங்கை
Jaffna	Chunnagam	Sitti Vinayagar Hall	False	False	JFFNCHNNGMSTTVNYGRHLL		Jaffna	LK-41	9.691792	80.098594	Chunnakam	PS-410211	9.745309	80.029151	9.736919	80.041761	Urelu, Jaffna, Sri Lanka	1.667899		යාපනය	චුන්නාගම්	සිත්ති විනයගර් ශාලාව	யாழ்	சுன்னாகம்	சிட்டி விநாயகர் மண்டபம்	යුරේලු, යාපනය, ශ්‍රී ලංකාව	ஊரேலு, யாழ்ப்பாணம், இலங்கை
Jaffna	Point Pedro	Valvai Girls' College	False	False	JFFNPNTPDRVLVGRLSCLLG		Jaffna	LK-41	9.691792	80.098594	Point Pedro	PS-410106	9.827018	80.233187	9.793788	80.220977	Point Pedro, Sri Lanka	3.930977		යාපනය	පේදුරුතුඩුව	වල්වායි බාලිකා විද්‍යාලය	யாழ்	பருத்தித்துறை	வல்வை பெண்கள் கல்லூரி	පේදුරුතුඩුව, ශ්‍රී ලංකාව	பருத்தித்துறை, இலங்கை
Jaffna	Valvettithurai	Sidambara Vidyalaya	False	False	JFFNVLVTTTHRSDMBRVDYLY		Jaffna	LK-41	9.691792	80.098594	Valvettiththurai	PS-410107	9.823216	80.169633	9.82423	80.160716	AB21, Valvettithurai, Sri Lanka	0.98378		යාපනය	වැල්වැටිතුරෙයි	සිදම්බර විද්‍යාලය	யாழ்	வல்வெட்டித்துறை	சிதம்பர வித்யாலயா	ඒබී 21, වැල්වැටිතුරෙයි, ශ්‍රී ලංකාව	ஏபி 21, வல்வெட்டித்துறை, இலங்கை
Jaffna	Nelliyady	MOH Office - Karaveddy	False	False	JFFNNLLYDYMHFFCKRVDDY		Jaffna	LK-41	9.691792	80.098594	Nelliadi	PS-410108	9.778397	80.113303	9.792126	80.201799	Q6R2+VP3, Point Pedro, Sri Lanka	9.819656		යාපනය	නෙල්ලියාඩි	MOH කාර්යාලය - කරවෙඩ්ඩි	யாழ்	நெல்லியடி	MOH அலுவலகம் - கரவெட்டி	Q6R2+VP3, පේදුරුතුඩුව, ශ්‍රී ලංකාව	Q6R2+VP3, பருத்தித்துறை, இலங்கை
Jaffna	Kodikaman	Kodikaman Hospital	False	False	JFFNKDKMNKDKMNHSPTL		Jaffna	LK-41	9.691792	80.098594	Kodikamam	PS-410217	9.666459	80.132384	9.677952	80.236663	M6HP+5MM, Jaffna, Sri Lanka	11.505299		යාපනය	කොඩිකාමන්	කොඩිකාමන් රෝහල	யாழ்	கொடிகாமன்	கொடிகாமன் மருத்துவமனை	M6HP+5MM, යාපනය, ශ්‍රී ලංකාව	M6HP+5MM, யாழ்ப்பாணம், இலங்கை
Jaffna	Thelippalai	Mallakam Maha Vidyalaya	False	False	JFFNTHLPPLMLLKMMHVDYLY		Jaffna	LK-41	9.691792	80.098594	Thelippalay	PS-410104	6.933075	79.857181	9.762572	80.029409	Jaffna-Kankesanturai Rd, Jaffna, Sri Lanka	315.294572	#CenterFarFromPolice	යාපනය	තෙලිප්පලෙයි	මල්ලාකම් මහා විද්‍යාලය	யாழ்	தெளிப்பளை	மல்லாகம் மகா வித்தியாலயம்	යාපනය-කන්කසන්තුරේ පාර, යාපනය, ශ්‍රී ලංකාව	யாழ்ப்பாணம்-காங்கேசன்துறை வீதி, யாழ்ப்பாணம், இலங்கை
Jaffna	Achchuveli	Puttur Somaskanda Vidyalaya	False	False	JFFNCHCHVLPTTRSMSKNDVDYLY		Jaffna	LK-41	9.691792	80.098594	Achchuweli	PS-410103	6.934132	79.856305	9.745655	80.104632	AB20 - Point Pedro Road Puttur west, Jaffna 40000, Sri Lanka	313.916871	#CenterFarFromPolice	යාපනය	අච්චුවේලි	පුත්තූර් සෝමස්කන්ද විද්‍යාලය	யாழ்	அச்சுவேலி	புத்தூர் சோமாஸ்கந்தா வித்தியாலயம்	ඒබී 20 - පේදුරුතුඩුව පාර, පුත්තූර් බටහිර, යාපනය 40000, ශ්‍රී ලංකාව	AB20 - பருத்தித்துறை சாலை புத்தூர் மேற்கு, யாழ்ப்பாணம் 40000, இலங்கை
Jaffna	Achchuveli	Achchuveli  Hospital	False	False	JFFNCHCHVLCHCHVLHSPTL		Jaffna	LK-41	9.691792	80.098594	Achchuweli	PS-410103	6.934132	79.856305	9.772721	80.115501	Avarankal-Tondaimanar Rd, Sri Lanka	317.021383	#CenterFarFromPolice	යාපනය	අච්චුවේලි	අච්චුවේලි රෝහල	யாழ்	அச்சுவேலி	அச்சுவேலி மருத்துவமனை	අවරන්කල්-තොණ්ඩයිමානර් පාර, ශ්‍රී ලංකාව	அவரங்கால்-தொண்டைமானார் சாலை, இலங்கை
Jaffna	Achchuveli	Sirupiddy Inthu Vidyalaya	False	False	JFFNCHCHVLSRPDDYNTHVDYLY		Jaffna	LK-41	9.691792	80.098594	Achchuweli	PS-410103	6.934132	79.856305	9.776924	80.114965	Atchuvely Central College, Jaffna, Northern Province, B33, 40000, Sri Lanka	317.481671	#CenterFarFromPolice	යාපනය	අච්චුවේලි	සිරුපිඩ්ඩි ඉන්තු විද්‍යාලය	யாழ்	அச்சுவேலி	சிறுப்பிடி இந்து வித்யாலயா	අච්චුවේලි මධ්‍ය මහා විද්‍යාලය, යාපනය, උතුරු පළාත, බී 33, 40000, ශ්‍රී ලංකාව	அச்சுவேலி மத்திய கல்லூரி, யாழ்ப்பாணம், வடக்கு மாகாணம், பி 33, 40000, இலங்கை
Jaffna	Wadukkotte	MOH Office - Chankanai	False	False	JFFNWDKKTTMHFFCCHNKN		Jaffna	LK-41	9.691792	80.098594	Vaddukoddai		9.728886	79.947771	9.753617	79.976004	QX3G+CCR, Sri Lanka	4.140836		යාපනය	වඩුක්කෝට්ටේ	MOH කාර්යාලය - චංකනායි	யாழ்	வட்டுக்கோட்டை	MOH அலுவலகம் - சங்கனை	QX3G+CCR, ශ්‍රී ලංකාව	QX3G+CCR, இலங்கை
Jaffna	Manippai	Manipay Memorial Vidyalaya	False	False	JFFNMNPPMNPYMMRLVDYLY		Jaffna	LK-41	9.691792	80.098594	Manippai	PS-410210	9.727151	79.996905	9.727933	79.999604	Memorial Lane, Manipay, Sri Lanka	0.308413		යාපනය	මනිප්පායි	මනිපායි අනුස්මරණ විද්‍යාලය	யாழ்	மணிப்பை	மானிப்பாய் நினைவு வித்தியாலயம்	අනුස්මරණ පටුමග, මනිපායි, ශ්‍රී ලංකාව	நினைவு வழி, மானிப்பாய், இலங்கை
Jaffna	Manippai	Nawali  Maha Vidyalaya	False	False	JFFNMNPPNWLMHVDYLY		Jaffna	LK-41	9.691792	80.098594	Manippai	PS-410210	9.727151	79.996905	9.727933	79.999604	Memorial Lane, Manipay, Sri Lanka	0.308413		යාපනය	මනිප්පායි	නවාලි මහා විද්‍යාලය	யாழ்	மணிப்பை	நவலி மகா வித்தியாலயம்	අනුස්මරණ පටුමග, මනිපායි, ශ්‍රී ලංකාව	நினைவு வழி, மானிப்பாய், இலங்கை
Jaffna	Kayts	MOH Office - Karainagar	False	False	JFFNKYTSMHFFCKRNGR		Jaffna	LK-41	9.691792	80.098594	Kayts	PS-410212	9.728654	79.94775	9.725097	79.99772	Sri Lanka, Manipay, Sri Lanka	5.492521		යාපනය	කයිට්ස්	MOH කාර්යාලය - කරෙයිනගර්	யாழ்	ஊர்காவற்துறையினர்	MOH அலுவலகம் - காரைநகர்	ශ්‍රී ලංකාව, මනිපායි, ශ්‍රී ලංකාව	இலங்கை, மானிப்பாய், இலங்கை
Jaffna	Kayts	MOH Office - Kayts	False	False	JFFNKYTSMHFFCKYTS		Jaffna	LK-41	9.691792	80.098594	Kayts	PS-410212	9.728654	79.94775	9.697759	79.866366	Sri Lanka, Kayts, Sri Lanka	9.561445		යාපනය	කයිට්ස්	MOH කාර්යාලය - කයිට්ස්	யாழ்	ஊர்காவற்துறையினர்	MOH அலுவலகம் - ஊர்காவற்துறை	ශ්‍රී ලංකාව, කයිට්ස්, ශ්‍රී ලංකාව	இலங்கை, ஊர்காவற்துறை, இலங்கை
Jaffna	Chavakachcheri	MOH Office - Chavakachcheri	False	False	JFFNCHVKCHCHRMHFFCCHVKCHCHR		Jaffna	LK-41	9.691792	80.098594	Chawakachcheri	PS-410215	9.666459	80.132384	9.663455	80.166068	Dutch Rd, Chavakachcheri, Sri Lanka	3.70857		යාපනය	චාවකච්චේරි	එම්ඕඑච් කාර්යාලය - චාවකච්චේරි	யாழ்	சாவகச்சேரி	MOH அலுவலகம் - சாவகச்சேரி	ලන්දේසි පාර, චාවකච්චේරි, ශ්‍රී ලංකාව	டச்சு ஆர்ட், சாவகச்சேரி, இலங்கை
Jaffna	Chavakachcheri	Navakkuli Maha Vidyalaya	False	False	JFFNCHVKCHCHRNVKKLMHVDYLY		Jaffna	LK-41	9.691792	80.098594	Chawakachcheri	PS-410215	9.666459	80.132384	9.658598	80.097497	M35W+CXQ, Chavakachcheri, Sri Lanka	3.924081		යාපනය	චාවකච්චේරි	නවක්කුලි මහා විද්‍යාලය	யாழ்	சாவகச்சேரி	நவக்குளி மகா வித்தியாலயம்	M35W+CXQ, චාවකච්චේරි, ශ්‍රී ලංකාව	M35W+CXQ, சாவகச்சேரி, இலங்கை
Kilinochchi	Kilinochchi	MOH Office - Karachchi	False	False	KLNCHCHKLNCHCHMHFFCKRCHCH		Kilinochchi	LK-45	9.415742	80.30358	Kilinochchi	PS-450131	9.392265	80.407846	9.396965	80.407782	Kandy - Jaffna Hwy, Kilinochchi, Sri Lanka	0.522827		කිලිනොච්චි	කිලිනොච්චි	MOH කාර්යාලය - කරච්චි	கிளிநொச்சி	கிளிநொச்சி	MOH அலுவலகம் - கராச்சி	මහනුවර - යාපනය හ්වි, කිලිනොච්චි, ශ්‍රී ලංකාව	கண்டி - யாழ்ப்பாணம், கிளிநொச்சி, இலங்கை
Kilinochchi	Pooneryn	MOH Office - Pooneryn	False	False	KLNCHCHPNRYNMHFFCPNRYN		Kilinochchi	LK-45	9.415742	80.30358	Pooneryn		9.505717	80.21101	9.507968	80.208317	G655+58P, Pooneryn, Sri Lanka	0.387256		කිලිනොච්චි	පුනරීන්	MOH කාර්යාලය - පුනරීන්	கிளிநொச்சி	பூனெரின்	MOH அலுவலகம் - பூனெரின்	ජී 655+58 පී, පූනරීන්, ශ්‍රී ලංකාව	G655+58P, பூனெரின், இலங்கை
Kilinochchi	Pudukudiruppu	MOH Office - Pudukudiruppu	False	False	KLNCHCHPDKDRPPMHFFCPDKDRPP		Kilinochchi	LK-45	9.415742	80.30358	Pudukuduiruppu	PS-440149	7.00152	79.95003	9.320965	80.683013	Parantan-Mullaitivu Hwy, Velikkandal, Sri Lanka	270.317914	#CenterFarFromPolice	කිලිනොච්චි	පුදුකුඩිරුප්පු	එම්ඕඑච් කාර්යාලය - පුදුකුඩිරුප්පු	கிளிநொச்சி	புதுக்குடியிருப்பு	MOH அலுவலகம் - புதுக்குடியிருப்பு	පරන්තන්-මුලතිව් හ්වි, වේලිකන්දල්, ශ්‍රී ලංකාව	பரந்தன்-முல்லைத்தீவு Hwy, வேலிக்கண்டல், இலங்கை
Mannar	Adampan	Periyamadu Hospital	False	False	MNNRDMPNPRYMDHSPTL		Mannar	LK-42	8.877429	80.088628	Adampan		8.939451	80.002055	8.972893	80.152017	Palampiddi-Periyamadu-Vidathalthive Road, Periyamadu, Sri Lanka	16.891669		මන්නාරම	අඩම්පන්	පෙරියමඩු රෝහල	மன்னார்	அடம்பன்	பெரியமடு மருத்துவமனை	පලම්පිඩි-පෙරියමඩු-විදාතල්තිවේ පාර, පෙරියමඩු, ශ්‍රී ලංකාව	பாலம்பிட்டி-பெரியமடு-விடத்தல்தீவு சாலை, பெரியமடு, இலங்கை
Trincomalee	Muttur	MOH Office – Muttur	False	False	TRNCMLMTTRMHFFCMTTR		Trincomalee	LK-53	8.551241	81.092014	Mutur	PS-530138	8.461133	81.259371	8.453916	81.264494	1 Old Batticaloa Rd, Mutur, Sri Lanka	0.980859		ත්රිකුණාමලය	මුතූර්	MOH කාර්යාලය - මුතූර්	திருகோணமலை	மூதூர்	MOH அலுவலகம் - மூதூர்	1 පරණ මඩකලපුව පාර, මුතූර්, ශ්‍රී ලංකාව	1 பழைய மட்டக்களப்பு வீதி, மூதூர், இலங்கை
Trincomalee	Muttur	Muttur Base Hospital	False	False	TRNCMLMTTRMTTRBSHSPTL		Trincomalee	LK-53	8.551241	81.092014	Mutur	PS-530138	8.461133	81.259371	8.454534	81.263018	Old Batticaloa Rd, Mutur, Sri Lanka	0.836517		ත්රිකුණාමලය	මුතූර්	මුතූර් මූලික රෝහල	திருகோணமலை	மூதூர்	மூதூர் அடிப்படை மருத்துவமனை	පැරණි මඩකලපුව පාර, මුතූර්, ශ්‍රී ලංකාව	பழைய மட்டக்களப்பு வீதி, மூதூர், இலங்கை
Trincomalee	Muttur	An Nahar Maha Vidyalaya	False	False	TRNCMLMTTRNNHRMHVDYLY		Trincomalee	LK-53	8.551241	81.092014	Mutur	PS-530138	8.461133	81.259371	8.451822	81.262307	F726+PWF, Mutur, Sri Lanka	1.084867		ත්රිකුණාමලය	මුතූර්	අනාහර් මහා විද්‍යාලය	திருகோணமலை	மூதூர்	ஒரு நஹர் மகா வித்தியாலயம்	F726+PWF, මුතූර්, ශ්‍රී ලංකාව	F726+PWF, மூதூர், இலங்கை
Trincomalee	Muttur	Al Hidayah Maha Vidyalaya	False	False	TRNCMLMTTRLHDYHMHVDYLY		Trincomalee	LK-53	8.551241	81.092014	Mutur	PS-530138	8.461133	81.259371	8.449646	81.26789	1 Old Batticaloa Rd, Mutur, Sri Lanka	1.584607		ත්රිකුණාමලය	මුතූර්	අල් හිදායා මහා විද්‍යාලය	திருகோணமலை	மூதூர்	அல் ஹிதாயா மகா வித்தியாலயம்	1 පරණ මඩකලපුව පාර, මුතූර්, ශ්‍රී ලංකාව	1 பழைய மட்டக்களப்பு வீதி, மூதூர், இலங்கை
Trincomalee	Muttur	Chennaiur Maha Vidyalaya	False	False	TRNCMLMTTRCHNNRMHVDYLY		Trincomalee	LK-53	8.551241	81.092014	Mutur	PS-530138	8.461133	81.259371	8.449646	81.26789	1 Old Batticaloa Rd, Mutur, Sri Lanka	1.584607		ත්රිකුණාමලය	මුතූර්	චෙන්නායුර් මහා විද්‍යාලය	திருகோணமலை	மூதூர்	சென்னூர் மகா வித்தியாலயம்	1 පරණ මඩකලපුව පාර, මුතූර්, ශ්‍රී ලංකාව	1 பழைய மட்டக்களப்பு வீதி, மூதூர், இலங்கை
Trincomalee	Muttur	Al Hilal Maha Vidyalaya	False	False	TRNCMLMTTRLHLLMHVDYLY		Trincomalee	LK-53	8.551241	81.092014	Mutur	PS-530138	8.461133	81.259371	8.457062	81.268574	Mutur, Sri Lanka	1.109154		ත්රිකුණාමලය	මුතූර්	අල් හිලාල් මහා විද්‍යාලය	திருகோணமலை	மூதூர்	அல் ஹிலால் மகா வித்தியாலயம்	මුතූර්, ශ්‍රී ලංකාව	மூதூர், இலங்கை
Trincomalee	Muttur	Mallikaithivu Maha Vidyalaya	False	False	TRNCMLMTTRMLLKTHVMHVDYLY		Trincomalee	LK-53	8.551241	81.092014	Mutur	PS-530138	8.461133	81.259371	8.449646	81.26789	1 Old Batticaloa Rd, Mutur, Sri Lanka	1.584607		ත්රිකුණාමලය	මුතූර්	මල්ලිකයිතිවු මහා විද්‍යාලය	திருகோணமலை	மூதூர்	மல்லிகைத்தீவு மகா வித்தியாலயம்	1 පරණ මඩකලපුව පාර, මුතූර්, ශ්‍රී ලංකාව	1 பழைய மட்டக்களப்பு வீதி, மூதூர், இலங்கை
Trincomalee	Muttur	Palathopur Zahira Maha Vidyalaya	False	False	TRNCMLMTTRPLTHPRZHRMHVDYLY		Trincomalee	LK-53	8.551241	81.092014	Mutur	PS-530138	8.461133	81.259371	8.457906	81.268402	Mutur, Sri Lanka	1.056434		ත්රිකුණාමලය	මුතූර්	පලතොපූර් සහිරා මහා විද්‍යාලය	திருகோணமலை	மூதூர்	பாலதோபூர் ஜஹிரா மகா வித்தியாலயம்	මුතූර්, ශ්‍රී ලංකාව	மூதூர், இலங்கை
Trincomalee	Muttur	Al Hamra Vidyalaya	False	False	TRNCMLMTTRLHMRVDYLY		Trincomalee	LK-53	8.551241	81.092014	Mutur	PS-530138	8.461133	81.259371	8.726266	81.172086	P5GC+GR4, Irrakkakandi, Sri Lanka	31.013792	#CenterFarFromPolice	ත්රිකුණාමලය	මුතූර්	අල් හම්රා විද්‍යාලය	திருகோணமலை	மூதூர்	அல் ஹம்ரா வித்யாலயா	පී 5 ජීසී+ජීආර් 4, ඉරක්කකණ්ඩි, ශ්‍රී ලංකාව	P5GC+GR4, இறக்கக்காண்டி, இலங்கை
Trincomalee	Muttur	Kanguveli Agathiyar Vidyalaya	False	False	TRNCMLMTTRKNGVLGTHYRVDYLY		Trincomalee	LK-53	8.551241	81.092014	Mutur	PS-530138	8.461133	81.259371	8.356625	81.223966	964F+MH4, Trincomalee, Sri Lanka	12.259738		ත්රිකුණාමලය	මුතූර්	කන්ගුවේලි අගතියර් විද්‍යාලය	திருகோணமலை	மூதூர்	கங்குவேலி அகத்தியர் வித்தியாலயம்	964 එෆ්+එම්එච් 4, ත්‍රිකුණාමලය, ශ්‍රී ලංකාව	964F+MH4, திருகோணமலை, இலங்கை
Trincomalee	Muttur	Periya Palam Church	False	False	TRNCMLMTTRPRYPLMCHRCH		Trincomalee	LK-53	8.551241	81.092014	Mutur	PS-530138	8.461133	81.259371	8.426188	81.267843	Trincomalee Hwy, Sri Lanka	3.997105		ත්රිකුණාමලය	මුතූර්	පෙරිය පාලම් පල්ලිය	திருகோணமலை	மூதூர்	பெரிய பாலம் தேவாலயம்	ත්‍රිකුණාමලය හ්වි, ශ්‍රී ලංකාව	திருகோணமலை Hwy, இலங்கை
Trincomalee	Muttur	Pallekudiirippu Kale Mahal Vidyalaya	False	False	TRNCMLMTTRPLLKDRPPKLMHLVDYLY		Trincomalee	LK-53	8.551241	81.092014	Mutur	PS-530138	8.461133	81.259371	8.449646	81.26789	1 Old Batticaloa Rd, Mutur, Sri Lanka	1.584607		ත්රිකුණාමලය	මුතූර්	පල්ලේකුඩඉරිප්පු කැලේ මහල් විද්‍යාලය	திருகோணமலை	மூதூர்	பல்லேக்குடியிருப்பு காலே மஹால் வித்யாலயா	1 පරණ මඩකලපුව පාර, මුතූර්, ශ්‍රී ලංකාව	1 பழைய மட்டக்களப்பு வீதி, மூதூர், இலங்கை
Trincomalee	Muttur	Sampur Hospital	False	False	TRNCMLMTTRSMPRHSPTL		Trincomalee	LK-53	8.551241	81.092014	Mutur	PS-530138	8.461133	81.259371	8.481264	81.292795	F7JV+G43, Trincomalee, Sri Lanka	4.305295		ත්රිකුණාමලය	මුතූර්	සාම්පූර් රෝහල	திருகோணமலை	மூதூர்	சம்பூர் மருத்துவமனை	F7JV+G43, ත්‍රිකුණාමලය, ශ්‍රී ලංකාව	F7JV+G43, திருகோணமலை, இலங்கை
Trincomalee	Muttur	Thopur Hospital	False	False	TRNCMLMTTRTHPRHSPTL		Trincomalee	LK-53	8.551241	81.092014	Mutur	PS-530138	8.461133	81.259371	8.39979	81.304998	Thoppur, Sri Lanka	8.471041		ත්රිකුණාමලය	මුතූර්	තෝපූර් රෝහල	திருகோணமலை	மூதூர்	தோப்பூர் மருத்துவமனை	තොප්පූර්, ශ්‍රී ලංකාව	தோப்பூர், இலங்கை
Trincomalee	Kinniya	MOH Office - Naduthivu	False	False	TRNCMLKNNYMHFFCNDTHV		Trincomalee	LK-53	8.551241	81.092014	Kinnia	PS-530140	6.907289	79.863819	8.593907	81.211949	Anbuvalipuram, Trincomalee, Sri Lanka	239.310726	#CenterFarFromPolice	ත්රිකුණාමලය	කින්නියා	MOH කාර්යාලය - නදුතිව්	திருகோணமலை	கிண்ணியா	MOH அலுவலகம் - நடுதிவு	අන්බවලිපුරම්, ත්‍රිකුණාමලය, ශ්‍රී ලංකාව	அன்புவலிபுரம், திருகோணமலை, இலங்கை
Trincomalee	Kinniya	Nadu Uththu Hospital	False	False	TRNCMLKNNYNDTHTHHSPTL		Trincomalee	LK-53	8.551241	81.092014	Kinnia	PS-530140	6.907289	79.863819	8.501539	81.187539	Tampalakamam-Kinniya Rd, Kinniya 31100, Sri Lanka	229.636589	#CenterFarFromPolice	ත්රිකුණාමලය	කින්නියා	නාඩු උතු රෝහල	திருகோணமலை	கிண்ணியா	நடு ஊத்து மருத்துவமனை	තම්පලකමම්-කින්නියා පාර, කින්නියා 31100, ශ්‍රී ලංකාව	தம்பலகாமம்-கிண்ணியா சாலை, கிண்ணியா 31100, இலங்கை
Trincomalee	Kinniya	Samajathivu Society Hall	False	False	TRNCMLKNNYSMJTHVSCTYHLL		Trincomalee	LK-53	8.551241	81.092014	Kinnia	PS-530140	6.907289	79.863819	8.497669	81.179458	F5XH+3Q8, Kinniya, Sri Lanka	228.739072	#CenterFarFromPolice	ත්රිකුණාමලය	කින්නියා	සමාජතිව් සමාජ ශාලාව	திருகோணமலை	கிண்ணியா	சமாஜதீவு சொசைட்டி ஹால்	F5XH+3Q8, කින්නියා, ශ්‍රී ලංකාව	F5XH+3Q8, கிண்ணியா, இலங்கை
Trincomalee	Kinniya	MOH Office - Kinniya	False	False	TRNCMLKNNYMHFFCKNNY		Trincomalee	LK-53	8.551241	81.092014	Kinnia	PS-530140	6.907289	79.863819	8.498696	81.179644	F5XH+FVC, Kinniya 31100, Sri Lanka	228.840304	#CenterFarFromPolice	ත්රිකුණාමලය	කින්නියා	MOH කාර්යාලය - කින්නියා	திருகோணமலை	கிண்ணியா	MOH அலுவலகம் - கிண்ணியா	F5XH+FVC, කින්නියා 31100, ශ්‍රී ලංකාව	F5XH+FVC, கிண்ணியா 31100, இலங்கை
Trincomalee	Kinniya	Al Aksha Central College	False	False	TRNCMLKNNYLKSHCNTRLCLLG		Trincomalee	LK-53	8.551241	81.092014	Kinnia	PS-530140	6.907289	79.863819	8.496662	81.180256	F5WJ+M46, Kinniya 31100, Sri Lanka	228.708367	#CenterFarFromPolice	ත්රිකුණාමලය	කින්නියා	අල් අක්ෂා මධ්‍ය මහා විද්‍යාලය	திருகோணமலை	கிண்ணியா	அல் அக்ஷா மத்திய கல்லூரி	F5WJ+M46, කින්නියා 31100, ශ්‍රී ලංකාව	F5WJ+M46, கிண்ணியா 31100, இலங்கை
Trincomalee	Kinniya	Al Adan Vidyalaya	False	False	TRNCMLKNNYLDNVDYLY		Trincomalee	LK-53	8.551241	81.092014	Kinnia	PS-530140	6.907289	79.863819	8.502547	81.180383	Kinniya, Sri Lanka	229.222923	#CenterFarFromPolice	ත්රිකුණාමලය	කින්නියා	අල් අදාන් විද්‍යාලය	திருகோணமலை	கிண்ணியா	அல் அதான் வித்யாலயா	කින්නියා, ශ්‍රී ලංකාව	கிண்ணியா, இலங்கை
Trincomalee	Kinniya	Al Irfan Viyalaya	False	False	TRNCMLKNNYLRFNVYLY		Trincomalee	LK-53	8.551241	81.092014	Kinnia	PS-530140	6.907289	79.863819	8.481391	81.191368	F5JR+HG5, Kinniya, Sri Lanka	228.183186	#CenterFarFromPolice	ත්රිකුණාමලය	කින්නියා	අල් ඉර්ෆාන් වියල	திருகோணமலை	கிண்ணியா	அல் இர்பான் வியாலயா	F5JR+HG5, කින්නියා, ශ්‍රී ලංකාව	F5JR+HG5, கிண்ணியா, இலங்கை
Trincomalee	Kinniya	Kinniya Base Hospital	False	False	TRNCMLKNNYKNNYBSHSPTL		Trincomalee	LK-53	8.551241	81.092014	Kinnia	PS-530140	6.907289	79.863819	8.501539	81.187539	Tampalakamam-Kinniya Rd, Kinniya 31100, Sri Lanka	229.636589	#CenterFarFromPolice	ත්රිකුණාමලය	කින්නියා	කින්නියා මූලික රෝහල	திருகோணமலை	கிண்ணியா	கிண்ணியா அடிப்படை மருத்துவமனை	තම්පලකමම්-කින්නියා පාර, කින්නියා 31100, ශ්‍රී ලංකාව	தம்பலகாமம்-கிண்ணியா சாலை, கிண்ணியா 31100, இலங்கை
Trincomalee	Sripura	MOH Office – Sripura	False	False	TRNCMLSRPRMHFFCSRPR		Trincomalee	LK-53	8.551241	81.092014	Sripura	PS-530136	8.929617	80.81428	8.926697	80.814799	Padavi Sripura, Padaviya - Sripura Road, Welioya, Sri Lanka	0.329869		ත්රිකුණාමලය	ශ්‍රීපුර	MOH කාර්යාලය - ශ්‍රීපුර	திருகோணமலை	ஸ்ரீபுரா	MOH அலுவலகம் - ஸ்ரீபுரா	පදවි ශ්‍රීපුර, පදවිය - ශ්‍රීපුර පාර, වැලිඔය, ශ්‍රී ලංකාව	படவி ஸ்ரீபுரா, படாவியா - ஸ்ரீபுரா சாலை, வெலிஓயா, இலங்கை
Trincomalee	Sripura	Jayanthipura Vidyalaya	False	False	TRNCMLSRPRJYNTHPRVDYLY		Trincomalee	LK-53	8.551241	81.092014	Sripura	PS-530136	8.929617	80.81428	8.908396	80.833813	Jayanthi wewa, Padavi -Sripura, Sri Lanka	3.190373		ත්රිකුණාමලය	ශ්‍රීපුර	ජයන්තිපුර විද්‍යාලය	திருகோணமலை	ஸ்ரீபுரா	ஜெயந்திபுரா வித்யாலயா	ජයන්ති වැව, පදවි -ශ්‍රීපුර, ශ්‍රී ලංකාව	ஜெயந்தி வெவா, படவி -ஸ்ரீபுரா, இலங்கை
Trincomalee	Sripura	Sripura Hospital	False	False	TRNCMLSRPRSRPRHSPTL		Trincomalee	LK-53	8.551241	81.092014	Sripura	PS-530136	8.929617	80.81428	8.929308	80.813901	Padaviya - Sripura Road, Welioya, Sri Lanka	0.053996		ත්රිකුණාමලය	ශ්‍රීපුර	ශ්‍රීපුර රෝහල	திருகோணமலை	ஸ்ரீபுரா	ஸ்ரீபுரா மருத்துவமனை	පදවිය - ශ්‍රීපුර පාර, වැලිඔය, ශ්‍රී ලංකාව	பதவிய - ஸ்ரீபுரா சாலை, வெலிஓயா, இலங்கை
Trincomalee	Kuchchaveli	MOH Office - Kuchchaveli	False	False	TRNCMLKCHCHVLMHFFCKCHCHVL		Trincomalee	LK-53	8.551241	81.092014	Kuchchaweli	PS-530133	8.81895	81.100438	8.740082	81.161616	P5R6+2JQ, Kumpurupiddi, Sri Lanka	11.053646		ත්රිකුණාමලය	කුච්චවේලි	MOH කාර්යාලය - කුච්චවේලි	திருகோணமலை	குச்சவெளி	MOH அலுவலகம் - குச்சவெளி	P5R6+2JQ, කුඹුරුපිඩි, ශ්‍රී ලංකාව	P5R6+2JQ, கும்புறுப்பிடி, இலங்கை
Trincomalee	Kuchchaveli	Divisional Hospital - Kuchchaveli	False	False	TRNCMLKCHCHVLDVSNLHSPTLKCHCHVL		Trincomalee	LK-53	8.551241	81.092014	Kuchchaweli	PS-530133	8.81895	81.100438	8.814795	81.102358	R472+WW9, Kuchchaveli, Sri Lanka	0.508064		ත්රිකුණාමලය	කුච්චවේලි	ප්‍රාදේශීය රෝහල - කුච්චවේලි	திருகோணமலை	குச்சவெளி	பிரதேச மருத்துவமனை - குச்சவெளி	ආර් 472+WW9, කුච්චවේලි, ශ්‍රී ලංකාව	R472+WW9, குச்சவெளி, இலங்கை
Trincomalee	Kuchchaveli	Annuria Muslim Maha Vidyalaya	False	False	TRNCMLKCHCHVLNNRMSLMMHVDYLY		Trincomalee	LK-53	8.551241	81.092014	Kuchchaweli	PS-530133	8.81895	81.100438	8.504893	81.179851	Kinniya, Sri Lanka	36.007413	#CenterFarFromPolice	ත්රිකුණාමලය	කුච්චවේලි	අනුරියා මුස්ලිම් මහා විද්‍යාලය	திருகோணமலை	குச்சவெளி	அன்னூரியா முஸ்லிம் மகா வித்தியாலயம்	කින්නියා, ශ්‍රී ලංකාව	கிண்ணியா, இலங்கை
Trincomalee	Kuchchaveli	Erakkandi Muslim Maha Vidyalaya	False	False	TRNCMLKCHCHVLRKKNDMSLMMHVDYLY		Trincomalee	LK-53	8.551241	81.092014	Kuchchaweli	PS-530133	8.81895	81.100438	8.592448	81.222257	N, N Coast Rd, Trincomalee, Sri Lanka	28.532789	#CenterFarFromPolice	ත්රිකුණාමලය	කුච්චවේලි	එරක්කණ්ඩි මුස්ලිම් මහා විද්‍යාලය	திருகோணமலை	குச்சவெளி	ஏரக்கண்டி முஸ்லிம் மகா வித்தியாலயம்	එන්, එන් කෝස්ට් පාර, ත්‍රිකුණාමලය, ශ්‍රී ලංකාව	N, N கடற்கரை சாலை, திருகோணமலை, இலங்கை
Trincomalee	Kuchchaveli	Thiriyaya Hospital	False	False	TRNCMLKCHCHVLTHRYYHSPTL		Trincomalee	LK-53	8.551241	81.092014	Kuchchaweli	PS-530133	8.81895	81.100438	8.682159	80.953435	Thiriyaya Rd, Sri Lanka	22.196275	#CenterFarFromPolice	ත්රිකුණාමලය	කුච්චවේලි	තිරියාය රෝහල	திருகோணமலை	குச்சவெளி	திரையா மருத்துவமனை	තිරියාය පාර, ශ්‍රී ලංකාව	திரைய்யா சாலை, இலங்கை
Trincomalee	Kuchchaveli	Putawakattu	False	False	TRNCMLKCHCHVLPTWKTT		Trincomalee	LK-53	8.551241	81.092014	Kuchchaweli	PS-530133	8.81895	81.100438	8.816329	81.100963	R482+G9P, Kuchchaveli, Sri Lanka	0.29719		ත්රිකුණාමලය	කුච්චවේලි	පුතාවකට්ටු	திருகோணமலை	குச்சவெளி	புதவாகட்டு	ආර් 482+ජී 9 පී, කුච්චවේලි, ශ්‍රී ලංකාව	R482+G9P, குச்சவெளி, இலங்கை
Trincomalee	Kuchchaveli	Divisional Hospital - Nilaveli	False	False	TRNCMLKCHCHVLDVSNLHSPTLNLVL		Trincomalee	LK-53	8.551241	81.092014	Kuchchaweli	PS-530133	8.81895	81.100438	8.681035	81.193632	M5JV+CF6, Nilaveli, Sri Lanka	18.44695		ත්රිකුණාමලය	කුච්චවේලි	ප්‍රාදේශීය රෝහල - නිලාවේලි	திருகோணமலை	குச்சவெளி	பிரதேச மருத்துவமனை - நிலாவெளி	M5JV+CF6, නිලාවේලි, ශ්‍රී ලංකාව	M5JV+CF6, நிலவேலி, இலங்கை
Trincomalee	Kantale	MOH Office – Kantale	False	False	TRNCMLKNTLMHFFCKNTL		Trincomalee	LK-53	8.551241	81.092014	Kantale	PS-530241	8.356129	81.007739	8.349617	81.009107	අග්‍රබෝධි මාවත, Kantale, Sri Lanka	0.739809		ත්රිකුණාමලය	කන්තලේ	MOH කාර්යාලය - කන්තලේ	திருகோணமலை	கந்தலே	MOH அலுவலகம் - கந்தலே	වැඩි දියුණු කිරීම මාවත, කන්තලේ, ශ්‍රී ලංකාව	தீவிரப்படுத்தி மாவத்த, கந்தலே, இலங்கை
Trincomalee	Kantale	Al Thariq Vidyalaya	False	False	TRNCMLKNTLLTHRQVDYLY		Trincomalee	LK-53	8.551241	81.092014	Kantale	PS-530241	8.356129	81.007739	8.35681	81.024939	924F+PXG, Kantale, Sri Lanka	1.894356		ත්රිකුණාමලය	කන්තලේ	අල් තාරික් විද්‍යාලය	திருகோணமலை	கந்தலே	அல் தாரிக் வித்யாலயா	924 එෆ්+පීඑක්ස්ජී, කන්තලේ, ශ්‍රී ලංකාව	924F+PXG, கந்தலே, இலங்கை
Trincomalee	Kantale	Kantale Base Hospital	False	False	TRNCMLKNTLKNTLBSHSPTL		Trincomalee	LK-53	8.551241	81.092014	Kantale	PS-530241	8.356129	81.007739	8.366314	81.004891	A6, Kantale, Sri Lanka	1.17546		ත්රිකුණාමලය	කන්තලේ	කන්තලේ මූලික රෝහල	திருகோணமலை	கந்தலே	கந்தலே அடிப்படை மருத்துவமனை	ඒ 6, කන්තලේ, ශ්‍රී ලංකාව	ஏ 6, கந்தலே, இலங்கை
Trincomalee	Kantale	Gantalawa Central College	False	False	TRNCMLKNTLGNTLWCNTRLCLLG		Trincomalee	LK-53	8.551241	81.092014	Kantale	PS-530241	8.356129	81.007739	8.379492	81.010837	Kandy Rd, Kantale 31300, Sri Lanka	2.62093		ත්රිකුණාමලය	කන්තලේ	ගන්තලාව මධ්‍ය විද්‍යාලය	திருகோணமலை	கந்தலே	கந்தலாவ மத்திய கல்லூரி	මහනුවර පාර, කන්තලේ 31300, ශ්‍රී ලංකාව	கண்டி வீதி, கந்தலே 31300, இலங்கை
Trincomalee	Kantale	Unit 14 Jayarajarama Viharaya	False	False	TRNCMLKNTLNTJYRJRMVHRY		Trincomalee	LK-53	8.551241	81.092014	Kantale	PS-530241	8.356129	81.007739	8.351263	81.006993	Kantale, Sri Lanka	0.547435		ත්රිකුණාමලය	කන්තලේ	ඒකකය 14 ජයරාජාරාම විහාරය	திருகோணமலை	கந்தலே	அலகு 14 ஜெயராஜராம விகாரை	කන්තලේ, ශ්‍රී ලංකාව	கந்தலே, இலங்கை
Trincomalee	Vanela	Vanela Central Dispensary	False	False	TRNCMLVNLVNLCNTRLDSPNSRY		Trincomalee	LK-53	8.551241	81.092014									#PoliceLocationUnknown	ත්රිකුණාමලය	වනේලා	වනේලා මධ්‍යම බෙහෙත් ශාලාව	திருகோணமலை	வனேலா	வனேலா மத்திய மருந்தகம்		
Trincomalee	Agbopura	Batukachchiya Central Dispensary	False	False	TRNCMLGBPRBTKCHCHYCNTRLDSPNSRY		Trincomalee	LK-53	8.551241	81.092014	Agbopura	PS-530242	8.331395	80.976489	8.480713	81.165957	Kachchakodutheevu,Kinniya, Kinniya, Sri Lanka	26.654993	#CenterFarFromPolice	ත්රිකුණාමලය	අග්බෝපුර	බටුකච්චිය මධ්‍යම බෙහෙත් ශාලාව	திருகோணமலை	அக்போபுரா	பதுகச்சியா மத்திய மருந்தகம்	කච්චකොඩුතීව්, කින්නියා, කින්නියා, ශ්‍රී ලංකාව	கச்சகொடுதீவு, கிண்ணியா, கிண்ணியா, இலங்கை
Trincomalee	Sampur	Patalipuram Health Medical Centre	False	False	TRNCMLSMPRPTLPRMHLTHMDCLCNTR		Trincomalee	LK-53	8.551241	81.092014									#PoliceLocationUnknown	ත්රිකුණාමලය	සාම්පූර්	පාඨලීපුරම් සෞඛ්‍ය වෛද්‍ය මධ්‍යස්ථානය	திருகோணமலை	சம்பூர்	பாடலிபுரம் சுகாதார மருத்துவ மையம்		
Trincomalee	Pulmoddai	Pulmoddai Base Hospital	False	False	TRNCMLPLMDDPLMDDBSHSPTL	Base Hospital - Pulmoddai	Trincomalee	LK-53	8.551241	81.092014	Pulmudai	PS-530135	6.915266	79.87829	8.941204	80.983139	WXRM+F7J, Pulmoddai, Sri Lanka	256.112801	#CenterFarFromPolice	ත්රිකුණාමලය	පුල්මොඩෙයි	මූලික රෝහල - පුල්මොඩෙයි	திருகோணமலை	புல்மோட்டை	அடிப்படை மருத்துவமனை - புல்மோட்டை	ඩබ්ලිව්එක්ස්ආර්එම්+එෆ් 7 ජේ, පුල්මොඩෙයි, ශ්‍රී ලංකාව	WXRM+F7J, புல்மோடை, இலங்கை
Trincomalee	Pulmoddai	Tennamaranwadi Kovil	False	False	TRNCMLPLMDDTNNMRNWDKVL		Trincomalee	LK-53	8.551241	81.092014	Pulmudai	PS-530135	6.915266	79.87829	8.582639	81.245387	H6MW+352, Trincomalee, Sri Lanka	238.949313	#CenterFarFromPolice	ත්රිකුණාමලය	පුල්මොඩෙයි	තෙන්නමරන්වාඩි කෝවිල	திருகோணமலை	புல்மோட்டை	தென்னமரன்வாடி கோவில்	H6MW+352, ත්‍රිකුණාමලය, ශ්‍රී ලංකාව	H6MW+352, திருகோணமலை, இலங்கை
Trincomalee	Pulmoddai	Muslim National College	False	False	TRNCMLPLMDDMSLMNTNLCLLG		Trincomalee	LK-53	8.551241	81.092014	Pulmudai	PS-530135	6.915266	79.87829	8.940296	80.985139	B60, Pulmoddai, Sri Lanka	256.12882	#CenterFarFromPolice	ත්රිකුණාමලය	පුල්මොඩෙයි	මුස්ලිම් ජාතික විද්‍යාලය	திருகோணமலை	புல்மோட்டை	முஸ்லிம் தேசிய கல்லூரி	බී 60, පුල්මොඩෙයි, ශ්‍රී ලංකාව	பி 60, புல்மோடை, இலங்கை
Trincomalee	Serunuwara	Serunuwara Hospital	False	False	TRNCMLSRNWRSRNWRHSPTL		Trincomalee	LK-53	8.551241	81.092014	Serunuwara	PS-530244	8.321863	81.299322	8.322964	81.299734	Allai-Kantalai Rd, Sri Lanka	0.130589		ත්රිකුණාමලය	සේරුනුවර	සේරුනුවර රෝහල	திருகோணமலை	சேருநுவரா	சேருநுவரா மருத்துவமனை	අල්ලෙයි-කන්තලායි පාර, ශ්‍රී ලංකාව	அல்லை-கந்தளாய் சாலை, இலங்கை
Trincomalee	Serunuwara	MOH Office - Serunuwara	False	False	TRNCMLSRNWRMHFFCSRNWR		Trincomalee	LK-53	8.551241	81.092014	Serunuwara	PS-530244	8.321863	81.299322	8.323143	81.299894	B10, Sri Lanka	0.155671		ත්රිකුණාමලය	සේරුනුවර	MOH කාර්යාලය - සේරුනුවර	திருகோணமலை	சேருநுவரா	MOH அலுவலகம் - சேருநுவரா	බී 10, ශ්‍රී ලංකාව	பி 10, இலங்கை
Trincomalee	Serunuwara	Dehiwatta Vidyalaya	False	False	TRNCMLSRNWRDHWTTVDYLY		Trincomalee	LK-53	8.551241	81.092014	Serunuwara	PS-530244	8.321863	81.299322	8.357931	81.271965	975C+5QG, Trincomalee, Sri Lanka	5.015912		ත්රිකුණාමලය	සේරුනුවර	දෙහිවත්ත විද්‍යාලය	திருகோணமலை	சேருநுவரா	தெஹிவத்த வித்தியாலயம்	975C+5QG, ත්‍රිකුණාමලය, ශ්‍රී ලංකාව	975C+5QG, திருகோணமலை, இலங்கை
Trincomalee	Morawewa	Mahadivulwewa Hospital	False	False	TRNCMLMRWWMHDVLWWHSPTL		Trincomalee	LK-53	8.551241	81.092014	Morawewa	PS-530247	8.630317	81.031386	8.620893	80.968736	JXC9+9F5, Mahadivul Wewa, Sri Lanka	6.969016		ත්රිකුණාමලය	මොරවැව	මහදිවුල්වැව රෝහල	திருகோணமலை	மொரவெவ	மஹாதிவுல்வேவா மருத்துவமனை	JXC9+9F5, මහදිවුල් වැව, ශ්‍රී ලංකාව	JXC9+9F5, மகாதிவுல் வெவா, இலங்கை
Trincomalee	Harbour Police	MOH Office - Trincomalee	False	False	TRNCMLHRBRPLCMHFFCTRNCML		Trincomalee	LK-53	8.551241	81.092014	Trinco Harbour Police	PS-530131	8.56705	81.231407	8.598974	81.216963	MOH Office, Farm Rd, Trincomalee, Sri Lanka	3.890062		ත්රිකුණාමලය	වරාය පොලිසිය	එම්ඕඑච් කාර්යාලය - ත්‍රිකුණාමලය	திருகோணமலை	துறைமுக காவல்துறை	MOH அலுவலகம் - திருகோணமலை	එම්ඕඑච් කාර්යාලය, ගොවිපල පාර, ත්‍රිකුණාමලය, ශ්‍රී ලංකාව	MOH அலுவலகம், பண்ணை சாலை, திருகோணமலை, இலங்கை
Trincomalee	Harbour Police	Trincomalee Base Hospital	False	False	TRNCMLHRBRPLCTRNCMLBSHSPTL		Trincomalee	LK-53	8.551241	81.092014	Trinco Harbour Police	PS-530131	8.56705	81.231407	8.56486	81.239445	Hospital Ln, Trincomalee, Sri Lanka	0.917037		ත්රිකුණාමලය	වරාය පොලිසිය	ත්‍රිකුණාමලය මූලික රෝහල	திருகோணமலை	துறைமுக காவல்துறை	திருகோணமலை ஆதார மருத்துவமனை	රෝහල, ත්‍රිකුණාමලය, ශ්‍රී ලංකාව	மருத்துவமனை Ln, திருகோணமலை, இலங்கை
Trincomalee	Uppuveli	MOH Office - Uppuveli	False	False	TRNCMLPPVLMHFFCPPVL		Trincomalee	LK-53	8.551241	81.092014	Uppuweli	PS-530134	8.593614	81.21743	8.607961	81.216512	Nilaveli Rd, Trincomalee, Sri Lanka	1.599005		ත්රිකුණාමලය	උප්පුවේලි	MOH කාර්යාලය - උප්පුවේලි	திருகோணமலை	உப்புவேலி	MOH அலுவலகம் - உப்புவேலி	නිලාවේලි පාර, ත්‍රිකුණාමලය, ශ්‍රී ලංකාව	நிலவேலி வீதி, திருகோணமலை, இலங்கை
Trincomalee	Ichchalampattu	MOH Office - Ichchalampattu	False	False	TRNCMLCHCHLMPTTMHFFCCHCHLMPTT	Eachchilampattu Hospital	Trincomalee	LK-53	8.551241	81.092014	Ichchalampattu		8.289549	81.359002	8.289644	81.358983	Highway, Ichchalampattu, Trincomalee, Sri Lanka	0.010772		ත්රිකුණාමලය	ඉච්චලම්පත්තු	එක්ර්චිලම්පත්තු රෝහල	திருகோணமலை	இச்சலம்பட்டு	ஒவ்வொருசிலம்பட்டு மருத்துவமனை	අධිවේගී මාර්ගය, ඉච්චලම්පත්තු, ත්‍රිකුණාමලය, ශ්‍රී ලංකාව	நெடுஞ்சாலை, ஈச்சலாம்பட்டு, திருகோணமலை, இலங்கை
Trincomalee	Ichchalampattu	Valathottam Vidyalaya	False	False	TRNCMLCHCHLMPTTVLTHTTMVDYLY		Trincomalee	LK-53	8.551241	81.092014	Ichchalampattu		8.289549	81.359002	8.289549	81.358986	Trincomalee Hwy, Sri Lanka	0.001761		ත්රිකුණාමලය	ඉච්චලම්පත්තු	වලතෝට්ටම් විද්‍යාලය	திருகோணமலை	இச்சலம்பட்டு	வளத்தோட்டம் வித்யாலயா	ත්‍රිකුණාමලය හ්වි, ශ්‍රී ලංකාව	திருகோணமலை Hwy, இலங்கை
Trincomalee	Ichchalampattu	Ilangathurai Mohottuvaram Vidyalaya	False	False	TRNCMLCHCHLMPTTLNGTHRMHTTVRMVDYLY		Trincomalee	LK-53	8.551241	81.092014	Ichchalampattu		8.289549	81.359002	8.574433	81.234967	Dockyard Rd, Trincomalee, Sri Lanka	34.501425	#CenterFarFromPolice	ත්රිකුණාමලය	ඉච්චලම්පත්තු	ඉලංගතුරෙයි මොහොතුවරම් විද්‍යාලය	திருகோணமலை	இச்சலம்பட்டு	இளங்காதுரை மொஹோட்டுவரம் வித்யாலயா	ඩොක්යාඩ් පාර, ත්‍රිකුණාමලය, ශ්‍රී ලංකාව	கப்பல்துறை சாலை, திருகோணமலை, இலங்கை
Trincomalee	Thambalagamuwa	Thambalagamuwa Hospital	False	False	TRNCMLTHMBLGMWTHMBLGMWHSPTL		Trincomalee	LK-53	8.551241	81.092014	Thambalagamuva	PS-530243	6.907289	79.863819	8.477589	81.108949	F4H5+2HP, Trincomalee, Sri Lanka	222.134461	#CenterFarFromPolice	ත්රිකුණාමලය	තඹලගමුව	තම්බලගමුව රෝහල	திருகோணமலை	தம்பலகாமுவா	தம்பலகாமுவ மருத்துவமனை	F4H5+2HP, ත්‍රිකුණාමලය, ශ්‍රී ලංකාව	F4H5+2HP, திருகோணமலை, இலங்கை
Trincomalee	Thambalagamuwa	Mollipathana Sinhala Maha Vidyalaya	False	False	TRNCMLTHMBLGMWMLLPTHNSNHLMHVDYLY		Trincomalee	LK-53	8.551241	81.092014	Thambalagamuva	PS-530243	6.907289	79.863819	8.491061	81.104748	potkerney Thampalagamam, Sri Lanka	223.028906	#CenterFarFromPolice	ත්රිකුණාමලය	තඹලගමුව	මොල්ලිපතන සිංහල මහා විද්‍යාලය	திருகோணமலை	தம்பலகாமுவா	மொல்லிபத்தான சிங்கள மகா வித்தியாலயம்	පොට්කර්නි තම්පලාගමම්, ශ්‍රී ලංකාව	பாட்கர்னி தம்பலகாமம், இலங்கை
Trincomalee	Thambalagamuwa	Al Hijma Muslim Vidyalaya	False	False	TRNCMLTHMBLGMWLHJMMSLMVDYLY		Trincomalee	LK-53	8.551241	81.092014	Thambalagamuva	PS-530243	6.907289	79.863819	6.92897	79.874814	WVHF+HWP, Colombo 01000, Sri Lanka	2.699935		ත්රිකුණාමලය	තඹලගමුව	අල් හිජ්මා මුස්ලිම් විද්‍යාලය	திருகோணமலை	தம்பலகாமுவா	அல் ஹிஜ்மா முஸ்லிம் வித்யாலயா	ඩබ්ලිව්වීඑච්එෆ්+එච්ඩබ්ලිව්පී, කොළඹ 01000, ශ්‍රී ලංකාව	WVHF+HWP, கொழும்பு 01000, இலங்கை
Trincomalee	Thambalagamuwa	MOH Office - Thambalagamuwa	False	False	TRNCMLTHMBLGMWMHFFCTHMBLGMW		Trincomalee	LK-53	8.551241	81.092014	Thambalagamuva	PS-530243	6.907289	79.863819	8.563603	81.239584	Hospital Ln, Trincomalee, Sri Lanka	238.604889	#CenterFarFromPolice	ත්රිකුණාමලය	තඹලගමුව	MOH කාර්යාලය - තඹලගමුව	திருகோணமலை	தம்பலகாமுவா	MOH அலுவலகம் - தம்பலகமுவ	රෝහල, ත්‍රිකුණාමලය, ශ්‍රී ලංකාව	மருத்துவமனை Ln, திருகோணமலை, இலங்கை
Trincomalee	Gomarankadawala	MOH Office - Gomarankadawala	False	False	TRNCMLGMRNKDWLMHFFCGMRNKDWL		Trincomalee	LK-53	8.551241	81.092014	Gomarankadawala	PS-530248	8.674487	80.967555	8.674726	80.955691	Unnamed Road, Gomarankadawala, Sri Lanka	1.304806		ත්රිකුණාමලය	ගෝමරන්කඩවල	එම්ඕඑච් කාර්යාලය - ගෝමරන්කඩවල	திருகோணமலை	கோமரன்கடவாலா	MOH அலுவலகம் - கோமரன்கடவாலா	නම් නොකළ පාර, ගෝමරන්කඩවල, ශ්‍රී ලංකාව	பெயரிடப்படாத சாலை, கோமரன்கடவாலா, இலங்கை
Batticaloa	Batticaloa	Twon Hall - Batticaloa	False	False	BTTCLBTTCLTWNHLLBTTCL		Batticaloa	LK-51	7.792772	81.486513	Batticaloa	PS-510101	7.717949	81.699294	7.710065	81.700802	PP62+28F, Batticaloa, Sri Lanka	0.89255		මඩකලපුව	මඩකලපුව	ට්වෝන් හෝල් - මඩකලපුව	மட்டக்களப்பு	மட்டக்களப்பு	இரட்டை மண்டபம் - மட்டக்களப்பு	පීපී 62+28 එෆ්, මඩකලපුව, ශ්‍රී ලංකාව	PP62+28F, மட்டக்களப்பு, இலங்கை
Batticaloa	Batticaloa	Twon Hall Pre School	False	False	BTTCLBTTCLTWNHLLPRSCHL		Batticaloa	LK-51	7.792772	81.486513	Batticaloa	PS-510101	7.717949	81.699294	7.698052	81.672478	Unnamed Road, Batticaloa, Sri Lanka	3.692516		මඩකලපුව	මඩකලපුව	ට්වෝන් හෝල් පෙර පාසල	மட்டக்களப்பு	மட்டக்களப்பு	இரட்டை ஹால் முன் பள்ளி	නම් නොකළ පාර, මඩකලපුව, ශ්‍රී ලංකාව	பெயரிடப்படாத சாலை, மட்டக்களப்பு, இலங்கை
Batticaloa	Batticaloa	St. Sebastian's Church	False	False	BTTCLBTTCLSTSBSTNSCHRCH		Batticaloa	LK-51	7.792772	81.486513	Batticaloa	PS-510101	7.717949	81.699294	7.719961	81.704521	76 St Sebastian St, Batticaloa, Sri Lanka	0.618172		මඩකලපුව	මඩකලපුව	ශාන්ත සෙබස්තියන් දේවස්ථානය	மட்டக்களப்பு	மட்டக்களப்பு	செயின்ட் செபாஸ்டியன் தேவாலயம்	76 ශාන්ත සෙබස්තියන් ශාන්ත, මඩකලපුව, ශ්‍රී ලංකාව	76 செயின்ட் செபாஸ்டியன் செயின்ட், மட்டக்களப்பு, இலங்கை
Batticaloa	Batticaloa	Swami Vipulananda Vidyalaya - Navankuda	False	False	BTTCLBTTCLSWMVPLNNDVDYLYNVNKD		Batticaloa	LK-51	7.792772	81.486513	Batticaloa	PS-510101	7.717949	81.699294	7.70014	81.718098	Swami Vipulananda Institute of Aesthetic Studies, Batticaloa, Sri Lanka	2.86703		මඩකලපුව	මඩකලපුව	ස්වාමි විපුලානන්ද විද්‍යාලය - නවන්කුඩා	மட்டக்களப்பு	மட்டக்களப்பு	சுவாமி விபுலானந்தா வித்யாலயா - நாவன்குடா	ස්වාමි විපුලානන්ද සෞන්දර්ය අධ්‍යයන ආයතනය, මඩකලපුව, ශ්‍රී ලංකාව	சுவாமி விபுலானந்தா அழகியல் ஆய்வுக் கழகம், மட்டக்களப்பு, இலங்கை
Batticaloa	Batticaloa	Kokuvil Wigneswara Vidyalaya	False	False	BTTCLBTTCLKKVLWGNSWRVDYLY		Batticaloa	LK-51	7.792772	81.486513	Batticaloa	PS-510101	7.717949	81.699294	7.740271	81.668393	PMR9+492, Batticaloa, Sri Lanka	4.214732		මඩකලපුව	මඩකලපුව	කොකුවිල් විග්නේෂ්වර විද්‍යාලය	மட்டக்களப்பு	மட்டக்களப்பு	கொக்குவில் விக்னேஸ்வரா வித்தியாலயம்	PMR9+492, මඩකලපුව, ශ්‍රී ලංකාව	PMR9+492, மட்டக்களப்பு, இலங்கை
Batticaloa	Batticaloa	Wichchukalmunai Annamalai Vidyalaya	False	False	BTTCLBTTCLWCHCHKLMNNNMLVDYLY		Batticaloa	LK-51	7.792772	81.486513	Batticaloa	PS-510101	7.717949	81.699294	7.7114	81.696117	PM6W+HC9, Batticaloa, Sri Lanka	0.808243		මඩකලපුව	මඩකලපුව	විච්චුකල්මුනේ අන්නමලෙයි විද්‍යාලය	மட்டக்களப்பு	மட்டக்களப்பு	விச்சுகல்முனை அண்ணாமலை வித்தியாலயம்	PM6W+HC9, මඩකලපුව, ශ්‍රී ලංකාව	PM6W+HC9, மட்டக்களப்பு, இலங்கை
Batticaloa	Batticaloa	MOH Office - Batticaloa	False	False	BTTCLBTTCLMHFFCBTTCL		Batticaloa	LK-51	7.792772	81.486513	Batticaloa	PS-510101	7.717949	81.699294	7.708253	81.691368	Hospital Rd, Batticaloa, Sri Lanka	1.387934		මඩකලපුව	මඩකලපුව	MOH කාර්යාලය - මඩකලපුව	மட்டக்களப்பு	மட்டக்களப்பு	MOH அலுவலகம் - மட்டக்களப்பு	රෝහල පාර, මඩකලපුව, ශ්‍රී ලංකාව	மருத்துவமனை சாலை, மட்டக்களப்பு, இலங்கை
Batticaloa	Kaluwanchikudy	Mahulur Vidyalaya	False	False	BTTCLKLWNCHKDYMHLRVDYLY		Batticaloa	LK-51	7.792772	81.486513	Kalawanchikudy	PS-510110	7.515908	81.787051	7.720143	81.700516	PPC2+362, Batticaloa, Sri Lanka	24.63901	#CenterFarFromPolice	මඩකලපුව	කළුවන්චිකුඩි	මහුලූර් විද්‍යාලය	மட்டக்களப்பு	களுவாஞ்சிக்குடி	மஹுலூர் வித்யாலயா	පීපීසී 2+362, මඩකලපුව, ශ්‍රී ලංකාව	PPC2+362, மட்டக்களப்பு, இலங்கை
Batticaloa	Kaluwanchikudy	Ondachchimadam Vidyalaya	False	False	BTTCLKLWNCHKDYNDCHCHMDMVDYLY		Batticaloa	LK-51	7.792772	81.486513	Kalawanchikudy	PS-510110	7.515908	81.787051	7.500335	81.806898	GR24+4QJ, Kaluwanchikudy, Sri Lanka	2.791174		මඩකලපුව	කළුවන්චිකුඩි	ඔණ්ඩච්චිමඩම් විද්‍යාලය	மட்டக்களப்பு	களுவாஞ்சிக்குடி	ஒண்டச்சிமடம் வித்யாலயா	GR24+4QJ, කළුවන්චිකුඩි, ශ්‍රී ලංකාව	GR24+4QJ, களுவாஞ்சிக்குடி, இலங்கை
Batticaloa	Kaluwanchikudy	Kaluwanchikudy Hospital	False	False	BTTCLKLWNCHKDYKLWNCHKDYHSPTL	Base Hospital - Kaluwanchikudy	Batticaloa	LK-51	7.792772	81.486513	Kalawanchikudy	PS-510110	7.515908	81.787051	7.51724	81.785184	GQ8P+V3V, Kaluwanchikudy, Sri Lanka	0.25365		මඩකලපුව	කළුවන්චිකුඩි	මූලික රෝහල - කළුවන්චිකුඩි	மட்டக்களப்பு	களுவாஞ்சிக்குடி	அடிப்படை மருத்துவமனை - களுவாஞ்சிக்குடி	GQ8P+V3V, කළුවාංචිකුඩි, ශ්‍රී ලංකාව	GQ8P+V3V, களுவாஞ்சிக்குடி, இலங்கை
Batticaloa	Valachchenai	Valachchenai Base Hospital	False	False	BTTCLVLCHCHNVLCHCHNBSHSPTL		Batticaloa	LK-51	7.792772	81.486513	Valachchanai	PS-510107	7.908015	81.533004	7.911315	81.533046	Valaichchenai-Nasuvantivu-Navaladi Road, Sri Lanka	0.367088		මඩකලපුව	වාලච්චේන	වාලච්චේන මූලික රෝහල	மட்டக்களப்பு	வாலாச்சேனை	வாலாச்சேனை ஆதார மருத்துவமனை	වාලච්චේනයි-නසුවන්ටිව්-නවාලාඩි පාර, ශ්‍රී ලංකාව	வாழைச்சேனை-நசுவந்திவு-நாவலடி சாலை, இலங்கை
Batticaloa	Valachchenai	MOH Office - Oddamavadi	False	False	BTTCLVLCHCHNMHFFCDDMVD		Batticaloa	LK-51	7.792772	81.486513	Valachchanai	PS-510107	7.908015	81.533004	7.912281	81.532775	WG6M+W46, Batticaloa, Sri Lanka	0.475177		මඩකලපුව	වාලච්චේන	එම්ඕඑච් කාර්යාලය - ඔද්දමවඩි	மட்டக்களப்பு	வாலாச்சேனை	MOH அலுவலகம் - ஓட்டமாவடி	WG6M+W46, මඩකලපුව, ශ්‍රී ලංකාව	WG6M+W46, மட்டக்களப்பு, இலங்கை
Batticaloa	Valachchenai	MOH Office - Navalady	False	False	BTTCLVLCHCHNMHFFCNVLDY		Batticaloa	LK-51	7.792772	81.486513	Valachchanai	PS-510107	7.908015	81.533004	7.708253	81.691368	Hospital Rd, Batticaloa, Sri Lanka	28.253495	#CenterFarFromPolice	මඩකලපුව	වාලච්චේන	MOH කාර්යාලය - නාවලඩි	மட்டக்களப்பு	வாலாச்சேனை	MOH அலுவலகம் - நாவலடி	රෝහල පාර, මඩකලපුව, ශ්‍රී ලංකාව	மருத்துவமனை சாலை, மட்டக்களப்பு, இலங்கை
Batticaloa	Valachchenai	MOH Office - Valachchenai	False	False	BTTCLVLCHCHNMHFFCVLCHCHN		Batticaloa	LK-51	7.792772	81.486513	Valachchanai	PS-510107	7.908015	81.533004	7.912281	81.532775	WG6M+W46, Batticaloa, Sri Lanka	0.475177		මඩකලපුව	වාලච්චේන	MOH කාර්යාලය - වාලච්චේන	மட்டக்களப்பு	வாலாச்சேனை	MOH அலுவலகம் - வாலாச்சேனை	WG6M+W46, මඩකලපුව, ශ්‍රී ලංකාව	WG6M+W46, மட்டக்களப்பு, இலங்கை
Batticaloa	Valachchenai	MOH Office - Kiran	False	False	BTTCLVLCHCHNMHFFCKRN		Batticaloa	LK-51	7.792772	81.486513	Valachchanai	PS-510107	7.908015	81.533004	7.502211	79.839254	GR2Q+VPJ, Madampe, Sri Lanka	192.073036	#CenterFarFromPolice	මඩකලපුව	වාලච්චේන	MOH කාර්යාලය - කිරාන්	மட்டக்களப்பு	வாலாச்சேனை	MOH அலுவலகம் - கிரண்	GR2Q+VPJ, මාදම්පේ, ශ්‍රී ලංකාව	GR2Q+VPJ, மாதம்பே, இலங்கை
Batticaloa	Vakarai	MOH Office - Vakarai	False	False	BTTCLVKRMHFFCVKR	Divisional Hospital Vakarai	Batticaloa	LK-51	7.792772	81.486513	Wakarai	PS-510109	6.934132	79.856305	8.134552	81.435328	Trincomalee Hwy, Vakarai, Sri Lanka	219.417822	#CenterFarFromPolice	මඩකලපුව	වාකරේ	වාකරේ ප්‍රාදේශීය රෝහල	மட்டக்களப்பு	வாகரை	வாகரை பிரதேச மருத்துவமனை	ත්‍රිකුණාමලය හ්වි, වාකරේ, ශ්‍රී ලංකාව	திருகோணமலை Hwy, வாகரை, இலங்கை
Batticaloa	Kattankudy	MOH Office - Kattankudy	False	False	BTTCLKTTNKDYMHFFCKTTNKDY		Batticaloa	LK-51	7.792772	81.486513	Kaththankudi	PS-510103	7.715979	81.698757	7.683586	81.730767	MPMJ+C8J, Kattankudy, Sri Lanka	5.042961		මඩකලපුව	කාත්තන්කුඩි	MOH කාර්යාලය - කාත්තන්කුඩි	மட்டக்களப்பு	காத்தான்குடி	MOH அலுவலகம் - காத்தான்குடி	එම්පීඑම්ජේ+සී 8 ජේ, කාත්තන්කුඩි, ශ්‍රී ලංකාව	MPMJ+C8J, காத்தான்குடி, இலங்கை
Batticaloa	Kattankudy	MOH Office - Arayampathy	False	False	BTTCLKTTNKDYMHFFCRYMPTHY		Batticaloa	LK-51	7.792772	81.486513	Kaththankudi	PS-510103	7.715979	81.698757	7.672862	81.735019	MPFP+42R, Sri Lanka	6.243191		මඩකලපුව	කාත්තන්කුඩි	MOH කාර්යාලය - අරයම්පති	மட்டக்களப்பு	காத்தான்குடி	MOH அலுவலகம் - ஆரையம்பதி	එම්පීඑෆ්පී+42 ආර්, ශ්‍රී ලංකාව	MPFP+42R, இலங்கை
Batticaloa	Eravur	Sandiveli Hospital	False	False	BTTCLRVRSNDVLHSPTL		Batticaloa	LK-51	7.792772	81.486513	Eravur	PS-510104	7.715979	81.698757	7.777289	81.602853	Trincomalee Hwy, Eravur, Sri Lanka	12.578998		මඩකලපුව	එරාවුර්	සඳිවේලි රෝහල	மட்டக்களப்பு	ஏறாவூர்	சண்டிவேலி மருத்துவமனை	ත්‍රිකුණාමලය හ්වි, එරාවුර්, ශ්‍රී ලංකාව	திருகோணமலை Hwy, ஏறாவூர், இலங்கை
Batticaloa	Eravur	Athankara Mosque	False	False	BTTCLRVRTHNKRMSQ		Batticaloa	LK-51	7.792772	81.486513	Eravur	PS-510104	7.715979	81.698757	7.77695	81.603604	Trincomalee Road, Eravur, Sri Lanka	12.489014		මඩකලපුව	එරාවුර්	අතංකර මුස්ලිම් පල්ලිය	மட்டக்களப்பு	ஏறாவூர்	ஆதங்கரா மசூதி	ත්‍රිකුණාමලය පාර, එරාවුර්, ශ්‍රී ලංකාව	திருகோணமலை சாலை, ஏறாவூர், இலங்கை
Batticaloa	Eravur	Akbar Mosque	False	False	BTTCLRVRKBRMSQ		Batticaloa	LK-51	7.792772	81.486513	Eravur	PS-510104	7.715979	81.698757	7.775776	81.606514	QJG4+8J6, Eravur, Sri Lanka	12.148969		මඩකලපුව	එරාවුර්	අක්බර් පල්ලිය	மட்டக்களப்பு	ஏறாவூர்	அக்பர் மசூதி	QJG4+8J6, එරාවුර්, ශ්‍රී ලංකාව	QJG4+8J6, ஏறாவூர், இலங்கை
Batticaloa	Eravur	Arumuhathankudi Iruppu Primary School	False	False	BTTCLRVRRMHTHNKDRPPPRMRYSCHL		Batticaloa	LK-51	7.792772	81.486513	Eravur	PS-510104	7.715979	81.698757	7.781715	81.601743	Eravur - 04, Chenkaladi, Sri Lanka	12.953304		මඩකලපුව	එරාවුර්	ආරුමුහතන්කුඩි ඉරුප්පු ප්‍රාථමික විද්‍යාලය	மட்டக்களப்பு	ஏறாவூர்	ஆறுமுகத்தான்குடி இருப்பு தொடக்கப்பள்ளி	එරාවුර් - 04, චෙන්කලාඩි, ශ්‍රී ලංකාව	ஏறாவூர் - 04, செங்கலடி, இலங்கை
Batticaloa	Eravur	Thalavai Clinic	False	False	BTTCLRVRTHLVCLNC		Batticaloa	LK-51	7.792772	81.486513	Eravur	PS-510104	7.715979	81.698757	7.777289	81.602853	Trincomalee Hwy, Eravur, Sri Lanka	12.578998		මඩකලපුව	එරාවුර්	තලවායි සායනය	மட்டக்களப்பு	ஏறாவூர்	தளவாய் கிளினிக்	ත්‍රිකුණාමලය හ්වි, එරාවුර්, ශ්‍රී ලංකාව	திருகோணமலை Hwy, ஏறாவூர், இலங்கை
Batticaloa	Eravur	Vinegar Vidyalaya	False	False	BTTCLRVRVNGRVDYLY		Batticaloa	LK-51	7.792772	81.486513	Eravur	PS-510104	7.715979	81.698757	7.781715	81.601743	Eravur - 04, Chenkaladi, Sri Lanka	12.953304		මඩකලපුව	එරාවුර්	විනාකිරි විද්‍යාලය	மட்டக்களப்பு	ஏறாவூர்	வினிகர் வித்யாலயா	එරාවුර් - 04, චෙන්කලාඩි, ශ්‍රී ලංකාව	ஏறாவூர் - 04, செங்கலடி, இலங்கை
Batticaloa	Eravur	Eravur Hospital	False	False	BTTCLRVRRVRHSPTL		Batticaloa	LK-51	7.792772	81.486513	Eravur	PS-510104	7.715979	81.698757	7.783168	81.605999	QJM4+799, Eravur 30300, Sri Lanka	12.663585		මඩකලපුව	එරාවුර්	එරාවුර් රෝහල	மட்டக்களப்பு	ஏறாவூர்	ஏறாவூர் மருத்துவமனை	QJM4+799, එරාවුර් 30300, ශ්‍රී ලංකාව	QJM4+799, ஏறாவூர் 30300, இலங்கை
Batticaloa	Eravur	Mawadiwembu Hospital	False	False	BTTCLRVRMWDWMBHSPTL		Batticaloa	LK-51	7.792772	81.486513	Eravur	PS-510104	7.715979	81.698757	7.808545	81.566328	Mawadiwembu Hospital, Sri Lanka	17.861302		මඩකලපුව	එරාවුර්	මාවඩිවේඹු රෝහල	மட்டக்களப்பு	ஏறாவூர்	மாவடிவெம்பு மருத்துவமனை	මාවඩිවේඹු රෝහල, ශ්‍රී ලංකාව	மாவடிவெம்பு மருத்துவமனை, இலங்கை
Batticaloa	Eravur	MOH Office - Chenkaladi	False	False	BTTCLRVRMHFFCCHNKLD		Batticaloa	LK-51	7.792772	81.486513	Eravur	PS-510104	7.715979	81.698757	7.783599	81.593367	Trincomalee Hwy, Chenkaladi 30350, Sri Lanka	13.837876		මඩකලපුව	එරාවුර්	MOH කාර්යාලය - චෙන්කලාඩි	மட்டக்களப்பு	ஏறாவூர்	MOH அலுவலகம் - செங்கலடி	ත්‍රිකුණාමලය හ්වි, චෙන්කලාඩි 30350, ශ්‍රී ලංකාව	திருகோணமலை Hwy, செங்கலடி 30350, இலங்கை
Batticaloa	Eravur	Sitthandi Central College	False	False	BTTCLRVRSTTHNDCNTRLCLLG		Batticaloa	LK-51	7.792772	81.486513	Eravur	PS-510104	7.715979	81.698757	7.785947	81.590295	Trincomalee Road, Chenkaladi, Sri Lanka	14.264135		මඩකලපුව	එරාවුර්	සිත්තන්දි මධ්‍ය විද්‍යාලය	மட்டக்களப்பு	ஏறாவூர்	சித்தாண்டி மத்திய கல்லூரி	ත්‍රිකුණාමලය පාර, චෙන්කලාඩි, ශ්‍රී ලංකාව	திருகோணமலை சாலை, செங்கலடி, இலங்கை
Batticaloa	Eravur	Wandaramulla Vidyalaya	False	False	BTTCLRVRWNDRMLLVDYLY		Batticaloa	LK-51	7.792772	81.486513	Eravur	PS-510104	7.715979	81.698757	7.781715	81.601743	Eravur - 04, Chenkaladi, Sri Lanka	12.953304		මඩකලපුව	එරාවුර්	වන්දාරමුල්ල විද්‍යාලය	மட்டக்களப்பு	ஏறாவூர்	வந்தாரமுல்லா வித்யாலயா	එරාවුර් - 04, චෙන්කලාඩි, ශ්‍රී ලංකාව	ஏறாவூர் - 04, செங்கலடி, இலங்கை
Batticaloa	Vavunathivu	MOH Office - Vavunathivu	False	False	BTTCLVVNTHVMHFFCVVNTHV		Batticaloa	LK-51	7.792772	81.486513	Vavunathive	PS-510102	6.933075	79.857181	7.708253	81.691368	Hospital Rd, Batticaloa, Sri Lanka	219.95575	#CenterFarFromPolice	මඩකලපුව	වවුනතිව්	MOH කාර්යාලය - වවුනතිව්	மட்டக்களப்பு	வவுணதீவு	MOH அலுவலகம் - வவுணதீவு	රෝහල පාර, මඩකලපුව, ශ්‍රී ලංකාව	மருத்துவமனை சாலை, மட்டக்களப்பு, இலங்கை
Batticaloa	Vavunathivu	Navathkadu Clinic	False	False	BTTCLVVNTHVNVTHKDCLNC		Batticaloa	LK-51	7.792772	81.486513	Vavunathive	PS-510102	6.933075	79.857181	7.708032	81.690622	Hospital Ln, Batticaloa 30000, Sri Lanka	219.870447	#CenterFarFromPolice	මඩකලපුව	වවුනතිව්	නවත්කාඩු සායනය	மட்டக்களப்பு	வவுணதீவு	நவத்காடு மருத்துவமனை	රෝහල, මඩකලපුව 30000, ශ්‍රී ලංකාව	மருத்துவமனை Ln, மட்டக்களப்பு 30000, இலங்கை
Batticaloa	Vavunathivu	Mandapattadi Hospital	False	False	BTTCLVVNTHVMNDPTTDHSPTL		Batticaloa	LK-51	7.792772	81.486513	Vavunathive	PS-510102	6.933075	79.857181	7.719015	81.701193	91 Pioneer Rd, Batticaloa, Sri Lanka	221.420894	#CenterFarFromPolice	මඩකලපුව	වවුනතිව්	මණ්ඩපට්ටඩි රෝහල	மட்டக்களப்பு	வவுணதீவு	மண்டப்பட்டி மருத்துவமனை	91 පුරෝගාමී පාර, මඩකලපුව, ශ්‍රී ලංකාව	91 முன்னோடி சாலை, மட்டக்களப்பு, இலங்கை
Batticaloa	Karadiyanaru	Pillamalai Vidyalaya	False	False	BTTCLKRDYNRPLLMLVDYLY		Batticaloa	LK-51	7.792772	81.486513	Karadiyanaru	PS-510105	7.701992	81.537252	7.720143	81.700516	PPC2+362, Batticaloa, Sri Lanka	18.108512		මඩකලපුව	කරදියනාරු	පිල්ලමලෙයි විද්‍යාලය	மட்டக்களப்பு	கரடியனாறு	பிள்ளாமலை வித்யாலயா	පීපීසී 2+362, මඩකලපුව, ශ්‍රී ලංකාව	PPC2+362, மட்டக்களப்பு, இலங்கை
Batticaloa	Karadiyanaru	Eralakulam  Vidayalaya	False	False	BTTCLKRDYNRRLKLMVDYLY		Batticaloa	LK-51	7.792772	81.486513	Karadiyanaru	PS-510105	7.701992	81.537252	7.700216	81.539779	PG2Q+3WJ, Karadiyanaru, Sri Lanka	0.341482		මඩකලපුව	කරදියනාරු	එරලකුලම් විදයාලය	மட்டக்களப்பு	கரடியனாறு	எரலகுளம் விடைலயா	PG2Q+3WJ, කරදියනාරු, ශ්‍රී ලංකාව	PG2Q+3WJ, கரடியனாறு, இலங்கை
Batticaloa	Karadiyanaru	Kumaraveliyar Vidyalaya	False	False	BTTCLKRDYNRKMRVLYRVDYLY		Batticaloa	LK-51	7.792772	81.486513	Karadiyanaru	PS-510105	7.701992	81.537252	7.720143	81.700516	PPC2+362, Batticaloa, Sri Lanka	18.108512		මඩකලපුව	කරදියනාරු	කුමාරවේලියර් විද්‍යාලය	மட்டக்களப்பு	கரடியனாறு	குமரவேலியார் வித்தியாலயம்	පීපීසී 2+362, මඩකලපුව, ශ්‍රී ලංකාව	PPC2+362, மட்டக்களப்பு, இலங்கை
Ampara	Ampara	Ampara Hospital	False	False	MPRMPRMPRHSPTL		Ampara	LK-52	7.23699	81.550391	Ampara	PS-520113	7.296771	81.677161	7.298334	81.690841	Dharmapala Mawatha, Ampara, Sri Lanka	1.519279		අම්පාර	අම්පාර	අම්පාර රෝහල	அம்பாறை	அம்பாறை	அம்பாறை மருத்துவமனை	ධර්මපාල මාවත, අම්පාර, ශ්‍රී ලංකාව	தர்மபால மாவத்தை, அம்பாறை, இலங்கை
Ampara	Ampara	MOH Office - Ampara	False	False	MPRMPRMHFFCMPR		Ampara	LK-52	7.23699	81.550391	Ampara	PS-520113	7.296771	81.677161	7.296412	81.689717	7MWQ+HV8, Ampara, Sri Lanka	1.385868		අම්පාර	අම්පාර	MOH කාර්යාලය - අම්පාර	அம்பாறை	அம்பாறை	MOH அலுவலகம் - அம்பாறை	7MWQ+HV8, අම්පාර, ශ්‍රී ලංකාව	7MWQ+HV8, அம்பாறை, இலங்கை
Ampara	Ampara	Polwatta Vidyalaya	False	False	MPRMPRPLWTTVDYLY		Ampara	LK-52	7.23699	81.550391	Ampara	PS-520113	7.296771	81.677161	7.234046	81.568438	Inginiyagala Road, Polwatta, Sri Lanka	13.877481		අම්පාර	අම්පාර	පොල්වත්ත විද්‍යාලය	அம்பாறை	அம்பாறை	பொல்வத்த வித்தியாலயம்	ඉඟිනියාගල පාර, පොල්වත්ත, ශ්‍රී ලංකාව	இங்கினியாகலா சாலை, போல்வத்தை, இலங்கை
Ampara	Chavalakade	MOH Office - Navidanveli	False	False	MPRCHVLKDMHFFCNVDNVL		Ampara	LK-52	7.23699	81.550391	Chawalakade	PS-520125	7.413559	81.776822	7.420081	81.788401	B77, Sri Lanka	1.468805		අම්පාර	චවලකඩේ	MOH කාර්යාලය - නාවිදන්වේලි	அம்பாறை	சவளகடே	MOH அலுவலகம் - நாவிதன்வெளி	බී 77, ශ්‍රී ලංකාව	பி 77, இலங்கை
Ampara	Chavalakade	5th Colony Health Centre	False	False	MPRCHVLKDTHCLNYHLTHCNTR		Ampara	LK-52	7.23699	81.550391	Chawalakade	PS-520125	7.413559	81.776822	7.418836	81.781436	Chavalakade, Sri Lanka	0.776867		අම්පාර	චවලකඩේ	5 වන ජනපද සෞඛ්‍ය මධ්‍යස්ථානය	அம்பாறை	சவளகடே	5 வது காலனி சுகாதார மையம்	චවලකඩේ, ශ්‍රී ලංකාව	சவளகடே, இலங்கை
Ampara	Karaitivu	MOH Office – Karaitivu	False	False	MPRKRTVMHFFCKRTV		Ampara	LK-52	7.23699	81.550391	Karaitivu		9.744059	79.870587	7.377712	81.838796	Colombo-Ratnapura-Wellawaya-Batticaloa Highway, Karativu 32250, Sri Lanka	340.788666	#CenterFarFromPolice	අම්පාර	කාරතිව්	MOH කාර්යාලය - කරෙයිතිව්	அம்பாறை	காரைதீவு	MOH அலுவலகம் - காரைதீவு	කොළඹ-රත්නපුර-වැල්ලවාය-මඩකලපුව අධිවේගී මාර්ගය, කරතිවු 32250, ශ්‍රී ලංකාව	கொழும்பு-இரத்தினபுரி-வெள்ளவாயா-மட்டக்களப்பு நெடுஞ்சாலை, காரடிவு 32250, இலங்கை
Ampara	Central Camp	Suhadagama Vidyalaya	False	False	MPRCNTRLCMPSHDGMVDYLY		Ampara	LK-52	7.23699	81.550391	Central Camp	PS-520118	7.414282	81.733257	7.397997	81.684382	9MXM+5QR, Sri Lanka	5.68718		අම්පාර	මධ්යම කඳවුර	සුහදගම විද්‍යාලය	அம்பாறை	மத்திய முகாம்	சுஹடகம வித்யாலயா	9MXM+5QR, ශ්‍රී ලංකාව	9MXM+5QR, இலங்கை
Ampara	Uhana	Thissapura Vidyalaya	False	False	MPRHNTHSSPRVDYLY		Ampara	LK-52	7.23699	81.550391	Uhana	PS-520116	7.362435	81.636035	7.308518	81.678836	Thissapura, Ampara, Sri Lanka	7.632915		අම්පාර	උහන	තිස්සපුර විද්‍යාලය	அம்பாறை	உஹானா	திசாபுரா வித்யாலயா	තිස්සපුර, අම්පාර, ශ්‍රී ලංකාව	திசாபுரா, அம்பாறை, இலங்கை
Ampara	Uhana	Kumarigama Vidyalaya	False	False	MPRHNKMRGMVDYLY		Ampara	LK-52	7.23699	81.550391	Uhana	PS-520116	7.362435	81.636035	7.389533	81.664119	Sri Lanka	4.322268		අම්පාර	උහන	කුමාරිගම විද්‍යාලය	அம்பாறை	உஹானா	குமரிகம வித்யாலயா	ශ්රී ලංකාව	இலங்கை
Ampara	Panama	Panama Maha Vidyalaya	False	False	MPRPNMPNMMHVDYLY		Ampara	LK-52	7.23699	81.550391	Panama	PS-520129	6.752004	81.79349	6.75636	81.805024	Panama Beach Rd, Panama, Sri Lanka	1.363043		අම්පාර	පැනමා	පැනමා මහා විද්‍යාලය	அம்பாறை	பனாமா	பனாமா மகா வித்தியாலயம்	පැනමා වෙරළ පාර, පැනමා, ශ්‍රී ලංකාව	பனாமா கடற்கரை சாலை, பனாமா, இலங்கை
Ampara	Eragama	MOH Office – Eragama	False	False	MPRRGMMHFFCRGM		Ampara	LK-52	7.23699	81.550391									#PoliceLocationUnknown	අම්පාර	එරගම	එම්ඕඑච් කාර්යාලය - එරගම	அம்பாறை	எரகம	MOH அலுவலகம் - எரகம		
Ampara	Pottuvil	GN - Pottuvil Sengamam	False	False	MPRPTTVLGNPTTVLSNGMM		Ampara	LK-52	7.23699	81.550391	Pothuvil	PS-520128	6.878387	81.826859	6.875271	81.830633	Pottuvil, Sri Lanka	0.542048		අම්පාර	පොතුවිල්	ජීඑන් - පොතුවිල් සෙංගම්	அம்பாறை	பொட்டுவில்	GN - பொத்துவில் செங்கமம்	පොතුවිල්, ශ්‍රී ලංකාව	பொத்துவில், இலங்கை
Ampara	Pottuvil	Pottuvil Base Hospital	False	False	MPRPTTVLPTTVLBSHSPTL		Ampara	LK-52	7.23699	81.550391	Pothuvil	PS-520128	6.878387	81.826859	6.876098	81.830463	Main Street Colombo - Batticaloa Hwy, Pottuvil 32500, Sri Lanka	0.47246		අම්පාර	පොතුවිල්	පොතුවිල් මූලික රෝහල	அம்பாறை	பொட்டுவில்	பொத்துவில் அடிப்படை மருத்துவமனை	කොළඹ ප්‍රධාන වීදිය - මඩකලපුව හ්වි, පොතුවිල් 32500, ශ්‍රී ලංකාව	பிரதான வீதி கொழும்பு - மட்டக்களப்பு Hwy, பொத்துவில் 32500, இலங்கை
Ampara	Pottuvil	Urani Kanagar Vidyalaya	False	False	MPRPTTVLRNKNGRVDYLY		Ampara	LK-52	7.23699	81.550391	Pothuvil	PS-520128	6.878387	81.826859	6.922707	81.845736	Colombo - Batticaloa Hwy, Sri Lanka	5.352293		අම්පාර	පොතුවිල්	යුරේනි කනගර් විද්‍යාලය	அம்பாறை	பொட்டுவில்	ஊரணி கனகர் வித்யாலயா	කොළඹ - මඩකලපුව හ්වි, ශ්‍රී ලංකාව	கொழும்பு - மட்டக்களப்பு Hwy, இலங்கை
Ampara	Pottuvil	Al Hidaya Vidyalaya	False	False	MPRPTTVLLHDYVDYLY		Ampara	LK-52	7.23699	81.550391	Pothuvil	PS-520128	6.878387	81.826859	6.878199	81.841868	VRHR+7PH, Pottuvil, Sri Lanka	1.657565		අම්පාර	පොතුවිල්	අල් හිදායා විද්‍යාලය	அம்பாறை	பொட்டுவில்	அல் ஹிதாயா வித்யாலயா	වීආර්එච්ආර්+7 පීඑච්, පොතුවිල්, ශ්‍රී ලංකාව	VRHR+7PH, பொத்துவில், இலங்கை
Ampara	Pottuvil	Hulannuge Vidyalaya	False	False	MPRPTTVLHLNNGVDYLY		Ampara	LK-52	7.23699	81.550391	Pothuvil	PS-520128	6.878387	81.826859	6.954907	81.669253	Hulannuge, Sri Lanka	19.372753		අම්පාර	පොතුවිල්	හුලන්නුගේ විද්‍යාලය	அம்பாறை	பொட்டுவில்	ஹுலன்னுகே வித்யாலயா	හුලන්නුගේ, ශ්‍රී ලංකාව	ஹுலன்னுகே, இலங்கை
Ampara	Thirukkovil	Superintendent Health Medical Office	False	False	MPRTHRKKVLSPRNTNDNTHLTHMDCLFFC		Ampara	LK-52	7.23699	81.550391	Thirukkovil	PS-520127	7.113998	81.852219	7.112417	81.852125	Colombo - Batticaloa Hwy, Thirukkovil, Sri Lanka	0.17616		අම්පාර	තිරුක්කෝවිල්	අධිකාරී සෞඛ්‍ය වෛද්‍ය කාර්යාලය	அம்பாறை	திருக்கோவில்	கண்காணிப்பாளர் சுகாதார மருத்துவ அலுவலகம்	කොළඹ - මඩකලපුව හ්වි, තිරුක්කෝවිල්, ශ්‍රී ලංකාව	கொழும்பு - மட்டக்களப்பு Hwy, திருக்கோவில், இலங்கை
Ampara	Thirukkovil	Mobile Vaccination	False	False	MPRTHRKKVLMBLVCCNTN		Ampara	LK-52	7.23699	81.550391	Thirukkovil	PS-520127	7.113998	81.852219					#CenterLocationUnknown	අම්පාර	තිරුක්කෝවිල්	ජංගම එන්නත	அம்பாறை	திருக்கோவில்	மொபைல் தடுப்பூசி		
Ampara	Akkaraipattu	MOH Office - Akkaraipattu	False	False	MPRKKRPTTMHFFCKKRPTT		Ampara	LK-52	7.23699	81.550391	Akkaraipattu	PS-520126	7.216084	81.853254	7.228134	81.851123	6VH2+7C5, Akkaraipattu, Sri Lanka	1.360772		අම්පාර	අක්කරපත්තුව	MOH කාර්යාලය - අක්කරපත්තුව	அம்பாறை	அக்கரைப்பற்று	MOH அலுவலகம் - அக்கரைப்பற்று	6VH2+7C5, අක්කරපත්තුව, ශ්‍රී ලංකාව	6VH2+7C5, அக்கரைப்பற்று, இலங்கை
Ampara	Akkaraipattu	MOH Office – Addalachenai	False	False	MPRKKRPTTMHFFCDDLCHN		Ampara	LK-52	7.23699	81.550391	Akkaraipattu	PS-520126	7.216084	81.853254	7.260916	81.853493	7V63+999, Addalaichenai, Sri Lanka	4.986726		අම්පාර	අක්කරපත්තුව	MOH කාර්යාලය - අද්දලචේනයි	அம்பாறை	அக்கரைப்பற்று	MOH அலுவலகம் - ஆடலச்சேனை	7V63+999, අද්දලෙයිචේනෙයි, ශ්‍රී ලංකාව	7V63+999, அடிலைச்சேனை, இலங்கை
Ampara	Akkaraipattu	MOH Office - Alayadivembu	False	False	MPRKKRPTTMHFFCLYDVMB		Ampara	LK-52	7.23699	81.550391	Akkaraipattu	PS-520126	7.216084	81.853254	7.228134	81.851123	6VH2+7C5, Akkaraipattu, Sri Lanka	1.360772		අම්පාර	අක්කරපත්තුව	එම්ඕඑච් කාර්යාලය - අලයාදිවෙම්බු	அம்பாறை	அக்கரைப்பற்று	MOH அலுவலகம் - ஆலையடிவேம்பு	6VH2+7C5, අක්කරපත්තුව, ශ්‍රී ලංකාව	6VH2+7C5, அக்கரைப்பற்று, இலங்கை
Ampara	Kalmunai	Ashraff Memorial Hospital	False	False	MPRKLMNSHRFFMMRLHSPTL		Ampara	LK-52	7.23699	81.550391	Kalmunai	PS-520123	7.414289	81.825006	7.403172	81.831146	A4, Ashraff Memorial Base Hospital, A4 A4, Kalmunai 32300, Sri Lanka	1.409859		අම්පාර	කල්මුණේ	අෂ්රොෆ් අනුස්මරණ රෝහල	அம்பாறை	கல்முனை	அஷ்ரஃப் நினைவு மருத்துவமனை	ඒ 4, අෂ්රොෆ් අනුස්මරණ මූලික රෝහල, ඒ 4 ඒ 4, කල්මුණේ 32300, ශ්‍රී ලංකාව	A4, அஷ்ரஃப் மெமோரியல் பேஸ் ஹாஸ்பிடல், A4 A4, கல்முனை 32300, இலங்கை
Ampara	Kalmunai	MOH Office - Kalmunai South	False	False	MPRKLMNMHFFCKLMNSTH		Ampara	LK-52	7.23699	81.550391	Kalmunai	PS-520123	7.414289	81.825006	7.411712	81.838462	CR6Q+M9P, Kalmunai 32300, Sri Lanka	1.511625		අම්පාර	කල්මුණේ	MOH කාර්යාලය - කල්මුණේ දකුණ	அம்பாறை	கல்முனை	MOH அலுவலகம் - கல்முனை தெற்கு	CR6Q+M9P, කල්මුණේ 32300, ශ්‍රී ලංකාව	CR6Q+M9P, கல்முனை 32300, இலங்கை
Ampara	Sainthamarthu	MOH Office – Sainthamarthu	False	False	MPRSNTHMRTHMHFFCSNTHMRTH		Ampara	LK-52	7.23699	81.550391									#PoliceLocationUnknown	අම්පාර	සයින්දමර්තු	MOH කාර්යාලය - සයින්දමර්තු	அம்பாறை	சாய்ந்தமருது	MOH அலுவலகம் - சாய்ந்தமருது		
Ampara	Sainthamarthu	Saindamarudu Hospital	False	False	MPRSNTHMRTHSNDMRDHSPTL		Ampara	LK-52	7.23699	81.550391									#PoliceLocationUnknown	අම්පාර	සයින්දමර්තු	සයින්දමරුදු රෝහල	அம்பாறை	சாய்ந்தமருது	சைந்தமருது மருத்துவமனை		
Ampara	Sammanthurai	Muslim Central College - Sammanthurai	False	False	MPRSMMNTHRMSLMCNTRLCLLGSMMNTHR		Ampara	LK-52	7.23699	81.550391	Samanthurai	PS-520124	7.365785	81.810859	7.370617	81.808855	AB33, Sammanthurai 32200, Sri Lanka	0.58115		අම්පාර	සමන්තුරේ	මුස්ලිම් මධ්‍ය විද්‍යාලය - සම්මන්තුරේ	அம்பாறை	சம்மாந்துறை	முஸ்லிம் மத்திய கல்லூரி - சம்மாந்துறை	ඒබී 33, සම්මන්තුරේ 32200, ශ්‍රී ලංකාව	ஏபி 33, சம்மாந்துறை 32200, இலங்கை
Ampara	Sammanthurai	Miranagar Health Centre	False	False	MPRSMMNTHRMRNGRHLTHCNTR		Ampara	LK-52	7.23699	81.550391	Samanthurai	PS-520124	7.365785	81.810859	7.359802	81.793874	Vilinaiyadi Rd, Sammanthurai, Sri Lanka	1.988336		අම්පාර	සමන්තුරේ	මිරානගර් සෞඛ්‍ය මධ්‍යස්ථානය	அம்பாறை	சம்மாந்துறை	மீராநகர் சுகாதார மையம்	විලිනියාඩි පාර, සම්මන්තුරේ, ශ්‍රී ලංකාව	விலினையாடி சாலை, சம்மாந்துறை, இலங்கை
Ampara	Sammanthurai	Vavvalodai Health Centre	False	False	MPRSMMNTHRVVVLDHLTHCNTR		Ampara	LK-52	7.23699	81.550391	Samanthurai	PS-520124	7.365785	81.810859	7.359802	81.793874	Vilinaiyadi Rd, Sammanthurai, Sri Lanka	1.988336		අම්පාර	සමන්තුරේ	වව්වලෝදායි සෞඛ්‍ය මධ්‍යස්ථානය	அம்பாறை	சம்மாந்துறை	வவ்வலோடை சுகாதார மையம்	විලිනියාඩි පාර, සම්මන්තුරේ, ශ්‍රී ලංකාව	விலினையாடி சாலை, சம்மாந்துறை, இலங்கை
Ampara	Sammanthurai	Arasadi Health Centre	False	False	MPRSMMNTHRRSDHLTHCNTR		Ampara	LK-52	7.23699	81.550391	Samanthurai	PS-520124	7.365785	81.810859	7.359802	81.793874	Vilinaiyadi Rd, Sammanthurai, Sri Lanka	1.988336		අම්පාර	සමන්තුරේ	අරසාදි සෞඛ්‍ය මධ්‍යස්ථානය	அம்பாறை	சம்மாந்துறை	அரசடி சுகாதார மையம்	විලිනියාඩි පාර, සම්මන්තුරේ, ශ්‍රී ලංකාව	விலினையாடி சாலை, சம்மாந்துறை, இலங்கை
Ampara	Sammanthurai	Attapalam Health Centre	False	False	MPRSMMNTHRTTPLMHLTHCNTR		Ampara	LK-52	7.23699	81.550391	Samanthurai	PS-520124	7.365785	81.810859	7.359802	81.793874	Vilinaiyadi Rd, Sammanthurai, Sri Lanka	1.988336		අම්පාර	සමන්තුරේ	අත්තපාලම් සෞඛ්‍ය මධ්‍යස්ථානය	அம்பாறை	சம்மாந்துறை	அட்டபாலம் சுகாதார மையம்	විලිනියාඩි පාර, සම්මන්තුරේ, ශ්‍රී ලංකාව	விலினையாடி சாலை, சம்மாந்துறை, இலங்கை
Ampara	Sammanthurai	Abdul Majeed Hall - Sammanthurai	False	False	MPRSMMNTHRBDLMJDHLLSMMNTHR		Ampara	LK-52	7.23699	81.550391	Samanthurai	PS-520124	7.365785	81.810859	7.363356	81.804123	9R73+8JX, Sammanthurai, Sri Lanka	0.790657		අම්පාර	සමන්තුරේ	අබ්දුල් මජීඩ් ශාලාව - සම්මන්තුරේ	அம்பாறை	சம்மாந்துறை	அப்துல் மஜீத் ஹால் - சம்மாந்துறை	9R73+8JX, සම්මන්තුරේ, ශ්‍රී ලංකාව	9R73+8JX, சம்மாந்துறை, இலங்கை
Ampara	Sammanthurai	MOH Office – Sammanthurai	False	False	MPRSMMNTHRMHFFCSMMNTHR		Ampara	LK-52	7.23699	81.550391	Samanthurai	PS-520124	7.365785	81.810859	7.369857	81.812264	9R96+WWR, Sammanthurai, Sri Lanka	0.478712		අම්පාර	සමන්තුරේ	MOH කාර්යාලය - සම්මන්තුරේ	அம்பாறை	சம்மாந்துறை	MOH அலுவலகம் - சம்மாந்துறை	9R96+ඩබ්ලිව්ඩබ්ලිව්ආර්, සම්මන්තුරේ, ශ්‍රී ලංකාව	9R96+WWR, சம்மாந்துறை, இலங்கை
Ampara	Sammanthurai	Sammanthurai Base Hospital	False	False	MPRSMMNTHRSMMNTHRBSHSPTL		Ampara	LK-52	7.23699	81.550391	Samanthurai	PS-520124	7.365785	81.810859	7.368355	81.813042	9R96+MWM, Hospital Rd, Sammanthurai, Sri Lanka	0.373773		අම්පාර	සමන්තුරේ	සමන්තුරේ මූලික රෝහල	அம்பாறை	சம்மாந்துறை	சம்மாந்துறை அடிப்படை மருத்துவமனை	9R96+MWM, රෝහල් පාර, සමන්තුරේ, ශ්‍රී ලංකාව	9R96+MWM, மருத்துவமனை சாலை, சம்மாந்துறை, இலங்கை
