district	police	center	dose1	dose2	fuzzy_key	alt_name	district_name_norm	district_id	district_lat	district_lng	ps_name_norm	ps_id	ps_lat	ps_lng	lat	lng	formatted_address	dis_center_to_police	tags
Colombo	Cinnamon Gardens	Viharamahadevi Park	False	False	CLMBCNNMNGRDNSVHRMHDVPRK		Colombo	LK-11	6.869636	80.019598	Cinnamon Garden	PS-110324	6.907289	79.863819	6.913391	79.86174	Viharamahadevi Park, Colombo, Sri Lanka	0.716497	
Colombo	Thalangama	Diyatha Uyana	False	False	CLMBTHLNGMDYTHYN		Colombo	LK-11	6.869636	80.019598	Thalangama	PS-110466	6.91089	79.929325	6.904575	79.909831	Diyatha Uyana, B240, Sri Jayawardenepura Kotte, Sri Lanka	2.264281	
Colombo	Thalangama	MOH Office - Battaramulla	False	False	CLMBTHLNGMMHFFCBTTRMLL		Colombo	LK-11	6.869636	80.019598	Thalangama	PS-110466	6.91089	79.929325	6.901538	79.919128	WW29+JM6, Battaramulla 10120, Sri Lanka	1.532936	
Colombo	Grandpass	Sugathadasa Outdoor Stadium	False	False	CLMBGRNDPSSSGTHDSTDRSTDM		Colombo	LK-11	6.869636	80.019598	Grandpass	PS-110215	6.949052	79.872983	6.94806	79.868842	Prince of Wales Ave, Colombo 01400, Sri Lanka	0.470345	
Colombo	Grandpass	Nawagampura Viharaya	False	False	CLMBGRNDPSSNWGMPRVHRY		Colombo	LK-11	6.869636	80.019598	Grandpass	PS-110215	6.949052	79.872983	6.943801	79.876504	Stace Rd, Colombo, Sri Lanka	0.701622	
Colombo	Narahenpita	Army Hospital Narahenpita	False	False	CLMBNRHNPTRMYHSPTLNRHNPT		Colombo	LK-11	6.869636	80.019598	Narahenpita	PS-110321	6.891832	79.876715	6.900252	79.87618	08 Elvitigala Mawatha, Colombo 00800, Sri Lanka	0.938417	
Colombo	Narahenpita	Army Headquarters Mobile Team	False	False	CLMBNRHNPTRMYHDQRTRSMBLTM		Colombo	LK-11	6.869636	80.019598	Narahenpita	PS-110321	6.891832	79.876715					#CenterLocationUnknown
Colombo	Boralesgamuwa	Kotelawala Defence Hospital	False	False	CLMBBRLSGMWKTLWLDFNCHSPTL		Colombo	LK-11	6.869636	80.019598	Boralesgamuwa	PS-110464	6.841331	79.901255	6.82518	79.907167	RWG4+3VF, Boralesgamuwa, Sri Lanka	1.911444	
Colombo	Boralesgamuwa	MOH Office – Werahera	False	False	CLMBBRLSGMWMHFFCWRHR		Colombo	LK-11	6.869636	80.019598	Boralesgamuwa	PS-110464	6.841331	79.901255	6.833094	79.905583	RWM4+66P, Boralesgamuwa, Sri Lanka	1.033386	
Colombo	Homagama	Panagoda Bodhirajarama Viharaya	False	False	CLMBHMGMPNGDBDHRJRMVHRY		Colombo	LK-11	6.869636	80.019598	Homagama	PS-110470	6.836155	80.003474	6.929161	79.88265	Gnanawimala Rd, Colombo, Sri Lanka	16.883101	
Colombo	Mount Lavinia	Park Road Maternity Clinic	False	False	CLMBMNTLVNPRKRDMTRNTYCLNC		Colombo	LK-11	6.869636	80.019598	Mount Lavinia	PS-110577	6.825006	79.87009	6.824371	79.872256	RVFC+PWR, Dehiwala-Mount Lavinia, Sri Lanka	0.249426	
Colombo	Maradana	National Hospital – Colombo	False	False	CLMBMRDNNTNLHSPTLCLMB		Colombo	LK-11	6.869636	80.019598	Maradana	PS-110107	6.927939	79.865471	6.918743	79.868992	Colombo 00700, Sri Lanka	1.094265	
Colombo	Maradana	Arnold Ratnayake Mawatha Community Hall	False	False	CLMBMRDNRNLDRTNYKMWTHCMMNTYHLL		Colombo	LK-11	6.869636	80.019598	Maradana	PS-110107	6.927939	79.865471	6.876704	79.879161	00600, Mugalan Rd, Colombo 00600, Sri Lanka	5.895952	
Colombo	Padukka	Siripiyarathana Primary School	False	False	CLMBPDKKSRPYRTHNPRMRYSCHL		Colombo	LK-11	6.869636	80.019598	Padukka	PS-110473	6.842195	80.09247					#CenterLocationUnknown
Colombo	Dehiwala	S. De. S. Jayasinghe Hall	False	False	CLMBDHWLSDSJYSNGHHLL		Colombo	LK-11	6.869636	80.019598	Dehiwala	PS-110580	6.850088	79.871696	6.861489	79.865045	B11, Dehiwala-Mount Lavinia, Sri Lanka	1.465485	
Colombo	Wellampitiya	MOH Office – Kolonnawa	False	False	CLMBWLLMPTYMHFFCKLNNW		Colombo	LK-11	6.869636	80.019598	Wellampitiya	PS-110465	6.937514	79.896298	6.922088	79.916237	Mandavila Rd, Kotikawatta, Sri Lanka	2.791266	
Colombo	Mulleriyawa	MOH Office - Gothatuwa	False	False	CLMBMLLRYWMHFFCGTHTW		Colombo	LK-11	6.869636	80.019598	Mulleriyawa	PS-110469	6.927187	79.929108	6.922088	79.916237	Mandavila Rd, Kotikawatta, Sri Lanka	1.530186	
Colombo	Kaduwela	MOH Office – Kaduwela	False	False	CLMBKDWLMHFFCKDWL		Colombo	LK-11	6.869636	80.019598	Kaduwela		6.936234	79.970183	6.934127	79.984398	B263, Kaduwela, Sri Lanka	1.586964	
Colombo	Kosgama	Kosgama Hospital	False	False	CLMBKSGMKSGMHSPTL		Colombo	LK-11	6.869636	80.019598	Kosgama	PS-920227	6.946597	80.137869	6.940956	80.124888	Salawa-Akarawita, 10730, Sri Lanka	1.564606	
Gampaha	Minuwangoda	Naiwala Viharaya	False	False	GMPHMNWNGDNWLVHRY		Gampaha	LK-12	7.123598	80.018508	Minuwangoda	PS-120238	7.174215	79.957874	7.110015	79.989902	4X6Q+2X2, Gampaha, Sri Lanka	7.967951	
Gampaha	Minuwangoda	Polwatta Viharaya	False	False	GMPHMNWNGDPLWTTVHRY		Gampaha	LK-12	7.123598	80.018508	Minuwangoda	PS-120238	7.174215	79.957874	7.110015	79.989902	4X6Q+2X2, Gampaha, Sri Lanka	7.967951	
Gampaha	Minuwangoda	Katuwellegama Maha Vidyalaya	False	False	GMPHMNWNGDKTWLLGMMHVDYLY		Gampaha	LK-12	7.123598	80.018508	Minuwangoda	PS-120238	7.174215	79.957874	7.169788	79.951621	11550, Katunayake-Veyangoda Rd, Minuwangoda, Sri Lanka	0.84775	
Gampaha	Gampaha	MOH Office – Gampaha	False	False	GMPHGMPHMHFFCGMPH		Gampaha	LK-12	7.123598	80.018508	Gampaha	PS-120237	7.087765	80.01228	7.17227	79.956823	Katunayake-Veyangoda Rd, Minuwangoda, Sri Lanka	11.216745	
Gampaha	Gampaha	Army Headquarters Mobile Team	False	False	GMPHGMPHRMYHDQRTRSMBLTM		Gampaha	LK-12	7.123598	80.018508	Gampaha	PS-120237	7.087765	80.01228					#CenterLocationUnknown
Gampaha	Gampaha	Akarawita Viharaya	False	False	GMPHGMPHKRWTVHRY		Gampaha	LK-12	7.123598	80.018508	Gampaha	PS-120237	7.087765	80.01228	7.079663	80.05227	Yakkala - Radawana Rd, Sri Lanka	4.505205	
Gampaha	Katana	MOH Office - Katana	False	False	GMPHKTNMHFFCKTN		Gampaha	LK-12	7.123598	80.018508	Katana	PS-120360	7.224796	79.880015	7.22436	79.88271	Katana, Negombo - Mirigama Rd, Negombo, Sri Lanka	0.301313	
Gampaha	Ganemulla	Mahena Community Hall	False	False	GMPHGNMLLMHNCMMNTYHLL		Gampaha	LK-12	7.123598	80.018508	Ganemulla	PS-120242	7.066804	79.959751	7.023526	79.956522	314 Kadawatha - Ganemulla Rd, Kadawatha, Sri Lanka	4.826984	
Gampaha	Ganemulla	Kossinna Raja Maha Viharaya	False	False	GMPHGNMLLKSSNNRJMHVHRY		Gampaha	LK-12	7.123598	80.018508	Ganemulla	PS-120242	7.066804	79.959751	7.047515	79.967886	Kossinna - Ganemulla Road, Parakandeniya, Sri Lanka	2.32586	
Gampaha	Weeragula	Ogodapola Primary School	False	False	GMPHWRGLGDPLPRMRYSCHL		Gampaha	LK-12	7.123598	80.018508	Weeragula	PS-120243	7.097156	80.060399	7.126401	80.097085	43GW+HR8, Gampaha, Sri Lanka	5.193973	
Gampaha	Nittambuwa	Aththanagalla Viharaya	False	False	GMPHNTTMBWTHTHNGLLVHRY		Gampaha	LK-12	7.123598	80.018508	Nittambuwa	PS-120246	7.149726	80.10046	7.113799	80.135467	Nittambuwa - Ruwanwella Rd, Sri Lanka	5.558543	
Gampaha	Nittambuwa	Hakwadunna Viharaya	False	False	GMPHNTTMBWHKWDNNVHRY		Gampaha	LK-12	7.123598	80.018508	Nittambuwa	PS-120246	7.149726	80.10046	7.113799	80.135467	Nittambuwa - Ruwanwella Rd, Sri Lanka	5.558543	
Gampaha	Pallewela	Uduulla Viharaya	False	False	GMPHPLLWLDLLVHRY		Gampaha	LK-12	7.123598	80.018508	Pallewela	PS-120249	7.197365	80.094856	7.19932	80.084773	53XM+PWC, Pallewela, Sri Lanka	1.13374	
Gampaha	Mirigama	Ambepussa Maternity Clinic	False	False	GMPHMRGMMBPSSMTRNTYCLNC		Gampaha	LK-12	7.123598	80.018508	Meerigama	PS-120248	7.245169	80.128647	7.286023	80.16379	Government Seed Production Farm, Sri Lanka	5.973701	
Gampaha	Negombo	Town Hall - Negombo	False	False	GMPHNGMBTWNHLLNGMB		Gampaha	LK-12	7.123598	80.018508	Negombo	PS-120351	7.224796	79.880015	7.206667	79.851863	Negombo, Sri Lanka	3.703623	
Gampaha	Negombo	St.Francis De Sales Church – Kattuwa	False	False	GMPHNGMBSTFRNCSDSLSCHRCHKTTW		Gampaha	LK-12	7.123598	80.018508	Negombo	PS-120351	7.224796	79.880015	7.234667	79.849806	Negombo, Sri Lanka	3.509626	
Gampaha	Katunayaka	18th Mile Post Temple	False	False	GMPHKTNYKTHMLPSTTMPL		Gampaha	LK-12	7.123598	80.018508	Katunayaka	PS-120358	7.165898	79.882607	7.156574	79.871231	5V4C+JFH, Katunayake, Sri Lanka	1.628441	
Gampaha	Kochchikade	Vidyaloka Maha Vidyalaya - Kebellagashandiya	False	False	GMPHKCHCHKDVDYLKMHVDYLYKBLLGSHNDY		Gampaha	LK-12	7.123598	80.018508	Kochchikade	PS-120352	7.265049	79.857026	7.264913	79.898837	B228, Sri Lanka	4.613319	
Gampaha	Pamunugama	Pamunugama Hospital	False	False	GMPHPMNGMPMNGMHSPTL		Gampaha	LK-12	7.123598	80.018508	Pamunugama	PS-120353	7.078892	79.859696	7.093543	79.850191	3VV2+C38, Negombo, Sri Lanka	1.938152	
Gampaha	Kotadeniyawa	Kithulwala Kumarathunga Vidyalaya	False	False	GMPHKTDNYWKTHLWLKMRTHNGVDYLY		Gampaha	LK-12	7.123598	80.018508	Kotadeniyawa	PS-120354	7.283643	80.06649	7.238982	80.098248	11/1 Negombo - Mirigama Rd, Gurullagama, Sri Lanka	6.079159	
Gampaha	Kotadeniyawa	Fair Premises Badalgama	False	False	GMPHKTDNYWFRPRMSSBDLGM		Gampaha	LK-12	7.123598	80.018508	Kotadeniyawa	PS-120354	7.283643	80.06649	7.283881	80.066065	Kotadeniyawa, Sri Lanka	0.053848	
Gampaha	Kotadeniyawa	Dorowwa Maha Vidyalaya	False	False	GMPHKTDNYWDRWWMHVDYLY		Gampaha	LK-12	7.123598	80.018508	Kotadeniyawa	PS-120354	7.283643	80.06649	7.302902	80.091685	833R+5M7, Kurunegala, Sri Lanka	3.509502	
Gampaha	Kotadeniyawa	Madithiyawa Maha Vidyaplaya	False	False	GMPHKTDNYWMDTHYWMHVDYPLY		Gampaha	LK-12	7.123598	80.018508	Kotadeniyawa	PS-120354	7.283643	80.06649	7.132516	80.106428	44M4+2H3, Nittambuwa, Sri Lanka	17.377967	
Gampaha	Divulapitiya	MOH Office – Divulapitiya	False	False	GMPHDVLPTYMHFFCDVLPTY		Gampaha	LK-12	7.123598	80.018508	Diulapitiya	PS-120355	7.174215	79.957874	7.215486	80.013606	6287+5CX, Divulapitiya, Sri Lanka	7.67456	
Gampaha	Ja Ela	MOH Office - Ja Ela	False	False	GMPHJLMHFFCJL		Gampaha	LK-12	7.123598	80.018508	Ja - Ela	PS-120133	7.081055	79.890504	7.075216	79.893879	60 Mount Kalvary Rd, Ja-Ela, Sri Lanka	0.748731	
Gampaha	Wattala	MOH Office – Wattala	False	False	GMPHWTTLMHFFCWTTL		Gampaha	LK-12	7.123598	80.018508	Wattala	PS-120128	6.993713	79.894506	6.995817	79.885793	301 Hendala Rd, Wattala, Sri Lanka	0.989991	
Gampaha	Ragama	MOH Office – Ragama	False	False	GMPHRGMMHFFCRGM		Gampaha	LK-12	7.123598	80.018508	Ragama	PS-120134	7.034975	79.924148	7.027386	79.920232	2WGC+X35, Ragama, Sri Lanka	0.948382	
Kalutara	Ingiriya	Ingiriya Hospital	False	False	KLTRNGRYNGRYHSPTL		Kalutara	LK-13	6.577316	80.127363	Ingiriya	PS-130193	6.743614	80.175077	6.741133	80.162046	Panadura-Nambapana-Ratnapura Hwy, Ingiriya, Sri Lanka	1.465626	
Kalutara	Anguruwatota	MOH Office – Madurawala	False	False	KLTRNGRWTTMHFFCMDRWL		Kalutara	LK-13	6.577316	80.127363	Anguruwatota	PS-130190	6.654997	80.058183	6.654814	80.057811	M335+W4F, Keselhenawa, Sri Lanka	0.045863	
Kalutara	Horana	Base Hospital - Horana	False	False	KLTRHRNBSHSPTLHRN		Kalutara	LK-13	6.577316	80.127363	Horana	PS-130192	6.714613	80.069091	6.710644	80.066589	Hospital Ln, Horana, Sri Lanka	0.520853	
Kalutara	Baduraliya	Baduraliya Hospital	False	False	KLTRBDRLYBDRLYHSPTL		Kalutara	LK-13	6.577316	80.127363	Baduraliya	PS-1302106	6.516756	80.226716	6.514727	80.232731	Tiruwanaketiya-Agalawatte Rd, Baduraliya, Sri Lanka	0.702098	
Kalutara	Millaniya	MOH Office - Millaniya	False	False	KLTRMLLNYMHFFCMLLNY		Kalutara	LK-13	6.577316	80.127363	Millaniya	PS-130191	6.681692	80.020847	6.724224	79.907284	A2, Panadura, Sri Lanka	13.407612	
Kalutara	Panadura	Mahanama Vidyalaya	False	False	KLTRPNDRMHNMVDYLY		Kalutara	LK-13	6.577316	80.127363	Panadura North		6.756309	79.898939	6.725866	79.907901	PWG5+85R, Panadura, Sri Lanka	3.52791	
Kalutara	Meegahathenna	MOH Office – Meegahathenna	False	False	KLTRMGHTHNNMHFFCMGHTHNN		Kalutara	LK-13	6.577316	80.127363	Meegahathenna	PS-1302107	6.436941	80.1943	6.435016	80.198501	B158, Meegahathenna, Sri Lanka	0.511322	
Kalutara	Matugama	Weththewa Hospital	False	False	KLTRMTGMWTHTHWHSPTL		Kalutara	LK-13	6.577316	80.127363	Mathugama	PS-1302103	6.520881	80.117908	6.523087	80.125192	District Hospital, Hospital Road,Weththewa,., Matugama, Sri Lanka	0.841523	
Kalutara	Matugama	MOH Office – Matugama	False	False	KLTRMTGMMHFFCMTGM		Kalutara	LK-13	6.577316	80.127363	Mathugama	PS-1302103	6.520881	80.117908	6.523544	80.126443	G4FG+CH8, Matugama, Sri Lanka	0.988725	
Kalutara	Matugama	Katugahahena Hospital	False	False	KLTRMTGMKTGHHNHSPTL		Kalutara	LK-13	6.577316	80.127363	Mathugama	PS-1302103	6.520881	80.117908	6.489328	80.08471	F3QM+PVP, Bopitiya, Sri Lanka	5.077192	
Kalutara	Agalawatta	Pimbura Hospital	False	False	KLTRGLWTTPMBRHSPTL		Kalutara	LK-13	6.577316	80.127363	Agalawatta		6.542566	80.157178	6.575949	80.158371	H5G5+98H, කළුතර, Sri Lanka	3.715525	
Kalutara	Bandragama	MOH Office  - Bandaragama	False	False	KLTRBNDRGMMHFFCBNDRGM		Kalutara	LK-13	6.577316	80.127363	Bandaragama	PS-130189	6.715179	79.987674	6.713351	79.991671	Library Path, Bandaragama, Sri Lanka	0.486104	
Kalutara	Bandragama	Kuda Arukgoda Viharaya	False	False	KLTRBNDRGMKDRKGDVHRY		Kalutara	LK-13	6.577316	80.127363	Bandaragama	PS-130189	6.715179	79.987674	6.7075	79.991389	Kalutara Rd., Bandaragama., Waskaduwa - Bandaragama Rd, Bandaragama, Sri Lanka	0.947609	
Kalutara	Bandragama	District Hospital Bandaragama	False	False	KLTRBNDRGMDSTRCTHSPTLBNDRGM		Kalutara	LK-13	6.577316	80.127363	Bandaragama	PS-130189	6.715179	79.987674	6.716162	79.991484	Horana Rd, Bandaragama, Sri Lanka	0.434849	
Kalutara	Kalutara North	Waskaduwa Sri Shubuthi Viharaya	False	False	KLTRKLTRNRTHWSKDWSRSHBTHVHRY		Kalutara	LK-13	6.577316	80.127363	Kalutara North	PS-130297	6.602049	79.956042	6.621483	79.947024	A2, Wadduwa, Sri Lanka	2.380231	
Kalutara	Pinwatta	Pinwatta Meda Viharaya	False	False	KLTRPNWTTPNWTTMDVHRY		Kalutara	LK-13	6.577316	80.127363									#PoliceLocationUnknown
Kurunegala	Kurunegala	Mobile Medical Team	False	False	KRNGLKRNGLMBLMDCLTM		Kurunegala	LK-61	7.66477	80.23677	Kurunegala	PS-610101	7.485852	80.364137					#CenterLocationUnknown
Kurunegala	Nikaweratiya	MOH Office – Nikaweratiya	False	False	KRNGLNKWRTYMHFFCNKWRTY		Kurunegala	LK-61	7.66477	80.23677	Nikaweratiya	PS-610320	7.742612	80.121177	7.748302	80.113107	MoH office, Nikaweratiya, Sri Lanka	1.091629	
Kurunegala	Rasnayakapura	MOH Office – Rasnayakapura	False	False	KRNGLRSNYKPRMHFFCRSNYKPR		Kurunegala	LK-61	7.66477	80.23677	Rasnayakapura	PS-610323	7.776658	80.012692	7.812336	80.080579	R36J+W6P, Sri Lanka	8.468673	
Kurunegala	Kobeigane	Vithikuliya Vidyalaya	False	False	KRNGLKBGNVTHKLYVDYLY		Kurunegala	LK-61	7.66477	80.23677	Kobeigane	PS-610321	7.656934	80.126283	7.711982	80.151232	Vithikuliya, Sri Lanka	6.712244	
Kurunegala	Polgahawela	MOH Office – Polgahawela	False	False	KRNGLPLGHWLMHFFCPLGHWL		Kurunegala	LK-61	7.66477	80.23677	Polgahawela	PS-610102	7.333281	80.300363	7.330938	80.29484	06 A6, Polgahawela, Sri Lanka	0.662694	
Puttalam	Wennappuwa	MOH Office – Wennappuwa	False	False	PTTLMWNNPPWMHFFCWNNPPW		Puttalam	LK-62	7.973531	79.913833	Wennappuwa	PS-620245	7.339623	79.843017	7.318737	79.845723	Unnamed Road, Nainamadama, Sri Lanka	2.342249	
Puttalam	Chilaw	MOH Office – Chilaw	False	False	PTTLMCHLWMHFFCCHLW		Puttalam	LK-62	7.973531	79.913833	Chilaw	PS-620241	7.576197	79.788003	7.579361	79.800968	MOH Office, Chilaw, Sri Lanka	1.472185	
Puttalam	Marawila	MOH Office – Nattandiya	False	False	PTTLMMRWLMHFFCNTTNDY		Puttalam	LK-62	7.973531	79.913833	Marawila	PS-620243	7.415075	79.839776	7.423943	79.835277	M.O.H. Office, Marawila, Sri Lanka	1.104176	
Puttalam	Mundalama	Vilpatha Bandaranayaka Vidyalaya	False	False	PTTLMMNDLMVLPTHBNDRNYKVDYLY		Puttalam	LK-62	7.973531	79.913833	Mundal	PS-620138	7.808859	79.825729	7.79154	79.82809	Puttlam Road, mundalama, Sri Lanka	1.943881	
Puttalam	Wanathavilluwa	Bandaranayakapura Vidyalaya	False	False	PTTLMWNTHVLLWBNDRNYKPRVDYLY		Puttalam	LK-62	7.973531	79.913833	Wanathawilluwa	PS-620134	8.188137	79.858447	8.20616	79.859043	Mannar Rd, Wanathavillu, Sri Lanka	2.005769	
Puttalam	Dankotuwa	MOH Office – Dankotuwa	False	False	PTTLMDNKTWMHFFCDNKTW		Puttalam	LK-62	7.973531	79.913833	Dankotuwa	PS-620246	7.300337	79.882595	7.29759	79.888187	146 Negombo-Kurunegala Rd, Dankotuwa, Sri Lanka	0.688474	
Puttalam	Katugastota	St. Anthony's College	False	False	PTTLMKTGSTTSTNTHNYSCLLG		Puttalam	LK-62	7.973531	79.913833	Katugastota	PS-210103	7.332014	80.623006	7.322313	80.626495	Katugastota Rd, Kandy 20000, Sri Lanka	1.145638	
Puttalam	Kandy	Pushpadana Girls' College	False	False	PTTLMKNDYPSHPDNGRLSCLLG		Puttalam	LK-62	7.973531	79.913833	Kandy	PS-210101	7.292948	80.642368	7.293989	80.633	16 Kandy Rd, Kandy 20000, Sri Lanka	1.040036	
Puttalam	Peradeniya	Teaching Hospital – Peradeniya	False	False	PTTLMPRDNYTCHNGHSPTLPRDNY		Puttalam	LK-62	7.973531	79.913833	Peradeniya	PS-210110	7.267283	80.601901	7.266279	80.597654	7H8X+G36, Peradeniya 20400, Sri Lanka	0.481722	
Puttalam	Kothmale	MOH Office – Kothmale	False	False	PTTLMKTHMLMHFFCKTHML		Puttalam	LK-62	7.973531	79.913833	Kotmale	PS-230134	7.063602	80.685054	7.062013	80.685533	3M6P+R63, Kothmale New Town, Sri Lanka	0.184484	
Badulla	Hali Ela	MOH Office - Hali Ela	False	False	BDLLHLLMHFFCHLL		Badulla	LK-81	7.074529	81.04486	Haliela	PS-810108	6.958216	81.034447	6.962439	81.036061	Peradeniya-Badulla-Chenkaladi Hwy, Hali-ela, Sri Lanka	0.50239	
Badulla	Lunugala	MOH Office – Lunugala	False	False	BDLLLNGLMHFFCLNGL		Badulla	LK-81	7.074529	81.04486	Lunugala	PS-810104	7.047691	81.20339	7.030729	81.198808	Peradeniya-Badulla-Chenkaladi Hwy, Lunugala, Sri Lanka	1.953308	
Badulla	Lunugala	District Hospital – Lunugala	False	False	BDLLLNGLDSTRCTHSPTLLNGL		Badulla	LK-81	7.074529	81.04486	Lunugala	PS-810104	7.047691	81.20339	7.037666	81.20078	Peradeniya-Badulla-Chenkaladi Hwy, Lunugala, Sri Lanka	1.151701	
Badulla	Lunugala	District Hospital – Hopton	False	False	BDLLLNGLDSTRCTHSPTLHPTN		Badulla	LK-81	7.074529	81.04486	Lunugala	PS-810104	7.047691	81.20339	7.037666	81.20078	Peradeniya-Badulla-Chenkaladi Hwy, Lunugala, Sri Lanka	1.151701	
Badulla	Lunugala	District Hospital – Metigahthenna	False	False	BDLLLNGLDSTRCTHSPTLMTGHTHNN		Badulla	LK-81	7.074529	81.04486	Lunugala	PS-810104	7.047691	81.20339	7.077204	81.154076	35G3+VJP, Metigahatenna, Sri Lanka	6.356788	
Badulla	Lunugala	District Hospital – Mahadowa	False	False	BDLLLNGLDSTRCTHSPTLMHDW		Badulla	LK-81	7.074529	81.04486	Lunugala	PS-810104	7.047691	81.20339	7.015288	81.167786	2589+447, Badulla, Sri Lanka	5.332775	
Badulla	Passara	Passara National College	False	False	BDLLPSSRPSSRNTNLCLLG		Badulla	LK-81	7.074529	81.04486	Passara	PS-810102	6.934481	81.154796	6.940355	81.167392	Peradeniya-Badulla-Chenkaladi Hwy, Passara, Sri Lanka	1.536617	
Badulla	Passara	Bibilegama Hospital	False	False	BDLLPSSRBBLGMHSPTL		Badulla	LK-81	7.074529	81.04486	Passara	PS-810102	6.934481	81.154796	6.895098	81.14174	Bibilegama Rd, Passara, Sri Lanka	4.611693	
Badulla	Passara	Uri Hospital	False	False	BDLLPSSRRHSPTL		Badulla	LK-81	7.074529	81.04486	Passara	PS-810102	6.934481	81.154796	6.933517	81.152592	Demodera - Spring Valley - Badulla Road, Passara, Sri Lanka	0.265888	
Badulla	Passara	Kahataruppa Hospital	False	False	BDLLPSSRKHTRPPHSPTL		Badulla	LK-81	7.074529	81.04486	Passara	PS-810102	6.934481	81.154796	7.02379	81.116022	Muthumala - Kahataruppa Rd, Sri Lanka	10.816965	
Badulla	Passara	Kanawerella Hospital	False	False	BDLLPSSRKNWRLLHSPTL		Badulla	LK-81	7.074529	81.04486	Passara	PS-810102	6.934481	81.154796	6.933517	81.152592	Demodera - Spring Valley - Badulla Road, Passara, Sri Lanka	0.265888	
Badulla	Passara	Meedumpitiya Hospital	False	False	BDLLPSSRMDMPTYHSPTL		Badulla	LK-81	7.074529	81.04486	Passara	PS-810102	6.934481	81.154796	6.945576	81.190338	Peradeniya-Badulla-Chenkaladi Hwy, Sri Lanka	4.113834	
Badulla	Kandaketiya	Galauda Hospital	False	False	BDLLKNDKTYGLDHSPTL		Badulla	LK-81	7.074529	81.04486	Kandaketiya	PS-810107	7.195551	81.01958	7.04502	80.982575	Galauda-kandaketiya Rd, Sri Lanka	17.234492	
Badulla	Kandaketiya	Kandaketiya Hospital	False	False	BDLLKNDKTYKNDKTYHSPTL		Badulla	LK-81	7.074529	81.04486	Kandaketiya	PS-810107	7.195551	81.01958	7.171564	81.005534	Karamettiya Kandakettiya Road, Kandakettiya Town, Sri Lanka	3.085663	
Badulla	Bandarawela	MOH Office – Bandarawela	False	False	BDLLBNDRWLMHFFCBNDRWL		Badulla	LK-81	7.074529	81.04486	Bandarawela	PS-810210	6.831526	80.986784	6.841272	80.98482	Hospital Junction Helamuduna Bus Stop, Etampitiya Rd, Bandarawela, Sri Lanka	1.105533	
Badulla	Haldummulla	MOH Office – Haldummulla	False	False	BDLLHLDMMLLMHFFCHLDMMLL		Badulla	LK-81	7.074529	81.04486	Haldummulla		6.762216	80.885856	6.761089	80.876292	QV6G+CGM, Badulla, Sri Lanka	1.063814	
Badulla	Uva Paranagama	District Hospital - Uva Paranagama	False	False	BDLLVPRNGMDSTRCTHSPTLVPRNGM		Badulla	LK-81	7.074529	81.04486	Uvaparanagama	PS-810213	6.958341	80.930364	6.938076	80.890525	Rendapola-Galahagama-Ambagasdowa Rd, Himbiliyagahamadiththa, Sri Lanka	4.942648	
Badulla	Haputale	Base Hospital - Diyatalawa	False	False	BDLLHPTLBSHSPTLDYTLW		Badulla	LK-81	7.074529	81.04486	Haputale	PS-810215	6.767653	80.957218	6.80555	80.956366	12 Fair Rd, Diyatalawa, Sri Lanka	4.216327	
Badulla	Badulla	Kandegedara Hospital	False	False	BDLLBDLLKNDGDRHSPTL		Badulla	LK-81	7.074529	81.04486	Badulla	PS-810101	6.991337	81.055246	7.016761	81.016368	Unnamed Rd,, Sri Lanka	5.139978	
Badulla	Badulla	MOH Office – Soranatota	False	False	BDLLBDLLMHFFCSRNTT		Badulla	LK-81	7.074529	81.04486	Badulla	PS-810101	6.991337	81.055246	7.013876	81.05556	Rideepana, Mahiyangana Rd, Sri Lanka	2.507249	
Badulla	Siyambalanduwa	Mahakalugolla Maha Vidyalaya	False	False	BDLLSYMBLNDWMHKLGLLMHVDYLY		Badulla	LK-81	7.074529	81.04486	Siyambalanduwa	PS-820122	6.906851	81.547598	6.995949	81.078145	Sirimalgoda Rd, Kendagolla, Sri Lanka	52.772241	#CenterFarFromPolice
Badulla	Siyambalanduwa	Dombagahawela Maha Vidyalaya	False	False	BDLLSYMBLNDWDMBGHWLMHVDYLY		Badulla	LK-81	7.074529	81.04486	Siyambalanduwa	PS-820122	6.906851	81.547598	7.069793	81.075476	339G+W59, Badulla, Sri Lanka	55.184971	#CenterFarFromPolice
Moneragala	Monaragala	Monaragala Community Hall	False	False	MNRGLMNRGLMNRGLCMMNTYHLL		Moneragala	LK-82	6.787517	81.303744	Monaragala	PS-820121	6.869866	81.348106	6.872778	81.350683	Moneragala, Sri Lanka	0.431159	
Moneragala	Nagoda	Mapalagama Central College	False	False	MNRGLNGDMPLGMCNTRLCLLG		Moneragala	LK-82	6.787517	81.303744	Nagoda	PS-310130	6.197616	80.274707	6.876196	81.348352	Potuvile Road Colombo - Batticaloa Hwy, Monaragala, Sri Lanka	140.618032	#CenterFarFromPolice
Matara	Gandara	Thalalla Mandalara Viharaya	False	False	MTRGNDRTHLLLMNDLRVHRY		Matara	LK-32	6.142734	80.539994	Gandara	PS-320102	5.941629	80.614037	5.943268	80.620179	Tangalle Road, Sampaya House, Talalla 81170, Sri Lanka	0.703533	
Matara	Gandara	Aparekka Viharaya	False	False	MTRGNDRPRKKVHRY		Matara	LK-32	6.142734	80.539994	Gandara	PS-320102	5.941629	80.614037	6.008382	80.626763	Uda Aparekka Rd, Aparekka, Sri Lanka	7.557213	
Matara	Dikwella	Pradeshiya Sabha – Dikwella	False	False	MTRDKWLLPRDSHYSBHDKWLL		Matara	LK-32	6.142734	80.539994	Dikwella	PS-320103	5.964296	80.693198	5.966083	80.701774	XP82+CPJ, Matara, Sri Lanka	0.969363	
Matara	Matara	Uyanwatta Ground	False	False	MTRMTRYNWTTGRND		Matara	LK-32	6.142734	80.539994	Matara	PS-320101	5.94904	80.533659	5.949299	80.549097	WGXX+PJ9, Matara, Sri Lanka	1.708161	
Hambantota	Ambalantota	MOH Office – Ambalantota	False	False	HMBNTTMBLNTTMHFFCMBLNTT		Hambantota	LK-33	6.259779	81.098619	Ambalantota	PS-330157	6.12516	81.023981	6.122767	81.005973	Walawa watta Road, Malpeththawa, Ambalantota, Sri Lanka	2.009195	
Hambantota	Hambantota	MOH Office – Hambantota	False	False	HMBNTTHMBNTTMHFFCHMBNTT		Hambantota	LK-33	6.259779	81.098619	Hambantota	PS-330156	6.125872	81.12521	6.171162	81.127	54CG+FQ9, Hambantota, Sri Lanka	5.041487	
Hambantota	Sooriyawewa	MOH Office – Sooriyawewa	False	False	HMBNTTSRYWWMHFFCSRYWW		Hambantota	LK-33	6.259779	81.098619	Sooriyawewa	PS-330155	6.306022	81.003873	6.304862	81.004768	8233+WWR, Sooriyawewa, Sri Lanka	0.1626	
Hambantota	Walasmulla	OMOH Office – Walasmulla	False	False	HMBNTTWLSMLLMHFFCWLSMLL		Hambantota	LK-33	6.259779	81.098619	Walasmulla	PS-330151	6.154102	80.698256	6.150889	80.693718	Walasmulla, Sri Lanka	0.616099	
Hambantota	Tissamaharama	Kanda Viharaya	False	False	HMBNTTTSSMHRMKNDVHRY		Hambantota	LK-33	6.259779	81.098619	Tissamaharamaya	PS-330158	6.26109	81.236724	6.28018	81.290077	Rubberwatte Rd, Tissamaharama, Sri Lanka	6.269468	
Hambantota	Agunukolapelessa	Mahanaga National College	False	False	HMBNTTGNKLPLSSMHNGNTNLCLLG		Hambantota	LK-33	6.259779	81.098619	Angunakolapelessa	PS-330150	6.321993	80.844883	6.164902	80.895901	5V7W+X96, Agunukolapelessa, Sri Lanka	18.361223	
Hambantota	Agunukolapelessa	Talawa Hospital	False	False	HMBNTTGNKLPLSSTLWHSPTL		Hambantota	LK-33	6.259779	81.098619	Angunakolapelessa	PS-330150	6.321993	80.844883	8.233797	80.348381	68MX+G96, Talawa, Sri Lanka	219.591722	#CenterFarFromPolice
Hambantota	Beliatta	MOH Office – Beliatta	False	False	HMBNTTBLTTMHFFCBLTT		Hambantota	LK-33	6.259779	81.098619	Beliatta	PS-330152	6.046936	80.735408	6.051828	80.741735	3P2R+PMQ, Hambantota, Sri Lanka	0.886482	
Hambantota	Katuwana	Walgammulla Maha Vidyalaya	False	False	HMBNTTKTWNWLGMMLLMHVDYLY		Hambantota	LK-33	6.259779	81.098619	Katuwana	PS-330153	6.269722	80.690963	6.238257	80.675865	6MQG+885, Galpotukanda, Sri Lanka	3.877585	
Hambantota	Katuwana	Udagomadiya Maha Vidyalaya	False	False	HMBNTTKTWNDGMDYMHVDYLY		Hambantota	LK-33	6.259779	81.098619	Katuwana	PS-330153	6.269722	80.690963	6.249382	80.70948	Julampitiya Rd, Katuwana, Sri Lanka	3.051265	
Hambantota	Katuwana	Ritigahayaya Maha Vidyalaya	False	False	HMBNTTKTWNRTGHYYMHVDYLY		Hambantota	LK-33	6.259779	81.098619	Katuwana	PS-330153	6.269722	80.690963	6.26863	80.726983	B485, Sri Lanka	3.984391	
Hambantota	Katuwana	Middeniya Primary School	False	False	HMBNTTKTWNMDDNYPRMRYSCHL		Hambantota	LK-33	6.259779	81.098619	Katuwana	PS-330153	6.269722	80.690963	6.25259	80.764518	Panamura Rd, Middeniya, Sri Lanka	8.352977	
Hambantota	Tangalla	MOH Office – Tangalla	False	False	HMBNTTTNGLLMHFFCTNGLL		Hambantota	LK-33	6.259779	81.098619	Tangalle	PS-330147	6.023954	80.797255	6.02363	80.795742	2QFW+F75, Tangalle, Sri Lanka	0.171198	
Rathnapura	Weligepola	Madawala Landa Community Hall	False	False	RTHNPRWLGPLMDWLLNDCMMNTYHLL		Ratnapura	LK-91	6.586826	80.566158	Weligepola	PS-910106	6.596426	80.723695	6.684628	80.401386	86/10, Inner Circular Road. Rathnapura, Rathnapura 70000, Sri Lanka	36.936592	#CenterFarFromPolice
Rathnapura	Weligepola	Pusnatota Community Hall	False	False	RTHNPRWLGPLPSNTTCMMNTYHLL		Ratnapura	LK-91	6.586826	80.566158	Weligepola	PS-910106	6.596426	80.723695	6.583202	80.711558	Galgoda - Weligepola Rd, Weligepola, Sri Lanka	1.990489	
Rathnapura	Weligepola	Ambewila Vidyalaya	False	False	RTHNPRWLGPLMBWLVDYLY		Ratnapura	LK-91	6.586826	80.566158	Weligepola	PS-910106	6.596426	80.723695	6.574518	80.706607	HPF4+RJ5, Weligepola, Sri Lanka	3.082732	
Rathnapura	Weligepola	Mahameunawa Vidyalaya	False	False	RTHNPRWLGPLMHMNWVDYLY		Ratnapura	LK-91	6.586826	80.566158	Weligepola	PS-910106	6.596426	80.723695	6.778121	80.405737	Mandagala, Kanegalla, North, Gilimale, Ratnapura, Sri Lanka	40.52482	#CenterFarFromPolice
Rathnapura	Weligepola	Thennehena Viharaya	False	False	RTHNPRWLGPLTHNNHNVHRY		Ratnapura	LK-91	6.586826	80.566158	Weligepola	PS-910106	6.596426	80.723695	6.440955	80.759711	Pelmadulla - Embilipitiya Hwy, Ratnapura, Sri Lanka	17.745163	
Rathnapura	Weligepola	Udawela Ranwala Vidyalaya	False	False	RTHNPRWLGPLDWLRNWLVDYLY		Ratnapura	LK-91	6.586826	80.566158	Weligepola	PS-910106	6.596426	80.723695	6.606694	80.637221	Kahawatta Opanayake Rd, Udawela, Sri Lanka	9.622732	
Rathnapura	Rathnapura	Karangoda Viharaya	False	False	RTHNPRRTHNPRKRNGDVHRY		Ratnapura	LK-91	6.586826	80.566158	Ratnapura	PS-910101	6.679456	80.40223	6.678994	80.374216	Karangoda, Sri Lanka	3.095271	
Rathnapura	Rathnapura	Kehelowitigala Vidyalaya	False	False	RTHNPRRTHNPRKHLWTGLVDYLY		Ratnapura	LK-91	6.586826	80.566158	Ratnapura	PS-910101	6.679456	80.40223	6.695088	80.382654	M9WM+23J, Ratnapura, Sri Lanka	2.774917	
Rathnapura	Opanayaka	Kandaketiya Vidyalaya	False	False	RTHNPRPNYKKNDKTYVDYLY		Ratnapura	LK-91	6.586826	80.566158	Opanayaka	PS-910104	6.608519	80.619285	6.618238	80.62379	Galhira Rd, Opanayake,, Sri Lanka	1.190132	
Rathnapura	Opanayaka	Madola Viharaya	False	False	RTHNPRPNYKMDLVHRY		Ratnapura	LK-91	6.586826	80.566158	Opanayaka	PS-910104	6.608519	80.619285	6.621938	80.652802	Colombo - Batticaloa Hwy, Sri Lanka	3.992748	
Rathnapura	Opanayaka	Wallaketiya Vidyalaya	False	False	RTHNPRPNYKWLLKTYVDYLY		Ratnapura	LK-91	6.586826	80.566158	Opanayaka	PS-910104	6.608519	80.619285	6.590889	80.634619	HJRM+9R5, Ratnapura, Sri Lanka	2.591542	
Rathnapura	Opanayaka	Udawela Vidyalaya	False	False	RTHNPRPNYKDWLVDYLY		Ratnapura	LK-91	6.586826	80.566158	Opanayaka	PS-910104	6.608519	80.619285	6.606694	80.637221	Kahawatta Opanayake Rd, Udawela, Sri Lanka	1.992136	
Rathnapura	Opanayaka	Opanayaka Vidyalaya	False	False	RTHNPRPNYKPNYKVDYLY		Ratnapura	LK-91	6.586826	80.566158	Opanayaka	PS-910104	6.608519	80.619285					#CenterLocationUnknown
Rathnapura	Opanayaka	Galhira Vidyalaya	False	False	RTHNPRPNYKGLHRVDYLY		Ratnapura	LK-91	6.586826	80.566158	Opanayaka	PS-910104	6.608519	80.619285	6.618238	80.62379	Galhira Rd, Opanayake,, Sri Lanka	1.190132	
Kegalle	Kegalle	MOH Office – Kegalle	False	False	KGLLKGLLMHFFCKGLL		Kegalle	LK-92	7.104216	80.342866	Kegalle	PS-920118	7.255928	80.353156	7.24797	80.343583	Kegalle-Bulathkohupitiya-Karawanella Hwy, Kegalle, Sri Lanka	1.378052	
Kegalle	Warakapola	MOH Office – Algama	False	False	KGLLWRKPLMHFFCLGM		Kegalle	LK-92	7.104216	80.342866	Wrakapola	PS-920119	7.227488	80.199696	7.226501	80.197818	65GX+J44, Warakapola, Sri Lanka	0.234514	
Kegalle	Rambukkana	MOH Office – Rambukkana	False	False	KGLLRMBKKNMHFFCRMBKKN		Kegalle	LK-92	7.104216	80.342866	Rambukkana	PS-920123	7.324319	80.387808	7.327307	80.394886	89GV+WXC, Rambukkana, Sri Lanka	0.848646	
Kegalle	Ruwanwella	Maththegoda Rathnawali Vidyalaya	False	False	KGLLRWNWLLMTHTHGDRTHNWLVDYLY		Kegalle	LK-92	7.104216	80.342866	Ruwanwella	PS-920229	7.046189	80.254174	7.090247	80.002023	Medagama, Gampaha, Sri Lanka	28.261688	#CenterFarFromPolice
Kegalle	Ruwanwella	Galpatha Viharaya	False	False	KGLLRWNWLLGLPTHVHRY		Kegalle	LK-92	7.104216	80.342866	Ruwanwella	PS-920229	7.046189	80.254174	7.104497	80.243037	Ruwanwella Rd, Sri Lanka	6.60107	
Kegalle	Bulathkohupitiya	Maliboda College, Deraniyagala	False	False	KGLLBLTHKHPTYMLBDCLLGDRNYGL		Kegalle	LK-92	7.104216	80.342866	Bulathkohupitiya	PS-920232	7.106684	80.3347	6.891575	80.439431	Uda Maliboda Rd, Maliboda, Sri Lanka	26.573825	#CenterFarFromPolice
Kegalle	Bulathkohupitiya	Dickella Kanda Primary School	False	False	KGLLBLTHKHPTYDCKLLKNDPRMRYSCHL		Kegalle	LK-92	7.104216	80.342866	Bulathkohupitiya	PS-920232	7.106684	80.3347	7.104528	80.336047	Bulathkohupitiya, Sri Lanka	0.28216	
Kegalle	Bulathkohupitiya	Deraniyagala South Purana Viharaya	False	False	KGLLBLTHKHPTYDRNYGLSTHPRNVHRY		Kegalle	LK-92	7.104216	80.342866	Bulathkohupitiya	PS-920232	7.106684	80.3347	6.934076	80.336205	Deraniyagala Road, Deraniyagala, Sri Lanka	19.199878	
Kegalle	Bulathkohupitiya	Rasnak Kanada Sewa Piyasa	False	False	KGLLBLTHKHPTYRSNKKNDSWPYS		Kegalle	LK-92	7.104216	80.342866	Bulathkohupitiya	PS-920232	7.106684	80.3347	6.886789	79.918684	Parliament Approach Rd, Sri Jayawardenepura Kotte, Sri Lanka	52.035455	#CenterFarFromPolice
Kegalle	Aranayaka	Dippitiya Rajagiri Maha Vidyalaya	False	False	KGLLRNYKDPPTYRJGRMHVDYLY		Kegalle	LK-92	7.104216	80.342866	Aranayaka	PS-920120	7.186505	80.455273	7.176938	80.456814	B44, Dippitiya, Sri Lanka	1.077639	
Anuradhapura	Anuradhapura	Army Hospital Anuradhapura	False	False	NRDHPRNRDHPRRMYHSPTLNRDHPR		Anuradhapura	LK-71	8.39199	80.512958	Anuradapura	PS-710101	8.329752	80.407265	8.338302	80.407646	AB02, Anuradhapura, Sri Lanka	0.951939	
Anuradhapura	Anuradhapura	MOH Office - Nuwaragam Palatha Central	False	False	NRDHPRNRDHPRMHFFCNWRGMPLTHCNTRL		Anuradhapura	LK-71	8.39199	80.512958	Anuradapura	PS-710101	8.329752	80.407265	8.341215	80.374096	Unnamed Road, Anuradhapura, Sri Lanka	3.866675	
Anuradhapura	Anuradhapura	MOH Office - Nuwaragam Palatha East	False	False	NRDHPRNRDHPRMHFFCNWRGMPLTHST		Anuradhapura	LK-71	8.39199	80.512958	Anuradapura	PS-710101	8.329752	80.407265	8.341215	80.374096	Unnamed Road, Anuradhapura, Sri Lanka	3.866675	
Anuradhapura	Tirappanai	MOH Office – Tirappanai	False	False	NRDHPRTRPPNMHFFCTRPPN		Anuradhapura	LK-71	8.39199	80.512958									#PoliceLocationUnknown
Anuradhapura	Horowpothana	MOH Office – Horowpothana	False	False	NRDHPRHRWPTHNMHFFCHRWPTHN		Anuradhapura	LK-71	8.39199	80.512958	Horowpathana	PS-710117	8.553878	80.830734	8.553538	80.830507	HR3J+C66, Horowupotana, Sri Lanka	0.045317	
Anuradhapura	Mihintale	MOH Office – Mihintale	False	False	NRDHPRMHNTLMHFFCMHNTL		Anuradhapura	LK-71	8.39199	80.512958	Mihintale	PS-710104	8.360062	80.511889	8.357612	80.509049	Puttalam - Anuradhapura - Trincomalee Hwy, Mihintale, Sri Lanka	0.41466	
Anuradhapura	Hingurakgoda	MOH Office – Hingurakgoda	False	False	NRDHPRHNGRKGDMHFFCHNGRKGD		Anuradhapura	LK-71	8.39199	80.512958	Hingurakgoda	PS-720129	8.048819	80.965751	8.046007	80.96576	2XW8+C82, Hingurakgoda, Sri Lanka	0.31278	
Polonnaruwa	Medirigiriya	MOH Office – Medirigiriya	False	False	PLNNRWMDRGRYMHFFCMDRGRY		Polonnaruwa	LK-72	7.993659	81.026061	Medirigiriya	PS-720130	8.150847	80.984493	8.144647	80.965725	In front of DS office, Hospital Road, Medirigiriya, Sri Lanka	2.178523	
Jaffna	Jaffna	Mobile Medical Team	False	False	JFFNJFFNMBLMDCLTM		Jaffna	LK-41	9.691792	80.098594	Jaffna	PS-410209	9.659919	80.010965					#CenterLocationUnknown
Jaffna	Jaffna	MOH Office- Nallur	False	False	JFFNJFFNMHFFCNLLR		Jaffna	LK-41	9.691792	80.098594	Jaffna	PS-410209	9.659919	80.010965	9.673947	80.027736	M2FH+H3H, Jaffna, Sri Lanka	2.411714	
Jaffna	Jaffna	MOH Office – Jaffna	False	False	JFFNJFFNMHFFCJFFN		Jaffna	LK-41	9.691792	80.098594	Jaffna	PS-410209	9.659919	80.010965	9.673947	80.027736	M2FH+H3H, Jaffna, Sri Lanka	2.411714	
Jaffna	Tellippalai	MOH Office – Tellippalai	False	False	JFFNTLLPPLMHFFCTLLPPL		Jaffna	LK-41	9.691792	80.098594	Thelippalay	PS-410104	6.933075	79.857181	9.785978	80.038383	Q2PQ+99R, Tellippalai, Sri Lanka	317.953715	#CenterFarFromPolice
Jaffna	Point Pedro	Thunnale Reading Hall	False	False	JFFNPNTPDRTHNNLRDNGHLL		Jaffna	LK-41	9.691792	80.098594	Point Pedro	PS-410106	9.827018	80.233187	9.83583	80.2119	R6P6+8QJ, Point Pedro, Sri Lanka	2.530512	
Jaffna	Point Pedro	Puloli Wigneswara Pre School	False	False	JFFNPNTPDRPLLWGNSWRPRSCHL		Jaffna	LK-41	9.691792	80.098594	Point Pedro	PS-410106	9.827018	80.233187	9.816357	80.233841	R68M+GGW, Point Pedro, Sri Lanka	1.187986	
Jaffna	Point Pedro	Puloli Puttale Reading Hall	False	False	JFFNPNTPDRPLLPTTLRDNGHLL		Jaffna	LK-41	9.691792	80.098594	Point Pedro	PS-410106	9.827018	80.233187	9.816357	80.233841	R68M+GGW, Point Pedro, Sri Lanka	1.187986	
Jaffna	Point Pedro	Puloli Kandiyur Reading Hall	False	False	JFFNPNTPDRPLLKNDYRRDNGHLL		Jaffna	LK-41	9.691792	80.098594	Point Pedro	PS-410106	9.827018	80.233187	9.816357	80.233841	R68M+GGW, Point Pedro, Sri Lanka	1.187986	
Jaffna	Nelliyady	Thunnale South Sivan Kovil	False	False	JFFNNLLYDYTHNNLSTHSVNKVL		Jaffna	LK-41	9.691792	80.098594	Nelliadi	PS-410108	9.778397	80.113303	9.784384	80.215746	Q6M8+Q75, Point Pedro, Sri Lanka	11.248803	
Jaffna	Manippai	MOH Office – Sandilippai	False	False	JFFNMNPPMHFFCSNDLPP		Jaffna	LK-41	9.691792	80.098594	Manippai	PS-410210	9.727151	79.996905	9.749336	79.987383	Sandilipay, Sri Lanka	2.679343	
Jaffna	Velvettithurai	Udupiddi South Cultural Hall	False	False	JFFNVLVTTTHRDPDDSTHCLTRLHLL		Jaffna	LK-41	9.691792	80.098594	Valvettiththurai	PS-410107	9.823216	80.169633	9.812041	80.132842	sannithi kovil,thondaimanaru, Valvettithurai, Sri Lanka	4.219561	
Jaffna	Kopay	MOH Office – Kopay	False	False	JFFNKPYMHFFCKPY		Jaffna	LK-41	9.691792	80.098594	Kopai	PS-410216	9.686887	80.03856	9.706729	80.065433	B268, Jaffna, Sri Lanka	3.681313	
Jaffna	Chunnagam	MOH Office - Uduvil	False	False	JFFNCHNNGMMHFFCDVL		Jaffna	LK-41	9.691792	80.098594	Chunnakam	PS-410211	9.745309	80.029151	9.742938	80.035132	P2VP+53C, Chunnakam, Sri Lanka	0.706719	
Jaffna	Wadukkotte	MOH Office – Chankanai	False	False	JFFNWDKKTTMHFFCCHNKN		Jaffna	LK-41	9.691792	80.098594	Vaddukoddai		9.728886	79.947771	9.753617	79.976004	QX3G+CCR, Sri Lanka	4.140836	
Jaffna	Kayts	MOH Office – Karainagar	False	False	JFFNKYTSMHFFCKRNGR		Jaffna	LK-41	9.691792	80.098594	Kayts	PS-410212	9.728654	79.94775	9.725097	79.99772	Sri Lanka, Manipay, Sri Lanka	5.492521	
Jaffna	Kayts	MOH Office – Valanai	False	False	JFFNKYTSMHFFCVLN		Jaffna	LK-41	9.691792	80.098594	Kayts	PS-410212	9.728654	79.94775	9.636317	79.903777	Chatty vangkalvady road, Velanai, Sri Lanka	11.346015	
Jaffna	Kayts	MOH Office – Kayts	False	False	JFFNKYTSMHFFCKYTS		Jaffna	LK-41	9.691792	80.098594	Kayts	PS-410212	9.728654	79.94775	9.697759	79.866366	Sri Lanka, Kayts, Sri Lanka	9.561445	
Jaffna	Chavakachcheri	Town Hall – Chavakachcheri	False	False	JFFNCHVKCHCHRTWNHLLCHVKCHCHR		Jaffna	LK-41	9.691792	80.098594	Chawakachcheri	PS-410215	9.666459	80.132384	9.659136	80.160946	M556+M94, Chavakachcheri, Sri Lanka	3.236063	
Jaffna	Atchchuveli	Puthur East Community Hall	False	False	JFFNTCHCHVLPTHRSTCMMNTYHLL		Jaffna	LK-41	9.691792	80.098594	Achchuweli	PS-410103	6.934132	79.856305	9.693047	80.165185	Jaffna, Sri Lanka	308.750556	#CenterFarFromPolice
Kilinochchi	Kilinochchi	MOH Office - Karachchi	False	False	KLNCHCHKLNCHCHMHFFCKRCHCH		Kilinochchi	LK-45	9.415742	80.30358	Kilinochchi	PS-450131	9.392265	80.407846	9.396965	80.407782	Kandy - Jaffna Hwy, Kilinochchi, Sri Lanka	0.522827	
Kilinochchi	Kilinochchi	MOH Office – Palai	False	False	KLNCHCHKLNCHCHMHFFCPL		Kilinochchi	LK-45	9.415742	80.30358	Kilinochchi	PS-450131	9.392265	80.407846	7.330938	80.29484	06 A6, Polgahawela, Sri Lanka	229.618032	#CenterFarFromPolice
Kilinochchi	Dharmapuram	MOH Office – Kandawalai	False	False	KLNCHCHDHRMPRMMHFFCKNDWL		Kilinochchi	LK-45	9.415742	80.30358	Dharmapuram	PS-450136	6.873107	79.86167	9.417165	80.504182	CG83+VM7, Velikkandal, Sri Lanka	291.682933	#CenterFarFromPolice
Kilinochchi	Pooneryn	MOH Office – Pooneryn	False	False	KLNCHCHPNRYNMHFFCPNRYN		Kilinochchi	LK-45	9.415742	80.30358	Pooneryn		9.505717	80.21101	9.507968	80.208317	G655+58P, Pooneryn, Sri Lanka	0.387256	
Kilinochchi	Mulankavil	Mulankavil Hospital	False	False	KLNCHCHMLNKVLMLNKVLHSPTL		Kilinochchi	LK-45	9.415742	80.30358	Mulankavil	PS-450135	9.254463	80.141528	9.243423	80.143894	Base Hospital Mulankavil, A32 Road, Mulankavil, Kumulamunai, Sri Lanka	1.255148	
Mullaitivu	Mallavi	MOH Office – Palinagar	False	False	MLLTVMLLVMHFFCPLNGR		Mullaitivu	LK-44	9.167643	80.549091	Mallavi	PS-440153	9.137878	80.307257	9.105356	80.323155	Palinagar, Sri Lanka	4.016729	
Mullaitivu	Mankulam	Mankulam Hospital	False	False	MLLTVMNKLMMNKLMHSPTL		Mullaitivu	LK-44	9.167643	80.549091	Mankulam	PS-440147	9.124606	80.448404	9.12782	80.447093	A9, Mankulam, Sri Lanka	0.385396	
Mullaitivu	Oddusuddan	MOH Office – Oddusuddan	False	False	MLLTVDDSDDNMHFFCDDSDDN		Mullaitivu	LK-44	9.167643	80.549091	Oddusudan	PS-440151	9.160983	80.652821	9.162816	80.661584	5M76+4JG, Oddusuddan, Sri Lanka	0.983634	
Mullaitivu	Mullaitivu	Kumalamunai Maha Vidyalaya	False	False	MLLTVMLLTVKMLMNMHVDYLY		Mullaitivu	LK-44	9.167643	80.549091	Mullativu	PS-440148	9.212825	80.760159	9.265783	80.809789	7R85+8W7, Mullaitivu, Sri Lanka	8.024128	
Mullaitivu	Puthukudiyiruppu	MOH Office – Puthukudiyiruppu	False	False	MLLTVPTHKDYRPPMHFFCPTHKDYRPP		Mullaitivu	LK-44	9.167643	80.549091	Pudukuduiruppu	PS-440149	7.00152	79.95003	9.320965	80.683013	Parantan-Mullaitivu Hwy, Velikkandal, Sri Lanka	270.317914	#CenterFarFromPolice
Mannar	Mannar	Sitti Vinayagar National College - Mannar	False	False	MNNRMNNRSTTVNYGRNTNLCLLGMNNR		Mannar	LK-42	8.877429	80.088628	Mannar	PS-420138	8.978123	79.911642	8.97968	79.919795	Pallimunai Rd, Mannar, Sri Lanka	0.912332	
Mannar	Silawathura	MOH Office – Musali	False	False	MNNRSLWTHRMHFFCMSL		Mannar	LK-42	8.877429	80.088628	Silawathura	PS-420139	6.891461	79.856199	8.771972	79.940143	QWCR+Q3J, Methanvely, Sri Lanka	209.373335	#CenterFarFromPolice
Mannar	Pesalai	St. Mary's College, Pesalai	False	False	MNNRPSLSTMRYSCLLGPSL		Mannar	LK-42	8.877429	80.088628									#PoliceLocationUnknown
Vavuniya	Vavuniya	Sri Rama Puram Thirignana Maha Vidyalaya	False	False	VVNYVVNYSRRMPRMTHRGNNMHVDYLY		Vavuniya	LK-43	8.852071	80.467404	Vavuniya	PS-430119	8.754431	80.498604	8.758539	80.501239	QG52+CF9, Vavuniya, Sri Lanka	0.541016	
Vavuniya	Vavuniya	Shiwaprakash Girls' College	False	False	VVNYVVNYSHWPRKSHGRLSCLLG		Vavuniya	LK-43	8.852071	80.467404	Vavuniya	PS-430119	8.754431	80.498604	8.751173	80.503888	QG23+FH6, Vavuniya, Sri Lanka	0.684662	
Vavuniya	Vavuniya	Kovil Kulam Hindu Maha Vidyalaya	False	False	VVNYVVNYKVLKLMHNDMHVDYLY		Vavuniya	LK-43	8.852071	80.467404	Vavuniya	PS-430119	8.754431	80.498604	8.738542	80.509374	PGQ5+CQF, Kovilputhukulam 6th Ln, Vavuniya 43000, Sri Lanka	2.127286	
Vavuniya	Vavuniya	Maharambakulam Vidyalaya	False	False	VVNYVVNYMHRMBKLMVDYLY		Vavuniya	LK-43	8.852071	80.467404	Vavuniya	PS-430119	8.754431	80.498604	8.7794	80.507694	23 kutty nagar maaharambikulam, Vavuniya, Sri Lanka	2.951595	
Vavuniya	Sidambarapuram	Sidambarapuram hospital	False	False	VVNYSDMBRPRMSDMBRPRMHSPTL		Vavuniya	LK-43	8.852071	80.467404									#PoliceLocationUnknown
Vavuniya	Puvarissankulam	Puvarissankulam Hospital	False	False	VVNYPVRSSNKLMPVRSSNKLMHSPTL		Vavuniya	LK-43	8.852071	80.467404									#PoliceLocationUnknown
Vavuniya	Omanthai	Omanthai Hospital	False	False	VVNYMNTHMNTHHSPTL		Vavuniya	LK-43	8.852071	80.467404	Omantha	PS-430123	8.84719	80.497841	8.864234	80.502119	VG72+MRX, Omanthai, Sri Lanka	1.953234	
Vavuniya	Omanthai	Nauvi Hospital	False	False	VVNYMNTHNVHSPTL		Vavuniya	LK-43	8.852071	80.467404	Omantha	PS-430123	8.84719	80.497841	8.864234	80.502119	VG72+MRX, Omanthai, Sri Lanka	1.953234	
Trincomalee	Muttur	MOH Office – Muttur	False	False	TRNCMLMTTRMHFFCMTTR		Trincomalee	LK-53	8.551241	81.092014	Mutur	PS-530138	8.461133	81.259371	8.453916	81.264494	1 Old Batticaloa Rd, Mutur, Sri Lanka	0.980859	
Trincomalee	Kinniya	MOH Office – Kurungnakeni	False	False	TRNCMLKNNYMHFFCKRNGNKN		Trincomalee	LK-53	8.551241	81.092014	Kinnia	PS-530140	6.907289	79.863819	7.484932	80.353119	F9M3+X6H, Kurunegala 60000, Sri Lanka	83.927094	#CenterFarFromPolice
Trincomalee	Kinniya	MOH Office – Kinniya	False	False	TRNCMLKNNYMHFFCKNNY		Trincomalee	LK-53	8.551241	81.092014	Kinnia	PS-530140	6.907289	79.863819	8.498696	81.179644	F5XH+FVC, Kinniya 31100, Sri Lanka	228.840304	#CenterFarFromPolice
Trincomalee	Sripura	MOH Office – Sripura	False	False	TRNCMLSRPRMHFFCSRPR		Trincomalee	LK-53	8.551241	81.092014	Sripura	PS-530136	8.929617	80.81428	8.926697	80.814799	Padavi Sripura, Padaviya - Sripura Road, Welioya, Sri Lanka	0.329869	
Trincomalee	Kuchchaveli	MOH Office – Kuchchaveli	False	False	TRNCMLKCHCHVLMHFFCKCHCHVL		Trincomalee	LK-53	8.551241	81.092014	Kuchchaweli	PS-530133	8.81895	81.100438	8.740082	81.161616	P5R6+2JQ, Kumpurupiddi, Sri Lanka	11.053646	
Trincomalee	Kuchchaveli	Divisional Hospital – Kuchchaveli	False	False	TRNCMLKCHCHVLDVSNLHSPTLKCHCHVL		Trincomalee	LK-53	8.551241	81.092014	Kuchchaweli	PS-530133	8.81895	81.100438	8.814795	81.102358	R472+WW9, Kuchchaveli, Sri Lanka	0.508064	
Trincomalee	Kuchchaveli	Divisional Hospital – Nilaveli	False	False	TRNCMLKCHCHVLDVSNLHSPTLNLVL		Trincomalee	LK-53	8.551241	81.092014	Kuchchaweli	PS-530133	8.81895	81.100438	8.681035	81.193632	M5JV+CF6, Nilaveli, Sri Lanka	18.44695	
Trincomalee	Pulmoddai	Base Hospital -Pulmoddai	False	False	TRNCMLPLMDDBSHSPTLPLMDD		Trincomalee	LK-53	8.551241	81.092014	Pulmudai	PS-530135	6.915266	79.87829	8.941204	80.983139	WXRM+F7J, Pulmoddai, Sri Lanka	256.112801	#CenterFarFromPolice
Trincomalee	Serunuwara	MOH Office – Serunuwara	False	False	TRNCMLSRNWRMHFFCSRNWR		Trincomalee	LK-53	8.551241	81.092014	Serunuwara	PS-530244	8.321863	81.299322	8.323143	81.299894	B10, Sri Lanka	0.155671	
Trincomalee	Harbour Police	MOH Office – Trincomalee	False	False	TRNCMLHRBRPLCMHFFCTRNCML		Trincomalee	LK-53	8.551241	81.092014	Trinco Harbour Police	PS-530131	8.56705	81.231407	8.598974	81.216963	MOH Office, Farm Rd, Trincomalee, Sri Lanka	3.890062	
Trincomalee	Harbour Police	Base Hospital – Trincomalee	False	False	TRNCMLHRBRPLCBSHSPTLTRNCML		Trincomalee	LK-53	8.551241	81.092014	Trinco Harbour Police	PS-530131	8.56705	81.231407	8.56486	81.239445	Hospital Ln, Trincomalee, Sri Lanka	0.917037	
Trincomalee	Uppuveli	MOH Office - Uppuveli	False	False	TRNCMLPPVLMHFFCPPVL		Trincomalee	LK-53	8.551241	81.092014	Uppuweli	PS-530134	8.593614	81.21743	8.607961	81.216512	Nilaveli Rd, Trincomalee, Sri Lanka	1.599005	
Trincomalee	Kantale	MOH Office - Kantale	False	False	TRNCMLKNTLMHFFCKNTL		Trincomalee	LK-53	8.551241	81.092014	Kantale	PS-530241	8.356129	81.007739	8.349617	81.009107	අග්‍රබෝධි මාවත, Kantale, Sri Lanka	0.739809	
Trincomalee	Ichchalampattu	MOH Office – Ichchalampattu	False	False	TRNCMLCHCHLMPTTMHFFCCHCHLMPTT	Eachchilampattu Hospital	Trincomalee	LK-53	8.551241	81.092014	Ichchalampattu		8.289549	81.359002	8.289644	81.358983	Highway, Ichchalampattu, Trincomalee, Sri Lanka	0.010772	
Trincomalee	Thambalagamuwa	MOH Office - Thambalagamuwa	False	False	TRNCMLTHMBLGMWMHFFCTHMBLGMW		Trincomalee	LK-53	8.551241	81.092014	Thambalagamuva	PS-530243	6.907289	79.863819	8.563603	81.239584	Hospital Ln, Trincomalee, Sri Lanka	238.604889	#CenterFarFromPolice
Batticaloa	Batticaloa	Mobile Medical Team	False	False	BTTCLBTTCLMBLMDCLTM		Batticaloa	LK-51	7.792772	81.486513	Batticaloa	PS-510101	7.717949	81.699294					#CenterLocationUnknown
Batticaloa	Batticaloa	Town Hall – Batticaloa	False	False	BTTCLBTTCLTWNHLLBTTCL		Batticaloa	LK-51	7.792772	81.486513	Batticaloa	PS-510101	7.717949	81.699294	7.710065	81.700802	PP62+28F, Batticaloa, Sri Lanka	0.89255	
Batticaloa	Batticaloa	Kokuvil Vigneshwara Vidyalaya	False	False	BTTCLBTTCLKKVLVGNSHWRVDYLY		Batticaloa	LK-51	7.792772	81.486513	Batticaloa	PS-510101	7.717949	81.699294	7.740271	81.668393	PMR9+492, Batticaloa, Sri Lanka	4.214732	
Batticaloa	Kokkadicholai	MOH Office – Pattipala	False	False	BTTCLKKKDCHLMHFFCPTTPL		Batticaloa	LK-51	7.792772	81.486513	Kokkadicholai	PS-510112	7.715979	81.698757	7.023407	80.262082	A7, Karawanella, Sri Lanka	176.210764	#CenterFarFromPolice
Batticaloa	Valachchenai	Valachchenai Base Hospital	False	False	BTTCLVLCHCHNVLCHCHNBSHSPTL		Batticaloa	LK-51	7.792772	81.486513	Valachchanai	PS-510107	7.908015	81.533004	7.911315	81.533046	Valaichchenai-Nasuvantivu-Navaladi Road, Sri Lanka	0.367088	
Batticaloa	Valachchenai	MOH Office – Oddamavadi	False	False	BTTCLVLCHCHNMHFFCDDMVD		Batticaloa	LK-51	7.792772	81.486513	Valachchanai	PS-510107	7.908015	81.533004	7.912281	81.532775	WG6M+W46, Batticaloa, Sri Lanka	0.475177	
Batticaloa	Valachchenai	MOH Office – Nawaladi	False	False	BTTCLVLCHCHNMHFFCNWLD	Primary Medical Care Unit, Navalady	Batticaloa	LK-51	7.792772	81.486513	Valachchanai	PS-510107	7.908015	81.533004	7.735244	81.709126	PPP5+3MR, Kallady, Sri Lanka	27.312365	#CenterFarFromPolice
Batticaloa	Valachchenai	MOH Office – Kiran	False	False	BTTCLVLCHCHNMHFFCKRN		Batticaloa	LK-51	7.792772	81.486513	Valachchanai	PS-510107	7.908015	81.533004	7.623441	81.717877	Muthalaikudah Kanchirankudah Rd, Sri Lanka	37.64378	#CenterFarFromPolice
Batticaloa	Valachchenai	MOH Office – Valachchenai	False	False	BTTCLVLCHCHNMHFFCVLCHCHN		Batticaloa	LK-51	7.792772	81.486513	Valachchanai	PS-510107	7.908015	81.533004	7.912281	81.532775	WG6M+W46, Batticaloa, Sri Lanka	0.475177	
Batticaloa	Vakarai	MOH Office – Vakarai	False	False	BTTCLVKRMHFFCVKR	Divisional Hospital Vakarai	Batticaloa	LK-51	7.792772	81.486513	Wakarai	PS-510109	6.934132	79.856305	8.134552	81.435328	Trincomalee Hwy, Vakarai, Sri Lanka	219.417822	#CenterFarFromPolice
Batticaloa	Vavunathivu	MOH Office – Vavunathivu	False	False	BTTCLVVNTHVMHFFCVVNTHV		Batticaloa	LK-51	7.792772	81.486513	Vavunathive	PS-510102	6.933075	79.857181	7.708253	81.691368	Hospital Rd, Batticaloa, Sri Lanka	219.95575	#CenterFarFromPolice
Batticaloa	Kaluwanchikudy	Kottakallar Maha Vidyalaya	False	False	BTTCLKLWNCHKDYKTTKLLRMHVDYLY		Batticaloa	LK-51	7.792772	81.486513	Kalawanchikudy	PS-510110	7.515908	81.787051	7.487461	81.807055	FRP4+XRM, Kaluwanchikudy, Sri Lanka	3.85724	
Batticaloa	Kaluwanchikudy	Base Hospital – Kaluwanchikudy	False	False	BTTCLKLWNCHKDYBSHSPTLKLWNCHKDY		Batticaloa	LK-51	7.792772	81.486513	Kalawanchikudy	PS-510110	7.515908	81.787051	7.51724	81.785184	GQ8P+V3V, Kaluwanchikudy, Sri Lanka	0.25365	
Batticaloa	Kattankudy	MOH Office – Kattankudy	False	False	BTTCLKTTNKDYMHFFCKTTNKDY		Batticaloa	LK-51	7.792772	81.486513	Kaththankudi	PS-510103	7.715979	81.698757	7.683586	81.730767	MPMJ+C8J, Kattankudy, Sri Lanka	5.042961	
Batticaloa	Kattankudy	MOH Office – Arayampathy	False	False	BTTCLKTTNKDYMHFFCRYMPTHY		Batticaloa	LK-51	7.792772	81.486513	Kaththankudi	PS-510103	7.715979	81.698757	7.672862	81.735019	MPFP+42R, Sri Lanka	6.243191	
Batticaloa	Kattankudy	Technical College	False	False	BTTCLKTTNKDYTCHNCLCLLG		Batticaloa	LK-51	7.792772	81.486513	Kaththankudi	PS-510103	7.715979	81.698757	7.691284	81.722096	Manchanthuduwai, Batticaloa, Sri Lanka	3.76339	
Batticaloa	Kattankudy	Kalladi Sivananda Viaharaya	False	False	BTTCLKTTNKDYKLLDSVNNDVHRY		Batticaloa	LK-51	7.792772	81.486513	Kaththankudi	PS-510103	7.715979	81.698757	7.68537	81.726012	Kattankudy, Sri Lanka	4.540586	
Batticaloa	Eravur	Sandiveli Hospital	False	False	BTTCLRVRSNDVLHSPTL		Batticaloa	LK-51	7.792772	81.486513	Eravur	PS-510104	7.715979	81.698757	7.777289	81.602853	Trincomalee Hwy, Eravur, Sri Lanka	12.578998	
Batticaloa	Eravur	MOH Office – Eravur	False	False	BTTCLRVRMHFFCRVR		Batticaloa	LK-51	7.792772	81.486513	Eravur	PS-510104	7.715979	81.698757	7.783664	81.605626	QJM4+F76, Eravur, Sri Lanka	12.729342	
Batticaloa	Eravur	MOH Office - Eravur	False	False	BTTCLRVRMHFFCRVR		Batticaloa	LK-51	7.792772	81.486513	Eravur	PS-510104	7.715979	81.698757	7.783664	81.605626	QJM4+F76, Eravur, Sri Lanka	12.729342	
Batticaloa	Eravur	Eravur Hospital	False	False	BTTCLRVRRVRHSPTL		Batticaloa	LK-51	7.792772	81.486513	Eravur	PS-510104	7.715979	81.698757	7.783168	81.605999	QJM4+799, Eravur 30300, Sri Lanka	12.663585	
Batticaloa	Eravur	Aisa Mosque	False	False	BTTCLRVRSMSQ		Batticaloa	LK-51	7.792772	81.486513	Eravur	PS-510104	7.715979	81.698757	7.776897	81.604203	Eravur, Sri Lanka	12.430415	
Batticaloa	Eravur	Mawadiwembuwa Hospital	False	False	BTTCLRVRMWDWMBWHSPTL		Batticaloa	LK-51	7.792772	81.486513	Eravur	PS-510104	7.715979	81.698757	7.708032	81.690622	Hospital Ln, Batticaloa 30000, Sri Lanka	1.259116	
Batticaloa	Eravur	Tamil Central College	False	False	BTTCLRVRTMLCNTRLCLLG		Batticaloa	LK-51	7.792772	81.486513	Eravur	PS-510104	7.715979	81.698757	7.785947	81.590295	Trincomalee Road, Chenkaladi, Sri Lanka	14.264135	
Batticaloa	Eravur	Chenkaladi Hospital	False	False	BTTCLRVRCHNKLDHSPTL		Batticaloa	LK-51	7.792772	81.486513	Eravur	PS-510104	7.715979	81.698757	7.783546	81.589961	Batticaloa Rd, Chenkaladi, Sri Lanka	14.151406	
Batticaloa	Eravur	MOH Office – Chenkaladi	False	False	BTTCLRVRMHFFCCHNKLD		Batticaloa	LK-51	7.792772	81.486513	Eravur	PS-510104	7.715979	81.698757	7.783599	81.593367	Trincomalee Hwy, Chenkaladi 30350, Sri Lanka	13.837876	
Batticaloa	Karadiyanaru	Karadiyanaru Hospital	False	False	BTTCLKRDYNRKRDYNRHSPTL		Batticaloa	LK-51	7.792772	81.486513	Karadiyanaru	PS-510105	7.701992	81.537252	7.700216	81.539779	PG2Q+3WJ, Karadiyanaru, Sri Lanka	0.341482	
Ampara	Chavalakade	MOH Office – Navidanveli	False	False	MPRCHVLKDMHFFCNVDNVL		Ampara	LK-52	7.23699	81.550391	Chawalakade	PS-520125	7.413559	81.776822	7.420081	81.788401	B77, Sri Lanka	1.468805	
Ampara	Chavalakade	5th Colony Health Centre	False	False	MPRCHVLKDTHCLNYHLTHCNTR		Ampara	LK-52	7.23699	81.550391	Chawalakade	PS-520125	7.413559	81.776822	7.418836	81.781436	Chavalakade, Sri Lanka	0.776867	
Ampara	Karaitivu	MOH Office – Karaitivu	False	False	MPRKRTVMHFFCKRTV		Ampara	LK-52	7.23699	81.550391	Karaitivu		9.744059	79.870587	7.377712	81.838796	Colombo-Ratnapura-Wellawaya-Batticaloa Highway, Karativu 32250, Sri Lanka	340.788666	#CenterFarFromPolice
Ampara	Kalmunai	Ashraff Memorial Hospital	False	False	MPRKLMNSHRFFMMRLHSPTL		Ampara	LK-52	7.23699	81.550391	Kalmunai	PS-520123	7.414289	81.825006	7.403172	81.831146	A4, Ashraff Memorial Base Hospital, A4 A4, Kalmunai 32300, Sri Lanka	1.409859	
Ampara	Kalmunai	MOH Office - Kalmunai North	False	False	MPRKLMNMHFFCKLMNNRTH		Ampara	LK-52	7.23699	81.550391	Kalmunai	PS-520123	7.414289	81.825006	7.411712	81.838462	CR6Q+M9P, Kalmunai 32300, Sri Lanka	1.511625	
Ampara	Kalmunai	MOH Office - Kalmunai South	False	False	MPRKLMNMHFFCKLMNSTH		Ampara	LK-52	7.23699	81.550391	Kalmunai	PS-520123	7.414289	81.825006	7.411712	81.838462	CR6Q+M9P, Kalmunai 32300, Sri Lanka	1.511625	
Ampara	Kalmunai	Base Hospital - Kalmunai North	False	False	MPRKLMNBSHSPTLKLMNNRTH		Ampara	LK-52	7.23699	81.550391	Kalmunai	PS-520123	7.414289	81.825006	7.420034	81.82232	hospital near, Kalmunai 32300, Sri Lanka	0.704353	
Ampara	Sainthamarthu	MOH Office – Sainthamarthu	False	False	MPRSNTHMRTHMHFFCSNTHMRTH		Ampara	LK-52	7.23699	81.550391									#PoliceLocationUnknown
Ampara	Sainthamarthu	Saindamarudu Hospital	False	False	MPRSNTHMRTHSNDMRDHSPTL		Ampara	LK-52	7.23699	81.550391									#PoliceLocationUnknown
Ampara	Sammanthurai	Sammanthurai Base Hospital	False	False	MPRSMMNTHRSMMNTHRBSHSPTL		Ampara	LK-52	7.23699	81.550391	Samanthurai	PS-520124	7.365785	81.810859	7.368355	81.813042	9R96+MWM, Hospital Rd, Sammanthurai, Sri Lanka	0.373773	
Ampara	Sammanthurai	MOH Office – Nintavur	False	False	MPRSMMNTHRMHFFCNNTVR		Ampara	LK-52	7.23699	81.550391	Samanthurai	PS-520124	7.365785	81.810859	7.352821	81.856939	Hospital Rd, Nintavur 32340, Sri Lanka	5.283925	
Ampara	Sammanthurai	MOH Office – Sammanthurai	False	False	MPRSMMNTHRMHFFCSMMNTHR		Ampara	LK-52	7.23699	81.550391	Samanthurai	PS-520124	7.365785	81.810859	7.369857	81.812264	9R96+WWR, Sammanthurai, Sri Lanka	0.478712	
Ampara	Sammanthurai	Nintavur Hospital	False	False	MPRSMMNTHRNNTVRHSPTL		Ampara	LK-52	7.23699	81.550391	Samanthurai	PS-520124	7.365785	81.810859	7.353372	81.856852	Hospital Rd, Nintavur, Sri Lanka	5.258159	
Ampara	Sammanthurai	Darususalam Maha Vidyalaya	False	False	MPRSMMNTHRDRSSLMMHVDYLY		Ampara	LK-52	7.23699	81.550391	Samanthurai	PS-520124	7.365785	81.810859	7.370617	81.808855	AB33, Sammanthurai 32200, Sri Lanka	0.58115	
Ampara	Sammanthurai	Kannahi Vidyalaya	False	False	MPRSMMNTHRKNNHVDYLY		Ampara	LK-52	7.23699	81.550391	Samanthurai	PS-520124	7.365785	81.810859	7.35018	81.80359	Kallarichchel 02, Sammanthurai, Sri Lanka	1.912014	
Ampara	Thirukkovil	MOH Office – Thirukkovil	False	False	MPRTHRKKVLMHFFCTHRKKVL		Ampara	LK-52	7.23699	81.550391	Thirukkovil	PS-520127	7.113998	81.852219	7.111635	81.852892	Central Rd, Vinayagapuram, Sri Lanka	0.273131	
Ampara	Akkaraipattu	MOH Office – Addalachenai	False	False	MPRKKRPTTMHFFCDDLCHN		Ampara	LK-52	7.23699	81.550391	Akkaraipattu	PS-520126	7.216084	81.853254	7.260916	81.853493	7V63+999, Addalaichenai, Sri Lanka	4.986726	
Ampara	Akkaraipattu	MOH Office – Akkaraipattu	False	False	MPRKKRPTTMHFFCKKRPTT		Ampara	LK-52	7.23699	81.550391	Akkaraipattu	PS-520126	7.216084	81.853254	7.228134	81.851123	6VH2+7C5, Akkaraipattu, Sri Lanka	1.360772	
Ampara	Akkaraipattu	MOH Office - Alayadivembu	False	False	MPRKKRPTTMHFFCLYDVMB		Ampara	LK-52	7.23699	81.550391	Akkaraipattu	PS-520126	7.216084	81.853254	7.228134	81.851123	6VH2+7C5, Akkaraipattu, Sri Lanka	1.360772	
Ampara	Pottuvil	MOH Office – Lahugala	False	False	MPRPTTVLMHFFCLHGL		Ampara	LK-52	7.23699	81.550391	Pothuvil	PS-520128	6.878387	81.826859	6.880658	81.765015	VQJ8+726, Sangamuwa, Sri Lanka	6.834041	
Ampara	Pottuvil	MOH Office – Pottuvil	False	False	MPRPTTVLMHFFCPTTVL		Ampara	LK-52	7.23699	81.550391	Pothuvil	PS-520128	6.878387	81.826859	6.877076	81.828969	B374, Pottuvil, Sri Lanka	0.274874	
