district	police	center	dose1	dose2	fuzzy_key	alt_name	district_name_norm	district_id	district_lat	district_lng	ps_name_norm	ps_id	ps_lat	ps_lng	lat	lng	formatted_address	dis_center_to_police	tags	district_si	police_si	center_si	district_ta	police_ta	center_ta	formatted_address_si	formatted_address_ta
Colombo	Cinnamon Gardens	Viharamahadevi Park	False	False	CLMBCNNMNGRDNSVHRMHDVPRK		Colombo	LK-11	6.869636	80.019598	Cinnamon Garden	PS-110324	6.907289	79.863819	6.913391	79.86174	Viharamahadevi Park, Colombo, Sri Lanka	0.716497		කොළඹ	කුරුඳු උද්‍යාන	විහාරමහාදේවි උද්‍යානය	கொழும்பு	இலவங்கப்பட்டை தோட்டங்கள்	விஹாரமஹாதேவி பூங்கா	විහාරමහාදේවි උද්‍යානය, කොළඹ, ශ්‍රී ලංකාව	விஹாரமஹாதேவி பூங்கா, கொழும்பு, இலங்கை
Colombo	Thalangama	Diyatha Uyana	False	False	CLMBTHLNGMDYTHYN		Colombo	LK-11	6.869636	80.019598	Thalangama	PS-110466	6.91089	79.929325	6.904575	79.909831	Diyatha Uyana, B240, Sri Jayawardenepura Kotte, Sri Lanka	2.264281		කොළඹ	තලංගම	දියත උයන	கொழும்பு	தலங்கம	தியாத உயனா	දියත උයන, බී 240, ශ්‍රී ජයවර්ධනපුර කෝට්ටේ, ශ්‍රී ලංකාව	தியாத உயனா, B240, ஸ்ரீ ஜெயவர்தனபுர கோட்டே, இலங்கை
Colombo	Narahenpita	Army Hospital Narahenpita	False	False	CLMBNRHNPTRMYHSPTLNRHNPT		Colombo	LK-11	6.869636	80.019598	Narahenpita	PS-110321	6.891832	79.876715	6.900252	79.87618	08 Elvitigala Mawatha, Colombo 00800, Sri Lanka	0.938417		කොළඹ	නාරාහේන්පිට	නාරාහේන්පිට හමුදා රෝහල	கொழும்பு	நரஹேன்பிட்ட	இராணுவ மருத்துவமனை நாரஹேன்பிட்ட	08 ඇල්විටිගල මාවත, කොළඹ 00800, ශ්‍රී ලංකාව	08 எல்விட்டிகல மாவத்தை, கொழும்பு 00800, இலங்கை
Colombo	Narahenpita	Army Headquarters Mobile Team	False	False	CLMBNRHNPTRMYHDQRTRSMBLTM		Colombo	LK-11	6.869636	80.019598	Narahenpita	PS-110321	6.891832	79.876715					#CenterLocationUnknown	කොළඹ	නාරාහේන්පිට	යුද හමුදා මූලස්ථානයේ ජංගම කණ්ඩායම	கொழும்பு	நரஹேன்பிட்ட	இராணுவ தலைமையகம் மொபைல் குழு		
Colombo	Homagama	Panagoda Bodhirajarama Viharaya	False	False	CLMBHMGMPNGDBDHRJRMVHRY		Colombo	LK-11	6.869636	80.019598	Homagama	PS-110470	6.836155	80.003474	6.929161	79.88265	Gnanawimala Rd, Colombo, Sri Lanka	16.883101		කොළඹ	හෝමාගම	පනාගොඩ බෝධිරාජාරාම විහාරය	கொழும்பு	ஹோமாகம	பனகொட போதிராஜாராம விஹாராயா	ඥානවිමල පාර, කොළඹ, ශ්‍රී ලංකාව	ஞானவிமல வீதி, கொழும்பு, இலங்கை
Colombo	Borella	St. Luke's Church – Borella	False	False	CLMBBRLLSTLKSCHRCHBRLL		Colombo	LK-11	6.869636	80.019598	Borella	PS-110323	6.915266	79.87829	6.918035	79.874548	1091 Gnanartha Pradeepa Mawatha, Colombo 00800, Sri Lanka	0.515354		කොළඹ	බොරැල්ල	ශාන්ත ලූක් දේවස්ථානය - බොරැල්ල	கொழும்பு	பொரெல்லா	செயின்ட் லூக்கா தேவாலயம் - பொரெல்லா	1091 ඥානාර්ථ ප්‍රදීපා මාවත, කොළඹ 00800, ශ්‍රී ලංකාව	1091 ஞானார்த்த பிரதீப மாவத்தை, கொழும்பு 00800, இலங்கை
Colombo	Mount Lavinia	MOH Office – Rathmalana	False	False	CLMBMNTLVNMHFFCRTHMLN		Colombo	LK-11	6.869636	80.019598	Mount Lavinia	PS-110577	6.825006	79.87009	6.827115	79.878359	RVGH+R8X, Dehiwala-Mount Lavinia, Sri Lanka	0.942915		කොළඹ	ගල්කිස්ස	MOH කාර්යාලය - රත්මලාන	கொழும்பு	கல்கிசை	MOH அலுவலகம் - ரத்மலானா	ආර්වීජීඑච්+ආර් 8 එක්ස්, දෙහිවල-ගල්කිස්ස, ශ්‍රී ලංකාව	RVGH+R8X, தெஹிவளை-கல்கிசை, இலங்கை
Colombo	Maradana	National Hospital – Colombo	False	False	CLMBMRDNNTNLHSPTLCLMB		Colombo	LK-11	6.869636	80.019598	Maradana	PS-110107	6.927939	79.865471	6.918743	79.868992	Colombo 00700, Sri Lanka	1.094265		කොළඹ	මරදාන	ජාතික රෝහල - කොළඹ	கொழும்பு	மரதானா	தேசிய மருத்துவமனை - கொழும்பு	කොළඹ 00700, ශ්‍රී ලංකාව	கொழும்பு 00700, இலங்கை
Colombo	Dehiwala	MOH Office – Dehiwala	False	False	CLMBDHWLMHFFCDHWL		Colombo	LK-11	6.869636	80.019598	Dehiwala	PS-110580	6.850088	79.871696	6.861346	79.865943	VV68+G9P, Dehiwala-Mount Lavinia, Sri Lanka	1.404177		කොළඹ	දෙහිවල	MOH කාර්යාලය - දෙහිවල	கொழும்பு	தெஹிவளை	MOH அலுவலகம் - தெஹிவளை	VV68+G9P, දෙහිවල-ගල්කිස්ස, ශ්‍රී ලංකාව	VV68+G9P, தெஹிவளை-கல்கிசை, இலங்கை
Colombo	Kosgama	Kosgama Hospital	False	False	CLMBKSGMKSGMHSPTL		Colombo	LK-11	6.869636	80.019598	Kosgama	PS-920227	6.946597	80.137869	6.940956	80.124888	Salawa-Akarawita, 10730, Sri Lanka	1.564606		කොළඹ	කොස්ගම	කොස්ගම රෝහල	கொழும்பு	கொஸ்கம	கொஸ்கம மருத்துவமனை	සාලාව-අකරවිට, 10730, ශ්‍රී ලංකාව	சலாவா-அகரவிட, 10730, இலங்கை
Gampaha	Minuwangoda	MOH Office – Minuwangoda	False	False	GMPHMNWNGDMHFFCMNWNGD		Gampaha	LK-12	7.123598	80.018508	Minuwangoda	PS-120238	7.174215	79.957874	7.17227	79.956823	Katunayake-Veyangoda Rd, Minuwangoda, Sri Lanka	0.245525		ගම්පහ	මිනුවන්ගොඩ	MOH කාර්යාලය - මිනුවන්ගොඩ	கம்பஹா	மினுவாங்கொட	MOH அலுவலகம் - மினுவாங்கொட	කටුනායක-වේයන්ගොඩ පාර, මිනුවන්ගොඩ, ශ්‍රී ලංකාව	கட்டுநாயக்க-வெயங்கொட வீதி, மினுவாங்கொட, இலங்கை
Gampaha	Mirigama	Pohonnaruwa Viharaya	False	False	GMPHMRGMPHNNRWVHRY		Gampaha	LK-12	7.123598	80.018508	Meerigama	PS-120248	7.245169	80.128647	7.242735	80.126954	Mirigama, Sri Lanka	0.32902		ගම්පහ	මීරිගම	පොලොන්නරුව විහාරය	கம்பஹா	மீரிகம	பொஹொன்னருவ விஹாராயா	මීරිගම, ශ්‍රී ලංකාව	மீரிகம, இலங்கை
Gampaha	Pamunugama	Pamunugama Hospital	False	False	GMPHPMNGMPMNGMHSPTL		Gampaha	LK-12	7.123598	80.018508	Pamunugama	PS-120353	7.078892	79.859696	7.093543	79.850191	3VV2+C38, Negombo, Sri Lanka	1.938152		ගම්පහ	පමුණුගම	පමුණුගම රෝහල	கம்பஹா	பமுனுகம	பமுனுகம மருத்துவமனை	3VV2+C38, මීගමුව, ශ්‍රී ලංකාව	3VV2+C38, நீர்கொழும்பு, இலங்கை
Gampaha	Divulapitiya	MOH Office – Divulapitiya	False	False	GMPHDVLPTYMHFFCDVLPTY		Gampaha	LK-12	7.123598	80.018508	Diulapitiya	PS-120355	7.174215	79.957874	7.215486	80.013606	6287+5CX, Divulapitiya, Sri Lanka	7.67456		ගම්පහ	දිවුලපිටිය	එම්ඕඑච් කාර්යාලය - දිවුලපිටිය	கம்பஹா	திவுலபிட்டிய	MOH அலுவலகம் - திவுலபிட்டிய	6287+5CX, දිවුලපිටිය, ශ්‍රී ලංකාව	6287+5CX, திவுலபிட்டிய, இலங்கை
Gampaha	Ja Ela	MOH Office - Ja Ela	False	False	GMPHJLMHFFCJL		Gampaha	LK-12	7.123598	80.018508	Ja - Ela	PS-120133	7.081055	79.890504	7.075216	79.893879	60 Mount Kalvary Rd, Ja-Ela, Sri Lanka	0.748731		ගම්පහ	ජා ඇල	MOH කාර්යාලය - ජා ඇල	கம்பஹா	ஜா எல	MOH அலுவலகம் - ஜா எல	60 කල්වාරි පාර, ජා-ඇල, ශ්‍රී ලංකාව	60 மவுண்ட் கல்வாரி சாலை, ஜா-எல, இலங்கை
Gampaha	Wattala	MOH Office – Wattala	False	False	GMPHWTTLMHFFCWTTL		Gampaha	LK-12	7.123598	80.018508	Wattala	PS-120128	6.993713	79.894506	6.995817	79.885793	301 Hendala Rd, Wattala, Sri Lanka	0.989991		ගම්පහ	වත්තල	MOH කාර්යාලය - වත්තල	கம்பஹா	வத்தளை	MOH அலுவலகம் - வத்தளை	301 හැඳල පාර, වත්තල, ශ්‍රී ලංකාව	301 ஹெந்தலா சாலை, வத்தளை, இலங்கை
Gampaha	Ragama	MOH Office – Ragama	False	False	GMPHRGMMHFFCRGM		Gampaha	LK-12	7.123598	80.018508	Ragama	PS-120134	7.034975	79.924148	7.027386	79.920232	2WGC+X35, Ragama, Sri Lanka	0.948382		ගම්පහ	රාගම	MOH කාර්යාලය - රාගම	கம்பஹா	ராகம	MOH அலுவலகம் - ராகம	2WGC+X35, රාගම, ශ්‍රී ලංකාව	2WGC+X35, ராகம, இலங்கை
Kalutara	Baduraliya	Al Fasiyathul Nasriya Muslim Balika Navodaya Vidyalaya	False	False	KLTRBDRLYLFSYTHLNSRYMSLMBLKNVDYVDYLY		Kalutara	LK-13	6.577316	80.127363	Baduraliya	PS-1302106	6.516756	80.226716	6.465274	79.975427	12/7 Maradana Rd, Beruwala, Sri Lanka	28.355878	#CenterFarFromPolice	කළුතර	බදුරලිය	අල් ෆසියාතුල් නස්රියා මුස්ලිම් බාලිකා නවෝදය විද්‍යාලය	களுத்துறை	பதுரலியா	அல் ஃபாசியத்துல் நஸ்ரியா முஸ்லிம் பாலிகா நவோதயா வித்யாலயா	12/7 මරදාන පාර, බේරුවල, ශ්‍රී ලංකාව	12/7 மருதானை சாலை, பேருவளை, இலங்கை
Kalutara	Agalawatta	Pimbura Hospital	False	False	KLTRGLWTTPMBRHSPTL		Kalutara	LK-13	6.577316	80.127363	Agalawatta		6.542566	80.157178	6.575949	80.158371	H5G5+98H, කළුතර, Sri Lanka	3.715525		කළුතර	අගලවත්ත	පිඹුර රෝහල	களுத்துறை	அகலவத்தை	பிம்புரா மருத்துவமனை	H5G5+98H, කළුතර, ශ්‍රී ලංකාව	H5G5+98H, கருப்புதர, இலங்கை
Kalutara	Matugama	Weththewa Hospital	False	False	KLTRMTGMWTHTHWHSPTL		Kalutara	LK-13	6.577316	80.127363	Mathugama	PS-1302103	6.520881	80.117908	6.523087	80.125192	District Hospital, Hospital Road,Weththewa,., Matugama, Sri Lanka	0.841523		කළුතර	මතුගම	වෙත්තෑව රෝහල	களுத்துறை	மத்துகம	வெத்தேவா மருத்துவமனை	දිසා රෝහල, රෝහල් පාර, වෙත්තෑව,., මතුගම, ශ්‍රී ලංකාව	மாவட்ட மருத்துவமனை, மருத்துவமனை சாலை, வெத்தேவா,., மத்துகம, இலங்கை
Kalutara	Matugama	Katugahahena Hospital	False	False	KLTRMTGMKTGHHNHSPTL		Kalutara	LK-13	6.577316	80.127363	Mathugama	PS-1302103	6.520881	80.117908	6.489328	80.08471	F3QM+PVP, Bopitiya, Sri Lanka	5.077192		කළුතර	මතුගම	කටුගහහේන රෝහල	களுத்துறை	மத்துகம	கட்டுகஹஹேனா மருத்துவமனை	F3QM+PVP, බෝපිටිය, ශ්‍රී ලංකාව	F3QM+PVP, போபிடியா, இலங்கை
Kalutara	Dodangoda	Bombuwala Viharaya	False	False	KLTRDDNGDBMBWLVHRY		Kalutara	LK-13	6.577316	80.127363	Dodangoda	PS-130299	6.553375	80.023569	6.575407	80.01428	Bombuwala, Sri Lanka	2.656896		කළුතර	දොඩන්ගොඩ	බෝම්බුවල විහාරය	களுத்துறை	தொடங்கொட	பொம்புவல விஹாராயா	බෝම්බුවල, ශ්‍රී ලංකාව	பம்புவாலா, இலங்கை
Kalutara	Aluthgama	Moragalla Gangarama Viharaya	False	False	KLTRLTHGMMRGLLGNGRMVHRY		Kalutara	LK-13	6.577316	80.127363	Aluthgama	PS-1302100	6.432842	79.998032	6.449296	80.000796	Kandavihara Yati Rd, Beruwala, Sri Lanka	1.855498		කළුතර	අලුත්ගම	මොරගල්ල ගංගාරාම විහාරය	களுத்துறை	அளுத்கம	மொரகல்ல கங்காராம விகாரை	කඳවිහාර යටි පාර, බේරුවල, ශ්‍රී ලංකාව	கந்தவிஹார யதி வீதி, பேருவளை, இலங்கை
Kalutara	Kalutara South	NIHS	False	False	KLTRKLTRSTHNHS		Kalutara	LK-13	6.577316	80.127363	Kalutara South	PS-130296	6.58486	79.961043	6.55864	79.977416	HX5G+FX3, Katukurunda, Sri Lanka	3.432035		කළුතර	කළුතර දකුණ	NIHS	களுத்துறை	களுத்துறை தெற்கு	என்ஐஎச்எஸ்	HX5G+FX3, කටුකුරුන්ද, ශ්‍රී ලංකාව	HX5G+FX3, கட்டுக்குருந்தா, இலங்கை
Kalutara	Kalutara South	Army Headquarters Mobile Team	False	False	KLTRKLTRSTHRMYHDQRTRSMBLTM		Kalutara	LK-13	6.577316	80.127363	Kalutara South	PS-130296	6.58486	79.961043					#CenterLocationUnknown	කළුතර	කළුතර දකුණ	යුද හමුදා මූලස්ථානයේ ජංගම කණ්ඩායම	களுத்துறை	களுத்துறை தெற்கு	இராணுவ தலைமையகம் மொபைல் குழு		
Kalutara	Kalutara South	Rajawatta Viharaya	False	False	KLTRKLTRSTHRJWTTVHRY		Kalutara	LK-13	6.577316	80.127363	Kalutara South	PS-130296	6.58486	79.961043	6.586943	79.960167	Galle Rd, Kalutara, Sri Lanka	0.251098		කළුතර	කළුතර දකුණ	රජවත්ත විහාරය	களுத்துறை	களுத்துறை தெற்கு	ராஜவத்த விஹாராயா	ගාල්ල පාර, කළුතර, ශ්‍රී ලංකාව	காலி வீதி, களுத்துறை, இலங்கை
Moneragala	Monaragala	Monaragala Community Hall	False	False	MNRGLMNRGLMNRGLCMMNTYHLL		Moneragala	LK-82	6.787517	81.303744	Monaragala	PS-820121	6.869866	81.348106	6.872778	81.350683	Moneragala, Sri Lanka	0.431159		මොණරාගල	මොනරාගල	මොනරාගල ප්‍රජා ශාලාව	மொனராகலை	மொனராகலை	மொனராகலை சமூக மண்டபம்	මොනරාගල, ශ්‍රී ලංකාව	மொனராகலை, இலங்கை
Monaragala	Monaragala	Mahanama Vidyalaya	False	False	MNRGLMNRGLMHNMVDYLY		Moneragala	LK-82	6.787517	81.303744	Monaragala	PS-820121	6.869866	81.348106	6.876612	81.348211	Potuvile Road Colombo - Batticaloa Hwy, Monaragala, Sri Lanka	0.750446		මොනරාගල	මොනරාගල	මහානාම විද්‍යාලය	மொனராகலை	மொனராகலை	மகாநாம வித்யாலயா	පොතුවිලේ පාර කොළඹ - මඩකලපුව හ්වි, මොනරාගල, ශ්‍රී ලංකාව	பொட்டுவிலே சாலை கொழும்பு - மட்டக்களப்பு எச்வி, மொனராகலை, இலங்கை
Monaragala	Ambalantota	MOH Office – Ambalantota	False	False	MNRGLMBLNTTMHFFCMBLNTT		Moneragala	LK-82	6.787517	81.303744	Ambalantota	PS-330157	6.12516	81.023981	6.122767	81.005973	Walawa watta Road, Malpeththawa, Ambalantota, Sri Lanka	2.009195		මොනරාගල	අම්බලන්තොට	MOH කාර්යාලය - අම්බලන්තොට	மொனராகலை	அம்பலாந்தோட்டை	MOH அலுவலகம் - அம்பலாந்தோட்டை	වලව වත්ත පාර, මල්පෙත්තාව, අම්බලන්තොට, ශ්‍රී ලංකාව	வலவா வாட்டா சாலை, மால்பெத்தவா, அம்பலாந்தோட்டை, இலங்கை
Hambantota	Hambantota	MOH Office – Hambantota	False	False	HMBNTTHMBNTTMHFFCHMBNTT		Hambantota	LK-33	6.259779	81.098619	Hambantota	PS-330156	6.125872	81.12521	6.171162	81.127	54CG+FQ9, Hambantota, Sri Lanka	5.041487		හම්බන්තොට	හම්බන්තොට	MOH කාර්යාලය - හම්බන්තොට	அம்பாந்தோட்டை	அம்பாந்தோட்டை	MOH அலுவலகம் - அம்பாந்தோட்டை	54CG+FQ9, හම්බන්තොට, ශ්‍රී ලංකාව	54CG+FQ9, ஹம்பாந்தோட்டை, இலங்கை
Hambantota	Sooriyawewa	MOH Office – Sooriyawewa	False	False	HMBNTTSRYWWMHFFCSRYWW		Hambantota	LK-33	6.259779	81.098619	Sooriyawewa	PS-330155	6.306022	81.003873	6.304862	81.004768	8233+WWR, Sooriyawewa, Sri Lanka	0.1626		හම්බන්තොට	සූරියවැව	MOH කාර්යාලය - සූරියවැව	அம்பாந்தோட்டை	சூரியவெவ	MOH அலுவலகம் - சூரியவெவ	8233+ඩබ්ලිව්ඩබ්ලිව්ආර්, සූරියවැව, ශ්‍රී ලංකාව	8233+WWR, சூரியவெவ, இலங்கை
Hambantota	Kegalle	Damunu Pola Viharaya	False	False	HMBNTTKGLLDMNPLVHRY		Hambantota	LK-33	6.259779	81.098619	Kegalle	PS-920118	7.255928	80.353156	6.387517	81.450621	Situlpawwa, Sri Lanka	154.987102	#CenterFarFromPolice	හම්බන්තොට	කෑගල්ල	දමුනු පොළ විහාරය	அம்பாந்தோட்டை	கேகாலை	தமுனு போல விஹாராயா	සිතුල්පව්ව, ශ්‍රී ලංකාව	சித்துல்பாவா, இலங்கை
Hambantota	Kegalle	Andurapotha Pirivena	False	False	HMBNTTKGLLNDRPTHPRVN		Hambantota	LK-33	6.259779	81.098619	Kegalle	PS-920118	7.255928	80.353156	6.125071	81.120965	Main St, Hambantota, Sri Lanka	151.711452	#CenterFarFromPolice	හම්බන්තොට	කෑගල්ල	අඳුරපොත පිරිවෙන	அம்பாந்தோட்டை	கேகாலை	அதுரபோத பிரிவேனா	ප්‍රධාන ශාන්ත, හම්බන්තොට, ශ්‍රී ලංකාව	பிரதான செயின்ட், அம்பாந்தோட்டை, இலங்கை
Hambantota	Aranayaka	Rivisanda Maha Vidyalaya - Ussapitiya	False	False	HMBNTTRNYKRVSNDMHVDYLYSSPTY		Hambantota	LK-33	6.259779	81.098619	Aranayaka	PS-920120	7.186505	80.455273	7.211407	80.458031	Mawanella-Aranayake-Horawela Rd, Sri Lanka	2.786516		හම්බන්තොට	අරණායක	රිවිසන්ද මහා විද්‍යාලය - උස්සාපිටිය	அம்பாந்தோட்டை	அரநாயகம்	ரிவிசந்த மகா வித்தியாலயம் - உஸ்ஸபிட்டிய	මාවනැල්ල-අරණායක-හොරවෙල පාර, ශ්‍රී ලංකාව	மாவனெல்ல-அரநாயக்க-ஹொரவெல வீதி, இலங்கை
Hambantota	Aranayaka	Bodhiraja Vidyalaya - Ussapitiya	False	False	HMBNTTRNYKBDHRJVDYLYSSPTY		Hambantota	LK-33	6.259779	81.098619	Aranayaka	PS-920120	7.186505	80.455273	7.217564	80.451105	Hettimulla-Diwala-Ussapitiya Rd, Ussapitiya, Sri Lanka	3.485171		හම්බන්තොට	අරණායක	බෝධිරාජ විද්‍යාලය - උස්සාපිටිය	அம்பாந்தோட்டை	அரநாயகம்	போதிராஜா வித்யாலயா - உஸ்ஸபிடியா	හෙට්ටිමුල්ල-දීවල-උස්සාපිටිය පාර, උස්සාපිටිය, ශ්‍රී ලංකාව	ஹெட்டிமுல்லா-திவாலா-உஸ்ஸபிட்டிய சாலை, உசாபிட்டிய, இலங்கை
Hambantota	Aranayaka	Galathara Maha Vidyalaya	False	False	HMBNTTRNYKGLTHRMHVDYLY		Hambantota	LK-33	6.259779	81.098619	Aranayaka	PS-920120	7.186505	80.455273	6.07308	80.704144	Hakmana - Beliatte - Tangalle Rd, Sri Lanka	126.861729	#CenterFarFromPolice	හම්බන්තොට	අරණායක	ගලතර මහා විද්‍යාලය	அம்பாந்தோட்டை	அரநாயகம்	கலாத்தர மகா வித்தியாலயம்	හක්මන - බෙලිඅත්තේ - තංගල්ල පාර, ශ්‍රී ලංකාව	ஹக்மனா - பெலியாட்டே - தங்காலை சாலை, இலங்கை
Hambantota	Rambukkana	Ashoka Maha Vidyalaya - Rambukkana	False	False	HMBNTTRMBKKNSHKMHVDYLYRMBKKN		Hambantota	LK-33	6.259779	81.098619	Rambukkana	PS-920123	7.324319	80.387808	7.329512	80.403092	Rambukkana-Mawanella Rd, Rambukkana 71100, Sri Lanka	1.782347		හම්බන්තොට	රඹුක්කන	අශෝක මහා විද්‍යාලය - රඹුක්කන	அம்பாந்தோட்டை	ரம்புக்கானா	அசோக மகா வித்தியாலயம் - ரம்புக்கன	රඹුක්කන-මාවනැල්ල පාර, රඹුක්කන 71100, ශ්‍රී ලංකාව	ரம்புக்கன-மாவனெல்லா சாலை, ரம்புக்கான 71100, இலங்கை
Hambantota	Rambukkana	Hiriwadunna Primary School	False	False	HMBNTTRMBKKNHRWDNNPRMRYSCHL		Hambantota	LK-33	6.259779	81.098619	Rambukkana	PS-920123	7.324319	80.387808	7.290243	80.386481	Karandupona-Rambukkna Road, Rambukkana 71100, Sri Lanka	3.793094		හම්බන්තොට	රඹුක්කන	හිරිවඩුන්න ප්‍රාථමික විද්‍යාලය	அம்பாந்தோட்டை	ரம்புக்கானா	ஹிரிவடுன்னா ஆரம்பப் பள்ளி	කරndුපොන-රඹුක්කන පාර, රඹුක්කන 71100, ශ්‍රී ලංකාව	கரண்டுபோனா-ரம்புக்னா சாலை, ரம்புக்கனா 71100, இலங்கை
Hambantota	Rambukkana	Salvation Army Church – Rambukkana	False	False	HMBNTTRMBKKNSLVTNRMYCHRCHRMBKKN		Hambantota	LK-33	6.259779	81.098619	Rambukkana	PS-920123	7.324319	80.387808	7.381109	80.36739	99J8+CXR, Rambukkana, Sri Lanka	6.706311		හම්බන්තොට	රඹුක්කන	ගැලවීමේ හමුදා පල්ලිය - රඹුක්කන	அம்பாந்தோட்டை	ரம்புக்கானா	சால்வேஷன் ஆர்மி சர்ச் - ரம்புக்கானா	99J8+CXR, රඹුක්කන, ශ්‍රී ලංකාව	99J8+CXR, ரம்புக்கானா, இலங்கை
Hambantota	Deraniyagala	Sambodhi Viharaya	False	False	HMBNTTDRNYGLSMBDHVHRY		Hambantota	LK-33	6.259779	81.098619	Deraniyagala	PS-920228	6.935815	80.334998	6.877406	80.386449	C/11/2, Pahankanda shri sambodhi viharaya, Gollahinna, Deraniyagala, Sri Lanka	8.630558		හම්බන්තොට	දැරණියගල	සම්බෝධි විහාරය	அம்பாந்தோட்டை	தரனியகலா	சம்போதி விஹாராயா	සී/11/2, පහන්කන්ද ශ්‍රී සම්බෝධි විහාරය, ගොල්ලාහින්න, දැරණියගල, ශ්‍රී ලංකාව	சி/11/2, பஹன்கந்தா ஸ்ரீ சம்போதி விஹாராயா, கொல்லாஹின்னா, தெரணியாகலா, இலங்கை
Hambantota	Deraniyagala	Kirihena Viharaya	False	False	HMBNTTDRNYGLKRHNVHRY		Hambantota	LK-33	6.259779	81.098619	Deraniyagala	PS-920228	6.935815	80.334998	6.153582	81.127149	Hambantota, Sri Lanka	123.421498	#CenterFarFromPolice	හම්බන්තොට	දැරණියගල	කිරිහේන විහාරය	அம்பாந்தோட்டை	தரனியகலா	கிரிஹேன விஹாராயா	හම්බන්තොට, ශ්‍රී ලංකාව	அம்பாந்தோட்டை, இலங்கை
Hambantota	Bulathkohupitiya	Kendaoya Vidyalaya	False	False	HMBNTTBLTHKHPTYKNDYVDYLY		Hambantota	LK-33	6.259779	81.098619	Bulathkohupitiya	PS-920232	7.106684	80.3347	6.07308	80.704144	Hakmana - Beliatte - Tangalle Rd, Sri Lanka	121.999643	#CenterFarFromPolice	හම්බන්තොට	බුලත්කොහුපිටිය	කෙන්දඔය විද්‍යාලය	அம்பாந்தோட்டை	புலத்கோஹுபிடியா	கெண்டோயா வித்யாலயா	හක්මන - බෙලිඅත්තේ - තංගල්ල පාර, ශ්‍රී ලංකාව	ஹக்மனா - பெலியாட்டே - தங்காலை சாலை, இலங்கை
Hambantota	Bulathkohupitiya	Alawathura Vidyalaya	False	False	HMBNTTBLTHKHPTYLWTHRVDYLY		Hambantota	LK-33	6.259779	81.098619	Bulathkohupitiya	PS-920232	7.106684	80.3347	6.153582	81.127149	Hambantota, Sri Lanka	137.493408	#CenterFarFromPolice	හම්බන්තොට	බුලත්කොහුපිටිය	අලවතුර විද්‍යාලය	அம்பாந்தோட்டை	புலத்கோஹுபிடியா	அலவத்துரா வித்தியாலயம்	හම්බන්තොට, ශ්‍රී ලංකාව	அம்பாந்தோட்டை, இலங்கை
Hambantota	Bulathkohupitiya	Ambamalla Community Hall	False	False	HMBNTTBLTHKHPTYMBMLLCMMNTYHLL		Hambantota	LK-33	6.259779	81.098619	Bulathkohupitiya	PS-920232	7.106684	80.3347	7.03101	80.046497	22JW+CH5, Sri Lanka	32.907796	#CenterFarFromPolice	හම්බන්තොට	බුලත්කොහුපිටිය	අඹමල්ල ප්‍රජා ශාලාව	அம்பாந்தோட்டை	புலத்கோஹுபிடியா	அம்பமல்லா சமுதாயக் கூடம்	22JW+CH5, ශ්‍රී ලංකාව	22JW+CH5, இலங்கை
Hambantota	Bulathkohupitiya	Dedunugala Maha Vidyalaya	False	False	HMBNTTBLTHKHPTYDDNGLMHVDYLY		Hambantota	LK-33	6.259779	81.098619	Bulathkohupitiya	PS-920232	7.106684	80.3347	6.07308	80.704144	Hakmana - Beliatte - Tangalle Rd, Sri Lanka	121.999643	#CenterFarFromPolice	හම්බන්තොට	බුලත්කොහුපිටිය	දේදුනුගල මහා විද්‍යාලය	அம்பாந்தோட்டை	புலத்கோஹுபிடியா	தேடுனுகல மகா வித்தியாலயம்	හක්මන - බෙලිඅත්තේ - තංගල්ල පාර, ශ්‍රී ලංකාව	ஹக்மனா - பெலியாட்டே - தங்காலை சாலை, இலங்கை
Hambantota	Bulathkohupitiya	Nevismeier Pahala Primary School	False	False	HMBNTTBLTHKHPTYNVSMRPHLPRMRYSCHL		Hambantota	LK-33	6.259779	81.098619	Bulathkohupitiya	PS-920232	7.106684	80.3347	6.266428	80.690393	Urubokka Rd, Katuwana, Sri Lanka	101.3859	#CenterFarFromPolice	හම්බන්තොට	බුලත්කොහුපිටිය	නෙවිස්මියර් පහළ ප්‍රාථමික විද්‍යාලය	அம்பாந்தோட்டை	புலத்கோஹுபிடியா	நெவிஸ்மியர் பஹாலா ஆரம்பப் பள்ளி	Ruරුබොක්ක පාර, කටුවන, ශ්‍රී ලංකාව	உருபொக்க வீதி, கட்டுவானா, இலங்கை
Hambantota	Ruwanwella	Humbaswalana Primary School	False	False	HMBNTTRWNWLLHMBSWLNPRMRYSCHL		Hambantota	LK-33	6.259779	81.098619	Ruwanwella	PS-920229	7.046189	80.254174	7.043001	80.254684	27V3+6V3, Ruwanwella, Sri Lanka	0.359042		හම්බන්තොට	රුවන්වැල්ල	හුඹස්වාලන ප්‍රාථමික විද්‍යාලය	அம்பாந்தோட்டை	ருவன்வெல்ல	ஹம்பஸ்வலானா தொடக்கப்பள்ளி	27V3+6V3, රුවන්වැල්ල, ශ්‍රී ලංකාව	27V3+6V3, ருவான்வெல்லா, இலங்கை
Hambantota	Ruwanwella	Dunumala Primary School	False	False	HMBNTTRWNWLLDNMLPRMRYSCHL		Hambantota	LK-33	6.259779	81.098619	Ruwanwella	PS-920229	7.046189	80.254174	7.043001	80.254684	27V3+6V3, Ruwanwella, Sri Lanka	0.359042		හම්බන්තොට	රුවන්වැල්ල	දුනුමාල ප්‍රාථමික විද්‍යාලය	அம்பாந்தோட்டை	ருவன்வெல்ல	துனுமலை தொடக்கப்பள்ளி	27V3+6V3, රුවන්වැල්ල, ශ්‍රී ලංකාව	27V3+6V3, ருவான்வெல்லா, இலங்கை
Hambantota	Ruwanwella	Grand View Hall	False	False	HMBNTTRWNWLLGRNDVWHLL		Hambantota	LK-33	6.259779	81.098619	Ruwanwella	PS-920229	7.046189	80.254174	6.267019	81.228933	Randunu Kele Watte, Weerawila, Hambantota District, Sri Lanka., A2, Wirawila, Sri Lanka	138.233147	#CenterFarFromPolice	හම්බන්තොට	රුවන්වැල්ල	ග්‍රෑන්ඩ් වීව් හෝල්	அம்பாந்தோட்டை	ருவன்வெல்ல	கிராண்ட் வியூ ஹால்	රන්දුණු කැලේ වත්තේ, වීරවිල, හම්බන්තොට දිස්ත්‍රික්කය, ශ්‍රී ලංකාව., ඒ 2, විරවිල, ශ්‍රී ලංකාව	ரந்துனு கெலே வாட்டே, வீரவில, ஹம்பாந்தோட்டை மாவட்டம், இலங்கை., ஏ 2, விரவில, இலங்கை
Hambantota	Ruwanwella	Lewangama Primary School	False	False	HMBNTTRWNWLLLWNGMPRMRYSCHL		Hambantota	LK-33	6.259779	81.098619	Ruwanwella	PS-920229	7.046189	80.254174	7.043001	80.254684	27V3+6V3, Ruwanwella, Sri Lanka	0.359042		හම්බන්තොට	රුවන්වැල්ල	ලේවන්ගම ප්‍රාථමික විද්‍යාලය	அம்பாந்தோட்டை	ருவன்வெல்ல	லெவங்கம தொடக்கப்பள்ளி	27V3+6V3, රුවන්වැල්ල, ශ්‍රී ලංකාව	27V3+6V3, ருவான்வெல்லா, இலங்கை
Hambantota	Ruwanwella	Arepolamulla Primary School	False	False	HMBNTTRWNWLLRPLMLLPRMRYSCHL		Hambantota	LK-33	6.259779	81.098619	Ruwanwella	PS-920229	7.046189	80.254174	7.043001	80.254684	27V3+6V3, Ruwanwella, Sri Lanka	0.359042		හම්බන්තොට	රුවන්වැල්ල	අරෙපොලමුල්ල ප්‍රාථමික විද්‍යාලය	அம்பாந்தோட்டை	ருவன்வெல்ல	அரெபோலமுல்லா தொடக்கப்பள்ளி	27V3+6V3, රුවන්වැල්ල, ශ්‍රී ලංකාව	27V3+6V3, ருவான்வெல்லா, இலங்கை
Hambantota	Ruwanwella	Walgampotha Maha Vidyalaya	False	False	HMBNTTRWNWLLWLGMPTHMHVDYLY		Hambantota	LK-33	6.259779	81.098619	Ruwanwella	PS-920229	7.046189	80.254174	7.045873	80.253706	Ruwanwella, Sri Lanka	0.062423		හම්බන්තොට	රුවන්වැල්ල	වල්ගම්පොත මහා විද්‍යාලය	அம்பாந்தோட்டை	ருவன்வெல்ல	வல்கம்போத மகா வித்தியாலயம்	රුවන්වැල්ල, ශ්‍රී ලංකාව	ருவன்வெல்ல, இலங்கை
Hambantota	Ruwanwella	Imbulana Maternity Hall	False	False	HMBNTTRWNWLLMBLNMTRNTYHLL		Hambantota	LK-33	6.259779	81.098619	Ruwanwella	PS-920229	7.046189	80.254174	7.072413	80.250253	Imbulana, Sri Lanka	2.948813		හම්බන්තොට	රුවන්වැල්ල	ඉඹුලාන මාතෘ ශාලාව	அம்பாந்தோட்டை	ருவன்வெல்ல	இம்புலானா மகப்பேறு மண்டபம்	ඉඹුලාන, ශ්‍රී ලංකාව	இம்புலானா, இலங்கை
Hambantota	Ruwanwella	Kadigamuwa Primary School	False	False	HMBNTTRWNWLLKDGMWPRMRYSCHL		Hambantota	LK-33	6.259779	81.098619	Ruwanwella	PS-920229	7.046189	80.254174	7.129747	80.232804	Ruwanwella Rd, Sri Lanka	9.588801		හම්බන්තොට	රුවන්වැල්ල	කඩිගමුව ප්‍රාථමික විද්‍යාලය	அம்பாந்தோட்டை	ருவன்வெல்ல	கடிகமுவா ஆரம்பப் பள்ளி	රුවන්වැල්ල පාර, ශ්‍රී ලංකාව	ருவன்வெல்லா சாலை, இலங்கை
Hambantota	Anuradhapura	Army Hospital Anuradhapura	False	False	HMBNTTNRDHPRRMYHSPTLNRDHPR		Hambantota	LK-33	6.259779	81.098619	Anuradapura	PS-710101	8.329752	80.407265	8.338302	80.407646	AB02, Anuradhapura, Sri Lanka	0.951939		හම්බන්තොට	අනුරාධපුර	අනුරාධපුර හමුදා රෝහල	அம்பாந்தோட்டை	அனுராதபுரம்	அனுராதபுரம் இராணுவ மருத்துவமனை	ඒබී 02, අනුරාධපුර, ශ්‍රී ලංකාව	ஏபி 02, அனுராதபுரம், இலங்கை
Anuradhapura	Parasangaswewa	Ambagaswewa Vidyalaya	False	False	NRDHPRPRSNGSWWMBGSWWVDYLY		Anuradhapura	LK-71	8.39199	80.512958	Parasangaswewa	PS-710123	8.650981	80.314759	8.335922	80.407513	Maithripala Senanayake Mawatha, Anuradhapura 50000, Sri Lanka	36.499283	#CenterFarFromPolice	අනුරාධපුර	පරසන්ගස්වැව	අඹගස්වැව විද්‍යාලය	அனுராதபுரம்	பராசங்கஸ்வேவா	அம்பகஸ்வெவ வித்தியாலயம்	මෛත්‍රීපාල සේනානායක මාවත, අනුරාධපුර 50000, ශ්‍රී ලංකාව	மைத்திரிபால சேனாநாயக்க மாவத்தை, அனுராதபுரம் 50000, இலங்கை
Jaffna	Wadukkotte	MOH Office – Chankanai	False	False	JFFNWDKKTTMHFFCCHNKN		Jaffna	LK-41	9.691792	80.098594	Vaddukoddai		9.728886	79.947771	9.753617	79.976004	QX3G+CCR, Sri Lanka	4.140836		යාපනය	වඩුක්කෝට්ටේ	MOH කාර්යාලය - චංකනායි	யாழ்	வட்டுக்கோட்டை	MOH அலுவலகம் - சங்கனை	QX3G+CCR, ශ්‍රී ලංකාව	QX3G+CCR, இலங்கை
Jaffna	Kayts	MOH Office – Karainagar	False	False	JFFNKYTSMHFFCKRNGR		Jaffna	LK-41	9.691792	80.098594	Kayts	PS-410212	9.728654	79.94775	9.725097	79.99772	Sri Lanka, Manipay, Sri Lanka	5.492521		යාපනය	කයිට්ස්	MOH කාර්යාලය - කරෙයිනගර්	யாழ்	ஊர்காவற்துறையினர்	MOH அலுவலகம் - காரைநகர்	ශ්‍රී ලංකාව, මනිපායි, ශ්‍රී ලංකාව	இலங்கை, மானிப்பாய், இலங்கை
Jaffna	Kayts	MOH Office – Kayts	False	False	JFFNKYTSMHFFCKYTS		Jaffna	LK-41	9.691792	80.098594	Kayts	PS-410212	9.728654	79.94775	9.697759	79.866366	Sri Lanka, Kayts, Sri Lanka	9.561445		යාපනය	කයිට්ස්	MOH කාර්යාලය - කයිට්ස්	யாழ்	ஊர்காவற்துறையினர்	MOH அலுவலகம் - ஊர்காவற்துறை	ශ්‍රී ලංකාව, කයිට්ස්, ශ්‍රී ලංකාව	இலங்கை, ஊர்காவற்துறை, இலங்கை
Jaffna	Chavakachcheri	Town Hall – Chavakachcheri	False	False	JFFNCHVKCHCHRTWNHLLCHVKCHCHR		Jaffna	LK-41	9.691792	80.098594	Chawakachcheri	PS-410215	9.666459	80.132384	9.659136	80.160946	M556+M94, Chavakachcheri, Sri Lanka	3.236063		යාපනය	චාවකච්චේරි	නගර ශාලාව - චාවකච්චේරි	யாழ்	சாவகச்சேரி	டவுன் ஹால் - சாவகச்சேரி	එම් 556+එම් 94, චාවකච්චේරි, ශ්‍රී ලංකාව	M556+M94, சாவகச்சேரி, இலங்கை
Kilinochchi	Kilinochchi	MOH Office - Karachchi	False	False	KLNCHCHKLNCHCHMHFFCKRCHCH		Kilinochchi	LK-45	9.415742	80.30358	Kilinochchi	PS-450131	9.392265	80.407846	9.396965	80.407782	Kandy - Jaffna Hwy, Kilinochchi, Sri Lanka	0.522827		කිලිනොච්චි	කිලිනොච්චි	MOH කාර්යාලය - කරච්චි	கிளிநொச்சி	கிளிநொச்சி	MOH அலுவலகம் - கராச்சி	මහනුවර - යාපනය හ්වි, කිලිනොච්චි, ශ්‍රී ලංකාව	கண்டி - யாழ்ப்பாணம், கிளிநொச்சி, இலங்கை
Kilinochchi	Palai	MOH Office – Palai	False	False	KLNCHCHPLMHFFCPL		Kilinochchi	LK-45	9.415742	80.30358	Palali	PS-410105	9.789552	80.06488	7.330938	80.29484	06 A6, Polgahawela, Sri Lanka	274.638245	#CenterFarFromPolice	කිලිනොච්චි	පලෙයි	MOH කාර්යාලය - පලෙයි	கிளிநொச்சி	பாளை	MOH அலுவலகம் - பாளை	06 ඒ 6, පොල්ගහවෙල, ශ්‍රී ලංකාව	06 A6, பொல்கஹவெல, இலங்கை
Kilinochchi	Dharmapuram	MOH Office – Kandawalai	False	False	KLNCHCHDHRMPRMMHFFCKNDWL		Kilinochchi	LK-45	9.415742	80.30358	Dharmapuram	PS-450136	6.873107	79.86167	9.417165	80.504182	CG83+VM7, Velikkandal, Sri Lanka	291.682933	#CenterFarFromPolice	කිලිනොච්චි	ධර්මපුරම්	MOH කාර්යාලය - කඳවලයි	கிளிநொச்சி	தர்மபுரம்	MOH அலுவலகம் - கண்டாவளை	සීජී 83+වීඑම් 7, වැලිකන්දල්, ශ්‍රී ලංකාව	CG83+VM7, வேலிக்கண்டல், இலங்கை
Kilinochchi	Pooneryn	MOH Office – Pooneryn	False	False	KLNCHCHPNRYNMHFFCPNRYN		Kilinochchi	LK-45	9.415742	80.30358	Pooneryn		9.505717	80.21101	9.507968	80.208317	G655+58P, Pooneryn, Sri Lanka	0.387256		කිලිනොච්චි	පුනරීන්	MOH කාර්යාලය - පුනරීන්	கிளிநொச்சி	பூனெரின்	MOH அலுவலகம் - பூனெரின்	ජී 655+58 පී, පූනරීන්, ශ්‍රී ලංකාව	G655+58P, பூனெரின், இலங்கை
Kilinochchi	Mulankavil	Mulankavil Hospital	False	False	KLNCHCHMLNKVLMLNKVLHSPTL		Kilinochchi	LK-45	9.415742	80.30358	Mulankavil	PS-450135	9.254463	80.141528	9.243423	80.143894	Base Hospital Mulankavil, A32 Road, Mulankavil, Kumulamunai, Sri Lanka	1.255148		කිලිනොච්චි	මුලංකාවිල්	මුලංකාවිල් රෝහල	கிளிநொச்சி	முழங்காவில்	முழங்காவில் மருத்துவமனை	මුලික රෝහල මුලංකාවිල්, ඒ 32 පාර, මුලංකාවිල්, කුමුලමුනෙයි, ශ්‍රී ලංකාව	அடிப்படை மருத்துவமனை முழங்காவில், A32 சாலை, முழங்காவில், குமுலமுனை, இலங்கை
Kilinochchi	Iyankulam	Iyankulam Tamil Maha Vidyalaya	False	False	KLNCHCHYNKLMYNKLMTMLMHVDYLY		Kilinochchi	LK-45	9.415742	80.30358	Mankulam	PS-440147	9.124606	80.448404	9.380289	80.377	Kilinochchi, Sri Lanka	29.500138	#CenterFarFromPolice	කිලිනොච්චි	අයන්කුලම්	අයන්කුලම් දෙමළ මහා විද්‍යාලය	கிளிநொச்சி	ஐயன்குளம்	ஐயன்குளம் தமிழ் மகா வித்தியாலயம்	කිලිනොච්චි, ශ්‍රී ලංකාව	கிளிநொச்சி, இலங்கை
Mannar	Mannar	MOH Office – Mannar	False	False	MNNRMNNRMHFFCMNNR		Mannar	LK-42	8.877429	80.088628	Mannar	PS-420138	8.978123	79.911642	8.979156	79.91391	Uppukulam, Mannar, Sri Lanka	0.274394		මන්නාරම	මන්නාරම	MOH කාර්යාලය - මන්නාරම	மன்னார்	மன்னார்	MOH அலுவலகம் - மன்னார்	උප්පුකුලම්, මන්නාරම, ශ්‍රී ලංකාව	உப்புக்குளம், மன்னார், இலங்கை
Mannar	Murungan	MOH Office – Nanatton	False	False	MNNRMRNGNMHFFCNNTTN		Mannar	LK-42	8.877429	80.088628	Murunkan	PS-420143	8.838186	80.038298	8.836611	80.036129	Murunkan - Nanattan Rd, Sri Lanka	0.295841		මන්නාරම	මුරුංගන්	MOH කාර්යාලය - නැනටන්	மன்னார்	முருங்கன்	MOH அலுவலகம் - நானாட்டன்	මුරුංකන් - නානාටන් පාර, ශ්‍රී ලංකාව	முருங்கன் - நானாட்டான் சாலை, இலங்கை
Trincomalee	Muttur	Annahar Central College	False	False	TRNCMLMTTRNNHRCNTRLCLLG		Trincomalee	LK-53	8.551241	81.092014	Mutur	PS-530138	8.461133	81.259371	8.457042	81.268759	Old Batticaloa Rd, Mutur, Sri Lanka	1.12856		ත්රිකුණාමලය	මුතූර්	අන්නහාර් මධ්‍ය විද්‍යාලය	திருகோணமலை	மூதூர்	அன்னஹார் மத்திய கல்லூரி	පැරණි මඩකලපුව පාර, මුතූර්, ශ්‍රී ලංකාව	பழைய மட்டக்களப்பு வீதி, மூதூர், இலங்கை
Trincomalee	Muttur	Al Hidaya Vidyalaya	False	False	TRNCMLMTTRLHDYVDYLY		Trincomalee	LK-53	8.551241	81.092014	Mutur	PS-530138	8.461133	81.259371	8.457906	81.268402	Mutur, Sri Lanka	1.056434		ත්රිකුණාමලය	මුතූර්	අල් හිදායා විද්‍යාලය	திருகோணமலை	மூதூர்	அல் ஹிதாயா வித்யாலயா	මුතූර්, ශ්‍රී ලංකාව	மூதூர், இலங்கை
Trincomalee	Muttur	Al Hilal Central College	False	False	TRNCMLMTTRLHLLCNTRLCLLG		Trincomalee	LK-53	8.551241	81.092014	Mutur	PS-530138	8.461133	81.259371	8.457042	81.268759	Old Batticaloa Rd, Mutur, Sri Lanka	1.12856		ත්රිකුණාමලය	මුතූර්	අල් හිලාල් මධ්‍ය විද්‍යාලය	திருகோணமலை	மூதூர்	அல் ஹிலால் மத்திய கல்லூரி	පැරණි මඩකලපුව පාර, මුතූර්, ශ්‍රී ලංකාව	பழைய மட்டக்களப்பு வீதி, மூதூர், இலங்கை
Trincomalee	Muttur	MOH Office – Muttur	False	False	TRNCMLMTTRMHFFCMTTR		Trincomalee	LK-53	8.551241	81.092014	Mutur	PS-530138	8.461133	81.259371	8.453916	81.264494	1 Old Batticaloa Rd, Mutur, Sri Lanka	0.980859		ත්රිකුණාමලය	මුතූර්	MOH කාර්යාලය - මුතූර්	திருகோணமலை	மூதூர்	MOH அலுவலகம் - மூதூர்	1 පරණ මඩකලපුව පාර, මුතූර්, ශ්‍රී ලංකාව	1 பழைய மட்டக்களப்பு வீதி, மூதூர், இலங்கை
Trincomalee	Muttur	Mallikaithivu Maha Vidyalaya	False	False	TRNCMLMTTRMLLKTHVMHVDYLY		Trincomalee	LK-53	8.551241	81.092014	Mutur	PS-530138	8.461133	81.259371	8.449646	81.26789	1 Old Batticaloa Rd, Mutur, Sri Lanka	1.584607		ත්රිකුණාමලය	මුතූර්	මල්ලිකයිතිවු මහා විද්‍යාලය	திருகோணமலை	மூதூர்	மல்லிகைத்தீவு மகா வித்தியாலயம்	1 පරණ මඩකලපුව පාර, මුතූර්, ශ්‍රී ලංකාව	1 பழைய மட்டக்களப்பு வீதி, மூதூர், இலங்கை
Trincomalee	Muttur	Zahira Maha Vidyalaya	False	False	TRNCMLMTTRZHRMHVDYLY		Trincomalee	LK-53	8.551241	81.092014	Mutur	PS-530138	8.461133	81.259371	8.573355	81.232605	Mosque Rd, Trincomalee 31000, Sri Lanka	12.824988		ත්රිකුණාමලය	මුතූර්	සහිරා මහා විද්‍යාලය	திருகோணமலை	மூதூர்	ஸாஹிரா மகா வித்தியாலயம்	මුස්ලිම් පල්ලිය පාර, ත්‍රිකුණාමලය 31000, ශ්‍රී ලංකාව	மசூதி சாலை, திருகோணமலை 31000, இலங்கை
Trincomalee	Muttur	Al Hamra Vidyalaya	False	False	TRNCMLMTTRLHMRVDYLY		Trincomalee	LK-53	8.551241	81.092014	Mutur	PS-530138	8.461133	81.259371	8.726266	81.172086	P5GC+GR4, Irrakkakandi, Sri Lanka	31.013792	#CenterFarFromPolice	ත්රිකුණාමලය	මුතූර්	අල් හම්රා විද්‍යාලය	திருகோணமலை	மூதூர்	அல் ஹம்ரா வித்யாலயா	පී 5 ජීසී+ජීආර් 4, ඉරක්කකණ්ඩි, ශ්‍රී ලංකාව	P5GC+GR4, இறக்கக்காண்டி, இலங்கை
Trincomalee	Muttur	Periya Palam Church	False	False	TRNCMLMTTRPRYPLMCHRCH		Trincomalee	LK-53	8.551241	81.092014	Mutur	PS-530138	8.461133	81.259371	8.426188	81.267843	Trincomalee Hwy, Sri Lanka	3.997105		ත්රිකුණාමලය	මුතූර්	පෙරිය පාලම් පල්ලිය	திருகோணமலை	மூதூர்	பெரிய பாலம் தேவாலயம்	ත්‍රිකුණාමලය හ්වි, ශ්‍රී ලංකාව	திருகோணமலை Hwy, இலங்கை
Trincomalee	Muttur	Pallikudiirippu Maha Vidyalaya	False	False	TRNCMLMTTRPLLKDRPPMHVDYLY		Trincomalee	LK-53	8.551241	81.092014	Mutur	PS-530138	8.461133	81.259371	8.582339	81.215159	H6J8+W3M, Trincomalee, Sri Lanka	14.332115		ත්රිකුණාමලය	මුතූර්	පල්ලිකුඩිඉරිප්පු මහා විද්‍යාලය	திருகோணமலை	மூதூர்	பள்ளிகுடிரிப்பு மகா வித்தியாலயம்	H6J8+W3M, ත්‍රිකුණාමලය, ශ්‍රී ලංකාව	H6J8+W3M, திருகோணமலை, இலங்கை
Trincomalee	Muttur	Jinnanagar Muslim College	False	False	TRNCMLMTTRJNNNGRMSLMCLLG		Trincomalee	LK-53	8.551241	81.092014	Mutur	PS-530138	8.461133	81.259371	8.44606	81.26022	Arabic College Road, Mutur., Mutur, Sri Lanka	1.679167		ත්රිකුණාමලය	මුතූර්	ජින්නානගර් මුස්ලිම් විද්‍යාලය	திருகோணமலை	மூதூர்	ஜின்னாநகர் முஸ்லிம் கல்லூரி	අරාබි විද්‍යාල පාර, මුතූර්., මුතූර්, ශ්‍රී ලංකාව	அரபிக் கல்லூரி சாலை, மூதூர்., மூதூர், இலங்கை
Trincomalee	Muttur	Kilivetti Hospital	False	False	TRNCMLMTTRKLVTTHSPTL		Trincomalee	LK-53	8.551241	81.092014	Mutur	PS-530138	8.461133	81.259371	8.56486	81.239445	Hospital Ln, Trincomalee, Sri Lanka	11.743908		ත්රිකුණාමලය	මුතූර්	කිලිවෙට්ටි රෝහල	திருகோணமலை	மூதூர்	கிளிவெட்டி மருத்துவமனை	රෝහල, ත්‍රිකුණාමලය, ශ්‍රී ලංකාව	மருத்துவமனை Ln, திருகோணமலை, இலங்கை
Trincomalee	Muttur	Ralkuli Vidyalaya	False	False	TRNCMLMTTRRLKLVDYLY		Trincomalee	LK-53	8.551241	81.092014	Mutur	PS-530138	8.461133	81.259371	8.447261	81.243706	Ralkuli Bridge, Trincomalee Hwy, Sri Lanka	2.313261		ත්රිකුණාමලය	මුතූර්	රාල්කුලි විද්‍යාලය	திருகோணமலை	மூதூர்	ரல்குலி வித்யாலயா	රාල්කුලි පාලම, ත්‍රිකුණාමලය හ්වි, ශ්‍රී ලංකාව	ரல்குலி பாலம், திருகோணமலை ஹெவி, இலங்கை
Trincomalee	Kinniya	MOH Office – Kurungnakeni	False	False	TRNCMLKNNYMHFFCKRNGNKN		Trincomalee	LK-53	8.551241	81.092014	Kinnia	PS-530140	6.907289	79.863819	7.484932	80.353119	F9M3+X6H, Kurunegala 60000, Sri Lanka	83.927094	#CenterFarFromPolice	ත්රිකුණාමලය	කින්නියා	එම්ඕඑච් කාර්යාලය - කුරුංග්ණකේනි	திருகோணமலை	கிண்ணியா	MOH அலுவலகம் - குருங்நகேணி	F9M3+X6H, කුරුණෑගල 60000, ශ්‍රී ලංකාව	F9M3+X6H, குருநாகல் 60000, இலங்கை
Trincomalee	Kinniya	MOH Office – Kinniya	False	False	TRNCMLKNNYMHFFCKNNY		Trincomalee	LK-53	8.551241	81.092014	Kinnia	PS-530140	6.907289	79.863819	8.498696	81.179644	F5XH+FVC, Kinniya 31100, Sri Lanka	228.840304	#CenterFarFromPolice	ත්රිකුණාමලය	කින්නියා	MOH කාර්යාලය - කින්නියා	திருகோணமலை	கிண்ணியா	MOH அலுவலகம் - கிண்ணியா	F5XH+FVC, කින්නියා 31100, ශ්‍රී ලංකාව	F5XH+FVC, கிண்ணியா 31100, இலங்கை
Trincomalee	Kinniya	Al Aksha Vidyalaya – Kinniya	False	False	TRNCMLKNNYLKSHVDYLYKNNY		Trincomalee	LK-53	8.551241	81.092014	Kinnia	PS-530140	6.907289	79.863819	8.50241	81.18629	Tampalakamam-Kinniya Rd, Kinniya 31100, Sri Lanka	229.623896	#CenterFarFromPolice	ත්රිකුණාමලය	කින්නියා	අල් අක්ෂා විද්‍යාලය - කින්නියා	திருகோணமலை	கிண்ணியா	அல் அக்ஷா வித்யாலயா - கிண்ணியா	තම්පලකමම්-කින්නියා පාර, කින්නියා 31100, ශ්‍රී ලංකාව	தம்பலகாமம்-கிண்ணியா சாலை, கிண்ணியா 31100, இலங்கை
Trincomalee	Kinniya	Al Adan Vidyalaya – Kinniya	False	False	TRNCMLKNNYLDNVDYLYKNNY		Trincomalee	LK-53	8.551241	81.092014	Kinnia	PS-530140	6.907289	79.863819	8.502547	81.180383	Kinniya, Sri Lanka	229.222923	#CenterFarFromPolice	ත්රිකුණාමලය	කින්නියා	අල් අදන් විද්‍යාලය - කින්නියා	திருகோணமலை	கிண்ணியா	அல் அதான் வித்தியாலயம் - கிண்ணியா	කින්නියා, ශ්‍රී ලංකාව	கிண்ணியா, இலங்கை
Trincomalee	Kinniya	Al Irfan Vidyalaya – Kinniya	False	False	TRNCMLKNNYLRFNVDYLYKNNY		Trincomalee	LK-53	8.551241	81.092014	Kinnia	PS-530140	6.907289	79.863819	8.481391	81.191368	F5JR+HG5, Kinniya, Sri Lanka	228.183186	#CenterFarFromPolice	ත්රිකුණාමලය	කින්නියා	අල් ඉර්ෆාන් විද්‍යාලය - කින්නියා	திருகோணமலை	கிண்ணியா	அல் இர்பான் வித்யாலயா - கிண்ணியா	F5JR+HG5, කින්නියා, ශ්‍රී ලංකාව	F5JR+HG5, கிண்ணியா, இலங்கை
Trincomalee	Sampur	Sampur Hospital	False	False	TRNCMLSMPRSMPRHSPTL		Trincomalee	LK-53	8.551241	81.092014									#PoliceLocationUnknown	ත්රිකුණාමලය	සාම්පූර්	සාම්පූර් රෝහල	திருகோணமலை	சம்பூர்	சம்பூர் மருத்துவமனை		
Trincomalee	Sampur	Health Medical Centre - Patalipuram	False	False	TRNCMLSMPRHLTHMDCLCNTRPTLPRM		Trincomalee	LK-53	8.551241	81.092014									#PoliceLocationUnknown	ත්රිකුණාමලය	සාම්පූර්	සෞඛ්‍ය වෛද්‍ය මධ්‍යස්ථානය - පාඨලීපුරම්	திருகோணமலை	சம்பூர்	சுகாதார மருத்துவ மையம் - பாடலிபுரம்		
Trincomalee	Sampur	Cheneyur Central College	False	False	TRNCMLSMPRCHNYRCNTRLCLLG		Trincomalee	LK-53	8.551241	81.092014									#PoliceLocationUnknown	ත්රිකුණාමලය	සාම්පූර්	චෙන්නූර් මධ්‍ය විද්‍යාලය	திருகோணமலை	சம்பூர்	சென்னியூர் மத்திய கல்லூரி		
Trincomalee	Sripura	MOH Office – Sripura	False	False	TRNCMLSRPRMHFFCSRPR		Trincomalee	LK-53	8.551241	81.092014	Sripura	PS-530136	8.929617	80.81428	8.926697	80.814799	Padavi Sripura, Padaviya - Sripura Road, Welioya, Sri Lanka	0.329869		ත්රිකුණාමලය	ශ්‍රීපුර	MOH කාර්යාලය - ශ්‍රීපුර	திருகோணமலை	ஸ்ரீபுரா	MOH அலுவலகம் - ஸ்ரீபுரா	පදවි ශ්‍රීපුර, පදවිය - ශ්‍රීපුර පාර, වැලිඔය, ශ්‍රී ලංකාව	படவி ஸ்ரீபுரா, படாவியா - ஸ்ரீபுரா சாலை, வெலிஓயா, இலங்கை
Trincomalee	Sripura	Jayanthiya Maha Vidyalaya	False	False	TRNCMLSRPRJYNTHYMHVDYLY		Trincomalee	LK-53	8.551241	81.092014	Sripura	PS-530136	8.929617	80.81428	8.908396	80.833813	Jayanthi wewa, Padavi -Sripura, Sri Lanka	3.190373		ත්රිකුණාමලය	ශ්‍රීපුර	ජයන්තිය මහා විද්‍යාලය	திருகோணமலை	ஸ்ரீபுரா	ஜெயந்திய மகா வித்தியாலயம்	ජයන්ති වැව, පදවි -ශ්‍රීපුර, ශ්‍රී ලංකාව	ஜெயந்தி வெவா, படவி -ஸ்ரீபுரா, இலங்கை
Trincomalee	Kuchchaveli	MOH Office – Kuchchaveli	False	False	TRNCMLKCHCHVLMHFFCKCHCHVL		Trincomalee	LK-53	8.551241	81.092014	Kuchchaweli	PS-530133	8.81895	81.100438	8.740082	81.161616	P5R6+2JQ, Kumpurupiddi, Sri Lanka	11.053646		ත්රිකුණාමලය	කුච්චවේලි	MOH කාර්යාලය - කුච්චවේලි	திருகோணமலை	குச்சவெளி	MOH அலுவலகம் - குச்சவெளி	P5R6+2JQ, කුඹුරුපිඩි, ශ්‍රී ලංකාව	P5R6+2JQ, கும்புறுப்பிடி, இலங்கை
Trincomalee	Kuchchaveli	Divisional Hospital – Kuchchaveli	False	False	TRNCMLKCHCHVLDVSNLHSPTLKCHCHVL		Trincomalee	LK-53	8.551241	81.092014	Kuchchaweli	PS-530133	8.81895	81.100438	8.814795	81.102358	R472+WW9, Kuchchaveli, Sri Lanka	0.508064		ත්රිකුණාමලය	කුච්චවේලි	ප්‍රාදේශීය රෝහල - කුච්චවේලි	திருகோணமலை	குச்சவெளி	பிரதேச மருத்துவமனை - குச்சவெளி	ආර් 472+WW9, කුච්චවේලි, ශ්‍රී ලංකාව	R472+WW9, குச்சவெளி, இலங்கை
Trincomalee	Kuchchaveli	Divisional Hospital – Nilaveli	False	False	TRNCMLKCHCHVLDVSNLHSPTLNLVL		Trincomalee	LK-53	8.551241	81.092014	Kuchchaweli	PS-530133	8.81895	81.100438	8.681035	81.193632	M5JV+CF6, Nilaveli, Sri Lanka	18.44695		ත්රිකුණාමලය	කුච්චවේලි	ප්‍රාදේශීය රෝහල - නිලාවේලි	திருகோணமலை	குச்சவெளி	பிரதேச மருத்துவமனை - நிலாவெளி	M5JV+CF6, නිලාවේලි, ශ්‍රී ලංකාව	M5JV+CF6, நிலவேலி, இலங்கை
Trincomalee	Kuchchaveli	Erakkandi Muslim College	False	False	TRNCMLKCHCHVLRKKNDMSLMCLLG		Trincomalee	LK-53	8.551241	81.092014	Kuchchaweli	PS-530133	8.81895	81.100438	8.824431	81.095742	R3FW+Q7H, Kuchchaveli, Sri Lanka	0.798806		ත්රිකුණාමලය	කුච්චවේලි	එරක්කණ්ඩි මුස්ලිම් විද්‍යාලය	திருகோணமலை	குச்சவெளி	ஏரக்கண்டி முஸ்லிம் கல்லூரி	R3FW+Q7H, කුච්චවේලි, ශ්‍රී ලංකාව	R3FW+Q7H, குச்சவெளி, இலங்கை
Trincomalee	Kuchchaveli	Al Nuria Vidyalaya – Kuchchaveli	False	False	TRNCMLKCHCHVLLNRVDYLYKCHCHVL		Trincomalee	LK-53	8.551241	81.092014	Kuchchaweli	PS-530133	8.81895	81.100438	8.821385	81.094781	Kuchchaveli, Sri Lanka	0.678215		ත්රිකුණාමලය	කුච්චවේලි	අල් නුරියා විද්‍යාලය - කුච්චවේලි	திருகோணமலை	குச்சவெளி	அல் நூரியா வித்யாலயா - குச்சவெளி	කුච්චවේලි, ශ්‍රී ලංකාව	குச்சவெளி, இலங்கை
Trincomalee	Kuchchaveli	Family Health Services Office – Tiriyaya	False	False	TRNCMLKCHCHVLFMLYHLTHSRVCSFFCTRYY		Trincomalee	LK-53	8.551241	81.092014	Kuchchaweli	PS-530133	8.81895	81.100438	8.564779	81.237545	H67Q+W27, Manayaweli, Sri Lanka	32.039577	#CenterFarFromPolice	ත්රිකුණාමලය	කුච්චවේලි	පවුල් සෞඛ්‍ය සේවා කාර්යාලය - තිරියාය	திருகோணமலை	குச்சவெளி	குடும்ப சுகாதார சேவைகள் அலுவலகம் - திரையா	H67Q+W27, මානයාවේලි, ශ්‍රී ලංකාව	H67Q+W27, மனயவெளி, இலங்கை
Trincomalee	Pulmoddai	Base Hospital -Pulmoddai	False	False	TRNCMLPLMDDBSHSPTLPLMDD		Trincomalee	LK-53	8.551241	81.092014	Pulmudai	PS-530135	6.915266	79.87829	8.941204	80.983139	WXRM+F7J, Pulmoddai, Sri Lanka	256.112801	#CenterFarFromPolice	ත්රිකුණාමලය	පුල්මොඩෙයි	මූලික රෝහල -පුල්මොඩෙයි	திருகோணமலை	புல்மோட்டை	அடிப்படை மருத்துவமனை -புல்மோடை	ඩබ්ලිව්එක්ස්ආර්එම්+එෆ් 7 ජේ, පුල්මොඩෙයි, ශ්‍රී ලංකාව	WXRM+F7J, புல்மோடை, இலங்கை
Trincomalee	Pulmoddai	Muslim Maha Vidyalaya	False	False	TRNCMLPLMDDMSLMMHVDYLY		Trincomalee	LK-53	8.551241	81.092014	Pulmudai	PS-530135	6.915266	79.87829	8.940296	80.985139	B60, Pulmoddai, Sri Lanka	256.12882	#CenterFarFromPolice	ත්රිකුණාමලය	පුල්මොඩෙයි	මුස්ලිම් මහා විද්‍යාලය	திருகோணமலை	புல்மோட்டை	முஸ்லிம் மகா வித்தியாலயம்	බී 60, පුල්මොඩෙයි, ශ්‍රී ලංකාව	பி 60, புல்மோடை, இலங்கை
Trincomalee	Serunuwara	MOH Office – Serunuwara	False	False	TRNCMLSRNWRMHFFCSRNWR		Trincomalee	LK-53	8.551241	81.092014	Serunuwara	PS-530244	8.321863	81.299322	8.323143	81.299894	B10, Sri Lanka	0.155671		ත්රිකුණාමලය	සේරුනුවර	MOH කාර්යාලය - සේරුනුවර	திருகோணமலை	சேருநுவரா	MOH அலுவலகம் - சேருநுவரா	බී 10, ශ්‍රී ලංකාව	பி 10, இலங்கை
Trincomalee	Serunuwara	Serunuwara Hospital	False	False	TRNCMLSRNWRSRNWRHSPTL		Trincomalee	LK-53	8.551241	81.092014	Serunuwara	PS-530244	8.321863	81.299322	8.322964	81.299734	Allai-Kantalai Rd, Sri Lanka	0.130589		ත්රිකුණාමලය	සේරුනුවර	සේරුනුවර රෝහල	திருகோணமலை	சேருநுவரா	சேருநுவரா மருத்துவமனை	අල්ලෙයි-කන්තලායි පාර, ශ්‍රී ලංකාව	அல்லை-கந்தளாய் சாலை, இலங்கை
Trincomalee	Serunuwara	Serunuwara Dehiwatta Vidyalaya	False	False	TRNCMLSRNWRSRNWRDHWTTVDYLY		Trincomalee	LK-53	8.551241	81.092014	Serunuwara	PS-530244	8.321863	81.299322	8.357931	81.271965	975C+5QG, Trincomalee, Sri Lanka	5.015912		ත්රිකුණාමලය	සේරුනුවර	සේරුනුවර දෙහිවත්ත විද්‍යාලය	திருகோணமலை	சேருநுவரா	சேருநுவர தெஹிவத்த வித்தியாலயம்	975C+5QG, ත්‍රිකුණාමලය, ශ්‍රී ලංකාව	975C+5QG, திருகோணமலை, இலங்கை
Trincomalee	Harbour Police	MOH Office – Trincomalee	False	False	TRNCMLHRBRPLCMHFFCTRNCML		Trincomalee	LK-53	8.551241	81.092014	Trinco Harbour Police	PS-530131	8.56705	81.231407	8.598974	81.216963	MOH Office, Farm Rd, Trincomalee, Sri Lanka	3.890062		ත්රිකුණාමලය	වරාය පොලිසිය	එම්ඕඑච් කාර්යාලය - ත්‍රිකුණාමලය	திருகோணமலை	துறைமுக காவல்துறை	MOH அலுவலகம் - திருகோணமலை	එම්ඕඑච් කාර්යාලය, ගොවිපල පාර, ත්‍රිකුණාමලය, ශ්‍රී ලංකාව	MOH அலுவலகம், பண்ணை சாலை, திருகோணமலை, இலங்கை
Trincomalee	Harbour Police	Base Hospital – Trincomalee	False	False	TRNCMLHRBRPLCBSHSPTLTRNCML		Trincomalee	LK-53	8.551241	81.092014	Trinco Harbour Police	PS-530131	8.56705	81.231407	8.56486	81.239445	Hospital Ln, Trincomalee, Sri Lanka	0.917037		ත්රිකුණාමලය	වරාය පොලිසිය	මූලික රෝහල - ත්‍රිකුණාමලය	திருகோணமலை	துறைமுக காவல்துறை	அடிப்படை மருத்துவமனை - திருகோணமலை	රෝහල, ත්‍රිකුණාමලය, ශ්‍රී ලංකාව	மருத்துவமனை Ln, திருகோணமலை, இலங்கை
Trincomalee	Uppuveli	MOH Office - Uppuveli	False	False	TRNCMLPPVLMHFFCPPVL		Trincomalee	LK-53	8.551241	81.092014	Uppuweli	PS-530134	8.593614	81.21743	8.607961	81.216512	Nilaveli Rd, Trincomalee, Sri Lanka	1.599005		ත්රිකුණාමලය	උප්පුවේලි	MOH කාර්යාලය - උප්පුවේලි	திருகோணமலை	உப்புவேலி	MOH அலுவலகம் - உப்புவேலி	නිලාවේලි පාර, ත්‍රිකුණාමලය, ශ්‍රී ලංකාව	நிலவேலி வீதி, திருகோணமலை, இலங்கை
Trincomalee	Kantale	MOH Office - Kantale	False	False	TRNCMLKNTLMHFFCKNTL		Trincomalee	LK-53	8.551241	81.092014	Kantale	PS-530241	8.356129	81.007739	8.349617	81.009107	අග්‍රබෝධි මාවත, Kantale, Sri Lanka	0.739809		ත්රිකුණාමලය	කන්තලේ	MOH කාර්යාලය - කන්තලේ	திருகோணமலை	கந்தலே	MOH அலுவலகம் - கந்தலே	වැඩි දියුණු කිරීම මාවත, කන්තලේ, ශ්‍රී ලංකාව	தீவிரப்படுத்தி மாவத்த, கந்தலே, இலங்கை
Trincomalee	Kantale	Altaric Vidyalaya	False	False	TRNCMLKNTLLTRCVDYLY		Trincomalee	LK-53	8.551241	81.092014	Kantale	PS-530241	8.356129	81.007739	8.365205	81.031496	928J+3HQ, Kantale, Sri Lanka	2.802542		ත්රිකුණාමලය	කන්තලේ	අල්තාරික් විද්‍යාලය	திருகோணமலை	கந்தலே	அல்தாரிக் வித்யாலயா	928J+3HQ, කන්තලේ, ශ්‍රී ලංකාව	928J+3HQ, கந்தலே, இலங்கை
Trincomalee	Kantale	Ganthalawa Central College	False	False	TRNCMLKNTLGNTHLWCNTRLCLLG		Trincomalee	LK-53	8.551241	81.092014	Kantale	PS-530241	8.356129	81.007739	8.379492	81.010837	Kandy Rd, Kantale 31300, Sri Lanka	2.62093		ත්රිකුණාමලය	කන්තලේ	ගන්තලාව මධ්‍ය විද්‍යාලය	திருகோணமலை	கந்தலே	கந்தலாவ மத்திய கல்லூரி	මහනුවර පාර, කන්තලේ 31300, ශ්‍රී ලංකාව	கண்டி வீதி, கந்தலே 31300, இலங்கை
Trincomalee	Kantale	Unit 14 Jayarajarama Viharaya	False	False	TRNCMLKNTLNTJYRJRMVHRY		Trincomalee	LK-53	8.551241	81.092014	Kantale	PS-530241	8.356129	81.007739	8.351263	81.006993	Kantale, Sri Lanka	0.547435		ත්රිකුණාමලය	කන්තලේ	ඒකකය 14 ජයරාජාරාම විහාරය	திருகோணமலை	கந்தலே	அலகு 14 ஜெயராஜராம விகாரை	කන්තලේ, ශ්‍රී ලංකාව	கந்தலே, இலங்கை
Trincomalee	Kantale	Vanela Central Dispensary	False	False	TRNCMLKNTLVNLCNTRLDSPNSRY		Trincomalee	LK-53	8.551241	81.092014	Kantale	PS-530241	8.356129	81.007739	8.456635	81.160349	F546+M45, Kinniya, Sri Lanka	20.173272	#CenterFarFromPolice	ත්රිකුණාමලය	කන්තලේ	වනේලා මධ්‍යම බෙහෙත් ශාලාව	திருகோணமலை	கந்தலே	வனேலா மத்திய மருந்தகம்	F546+M45, කින්නියා, ශ්‍රී ලංකාව	F546+M45, கிண்ணியா, இலங்கை
Trincomalee	Kantale	Jayanthipura Vidyalaya	False	False	TRNCMLKNTLJYNTHPRVDYLY		Trincomalee	LK-53	8.551241	81.092014	Kantale	PS-530241	8.356129	81.007739	8.369017	81.071671	939C+JM3, Kantale, Sri Lanka	7.180097		ත්රිකුණාමලය	කන්තලේ	ජයන්තිපුර විද්‍යාලය	திருகோணமலை	கந்தலே	ஜெயந்திபுரா வித்யாலயா	939 සී+ජේඑම් 3, කන්තලේ, ශ්‍රී ලංකාව	939C+JM3, கந்தலே, இலங்கை
Trincomalee	Kantale	Batukachchiya Central Dispensary	False	False	TRNCMLKNTLBTKCHCHYCNTRLDSPNSRY		Trincomalee	LK-53	8.551241	81.092014	Kantale	PS-530241	8.356129	81.007739	8.351263	81.006993	Kantale, Sri Lanka	0.547435		ත්රිකුණාමලය	කන්තලේ	බටුකච්චිය මධ්‍යම බෙහෙත් ශාලාව	திருகோணமலை	கந்தலே	பதுகச்சியா மத்திய மருந்தகம்	කන්තලේ, ශ්‍රී ලංකාව	கந்தலே, இலங்கை
Trincomalee	Ichchalampattu	MOH Office – Ichchalampattu	False	False	TRNCMLCHCHLMPTTMHFFCCHCHLMPTT	Eachchilampattu Hospital	Trincomalee	LK-53	8.551241	81.092014	Ichchalampattu		8.289549	81.359002	8.289644	81.358983	Highway, Ichchalampattu, Trincomalee, Sri Lanka	0.010772		ත්රිකුණාමලය	ඉච්චලම්පත්තු	එක්ර්චිලම්පත්තු රෝහල	திருகோணமலை	இச்சலம்பட்டு	ஒவ்வொருசிலம்பட்டு மருத்துவமனை	අධිවේගී මාර්ගය, ඉච්චලම්පත්තු, ත්‍රිකුණාමලය, ශ්‍රී ලංකාව	நெடுஞ்சாலை, ஈச்சலாம்பட்டு, திருகோணமலை, இலங்கை
Trincomalee	Ichchalampattu	Mavadichenai  Vidyalaya	False	False	TRNCMLCHCHLMPTTMVDCHNVDYLY		Trincomalee	LK-53	8.551241	81.092014	Ichchalampattu		8.289549	81.359002	8.264751	81.372857	797F+W45, Verugal, Sri Lanka	3.151798		ත්රිකුණාමලය	ඉච්චලම්පත්තු	මාවඩිචේනායි විද්‍යාලය	திருகோணமலை	இச்சலம்பட்டு	மாவடிச்சேனை வித்தியாலயம்	797 එෆ්+ඩබ්ලිව් 45, වෙරුගල්, ශ්‍රී ලංකාව	797F+W45, வெருகல், இலங்கை
Trincomalee	Ichchalampattu	Dwaraka Vidyalaya	False	False	TRNCMLCHCHLMPTTDWRKVDYLY		Trincomalee	LK-53	8.551241	81.092014	Ichchalampattu		8.289549	81.359002	8.289549	81.358986	Trincomalee Hwy, Sri Lanka	0.001761		ත්රිකුණාමලය	ඉච්චලම්පත්තු	ද්වාරක විද්‍යාලය	திருகோணமலை	இச்சலம்பட்டு	துவாரகா வித்யாலயா	ත්‍රිකුණාමලය හ්වි, ශ්‍රී ලංකාව	திருகோணமலை Hwy, இலங்கை
Trincomalee	Ichchalampattu	Sri Sanpaha Vidyalaya	False	False	TRNCMLCHCHLMPTTSRSNPHVDYLY		Trincomalee	LK-53	8.551241	81.092014	Ichchalampattu		8.289549	81.359002	8.289549	81.358986	Trincomalee Hwy, Sri Lanka	0.001761		ත්රිකුණාමලය	ඉච්චලම්පත්තු	ශ්‍රී සංහා විද්‍යාලය	திருகோணமலை	இச்சலம்பட்டு	ஸ்ரீ சன்பஹா வித்யாலயா	ත්‍රිකුණාමලය හ්වි, ශ්‍රී ලංකාව	திருகோணமலை Hwy, இலங்கை
Trincomalee	Thambalagamuwa	Kulakotan Vidyalaya	False	False	TRNCMLTHMBLGMWKLKTNVDYLY		Trincomalee	LK-53	8.551241	81.092014	Thambalagamuva	PS-530243	6.907289	79.863819	8.499625	81.094502	Kandy Road, Sri Lanka	223.092723	#CenterFarFromPolice	ත්රිකුණාමලය	තඹලගමුව	කුලකොටන් විද්‍යාලය	திருகோணமலை	தம்பலகாமுவா	குலகோட்டன் வித்யாலயா	නුවර පාර, ශ්‍රී ලංකාව	கண்டி சாலை, இலங்கை
Trincomalee	Thambalagamuwa	Mollipathana Sinhala Maha Vidyalaya	False	False	TRNCMLTHMBLGMWMLLPTHNSNHLMHVDYLY		Trincomalee	LK-53	8.551241	81.092014	Thambalagamuva	PS-530243	6.907289	79.863819	8.491061	81.104748	potkerney Thampalagamam, Sri Lanka	223.028906	#CenterFarFromPolice	ත්රිකුණාමලය	තඹලගමුව	මොල්ලිපතන සිංහල මහා විද්‍යාලය	திருகோணமலை	தம்பலகாமுவா	மொல்லிபத்தான சிங்கள மகா வித்தியாலயம்	පොට්කර්නි තම්පලාගමම්, ශ්‍රී ලංකාව	பாட்கர்னி தம்பலகாமம், இலங்கை
Trincomalee	Thambalagamuwa	Mollipathana Central Dispensary	False	False	TRNCMLTHMBLGMWMLLPTHNCNTRLDSPNSRY		Trincomalee	LK-53	8.551241	81.092014	Thambalagamuva	PS-530243	6.907289	79.863819	8.454476	81.062722	96 A6, Mullipotana, Sri Lanka	216.98052	#CenterFarFromPolice	ත්රිකුණාමලය	තඹලගමුව	මොල්ලිපතන මධ්‍යම බෙහෙත් ශාලාව	திருகோணமலை	தம்பலகாமுவா	மொல்லிபத்தான மத்திய மருந்தகம்	96 ඒ 6, මුලිපොතාන, ශ්‍රී ලංකාව	96 ஏ 6, முள்ளிபோதனா, இலங்கை
Trincomalee	Thambalagamuwa	Siraj Nagar Muslim College	False	False	TRNCMLTHMBLGMWSRJNGRMSLMCLLG		Trincomalee	LK-53	8.551241	81.092014	Thambalagamuva	PS-530243	6.907289	79.863819	8.465601	81.082906	Siraj Nagar,, Trincomalee, Sri Lanka	219.318228	#CenterFarFromPolice	ත්රිකුණාමලය	තඹලගමුව	සිරාජ් නගර් මුස්ලිම් විද්‍යාලය	திருகோணமலை	தம்பலகாமுவா	சிராஜ் நகர் முஸ்லிம் கல்லூரி	සිරාජ් නගර් ,, ත්‍රිකුණාමලය, ශ්‍රී ලංකාව	சிராஜ் நகர் ,, திருகோணமலை, இலங்கை
Trincomalee	Thambalagamuwa	Gantalawa Central Dispensary	False	False	TRNCMLTHMBLGMWGNTLWCNTRLDSPNSRY		Trincomalee	LK-53	8.551241	81.092014	Thambalagamuva	PS-530243	6.907289	79.863819	8.454476	81.062722	96 A6, Mullipotana, Sri Lanka	216.98052	#CenterFarFromPolice	ත්රිකුණාමලය	තඹලගමුව	ගන්තලාව මධ්‍යම බෙහෙත් ශාලාව	திருகோணமலை	தம்பலகாமுவா	கந்தலாவா மத்திய மருந்தகம்	96 ඒ 6, මුලිපොතාන, ශ්‍රී ලංකාව	96 ஏ 6, முள்ளிபோதனா, இலங்கை
Trincomalee	Gomarankadawala	MOH Office – Gomarankadawala	False	False	TRNCMLGMRNKDWLMHFFCGMRNKDWL		Trincomalee	LK-53	8.551241	81.092014	Gomarankadawala	PS-530248	8.674487	80.967555	8.674726	80.955691	Unnamed Road, Gomarankadawala, Sri Lanka	1.304806		ත්රිකුණාමලය	ගෝමරන්කඩවල	එම්ඕඑච් කාර්යාලය - ගෝමරන්කඩවල	திருகோணமலை	கோமரன்கடவாலா	MOH அலுவலகம் - கோமரன்கடவாலா	නම් නොකළ පාර, ගෝමරන්කඩවල, ශ්‍රී ලංකාව	பெயரிடப்படாத சாலை, கோமரன்கடவாலா, இலங்கை
Trincomalee	Vavunathivu	MOH Office – Vavunathivu	False	False	TRNCMLVVNTHVMHFFCVVNTHV		Trincomalee	LK-53	8.551241	81.092014	Vavunathive	PS-510102	6.933075	79.857181	7.708253	81.691368	Hospital Rd, Batticaloa, Sri Lanka	219.95575	#CenterFarFromPolice	ත්රිකුණාමලය	වවුනතිව්	MOH කාර්යාලය - වවුනතිව්	திருகோணமலை	வவுணதீவு	MOH அலுவலகம் - வவுணதீவு	රෝහල පාර, මඩකලපුව, ශ්‍රී ලංකාව	மருத்துவமனை சாலை, மட்டக்களப்பு, இலங்கை
Ampara	Chavalakade	MOH Office – Navidanveli	False	False	MPRCHVLKDMHFFCNVDNVL		Ampara	LK-52	7.23699	81.550391	Chawalakade	PS-520125	7.413559	81.776822	7.420081	81.788401	B77, Sri Lanka	1.468805		අම්පාර	චවලකඩේ	MOH කාර්යාලය - නාවිදන්වේලි	அம்பாறை	சவளகடே	MOH அலுவலகம் - நாவிதன்வெளி	බී 77, ශ්‍රී ලංකාව	பி 77, இலங்கை
Ampara	Chavalakade	5th Colony Health Centre	False	False	MPRCHVLKDTHCLNYHLTHCNTR		Ampara	LK-52	7.23699	81.550391	Chawalakade	PS-520125	7.413559	81.776822	7.418836	81.781436	Chavalakade, Sri Lanka	0.776867		අම්පාර	චවලකඩේ	5 වන ජනපද සෞඛ්‍ය මධ්‍යස්ථානය	அம்பாறை	சவளகடே	5 வது காலனி சுகாதார மையம்	චවලකඩේ, ශ්‍රී ලංකාව	சவளகடே, இலங்கை
Ampara	Karaitivu	MOH Office – Karaitivu	False	False	MPRKRTVMHFFCKRTV		Ampara	LK-52	7.23699	81.550391	Karaitivu		9.744059	79.870587	7.377712	81.838796	Colombo-Ratnapura-Wellawaya-Batticaloa Highway, Karativu 32250, Sri Lanka	340.788666	#CenterFarFromPolice	අම්පාර	කාරතිව්	MOH කාර්යාලය - කරෙයිතිව්	அம்பாறை	காரைதீவு	MOH அலுவலகம் - காரைதீவு	කොළඹ-රත්නපුර-වැල්ලවාය-මඩකලපුව අධිවේගී මාර්ගය, කරතිවු 32250, ශ්‍රී ලංකාව	கொழும்பு-இரத்தினபுரி-வெள்ளவாயா-மட்டக்களப்பு நெடுஞ்சாலை, காரடிவு 32250, இலங்கை
Ampara	Kalmunai	Ashraff Memorial Hospital	False	False	MPRKLMNSHRFFMMRLHSPTL		Ampara	LK-52	7.23699	81.550391	Kalmunai	PS-520123	7.414289	81.825006	7.403172	81.831146	A4, Ashraff Memorial Base Hospital, A4 A4, Kalmunai 32300, Sri Lanka	1.409859		අම්පාර	කල්මුණේ	අෂ්රොෆ් අනුස්මරණ රෝහල	அம்பாறை	கல்முனை	அஷ்ரஃப் நினைவு மருத்துவமனை	ඒ 4, අෂ්රොෆ් අනුස්මරණ මූලික රෝහල, ඒ 4 ඒ 4, කල්මුණේ 32300, ශ්‍රී ලංකාව	A4, அஷ்ரஃப் மெமோரியல் பேஸ் ஹாஸ்பிடல், A4 A4, கல்முனை 32300, இலங்கை
Ampara	Kalmunai	MOH Office - Kalmunai North	False	False	MPRKLMNMHFFCKLMNNRTH		Ampara	LK-52	7.23699	81.550391	Kalmunai	PS-520123	7.414289	81.825006	7.411712	81.838462	CR6Q+M9P, Kalmunai 32300, Sri Lanka	1.511625		අම්පාර	කල්මුණේ	MOH කාර්යාලය - කල්මුණේ උතුර	அம்பாறை	கல்முனை	MOH அலுவலகம் - கல்முனை வடக்கு	CR6Q+M9P, කල්මුණේ 32300, ශ්‍රී ලංකාව	CR6Q+M9P, கல்முனை 32300, இலங்கை
Ampara	Kalmunai	MOH Office - Kalmunai South	False	False	MPRKLMNMHFFCKLMNSTH		Ampara	LK-52	7.23699	81.550391	Kalmunai	PS-520123	7.414289	81.825006	7.411712	81.838462	CR6Q+M9P, Kalmunai 32300, Sri Lanka	1.511625		අම්පාර	කල්මුණේ	MOH කාර්යාලය - කල්මුණේ දකුණ	அம்பாறை	கல்முனை	MOH அலுவலகம் - கல்முனை தெற்கு	CR6Q+M9P, කල්මුණේ 32300, ශ්‍රී ලංකාව	CR6Q+M9P, கல்முனை 32300, இலங்கை
Ampara	Kalmunai	Carmal Fatima Vidyalaya - Kalmunai	False	False	MPRKLMNCRMLFTMVDYLYKLMN		Ampara	LK-52	7.23699	81.550391	Kalmunai	PS-520123	7.414289	81.825006	7.419889	81.823933	Carmel Fatima College Rd, Kalmunai 32300, Sri Lanka	0.634031		අම්පාර	කල්මුණේ	කර්මල් ෆාතිමා විද්‍යාලය - කල්මුණේ	அம்பாறை	கல்முனை	கார்மல் பாத்திமா வித்தியாலயம் - கல்முனை	කර්මෙල් ෆාතිමා විද්‍යාලය පාර, කල්මුණේ 32300, ශ්‍රී ලංකාව	கார்மல் பாத்திமா கல்லூரி சாலை, கல்முனை 32300, இலங்கை
Ampara	Kalmunai	Base Hospital - Kalmunai North	False	False	MPRKLMNBSHSPTLKLMNNRTH		Ampara	LK-52	7.23699	81.550391	Kalmunai	PS-520123	7.414289	81.825006	7.420034	81.82232	hospital near, Kalmunai 32300, Sri Lanka	0.704353		අම්පාර	කල්මුණේ	මූලික රෝහල - කල්මුණේ උතුර	அம்பாறை	கல்முனை	அடிப்படை மருத்துவமனை - கல்முனை வடக்கு	රෝහල අසල, කල්මුණේ 32300, ශ්‍රී ලංකාව	மருத்துவமனை அருகில், கல்முனை 32300, இலங்கை
Ampara	Sainthamarthu	MOH Office – Sainthamarthu	False	False	MPRSNTHMRTHMHFFCSNTHMRTH		Ampara	LK-52	7.23699	81.550391									#PoliceLocationUnknown	අම්පාර	සයින්දමර්තු	MOH කාර්යාලය - සයින්දමර්තු	அம்பாறை	சாய்ந்தமருது	MOH அலுவலகம் - சாய்ந்தமருது		
Ampara	Sainthamarthu	Saindamarudu Hospital	False	False	MPRSNTHMRTHSNDMRDHSPTL		Ampara	LK-52	7.23699	81.550391									#PoliceLocationUnknown	අම්පාර	සයින්දමර්තු	සයින්දමරුදු රෝහල	அம்பாறை	சாய்ந்தமருது	சைந்தமருது மருத்துவமனை		
Ampara	Sammanthurai	Sammanthurai Base Hospital	False	False	MPRSMMNTHRSMMNTHRBSHSPTL		Ampara	LK-52	7.23699	81.550391	Samanthurai	PS-520124	7.365785	81.810859	7.368355	81.813042	9R96+MWM, Hospital Rd, Sammanthurai, Sri Lanka	0.373773		අම්පාර	සමන්තුරේ	සමන්තුරේ මූලික රෝහල	அம்பாறை	சம்மாந்துறை	சம்மாந்துறை அடிப்படை மருத்துவமனை	9R96+MWM, රෝහල් පාර, සමන්තුරේ, ශ්‍රී ලංකාව	9R96+MWM, மருத்துவமனை சாலை, சம்மாந்துறை, இலங்கை
Ampara	Sammanthurai	MOH Office – Nintavur	False	False	MPRSMMNTHRMHFFCNNTVR		Ampara	LK-52	7.23699	81.550391	Samanthurai	PS-520124	7.365785	81.810859	7.352821	81.856939	Hospital Rd, Nintavur 32340, Sri Lanka	5.283925		අම්පාර	සමන්තුරේ	එම්ඕඑච් කාර්යාලය - නින්දවූර්	அம்பாறை	சம்மாந்துறை	MOH அலுவலகம் - நிந்தவூர்	රෝහල පාර, නින්දවූර් 32340, ශ්‍රී ලංකාව	மருத்துவமனை Rd, நிந்தவூர் 32340, இலங்கை
Ampara	Sammanthurai	MOH Office - Sammanthurai	False	False	MPRSMMNTHRMHFFCSMMNTHR		Ampara	LK-52	7.23699	81.550391	Samanthurai	PS-520124	7.365785	81.810859	7.369857	81.812264	9R96+WWR, Sammanthurai, Sri Lanka	0.478712		අම්පාර	සමන්තුරේ	MOH කාර්යාලය - සම්මන්තුරේ	அம்பாறை	சம்மாந்துறை	MOH அலுவலகம் - சம்மாந்துறை	9R96+ඩබ්ලිව්ඩබ්ලිව්ආර්, සම්මන්තුරේ, ශ්‍රී ලංකාව	9R96+WWR, சம்மாந்துறை, இலங்கை
Ampara	Sammanthurai	Nintavur Hospital	False	False	MPRSMMNTHRNNTVRHSPTL		Ampara	LK-52	7.23699	81.550391	Samanthurai	PS-520124	7.365785	81.810859	7.353372	81.856852	Hospital Rd, Nintavur, Sri Lanka	5.258159		අම්පාර	සමන්තුරේ	නින්දවූර් රෝහල	அம்பாறை	சம்மாந்துறை	நிந்தவூர் மருத்துவமனை	රෝහල පාර, නින්දවූර්, ශ්‍රී ලංකාව	மருத்துவமனை Rd, நிந்தவூர், இலங்கை
Ampara	Sammanthurai	Darususalam Maha Vidyalaya	False	False	MPRSMMNTHRDRSSLMMHVDYLY		Ampara	LK-52	7.23699	81.550391	Samanthurai	PS-520124	7.365785	81.810859	7.370617	81.808855	AB33, Sammanthurai 32200, Sri Lanka	0.58115		අම්පාර	සමන්තුරේ	දරුසුසලම් මහා විද්‍යාලය	அம்பாறை	சம்மாந்துறை	தருசுசாலம் மகா வித்தியாலயம்	ඒබී 33, සම්මන්තුරේ 32200, ශ්‍රී ලංකාව	ஏபி 33, சம்மாந்துறை 32200, இலங்கை
Ampara	Sammanthurai	Kannahi Vidyalaya	False	False	MPRSMMNTHRKNNHVDYLY		Ampara	LK-52	7.23699	81.550391	Samanthurai	PS-520124	7.365785	81.810859	7.35018	81.80359	Kallarichchel 02, Sammanthurai, Sri Lanka	1.912014		අම්පාර	සමන්තුරේ	කන්නහි විද්‍යාලය	அம்பாறை	சம்மாந்துறை	கண்ணாஹி வித்யாலயா	කල්ලරිචෙල් 02, සම්මන්තුරේ, ශ්‍රී ලංකාව	கல்லறிச்செல் 02, சம்மாந்துறை, இலங்கை
Ampara	Thirukkovil	MOH Office – Thirukkovil	False	False	MPRTHRKKVLMHFFCTHRKKVL		Ampara	LK-52	7.23699	81.550391	Thirukkovil	PS-520127	7.113998	81.852219	7.111635	81.852892	Central Rd, Vinayagapuram, Sri Lanka	0.273131		අම්පාර	තිරුක්කෝවිල්	MOH කාර්යාලය - තිරුක්කෝවිල්	அம்பாறை	திருக்கோவில்	MOH அலுவலகம் - திருக்கோவில்	මධ්‍යම පාර, විනයාගපුරම්, ශ්‍රී ලංකාව	மத்திய வீதி, விநாயகபுரம், இலங்கை
Ampara	Akkaraipattu	MOH Office – Addalachenai	False	False	MPRKKRPTTMHFFCDDLCHN		Ampara	LK-52	7.23699	81.550391	Akkaraipattu	PS-520126	7.216084	81.853254	7.260916	81.853493	7V63+999, Addalaichenai, Sri Lanka	4.986726		අම්පාර	අක්කරපත්තුව	MOH කාර්යාලය - අද්දලචේනයි	அம்பாறை	அக்கரைப்பற்று	MOH அலுவலகம் - ஆடலச்சேனை	7V63+999, අද්දලෙයිචේනෙයි, ශ්‍රී ලංකාව	7V63+999, அடிலைச்சேனை, இலங்கை
Ampara	Akkaraipattu	MOH Office - Akkaraipattu	False	False	MPRKKRPTTMHFFCKKRPTT		Ampara	LK-52	7.23699	81.550391	Akkaraipattu	PS-520126	7.216084	81.853254	7.228134	81.851123	6VH2+7C5, Akkaraipattu, Sri Lanka	1.360772		අම්පාර	අක්කරපත්තුව	MOH කාර්යාලය - අක්කරපත්තුව	அம்பாறை	அக்கரைப்பற்று	MOH அலுவலகம் - அக்கரைப்பற்று	6VH2+7C5, අක්කරපත්තුව, ශ්‍රී ලංකාව	6VH2+7C5, அக்கரைப்பற்று, இலங்கை
Ampara	Akkaraipattu	MOH Office - Alayadivembu	False	False	MPRKKRPTTMHFFCLYDVMB		Ampara	LK-52	7.23699	81.550391	Akkaraipattu	PS-520126	7.216084	81.853254	7.228134	81.851123	6VH2+7C5, Akkaraipattu, Sri Lanka	1.360772		අම්පාර	අක්කරපත්තුව	එම්ඕඑච් කාර්යාලය - අලයාදිවෙම්බු	அம்பாறை	அக்கரைப்பற்று	MOH அலுவலகம் - ஆலையடிவேம்பு	6VH2+7C5, අක්කරපත්තුව, ශ්‍රී ලංකාව	6VH2+7C5, அக்கரைப்பற்று, இலங்கை
Ampara	Pottuvil	MOH Office – Pottuvil	False	False	MPRPTTVLMHFFCPTTVL		Ampara	LK-52	7.23699	81.550391	Pothuvil	PS-520128	6.878387	81.826859	6.877076	81.828969	B374, Pottuvil, Sri Lanka	0.274874		අම්පාර	පොතුවිල්	එම්ඕඑච් කාර්යාලය - පොතුවිල්	அம்பாறை	பொட்டுவில்	MOH அலுவலகம் - பொத்துவில்	බී 374, පොතුවිල්, ශ්‍රී ලංකාව	B374, பொத்துவில், இலங்கை
