district	police	center	dose1	dose2	fuzzy_key	alt_name	district_name_norm	district_id	district_lat	district_lng	ps_name_norm	ps_id	ps_lat	ps_lng	lat	lng	formatted_address	dis_center_to_police	tags
Colombo	Cinnamon Gardens	Viharamahadevi Park	False	True	CLMBCNNMNGRDNSVHRMHDVPRK		Colombo	LK-11	6.869636	80.019598	Cinnamon Garden	PS-110324	6.907289	79.863819	6.913391	79.86174	Viharamahadevi Park, Colombo, Sri Lanka	0.716497	
Colombo	Narahenpita	Army Hospital Narahenpita	False	False	CLMBNRHNPTRMYHSPTLNRHNPT		Colombo	LK-11	6.869636	80.019598	Narahenpita	PS-110321	6.891832	79.876715	6.900252	79.87618	08 Elvitigala Mawatha, Colombo 00800, Sri Lanka	0.938417	
Colombo	Grandpass	Sugathadasa Outdoor Stadium	False	True	CLMBGRNDPSSSGTHDSTDRSTDM		Colombo	LK-11	6.869636	80.019598	Grandpass	PS-110215	6.949052	79.872983	6.94806	79.868842	Prince of Wales Ave, Colombo 01400, Sri Lanka	0.470345	
Colombo	Grandpass	Mackey Building - Leyard Broadway	False	True	CLMBGRNDPSSMCKYBLDNGLYRDBRDWY		Colombo	LK-11	6.869636	80.019598	Grandpass	PS-110215	6.949052	79.872983	6.946237	79.870864	303 Layard's Broadway, Colombo 01400, Sri Lanka	0.390869	
Colombo	Thalangama	Diyatha Uyana	False	True	CLMBTHLNGMDYTHYN		Colombo	LK-11	6.869636	80.019598	Thalangama	PS-110466	6.91089	79.929325	6.904575	79.909831	Diyatha Uyana, B240, Sri Jayawardenepura Kotte, Sri Lanka	2.264281	
Colombo	Moratuwa	Army Headquarters Mobile Team	True	True	CLMBMRTWRMYHDQRTRSMBLTM		Colombo	LK-11	6.869636	80.019598	Moratuwa	PS-110582	6.772949	79.885048					#CenterLocationUnknown
Colombo	Avissawella	BOI - Seethawakapura	False	True	CLMBVSSWLLBSTHWKPR		Colombo	LK-11	6.869636	80.019598	Awissawella	PS-920226	6.947538	80.215422	6.959994	80.2067	BOI Sri Lanka Office Complex, Avissawella, Sri Lanka	1.687288	
Colombo	Boralesgamuwa	Kotelawala Defence Hospital	False	True	CLMBBRLSGMWKTLWLDFNCHSPTL		Colombo	LK-11	6.869636	80.019598	Boralesgamuwa	PS-110464	6.841331	79.901255	6.82518	79.907167	RWG4+3VF, Boralesgamuwa, Sri Lanka	1.911444	
Colombo	Boralesgamuwa	MOH Office - Werahera	False	False	CLMBBRLSGMWMHFFCWRHR		Colombo	LK-11	6.869636	80.019598	Boralesgamuwa	PS-110464	6.841331	79.901255	6.833094	79.905583	RWM4+66P, Boralesgamuwa, Sri Lanka	1.033386	
Colombo	Mt Lavinia	Kotelawalapura Maternity Clinic	False	False	CLMBMTLVNKTLWLPRMTRNTYCLNC		Colombo	LK-11	6.869636	80.019598	Mount Lavinia	PS-110577	6.825006	79.87009	6.824371	79.872256	RVFC+PWR, Dehiwala-Mount Lavinia, Sri Lanka	0.249426	
Colombo	Padukka	MOH Office – Padukka	False	False	CLMBPDKKMHFFCPDKK		Colombo	LK-11	6.869636	80.019598	Padukka	PS-110473	6.842195	80.09247	6.840164	80.093288	Galagedera - Horana Rd, Padukka, Sri Lanka	0.243301	
Colombo	Maradana	MSI Conference Hall	False	False	CLMBMRDNMSCNFRNCHLL		Colombo	LK-11	6.869636	80.019598	Maradana	PS-110107	6.927939	79.865471	6.901689	79.873375	Bauddhaloka Mawatha, Colombo 00700, Sri Lanka	3.047434	
Colombo	Slave Island	Kichilan Reception Hall	False	False	CLMBSLVSLNDKCHLNRCPTNHLL		Colombo	LK-11	6.869636	80.019598	Slave Island	PS-110106	6.927317	79.849004	6.920505	79.851073	12 Wekande Vithanage Mw., Colombo 00200, Sri Lanka	0.791283	
Colombo	Wellawatta	MOH Office – Wellawatta	False	False	CLMBWLLWTTMHFFCWLLWTT		Colombo	LK-11	6.869636	80.019598	Wellawatta	PS-110320	6.873107	79.86167	6.861346	79.865943	VV68+G9P, Dehiwala-Mount Lavinia, Sri Lanka	1.390678	
Gampaha	Gampaha	Mobile Medical Team - Gampaha	True	True	GMPHGMPHMBLMDCLTMGMPH		Gampaha	LK-12	7.123598	80.018508	Gampaha	PS-120237	7.087765	80.01228					#CenterLocationUnknown
Gampaha	Kadawata	MOH Office - Mahara	False	False	GMPHKDWTMHFFCMHR		Gampaha	LK-12	7.123598	80.018508	Kadawatha	PS-120136	7.00152	79.95003	7.020757	79.973481	Mahara, Eldeniya, Sri Lanka	3.358732	
Gampaha	Pugoda	MOH Office – Dompe	False	False	GMPHPGDMHFFCDMP		Gampaha	LK-12	7.123598	80.018508	Pugoda	PS-120241	6.98283	80.111189	6.976767	80.117422	Dompe, Pugoda-Mandawala Rd, Pugoda, Sri Lanka	0.963513	
Gampaha	Biyagama	MOH Office – Biyagama	False	False	GMPHBYGMMHFFCBYGM		Gampaha	LK-12	7.123598	80.018508	Biyagama	PS-120131	6.962284	80.009037	6.946824	79.994052	Hospital Rd, Sri Lanka	2.386313	
Gampaha	Divulapitiya	MOH Office – Divulapitiya	False	False	GMPHDVLPTYMHFFCDVLPTY		Gampaha	LK-12	7.123598	80.018508	Diulapitiya	PS-120355	7.174215	79.957874	7.215486	80.013606	6287+5CX, Divulapitiya, Sri Lanka	7.67456	
Gampaha	Negombo	Town Hall – Negombo	False	False	GMPHNGMBTWNHLLNGMB		Gampaha	LK-12	7.123598	80.018508	Negombo	PS-120351	7.224796	79.880015	7.206667	79.851863	Negombo, Sri Lanka	3.703623	
Gampaha	Katana	MOH Office – Katana	False	False	GMPHKTNMHFFCKTN		Gampaha	LK-12	7.123598	80.018508	Katana	PS-120360	7.224796	79.880015	7.22436	79.88271	Katana, Negombo - Mirigama Rd, Negombo, Sri Lanka	0.301313	
Kalutara	Kalutara	Mobile Medical Team - Kalutara	True	True	KLTRKLTRMBLMDCLTMKLTR		Kalutara	LK-13	6.577316	80.127363	Kalutara South		6.584968	79.96102					#CenterLocationUnknown
Kalutara	Aluthgama	Aluthgama Hospital	False	False	KLTRLTHGMLTHGMHSPTL		Kalutara	LK-13	6.577316	80.127363	Aluthgama	PS-1302100	6.432842	79.998032	6.433865	80.001921	Hospital Rd, Aluthgama, Sri Lanka	0.444683	
Kalutara	Beruwala	MOH Office – Beruwala	False	False	KLTRBRWLMHFFCBRWL		Kalutara	LK-13	6.577316	80.127363	Beruwala	PS-1302102	6.480329	79.983498	6.437559	79.999356	CXQX+2PH, Aluthgama, Sri Lanka	5.069893	
Kalutara	Baduraliya	Mahena Viharaya	False	False	KLTRBDRLYMHNVHRY		Kalutara	LK-13	6.577316	80.127363	Baduraliya	PS-1302106	6.516756	80.226716	6.558955	80.241365	Palanda Road, Sri Lanka	4.965097	
Kalutara	Baduraliya	Baduraliya Hospital	False	False	KLTRBDRLYBDRLYHSPTL		Kalutara	LK-13	6.577316	80.127363	Baduraliya	PS-1302106	6.516756	80.226716	6.514727	80.232731	Tiruwanaketiya-Agalawatte Rd, Baduraliya, Sri Lanka	0.702098	
Kalutara	Agalawatta	Pimbura Hospital	False	False	KLTRGLWTTPMBRHSPTL		Kalutara	LK-13	6.577316	80.127363	Agalawatta		6.542566	80.157178	6.575949	80.158371	H5G5+98H, කළුතර, Sri Lanka	3.715525	
Kalutara	Anguruwatota	MOH Office – Anguruwatota	False	False	KLTRNGRWTTMHFFCNGRWTT		Kalutara	LK-13	6.577316	80.127363	Anguruwatota	PS-130190	6.654997	80.058183	6.649886	80.076617	Madurawala Pradeshiya Sabha Sub Office, B157, Anguruwatota, Sri Lanka	2.114568	
Kurunegala	Kurunegala	Mobile Medical Team - Kurunegala	False	False	KRNGLKRNGLMBLMDCLTMKRNGL		Kurunegala	LK-61	7.66477	80.23677	Kurunegala	PS-610101	7.485852	80.364137					#CenterLocationUnknown
Kandy	Hatharaliyadda	Hatharaliyadda Maha Vidyalaya	False	False	KNDYHTHRLYDDHTHRLYDDMHVDYLY		Kandy	LK-21	7.27337	80.709602	Hatharaliyadda	PS-210106	7.336886	80.471814	7.33578	80.471154	Hatharaliyadda, Sri Lanka	0.142952	
Kandy	Poojapitiya	Poojapitiya Primary School	False	False	KNDYPJPTYPJPTYPRMRYSCHL		Kandy	LK-21	7.27337	80.709602	Poojapitiya	PS-210115	7.372938	80.587619	7.365084	80.601755	Ahalagashinna, Poojapitiya Road, Pujapitiya, Sri Lanka	1.787489	
Kandy	Wattegama	Walala A.Rathnayake Central College	False	False	KNDYWTTGMWLLRTHNYKCNTRLCLLG		Kandy	LK-21	7.27337	80.709602	Wattegama	PS-210357	7.350603	80.68335	7.318909	80.693359	8M9V+H89, Menikhinna, Sri Lanka	3.694199	
Kandy	Wattegama	Paranagama Maha Vidyalaya	False	False	KNDYWTTGMPRNGMMHVDYLY		Kandy	LK-21	7.27337	80.709602	Wattegama	PS-210357	7.350603	80.68335	7.351534	80.682953	Pitiyagedera - Wattegama - Iriyagastenne Rd, Wattegama, Sri Lanka	0.112435	
Kandy	Wattegama	Wattegama Balika Vidyalaya	False	False	KNDYWTTGMWTTGMBLKVDYLY		Kandy	LK-21	7.27337	80.709602	Wattegama	PS-210357	7.350603	80.68335	7.351534	80.682953	Pitiyagedera - Wattegama - Iriyagastenne Rd, Wattegama, Sri Lanka	0.112435	
Kandy	Katugastota	Nugawela Maha Vidyalaya	False	False	KNDYKTGSTTNGWLMHVDYLY		Kandy	LK-21	7.27337	80.709602	Katugastota	PS-210103	7.332014	80.623006	7.326749	80.586953	8HGP+MQW, Nugawela, Sri Lanka	4.020285	
Kandy	Katugastota	Gohagoda Dharmavijaya Vidyalaya	False	False	KNDYKTGSTTGHGDDHRMVJYVDYLY		Kandy	LK-21	7.27337	80.709602	Katugastota	PS-210103	7.332014	80.623006	7.305057	80.618816	Gohagoda, Katugastota, Sri Lanka	3.033846	
Kandy	Ankumbura	Ankumbura Parakrama Maha Vidyalaya	False	False	KNDYNKMBRNKMBRPRKRMMHVDYLY		Kandy	LK-21	7.27337	80.709602	Ankumbura	PS-210104	7.438826	80.571939	7.438119	80.57279	Alawatugoda-Ankumbura-Keppetigala Rd, Ankumbura, Sri Lanka	0.122449	
Kandy	Welambada	Wattappala Maha Vidyalaya	False	False	KNDYWLMBDWTTPPLMHVDYLY		Kandy	LK-21	7.27337	80.709602	Welambada	PS-210114	7.201768	80.544166	7.200964	80.548012	Welamboda, Sri Lanka	0.433735	
Kandy	Kadugannawa	Kurukuththala Maha Vidyalaya	False	False	KNDYKDGNNWKRKTHTHLMHVDYLY		Kandy	LK-21	7.27337	80.709602	Kadugannawa	PS-210112	7.256285	80.516908	7.254973	80.51884	7G39+XGP, Kadugannawa, Sri Lanka	0.258404	
Kandy	Davulagala	Dinu As Siraj College	False	False	KNDYDVLGLDNSSRJCLLG		Kandy	LK-21	7.27337	80.709602	Daulagala	PS-210111	7.227283	80.574409	7.209458	80.589466	268 Dellanga Rd, Gelioya, Sri Lanka	2.586816	
Kandy	Peradeniya	Gelioya Maha Vidyalaya	False	False	KNDYPRDNYGLYMHVDYLY		Kandy	LK-21	7.27337	80.709602	Peradeniya	PS-210110	7.267283	80.601901	7.266783	80.601296	Galaha Rd, Peradeniya, Sri Lanka	0.086885	
Kandy	Kandy	Ampitiya Berevets Vidyalaya	False	False	KNDYKNDYMPTYBRVTSVDYLY		Kandy	LK-21	7.27337	80.709602	Kandy	PS-210101	7.292948	80.642368	7.2812	80.655203	7MJ4+F3P, Ampitiya, Sri Lanka	1.926967	
Kandy	Kandy	Kandy Girls' High School	False	False	KNDYKNDYKNDYGRLSHGHSCHL		Kandy	LK-21	7.27337	80.709602	Kandy	PS-210101	7.292948	80.642368	7.286871	80.626752	7JPG+PPR, Kandy, Sri Lanka	1.850775	
Kandy	Nawalapitiya	Anurudda Kumara Primary School	False	False	KNDYNWLPTYNRDDKMRPRMRYSCHL		Kandy	LK-21	7.27337	80.709602	Nawalapitiya	PS-210219	7.057355	80.536075	7.053484	80.527436	Nawalapitiya - Ginigathena Rd, Nawalapitiya, Sri Lanka	1.046335	
Kandy	Nawalapitiya	Nawalapitiya Central College	False	False	KNDYNWLPTYNWLPTYCNTRLCLLG		Kandy	LK-21	7.27337	80.709602	Nawalapitiya	PS-210219	7.057355	80.536075	7.046305	80.537454	Weligampola Road, Nawalapitiya, Sri Lanka	1.238481	
Kandy	Pupuressa	Panvilatenna Ranasingharama Viharaya	False	False	KNDYPPRSSPNVLTNNRNSNGHRMVHRY		Kandy	LK-21	7.27337	80.709602	Pupuressa		7.130291	80.663669	7.293609	80.641325	Sri Dalada Veediya, Kandy 20000, Sri Lanka	18.332402	
Kandy	Pupuressa	Delta EstateTamil Vidyalaya	False	False	KNDYPPRSSDLTSTTTMLVDYLY		Kandy	LK-21	7.27337	80.709602	Pupuressa		7.130291	80.663669	7.127692	80.665089	4MH8+32G, Pupuressa, Sri Lanka	0.32889	
Kandy	Galaha	Pattiyagama Primary School	False	False	KNDYGLHPTTYGMPRMRYSCHL		Kandy	LK-21	7.27337	80.709602	Galaha	PS-210220	7.196074	80.669961	7.163205	80.72743	5P7G+7XM, Wadiyagoda, Sri Lanka	7.320468	
Kandy	Gampola	Wickramabahu National College	False	False	KNDYGMPLWCKRMBHNTNLCLLG		Kandy	LK-21	7.27337	80.709602	Gampola	PS-210216	7.132941	80.56799	7.153925	80.563839	Nawalapitiya Road, Gampola 20500, Sri Lanka, Sri Lanka	2.378605	
Kandy	Gampola	National Heritage Centre	False	False	KNDYGMPLNTNLHRTGCNTR		Kandy	LK-21	7.27337	80.709602	Gampola	PS-210216	7.132941	80.56799	7.162374	80.574165	Hindagala-Naranwita-Gampola Rd, Gampola, Sri Lanka	3.344009	
Kandy	Pussellawa	Town Hall – Pussellawa	False	False	KNDYPSSLLWTWNHLLPSSLLW		Kandy	LK-21	7.27337	80.709602	Pussellawa	PS-210217	7.115334	80.635553	7.106515	80.636264	Peradeniya - Badulla - Chenkaladi Hwy, Pussellawa, Sri Lanka	0.98407	
Nuwara Eliya	Nuwara Eliya	Mobile Medical Team - Nuwara Eliya	False	False	NWRLYNWRLYMBLMDCLTMNWRLY		Nuwara Eliya	LK-23	6.97423	80.711222	Nuwaraeliya	PS-230131	6.974148	80.767627					#CenterLocationUnknown
Nuwara Eliya	Hanguranketha	MOH Office – Rikillagaskada	False	False	NWRLYHNGRNKTHMHFFCRKLLGSKD		Nuwara Eliya	LK-23	6.97423	80.711222	Hanguranketha	PS-210108	7.176511	80.777388	7.144287	80.781529	4QVJ+PJ6, Rikillagaskada, Sri Lanka	3.613288	
Badulla	Badulla	MOH Office – Badulla	False	False	BDLLBDLLMHFFCBDLL		Badulla	LK-81	7.074529	81.04486	Badulla	PS-810101	6.991337	81.055246	6.988514	81.053232	Mediriya Road, Badulla, Sri Lanka	0.384756	
Galle	Elpitiya	St. Theresa Primary School	False	False	GLLLPTYSTTHRSPRMRYSCHL		Galle	LK-31	6.222805	80.251977	Elpitiya	PS-310235	6.279163	80.142917	6.277414	80.14249	Ambalangoda - Elpitiya - Pitigala Rd, Sri Lanka	0.200187	
Galle	Elpitiya	Ella Rajabishekaramaya	False	False	GLLLPTYLLRJBSHKRMY		Galle	LK-31	6.222805	80.251977	Elpitiya	PS-310235	6.279163	80.142917	6.258571	80.197126	755W+CVC, Naranowita, Sri Lanka	6.41634	
Galle	Elpitiya	Pitawala Purana Viharaya	False	False	GLLLPTYPTWLPRNVHRY		Galle	LK-31	6.222805	80.251977	Elpitiya	PS-310235	6.279163	80.142917	6.258571	80.197126	755W+CVC, Naranowita, Sri Lanka	6.41634	
Matara	Morawaka	Derangala Maha Vidyalaya	False	False	MTRMRWKDRNGLMHVDYLY		Matara	LK-32	6.142734	80.539994	Morawaka	PS-320107	6.256777	80.493654	6.253488	80.446914	7C3W+9QV, Matara, Sri Lanka	5.180864	
Matara	Akuressa	Wilpita Maha Vidyalaya	False	False	MTRKRSSWLPTMHVDYLY		Matara	LK-32	6.142734	80.539994	Akuressa	PS-320112	6.099044	80.4776	6.100691	80.512979	4G27+75H, Matara, Sri Lanka	3.917206	
Matara	Mawarala	Makandura Central College	False	False	MTRMWRLMKNDRCNTRLCLLG		Matara	LK-32	6.142734	80.539994	Mawarala	PS-320109	6.198061	80.587045	6.141498	80.55999	Mulatiyana Kamburupitiya Rd, Makandura, Sri Lanka	6.966657	
Matara	Thihagoda	MOH Office – Thihagoda	False	False	MTRTHHGDMHFFCTHHGD		Matara	LK-32	6.142734	80.539994	Thihagoda	PS-320104	6.01331	80.567932	5.996687	80.556352	Matara - Hakmana Road, Thihagoda, Sri Lanka	2.249355	
Matara	Kamburupitiya	Bibulewela Athula Dassanarama Viharaya	False	False	MTRKMBRPTYBBLWLTHLDSSNRMVHRY		Matara	LK-32	6.142734	80.539994	Kamburupitiya	PS-320105	6.073875	80.564579	6.073427	80.531343	Bibulewela, Sri Lanka	3.676423	
Hambantota	Walasmulla	Egodabedda Maha Vidyalaya	False	False	HMBNTTWLSMLLGDBDDMHVDYLY		Hambantota	LK-33	6.259779	81.098619	Walasmulla	PS-330151	6.154102	80.698256	6.185472	80.684011	Walasmulla - Katuwana - Middeniya Road, Ethpitiya, Sri Lanka	3.828396	
Hambantota	Tangalle	MOH Office – Tangalle	False	False	HMBNTTTNGLLMHFFCTNGLL		Hambantota	LK-33	6.259779	81.098619	Tangalle	PS-330147	6.023954	80.797255	6.02363	80.795742	2QFW+F75, Tangalle, Sri Lanka	0.171198	
Hambantota	Katuwana	Siyarapitiya Maha Vidyalaya	False	False	HMBNTTKTWNSYRPTYMHVDYLY		Hambantota	LK-33	6.259779	81.098619	Katuwana	PS-330153	6.269722	80.690963	6.290408	80.693009	7MRV+566, Hambantota, Sri Lanka	2.311993	
Hambantota	Agunukolapelessa	Mahanaga National College	False	False	HMBNTTGNKLPLSSMHNGNTNLCLLG		Hambantota	LK-33	6.259779	81.098619	Angunakolapelessa	PS-330150	6.321993	80.844883	6.164902	80.895901	5V7W+X96, Agunukolapelessa, Sri Lanka	18.361223	
Hambantota	Sooriyawewa	Meeriyagama Maha Vidyalaya	False	False	HMBNTTSRYWWMRYGMMHVDYLY		Hambantota	LK-33	6.259779	81.098619	Sooriyawewa	PS-330155	6.306022	81.003873	6.307631	80.998212	8X5X+374, Sooriyawewa, Sri Lanka	0.650947	
Hambantota	Ambalantota	MOH Office – Ambalantota	False	False	HMBNTTMBLNTTMHFFCMBLNTT		Hambantota	LK-33	6.259779	81.098619	Ambalantota	PS-330157	6.12516	81.023981	6.122767	81.005973	Walawa watta Road, Malpeththawa, Ambalantota, Sri Lanka	2.009195	
Hambantota	Beliatta	MOH Office – Beliatta	False	False	HMBNTTBLTTMHFFCBLTT		Hambantota	LK-33	6.259779	81.098619	Beliatta	PS-330152	6.046936	80.735408	6.051828	80.741735	3P2R+PMQ, Hambantota, Sri Lanka	0.886482	
Rathnapura	Balangoda	Vidyaloka Central College	False	False	RTHNPRBLNGDVDYLKCNTRLCLLG		Ratnapura	LK-91	6.586826	80.566158	Balangoda	PS-910103	6.649474	80.700276	6.648651	80.698377	Barns Rathwathta Mawatha, Balangoda 70100, Sri Lanka	0.228906	
Rathnapura	Imbulpe	MOH Office – Imbulpe	False	False	RTHNPRMBLPMHFFCMBLP		Ratnapura	LK-91	6.586826	80.566158	Imbulpe		6.688314	80.743773	6.673445	80.719412	Colombo - Ratnapura - Wellawaya - Batticaloa Rd, Sri Lanka	3.158835	
Rathnapura	Weligepola	MOH Office – Weligepola	False	False	RTHNPRWLGPLMHFFCWLGPL		Ratnapura	LK-91	6.586826	80.566158	Weligepola	PS-910106	6.596426	80.723695	6.581292	80.70718	Galgoda - Weligepola Rd, Weligepola, Sri Lanka	2.482674	
Rathnapura	Kolonna	MOH Office – Kolonna	False	False	RTHNPRKLNNMHFFCKLNN		Ratnapura	LK-91	6.586826	80.566158	Kolonna	PS-910235	6.40194	80.687615	6.406211	80.691442	Main St, Sri Lanka	0.636106	
Rathnapura	Kuruwita	Kuruwita Central College	False	False	RTHNPRKRWTKRWTCNTRLCLLG		Ratnapura	LK-91	6.586826	80.566158	Kuruwita	PS-910112	6.778839	80.364712	6.781492	80.362037	A4, Ratnapura 70500, Sri Lanka	0.417583	
Rathnapura	Rathnapura	MOH Office – Rathnapura	False	False	RTHNPRRTHNPRMHFFCRTHNPR		Ratnapura	LK-91	6.586826	80.566158	Ratnapura	PS-910101	6.679456	80.40223	6.687915	80.393434	M9QV+597, Ratnapura, Sri Lanka	1.352603	
Rathnapura	Rathnapura	Sumana Balika Vidyalaya	False	False	RTHNPRRTHNPRSMNBLKVDYLY		Ratnapura	LK-91	6.586826	80.566158	Ratnapura	PS-910101	6.679456	80.40223	6.679009	80.391964	212 Pothgul Vihara Mawatha, Ratnapura, Sri Lanka	1.135225	
Kegalle	Warakapola	MOH Office – Warakapola	False	False	KGLLWRKPLMHFFCWRKPL		Kegalle	LK-92	7.104216	80.342866	Wrakapola	PS-920119	7.227488	80.199696	7.226501	80.197818	65GX+J44, Warakapola, Sri Lanka	0.234514	
Kegalle	Mawanella	MOH Office – Mawanella	False	False	KGLLMWNLLMHFFCMWNLL		Kegalle	LK-92	7.104216	80.342866	Mawanella	PS-920122	7.256966	80.445912	7.253248	80.44561	Rambukkana-Mawanella Rd, Mawanella, Sri Lanka	0.414893	
Kegalle	Kegalle	MOH Office – Kegalle	False	False	KGLLKGLLMHFFCKGLL		Kegalle	LK-92	7.104216	80.342866	Kegalle	PS-920118	7.255928	80.353156	7.24797	80.343583	Kegalle-Bulathkohupitiya-Karawanella Hwy, Kegalle, Sri Lanka	1.378052	
Kegalle	Aranayaka	MOH Office – Aranayaka	False	False	KGLLRNYKMHFFCRNYK		Kegalle	LK-92	7.104216	80.342866	Aranayaka	PS-920120	7.186505	80.455273	7.177667	80.457992	5FH5+359, Dippitiya, Sri Lanka	1.027824	
Anuradhapura	Anuradhapura	Wijayapura Provincial Health Training Centre	False	False	NRDHPRNRDHPRWJYPRPRVNCLHLTHTRNNGCNTR		Anuradhapura	LK-71	8.39199	80.512958	Anuradapura	PS-710101	8.329752	80.407265	8.292285	80.411422	7CR6+WH7, Anuradhapura, Sri Lanka	4.192488	
Anuradhapura	Anuradhapura	Pandulagama Viharaya	False	False	NRDHPRNRDHPRPNDLGMVHRY		Anuradhapura	LK-71	8.39199	80.512958	Anuradapura	PS-710101	8.329752	80.407265	8.327516	80.361109	Pandulagama, Anuradhapura 50000, Sri Lanka	5.085864	
Anuradhapura	Mihintale	Divisional Secretariat - Mihintale	False	False	NRDHPRMHNTLDVSNLSCRTRTMHNTL		Anuradhapura	LK-71	8.39199	80.512958	Mihintale	PS-710104	8.360062	80.511889	8.358288	80.509489	A12, Mihintale, Sri Lanka	0.329686	
Anuradhapura	Mahawilachchiya	MOH Office – Mahawilachchiya	False	False	NRDHPRMHWLCHCHYMHFFCMHWLCHCHY		Anuradhapura	LK-71	8.39199	80.512958	Mahawilachchiya	PS-710120	8.484987	80.193911	8.494303	80.186519	F5VP+PJC, Mahawilachchiya, Sri Lanka	1.317298	
Jaffna	Jaffna	Mobile Medical Team - Jaffna MC	False	False	JFFNJFFNMBLMDCLTMJFFNMC		Jaffna	LK-41	9.691792	80.098594	Jaffna	PS-410209	9.659919	80.010965					#CenterLocationUnknown
Jaffna	Kayts	MOH Office – Karainagar	False	False	JFFNKYTSMHFFCKRNGR		Jaffna	LK-41	9.691792	80.098594	Kayts	PS-410212	9.728654	79.94775	9.725097	79.99772	Sri Lanka, Manipay, Sri Lanka	5.492521	
Jaffna	Kayts	MOH Office – Kayts	False	False	JFFNKYTSMHFFCKYTS		Jaffna	LK-41	9.691792	80.098594	Kayts	PS-410212	9.728654	79.94775	9.697759	79.866366	Sri Lanka, Kayts, Sri Lanka	9.561445	
Jaffna	Kayts	MOH Office – Velanai	False	False	JFFNKYTSMHFFCVLN		Jaffna	LK-41	9.691792	80.098594	Kayts	PS-410212	9.728654	79.94775	9.636317	79.903777	Chatty vangkalvady road, Velanai, Sri Lanka	11.346015	
Jaffna	Chavakachcheri	Town Hall – Chavakachcheri	False	False	JFFNCHVKCHCHRTWNHLLCHVKCHCHR		Jaffna	LK-41	9.691792	80.098594	Chawakachcheri	PS-410215	9.666459	80.132384	9.659136	80.160946	M556+M94, Chavakachcheri, Sri Lanka	3.236063	
Kilinochchi	Kilinochchi	Army Base Hospital - Kilinochchi	False	False	KLNCHCHKLNCHCHRMYBSHSPTLKLNCHCH		Kilinochchi	LK-45	9.415742	80.30358	Kilinochchi	PS-450131	9.392265	80.407846	9.372728	80.411786	Ananthapuram, A9, Kilinochchi, Sri Lanka	2.215695	
Kilinochchi	Kilinochchi	Mobile Vaccination	False	False	KLNCHCHKLNCHCHMBLVCCNTN		Kilinochchi	LK-45	9.415742	80.30358	Kilinochchi	PS-450131	9.392265	80.407846					#CenterLocationUnknown
Kilinochchi	Pooneryn	Gnanimadam Primary school	False	False	KLNCHCHPNRYNGNNMDMPRMRYSCHL		Kilinochchi	LK-45	9.415742	80.30358	Pooneryn		9.505717	80.21101	9.503311	80.211216	Pooneryn, Sri Lanka	0.268571	
Mullaitivu	Mallavi	Mobile Vaccination	False	False	MLLTVMLLVMBLVCCNTN		Mullaitivu	LK-44	9.167643	80.549091	Mallavi	PS-440153	9.137878	80.307257					#CenterLocationUnknown
Mullaitivu	Mulliyaveli	Niravipiddi Treatment Centre	False	False	MLLTVMLLYVLNRVPDDTRTMNTCNTR		Mullaitivu	LK-44	9.167643	80.549091	Muliyaweli	PS-440150	6.915266	79.87829	9.134704	80.308726	48M5+VFQ, Mallavi, Sri Lanka	251.378074	#CenterFarFromPolice
Mullaitivu	Pudukudiruppu	MOH Office – Pudukudiruppu	False	False	MLLTVPDKDRPPMHFFCPDKDRPP		Mullaitivu	LK-44	9.167643	80.549091	Pudukuduiruppu	PS-440149	7.00152	79.95003	9.320965	80.683013	Parantan-Mullaitivu Hwy, Velikkandal, Sri Lanka	270.317914	#CenterFarFromPolice
Mullaitivu	Oddusuddan	MOH Office – Oddusuddan	False	False	MLLTVDDSDDNMHFFCDDSDDN		Mullaitivu	LK-44	9.167643	80.549091	Oddusudan	PS-440151	9.160983	80.652821	9.162816	80.661584	5M76+4JG, Oddusuddan, Sri Lanka	0.983634	
Trincomalee	Muttur	MOH Office – Muttur	False	False	TRNCMLMTTRMHFFCMTTR		Trincomalee	LK-53	8.551241	81.092014	Mutur	PS-530138	8.461133	81.259371	8.453916	81.264494	1 Old Batticaloa Rd, Mutur, Sri Lanka	0.980859	
Trincomalee	Kinniya	MOH Office – Kuruggankeni	False	False	TRNCMLKNNYMHFFCKRGGNKN		Trincomalee	LK-53	8.551241	81.092014	Kinnia	PS-530140	6.907289	79.863819	8.498696	81.179644	F5XH+FVC, Kinniya 31100, Sri Lanka	228.840304	#CenterFarFromPolice
Trincomalee	Kinniya	MOH Office – Kinniya	False	False	TRNCMLKNNYMHFFCKNNY		Trincomalee	LK-53	8.551241	81.092014	Kinnia	PS-530140	6.907289	79.863819	8.498696	81.179644	F5XH+FVC, Kinniya 31100, Sri Lanka	228.840304	#CenterFarFromPolice
Trincomalee	Sripura	MOH Office – Sripura	False	False	TRNCMLSRPRMHFFCSRPR		Trincomalee	LK-53	8.551241	81.092014	Sripura	PS-530136	8.929617	80.81428	8.926697	80.814799	Padavi Sripura, Padaviya - Sripura Road, Welioya, Sri Lanka	0.329869	
Trincomalee	Kuchchaveli	MOH Office – Kuchchaveli	False	False	TRNCMLKCHCHVLMHFFCKCHCHVL		Trincomalee	LK-53	8.551241	81.092014	Kuchchaweli	PS-530133	8.81895	81.100438	8.740082	81.161616	P5R6+2JQ, Kumpurupiddi, Sri Lanka	11.053646	
Trincomalee	Kuchchaveli	Divisional Hospital – Kuchchaveli	False	False	TRNCMLKCHCHVLDVSNLHSPTLKCHCHVL		Trincomalee	LK-53	8.551241	81.092014	Kuchchaweli	PS-530133	8.81895	81.100438	8.814795	81.102358	R472+WW9, Kuchchaveli, Sri Lanka	0.508064	
Trincomalee	Kuchchaveli	Divisional Hospital – Nilaveli	False	False	TRNCMLKCHCHVLDVSNLHSPTLNLVL		Trincomalee	LK-53	8.551241	81.092014	Kuchchaweli	PS-530133	8.81895	81.100438	8.681035	81.193632	M5JV+CF6, Nilaveli, Sri Lanka	18.44695	
Trincomalee	Pulmoddai	Pulmoddai Base Hospital	False	False	TRNCMLPLMDDPLMDDBSHSPTL	Base Hospital - Pulmoddai	Trincomalee	LK-53	8.551241	81.092014	Pulmudai	PS-530135	6.915266	79.87829	8.941204	80.983139	WXRM+F7J, Pulmoddai, Sri Lanka	256.112801	#CenterFarFromPolice
Trincomalee	Gomarankadawala	MOH Office – Gomarankadawala	False	False	TRNCMLGMRNKDWLMHFFCGMRNKDWL		Trincomalee	LK-53	8.551241	81.092014	Gomarankadawala	PS-530248	8.674487	80.967555	8.674726	80.955691	Unnamed Road, Gomarankadawala, Sri Lanka	1.304806	
Batticaloa	Batticaloa	Mobile Medical Team - Batticaloa	False	False	BTTCLBTTCLMBLMDCLTMBTTCL		Batticaloa	LK-51	7.792772	81.486513	Batticaloa	PS-510101	7.717949	81.699294					#CenterLocationUnknown
Batticaloa	Vellawali	Kalaimagal Tamil Vidyalaya	False	False	BTTCLVLLWLKLMGLTMLVDYLY		Batticaloa	LK-51	7.792772	81.486513	Vellavali	PS-510111	6.907289	79.863819	7.418515	80.609507	CJ95+CR2, Ukuwela, Sri Lanka	100.029783	#CenterFarFromPolice
Batticaloa	Kaluwanchikudy	Mobile Vaccination	False	False	BTTCLKLWNCHKDYMBLVCCNTN		Batticaloa	LK-51	7.792772	81.486513	Kalawanchikudy	PS-510110	7.515908	81.787051					#CenterLocationUnknown
Batticaloa	Kaluwanchikudy	MOH Office – Kaluwanchikudy	False	False	BTTCLKLWNCHKDYMHFFCKLWNCHKDY	Medical Officer of Health Kaluwanchikudy	Batticaloa	LK-51	7.792772	81.486513	Kalawanchikudy	PS-510110	7.515908	81.787051	7.509333	81.79204	Colombo - Batticaloa Hwy, Kaluwanchikudy, Sri Lanka	0.915167	
Batticaloa	Valachchenai	MOH Office - Valachchenai	False	False	BTTCLVLCHCHNMHFFCVLCHCHN		Batticaloa	LK-51	7.792772	81.486513	Valachchanai	PS-510107	7.908015	81.533004	7.912281	81.532775	WG6M+W46, Batticaloa, Sri Lanka	0.475177	
Batticaloa	Valachchenai	MOH Office – Oddamavadi	False	False	BTTCLVLCHCHNMHFFCDDMVD		Batticaloa	LK-51	7.792772	81.486513	Valachchanai	PS-510107	7.908015	81.533004	7.912281	81.532775	WG6M+W46, Batticaloa, Sri Lanka	0.475177	
Batticaloa	Valachchenai	MOH Office – Nawaladi	False	False	BTTCLVLCHCHNMHFFCNWLD		Batticaloa	LK-51	7.792772	81.486513	Valachchanai	PS-510107	7.908015	81.533004	6.862775	79.901065	Delakada Plaza, Delkada, Nugegoda, Sri Lanka	214.291922	#CenterFarFromPolice
Batticaloa	Valachchenai	Mobile Vaccination	False	False	BTTCLVLCHCHNMBLVCCNTN		Batticaloa	LK-51	7.792772	81.486513	Valachchanai	PS-510107	7.908015	81.533004					#CenterLocationUnknown
Batticaloa	Valachchenai	Valachchenai Base Hospital	False	False	BTTCLVLCHCHNVLCHCHNBSHSPTL		Batticaloa	LK-51	7.792772	81.486513	Valachchanai	PS-510107	7.908015	81.533004	7.911315	81.533046	Valaichchenai-Nasuvantivu-Navaladi Road, Sri Lanka	0.367088	
Batticaloa	Vakarai	MOH Office - Vakarai	False	False	BTTCLVKRMHFFCVKR		Batticaloa	LK-51	7.792772	81.486513	Wakarai	PS-510109	6.934132	79.856305	7.215486	80.013606	6287+5CX, Divulapitiya, Sri Lanka	35.7891	#CenterFarFromPolice
Batticaloa	Kattankudy	MOH Office – Kattankudy	False	False	BTTCLKTTNKDYMHFFCKTTNKDY		Batticaloa	LK-51	7.792772	81.486513	Kaththankudi	PS-510103	7.715979	81.698757	7.683586	81.730767	MPMJ+C8J, Kattankudy, Sri Lanka	5.042961	
Batticaloa	Eravur	Eravur Hospital	False	False	BTTCLRVRRVRHSPTL		Batticaloa	LK-51	7.792772	81.486513	Eravur	PS-510104	7.715979	81.698757	7.783168	81.605999	QJM4+799, Eravur 30300, Sri Lanka	12.663585	
Batticaloa	Eravur	MOH Office – Eravur	False	False	BTTCLRVRMHFFCRVR		Batticaloa	LK-51	7.792772	81.486513	Eravur	PS-510104	7.715979	81.698757	7.783664	81.605626	QJM4+F76, Eravur, Sri Lanka	12.729342	
Batticaloa	Eravur	MOH Office – Chenkaladi	False	False	BTTCLRVRMHFFCCHNKLD		Batticaloa	LK-51	7.792772	81.486513	Eravur	PS-510104	7.715979	81.698757	7.783599	81.593367	Trincomalee Hwy, Chenkaladi 30350, Sri Lanka	13.837876	
Batticaloa	Eravur	Sandiveli Hospital	False	False	BTTCLRVRSNDVLHSPTL		Batticaloa	LK-51	7.792772	81.486513	Eravur	PS-510104	7.715979	81.698757	7.777289	81.602853	Trincomalee Hwy, Eravur, Sri Lanka	12.578998	
Batticaloa	Eravur	Mobile Vaccination	False	False	BTTCLRVRMBLVCCNTN		Batticaloa	LK-51	7.792772	81.486513	Eravur	PS-510104	7.715979	81.698757					#CenterLocationUnknown
Batticaloa	Eravur	Chenkaladi Hospital	False	False	BTTCLRVRCHNKLDHSPTL		Batticaloa	LK-51	7.792772	81.486513	Eravur	PS-510104	7.715979	81.698757	7.783546	81.589961	Batticaloa Rd, Chenkaladi, Sri Lanka	14.151406	
Batticaloa	Vavunathivu	MOH Office – Vavunathivu	False	False	BTTCLVVNTHVMHFFCVVNTHV		Batticaloa	LK-51	7.792772	81.486513	Vavunathive	PS-510102	6.933075	79.857181	7.708253	81.691368	Hospital Rd, Batticaloa, Sri Lanka	219.95575	#CenterFarFromPolice
Ampara	Mangalagama	Keviliyamadu Community Health Centre	False	False	MPRMNGLGMKVLYMDCMMNTYHLTHCNTR		Ampara	LK-52	7.23699	81.550391	Mangalagama	PS-520119	7.524533	81.539626	7.530069	81.354605	A5, Maha Oya, Sri Lanka	20.411799	#CenterFarFromPolice
