district	police	center	dose1	dose2	fuzzy_key	alt_name	district_name_norm	district_id	district_lat	district_lng	ps_name_norm	ps_id	ps_lat	ps_lng	lat	lng	formatted_address	dis_center_to_police	tags
Colombo	Cinnamon Gardens	Viharamahadevi Park	True	True	CLMBCNNMNGRDNSVHRMHDVPRK		Colombo	LK-11	6.869636	80.019598	Cinnamon Garden	PS-110324	6.907289	79.863819	6.913391	79.86174	Viharamahadevi Park, Colombo, Sri Lanka	0.716497	
Colombo	Thalangama	Diyatha Uyana	True	True	CLMBTHLNGMDYTHYN		Colombo	LK-11	6.869636	80.019598	Thalangama	PS-110466	6.91089	79.929325	6.904575	79.909831	Diyatha Uyana, B240, Sri Jayawardenepura Kotte, Sri Lanka	2.264281	
Colombo	Grandpass	Sugathadasa Outdoor Stadium	True	True	CLMBGRNDPSSSGTHDSTDRSTDM		Colombo	LK-11	6.869636	80.019598	Grandpass	PS-110215	6.949052	79.872983	6.94806	79.868842	Prince of Wales Ave, Colombo 01400, Sri Lanka	0.470345	
Colombo	Narahenpita	Army Hospital Narahenpita	False	False	CLMBNRHNPTRMYHSPTLNRHNPT		Colombo	LK-11	6.869636	80.019598	Narahenpita	PS-110321	6.891832	79.876715	6.900252	79.87618	08 Elvitigala Mawatha, Colombo 00800, Sri Lanka	0.938417	
Colombo	Narahenpita	Army Headquarters Mobile Team	False	False	CLMBNRHNPTRMYHDQRTRSMBLTM		Colombo	LK-11	6.869636	80.019598	Narahenpita	PS-110321	6.891832	79.876715					#CenterLocationUnknown
Colombo	Borella	St. Luke's Church - Borella	False	False	CLMBBRLLSTLKSCHRCHBRLL		Colombo	LK-11	6.869636	80.019598	Borella	PS-110323	6.915266	79.87829	6.918035	79.874548	1091 Gnanartha Pradeepa Mawatha, Colombo 00800, Sri Lanka	0.515354	
Colombo	Borella	Campbell Park	False	False	CLMBBRLLCMPBLLPRK		Colombo	LK-11	6.869636	80.019598	Borella	PS-110323	6.915266	79.87829	6.920163	79.877108	Campbell Park, Colombo, Sri Lanka	0.560111	
Colombo	Boralesgamuwa	Kotelawala Defence Hospital	False	True	CLMBBRLSGMWKTLWLDFNCHSPTL		Colombo	LK-11	6.869636	80.019598	Boralesgamuwa	PS-110464	6.841331	79.901255	6.82518	79.907167	RWG4+3VF, Boralesgamuwa, Sri Lanka	1.911444	
Colombo	Boralesgamuwa	MOH Office - Werahera	False	False	CLMBBRLSGMWMHFFCWRHR		Colombo	LK-11	6.869636	80.019598	Boralesgamuwa	PS-110464	6.841331	79.901255	6.833094	79.905583	RWM4+66P, Boralesgamuwa, Sri Lanka	1.033386	
Colombo	Fort	Navy Headquarters	False	False	CLMBFRTNVYHDQRTRS		Colombo	LK-11	6.869636	80.019598	Fort	PS-110105	6.9334	79.842895	6.936952	79.842104	WRPR+QRQ, Colombo, Sri Lanka	0.404627	
Colombo	Avissawella	Avissawella Base Hospital	False	False	CLMBVSSWLLVSSWLLBSHSPTL		Colombo	LK-11	6.869636	80.019598	Awissawella	PS-920226	6.947538	80.215422	6.957085	80.207381	Avissawella Rd, Avissawella, Sri Lanka	1.384155	
Colombo	Wellampitiya	MOH Office - Kolonnawa	False	False	CLMBWLLMPTYMHFFCKLNNW		Colombo	LK-11	6.869636	80.019598	Wellampitiya	PS-110465	6.937514	79.896298	6.938303	79.889664	25 Pansalhena 1st Ln, 10600, Sri Lanka	0.737734	
Colombo	Mulleriyawa	MOH Office - Gothatuwa	False	False	CLMBMLLRYWMHFFCGTHTW		Colombo	LK-11	6.869636	80.019598	Mulleriyawa	PS-110469	6.927187	79.929108	6.922088	79.916237	Mandavila Rd, Kotikawatta, Sri Lanka	1.530186	
Colombo	Kaduwela	MOH Office - Kaduwela	False	False	CLMBKDWLMHFFCKDWL		Colombo	LK-11	6.869636	80.019598	Kaduwela		6.936234	79.970183	6.934127	79.984398	B263, Kaduwela, Sri Lanka	1.586964	
Colombo	Kosgama	Kosgama Hospital	False	False	CLMBKSGMKSGMHSPTL		Colombo	LK-11	6.869636	80.019598	Kosgama	PS-920227	6.946597	80.137869	6.940956	80.124888	Salawa-Akarawita, 10730, Sri Lanka	1.564606	
Colombo	Fore shore	MOH Office - Jinthupitiya	False	False	CLMBFRSHRMHFFCJNTHPTY		Colombo	LK-11	6.869636	80.019598	Fore shore	PS-110210	6.949589	79.857355	6.943258	79.859238	No.27 Vivekananda Hill, Colombo 01300, Sri Lanka	0.734247	
Gampaha	Gampaha	MOH Office - Gampaha	False	False	GMPHGMPHMHFFCGMPH		Gampaha	LK-12	7.123598	80.018508	Gampaha	PS-120237	7.087765	80.01228	7.090643	80.002094	Colombo Rd, Gampaha, Sri Lanka	1.16901	
Gampaha	Gampaha	Korasa Clinic	False	False	GMPHGMPHKRSCLNC		Gampaha	LK-12	7.123598	80.018508	Gampaha	PS-120237	7.087765	80.01228	7.09136	80.000709	A33, Gampaha, Sri Lanka	1.338334	
Gampaha	Weliweriya	Weliweriya Vidyalaya	False	False	GMPHWLWRYWLWRYVDYLY		Gampaha	LK-12	7.123598	80.018508	Weliweriya	PS-120244	7.03451	80.026114	7.031027	80.028908	132/24 B New Kandy Rd, Weliweriya, Sri Lanka	0.4952	
Gampaha	Yakkala	Abesekararama Viharaya	False	False	GMPHYKKLBSKRRMVHRY		Gampaha	LK-12	7.123598	80.018508	Yakkala	PS-120250	7.076621	80.020655	7.092749	80.033677	32VM+3FV, Yakkala, Sri Lanka	2.298734	
Gampaha	Minuwangoda	Minuwangoda Hospital	False	False	GMPHMNWNGDMNWNGDHSPTL		Gampaha	LK-12	7.123598	80.018508	Minuwangoda	PS-120238	7.174215	79.957874	7.172257	79.956152	Veyangoda Rd, Minuwangoda 11550, Sri Lanka	0.289044	
Gampaha	Minuwangoda	Minuwangoda Rajamaha Viharaya	False	False	GMPHMNWNGDMNWNGDRJMHVHRY		Gampaha	LK-12	7.123598	80.018508	Minuwangoda	PS-120238	7.174215	79.957874	7.169433	79.952577	5X93+Q2G, Minuwangoda, Sri Lanka	0.790346	
Gampaha	Minuwangoda	MOH Office- Minuwangoda	False	False	GMPHMNWNGDMHFFCMNWNGD		Gampaha	LK-12	7.123598	80.018508	Minuwangoda	PS-120238	7.174215	79.957874	7.17227	79.956823	Katunayake-Veyangoda Rd, Minuwangoda, Sri Lanka	0.245525	
Gampaha	Pugoda	MOH Office - Dompe	False	False	GMPHPGDMHFFCDMP		Gampaha	LK-12	7.123598	80.018508	Pugoda	PS-120241	6.98283	80.111189	6.976767	80.117422	Dompe, Pugoda-Mandawala Rd, Pugoda, Sri Lanka	0.963513	
Gampaha	Pallewela	Ganegoda Piriven Viharaya	False	False	GMPHPLLWLGNGDPRVNVHRY		Gampaha	LK-12	7.123598	80.018508	Pallewela	PS-120249	7.197365	80.094856	7.215464	80.102376	Ganegoda, Sri Lanka	2.177476	
Gampaha	Veyangoda	Wanduruwa Viharaya	False	False	GMPHVYNGDWNDRWVHRY		Gampaha	LK-12	7.123598	80.018508	Weyangoda	PS-120247	7.144053	80.095511	7.137014	80.051457	43P2+RH4, Veyangoda, Sri Lanka	4.924751	
Gampaha	Nittambuwa	Ochatwatta Viharaya	False	False	GMPHNTTMBWCHTWTTVHRY		Gampaha	LK-12	7.123598	80.018508	Nittambuwa	PS-120246	7.149726	80.10046	7.142563	80.085532	344/1, Vivekarama, Temple Rd, Nittambuwa, Sri Lanka	1.830078	
Gampaha	Nittambuwa	Kuruwamulla Primary School	False	False	GMPHNTTMBWKRWMLLPRMRYSCHL		Gampaha	LK-12	7.123598	80.018508	Nittambuwa	PS-120246	7.149726	80.10046	7.132516	80.106428	44M4+2H3, Nittambuwa, Sri Lanka	2.024416	
Gampaha	Weeragula	Ranishwala Primary School	False	False	GMPHWRGLRNSHWLPRMRYSCHL		Gampaha	LK-12	7.123598	80.018508	Weeragula	PS-120243	7.097156	80.060399	7.119132	80.045944	429W+M94, Kalagedihena, Sri Lanka	2.918998	
Gampaha	Kochchikade	Holy Spirit Church Kochchikade	False	False	GMPHKCHCHKDHLYSPRTCHRCHKCHCHKD		Gampaha	LK-12	7.123598	80.018508	Kochchikade	PS-120352	7.265049	79.857026	7.265657	79.858517	7V85+7C6, Negombo, Sri Lanka	0.17787	
Gampaha	Kadawata	MOH Office - Mahara	False	False	GMPHKDWTMHFFCMHR		Gampaha	LK-12	7.123598	80.018508	Kadawatha	PS-120136	7.00152	79.95003	7.020757	79.973481	Mahara, Eldeniya, Sri Lanka	3.358732	
Gampaha	Katana	MOH Office - Katana	False	False	GMPHKTNMHFFCKTN		Gampaha	LK-12	7.123598	80.018508	Katana	PS-120360	7.224796	79.880015	7.22436	79.88271	Katana, Negombo - Mirigama Rd, Negombo, Sri Lanka	0.301313	
Gampaha	Katunayaka	Walpola Chethiyarama Viharaya	False	False	GMPHKTNYKWLPLCHTHYRMVHRY		Gampaha	LK-12	7.123598	80.018508	Katunayaka	PS-120358	7.165898	79.882607	7.194349	79.927665	Walpola, Sri Lanka	5.894096	
Gampaha	Pamunugama	Pamunugama Hospital	False	False	GMPHPMNGMPMNGMHSPTL		Gampaha	LK-12	7.123598	80.018508	Pamunugama	PS-120353	7.078892	79.859696	7.093543	79.850191	3VV2+C38, Negombo, Sri Lanka	1.938152	
Gampaha	Kelaniya	Kelaniya Elders Home	False	False	GMPHKLNYKLNYLDRSHM		Gampaha	LK-12	7.123598	80.018508	Kelaniya	PS-120126	6.950251	79.917459	6.957887	79.921352	97 Oswale, Gomis Road, Peliyagoda, Sri Lanka	0.951921	
Gampaha	Biyagama	MOH Office - Biyagama	False	False	GMPHBYGMMHFFCBYGM		Gampaha	LK-12	7.123598	80.018508	Biyagama	PS-120131	6.962284	80.009037	6.946824	79.994052	Hospital Rd, Sri Lanka	2.386313	
Gampaha	Negombo	MOH Office - Negombo	False	False	GMPHNGMBMHFFCNGMB		Gampaha	LK-12	7.123598	80.018508	Negombo	PS-120351	7.224796	79.880015	7.22436	79.88271	Katana, Negombo - Mirigama Rd, Negombo, Sri Lanka	0.301313	
Gampaha	Ja Ela	MOH Office - Ja Ela	False	False	GMPHJLMHFFCJL		Gampaha	LK-12	7.123598	80.018508	Ja - Ela	PS-120133	7.081055	79.890504	7.075216	79.893879	60 Mount Kalvary Rd, Ja-Ela, Sri Lanka	0.748731	
Gampaha	Wattala	MOH Office - Wattala	False	False	GMPHWTTLMHFFCWTTL		Gampaha	LK-12	7.123598	80.018508	Wattala	PS-120128	6.993713	79.894506	6.995817	79.885793	301 Hendala Rd, Wattala, Sri Lanka	0.989991	
Gampaha	Ragama	MOH Office - Ragama	False	False	GMPHRGMMHFFCRGM		Gampaha	LK-12	7.123598	80.018508	Ragama	PS-120134	7.034975	79.924148	7.027386	79.920232	2WGC+X35, Ragama, Sri Lanka	0.948382	
Gampaha	Divulapitiya	MOH Office - Divulapitiya	False	False	GMPHDVLPTYMHFFCDVLPTY		Gampaha	LK-12	7.123598	80.018508	Diulapitiya	PS-120355	7.174215	79.957874	7.215486	80.013606	6287+5CX, Divulapitiya, Sri Lanka	7.67456	
Gampaha	Seeduwa	MOH Office - Seeduwa	False	False	GMPHSDWMHFFCSDW		Gampaha	LK-12	7.123598	80.018508	Seeduwa	PS-120356	7.128721	79.877371	7.131527	79.879964	24 Kotugoda Rd, Katunayake 11410, Sri Lanka	0.423459	
Kalutara	Kalutara South	Mobile Medical Team	True	True	KLTRKLTRSTHMBLMDCLTM		Kalutara	LK-13	6.577316	80.127363	Kalutara South	PS-130296	6.58486	79.961043					#CenterLocationUnknown
Kalutara	Kalutara South	NIHS	False	False	KLTRKLTRSTHNHS		Kalutara	LK-13	6.577316	80.127363	Kalutara South	PS-130296	6.58486	79.961043	6.55864	79.977416	HX5G+FX3, Katukurunda, Sri Lanka	3.432035	
Kalutara	Horana	Koraleima Eldars Home	False	False	KLTRHRNKRLMLDRSHM		Kalutara	LK-13	6.577316	80.127363	Horana	PS-130192	6.714613	80.069091	6.748555	80.05465	186/3, Kananwila Rd, Horana, Sri Lanka	4.098539	
Kalutara	Horana	Kotigamgoda Primary School	False	False	KLTRHRNKTGMGDPRMRYSCHL		Kalutara	LK-13	6.577316	80.127363	Horana	PS-130192	6.714613	80.069091	6.811145	80.084372	R36M+FP5, Colombo, Sri Lanka	10.869094	
Kalutara	Beruwala	MOH Office - Beruwala	False	False	KLTRBRWLMHFFCBRWL		Kalutara	LK-13	6.577316	80.127363	Beruwala	PS-1302102	6.480329	79.983498	6.437559	79.999356	CXQX+2PH, Aluthgama, Sri Lanka	5.069893	
Kalutara	Aluthgama	Mobile Vaccination	False	False	KLTRLTHGMMBLVCCNTN		Kalutara	LK-13	6.577316	80.127363	Aluthgama	PS-1302100	6.432842	79.998032					#CenterLocationUnknown
Kalutara	Matugama	MOH Office - Matugama	False	False	KLTRMTGMMHFFCMTGM		Kalutara	LK-13	6.577316	80.127363	Mathugama	PS-1302103	6.520881	80.117908	6.523544	80.126443	G4FG+CH8, Matugama, Sri Lanka	0.988725	
Kalutara	Matugama	MOH Office - Matugama	False	False	KLTRMTGMMHFFCMTGM		Kalutara	LK-13	6.577316	80.127363	Mathugama	PS-1302103	6.520881	80.117908	6.523544	80.126443	G4FG+CH8, Matugama, Sri Lanka	0.988725	
Kalutara	Matugama	Katugahahena Hospital	False	False	KLTRMTGMKTGHHNHSPTL		Kalutara	LK-13	6.577316	80.127363	Mathugama	PS-1302103	6.520881	80.117908	6.489328	80.08471	F3QM+PVP, Bopitiya, Sri Lanka	5.077192	
Kalutara	Baduraliya	Baduraliya Hospital	False	False	KLTRBDRLYBDRLYHSPTL		Kalutara	LK-13	6.577316	80.127363	Baduraliya	PS-1302106	6.516756	80.226716	6.514727	80.232731	Tiruwanaketiya-Agalawatte Rd, Baduraliya, Sri Lanka	0.702098	
Kalutara	Wadduwa	Moronthuduwa Viharaya	False	False	KLTRWDDWMRNTHDWVHRY		Kalutara	LK-13	6.577316	80.127363	Wadduwa	PS-130188	6.664403	79.929851	6.660915	79.969445	MX69+9Q8, Moronthuduwa, Sri Lanka	4.391463	
Kalutara	Wadduwa	Wadduwa Centarl College	False	False	KLTRWDDWWDDWCNTRLCLLG		Kalutara	LK-13	6.577316	80.127363	Wadduwa	PS-130188	6.664403	79.929851	6.660266	79.936966	Wadduwa, Sri Lanka	0.91084	
Kalutara	Bandragama	MOH Office - Bandaragama	False	False	KLTRBNDRGMMHFFCBNDRGM		Kalutara	LK-13	6.577316	80.127363	Bandaragama	PS-130189	6.715179	79.987674	6.713351	79.991671	Library Path, Bandaragama, Sri Lanka	0.486104	
Kalutara	Millaniya	MOH Office - Millaniya	False	False	KLTRMLLNYMHFFCMLLNY		Kalutara	LK-13	6.577316	80.127363	Millaniya	PS-130191	6.681692	80.020847	6.724224	79.907284	A2, Panadura, Sri Lanka	13.407612	
Kalutara	Agalawatta	Pimbura Hospital	False	False	KLTRGLWTTPMBRHSPTL		Kalutara	LK-13	6.577316	80.127363	Agalawatta		6.542566	80.157178	6.575949	80.158371	H5G5+98H, කළුතර, Sri Lanka	3.715525	
Kalutara	Bulathsinhala	Pahalawelgama Viharaya	False	False	KLTRBLTHSNHLPHLWLGMVHRY		Kalutara	LK-13	6.577316	80.127363	Bulathsinhala	PS-1302104	6.650425	80.17703	6.646241	80.176475	J5WG+FHX, Bulathsinhala, Sri Lanka	0.469408	
Kurunegala	Kurunegala	Mobile Medical Team	False	False	KRNGLKRNGLMBLMDCLTM		Kurunegala	LK-61	7.66477	80.23677	Kurunegala	PS-610101	7.485852	80.364137					#CenterLocationUnknown
Kurunegala	Kurunegala	Nidahasgama Vidyalaya	False	False	KRNGLKRNGLNDHSGMVDYLY		Kurunegala	LK-61	7.66477	80.23677	Kurunegala	PS-610101	7.485852	80.364137	7.494346	80.368997	Dambulla Rd, Kurunegala, Sri Lanka	1.086222	
Kurunegala	Kurunegala	Mehiella Clinic	False	False	KRNGLKRNGLMHLLCLNC		Kurunegala	LK-61	7.66477	80.23677	Kurunegala	PS-610101	7.485852	80.364137	7.476905	80.360744	Teaching Hospital, Kurunegala, Sri Lanka	1.063197	
Kurunegala	Kurunegala	Dematagolla Vidyalaya	False	False	KRNGLKRNGLDMTGLLVDYLY		Kurunegala	LK-61	7.66477	80.23677	Kurunegala	PS-610101	7.485852	80.364137	7.55729	80.38933	dematagolla, northwestern province, Sri Lanka	8.417681	
Kurunegala	Kurunegala	Rangama Viharaya	False	False	KRNGLKRNGLRNGMVHRY		Kurunegala	LK-61	7.66477	80.23677	Kurunegala	PS-610101	7.485852	80.364137	7.528596	80.378723	G9HH+CFQ, Kurunegala, Sri Lanka	5.019128	
Kurunegala	Kurunegala	Minhettiya Vidyalaya	False	False	KRNGLKRNGLMNHTTYVDYLY		Kurunegala	LK-61	7.66477	80.23677	Kurunegala	PS-610101	7.485852	80.364137	7.582599	80.309256	northwestern province, Minhettiya, Sri Lanka	12.346073	
Kurunegala	Kurunegala	Porapola Vidyalaya	False	False	KRNGLKRNGLPRPLVDYLY		Kurunegala	LK-61	7.66477	80.23677	Kurunegala	PS-610101	7.485852	80.364137	7.590864	80.353028	Rangama-Gonagama Rd, Sri Lanka	11.744525	
Kurunegala	Alawwa	Wewala Primary School	False	False	KRNGLLWWWWLPRMRYSCHL		Kurunegala	LK-61	7.66477	80.23677	Alawwa	PS-610103	7.295909	80.24277	7.286917	80.182271	75PJ+QW6, Kurunegala, Sri Lanka	6.749287	
Kurunegala	Alawwa	Kandegedara Maha Vidyalaya	False	False	KRNGLLWWKNDGDRMHVDYLY		Kurunegala	LK-61	7.66477	80.23677	Alawwa	PS-610103	7.295909	80.24277	7.337084	80.212557	86P7+R2M, කුරුණෑගල, Sri Lanka	5.66443	
Kurunegala	Wariyapola	Karuwalagaswewa Vidyalaya	False	False	KRNGLWRYPLKRWLGSWWVDYLY		Kurunegala	LK-61	7.66477	80.23677	Wariyapola	PS-610105	7.628129	80.241019	8.118851	80.105866	Galawewa, Sri Lanka	56.577895	#CenterFarFromPolice
Kurunegala	Rideegama	Palleyaya Maha Vidyalaya	False	False	KRNGLRDGMPLLYYMHVDYLY		Kurunegala	LK-61	7.66477	80.23677	Rideegama	PS-610110	7.589247	80.61027	7.197354	80.096038	53XW+9FM, Kaleliya - Medagampitiya Rd, Pallewela 11150, Sri Lanka	71.536865	#CenterFarFromPolice
Kurunegala	Polgahawela	Al Irfan Vidyalaya	False	False	KRNGLPLGHWLLRFNVDYLY		Kurunegala	LK-61	7.66477	80.23677	Polgahawela	PS-610102	7.333281	80.300363	7.343407	80.30538	Ambepussa - Kurunegala - Trincomalee Hwy, Polgahawela, Sri Lanka	1.254854	
Kurunegala	Polgahawela	Denagamuwa Vidyalaya	False	False	KRNGLPLGHWLDNGMWVDYLY		Kurunegala	LK-61	7.66477	80.23677	Polgahawela	PS-610102	7.333281	80.300363	7.352664	80.326382	Denagamuwa Rd, Sri Lanka	3.589865	
Kurunegala	Polpithigama	Borawewa Vidyalaya	False	False	KRNGLPLPTHGMBRWWVDYLY		Kurunegala	LK-61	7.66477	80.23677	Polpithigama	PS-610326	7.835529	80.400637	7.906808	80.422529	WC4F+P2C, Kurunegala, Sri Lanka	8.287158	
Kurunegala	Polpithigama	Ambalegoda Vidyalaya	False	False	KRNGLPLPTHGMMBLGDVDYLY		Kurunegala	LK-61	7.66477	80.23677	Polpithigama	PS-610326	7.835529	80.400637	7.473028	80.390814	Katugastota - Kurunegala - Puttalam Hwy, Mallawapitiya, Sri Lanka	40.335464	#CenterFarFromPolice
Kurunegala	Polpithigama	Karambe Vidyalaya	False	False	KRNGLPLPTHGMKRMBVDYLY		Kurunegala	LK-61	7.66477	80.23677	Polpithigama	PS-610326	7.835529	80.400637	7.790692	80.343048	Migaswewa, Sri Lanka	8.071301	
Kurunegala	Polpithigama	Pahalagama Vidyalaya	False	False	KRNGLPLPTHGMPHLGMVDYLY		Kurunegala	LK-61	7.66477	80.23677	Polpithigama	PS-610326	7.835529	80.400637	7.821151	80.406222	Polpithigama, Sri Lanka	1.713591	
Kurunegala	Polpithigama	Gajaneggama Vidyalaya	False	False	KRNGLPLPTHGMGJNGGMVDYLY		Kurunegala	LK-61	7.66477	80.23677	Polpithigama	PS-610326	7.835529	80.400637	7.842122	80.39705	Polpithigama, Sri Lanka	0.833073	
Kurunegala	Polpithigama	Panwewa Hilawa Society Hall	False	False	KRNGLPLPTHGMPNWWHLWSCTYHLL		Kurunegala	LK-61	7.66477	80.23677	Polpithigama	PS-610326	7.835529	80.400637	7.814672	80.403578	Ibbagamuwa-Kumbukgete-Madagalla Rd, Sri Lanka	2.342447	
Kurunegala	Polpithigama	Balmeegahawatta Vidyalaya	False	False	KRNGLPLPTHGMBLMGHWTTVDYLY		Kurunegala	LK-61	7.66477	80.23677	Polpithigama	PS-610326	7.835529	80.400637	7.494346	80.368997	Dambulla Rd, Kurunegala, Sri Lanka	38.109671	#CenterFarFromPolice
Kurunegala	Kotawehera	Palugolla Vidyalaya	False	False	KRNGLKTWHRPLGLLVDYLY		Kurunegala	LK-61	7.66477	80.23677	Kotawehera	PS-610322	7.809001	80.077977	7.809001	80.077977	Kotawehera, Kurunegala, Sri Lanka	0.0	
Kurunegala	Kotawehera	Kelegama Vidyalaya	False	False	KRNGLKTWHRKLGMVDYLY		Kurunegala	LK-61	7.66477	80.23677	Kotawehera	PS-610322	7.809001	80.077977	7.809001	80.077977	Kotawehera, Kurunegala, Sri Lanka	0.0	
Kurunegala	Rasnayakapura	MOH Office - Rasnayakapura	False	False	KRNGLRSNYKPRMHFFCRSNYKPR		Kurunegala	LK-61	7.66477	80.23677	Rasnayakapura	PS-610323	7.776658	80.012692	7.812336	80.080579	R36J+W6P, Sri Lanka	8.468673	
Kurunegala	Pannala	Mahalowa Vidyalaya	False	False	KRNGLPNNLMHLWVDYLY		Kurunegala	LK-61	7.66477	80.23677	Pannala	PS-610214	7.327738	80.021761	7.327113	80.02619	Negombo-Kurunegala Rd, Pannala, Sri Lanka	0.49355	
Kurunegala	Pannala	Thammehera Viharaya	False	False	KRNGLPNNLTHMMHRVHRY		Kurunegala	LK-61	7.66477	80.23677	Pannala	PS-610214	7.327738	80.021761	7.360494	80.033338	926M+58W, Kurunegala, Sri Lanka	3.860801	
Kurunegala	Pannala	Pannala National College	False	False	KRNGLPNNLPNNLNTNLCLLG		Kurunegala	LK-61	7.66477	80.23677	Pannala	PS-610214	7.327738	80.021761	7.327113	80.02619	Negombo-Kurunegala Rd, Pannala, Sri Lanka	0.49355	
Kurunegala	Pannala	Al Amin Vidyalaya	False	False	KRNGLPNNLLMNVDYLY		Kurunegala	LK-61	7.66477	80.23677	Pannala	PS-610214	7.327738	80.021761	7.360185	80.034027	926M+3JC, Kurunegala, Sri Lanka	3.854405	
Kurunegala	Pannala	Al Kamar Vidyalaya	False	False	KRNGLPNNLLKMRVDYLY		Kurunegala	LK-61	7.66477	80.23677	Pannala	PS-610214	7.327738	80.021761	7.365089	80.062061	9386+2RM, Dodampoththa, Sri Lanka	6.084904	
Kurunegala	Pannala	Ingaradavula Maha Vidyalaya	False	False	KRNGLPNNLNGRDVLMHVDYLY		Kurunegala	LK-61	7.66477	80.23677	Pannala	PS-610214	7.327738	80.021761	7.329542	80.022751	Pannala, Sri Lanka	0.228457	
Kurunegala	Pannala	Hagawa Sri Sumangala Vidyalaya	False	False	KRNGLPNNLHGWSRSMNGLVDYLY		Kurunegala	LK-61	7.66477	80.23677	Pannala	PS-610214	7.327738	80.021761	7.619472	80.233697	Chilaw Road, වාරියපොල නගරය, Sri Lanka	39.991045	#CenterFarFromPolice
Kurunegala	Pannala	Werahera Primary School	False	False	KRNGLPNNLWRHRPRMRYSCHL		Kurunegala	LK-61	7.66477	80.23677	Pannala	PS-610214	7.327738	80.021761	7.327113	80.02619	Negombo-Kurunegala Rd, Pannala, Sri Lanka	0.49355	
Kurunegala	Kandanegedara	Iyangolla Maha Vidyalaya	False	False	KRNGLKNDNGDRYNGLLMHVDYLY		Kurunegala	LK-61	7.66477	80.23677									#PoliceLocationUnknown
Kurunegala	Kandanegedara	Nedalagamuwa Rahaula Vidyalaya	False	False	KRNGLKNDNGDRNDLGMWRHLVDYLY		Kurunegala	LK-61	7.66477	80.23677									#PoliceLocationUnknown
Kurunegala	Kandanegedara	Welpalla Maha Vidyalaya	False	False	KRNGLKNDNGDRWLPLLMHVDYLY		Kurunegala	LK-61	7.66477	80.23677									#PoliceLocationUnknown
Kurunegala	Kandanegedara	Gallehemulla Vidyalaya	False	False	KRNGLKNDNGDRGLLHMLLVDYLY		Kurunegala	LK-61	7.66477	80.23677									#PoliceLocationUnknown
Kurunegala	Nikaweratiya	Nikaweratiya Fair Premises	False	False	KRNGLNKWRTYNKWRTYFRPRMSS		Kurunegala	LK-61	7.66477	80.23677	Nikaweratiya	PS-610320	7.742612	80.121177	7.746386	80.131693	Nikaweratiya, Sri Lanka	1.232701	
Kurunegala	Kobaigane	Beliwewa Viharaya	False	False	KRNGLKBGNBLWWVHRY		Kurunegala	LK-61	7.66477	80.23677	Kobeigane	PS-610321	7.656934	80.126283	7.762989	80.093623	Q37V+5CX, Nikaweratiya, Sri Lanka	12.333548	
Puttalam	Arachchikattuwa	MOH Office - Arachchikattuwa	False	False	PTTLMRCHCHKTTWMHFFCRCHCHKTTW		Puttalam	LK-62	7.973531	79.913833	Arachchikattuwa	PS-620247	7.65944	79.837772	7.668084	79.835	Puttalam - Colombo Rd, Sri Lanka	1.008862	
Puttalam	Mundalama	Madurankuliya Dispensary	False	False	PTTLMMNDLMMDRNKLYDSPNSRY		Puttalam	LK-62	7.973531	79.913833	Mundal	PS-620138	7.808859	79.825729	8.229528	79.759614	Kalkuda Hospital, Kalkuda Hospital Road, Kalpiti, Kalpitiya, Sri Lanka	47.3542	#CenterFarFromPolice
Puttalam	Marawila	Walahapitiya Vidyalaya	False	False	PTTLMMRWLWLHPTYVDYLY		Puttalam	LK-62	7.973531	79.913833	Marawila	PS-620243	7.415075	79.839776	7.435877	79.845031	Walahapitiya Rd, Nattandiya 61190, Sri Lanka	2.385295	
Puttalam	Marawila	Thalvila Vidyalaya	False	False	PTTLMMRWLTHLVLVDYLY		Puttalam	LK-62	7.973531	79.913833	Marawila	PS-620243	7.415075	79.839776	7.415554	79.830995	A3, Marawila, Sri Lanka	0.970005	
Puttalam	Marawila	Koswadiya Vidyalaya	False	False	PTTLMMRWLKSWDYVDYLY		Puttalam	LK-62	7.973531	79.913833	Marawila	PS-620243	7.415075	79.839776	7.442374	79.830615	CRRJ+W4R, Puttalam, Sri Lanka	3.200132	
Puttalam	Chilaw	District Hospital  - Chilaw	False	False	PTTLMCHLWDSTRCTHSPTLCHLW		Puttalam	LK-62	7.973531	79.913833	Chilaw	PS-620241	7.576197	79.788003	7.57233	79.797306	HQCW+WWM, Chilaw, Sri Lanka	1.112275	
Kandy	Kandy	Mobile Medical Team	False	False	KNDYKNDYMBLMDCLTM		Kandy	LK-21	7.27337	80.709602	Kandy	PS-210101	7.292948	80.642368					#CenterLocationUnknown
Kandy	Kandy	Buwelikada Maternity Clinic	False	False	KNDYKNDYBWLKDMTRNTYCLNC		Kandy	LK-21	7.27337	80.709602	Kandy	PS-210101	7.292948	80.642368	7.291216	80.644776	25 Anagarika Dharmapala Mawatha, Kandy 20000, Sri Lanka	0.328173	
Kandy	Kandy	MOH Office - Thennekumbura	False	False	KNDYKNDYMHFFCTHNNKMBR		Kandy	LK-21	7.27337	80.709602	Kandy	PS-210101	7.292948	80.642368	7.27939	80.666711	7MH8+QM4, Tennekumbura, Sri Lanka	3.080222	
Kandy	Hasalaka	Ranasingha Premadasa National School	False	False	KNDYHSLKRNSNGHPRMDSNTNLSCHL		Kandy	LK-21	7.27337	80.709602	Hasalaka	PS-210362	7.353096	80.95444	7.349827	80.950564	Kandy-Mahiyangane-Padiyatalawa Hwy, Hasalaka, Sri Lanka	0.561284	
Kandy	Hasalaka	Handaganawa Maha Vidyalaya	False	False	KNDYHSLKHNDGNWMHVDYLY		Kandy	LK-21	7.27337	80.709602	Hasalaka	PS-210362	7.353096	80.95444	7.436171	80.952565	Udawela, Sri Lanka	9.242733	
Kandy	Hasalaka	Kolongoda Maha Vidyalaya	False	False	KNDYHSLKKLNGDMHVDYLY		Kandy	LK-21	7.27337	80.709602	Hasalaka	PS-210362	7.353096	80.95444	7.471406	80.949974	Kolongoda, Sri Lanka	13.168818	
Kandy	Hasalaka	Udawela Bandaranayaka Secondary College	False	False	KNDYHSLKDWLBNDRNYKSCNDRYCLLG		Kandy	LK-21	7.27337	80.709602	Hasalaka	PS-210362	7.353096	80.95444	7.349827	80.950564	Kandy-Mahiyangane-Padiyatalawa Hwy, Hasalaka, Sri Lanka	0.561284	
Kandy	Talathuoya	Vocational Training Centre - Ketawala	False	False	KNDYTLTHYVCTNLTRNNGCNTRKTWL		Kandy	LK-21	7.27337	80.709602	Thalathuoya	PS-210107	7.25166	80.689528	7.259165	80.678469	7M5H+M99, Ampitiya, Sri Lanka	1.478461	
Kandy	Talathuoya	Beraswala Vidyalaya	False	False	KNDYTLTHYBRSWLVDYLY		Kandy	LK-21	7.27337	80.709602	Thalathuoya	PS-210107	7.25166	80.689528	7.252758	80.689142	Kandy-Kirimetiya Rd, Thalathuoya, Sri Lanka	0.129344	
Kandy	Alawatugoda	Azhar Muslim College	False	False	KNDYLWTGDZHRMSLMCLLG		Kandy	LK-21	7.27337	80.709602	Alawathugoda	PS-210113	7.38828	80.618824	7.373307	80.619683	261/1 higurumuthuna road, Akurana, Sri Lanka	1.668138	
Kandy	Alawatugoda	Alawatugoda National College	False	False	KNDYLWTGDLWTGDNTNLCLLG		Kandy	LK-21	7.27337	80.709602	Alawathugoda	PS-210113	7.38828	80.618824	7.401214	80.613091	A9, Sri Lanka	1.571498	
Kandy	Kadugannawa	Menikdiwela Maha Vidyalaya	False	False	KNDYKDGNNWMNKDWLMHVDYLY		Kandy	LK-21	7.27337	80.709602	Kadugannawa	PS-210112	7.256285	80.516908	7.212484	80.531618	Kadugannawa - Gampola Rd, Paranapattiya, Sri Lanka	5.135254	
Kandy	Kadugannawa	Dodamwala Maha Vidyalaya	False	False	KNDYKDGNNWDDMWLMHVDYLY		Kandy	LK-21	7.27337	80.709602	Kadugannawa	PS-210112	7.256285	80.516908	7.28447	80.550963	Dodanwala Natha Dewale Rd, Dodamwala, Sri Lanka	4.893561	
Nuwara Eliya	Walapane	Sri Sumangala National College - Nildandahinna	False	False	NWRLYWLPNSRSMNGLNTNLCLLGNLDNDHNN		Nuwara Eliya	LK-23	6.97423	80.711222	Walapone	PS-230141	7.093348	80.862513	7.079061	80.891959	Walapane - Nildandahinna Rd, Nildandhahinna 22280, Sri Lanka	3.617847	
Nuwara Eliya	Nanu Oya	Desport Tamil College	False	False	NWRLYNNYDSPRTTMLCLLG		Nuwara Eliya	LK-23	6.97423	80.711222	Nanuoya	PS-230133	6.939692	80.744185	6.9424	80.743643	Nanuoya, Avissawella - Hatton - Nuwara Eliya Hwy, Nanuoya 22150, Sri Lanka	0.307098	
Nuwara Eliya	Nuwara Eliya	Shanthipura Vidyalaya	False	False	NWRLYNWRLYSHNTHPRVDYLY		Nuwara Eliya	LK-23	6.97423	80.711222	Nuwaraeliya	PS-230131	6.974148	80.767627	6.979101	80.747251	Nuwara Eliya, Sri Lanka	2.316114	
Nuwara Eliya	Nuwara Eliya	Municipal Health Services Office - Nuwara Eliya	False	False	NWRLYNWRLYMNCPLHLTHSRVCSFFCNWRLY		Nuwara Eliya	LK-23	6.97423	80.711222	Nuwaraeliya	PS-230131	6.974148	80.767627	6.97225	80.780644	B332, Nuwara Eliya 22200, Sri Lanka	1.452592	
Nuwara Eliya	Kandapola	Kandapola Mahinda Vidyalaya	False	False	NWRLYKNDPLKNDPLMHNDVDYLY		Nuwara Eliya	LK-23	6.97423	80.711222	Kandapola	PS-230135	6.997489	80.823635	6.993379	80.820046	B332, Kandapola, Sri Lanka	0.604971	
Nuwara Eliya	Pudaluoya	Jayahela Vidyalaya	False	False	NWRLYPDLYJYHLVDYLY		Nuwara Eliya	LK-23	6.97423	80.711222	Pudalu oya	PS-230132	6.907289	79.863819	7.01668	80.668529	2M89+MCC, Pundaluoya, Sri Lanka	89.677066	#CenterFarFromPolice
Nuwara Eliya	Kothmale	MOH Office - Kothmale	False	False	NWRLYKTHMLMHFFCKTHML		Nuwara Eliya	LK-23	6.97423	80.711222	Kotmale	PS-230134	7.063602	80.685054	7.062013	80.685533	3M6P+R63, Kothmale New Town, Sri Lanka	0.184484	
Nuwara Eliya	Ragala	Silverkandy Vidyalaya	False	False	NWRLYRGLSLVRKNDYVDYLY		Nuwara Eliya	LK-23	6.97423	80.711222	Ragala	PS-230142	7.012347	80.858498	7.020363	80.841537	2RCR+4JV, Nuwara Eliya, Sri Lanka	2.07389	
Nuwara Eliya	Ragala	Highforest No. 03 College	False	False	NWRLYRGLHGHFRSTNCLLG		Nuwara Eliya	LK-23	6.97423	80.711222	Ragala	PS-230142	7.012347	80.858498	7.066338	80.841144	High Forest, Sri Lanka	6.303569	
Nuwara Eliya	Galewela	Bimbawa Viharaya	False	False	NWRLYGLWLBMBWVHRY		Nuwara Eliya	LK-23	6.97423	80.711222	Galewela	PS-220129	7.763244	80.574149	6.799114	80.767215	QQX8+JVW, Nuwara Eliya, Sri Lanka	109.335107	#CenterFarFromPolice
Badulla	Badulla	Mobile Medical Team	False	False	BDLLBDLLMBLMDCLTM		Badulla	LK-81	7.074529	81.04486	Badulla	PS-810101	6.991337	81.055246					#CenterLocationUnknown
Badulla	Badulla	Badulla Hospital	False	False	BDLLBDLLBDLLHSPTL		Badulla	LK-81	7.074529	81.04486	Badulla	PS-810101	6.991337	81.055246	6.991808	81.05235	Daya Gunasekara Mawatha, Badulla, Sri Lanka	0.32399	
Badulla	Badulla	Sumangala Vidyalaya	False	False	BDLLBDLLSMNGLVDYLY		Badulla	LK-81	7.074529	81.04486	Badulla	PS-810101	6.991337	81.055246	6.997419	81.052951	X3W3+X58, Badulla, Sri Lanka	0.722392	
Badulla	Badulla	Sirisumana Vidyalaya	False	False	BDLLBDLLSRSMNVDYLY		Badulla	LK-81	7.074529	81.04486	Badulla	PS-810101	6.991337	81.055246	6.997419	81.052951	X3W3+X58, Badulla, Sri Lanka	0.722392	
Badulla	Badulla	Hindagoda Viharaya	False	False	BDLLBDLLHNDGDVHRY		Badulla	LK-81	7.074529	81.04486	Badulla	PS-810101	6.991337	81.055246	6.984143	81.061329	X3M6+MG4, Badulla, Sri Lanka	1.044737	
Badulla	Badulla	Lumbini Vidyalaya	False	False	BDLLBDLLLMBNVDYLY		Badulla	LK-81	7.074529	81.04486	Badulla	PS-810101	6.991337	81.055246	6.987046	81.048213	Sri Piyarathana Mawatha, Peradeniya-Badulla-Chenkaladi Hwy, Badulla, Sri Lanka	0.911429	
Badulla	Badulla	Egodawela Maha Vidyalaya	False	False	BDLLBDLLGDWLMHVDYLY		Badulla	LK-81	7.074529	81.04486	Badulla	PS-810101	6.991337	81.055246	7.069793	81.075476	339G+W59, Badulla, Sri Lanka	9.007876	
Badulla	Badulla	Pathanegedara Viharaya	False	False	BDLLBDLLPTHNGDRVHRY		Badulla	LK-81	7.074529	81.04486	Badulla	PS-810101	6.991337	81.055246	6.984143	81.061329	X3M6+MG4, Badulla, Sri Lanka	1.044737	
Badulla	Ella	Kithalella Vidyalaya	False	False	BDLLLLKTHLLLVDYLY		Badulla	LK-81	7.074529	81.04486	Ella	PS-810211	6.876609	81.048276	6.864536	81.038565	Kitalella, Sri Lanka	1.718533	
Badulla	Ella	MOH Office - Ella	False	False	BDLLLLMHFFCLL		Badulla	LK-81	7.074529	81.04486	Ella	PS-810211	6.876609	81.048276	6.988514	81.053232	Mediriya Road, Badulla, Sri Lanka	12.459198	
Badulla	Ella	Ella Vidyalaya	False	False	BDLLLLLLVDYLY		Badulla	LK-81	7.074529	81.04486	Ella	PS-810211	6.876609	81.048276	6.873531	81.052607	Passara Rd, Bandarawela, Sri Lanka	0.588183	
Badulla	Ella	Ballakotuwa Hospital	False	False	BDLLLLBLLKTWHSPTL		Badulla	LK-81	7.074529	81.04486	Ella	PS-810211	6.876609	81.048276	6.863122	81.093528	V37V+6CR, Balleketuwa, Sri Lanka	5.21755	
Badulla	Ella	Demodara Hospital	False	False	BDLLLLDMDRHSPTL		Badulla	LK-81	7.074529	81.04486	Ella	PS-810211	6.876609	81.048276	6.900561	81.057232	W324+6VH, Demodara, Sri Lanka	2.841818	
Badulla	Hale Ela	Moretota Maha Vidyalaya	False	False	BDLLHLLMRTTMHVDYLY		Badulla	LK-81	7.074529	81.04486	Haliela	PS-810108	6.958216	81.034447	6.951162	81.03182	Bandarawela - Badulla Rd, Hali-ela, Sri Lanka	0.836511	
Badulla	Hale Ela	Denzil Kobbekaduwa Maha Vidyalaya	False	False	BDLLHLLDNZLKBBKDWMHVDYLY		Badulla	LK-81	7.074529	81.04486	Haliela	PS-810108	6.958216	81.034447	6.963435	81.037403	Peradeniya-Badulla-Chenkaladi Hwy, Hali-ela, Sri Lanka	0.666019	
Badulla	Hale Ela	Uduwara Maha Vidyalaya	False	False	BDLLHLLDWRMHVDYLY		Badulla	LK-81	7.074529	81.04486	Haliela	PS-810108	6.958216	81.034447	6.927199	81.04095	Beragala-Hali Ela Highway, Sri Lanka	3.523942	
Badulla	Hale Ela	Etampitiya Hospital	False	False	BDLLHLLTMPTYHSPTL		Badulla	LK-81	7.074529	81.04486	Haliela	PS-810108	6.958216	81.034447	6.934746	80.989784	Etampitiya Rd, Sri Lanka	5.579755	
Badulla	Hale Ela	Unagolla Hospital	False	False	BDLLHLLNGLLHSPTL		Badulla	LK-81	7.074529	81.04486	Haliela	PS-810108	6.958216	81.034447	7.694486	80.016255	M2V8+QGR, Welpothuwewa, Sri Lanka	139.012138	#CenterFarFromPolice
Badulla	Hale Ela	Wepassawela Maha Vidyalaya	False	False	BDLLHLLWPSSWLMHVDYLY		Badulla	LK-81	7.074529	81.04486	Haliela	PS-810108	6.958216	81.034447	6.947643	81.027144	Sri Lanka, Hali-ela, Sri Lanka	1.425915	
Badulla	Hale Ela	Rilpola Care Unit	False	False	BDLLHLLRLPLCRNT		Badulla	LK-81	7.074529	81.04486	Haliela	PS-810108	6.958216	81.034447	6.954619	81.064568	Ela Daluwa Road, Sri Lanka	3.34967	
Badulla	Hale Ela	Uduwara Pirivena	False	False	BDLLHLLDWRPRVN		Badulla	LK-81	7.074529	81.04486	Haliela	PS-810108	6.958216	81.034447	6.93533	81.038115	Sri Lanka	2.577621	
Badulla	Hale Ela	Sprinvelly Hospital	False	False	BDLLHLLSPRNVLLYHSPTL		Badulla	LK-81	7.074529	81.04486	Haliela	PS-810108	6.958216	81.034447	6.950066	81.037391	X22P+2XC, Hali-ela, Sri Lanka	0.963001	
Badulla	Passara	Bibilegama Hospital	False	False	BDLLPSSRBBLGMHSPTL		Badulla	LK-81	7.074529	81.04486	Passara	PS-810102	6.934481	81.154796	6.895098	81.14174	Bibilegama Rd, Passara, Sri Lanka	4.611693	
Badulla	Passara	Passara Central College	False	False	BDLLPSSRPSSRCNTRLCLLG		Badulla	LK-81	7.074529	81.04486	Passara	PS-810102	6.934481	81.154796	6.937341	81.157452	Peradeniya-Badulla-Chenkaladi Hwy, Passara 90500, Sri Lanka	0.432669	
Badulla	Passara	Passara Hospital	False	False	BDLLPSSRPSSRHSPTL		Badulla	LK-81	7.074529	81.04486	Passara	PS-810102	6.934481	81.154796	6.933517	81.152592	Demodera - Spring Valley - Badulla Road, Passara, Sri Lanka	0.265888	
Badulla	Passara	Meedumpitiya Hospital	False	False	BDLLPSSRMDMPTYHSPTL		Badulla	LK-81	7.074529	81.04486	Passara	PS-810102	6.934481	81.154796	6.945576	81.190338	Peradeniya-Badulla-Chenkaladi Hwy, Sri Lanka	4.113834	
Badulla	Passara	Kanawerella Hospital	False	False	BDLLPSSRKNWRLLHSPTL		Badulla	LK-81	7.074529	81.04486	Passara	PS-810102	6.934481	81.154796	6.933517	81.152592	Demodera - Spring Valley - Badulla Road, Passara, Sri Lanka	0.265888	
Badulla	Passara	Yuri Watta Hospital	False	False	BDLLPSSRYRWTTHSPTL		Badulla	LK-81	7.074529	81.04486	Passara	PS-810102	6.934481	81.154796	6.933517	81.152592	Demodera - Spring Valley - Badulla Road, Passara, Sri Lanka	0.265888	
Badulla	Passara	Mahadowa Vidyalaya	False	False	BDLLPSSRMHDWVDYLY		Badulla	LK-81	7.074529	81.04486	Passara	PS-810102	6.934481	81.154796	7.029004	81.172745	Passara - Madulsima - Metigahatenna Rd, Madulsima, Sri Lanka	10.698902	
Badulla	Kandaketiya	Kandaketiya Hospital	False	False	BDLLKNDKTYKNDKTYHSPTL		Badulla	LK-81	7.074529	81.04486	Kandaketiya	PS-810107	7.195551	81.01958	7.171564	81.005534	Karamettiya Kandakettiya Road, Kandakettiya Town, Sri Lanka	3.085663	
Badulla	Kandaketiya	Galauda Hospital	False	False	BDLLKNDKTYGLDHSPTL		Badulla	LK-81	7.074529	81.04486	Kandaketiya	PS-810107	7.195551	81.01958	7.04502	80.982575	Galauda-kandaketiya Rd, Sri Lanka	17.234492	
Badulla	Kahataruppa	Kuttiyagolla Vidyalaya	False	False	BDLLKHTRPPKTTYGLLVDYLY		Badulla	LK-81	7.074529	81.04486									#PoliceLocationUnknown
Badulla	Haldummulla	MOH Office - Haldummulla	False	False	BDLLHLDMMLLMHFFCHLDMMLL		Badulla	LK-81	7.074529	81.04486	Haldummulla		6.762216	80.885856	6.761089	80.876292	QV6G+CGM, Badulla, Sri Lanka	1.063814	
Badulla	Haldummulla	Haldummulla Hospital	False	False	BDLLHLDMMLLHLDMMLLHSPTL		Badulla	LK-81	7.074529	81.04486	Haldummulla		6.762216	80.885856	6.758168	80.879938	Colombo - Ratnapura - Wellawaya - Batticaloa Rd, Sri Lanka	0.793746	
Badulla	Haldummulla	Harankahawa Vidyalaya	False	False	BDLLHLDMMLLHRNKHWVDYLY		Badulla	LK-81	7.074529	81.04486	Haldummulla		6.762216	80.885856	6.749286	80.877045	PVXG+PR7, Badulla, Sri Lanka	1.736555	
Badulla	Haldummulla	Koslanda Hospital	False	False	BDLLHLDMMLLKSLNDHSPTL		Badulla	LK-81	7.074529	81.04486	Haldummulla		6.762216	80.885856	6.737944	81.016177	Colombo - Batticaloa Hwy, Sri Lanka	14.646084	
Badulla	Haldummulla	Punagala Tamil College	False	False	BDLLHLDMMLLPNGLTMLCLLG		Badulla	LK-81	7.074529	81.04486	Haldummulla		6.762216	80.885856	6.96353	81.0838	Balagala division, glen alpin road, Badulla, Sri Lanka	31.292897	#CenterFarFromPolice
Badulla	Bandarawela	MOH Office - Bandarawela	False	False	BDLLBNDRWLMHFFCBNDRWL		Badulla	LK-81	7.074529	81.04486	Bandarawela	PS-810210	6.831526	80.986784	6.841272	80.98482	Hospital Junction Helamuduna Bus Stop, Etampitiya Rd, Bandarawela, Sri Lanka	1.105533	
Badulla	Bandarawela	Icelebi Tamil College	False	False	BDLLBNDRWLCLBTMLCLLG		Badulla	LK-81	7.074529	81.04486	Bandarawela	PS-810210	6.831526	80.986784	6.832841	80.992797	Senanayake mawatha, Bandarawela, Senanyake Mw, Bandarawela 19100, Sri Lanka	0.680101	
Badulla	Bandarawela	Konthahela Vidyalaya	False	False	BDLLBNDRWLKNTHHLVDYLY		Badulla	LK-81	7.074529	81.04486	Bandarawela	PS-810210	6.831526	80.986784	6.867848	80.974161	VX9F+4MM, Badulla, Sri Lanka	4.273834	
Badulla	Bandarawela	Town Hall - Bandarawela	False	False	BDLLBNDRWLTWNHLLBNDRWL		Badulla	LK-81	7.074529	81.04486	Bandarawela	PS-810210	6.831526	80.986784	6.83182	80.987414	32/9 Esplanade Rd, Bandarawela, Sri Lanka	0.076879	
Badulla	Welimada	MOH Office - Welimada	False	False	BDLLWLMDMHFFCWLMD		Badulla	LK-81	7.074529	81.04486	Welimada	PS-810212	6.900481	80.905809	6.927934	80.896475	Udapussellawa-Welimada Road, Ambagasdowa, Sri Lanka	3.222841	
Badulla	Uva Paranagama	District Hospital - Uva Paranagama	False	False	BDLLVPRNGMDSTRCTHSPTLVPRNGM		Badulla	LK-81	7.074529	81.04486	Uvaparanagama	PS-810213	6.958341	80.930364	6.938076	80.890525	Rendapola-Galahagama-Ambagasdowa Rd, Himbiliyagahamadiththa, Sri Lanka	4.942648	
Badulla	Uva Paranagama	Amvagasduwa President College	False	False	BDLLVPRNGMMVGSDWPRSDNTCLLG		Badulla	LK-81	7.074529	81.04486	Uvaparanagama	PS-810213	6.958341	80.930364					#CenterLocationUnknown
Badulla	Uva Paranagama	Rathamba Vidyalaya	False	False	BDLLVPRNGMRTHMBVDYLY		Badulla	LK-81	7.074529	81.04486	Uvaparanagama	PS-810213	6.958341	80.930364	6.938908	80.880113	WVQJ+H29, Badulla, Sri Lanka	5.954533	
Badulla	Uva Paranagama	Dangamuwa Sumanajothi Vidyalaya	False	False	BDLLVPRNGMDNGMWSMNJTHVDYLY		Badulla	LK-81	7.074529	81.04486	Uvaparanagama	PS-810213	6.958341	80.930364	6.918586	80.880299	Ihala Dangamuwa, Uva Paranagama,, Ambagasdowa, Sri Lanka	7.07896	
Badulla	Uva Paranagama	Oldimar  Vidyalaya	False	False	BDLLVPRNGMLDMRVDYLY		Badulla	LK-81	7.074529	81.04486	Uvaparanagama	PS-810213	6.958341	80.930364	6.938908	80.880113	WVQJ+H29, Badulla, Sri Lanka	5.954533	
Badulla	Uva Paranagama	Unapana Vidyalaya	False	False	BDLLVPRNGMNPNVDYLY		Badulla	LK-81	7.074529	81.04486	Uvaparanagama	PS-810213	6.958341	80.930364	6.957637	80.928993	Lunuwatte, Uva Paranagama Divisional Secretariat, Udapussellawa-Welimada Road, Sri Lanka	0.170428	
Badulla	Uva Paranagama	Karagahaulpotha Vidyalaya	False	False	BDLLVPRNGMKRGHLPTHVDYLY		Badulla	LK-81	7.074529	81.04486	Uvaparanagama	PS-810213	6.958341	80.930364	6.938908	80.880113	WVQJ+H29, Badulla, Sri Lanka	5.954533	
Badulla	Haputale	Dodamgolla Vidyalaya	False	False	BDLLHPTLDDMGLLVDYLY		Badulla	LK-81	7.074529	81.04486	Haputale	PS-810215	6.767653	80.957218	7.131231	81.23558	46JP+F6W, Kanulwela, Sri Lanka	50.794386	#CenterFarFromPolice
Badulla	Haputale	Viharakele Vidyalaya	False	False	BDLLHPTLVHRKLVDYLY		Badulla	LK-81	7.074529	81.04486	Haputale	PS-810215	6.767653	80.957218					#CenterLocationUnknown
Badulla	Haputale	MOH Office - Haputale	False	False	BDLLHPTLMHFFCHPTL		Badulla	LK-81	7.074529	81.04486	Haputale	PS-810215	6.767653	80.957218	6.779645	80.964114	QXH7+WC4, Badulla, Sri Lanka	1.536024	
Moneragala	Monaragala	Mobile Medical Team	False	False	MNRGLMNRGLMBLMDCLTM		Moneragala	LK-82	6.787517	81.303744	Monaragala	PS-820121	6.869866	81.348106					#CenterLocationUnknown
Moneragala	Monaragala	Mahanama Vidyalaya	False	False	MNRGLMNRGLMHNMVDYLY		Moneragala	LK-82	6.787517	81.303744	Monaragala	PS-820121	6.869866	81.348106	6.876259	81.348364	Potuvile Road Colombo - Batticaloa Hwy, Monaragala, Sri Lanka	0.711663	
Moneragala	Monaragala	Royal College	False	False	MNRGLMNRGLRYLCLLG		Moneragala	LK-82	6.787517	81.303744	Monaragala	PS-820121	6.869866	81.348106	6.86108	81.33918	V86Q+CMM, Monaragala, Sri Lanka	1.388052	
Moneragala	Monaragala	Monaragala Community Hall	False	False	MNRGLMNRGLMNRGLCMMNTYHLL		Moneragala	LK-82	6.787517	81.303744	Monaragala	PS-820121	6.869866	81.348106	6.872778	81.350683	Moneragala, Sri Lanka	0.431159	
Moneragala	Badalkumbura	Karawila Pemananda Maha Vidyalaya	False	False	MNRGLBDLKMBRKRWLPMNNDMHVDYLY		Moneragala	LK-82	6.787517	81.303744	Badalkumbura	PS-820128	6.889017	81.235441	6.916809	81.243655	karawila, badalkumbura, Sri Lanka	3.221617	
Moneragala	Badalkumbura	Miyanakandura Vidyalaya	False	False	MNRGLBDLKMBRMYNKNDRVDYLY		Moneragala	LK-82	6.787517	81.303744	Badalkumbura	PS-820128	6.889017	81.235441	6.916809	81.243655	karawila, badalkumbura, Sri Lanka	3.221617	
Moneragala	Medagama	Medagama National College	False	False	MNRGLMDGMMDGMNTNLCLLG		Moneragala	LK-82	6.787517	81.303744	Medagama	PS-820126	7.033608	81.276708	7.031205	81.276445	Moneragala Road,Medagama, B56, Monaragala 91550, Sri Lanka	0.268858	
Moneragala	Gonaganara	Demodara Dole Lanka	False	False	MNRGLGNGNRDMDRDLLNK		Moneragala	LK-82	6.787517	81.303744	Gonaganara	PS-820129	6.625562	81.269176	6.90239	81.062501	Badulla Rd, Demodara, Sri Lanka	38.330852	#CenterFarFromPolice
Moneragala	Thanamalwila	Balaharuwa Primary School	False	False	MNRGLTHNMLWLBLHRWPRMRYSCHL		Moneragala	LK-82	6.787517	81.303744	Thanamalwila	PS-820131	6.437696	81.131051	6.566306	81.046303	Balaharuwa, Uva-kudaoya, Sri Lanka, 91200, Sri Lanka	17.098485	
Moneragala	Thanamalwila	Samagipura Viharaya	False	False	MNRGLTHNMLWLSMGPRVHRY		Moneragala	LK-82	6.787517	81.303744	Thanamalwila	PS-820131	6.437696	81.131051	6.398685	80.969147	Samagipura, RAGALA HALGRANOYA, Sri Lanka	18.414236	
Moneragala	Thanamalwila	Kithulkote Maha Vidyalaya	False	False	MNRGLTHNMLWLKTHLKTMHVDYLY		Moneragala	LK-82	6.787517	81.303744	Thanamalwila	PS-820131	6.437696	81.131051	6.482603	81.13089	Kithulkote, Thanamalwila, A2, Sri Lanka	4.99503	
Moneragala	Thanamalwila	Randeniya Primary School	False	False	MNRGLTHNMLWLRNDNYPRMRYSCHL		Moneragala	LK-82	6.787517	81.303744	Thanamalwila	PS-820131	6.437696	81.131051	6.431306	81.122683	Udawalawa Rd, Thanamalwila, Sri Lanka	1.166462	
Moneragala	Thanamalwila	Kurugama Primary School	False	False	MNRGLTHNMLWLKRGMPRMRYSCHL		Moneragala	LK-82	6.787517	81.303744	Thanamalwila	PS-820131	6.437696	81.131051	6.440337	81.130949	A2, Thanamalwila, Sri Lanka	0.293974	
Moneragala	Kudaoya	Kudaoya Maha Vidyalaya	False	False	MNRGLKDYKDYMHVDYLY		Moneragala	LK-82	6.787517	81.303744	Kudaoya	PS-820134	6.523777	81.123696	6.528089	81.125799	Wellawaya Road, A2, Kuda Oya, Sri Lanka	0.532962	
Galle	Galle	Mobile Medical Team	False	False	GLLGLLMBLMDCLTM		Galle	LK-31	6.222805	80.251977	Galle	PS-310120	6.032983	80.21714					#CenterLocationUnknown
Galle	Neluwa	Dellawa Maha Vidyalaya	False	False	GLLNLWDLLWMHVDYLY		Galle	LK-31	6.222805	80.251977	Neluwa	PS-310132	6.379651	80.358956	6.32396	80.43865	Sri Lanka	10.769716	
Galle	Neluwa	Batuwangala Maha Vidyalaya	False	False	GLLNLWBTWNGLMHVDYLY		Galle	LK-31	6.222805	80.251977	Neluwa	PS-310132	6.379651	80.358956	6.384895	80.377609	Dhellawa Rd, Neluwa, Sri Lanka	2.142826	
Galle	Nagoda	Sunandarama Viharaya	False	False	GLLNGDSNNDRMVHRY		Galle	LK-31	6.222805	80.251977	Nagoda	PS-310130	6.197616	80.274707	6.23388	80.057072	Sunandarama Maha Viharaya, Ambalangoda, Sri Lanka	24.400898	#CenterFarFromPolice
Galle	Nagoda	Udawelivitiya Vidyalaya	False	False	GLLNGDDWLVTYVDYLY		Galle	LK-31	6.222805	80.251977	Nagoda	PS-310130	6.197616	80.274707	6.196203	80.253215	57W3+F7P, Waduwelivitiya North, Sri Lanka	2.381774	
Galle	Yakkalamulla	Thellambura Dutugemunu Maha Vidyalaya	False	False	GLLYKKLMLLTHLLMBRDTGMNMHVDYLY		Galle	LK-31	6.222805	80.251977	Yakkalamulla	PS-310125	6.106186	80.348152	6.120151	80.339944	48CQ+3X8, Galle, Sri Lanka	1.799135	
Galle	Ambalangoda	Sri Mahindarama Pinnaduwa	False	False	GLLMBLNGDSRMHNDRMPNNDW		Galle	LK-31	6.222805	80.251977	Ambalangoda	PS-310243	6.244958	80.047598	6.251809	80.063408	Polwattha, Ambalangoda, Sri Lanka	1.906972	
Galle	Ambalangoda	Balapitiya Siddhartha Vidyalaya	False	False	GLLMBLNGDBLPTYSDDHRTHVDYLY		Galle	LK-31	6.222805	80.251977	Ambalangoda	PS-310243	6.244958	80.047598	6.270872	80.039343	A2, Balapitiya, Sri Lanka	3.023469	
Galle	Hiniduma	Vidyaraja National College	False	False	GLLHNDMVDYRJNTNLCLLG		Galle	LK-31	6.222805	80.251977	Hiniduma	PS-310131	6.329517	80.322442	6.340158	80.334192	Udugama - Hiniduma Rd, Thawalama, Sri Lanka	1.757335	
Galle	Ahungalla	Ahungalla Rajapaksha Maha Vidyalaya	False	False	GLLHNGLLHNGLLRJPKSHMHVDYLY		Galle	LK-31	6.222805	80.251977	Ahungalla	PS-310244	6.299873	80.03856	6.313591	80.034554	Rajapaksha Maha Vidyalaya, රාජපය මාවත, Ahungalla, Sri Lanka	1.588827	
Galle	Wanduramba	Indurupathwila Pirivena	False	False	GLLWNDRMBNDRPTHWLPRVN		Galle	LK-31	6.222805	80.251977	Wanduramba	PS-310124	6.1257	80.252985	6.135221	80.254835	B454, Wanduramba, Sri Lanka	1.078602	
Galle	Wanduramba	Wanduramba Maha Vidyalaya	False	False	GLLWNDRMBWNDRMBMHVDYLY		Galle	LK-31	6.222805	80.251977	Wanduramba	PS-310124	6.1257	80.252985	6.133267	80.252075	Wanduramba - Mapalagama Rd, Wanduramba, Sri Lanka	0.847672	
Galle	Karandeniya	Borakanda Samarawickrama Ground	False	False	GLLKRNDNYBRKNDSMRWCKRMGRND		Galle	LK-31	6.222805	80.251977	Karandeniya	PS-310238	6.271732	80.08479	6.273882	80.106565	Borakanda, Sri Lanka	2.419377	
Galle	Elpitiya	Rupakarunathilaka Hall	False	False	GLLLPTYRPKRNTHLKHLL		Galle	LK-31	6.222805	80.251977	Elpitiya	PS-310235	6.279163	80.142917	6.290082	80.162727	75R7+23Q, Elpitiya 80400, Sri Lanka	2.504421	
Galle	Elpitiya	Rantotavila Primary School	False	False	GLLLPTYRNTTVLPRMRYSCHL		Galle	LK-31	6.222805	80.251977	Elpitiya	PS-310235	6.279163	80.142917	6.292529	80.164927	75V7+2X7, Elpitiya, Sri Lanka	2.851658	
Galle	Pitigala	Haththaka Maligathenna Purana Viharaya	False	False	GLLPTGLHTHTHKMLGTHNNPRNVHRY		Galle	LK-31	6.222805	80.251977	Pitigala	PS-310237	6.335202	80.221149	6.360052	80.240225	B158, Hattaka, Sri Lanka	3.476654	
Galle	Baddegama	Polgahawela Viharaya	False	False	GLLBDDGMPLGHWLVHRY		Galle	LK-31	6.222805	80.251977	Baddegama	PS-310239	6.172566	80.174966	6.175427	80.17408	Hikkaduwa - Baddegama Rd, Sri Lanka	0.333076	
Galle	Baddegama	Nabaraththa Primary School	False	False	GLLBDDGMNBRTHTHPRMRYSCHL		Galle	LK-31	6.222805	80.251977	Baddegama	PS-310239	6.172566	80.174966	6.179982	80.191346	Kotagoda, Baddegama, Sri Lanka	1.990348	
Galle	Ahangama	Ahangama Shariputhra Vidyalaya	False	False	GLLHNGMHNGMSHRPTHRVDYLY		Galle	LK-31	6.222805	80.251977	Ahangama	PS-310128	5.972267	80.365256	5.97385	80.360747	A2, Ahangama, Sri Lanka	0.528977	
Galle	Akmeemana	Pilana Vidyartha Vidyalaya	False	False	GLLKMMNPLNVDYRTHVDYLY		Galle	LK-31	6.222805	80.251977	Akmeemana	PS-310123	6.073453	80.276627	6.037713	80.286486	Pilana, Sri Lanka	4.122211	
Galle	Akmeemana	Hinidumgoda Maha Vidyalaya	False	False	GLLKMMNHNDMGDMHVDYLY		Galle	LK-31	6.222805	80.251977	Akmeemana	PS-310123	6.073453	80.276627	6.08641	80.242064	Ganegoda,Akmeemana., Wanduramba - Mapalagama Rd, 80090, Sri Lanka	4.085458	
Matara	Matara	Mobile Medical Team	False	False	MTRMTRMBLMDCLTM		Matara	LK-32	6.142734	80.539994	Matara	PS-320101	5.94904	80.533659					#CenterLocationUnknown
Matara	Matara	Rathwatta Panatharamaya	False	False	MTRMTRRTHWTTPNTHRMY		Matara	LK-32	6.142734	80.539994	Matara	PS-320101	5.94904	80.533659	5.95492	80.554956	Matara, Sri Lanka	2.445184	
Matara	Matara	Madiha Uswatta Viharaya	False	False	MTRMTRMDHSWTTVHRY		Matara	LK-32	6.142734	80.539994	Matara	PS-320101	5.94904	80.533659	5.936134	80.51587	Madiha Beach, Beach Road, Madiha, Matara, Sri Lanka., Matara 81000, Sri Lanka	2.435962	
Matara	Matara	Polhena Maha Viharaya	False	False	MTRMTRPLHNMHVHRY		Matara	LK-32	6.142734	80.539994	Matara	PS-320101	5.94904	80.533659	5.954249	80.551527	Matara, Sri Lanka	2.059905	
Matara	Kamburupitiya	Vitiyala Gunarathana Primary School	False	False	MTRKMBRPTYVTYLGNRTHNPRMRYSCHL		Matara	LK-32	6.142734	80.539994	Kamburupitiya	PS-320105	6.073875	80.564579	6.015646	80.568614	2H89+7C5, Thihagoda, Sri Lanka	6.492162	
Matara	Kamburupitiya	Karagoda Uyangoda Maha Vidyalaya	False	False	MTRKMBRPTYKRGDYNGDMHVDYLY		Matara	LK-32	6.142734	80.539994	Kamburupitiya	PS-320105	6.073875	80.564579	6.054271	80.5321	3G3J+PR5, Matara, Sri Lanka	4.202412	
Matara	Rotumba	Pasgoda Central College	False	False	MTRRTMBPSGDCNTRLCLLG		Matara	LK-32	6.142734	80.539994	Rotumba	PS-320118	6.229548	80.559097	5.953769	80.544354	Rahula Road,, Matara, 81000, Sri Lanka	30.718161	#CenterFarFromPolice
Matara	Deiyandara	Sinipella Central College	False	False	MTRDYNDRSNPLLCNTRLCLLG		Matara	LK-32	6.142734	80.539994	Deyyandara	PS-320119	6.198061	80.587045	6.141498	80.55999	Mulatiyana Kamburupitiya Rd, Makandura, Sri Lanka	6.966657	
Matara	Hakmana	Vepathaira Gunasekara Central College	False	False	MTRHKMNVPTHRGNSKRCNTRLCLLG		Matara	LK-32	6.142734	80.539994	Hakmana	PS-320106	6.084824	80.643227	6.081853	80.651909	Hakmana, Sri Lanka	1.015532	
Matara	Hakmana	Kembiliyapola Viharaya	False	False	MTRHKMNKMBLYPLVHRY		Matara	LK-32	6.142734	80.539994	Hakmana	PS-320106	6.084824	80.643227	6.079047	80.659785	Hakmana - Beliatte - Tangalle Rd, Hakmana, Sri Lanka	1.940836	
Matara	Thihagoda	Karalkanaththa Viharaya	False	False	MTRTHHGDKRLKNTHTHVHRY		Matara	LK-32	6.142734	80.539994	Thihagoda	PS-320104	6.01331	80.567932	6.013226	80.564285	Mahindagiri Vihara Mawatha, Thihagoda 81280, Sri Lanka	0.403531	
Matara	Thihagoda	Karathota Central College	False	False	MTRTHHGDKRTHTCNTRLCLLG		Matara	LK-32	6.142734	80.539994	Thihagoda	PS-320104	6.01331	80.567932	5.953769	80.544354	Rahula Road,, Matara, 81000, Sri Lanka	7.117851	
Matara	Kirinda	Muslim Maha Vidyalaya	False	False	MTRKRNDMSLMMHVDYLY		Matara	LK-32	6.142734	80.539994	Kirinda	PS-330162	6.220796	81.336877	6.120843	80.679288	Miella, Matara, Sri Lanka	73.564656	#CenterFarFromPolice
Matara	Morawaka	Alapaladeniya National College	False	False	MTRMRWKLPLDNYNTNLCLLG		Matara	LK-32	6.142734	80.539994	Morawaka	PS-320107	6.256777	80.493654	6.088827	80.479639	Sri Vardhanaramaya Paraduwa, Matara-Akuressa Highway, Akuressa, Sri Lanka	18.745231	
Matara	Kosmodara	AD Yapa Vidyalaya	False	False	MTRKSMDRDYPVDYLY		Matara	LK-32	6.142734	80.539994	Kosmodara	PS-320116	6.290019	80.560337	6.272469	80.52761	7GCH+X2Q, Kotapola, Sri Lanka	4.11135	
Matara	Akuressa	Puwakwatta Viharaya	False	False	MTRKRSSPWKWTTVHRY		Matara	LK-32	6.142734	80.539994	Akuressa	PS-320112	6.099044	80.4776	6.100139	80.475957	Akuressa, Sri Lanka	0.218758	
Hambantota	Hambantota	Mobile Medical Team	False	False	HMBNTTHMBNTTMBLMDCLTM		Hambantota	LK-33	6.259779	81.098619	Hambantota	PS-330156	6.125872	81.12521					#CenterLocationUnknown
Hambantota	Hambantota	Galewela Vidyalaya	False	False	HMBNTTHMBNTTGLWLVDYLY		Hambantota	LK-33	6.259779	81.098619	Hambantota	PS-330156	6.125872	81.12521	6.07308	80.704144	Hakmana - Beliatte - Tangalle Rd, Sri Lanka	46.938706	#CenterFarFromPolice
Hambantota	Hambantota	Suchi Vidyalaya	False	False	HMBNTTHMBNTTSCHVDYLY		Hambantota	LK-33	6.259779	81.098619	Hambantota	PS-330156	6.125872	81.12521	6.116489	81.082615	Mirijjawila, Hambantota, Sri Lanka	4.825049	
Hambantota	Hambantota	Nimbarama Viharaya	False	False	HMBNTTHMBNTTNMBRMVHRY		Hambantota	LK-33	6.259779	81.098619	Hambantota	PS-330156	6.125872	81.12521	6.125071	81.120965	Main St, Hambantota, Sri Lanka	0.477745	
Hambantota	Walasmulla	Julampitiya Maha Vidyalaya	False	False	HMBNTTWLSMLLJLMPTYMHVDYLY		Hambantota	LK-33	6.259779	81.098619	Walasmulla	PS-330151	6.154102	80.698256	6.22776	80.740843	Julampitiya, Sri Lanka	9.449994	
Hambantota	Walasmulla	Oluara Primary School	False	False	HMBNTTWLSMLLLRPRMRYSCHL		Hambantota	LK-33	6.259779	81.098619	Walasmulla	PS-330151	6.154102	80.698256	6.148552	80.697555	4MXX+C2F, Walasmulla, Sri Lanka	0.622174	
Hambantota	Walasmulla	Rajapurgoda Primary Vidyalaya	False	False	HMBNTTWLSMLLRJPRGDPRMRYVDYLY		Hambantota	LK-33	6.259779	81.098619	Walasmulla	PS-330151	6.154102	80.698256	6.148552	80.697555	4MXX+C2F, Walasmulla, Sri Lanka	0.622174	
Hambantota	Tangalle	Godalwela Viharaya	False	False	HMBNTTTNGLLGDLWLVHRY		Hambantota	LK-33	6.259779	81.098619	Tangalle	PS-330147	6.023954	80.797255	6.122468	80.738218	4PCQ+X7P, Mulgirigala, Sri Lanka	12.755769	
Hambantota	Tangalle	Polommaruwa Primary School	False	False	HMBNTTTNGLLPLMMRWPRMRYSCHL		Hambantota	LK-33	6.259779	81.098619	Tangalle	PS-330147	6.023954	80.797255	6.032122	80.783474	2QJM+R9X, Tangalle, Sri Lanka	1.774587	
Hambantota	Tangalle	Rekawa Maha Vidyalaya	False	False	HMBNTTTNGLLRKWMHVDYLY		Hambantota	LK-33	6.259779	81.098619	Tangalle	PS-330147	6.023954	80.797255	6.022935	80.794892	2QFV+5XC, Tangalle, Sri Lanka	0.284901	
Hambantota	Beliatta	MOH Office - Beliatta	False	False	HMBNTTBLTTMHFFCBLTT		Hambantota	LK-33	6.259779	81.098619	Beliatta	PS-330152	6.046936	80.735408	6.051828	80.741735	3P2R+PMQ, Hambantota, Sri Lanka	0.886482	
Hambantota	Beliatta	Kahawatta Maha Vidyalaya	False	False	HMBNTTBLTTKHWTTMHVDYLY		Hambantota	LK-33	6.259779	81.098619	Beliatta	PS-330152	6.046936	80.735408	6.061014	80.730277	3P6J+C42, Beliatta, Sri Lanka	1.665569	
Hambantota	Katuwana	Ambagasara Community Hall	False	False	HMBNTTKTWNMBGSRCMMNTYHLL		Hambantota	LK-33	6.259779	81.098619	Katuwana	PS-330153	6.269722	80.690963	6.265224	80.734208	Walasmulla - Katuwana - Middeniya Road, Sri Lanka	4.807489	
Hambantota	Angunakolapelessa	Guruwala Maha Vidyalaya	False	False	HMBNTTNGNKLPLSSGRWLMHVDYLY		Hambantota	LK-33	6.259779	81.098619	Angunakolapelessa	PS-330150	6.321993	80.844883	6.07308	80.704144	Hakmana - Beliatte - Tangalle Rd, Sri Lanka	31.760796	#CenterFarFromPolice
Hambantota	Middeniya	Labuhengoda Maha Vidyalaya	False	False	HMBNTTMDDNYLBHNGDMHVDYLY		Hambantota	LK-33	6.259779	81.098619	Middeniya	PS-330154	6.248275	80.765018	6.262264	80.761986	B286, Sri Lanka	1.591699	
Hambantota	Middeniya	Welipitiya Primary School	False	False	HMBNTTMDDNYWLPTYPRMRYSCHL		Hambantota	LK-33	6.259779	81.098619	Middeniya	PS-330154	6.248275	80.765018	6.264926	80.74478	Walasmulla - Katuwana - Middeniya Road, Sri Lanka	2.904713	
Hambantota	Lunugamvehera	Lunugamvehera  Hospital	False	False	HMBNTTLNGMVHRLNGMVHRHSPTL		Hambantota	LK-33	6.259779	81.098619	Lunugamwehera	PS-330160	6.341544	81.202699	6.34652	81.196527	85WW+JJ2, Hambantota, Sri Lanka	0.878568	
Hambantota	Lunugamvehera	Abhayapura Primary School	False	False	HMBNTTLNGMVHRBHYPRPRMRYSCHL		Hambantota	LK-33	6.259779	81.098619	Lunugamwehera	PS-330160	6.341544	81.202699	6.34061	81.203129	86R3+67R, Hambantota, Sri Lanka	0.114248	
Hambantota	Suriyawewa	Andarawewa Dharmadutha Viharaya	False	False	HMBNTTSRYWWNDRWWDHRMDTHVHRY		Hambantota	LK-33	6.259779	81.098619	Sooriyawewa	PS-330155	6.306022	81.003873	6.28187	81.042357	72JR+PWX, Andarawewa, Sri Lanka	5.03189	
Hambantota	Suriyawewa	Thelavilla Isipathanaramaya	False	False	HMBNTTSRYWWTHLVLLSPTHNRMY		Hambantota	LK-33	6.259779	81.098619	Sooriyawewa	PS-330155	6.306022	81.003873	6.246844	80.982465	Ridiyagama Safari Park, Ridiyagama, Sri Lanka	6.994986	
Hambantota	Ambalanthota	Bolana Vidyalaya	False	False	HMBNTTMBLNTHTBLNVDYLY		Hambantota	LK-33	6.259779	81.098619	Ambalantota	PS-330157	6.12516	81.023981	6.1226	81.023759	42FF+2GJ, Ambalantota, Sri Lanka	0.285805	
Hambantota	Weerawila	Samanpura Maha Vidyalaya	False	False	HMBNTTWRWLSMNPRMHVDYLY		Hambantota	LK-33	6.259779	81.098619	Weeravila	PS-330161	6.26109	81.236724	6.256229	81.21863	7649+FFR, Weligatta, Sri Lanka	2.072374	
Rathnapura	Opanayaka	Polhenwatta Viaharaya	False	False	RTHNPRPNYKPLHNWTTVHRY		Ratnapura	LK-91	6.586826	80.566158	Opanayaka	PS-910104	6.608519	80.619285	6.690487	80.379893	Panadura-Nambapana-Ratnapura Hwy, Ratnapura, Sri Lanka	27.975762	#CenterFarFromPolice
Rathnapura	Opanayaka	Metihakka Vidyalaya	False	False	RTHNPRPNYKMTHKKVDYLY		Ratnapura	LK-91	6.586826	80.566158	Opanayaka	PS-910104	6.608519	80.619285	6.618238	80.62379	Galhira Rd, Opanayake,, Sri Lanka	1.190132	
Rathnapura	Pinnawala	Thorawela Kanda Vidyalaya	False	False	RTHNPRPNNWLTHRWLKNDVDYLY		Ratnapura	LK-91	6.586826	80.566158	Pinnawala	PS-910115	7.299943	80.386604	6.773169	80.317655	Kuruwita, Sri Lanka	59.085287	#CenterFarFromPolice
Rathnapura	Pinnawala	Health Centre Sisiltan Estate	False	False	RTHNPRPNNWLHLTHCNTRSSLTNSTT		Ratnapura	LK-91	6.586826	80.566158	Pinnawala	PS-910115	7.299943	80.386604	6.686824	80.393088	Colombo Rd, Ratnapura 70000, Sri Lanka	68.200881	#CenterFarFromPolice
Rathnapura	Pinnawala	Welebada Vidyalaya	False	False	RTHNPRPNNWLWLBDVDYLY		Ratnapura	LK-91	6.586826	80.566158	Pinnawala	PS-910115	7.299943	80.386604	6.773169	80.317655	Kuruwita, Sri Lanka	59.085287	#CenterFarFromPolice
Rathnapura	Godakawela	Paragahamadiththa Vidyalaya	False	False	RTHNPRGDKWLPRGHMDTHTHVDYLY		Ratnapura	LK-91	6.586826	80.566158	Godakawela	PS-910233	6.50224	80.655642	6.602628	80.734181	JP3M+3M3, Ratnapura, Sri Lanka	14.142295	
Rathnapura	Godakawela	Weligepola Vidyalaya	False	False	RTHNPRGDKWLWLGPLVDYLY		Ratnapura	LK-91	6.586826	80.566158	Godakawela	PS-910233	6.50224	80.655642	6.574518	80.706607	HPF4+RJ5, Weligepola, Sri Lanka	9.815906	
Rathnapura	Godakawela	Demuwawatha Vidyalaya	False	False	RTHNPRGDKWLDMWWTHVDYLY		Ratnapura	LK-91	6.586826	80.566158	Godakawela	PS-910233	6.50224	80.655642	6.505873	80.640843	GJ4R+88W, Ratnapura, Sri Lanka	1.684679	
Rathnapura	Godakawela	Ilukkumbura Vidyalaya	False	False	RTHNPRGDKWLLKKMBRVDYLY		Ratnapura	LK-91	6.586826	80.566158	Godakawela	PS-910233	6.50224	80.655642	6.504312	80.645764	Godakawela, Sri Lanka	1.115721	
Rathnapura	Balangoda	Vijayantha Kumbura Vidyalaya	False	False	RTHNPRBLNGDVJYNTHKMBRVDYLY		Ratnapura	LK-91	6.586826	80.566158	Balangoda	PS-910103	6.649474	80.700276	6.641498	80.714138	JPR7+HMR, Balangoda, Sri Lanka	1.769912	
Rathnapura	Balangoda	Welekumbura Community Hall	False	False	RTHNPRBLNGDWLKMBRCMMNTYHLL		Ratnapura	LK-91	6.586826	80.566158	Balangoda	PS-910103	6.649474	80.700276	6.631371	80.724065	Kirimatithanna, Balangoda, Sri Lanka	3.310966	
Rathnapura	Balangoda	Primary Health Medical Office - Meddekanda	False	False	RTHNPRBLNGDPRMRYHLTHMDCLFFCMDDKND		Ratnapura	LK-91	6.586826	80.566158	Balangoda	PS-910103	6.649474	80.700276	6.649195	80.698245	26 Siri Weerasundararama Mawatha, Balangoda, Sri Lanka	0.226524	
Rathnapura	Kiriella	Namumuthenna Viharaya	False	False	RTHNPRKRLLNMMTHNNVHRY		Ratnapura	LK-91	6.586826	80.566158	Kiriella	PS-910114	6.735338	80.276481	6.829252	80.270824	R7HC+P84, Ratnapura, Sri Lanka	10.464709	
Rathnapura	Kiriella	Kiriella Community Hall	False	False	RTHNPRKRLLKRLLCMMNTYHLL		Ratnapura	LK-91	6.586826	80.566158	Kiriella	PS-910114	6.735338	80.276481	6.74486	80.248221	Kiriella, Hadunkanda Rd, Sri Lanka	3.296412	
Rathnapura	Kiriella	Ghanarama Viharaya	False	False	RTHNPRKRLLGHNRMVHRY		Ratnapura	LK-91	6.586826	80.566158	Kiriella	PS-910114	6.735338	80.276481	6.735464	80.221828	Ratnapura - Horana - Panadura Hwy, Sri Lanka	6.037105	
Rathnapura	Kalawana	Gagalagamuwa Vidyalaya	False	False	RTHNPRKLWNGGLGMWVDYLY		Ratnapura	LK-91	6.586826	80.566158	Kalawana	PS-910110	6.530738	80.390719	6.535423	80.401004	GCP2+5C6, Kalawana, Sri Lanka	1.25034	
Rathnapura	Kalawana	Wewalkandura Vidyalaya	False	False	RTHNPRKLWNWWLKNDRVDYLY		Ratnapura	LK-91	6.586826	80.566158	Kalawana	PS-910110	6.530738	80.390719	6.517913	80.423724	GC9F+5F9, රත්නපුර, Sri Lanka	3.916407	
Rathnapura	Kalawana	Hagarangala Vidyalaya	False	False	RTHNPRKLWNHGRNGLVDYLY		Ratnapura	LK-91	6.586826	80.566158	Kalawana	PS-910110	6.530738	80.390719	6.535423	80.401004	GCP2+5C6, Kalawana, Sri Lanka	1.25034	
Rathnapura	Panamura	Jandura Vidyalaya	False	False	RTHNPRPNMRJNDRVDYLY		Ratnapura	LK-91	6.586826	80.566158	Panamure	PS-910236	6.40194	80.687615	6.344554	80.750166	Embilipitiya-Panamure-Bulutota Road, Sri Lanka	9.410312	
Rathnapura	Panamura	Diyapota Vidyalaya	False	False	RTHNPRPNMRDYPTVDYLY		Ratnapura	LK-91	6.586826	80.566158	Panamure	PS-910236	6.40194	80.687615	6.705517	80.384839	Ratnapura, Sri Lanka	47.535351	#CenterFarFromPolice
Rathnapura	Samanalawewa	Pambahinna Hospital	False	False	RTHNPRSMNLWWPMBHNNHSPTL		Ratnapura	LK-91	6.586826	80.566158									#PoliceLocationUnknown
Rathnapura	Ayagama	Udugala Primary School	False	False	RTHNPRYGMDGLPRMRYSCHL		Ratnapura	LK-91	6.586826	80.566158	Ayagama	PS-910109	6.637727	80.312554	6.594632	80.401586	Ratnapura-Palawela-Karawita Rd, Gangulwitiya, Sri Lanka	10.942804	
Rathnapura	Ayagama	Colony Vidyalaya	False	False	RTHNPRYGMCLNYVDYLY		Ratnapura	LK-91	6.586826	80.566158	Ayagama	PS-910109	6.637727	80.312554	6.63323	80.312619	Ayagama, Sri Lanka	0.500252	
Rathnapura	Embilipitiya	Modarawana Vidyalaya	False	False	RTHNPRMBLPTYMDRWNVDYLY		Ratnapura	LK-91	6.586826	80.566158	Embilipitiya	PS-910237	6.321993	80.844883	6.319833	80.832255	8R9J+WWJ, Embilipitiya, Sri Lanka	1.416594	
Rathnapura	Udawalawa	Koswetiya Vidyalaya	False	False	RTHNPRDWLWKSWTYVDYLY		Ratnapura	LK-91	6.586826	80.566158	Udawalawa	PS-910234	6.422661	80.814293	6.470564	80.732783	FPCM+64F, Ratnapura, Sri Lanka	10.466735	
Rathnapura	Udawalawa	Thimbolketiya Vidyalaya	False	False	RTHNPRDWLWTHMBLKTYVDYLY		Ratnapura	LK-91	6.586826	80.566158	Udawalawa	PS-910234	6.422661	80.814293	6.412639	80.799783	Saw Mill Rd, Udawalawa, Sri Lanka	1.953185	
Rathnapura	Udawalawa	Kolombage Ara Maha Vidyalaya	False	False	RTHNPRDWLWKLMBGRMHVDYLY		Ratnapura	LK-91	6.586826	80.566158	Udawalawa	PS-910234	6.422661	80.814293	6.418356	80.780324	maha vidyalaya, Sri Lanka	3.785079	
Rathnapura	Kolonna	Talagahawatta Vidyalaya	False	False	RTHNPRKLNNTLGHWTTVDYLY		Ratnapura	LK-91	6.586826	80.566158	Kolonna	PS-910235	6.40194	80.687615	6.584495	80.417004	Tiruwanaketiya-Agalawatte Rd, Karawita, Sri Lanka	36.148854	#CenterFarFromPolice
Rathnapura	Rakwana	Rajawatta Vidyalaya	False	False	RTHNPRRKWNRJWTTVDYLY		Ratnapura	LK-91	6.586826	80.566158	Rakwana	PS-910108	6.470133	80.613684	6.464724	80.61604	Rakwana, Sri Lanka	0.655573	
Rathnapura	Rakwana	Kathlana Viharaya	False	False	RTHNPRRKWNKTHLNVHRY		Ratnapura	LK-91	6.586826	80.566158	Rakwana	PS-910108	6.470133	80.613684	6.453429	80.610455	Galle-Deniyaya-Madampe Hwy, Rakwana, Sri Lanka	1.891947	
Rathnapura	Rakwana	Thanabela Vidyalaya	False	False	RTHNPRRKWNTHNBLVDYLY		Ratnapura	LK-91	6.586826	80.566158	Rakwana	PS-910108	6.470133	80.613684	6.464724	80.61604	Rakwana, Sri Lanka	0.655573	
Rathnapura	Wewelwatta	Amunuthenna Vidyalaya	False	False	RTHNPRWWLWTTMNTHNNVDYLY		Ratnapura	LK-91	6.586826	80.566158	Wewalwatta	PS-910102	6.707202	80.555569	6.682615	80.39899	Vinisuru Mw, රත්නපුර 70000, Sri Lanka	17.512353	
Rathnapura	Wewelwatta	Batewela Vidyalaya	False	False	RTHNPRWWLWTTBTWLVDYLY		Ratnapura	LK-91	6.586826	80.566158	Wewalwatta	PS-910102	6.707202	80.555569	6.692702	80.546062	Batewela road, Batewela, Wewelwaththa, Sri Lanka	1.924639	
Rathnapura	Wewelwatta	Kompanawatta Vidyalaya	False	False	RTHNPRWWLWTTKMPNWTTVDYLY		Ratnapura	LK-91	6.586826	80.566158	Wewalwatta	PS-910102	6.707202	80.555569	6.683533	80.399526	A4, Ratnapura, Sri Lanka	17.438145	
Rathnapura	Kuruwita	Eraththa Maha Vidyalaya	False	False	RTHNPRKRWTRTHTHMHVDYLY		Ratnapura	LK-91	6.586826	80.566158	Kuruwita	PS-910112	6.778839	80.364712	6.746161	80.336177	Gonapitiya Road, Ratnapura, Sri Lanka	4.811005	
Rathnapura	Kuruwita	St. Joachim Vidyalaya	False	False	RTHNPRKRWTSTJCHMVDYLY		Ratnapura	LK-91	6.586826	80.566158	Kuruwita	PS-910112	6.778839	80.364712	6.731482	80.359159	Hidellana-Karapincha Rd, Ratnapura, Sri Lanka	5.303103	
Rathnapura	Kuruwita	Wathuyaya Sri Sumana Vidyalaya	False	False	RTHNPRKRWTWTHYYSRSMNVDYLY		Ratnapura	LK-91	6.586826	80.566158	Kuruwita	PS-910112	6.778839	80.364712	6.788113	80.35953	HiggasHena - Devipahala Road, Kuruwita, Sri Lanka	1.179598	
Rathnapura	Kuruwita	Pohorabawa Vidyalaya	False	False	RTHNPRKRWTPHRBWVDYLY		Ratnapura	LK-91	6.586826	80.566158	Kuruwita	PS-910112	6.778839	80.364712	6.799357	80.312954	Pohorabawa, Sri Lanka	6.155385	
Rathnapura	Kuruwita	Kuruwita Central College	False	False	RTHNPRKRWTKRWTCNTRLCLLG		Ratnapura	LK-91	6.586826	80.566158	Kuruwita	PS-910112	6.778839	80.364712	6.781492	80.362037	A4, Ratnapura 70500, Sri Lanka	0.417583	
Rathnapura	Rathnapura	Sumana Balika Vidyalaya	False	False	RTHNPRRTHNPRSMNBLKVDYLY		Ratnapura	LK-91	6.586826	80.566158	Ratnapura	PS-910101	6.679456	80.40223	6.679009	80.391964	212 Pothgul Vihara Mawatha, Ratnapura, Sri Lanka	1.135225	
Rathnapura	Rathnapura	Malwala Community Hall	False	False	RTHNPRRTHNPRMLWLCMMNTYHLL		Ratnapura	LK-91	6.586826	80.566158	Ratnapura	PS-910101	6.679456	80.40223	6.705517	80.384839	Ratnapura, Sri Lanka	3.477627	
Rathnapura	Rathnapura	Ethoya Viharaya	False	False	RTHNPRRTHNPRTHYVHRY		Ratnapura	LK-91	6.586826	80.566158	Ratnapura	PS-910101	6.679456	80.40223	6.690487	80.379893	Panadura-Nambapana-Ratnapura Hwy, Ratnapura, Sri Lanka	2.75586	
Rathnapura	Rathnapura	Niralgama Vidyalaya	False	False	RTHNPRRTHNPRNRLGMVDYLY		Ratnapura	LK-91	6.586826	80.566158	Ratnapura	PS-910101	6.679456	80.40223	6.622366	80.412508	Niralgama Vidyalaya, Niralgama, Ratnapura, Sri Lanka	6.45084	
Rathnapura	Rathnapura	Talangama Community Hall	False	False	RTHNPRRTHNPRTLNGMCMMNTYHLL		Ratnapura	LK-91	6.586826	80.566158	Ratnapura	PS-910101	6.679456	80.40223	6.701381	80.367479	PNR Hwy, Ratnapura, Sri Lanka	4.548125	
Rathnapura	Rathnapura	Welimaluwa Vidyalaya	False	False	RTHNPRRTHNPRWLMLWVDYLY		Ratnapura	LK-91	6.586826	80.566158	Ratnapura	PS-910101	6.679456	80.40223	6.663177	80.459422	MF75+7QF, Ratnapura, Sri Lanka	6.572719	
Anuradhapura	Anuradhapura	Army Hospital Anuradhapura	False	False	NRDHPRNRDHPRRMYHSPTLNRDHPR		Anuradhapura	LK-71	8.39199	80.512958	Anuradapura	PS-710101	8.329752	80.407265	8.338302	80.407646	AB02, Anuradhapura, Sri Lanka	0.951939	
Anuradhapura	Anuradhapura	62 DIV	False	False	NRDHPRNRDHPRDV		Anuradhapura	LK-71	8.39199	80.512958	Anuradapura	PS-710101	8.329752	80.407265	8.311352	80.403651	Anuradhapura, Sri Lanka	2.084922	
Anuradhapura	Anuradhapura	Pradeshiya Shabha - Wijayapura	False	False	NRDHPRNRDHPRPRDSHYSHBHWJYPR		Anuradhapura	LK-71	8.39199	80.512958	Anuradapura	PS-710101	8.329752	80.407265	8.304729	80.417186	Nagasena Mawatha, Anuradhapura, Sri Lanka	2.989822	
Anuradhapura	Galenbindunuwewa	Yakalla Hospital	False	False	NRDHPRGLNBNDNWWYKLLHSPTL		Anuradhapura	LK-71	8.39199	80.512958	Galenbidunuwewa	PS-710121	8.29037	80.71501	8.2193	80.70284	6P93+P4G, Yakalla, Sri Lanka	8.017812	
Anuradhapura	Galenbindunuwewa	MOH Office - Galenbindunuwewa	False	False	NRDHPRGLNBNDNWWMHFFCGLNBNDNWW		Anuradhapura	LK-71	8.39199	80.512958	Galenbidunuwewa	PS-710121	8.29037	80.71501	8.292134	80.717284	7PR8+VW3, Galenbindunuwewa, Sri Lanka	0.318033	
Anuradhapura	Mihintale	Mihintale Hospital	False	False	NRDHPRMHNTLMHNTLHSPTL		Anuradhapura	LK-71	8.39199	80.512958	Mihintale	PS-710104	8.360062	80.511889	8.35505	80.509287	Kandy Rd, Mihintale, Sri Lanka	0.626724	
Anuradhapura	Thirappane	Thirappane Maha Vidyalaya	False	False	NRDHPRTHRPPNTHRPPNMHVDYLY		Anuradhapura	LK-71	8.39199	80.512958	Thirappone	PS-710106	6.907289	79.863819	8.222006	80.522612	Thirappane, Sri Lanka	163.282505	#CenterFarFromPolice
Polonnaruwa	Polonnaruwa	Mobile Medical Team	False	False	PLNNRWPLNNRWMBLMDCLTM		Polonnaruwa	LK-72	7.993659	81.026061	Polonnaruwa	PS-720125	7.924307	81.036895					#CenterLocationUnknown
Polonnaruwa	Polonnaruwa	Kadawalawewa Maha Vidyalaya	False	False	PLNNRWPLNNRWKDWLWWMHVDYLY		Polonnaruwa	LK-72	7.993659	81.026061	Polonnaruwa	PS-720125	7.924307	81.036895	7.939557	81.00034	Polonnaruwa, Sri Lanka	4.369767	
Polonnaruwa	Polonnaruwa	Parakrama Samudraya Maha Vidyalaya	False	False	PLNNRWPLNNRWPRKRMSMDRYMHVDYLY		Polonnaruwa	LK-72	7.993659	81.026061	Polonnaruwa	PS-720125	7.924307	81.036895	7.888895	80.978645	VXQH+HF2, Polonnaruwa, Sri Lanka	7.529912	
Polonnaruwa	Polonnaruwa	Kalahagala Viharaya	False	False	PLNNRWPLNNRWKLHGLVHRY		Polonnaruwa	LK-72	7.993659	81.026061	Polonnaruwa	PS-720125	7.924307	81.036895	7.966052	81.004948	X283+CXG, Nissankamallapura, Sri Lanka	5.826316	
Polonnaruwa	Polonnaruwa	Gallella Al Asgar Vidyalaya	False	False	PLNNRWPLNNRWGLLLLLSGRVDYLY		Polonnaruwa	LK-72	7.993659	81.026061	Polonnaruwa	PS-720125	7.924307	81.036895	7.905154	81.065653	W348+376, Polonnaruwa, Sri Lanka	3.81792	
Polonnaruwa	Polonnaruwa	Al Ameena Primary School	False	False	PLNNRWPLNNRWLMNPRMRYSCHL		Polonnaruwa	LK-72	7.993659	81.026061	Polonnaruwa	PS-720125	7.924307	81.036895	7.933826	81.042611	W2MV+G2Q, Polonnaruwa, Sri Lanka	1.231904	
Polonnaruwa	Meegaswewa	Sri Rahula Vidyalaya	False	False	PLNNRWMGSWWSRRHLVDYLY		Polonnaruwa	LK-72	7.993659	81.026061	Meegalewa	PS-610328	8.056704	80.356163	8.222722	81.053491	Unnamed Road, Medirigiriya, Sri Lanka	78.971589	#CenterFarFromPolice
Polonnaruwa	Meegaswewa	Ambagaswewa Maha Vidyalaya	False	False	PLNNRWMGSWWMBGSWWMHVDYLY		Polonnaruwa	LK-72	7.993659	81.026061	Meegalewa	PS-610328	8.056704	80.356163	8.196693	81.03156	52WJ+MJF, Medirigiriya, Sri Lanka	75.982438	#CenterFarFromPolice
Polonnaruwa	Habarana	Moragaswewa Vidyalaya	False	False	PLNNRWHBRNMRGSWWVDYLY		Polonnaruwa	LK-72	7.993659	81.026061	Habarana	PS-720131	8.039452	80.756682	8.02642	80.79528	A11, Moragaswewa, Sri Lanka	4.491463	
Polonnaruwa	Habarana	Sooriyagama Vidyalaya	False	False	PLNNRWHBRNSRYGMVDYLY		Polonnaruwa	LK-72	7.993659	81.026061	Habarana	PS-720131	8.039452	80.756682	8.03657	80.749964	Habarana, Sri Lanka	0.806359	
Polonnaruwa	Habarana	Mahasengama Vidyalaya	False	False	PLNNRWHBRNMHSNGMVDYLY		Polonnaruwa	LK-72	7.993659	81.026061	Habarana	PS-720131	8.039452	80.756682	7.957253	80.760037	Sigiriya, 8 Ela pahalawewa, Dambulla 21100, Sri Lanka	9.150446	
Polonnaruwa	Medirigiriya	Mahinda Maha Vidyalaya	False	False	PLNNRWMDRGRYMHNDMHVDYLY		Polonnaruwa	LK-72	7.993659	81.026061	Medirigiriya	PS-720130	8.150847	80.984493	8.185339	80.992752	5XPV+44J, Polonnaruwa, Sri Lanka	3.94283	
Polonnaruwa	Medirigiriya	Kohombadamana Sri Piyadarshanaramaya	False	False	PLNNRWMDRGRYKHMBDMNSRPYDRSHNRMY		Polonnaruwa	LK-72	7.993659	81.026061	Medirigiriya	PS-720130	8.150847	80.984493	8.150533	80.978982	Medirigiriya, Sri Lanka	0.6078	
Polonnaruwa	Hingurakgoda	Kumaragama Vidyalaya	False	False	PLNNRWHNGRKGDKMRGMVDYLY		Polonnaruwa	LK-72	7.993659	81.026061	Hingurakgoda	PS-720129	8.048819	80.965751	8.064498	80.98987	Kumaragama, Sri Lanka	3.177614	
Polonnaruwa	Hingurakgoda	Ulpathwewa Primary School	False	False	PLNNRWHNGRKGDLPTHWWPRMRYSCHL		Polonnaruwa	LK-72	7.993659	81.026061	Hingurakgoda	PS-720129	8.048819	80.965751	8.044152	80.932785	PO/MINNERIYA N.C Primary School,Hingurakgoda, Sri Lanka	3.667625	
Polonnaruwa	Hingurakgoda	Yodhaela Vidyalaya	False	False	PLNNRWHNGRKGDYDHLVDYLY		Polonnaruwa	LK-72	7.993659	81.026061	Hingurakgoda	PS-720129	8.048819	80.965751	8.081108	80.962584	3XJ7+C2W, Yatiyalpathana, Sri Lanka	3.608396	
Polonnaruwa	Hingurakgoda	Hingurakgoda Maha Vidyalaya	False	False	PLNNRWHNGRKGDHNGRKGDMHVDYLY		Polonnaruwa	LK-72	7.993659	81.026061	Hingurakgoda	PS-720129	8.048819	80.965751	8.044334	80.966734	Polonaruva, Hospital Junction, Hingurakgoda, Sri Lanka	0.510478	
Polonnaruwa	Hingurakgoda	Yatiyalpathana Vidyalaya	False	False	PLNNRWHNGRKGDYTYLPTHNVDYLY		Polonnaruwa	LK-72	7.993659	81.026061	Hingurakgoda	PS-720129	8.048819	80.965751	8.044334	80.966734	Polonaruva, Hospital Junction, Hingurakgoda, Sri Lanka	0.510478	
Polonnaruwa	Bakamuna	Bakamuna Mahasen Primary School	False	False	PLNNRWBKMNBKMNMHSNPRMRYSCHL		Polonnaruwa	LK-72	7.993659	81.026061	Bakamuna	PS-720132	7.778789	80.816102	7.775622	80.819812	Dambulla - Bakamuna - Kalugahawela Road, Bakamuna, Sri Lanka	0.539688	
Polonnaruwa	Bakamuna	Jayasiripura Vidyalaya	False	False	PLNNRWBKMNJYSRPRVDYLY		Polonnaruwa	LK-72	7.993659	81.026061	Bakamuna	PS-720132	7.778789	80.816102	7.733695	80.794413	jayasiripura praimary school, Elahara, Sri Lanka	5.556276	
Polonnaruwa	Bakamuna	Radavigeoya Maha Vidyalaya	False	False	PLNNRWBKMNRDVGYMHVDYLY		Polonnaruwa	LK-72	7.993659	81.026061	Bakamuna	PS-720132	7.778789	80.816102	7.780602	80.818401	Bakamuna, Sri Lanka	0.323821	
Polonnaruwa	Bakamuna	Konduruwawa Vidyalaya	False	False	PLNNRWBKMNKNDRWWVDYLY		Polonnaruwa	LK-72	7.993659	81.026061	Bakamuna	PS-720132	7.778789	80.816102	7.957253	80.760037	Sigiriya, 8 Ela pahalawewa, Dambulla 21100, Sri Lanka	20.789501	#CenterFarFromPolice
Jaffna	Jaffna	Mobile Medical Team	False	False	JFFNJFFNMBLMDCLTM		Jaffna	LK-41	9.691792	80.098594	Jaffna	PS-410209	9.659919	80.010965					#CenterLocationUnknown
Jaffna	Jaffna	Mobile Medical Team	False	False	JFFNJFFNMBLMDCLTM		Jaffna	LK-41	9.691792	80.098594	Jaffna	PS-410209	9.659919	80.010965					#CenterLocationUnknown
Jaffna	Jaffna	Manjamanappathi Kovil	False	False	JFFNJFFNMNJMNPPTHKVL		Jaffna	LK-41	9.691792	80.098594	Jaffna	PS-410209	9.659919	80.010965	9.674532	80.029444	M2FH+RQ8, Jaffna, Sri Lanka	2.597601	
Jaffna	Jaffna	St. John's College	False	False	JFFNJFFNSTJHNSCLLG		Jaffna	LK-41	9.691792	80.098594	Jaffna	PS-410209	9.659919	80.010965	9.657495	80.026568	Main Street, Chundikuli-Columbuthurai Rd, section, Sri Lanka	1.732049	
Jaffna	Jaffna	Vaithiswara Vidyalaya	False	False	JFFNJFFNVTHSWRVDYLY		Jaffna	LK-41	9.691792	80.098594	Jaffna	PS-410209	9.659919	80.010965	9.672726	80.009234	M2F5+3MX, Jaffna, Sri Lanka	1.43711	
Jaffna	Jaffna	Nallur Durgamani Hall	False	False	JFFNJFFNNLLRDRGMNHLL		Jaffna	LK-41	9.691792	80.098594	Jaffna	PS-410209	9.659919	80.010965	9.674532	80.029444	M2FH+RQ8, Jaffna, Sri Lanka	2.597601	
Jaffna	Kopay	MOH Office- Nallur	False	False	JFFNKPYMHFFCNLLR		Jaffna	LK-41	9.691792	80.098594	Kopai	PS-410216	9.686887	80.03856	9.673947	80.027736	M2FH+H3H, Jaffna, Sri Lanka	1.865513	
Jaffna	Kopay	MOH Office - Kopay	False	False	JFFNKPYMHFFCKPY		Jaffna	LK-41	9.691792	80.098594	Kopai	PS-410216	9.686887	80.03856	9.706729	80.065433	B268, Jaffna, Sri Lanka	3.681313	
Jaffna	Kopay	Urumpirai Hindu College	False	False	JFFNKPYRMPRHNDCLLG		Jaffna	LK-41	9.691792	80.098594	Kopai	PS-410216	9.686887	80.03856	9.72601	80.047054	P2GW+CR3, Jaffna, Sri Lanka	4.450175	
Jaffna	Kopay	Muthuthambi Maha Vidyalaya	False	False	JFFNKPYMTHTHMBMHVDYLY		Jaffna	LK-41	9.691792	80.098594	Kopai	PS-410216	9.686887	80.03856	9.69139	80.033453	Kalasalai Road,, Jaffna, Sri Lanka	0.751272	
Jaffna	Chunnagam	Uduvil Girls College	False	False	JFFNCHNNGMDVLGRLSCLLG		Jaffna	LK-41	9.691792	80.098594	Chunnakam	PS-410211	9.745309	80.029151	9.734484	80.015916	Uduvil Road, Uduvil, Sri Lanka	1.885444	
Jaffna	Chunnagam	Thavadi HTM Hall	False	False	JFFNCHNNGMTHVDHTMHLL		Jaffna	LK-41	9.691792	80.098594	Chunnakam	PS-410211	9.745309	80.029151	9.664467	80.010483	AB16, Jaffna, Sri Lanka	9.222033	
Jaffna	Chunnagam	MOH Office - Uduvil	False	False	JFFNCHNNGMMHFFCDVL		Jaffna	LK-41	9.691792	80.098594	Chunnakam	PS-410211	9.745309	80.029151	9.742938	80.035132	P2VP+53C, Chunnakam, Sri Lanka	0.706719	
Jaffna	Chunnagam	Erlalai Muththumil Hall	False	False	JFFNCHNNGMRLLMTHTHMLHLL		Jaffna	LK-41	9.691792	80.098594	Chunnakam	PS-410211	9.745309	80.029151	9.750062	80.029209	Jaffna-Kankesanturai Rd, Chunnakam, Sri Lanka	0.528714	
Jaffna	Chunnagam	Inuvil Ariwalyam Hall	False	False	JFFNCHNNGMNVLRWLYMHLL		Jaffna	LK-41	9.691792	80.098594	Chunnakam	PS-410211	9.745309	80.029151	9.734523	80.023895	Jaffna-Kankesanturai Rd, Chunnakam, Sri Lanka	1.330918	
Jaffna	Chunnagam	Sitti Vinayagar Hall	False	False	JFFNCHNNGMSTTVNYGRHLL		Jaffna	LK-41	9.691792	80.098594	Chunnakam	PS-410211	9.745309	80.029151	9.736919	80.041761	Urelu, Jaffna, Sri Lanka	1.667899	
Jaffna	Point Pedro	Wada Hindu Girls' College	False	False	JFFNPNTPDRWDHNDGRLSCLLG		Jaffna	LK-41	9.691792	80.098594	Point Pedro	PS-410106	9.827018	80.233187	9.817623	80.23136	Vinayaga Muthaliyaar Veethy, Point Pedro, Sri Lanka	1.064016	
Jaffna	Nelliyady	MOH Office - Karaveddy	False	False	JFFNNLLYDYMHFFCKRVDDY		Jaffna	LK-41	9.691792	80.098594	Nelliadi	PS-410108	9.778397	80.113303	9.792126	80.201799	Q6R2+VP3, Point Pedro, Sri Lanka	9.819656	
Jaffna	Kodikaman	DH - Varani	False	False	JFFNKDKMNDHVRN		Jaffna	LK-41	9.691792	80.098594	Kodikamam	PS-410217	9.666459	80.132384	9.681381	80.219829	Kodikamam, Kandy - Jaffna Hwy, Sri Lanka	9.73078	
Jaffna	Kodikaman	Kodikaman Hospital	False	False	JFFNKDKMNKDKMNHSPTL		Jaffna	LK-41	9.691792	80.098594	Kodikamam	PS-410217	9.666459	80.132384	9.677952	80.236663	M6HP+5MM, Jaffna, Sri Lanka	11.505299	
Jaffna	Ilavalai	Union College - Tellippalai	False	False	JFFNLVLNNCLLGTLLPPL		Jaffna	LK-41	9.691792	80.098594	Ilavalai	PS-410102	9.775967	79.983146	9.785988	80.033678	AB16, Tellippalai, Sri Lanka	5.650005	
Jaffna	Manippai	Manippai Hospital	False	False	JFFNMNPPMNPPHSPTL		Jaffna	LK-41	9.691792	80.098594	Manippai	PS-410210	9.727151	79.996905	9.725939	79.998028	Manipay, Sri Lanka	0.182569	
Jaffna	Kayts	MOH Office - Karainagar	False	False	JFFNKYTSMHFFCKRNGR		Jaffna	LK-41	9.691792	80.098594	Kayts	PS-410212	9.728654	79.94775	9.725097	79.99772	Sri Lanka, Manipay, Sri Lanka	5.492521	
Jaffna	Kayts	MOH Office - Kayts	False	False	JFFNKYTSMHFFCKYTS		Jaffna	LK-41	9.691792	80.098594	Kayts	PS-410212	9.728654	79.94775	9.697759	79.866366	Sri Lanka, Kayts, Sri Lanka	9.561445	
Jaffna	Chavakachcheri	Town Hall - Chavakachcheri	False	False	JFFNCHVKCHCHRTWNHLLCHVKCHCHR		Jaffna	LK-41	9.691792	80.098594	Chawakachcheri	PS-410215	9.666459	80.132384	9.659136	80.160946	M556+M94, Chavakachcheri, Sri Lanka	3.236063	
Kilinochchi	Kilinochchi	MOH Office - Karachchi	False	False	KLNCHCHKLNCHCHMHFFCKRCHCH		Kilinochchi	LK-45	9.415742	80.30358	Kilinochchi	PS-450131	9.392265	80.407846	9.396965	80.407782	Kandy - Jaffna Hwy, Kilinochchi, Sri Lanka	0.522827	
Kilinochchi	Pooneryn	MOH Office - Pooneryn	False	False	KLNCHCHPNRYNMHFFCPNRYN		Kilinochchi	LK-45	9.415742	80.30358	Pooneryn		9.505717	80.21101	9.507968	80.208317	G655+58P, Pooneryn, Sri Lanka	0.387256	
Mullaitivu	Oddusuddan	MOH Office - Oddusuddan	False	False	MLLTVDDSDDNMHFFCDDSDDN		Mullaitivu	LK-44	9.167643	80.549091	Oddusudan	PS-440151	9.160983	80.652821	9.162816	80.661584	5M76+4JG, Oddusuddan, Sri Lanka	0.983634	
Mullaitivu	Pudukudiruppu	MOH Office - Pudukudiruppu	False	False	MLLTVPDKDRPPMHFFCPDKDRPP		Mullaitivu	LK-44	9.167643	80.549091	Pudukuduiruppu	PS-440149	7.00152	79.95003	9.320965	80.683013	Parantan-Mullaitivu Hwy, Velikkandal, Sri Lanka	270.317914	#CenterFarFromPolice
Vavuniya	Vavuniya	Mobile Medical Team	False	False	VVNYVVNYMBLMDCLTM		Vavuniya	LK-43	8.852071	80.467404	Vavuniya	PS-430119	8.754431	80.498604					#CenterLocationUnknown
Trincomalee	Muttur	MOH Office – Muttur	False	False	TRNCMLMTTRMHFFCMTTR		Trincomalee	LK-53	8.551241	81.092014	Mutur	PS-530138	8.461133	81.259371	8.453916	81.264494	1 Old Batticaloa Rd, Mutur, Sri Lanka	0.980859	
Trincomalee	Muttur	Muttur Base Hospital	False	False	TRNCMLMTTRMTTRBSHSPTL		Trincomalee	LK-53	8.551241	81.092014	Mutur	PS-530138	8.461133	81.259371	8.454534	81.263018	Old Batticaloa Rd, Mutur, Sri Lanka	0.836517	
Trincomalee	Muttur	Muttur An Nahar Maha Vidyalaya	False	False	TRNCMLMTTRMTTRNNHRMHVDYLY		Trincomalee	LK-53	8.551241	81.092014	Mutur	PS-530138	8.461133	81.259371	8.451822	81.262307	F726+PWF, Mutur, Sri Lanka	1.084867	
Trincomalee	Muttur	Al Hidayah Maha Vidyalaya	False	False	TRNCMLMTTRLHDYHMHVDYLY		Trincomalee	LK-53	8.551241	81.092014	Mutur	PS-530138	8.461133	81.259371	8.449646	81.26789	1 Old Batticaloa Rd, Mutur, Sri Lanka	1.584607	
Trincomalee	Muttur	Chennaiur Maha Vidyalaya	False	False	TRNCMLMTTRCHNNRMHVDYLY		Trincomalee	LK-53	8.551241	81.092014	Mutur	PS-530138	8.461133	81.259371	8.449646	81.26789	1 Old Batticaloa Rd, Mutur, Sri Lanka	1.584607	
Trincomalee	Muttur	Al Hilal Maha Vidyalaya	False	False	TRNCMLMTTRLHLLMHVDYLY		Trincomalee	LK-53	8.551241	81.092014	Mutur	PS-530138	8.461133	81.259371	8.457062	81.268574	Mutur, Sri Lanka	1.109154	
Trincomalee	Muttur	Mallikaithivu Maha Vidyalaya	False	False	TRNCMLMTTRMLLKTHVMHVDYLY		Trincomalee	LK-53	8.551241	81.092014	Mutur	PS-530138	8.461133	81.259371	8.449646	81.26789	1 Old Batticaloa Rd, Mutur, Sri Lanka	1.584607	
Trincomalee	Muttur	Palathopur Zahira Maha Vidyalaya	False	False	TRNCMLMTTRPLTHPRZHRMHVDYLY		Trincomalee	LK-53	8.551241	81.092014	Mutur	PS-530138	8.461133	81.259371	8.457906	81.268402	Mutur, Sri Lanka	1.056434	
Trincomalee	Muttur	Al Hamra Vidyalaya	False	False	TRNCMLMTTRLHMRVDYLY		Trincomalee	LK-53	8.551241	81.092014	Mutur	PS-530138	8.461133	81.259371	8.726266	81.172086	P5GC+GR4, Irrakkakandi, Sri Lanka	31.013792	#CenterFarFromPolice
Trincomalee	Muttur	Kiliveddi Hospital	False	False	TRNCMLMTTRKLVDDHSPTL		Trincomalee	LK-53	8.551241	81.092014	Mutur	PS-530138	8.461133	81.259371	8.361836	81.28427	Trincomalee Hwy, Sri Lanka	11.379518	
Trincomalee	Muttur	Thopur Hospital	False	False	TRNCMLMTTRTHPRHSPTL		Trincomalee	LK-53	8.551241	81.092014	Mutur	PS-530138	8.461133	81.259371	8.39979	81.304998	Thoppur, Sri Lanka	8.471041	
Trincomalee	Kinniya	MOH Office - Naduthivu	False	False	TRNCMLKNNYMHFFCNDTHV		Trincomalee	LK-53	8.551241	81.092014	Kinnia	PS-530140	6.907289	79.863819	8.593907	81.211949	Anbuvalipuram, Trincomalee, Sri Lanka	239.310726	#CenterFarFromPolice
Trincomalee	Kinniya	Al Mujahira Vidyalaya	False	False	TRNCMLKNNYLMJHRVDYLY		Trincomalee	LK-53	8.551241	81.092014	Kinnia	PS-530140	6.907289	79.863819	8.504893	81.179851	Kinniya, Sri Lanka	229.387631	#CenterFarFromPolice
Trincomalee	Kinniya	Arafa Maha Vidyalaya	False	False	TRNCMLKNNYRFMHVDYLY		Trincomalee	LK-53	8.551241	81.092014	Kinnia	PS-530140	6.907289	79.863819	8.500004	81.170769	G52C+282, Kinniya, Sri Lanka	228.334302	#CenterFarFromPolice
Trincomalee	Kinniya	Tarul Ulum Maha Vidyalaya	False	False	TRNCMLKNNYTRLLMMHVDYLY		Trincomalee	LK-53	8.551241	81.092014	Kinnia	PS-530140	6.907289	79.863819	8.480347	81.185754	F5JP+48J, Kinniya, Sri Lanka	227.697731	#CenterFarFromPolice
Trincomalee	Kinniya	MOH Office - Kinniya	False	False	TRNCMLKNNYMHFFCKNNY		Trincomalee	LK-53	8.551241	81.092014	Kinnia	PS-530140	6.907289	79.863819	8.498696	81.179644	F5XH+FVC, Kinniya 31100, Sri Lanka	228.840304	#CenterFarFromPolice
Trincomalee	Kinniya	Al Aksha Central College	False	False	TRNCMLKNNYLKSHCNTRLCLLG		Trincomalee	LK-53	8.551241	81.092014	Kinnia	PS-530140	6.907289	79.863819	8.496662	81.180256	F5WJ+M46, Kinniya 31100, Sri Lanka	228.708367	#CenterFarFromPolice
Trincomalee	Kinniya	Al Adan Vidyalaya	False	False	TRNCMLKNNYLDNVDYLY		Trincomalee	LK-53	8.551241	81.092014	Kinnia	PS-530140	6.907289	79.863819	8.502547	81.180383	Kinniya, Sri Lanka	229.222923	#CenterFarFromPolice
Trincomalee	Kinniya	Al Irfan Viyalaya	False	False	TRNCMLKNNYLRFNVYLY		Trincomalee	LK-53	8.551241	81.092014	Kinnia	PS-530140	6.907289	79.863819	8.481391	81.191368	F5JR+HG5, Kinniya, Sri Lanka	228.183186	#CenterFarFromPolice
Trincomalee	Kinniya	Kinniya Hospital	False	False	TRNCMLKNNYKNNYHSPTL		Trincomalee	LK-53	8.551241	81.092014	Kinnia	PS-530140	6.907289	79.863819	8.501539	81.187539	Tampalakamam-Kinniya Rd, Kinniya 31100, Sri Lanka	229.636589	#CenterFarFromPolice
Trincomalee	Sripura	MOH Office – Sripura	False	False	TRNCMLSRPRMHFFCSRPR		Trincomalee	LK-53	8.551241	81.092014	Sripura	PS-530136	8.929617	80.81428	8.926697	80.814799	Padavi Sripura, Padaviya - Sripura Road, Welioya, Sri Lanka	0.329869	
Trincomalee	Sripura	Jayanthipura Vidyalaya	False	False	TRNCMLSRPRJYNTHPRVDYLY		Trincomalee	LK-53	8.551241	81.092014	Sripura	PS-530136	8.929617	80.81428	8.908396	80.833813	Jayanthi wewa, Padavi -Sripura, Sri Lanka	3.190373	
Trincomalee	Sripura	Sripura Hospital	False	False	TRNCMLSRPRSRPRHSPTL		Trincomalee	LK-53	8.551241	81.092014	Sripura	PS-530136	8.929617	80.81428	8.929308	80.813901	Padaviya - Sripura Road, Welioya, Sri Lanka	0.053996	
Trincomalee	Kuchchaveli	MOH Office - Kuchchaveli	False	False	TRNCMLKCHCHVLMHFFCKCHCHVL		Trincomalee	LK-53	8.551241	81.092014	Kuchchaweli	PS-530133	8.81895	81.100438	8.740082	81.161616	P5R6+2JQ, Kumpurupiddi, Sri Lanka	11.053646	
Trincomalee	Kuchchaveli	Divisional Hospital - Kuchchaveli	False	False	TRNCMLKCHCHVLDVSNLHSPTLKCHCHVL		Trincomalee	LK-53	8.551241	81.092014	Kuchchaweli	PS-530133	8.81895	81.100438	8.814795	81.102358	R472+WW9, Kuchchaveli, Sri Lanka	0.508064	
Trincomalee	Kuchchaveli	Annuria Muslim College	False	False	TRNCMLKCHCHVLNNRMSLMCLLG		Trincomalee	LK-53	8.551241	81.092014	Kuchchaweli	PS-530133	8.81895	81.100438	8.504893	81.179851	Kinniya, Sri Lanka	36.007413	#CenterFarFromPolice
Trincomalee	Kuchchaveli	Erakkandi Muslim College	False	False	TRNCMLKCHCHVLRKKNDMSLMCLLG		Trincomalee	LK-53	8.551241	81.092014	Kuchchaweli	PS-530133	8.81895	81.100438	8.824431	81.095742	R3FW+Q7H, Kuchchaveli, Sri Lanka	0.798806	
Trincomalee	Kuchchaveli	Divisional Hospital - Nilaveli	False	False	TRNCMLKCHCHVLDVSNLHSPTLNLVL		Trincomalee	LK-53	8.551241	81.092014	Kuchchaweli	PS-530133	8.81895	81.100438	8.681035	81.193632	M5JV+CF6, Nilaveli, Sri Lanka	18.44695	
Trincomalee	Kantale	MOH Office – Kantale	False	False	TRNCMLKNTLMHFFCKNTL		Trincomalee	LK-53	8.551241	81.092014	Kantale	PS-530241	8.356129	81.007739	8.349617	81.009107	අග්‍රබෝධි මාවත, Kantale, Sri Lanka	0.739809	
Trincomalee	Kantale	Al Thariq Vidyalaya	False	False	TRNCMLKNTLLTHRQVDYLY		Trincomalee	LK-53	8.551241	81.092014	Kantale	PS-530241	8.356129	81.007739	8.35681	81.024939	924F+PXG, Kantale, Sri Lanka	1.894356	
Trincomalee	Kantale	Kantale Base Hospital	False	False	TRNCMLKNTLKNTLBSHSPTL		Trincomalee	LK-53	8.551241	81.092014	Kantale	PS-530241	8.356129	81.007739	8.366314	81.004891	A6, Kantale, Sri Lanka	1.17546	
Trincomalee	Kantale	Gantalawa Central College	False	False	TRNCMLKNTLGNTLWCNTRLCLLG		Trincomalee	LK-53	8.551241	81.092014	Kantale	PS-530241	8.356129	81.007739	8.379492	81.010837	Kandy Rd, Kantale 31300, Sri Lanka	2.62093	
Trincomalee	Kantale	Unit 14 Jayarajarama Viharaya	False	False	TRNCMLKNTLNTJYRJRMVHRY		Trincomalee	LK-53	8.551241	81.092014	Kantale	PS-530241	8.356129	81.007739	8.351263	81.006993	Kantale, Sri Lanka	0.547435	
Trincomalee	Vanela	Vanela Central Dispensary	False	False	TRNCMLVNLVNLCNTRLDSPNSRY		Trincomalee	LK-53	8.551241	81.092014									#PoliceLocationUnknown
Trincomalee	Agbopura	Batukachchiya Central Dispensary	False	False	TRNCMLGBPRBTKCHCHYCNTRLDSPNSRY		Trincomalee	LK-53	8.551241	81.092014	Agbopura	PS-530242	8.331395	80.976489	8.480713	81.165957	Kachchakodutheevu,Kinniya, Kinniya, Sri Lanka	26.654993	#CenterFarFromPolice
Trincomalee	Sampur	Patalipuram Health Medical Centre	False	False	TRNCMLSMPRPTLPRMHLTHMDCLCNTR		Trincomalee	LK-53	8.551241	81.092014									#PoliceLocationUnknown
Trincomalee	Pulmoddai	Pulmoddai Base Hospital	False	False	TRNCMLPLMDDPLMDDBSHSPTL	Base Hospital - Pulmoddai	Trincomalee	LK-53	8.551241	81.092014	Pulmudai	PS-530135	6.915266	79.87829	8.941204	80.983139	WXRM+F7J, Pulmoddai, Sri Lanka	256.112801	#CenterFarFromPolice
Trincomalee	Pulmoddai	Muslim National College	False	False	TRNCMLPLMDDMSLMNTNLCLLG		Trincomalee	LK-53	8.551241	81.092014	Pulmudai	PS-530135	6.915266	79.87829	8.940296	80.985139	B60, Pulmoddai, Sri Lanka	256.12882	#CenterFarFromPolice
Trincomalee	Serunuwara	MOH Office - Serunuwara	False	False	TRNCMLSRNWRMHFFCSRNWR		Trincomalee	LK-53	8.551241	81.092014	Serunuwara	PS-530244	8.321863	81.299322	8.323143	81.299894	B10, Sri Lanka	0.155671	
Trincomalee	Serunuwara	Serunuwara Hospital	False	False	TRNCMLSRNWRSRNWRHSPTL		Trincomalee	LK-53	8.551241	81.092014	Serunuwara	PS-530244	8.321863	81.299322	8.322964	81.299734	Allai-Kantalai Rd, Sri Lanka	0.130589	
Trincomalee	Serunuwara	Somadevi Maha Vidyalaya	False	False	TRNCMLSRNWRSMDVMHVDYLY		Trincomalee	LK-53	8.551241	81.092014	Serunuwara	PS-530244	8.321863	81.299322	6.308406	80.940472	Sewanagala, Sri Lanka	227.428456	#CenterFarFromPolice
Trincomalee	Morawewa	Mahadivulwewa Hospital	False	False	TRNCMLMRWWMHDVLWWHSPTL		Trincomalee	LK-53	8.551241	81.092014	Morawewa	PS-530247	8.630317	81.031386	8.620893	80.968736	JXC9+9F5, Mahadivul Wewa, Sri Lanka	6.969016	
Trincomalee	Morawewa	Morawewa Hospital	False	False	TRNCMLMRWWMRWWHSPTL		Trincomalee	LK-53	8.551241	81.092014	Morawewa	PS-530247	8.630317	81.031386	8.62809	81.043818	Morawewa, Pankulam 31000, Sri Lanka	1.389415	
Trincomalee	Harbour Police	MOH Office - Trincomalee	False	False	TRNCMLHRBRPLCMHFFCTRNCML		Trincomalee	LK-53	8.551241	81.092014	Trinco Harbour Police	PS-530131	8.56705	81.231407	8.598974	81.216963	MOH Office, Farm Rd, Trincomalee, Sri Lanka	3.890062	
Trincomalee	Harbour Police	Trincomalee Base Hospital	False	False	TRNCMLHRBRPLCTRNCMLBSHSPTL		Trincomalee	LK-53	8.551241	81.092014	Trinco Harbour Police	PS-530131	8.56705	81.231407	8.56486	81.239445	Hospital Ln, Trincomalee, Sri Lanka	0.917037	
Trincomalee	Uppuveli	MOH Office - Uppuveli	False	False	TRNCMLPPVLMHFFCPPVL		Trincomalee	LK-53	8.551241	81.092014	Uppuweli	PS-530134	8.593614	81.21743	8.607961	81.216512	Nilaveli Rd, Trincomalee, Sri Lanka	1.599005	
Trincomalee	Ichchalampattu	MOH Office - Ichchalampattu	False	False	TRNCMLCHCHLMPTTMHFFCCHCHLMPTT	Eachchilampattu Hospital	Trincomalee	LK-53	8.551241	81.092014	Ichchalampattu		8.289549	81.359002	8.289644	81.358983	Highway, Ichchalampattu, Trincomalee, Sri Lanka	0.010772	
Trincomalee	Ichchalampattu	Ichchalampattu Hospital	False	False	TRNCMLCHCHLMPTTCHCHLMPTTHSPTL		Trincomalee	LK-53	8.551241	81.092014	Ichchalampattu		8.289549	81.359002	8.289549	81.358986	Trincomalee Hwy, Sri Lanka	0.001761	
Trincomalee	Ichchalampattu	Uppural Vidyalaya	False	False	TRNCMLCHCHLMPTTPPRLVDYLY		Trincomalee	LK-53	8.551241	81.092014	Ichchalampattu		8.289549	81.359002	8.365205	81.031496	928J+3HQ, Kantale, Sri Lanka	37.013665	#CenterFarFromPolice
Trincomalee	Thambalagamuwa	Siraj Nagar Muslim College	False	False	TRNCMLTHMBLGMWSRJNGRMSLMCLLG		Trincomalee	LK-53	8.551241	81.092014	Thambalagamuva	PS-530243	6.907289	79.863819	8.465601	81.082906	Siraj Nagar,, Trincomalee, Sri Lanka	219.318228	#CenterFarFromPolice
Trincomalee	Thambalagamuwa	Kulakottan Vidyalaya	False	False	TRNCMLTHMBLGMWKLKTTNVDYLY		Trincomalee	LK-53	8.551241	81.092014	Thambalagamuva	PS-530243	6.907289	79.863819	8.491061	81.104748	potkerney Thampalagamam, Sri Lanka	223.028906	#CenterFarFromPolice
Trincomalee	Thambalagamuwa	Mollipathana Sinhala Maha Vidyalaya	False	False	TRNCMLTHMBLGMWMLLPTHNSNHLMHVDYLY		Trincomalee	LK-53	8.551241	81.092014	Thambalagamuva	PS-530243	6.907289	79.863819	8.491061	81.104748	potkerney Thampalagamam, Sri Lanka	223.028906	#CenterFarFromPolice
Trincomalee	Thambalagamuwa	Mollipathana Central Dispensary	False	False	TRNCMLTHMBLGMWMLLPTHNCNTRLDSPNSRY		Trincomalee	LK-53	8.551241	81.092014	Thambalagamuva	PS-530243	6.907289	79.863819	8.454476	81.062722	96 A6, Mullipotana, Sri Lanka	216.98052	#CenterFarFromPolice
Trincomalee	Thambalagamuwa	Gantalawa Central Dispensary	False	False	TRNCMLTHMBLGMWGNTLWCNTRLDSPNSRY		Trincomalee	LK-53	8.551241	81.092014	Thambalagamuva	PS-530243	6.907289	79.863819	8.454476	81.062722	96 A6, Mullipotana, Sri Lanka	216.98052	#CenterFarFromPolice
Trincomalee	Gomarankadawala	MOH Office - Gomarankadawala	False	False	TRNCMLGMRNKDWLMHFFCGMRNKDWL		Trincomalee	LK-53	8.551241	81.092014	Gomarankadawala	PS-530248	8.674487	80.967555	8.674726	80.955691	Unnamed Road, Gomarankadawala, Sri Lanka	1.304806	
Batticaloa	Batticaloa	Mobile Medical Team	False	False	BTTCLBTTCLMBLMDCLTM		Batticaloa	LK-51	7.792772	81.486513	Batticaloa	PS-510101	7.717949	81.699294					#CenterLocationUnknown
Batticaloa	Batticaloa	Urani Saraswathi Vidyalaya - Batticaloa	False	False	BTTCLBTTCLRNSRSWTHVDYLYBTTCL		Batticaloa	LK-51	7.792772	81.486513	Batticaloa	PS-510101	7.717949	81.699294	7.731928	81.678315	PMJH+Q8G, Batticaloa, Sri Lanka	2.786477	
Batticaloa	Batticaloa	Hindu College - Batticaloa	False	False	BTTCLBTTCLHNDCLLGBTTCL		Batticaloa	LK-51	7.792772	81.486513	Batticaloa	PS-510101	7.717949	81.699294	7.720185	81.69817	Bar Rd, Batticaloa, Sri Lanka	0.277858	
Batticaloa	Batticaloa	Arunodaya Vidyalaya	False	False	BTTCLBTTCLRNDYVDYLY		Batticaloa	LK-51	7.792772	81.486513	Batticaloa	PS-510101	7.717949	81.699294	7.730997	81.674729	Batticaloa, Sri Lanka	3.071917	
Batticaloa	Batticaloa	Thiripparanathurai Vidyalaya	False	False	BTTCLBTTCLTHRPPRNTHRVDYLY		Batticaloa	LK-51	7.792772	81.486513	Batticaloa	PS-510101	7.717949	81.699294	7.720143	81.700516	PPC2+362, Batticaloa, Sri Lanka	0.278741	
Batticaloa	Batticaloa	Sathurukondan Sarvodaya	False	False	BTTCLBTTCLSTHRKNDNSRVDY		Batticaloa	LK-51	7.792772	81.486513	Batticaloa	PS-510101	7.717949	81.699294	7.751535	81.671916	Sathurukondan, Batticaloa, Sri Lanka	4.80224	
Batticaloa	Batticaloa	Kalladi Ignisiyas Vidyalaya	False	False	BTTCLBTTCLKLLDGNSYSVDYLY		Batticaloa	LK-51	7.792772	81.486513	Batticaloa	PS-510101	7.717949	81.699294	7.720143	81.700516	PPC2+362, Batticaloa, Sri Lanka	0.278741	
Batticaloa	Kokkadicholai	MOH Office - Kokkadicholai	False	False	BTTCLKKKDCHLMHFFCKKKDCHL		Batticaloa	LK-51	7.792772	81.486513	Kokkadicholai	PS-510112	7.715979	81.698757	7.607311	81.712525	Kokkaddicholai, Batticaloa, Sri Lanka	12.18204	
Batticaloa	Kokkadicholai	Mahiladithivu Vidyalaya	False	False	BTTCLKKKDCHLMHLDTHVVDYLY		Batticaloa	LK-51	7.792772	81.486513	Kokkadicholai	PS-510112	7.715979	81.698757	7.623008	81.719383	Muthalaikudah Kanchirankudah Rd, Batticaloa, Sri Lanka	10.588158	
Batticaloa	Vellawali	Mandur Ganeshapuram Vidyalaya	False	False	BTTCLVLLWLMNDRGNSHPRMVDYLY		Batticaloa	LK-51	7.792772	81.486513	Vellavali	PS-510111	6.907289	79.863819	7.5182	81.75479	kovilporathivu, Sri Lanka	219.452145	#CenterFarFromPolice
Batticaloa	Vellawali	Thumpankenai Tamil College	False	False	BTTCLVLLWLTHMPNKNTMLCLLG		Batticaloa	LK-51	7.792772	81.486513	Vellavali	PS-510111	6.907289	79.863819	8.12458	81.43356	4CFM+RCM, Sri Lanka	219.763448	#CenterFarFromPolice
Batticaloa	Kaluwanchikudy	Palugamam Kandumanai Vidyalaya	False	False	BTTCLKLWNCHKDYPLGMMKNDMNVDYLY		Batticaloa	LK-51	7.792772	81.486513	Kalawanchikudy	PS-510110	7.515908	81.787051	7.543588	81.758413	GQV5+C9M, Batticaloa, Sri Lanka	4.41042	
Batticaloa	Kaluwanchikudy	Mahulur Tamil College	False	False	BTTCLKLWNCHKDYMHLRTMLCLLG		Batticaloa	LK-51	7.792772	81.486513	Kalawanchikudy	PS-510110	7.515908	81.787051	7.529373	81.794609	Kaluwanchikudy, Sri Lanka	1.713891	
Batticaloa	Kaluwanchikudy	Kurumanveli Tamil College	False	False	BTTCLKLWNCHKDYKRMNVLTMLCLLG		Batticaloa	LK-51	7.792772	81.486513	Kalawanchikudy	PS-510110	7.515908	81.787051	7.547235	81.787676	A4, Kaluwanchikudy, Sri Lanka	3.485178	
Batticaloa	Valachchenai	Valachchenai Base Hospital	False	False	BTTCLVLCHCHNVLCHCHNBSHSPTL		Batticaloa	LK-51	7.792772	81.486513	Valachchanai	PS-510107	7.908015	81.533004	7.911315	81.533046	Valaichchenai-Nasuvantivu-Navaladi Road, Sri Lanka	0.367088	
Batticaloa	Valachchenai	Saduliya Vidyalaya	False	False	BTTCLVLCHCHNSDLYVDYLY		Batticaloa	LK-51	7.792772	81.486513	Valachchanai	PS-510107	7.908015	81.533004	7.921328	81.52467	WGCF+GVM, Oddamavadi, Sri Lanka	1.742353	
Batticaloa	Valachchenai	Kavattamuna Clinic	False	False	BTTCLVLCHCHNKVTTMNCLNC		Batticaloa	LK-51	7.792772	81.486513	Valachchanai	PS-510107	7.908015	81.533004	7.920433	81.531079	Valaichchenai, Nasuvantivu-Navaladi, Road, Sri Lanka	1.397439	
Batticaloa	Valachchenai	GN - Oddamavadi	False	False	BTTCLVLCHCHNGNDDMVD		Batticaloa	LK-51	7.792772	81.486513	Valachchanai	PS-510107	7.908015	81.533004					#CenterLocationUnknown
Batticaloa	Valachchenai	Oddamavadi Vidyalaya	False	False	BTTCLVLCHCHNDDMVDVDYLY		Batticaloa	LK-51	7.792772	81.486513	Valachchanai	PS-510107	7.908015	81.533004	7.911415	81.524957	WG6F+HX8, Batticaloa, Sri Lanka	0.963843	
Batticaloa	Valachchenai	Al Iqbal Vidyalaya	False	False	BTTCLVLCHCHNLQBLVDYLY		Batticaloa	LK-51	7.792772	81.486513	Valachchanai	PS-510107	7.908015	81.533004	7.910913	81.529106	Trincomalee Hwy, Oddamavadi, Sri Lanka	0.536966	
Batticaloa	Valachchenai	Annur Vidyalaya	False	False	BTTCLVLCHCHNNNRVDYLY		Batticaloa	LK-51	7.792772	81.486513	Valachchanai	PS-510107	7.908015	81.533004	7.924048	81.526712	Ymma Cross Rd, 30400, Sri Lanka	1.913332	
Batticaloa	Vakarai	MOH Office - Vakarai	False	False	BTTCLVKRMHFFCVKR	Divisional Hospital Vakarai	Batticaloa	LK-51	7.792772	81.486513	Wakarai	PS-510109	6.934132	79.856305	8.134552	81.435328	Trincomalee Hwy, Vakarai, Sri Lanka	219.417822	#CenterFarFromPolice
Batticaloa	Kattankudy	Kattankudy Central College	False	False	BTTCLKTTNKDYKTTNKDYCNTRLCLLG		Batticaloa	LK-51	7.792772	81.486513	Kaththankudi	PS-510103	7.715979	81.698757	7.682761	81.736652	MPMP+4M2, Kattankudy, Sri Lanka	5.576699	
Batticaloa	Kattankudy	Arayampathy Pudukudiirippu Kannagi Vidyalaya	False	False	BTTCLKTTNKDYRYMPTHYPDKDRPPKNNGVDYLY		Batticaloa	LK-51	7.792772	81.486513	Kaththankudi	PS-510103	7.715979	81.698757	7.673907	81.73845	MPFQ+H98, Sri Lanka	6.406433	
Batticaloa	Kattankudy	Kattankudy Base Hospital	False	False	BTTCLKTTNKDYKTTNKDYBSHSPTL		Batticaloa	LK-51	7.792772	81.486513	Kaththankudi	PS-510103	7.715979	81.698757	7.685147	81.739078	Dr Badhiudeen Mahmood Mawatha, Kattankudy, Sri Lanka	5.613752	
Batticaloa	Kattankudy	Badurdia Jumma Church	False	False	BTTCLKTTNKDYBDRDJMMCHRCH		Batticaloa	LK-51	7.792772	81.486513	Kaththankudi	PS-510103	7.715979	81.698757	7.692492	81.721685	434 new kalmuni Road Navatkudha, Batticaloa, Sri Lanka	3.634825	
Batticaloa	Kattankudy	Jamiel Radik Jumma Mosque	False	False	BTTCLKTTNKDYJMLRDKJMMMSQ		Batticaloa	LK-51	7.792772	81.486513	Kaththankudi	PS-510103	7.715979	81.698757	7.68537	81.726012	Kattankudy, Sri Lanka	4.540586	
Batticaloa	Kattankudy	Mira Jumma Mosque	False	False	BTTCLKTTNKDYMRJMMMSQ		Batticaloa	LK-51	7.792772	81.486513	Kaththankudi	PS-510103	7.715979	81.698757	7.684931	81.724317	MPMF+XPG, Kattankudy, Sri Lanka	4.45692	
Batticaloa	Eravur	Sandiveli Hospital	False	False	BTTCLRVRSNDVLHSPTL		Batticaloa	LK-51	7.792772	81.486513	Eravur	PS-510104	7.715979	81.698757	7.777289	81.602853	Trincomalee Hwy, Eravur, Sri Lanka	12.578998	
Batticaloa	Eravur	MOH Office - Chenkaladi	False	False	BTTCLRVRMHFFCCHNKLD		Batticaloa	LK-51	7.792772	81.486513	Eravur	PS-510104	7.715979	81.698757	7.783599	81.593367	Trincomalee Hwy, Chenkaladi 30350, Sri Lanka	13.837876	
Batticaloa	Eravur	Chenkaladi Hospital	False	False	BTTCLRVRCHNKLDHSPTL		Batticaloa	LK-51	7.792772	81.486513	Eravur	PS-510104	7.715979	81.698757	7.783546	81.589961	Batticaloa Rd, Chenkaladi, Sri Lanka	14.151406	
Batticaloa	Eravur	Palaeadithona Vidyalaya	False	False	BTTCLRVRPLDTHNVDYLY		Batticaloa	LK-51	7.792772	81.486513	Eravur	PS-510104	7.715979	81.698757	7.781715	81.601743	Eravur - 04, Chenkaladi, Sri Lanka	12.953304	
Batticaloa	Eravur	Kiran Central College	False	False	BTTCLRVRKRNCNTRLCLLG		Batticaloa	LK-51	7.792772	81.486513	Eravur	PS-510104	7.715979	81.698757	7.785947	81.590295	Trincomalee Road, Chenkaladi, Sri Lanka	14.264135	
Batticaloa	Eravur	Eravur Hospital	False	False	BTTCLRVRRVRHSPTL		Batticaloa	LK-51	7.792772	81.486513	Eravur	PS-510104	7.715979	81.698757	7.783168	81.605999	QJM4+799, Eravur 30300, Sri Lanka	12.663585	
Batticaloa	Eravur	Ayesha Mosque	False	False	BTTCLRVRYSHMSQ		Batticaloa	LK-51	7.792772	81.486513	Eravur	PS-510104	7.715979	81.698757	7.678462	81.722134	MPHC+9VJ, Kattankudy, Sri Lanka	4.904474	
Batticaloa	Eravur	Rahumaniya Vidyalaya	False	False	BTTCLRVRRHMNYVDYLY		Batticaloa	LK-51	7.792772	81.486513	Eravur	PS-510104	7.715979	81.698757	7.774595	81.611809	Rahumaniya School Rd, Eravur, Sri Lanka	11.590597	
Batticaloa	Eravur	Al Munira Vidyalaya	False	False	BTTCLRVRLMNRVDYLY		Batticaloa	LK-51	7.792772	81.486513	Eravur	PS-510104	7.715979	81.698757	7.776265	81.605398	Town, Eravur 30300, Sri Lanka	12.28169	
Batticaloa	Eravur	Sapiya Church	False	False	BTTCLRVRSPYCHRCH		Batticaloa	LK-51	7.792772	81.486513	Eravur	PS-510104	7.715979	81.698757	7.783635	81.592259	Trincomalee Road, Chenkaladi, Sri Lanka	13.942791	
Batticaloa	Eravur	Mawadiwembu Hospital	False	False	BTTCLRVRMWDWMBHSPTL		Batticaloa	LK-51	7.792772	81.486513	Eravur	PS-510104	7.715979	81.698757	7.808545	81.566328	Mawadiwembu Hospital, Sri Lanka	17.861302	
Batticaloa	Eravur	Punidavalanar Vidyalaya	False	False	BTTCLRVRPNDVLNRVDYLY		Batticaloa	LK-51	7.792772	81.486513	Eravur	PS-510104	7.715979	81.698757	7.781715	81.601743	Eravur - 04, Chenkaladi, Sri Lanka	12.953304	
Batticaloa	Eravur	Iyankeni Maha Vidyalaya	False	False	BTTCLRVRYNKNMHVDYLY		Batticaloa	LK-51	7.792772	81.486513	Eravur	PS-510104	7.715979	81.698757	7.781715	81.601743	Eravur - 04, Chenkaladi, Sri Lanka	12.953304	
Batticaloa	Eravur	Viwekananda Vidyalaya	False	False	BTTCLRVRVWKNNDVDYLY		Batticaloa	LK-51	7.792772	81.486513	Eravur	PS-510104	7.715979	81.698757	7.787788	81.598745	QHQX+4F9, Chenkaladi, Sri Lanka	13.612347	
Batticaloa	Eravur	Wandaramulla Ganesha Vidyalaya	False	False	BTTCLRVRWNDRMLLGNSHVDYLY		Batticaloa	LK-51	7.792772	81.486513	Eravur	PS-510104	7.715979	81.698757	7.781715	81.601743	Eravur - 04, Chenkaladi, Sri Lanka	12.953304	
Batticaloa	Eravur	Siththandi Central College	False	False	BTTCLRVRSTHTHNDCNTRLCLLG		Batticaloa	LK-51	7.792772	81.486513	Eravur	PS-510104	7.715979	81.698757	7.785947	81.590295	Trincomalee Road, Chenkaladi, Sri Lanka	14.264135	
Batticaloa	Vavunathivu	MOH Office - Vavunathivu	False	False	BTTCLVVNTHVMHFFCVVNTHV		Batticaloa	LK-51	7.792772	81.486513	Vavunathive	PS-510102	6.933075	79.857181	7.708253	81.691368	Hospital Rd, Batticaloa, Sri Lanka	219.95575	#CenterFarFromPolice
Batticaloa	Vavunathivu	Kothiyapula Kalaivani Vidyalaya	False	False	BTTCLVVNTHVKTHYPLKLVNVDYLY		Batticaloa	LK-51	7.792772	81.486513	Vavunathive	PS-510102	6.933075	79.857181	7.720143	81.700516	PPC2+362, Batticaloa, Sri Lanka	221.401617	#CenterFarFromPolice
Batticaloa	Vavunathivu	Vilavattuwan Vinayagar Vidyalaya	False	False	BTTCLVVNTHVVLVTTWNVNYGRVDYLY		Batticaloa	LK-51	7.792772	81.486513	Vavunathive	PS-510102	6.933075	79.857181	7.720143	81.700516	PPC2+362, Batticaloa, Sri Lanka	221.401617	#CenterFarFromPolice
Batticaloa	Arayampathy	MOH Office - Arayampathy	False	False	BTTCLRYMPTHYMHFFCRYMPTHY		Batticaloa	LK-51	7.792772	81.486513	Arayampathy		7.670333	81.745783	7.672862	81.735019	MPFP+42R, Sri Lanka	1.21945	
Batticaloa	Arayampathy	GTM Vidyalaya	False	False	BTTCLRYMPTHYGTMVDYLY		Batticaloa	LK-51	7.792772	81.486513	Arayampathy		7.670333	81.745783	7.669096	81.735067	Village Ct Rd, Kattankudy, Sri Lanka	1.189262	
Batticaloa	Karadiyanaru	Karadiyanaru Hospital	False	False	BTTCLKRDYNRKRDYNRHSPTL		Batticaloa	LK-51	7.792772	81.486513	Karadiyanaru	PS-510105	7.701992	81.537252	7.700216	81.539779	PG2Q+3WJ, Karadiyanaru, Sri Lanka	0.341482	
Batticaloa	Karadiyanaru	Regama Vidyalaya	False	False	BTTCLKRDYNRRGMVDYLY		Batticaloa	LK-51	7.792772	81.486513	Karadiyanaru	PS-510105	7.701992	81.537252	7.700747	81.538387	Karadiyanaru, Sri Lanka	0.186625	
Batticaloa	Karadiyanaru	Weppuwattuwan Vidyalaya	False	False	BTTCLKRDYNRWPPWTTWNVDYLY		Batticaloa	LK-51	7.792772	81.486513	Karadiyanaru	PS-510105	7.701992	81.537252	7.720143	81.700516	PPC2+362, Batticaloa, Sri Lanka	18.108512	
Ampara	Chavalakade	5th Colony Health Centre	False	False	MPRCHVLKDTHCLNYHLTHCNTR		Ampara	LK-52	7.23699	81.550391	Chawalakade	PS-520125	7.413559	81.776822	7.418836	81.781436	Chavalakade, Sri Lanka	0.776867	
Ampara	Chavalakade	MOH Office - Navidanveli	False	False	MPRCHVLKDMHFFCNVDNVL		Ampara	LK-52	7.23699	81.550391	Chawalakade	PS-520125	7.413559	81.776822	7.420081	81.788401	B77, Sri Lanka	1.468805	
Ampara	Karaitivu	MOH Office – Karaitivu	False	False	MPRKRTVMHFFCKRTV		Ampara	LK-52	7.23699	81.550391	Karaitivu		9.744059	79.870587	7.377712	81.838796	Colombo-Ratnapura-Wellawaya-Batticaloa Highway, Karativu 32250, Sri Lanka	340.788666	#CenterFarFromPolice
Ampara	Karaitivu	Mavadipalli Helth Centre	False	False	MPRKRTVMVDPLLHLTHCNTR		Ampara	LK-52	7.23699	81.550391	Karaitivu		9.744059	79.870587	7.372549	81.824772	Karativu-Ampara Hwy, Karaitivu, Sri Lanka	340.256929	#CenterFarFromPolice
Ampara	Mahaoya	Keppetipola Vidyalaya	False	False	MPRMHYKPPTPLVDYLY		Ampara	LK-52	7.23699	81.550391	Mahaoya	PS-520120	7.531108	81.356391	7.569429	81.383933	Mahaoya, ampara, Sri Lanka	5.233673	
Ampara	Padiyatalawa	MOH Office - Padiyatalawa	False	False	MPRPDYTLWMHFFCPDYTLW		Ampara	LK-52	7.23699	81.550391	Padiyathalawa	PS-520122	7.401155	81.243526	7.410629	81.24425	C66V+7M5, Padiyatalawa, Sri Lanka	1.056813	
Ampara	Ampara	DS Senanayaka National College	False	False	MPRMPRDSSNNYKNTNLCLLG		Ampara	LK-52	7.23699	81.550391	Ampara	PS-520113	7.296771	81.677161	7.303531	81.671966	Dharmapala Mawatha, Ampara, Sri Lanka	0.945453	
Ampara	Damana	MOH Office - Damana	False	False	MPRDMNMHFFCDMN		Ampara	LK-52	7.23699	81.550391	Damana	PS-520114	7.200465	81.654653	7.197982	81.65538	5MX4+55R, Damana, Sri Lanka	0.2876	
Ampara	Panama	MOH Office - Lahugala	False	False	MPRPNMMHFFCLHGL		Ampara	LK-52	7.23699	81.550391	Panama	PS-520129	6.752004	81.79349	6.880658	81.765015	VQJ8+726, Sangamuwa, Sri Lanka	14.651657	
Ampara	Eragama	MOH Office - Eragama	False	False	MPRRGMMHFFCRGM		Ampara	LK-52	7.23699	81.550391									#PoliceLocationUnknown
Ampara	Pottuvil	Pottuvil Central College	False	False	MPRPTTVLPTTVLCNTRLCLLG		Ampara	LK-52	7.23699	81.550391	Pothuvil	PS-520128	6.878387	81.826859	6.879508	81.835585	Pottuvil, Sri Lanka	0.971748	
Ampara	Pottuvil	Al Aksha Vidyalaya	False	False	MPRPTTVLLKSHVDYLY		Ampara	LK-52	7.23699	81.550391	Pothuvil	PS-520128	6.878387	81.826859	6.866896	81.832636	B374, Pottuvil, Sri Lanka	1.428509	
Ampara	Pottuvil	Mineral Ulum Vidayalaya	False	False	MPRPTTVLMNRLLMVDYLY		Ampara	LK-52	7.23699	81.550391	Pothuvil	PS-520128	6.878387	81.826859	6.867891	81.839008	Muhudu Maha Vihara Mawatha, Pottuvil, Sri Lanka	1.778462	
Ampara	Thirukkovil	MOH Office - Thirukkovil	False	False	MPRTHRKKVLMHFFCTHRKKVL		Ampara	LK-52	7.23699	81.550391	Thirukkovil	PS-520127	7.113998	81.852219	7.111635	81.852892	Central Rd, Vinayagapuram, Sri Lanka	0.273131	
Ampara	Thirukkovil	Mobile Vaccination	False	False	MPRTHRKKVLMBLVCCNTN		Ampara	LK-52	7.23699	81.550391	Thirukkovil	PS-520127	7.113998	81.852219					#CenterLocationUnknown
Ampara	Thirukkovil	Thambiluvil Maha Vidyalaya	False	False	MPRTHRKKVLTHMBLVLMHVDYLY		Ampara	LK-52	7.23699	81.550391	Thirukkovil	PS-520127	7.113998	81.852219	7.120484	81.852659	Main Road, Thambiluvil, Sri Lanka	0.723069	
Ampara	Thirukkovil	Vinayagapuram Shakthi Vidyalaya	False	False	MPRTHRKKVLVNYGPRMSHKTHVDYLY		Ampara	LK-52	7.23699	81.550391	Thirukkovil	PS-520127	7.113998	81.852219	7.115312	81.852488	Thirukkovil, Sri Lanka	0.149141	
Ampara	Thirukkovil	District Hospital - Thirukkovil	False	False	MPRTHRKKVLDSTRCTHSPTLTHRKKVL		Ampara	LK-52	7.23699	81.550391	Thirukkovil	PS-520127	7.113998	81.852219	7.115713	81.851887	4V82+7QJ, Thirukkovil, Sri Lanka	0.194247	
Ampara	Akkaraipattu	Akkaraipattu Nuraniya Church	False	False	MPRKKRPTTKKRPTTNRNYCHRCH		Ampara	LK-52	7.23699	81.550391	Akkaraipattu	PS-520126	7.216084	81.853254	7.217154	81.849717	Sagama Rd, Akkaraipattu, Sri Lanka	0.408046	
Ampara	Akkaraipattu	Al Siraj Vidyalaya	False	False	MPRKKRPTTLSRJVDYLY		Ampara	LK-52	7.23699	81.550391	Akkaraipattu	PS-520126	7.216084	81.853254	7.219333	81.85313	Akkaraipattu, Sri Lanka	0.361645	
Ampara	Akkaraipattu	Badur Mosque	False	False	MPRKKRPTTBDRMSQ		Ampara	LK-52	7.23699	81.550391	Akkaraipattu	PS-520126	7.216084	81.853254	7.21798	81.859573	Deens Road, Akkaraipattu, Sri Lanka	0.728487	
Ampara	Akkaraipattu	Nuraniya Jumma Musque	False	False	MPRKKRPTTNRNYJMMMSQ		Ampara	LK-52	7.23699	81.550391	Akkaraipattu	PS-520126	7.216084	81.853254	7.221477	81.849682	Thomputhor Road, Akkaraipattu, Sri Lanka	0.717774	
Ampara	Akkaraipattu	Aisha Maha Vidyalaya	False	False	MPRKKRPTTSHMHVDYLY		Ampara	LK-52	7.23699	81.550391	Akkaraipattu	PS-520126	7.216084	81.853254	7.223603	81.84711	Mudaliyar Rd, Akkaraipattu 32400, Sri Lanka	1.076621	
Ampara	Akkaraipattu	Oluvil Al Hamra Vidyalaya	False	False	MPRKKRPTTLVLLHMRVDYLY		Ampara	LK-52	7.23699	81.550391	Akkaraipattu	PS-520126	7.216084	81.853254	7.290277	81.857414	7VR4+4X7, Oluvil, Sri Lanka	8.265231	
Ampara	Akkaraipattu	Sri Ramakrishna Vidyalaya	False	False	MPRKKRPTTSRRMKRSHNVDYLY		Ampara	LK-52	7.23699	81.550391	Akkaraipattu	PS-520126	7.216084	81.853254	7.210268	81.845672	6R6W+473, Akkaraipattu, Sri Lanka	1.057598	
Ampara	Akkaraipattu	Kolavil Vinayagar Maha Vidyalaya	False	False	MPRKKRPTTKLVLVNYGRMHVDYLY		Ampara	LK-52	7.23699	81.550391	Akkaraipattu	PS-520126	7.216084	81.853254	7.198526	81.849358	Akkaraipattu-Sagamam Rd, Sri Lanka	1.999736	
Ampara	Akkaraipattu	MOH Office - Addalachenai	False	False	MPRKKRPTTMHFFCDDLCHN		Ampara	LK-52	7.23699	81.550391	Akkaraipattu	PS-520126	7.216084	81.853254	7.260916	81.853493	7V63+999, Addalaichenai, Sri Lanka	4.986726	
Ampara	Akkaraipattu	MOH Office - Alayadivembu	False	False	MPRKKRPTTMHFFCLYDVMB		Ampara	LK-52	7.23699	81.550391	Akkaraipattu	PS-520126	7.216084	81.853254	7.228134	81.851123	6VH2+7C5, Akkaraipattu, Sri Lanka	1.360772	
Ampara	Kalmunai	MOH Office - Kalmunai North	False	False	MPRKLMNMHFFCKLMNNRTH		Ampara	LK-52	7.23699	81.550391	Kalmunai	PS-520123	7.414289	81.825006	7.411712	81.838462	CR6Q+M9P, Kalmunai 32300, Sri Lanka	1.511625	
Ampara	Kalmunai	Mobile Vaccination	False	False	MPRKLMNMBLVCCNTN		Ampara	LK-52	7.23699	81.550391	Kalmunai	PS-520123	7.414289	81.825006					#CenterLocationUnknown
Ampara	Kalmunai	Sri Ramakrishna Mission Maha Vidyalaya	False	False	MPRKLMNSRRMKRSHNMSSNMHVDYLY		Ampara	LK-52	7.23699	81.550391	Kalmunai	PS-520123	7.414289	81.825006	7.412373	81.828629	Udyar Rd, Kalmunai 32300, Sri Lanka	0.452893	
Ampara	Kalmunai	MOH Office - Kalmunai South	False	False	MPRKLMNMHFFCKLMNSTH		Ampara	LK-52	7.23699	81.550391	Kalmunai	PS-520123	7.414289	81.825006	7.411712	81.838462	CR6Q+M9P, Kalmunai 32300, Sri Lanka	1.511625	
Ampara	Kalmunai	Al Bahariya National College	False	False	MPRKLMNLBHRYNTNLCLLG		Ampara	LK-52	7.23699	81.550391	Kalmunai	PS-520123	7.414289	81.825006	7.399481	81.839854	Zahira College Rd, Sainthamaruthu 32280, Sri Lanka	2.32275	
Ampara	Kalmunai	Periyanilawani Clinic	False	False	MPRKLMNPRYNLWNCLNC		Ampara	LK-52	7.23699	81.550391	Kalmunai	PS-520123	7.414289	81.825006	7.420034	81.82232	hospital near, Kalmunai 32300, Sri Lanka	0.704353	
Ampara	Kalmunai	Maradamunai Almanar Central College	False	False	MPRKLMNMRDMNLMNRCNTRLCLLG		Ampara	LK-52	7.23699	81.550391	Kalmunai	PS-520123	7.414289	81.825006	7.436331	81.812701	Maruthamunai, Sri Lanka	2.802316	
Ampara	Kalmunai	Kalmunai Al Mishba Maha Vidyalaya	False	False	MPRKLMNKLMNLMSHBMHVDYLY		Ampara	LK-52	7.23699	81.550391	Kalmunai	PS-520123	7.414289	81.825006	7.401673	81.840708	Kalmunai 32300, Sri Lanka	2.22909	
Ampara	Kalmunai	Narappattimunai Al Ashka Maha Vidyalaya	False	False	MPRKLMNNRPPTTMNLSHKMHVDYLY		Ampara	LK-52	7.23699	81.550391	Kalmunai	PS-520123	7.414289	81.825006	7.414638	81.81151	CR76+VJ2, Kalmunai, Sri Lanka	1.489112	
Ampara	Kalmunai	Al Madina Vidyalaya	False	False	MPRKLMNLMDNVDYLY		Ampara	LK-52	7.23699	81.550391	Kalmunai	PS-520123	7.414289	81.825006	7.434363	81.817655	03 Mashoor Moulana Rd, Maruthamunai 32314, Sri Lanka	2.375481	
Ampara	Kalmunai	Kalmunai North Base Hospital	False	False	MPRKLMNKLMNNRTHBSHSPTL		Ampara	LK-52	7.23699	81.550391	Kalmunai	PS-520123	7.414289	81.825006	7.420034	81.82232	hospital near, Kalmunai 32300, Sri Lanka	0.704353	
Ampara	Kalmunai	Carmel Fatima National College	False	False	MPRKLMNCRMLFTMNTNLCLLG		Ampara	LK-52	7.23699	81.550391	Kalmunai	PS-520123	7.414289	81.825006	7.419889	81.823933	Carmel Fatima College Rd, Kalmunai 32300, Sri Lanka	0.634031	
Ampara	Kalmunai	Pandirippu Cultural Centre	False	False	MPRKLMNPNDRPPCLTRLCNTR		Ampara	LK-52	7.23699	81.550391	Kalmunai	PS-520123	7.414289	81.825006	7.430188	81.815947	CRJ8+39G, Pandiruppu, Sri Lanka	2.031199	
Ampara	Kalmunai	Senakudiirippu Health Centre	False	False	MPRKLMNSNKDRPPHLTHCNTR		Ampara	LK-52	7.23699	81.550391	Kalmunai	PS-520123	7.414289	81.825006	7.420034	81.82232	hospital near, Kalmunai 32300, Sri Lanka	0.704353	
Ampara	Kalmunai	Nappattimunai Shivashakthi Vidyalaya	False	False	MPRKLMNNPPTTMNSHVSHKTHVDYLY		Ampara	LK-52	7.23699	81.550391	Kalmunai	PS-520123	7.414289	81.825006	7.426418	81.816781	Colombo - Batticaloa Hwy, Kalmunai, Sri Lanka	1.625764	
Ampara	Kalmunai	Periyanilawani Saraswathi Vidyalaya	False	False	MPRKLMNPRYNLWNSRSWTHVDYLY		Ampara	LK-52	7.23699	81.550391	Kalmunai	PS-520123	7.414289	81.825006	7.426418	81.816781	Colombo - Batticaloa Hwy, Kalmunai, Sri Lanka	1.625764	
Ampara	Kalmunai	Padirippu Hindu Maha Vidyalaya	False	False	MPRKLMNPDRPPHNDMHVDYLY		Ampara	LK-52	7.23699	81.550391	Kalmunai	PS-520123	7.414289	81.825006	7.426418	81.816781	Colombo - Batticaloa Hwy, Kalmunai, Sri Lanka	1.625764	
Ampara	Kalmunai	Ashraff Memorial Hospital	False	False	MPRKLMNSHRFFMMRLHSPTL		Ampara	LK-52	7.23699	81.550391	Kalmunai	PS-520123	7.414289	81.825006	7.403172	81.831146	A4, Ashraff Memorial Base Hospital, A4 A4, Kalmunai 32300, Sri Lanka	1.409859	
Ampara	Saindamarudu	APC Clinic	False	False	MPRSNDMRDPCCLNC		Ampara	LK-52	7.23699	81.550391	Saindamarudu		7.397352	81.842377	7.298334	81.690841	Dharmapala Mawatha, Ampara, Sri Lanka	20.018935	#CenterFarFromPolice
Ampara	Saindamarudu	Saindamarudu Hospital	False	False	MPRSNDMRDSNDMRDHSPTL		Ampara	LK-52	7.23699	81.550391	Saindamarudu		7.397352	81.842377	6.900252	79.87618	08 Elvitigala Mawatha, Colombo 00800, Sri Lanka	223.932389	#CenterFarFromPolice
Ampara	Saindamarudu	MOH Office - Saindamarudu	False	False	MPRSNDMRDMHFFCSNDMRD		Ampara	LK-52	7.23699	81.550391	Saindamarudu		7.397352	81.842377	7.939573	81.000275	Thamankaduwa, Sri Lanka	110.700687	#CenterFarFromPolice
Ampara	Sammanthurai	Miranagar Health Centre	False	False	MPRSMMNTHRMRNGRHLTHCNTR		Ampara	LK-52	7.23699	81.550391	Samanthurai	PS-520124	7.365785	81.810859	7.359802	81.793874	Vilinaiyadi Rd, Sammanthurai, Sri Lanka	1.988336	
Ampara	Sammanthurai	Bavalodei Health Centre	False	False	MPRSMMNTHRBVLDHLTHCNTR		Ampara	LK-52	7.23699	81.550391	Samanthurai	PS-520124	7.365785	81.810859	7.359802	81.793874	Vilinaiyadi Rd, Sammanthurai, Sri Lanka	1.988336	
Ampara	Sammanthurai	Arasadithottam Health Centre	False	False	MPRSMMNTHRRSDTHTTMHLTHCNTR		Ampara	LK-52	7.23699	81.550391	Samanthurai	PS-520124	7.365785	81.810859	7.359802	81.793874	Vilinaiyadi Rd, Sammanthurai, Sri Lanka	1.988336	
Ampara	Sammanthurai	Al Marjan Vidyalaya - Sammanthurai	False	False	MPRSMMNTHRLMRJNVDYLYSMMNTHR		Ampara	LK-52	7.23699	81.550391	Samanthurai	PS-520124	7.365785	81.810859	7.363097	81.80006	Sammanthurai, Sri Lanka	1.22821	
Ampara	Sammanthurai	Vavalodai Health Centre	False	False	MPRSMMNTHRVVLDHLTHCNTR		Ampara	LK-52	7.23699	81.550391	Samanthurai	PS-520124	7.365785	81.810859	7.359802	81.793874	Vilinaiyadi Rd, Sammanthurai, Sri Lanka	1.988336	
Ampara	Sammanthurai	Arasady Health Centre	False	False	MPRSMMNTHRRSDYHLTHCNTR		Ampara	LK-52	7.23699	81.550391	Samanthurai	PS-520124	7.365785	81.810859	7.368169	81.812056	Hospital Rd, Sammanthurai, Sri Lanka	0.296229	
Ampara	Sammanthurai	Attapalam Health Centre	False	False	MPRSMMNTHRTTPLMHLTHCNTR		Ampara	LK-52	7.23699	81.550391	Samanthurai	PS-520124	7.365785	81.810859	7.359802	81.793874	Vilinaiyadi Rd, Sammanthurai, Sri Lanka	1.988336	
Ampara	Sammanthurai	Sammanthurai Base Hospital	False	False	MPRSMMNTHRSMMNTHRBSHSPTL		Ampara	LK-52	7.23699	81.550391	Samanthurai	PS-520124	7.365785	81.810859	7.368355	81.813042	9R96+MWM, Hospital Rd, Sammanthurai, Sri Lanka	0.373773	
Ampara	Sammanthurai	Town Hall - Sammanthurai	False	False	MPRSMMNTHRTWNHLLSMMNTHR		Ampara	LK-52	7.23699	81.550391	Samanthurai	PS-520124	7.365785	81.810859	7.363356	81.804123	9R73+8JX, Sammanthurai, Sri Lanka	0.790657	
Ampara	Sammanthurai	Malwatta Hospital	False	False	MPRSMMNTHRMLWTTHSPTL		Ampara	LK-52	7.23699	81.550391	Samanthurai	PS-520124	7.365785	81.810859	7.368355	81.813042	9R96+MWM, Hospital Rd, Sammanthurai, Sri Lanka	0.373773	
Ampara	Sammanthurai	MOH Office - Nintavur	False	False	MPRSMMNTHRMHFFCNNTVR		Ampara	LK-52	7.23699	81.550391	Samanthurai	PS-520124	7.365785	81.810859	7.352821	81.856939	Hospital Rd, Nintavur 32340, Sri Lanka	5.283925	
Ampara	Sammanthurai	MOH Office - Sammanthurai	False	False	MPRSMMNTHRMHFFCSMMNTHR		Ampara	LK-52	7.23699	81.550391	Samanthurai	PS-520124	7.365785	81.810859	7.369857	81.812264	9R96+WWR, Sammanthurai, Sri Lanka	0.478712	
Ampara	Sammanthurai	Al Arshath Maha Vidyalaya	False	False	MPRSMMNTHRLRSHTHMHVDYLY		Ampara	LK-52	7.23699	81.550391	Samanthurai	PS-520124	7.365785	81.810859	7.355148	81.795447	9Q4W+354, Sammanthurai, Sri Lanka	2.071316	
