district	police	center	dose1	dose2	fuzzy_key	alt_name	district_name_norm	district_id	district_lat	district_lng	ps_name_norm	ps_id	ps_lat	ps_lng	lat	lng	formatted_address	dis_center_to_police	tags
Colombo	Cinnamon Gardens	Viharamahadevi Park	False	False	CLMBCNNMNGRDNSVHRMHDVPRK		Colombo	LK-11	6.869636	80.019598	Cinnamon Garden	PS-110324	6.907289	79.863819	6.913391	79.86174	Viharamahadevi Park, Colombo, Sri Lanka	0.716497	
Colombo	Thalangama	MOH Office - Battaramulla	False	False	CLMBTHLNGMMHFFCBTTRMLL		Colombo	LK-11	6.869636	80.019598	Thalangama	PS-110466	6.91089	79.929325	6.901538	79.919128	WW29+JM6, Battaramulla 10120, Sri Lanka	1.532936	
Colombo	Thalangama	Diyatha Uyana	False	False	CLMBTHLNGMDYTHYN		Colombo	LK-11	6.869636	80.019598	Thalangama	PS-110466	6.91089	79.929325	6.904575	79.909831	Diyatha Uyana, B240, Sri Jayawardenepura Kotte, Sri Lanka	2.264281	
Colombo	Narahenpita	Army Hospital- Narahenpita	False	False	CLMBNRHNPTRMYHSPTLNRHNPT		Colombo	LK-11	6.869636	80.019598	Narahenpita	PS-110321	6.891832	79.876715	6.900252	79.87618	08 Elvitigala Mawatha, Colombo 00800, Sri Lanka	0.938417	
Colombo	Narahenpita	Mobile Team	False	False	CLMBNRHNPTMBLTM		Colombo	LK-11	6.869636	80.019598	Narahenpita	PS-110321	6.891832	79.876715					#CenterLocationUnknown
Colombo	Homagama	Panagoda Bodhirajarama Viharaya	False	False	CLMBHMGMPNGDBDHRJRMVHRY		Colombo	LK-11	6.869636	80.019598	Homagama	PS-110470	6.836155	80.003474	6.929161	79.88265	Gnanawimala Rd, Colombo, Sri Lanka	16.883101	
Colombo	Mirihana	MOH Office - Beddagana	False	False	CLMBMRHNMHFFCBDDGN		Colombo	LK-11	6.869636	80.019598	Mirihana	PS-110462	6.873714	79.901724	6.885731	79.908328	Baddagana Rd, Sri Jayawardenepura Kotte 10100, Sri Lanka	1.522652	
Colombo	Boralesgamuwa	Kotelawala Defence Hospital	False	False	CLMBBRLSGMWKTLWLDFNCHSPTL		Colombo	LK-11	6.869636	80.019598	Boralesgamuwa	PS-110464	6.841331	79.901255	6.82518	79.907167	RWG4+3VF, Boralesgamuwa, Sri Lanka	1.911444	
Colombo	Boralesgamuwa	MOH Office - Werahera	False	False	CLMBBRLSGMWMHFFCWRHR		Colombo	LK-11	6.869636	80.019598	Boralesgamuwa	PS-110464	6.841331	79.901255	6.833094	79.905583	RWM4+66P, Boralesgamuwa, Sri Lanka	1.033386	
Colombo	Dehiwala	MOH Office - Dehiwala	False	False	CLMBDHWLMHFFCDHWL		Colombo	LK-11	6.869636	80.019598	Dehiwala	PS-110580	6.850088	79.871696	6.861346	79.865943	VV68+G9P, Dehiwala-Mount Lavinia, Sri Lanka	1.404177	
Colombo	Grandpass	Fouzi Maternity Clinic	False	False	CLMBGRNDPSSFZMTRNTYCLNC		Colombo	LK-11	6.869636	80.019598	Grandpass	PS-110215	6.949052	79.872983	6.967647	79.870269	Hubert Pl, Colombo, Sri Lanka	2.089913	
Colombo	Foreshore	MOH Office - Jinthupitiya	False	False	CLMBFRSHRMHFFCJNTHPTY		Colombo	LK-11	6.869636	80.019598	Fore shore	PS-110210	6.949589	79.857355	6.943258	79.859238	No.27 Vivekananda Hill, Colombo 01300, Sri Lanka	0.734247	
Colombo	Mulleriyawa	MOH Office - Gothatuwa	False	False	CLMBMLLRYWMHFFCGTHTW		Colombo	LK-11	6.869636	80.019598	Mulleriyawa	PS-110469	6.927187	79.929108	6.922088	79.916237	Mandavila Rd, Kotikawatta, Sri Lanka	1.530186	
Colombo	Wellampitiya	MOH Office - Kolonnawa	False	False	CLMBWLLMPTYMHFFCKLNNW		Colombo	LK-11	6.869636	80.019598	Wellampitiya	PS-110465	6.937514	79.896298	6.938303	79.889664	25 Pansalhena 1st Ln, 10600, Sri Lanka	0.737734	
Colombo	Kaduwela	MOH Office - Kaduwela	False	False	CLMBKDWLMHFFCKDWL		Colombo	LK-11	6.869636	80.019598	Kaduwela		6.936234	79.970183	6.934127	79.984398	B263, Kaduwela, Sri Lanka	1.586964	
Colombo	Maradana	National Hospital - Colombo	False	False	CLMBMRDNNTNLHSPTLCLMB		Colombo	LK-11	6.869636	80.019598	Maradana	PS-110107	6.927939	79.865471	6.918743	79.868992	Colombo 00700, Sri Lanka	1.094265	
Colombo	Kosgama	Kosgama Hospital	False	False	CLMBKSGMKSGMHSPTL		Colombo	LK-11	6.869636	80.019598	Kosgama	PS-920227	6.946597	80.137869	6.940956	80.124888	Salawa-Akarawita, 10730, Sri Lanka	1.564606	
Gampaha	Minuwangoda	Mathammana Viharaya	False	False	GMPHMNWNGDMTHMMNVHRY		Gampaha	LK-12	7.123598	80.018508	Minuwangoda	PS-120238	7.174215	79.957874	7.151803	79.925135	Opatha Rd, Sri Lanka	4.389669	
Gampaha	Minuwangoda	Madelgamuwa Viharaya	False	False	GMPHMNWNGDMDLGMWVHRY		Gampaha	LK-12	7.123598	80.018508	Minuwangoda	PS-120238	7.174215	79.957874	7.110015	79.989902	4X6Q+2X2, Gampaha, Sri Lanka	7.967951	
Gampaha	Veyangoda	Rukmale Maternity Clinic	False	False	GMPHVYNGDRKMLMTRNTYCLNC		Gampaha	LK-12	7.123598	80.018508	Weyangoda	PS-120247	7.144053	80.095511	7.165434	80.052146	Banduragoda - Veyangoda Rd, Veyangoda, Sri Lanka	5.344242	
Gampaha	Pallewela	Pallewela Government Dispensary	False	False	GMPHPLLWLPLLWLGVRNMNTDSPNSRY		Gampaha	LK-12	7.123598	80.018508	Pallewela	PS-120249	7.197365	80.094856	7.197393	80.094227	Kaleliya - Medagampitiya Rd, Pallewela, Sri Lanka	0.069482	
Gampaha	Biyagama	MOH Office - Biyagama	False	False	GMPHBYGMMHFFCBYGM		Gampaha	LK-12	7.123598	80.018508	Biyagama	PS-120131	6.962284	80.009037	6.946824	79.994052	Hospital Rd, Sri Lanka	2.386313	
Gampaha	Kelaniya	Pilapitiya Baraneskanda Viharaya	False	False	GMPHKLNYPLPTYBRNSKNDVHRY		Gampaha	LK-12	7.123598	80.018508	Kelaniya	PS-120126	6.950251	79.917459	6.951431	79.91867	Kelaniya, Peliyagoda 11600, Sri Lanka	0.187363	
Gampaha	Malwathu Hiripitiya	Kirigana Jayasumanaramaya	False	False	GMPHMLWTHHRPTYKRGNJYSMNRMY		Gampaha	LK-12	7.123598	80.018508	Malwathuhiripitiya	PS-120245	7.054288	80.069365	7.055297	80.068859	Malwathu Hiripitiya, Sri Lanka	0.125462	
Gampaha	Gampaha	Pahala Imbulgoda Viharaya	False	False	GMPHGMPHPHLMBLGDVHRY		Gampaha	LK-12	7.123598	80.018508	Gampaha	PS-120237	7.087765	80.01228	7.035898	79.990784	A1, Pahala Imbulgoda, Sri Lanka	6.23808	
Gampaha	Pugoda	MOH Office – Dompe	False	False	GMPHPGDMHFFCDMP		Gampaha	LK-12	7.123598	80.018508	Pugoda	PS-120241	6.98283	80.111189	6.976767	80.117422	Dompe, Pugoda-Mandawala Rd, Pugoda, Sri Lanka	0.963513	
Gampaha	Negombo	Municipal Council – Negombo	False	False	GMPHNGMBMNCPLCNCLNGMB		Gampaha	LK-12	7.123598	80.018508	Negombo	PS-120351	7.224796	79.880015	7.20614	79.851928	Colombo Rd, Negombo, Sri Lanka	3.729901	
Gampaha	Katana	MOH Office - Katana	False	False	GMPHKTNMHFFCKTN		Gampaha	LK-12	7.123598	80.018508	Katana	PS-120360	7.224796	79.880015	7.22436	79.88271	Katana, Negombo - Mirigama Rd, Negombo, Sri Lanka	0.301313	
Gampaha	Katana	Kimbulapitiya Polgalawatta Community Hal	False	False	GMPHKTNKMBLPTYPLGLWTTCMMNTYHL		Gampaha	LK-12	7.123598	80.018508	Katana	PS-120360	7.224796	79.880015	7.20117	79.892376	Molawatta Rd, Kimbulapitiya, Sri Lanka	2.960832	
Gampaha	Katunayaka	Kovinna Maternity Clinic	False	False	GMPHKTNYKKVNNMTRNTYCLNC		Gampaha	LK-12	7.123598	80.018508	Katunayaka	PS-120358	7.165898	79.882607	7.09136	80.000709	A33, Gampaha, Sri Lanka	15.448215	
Gampaha	Divulapitiya	MOH Office - Divulapitiya	False	False	GMPHDVLPTYMHFFCDVLPTY		Gampaha	LK-12	7.123598	80.018508	Diulapitiya	PS-120355	7.174215	79.957874	7.215486	80.013606	6287+5CX, Divulapitiya, Sri Lanka	7.67456	
Gampaha	Divulapitiya	Dunagaha Central Dispensary	False	False	GMPHDVLPTYDNGHCNTRLDSPNSRY		Gampaha	LK-12	7.123598	80.018508	Diulapitiya	PS-120355	7.174215	79.957874	7.230314	80.016474	Divulapitiya, Sri Lanka	8.986298	
Gampaha	Divulapitiya	Wekada Central Dispensary	False	False	GMPHDVLPTYWKDCNTRLDSPNSRY		Gampaha	LK-12	7.123598	80.018508	Diulapitiya	PS-120355	7.174215	79.957874	7.261385	79.958626	7X65+HF2, Akaragama, Sri Lanka	9.69626	
Gampaha	Kotadeniyawa	Kotadeniyawa Central Dispensary	False	False	GMPHKTDNYWKTDNYWCNTRLDSPNSRY		Gampaha	LK-12	7.123598	80.018508	Kotadeniyawa	PS-120354	7.283643	80.06649	7.284487	80.063252	B322, Kotadeniyawa, Sri Lanka	0.369384	
Gampaha	Kotadeniyawa	Badalgama Central Dispensary	False	False	GMPHKTDNYWBDLGMCNTRLDSPNSRY		Gampaha	LK-12	7.123598	80.018508	Kotadeniyawa	PS-120354	7.283643	80.06649	7.284487	80.063252	B322, Kotadeniyawa, Sri Lanka	0.369384	
Gampaha	Pamunugama	Pamunugama Hospital	False	False	GMPHPMNGMPMNGMHSPTL		Gampaha	LK-12	7.123598	80.018508	Pamunugama	PS-120353	7.078892	79.859696	7.093543	79.850191	3VV2+C38, Negombo, Sri Lanka	1.938152	
Gampaha	Ja Ela	MOH Office – Ja Ela	False	False	GMPHJLMHFFCJL		Gampaha	LK-12	7.123598	80.018508	Ja - Ela	PS-120133	7.081055	79.890504	7.075216	79.893879	60 Mount Kalvary Rd, Ja-Ela, Sri Lanka	0.748731	
Gampaha	Wattala	MOH Office – Wattala	False	False	GMPHWTTLMHFFCWTTL		Gampaha	LK-12	7.123598	80.018508	Wattala	PS-120128	6.993713	79.894506	6.995817	79.885793	301 Hendala Rd, Wattala, Sri Lanka	0.989991	
Gampaha	Ragama	MOH Office – Ragama	False	False	GMPHRGMMHFFCRGM		Gampaha	LK-12	7.123598	80.018508	Ragama	PS-120134	7.034975	79.924148	7.027386	79.920232	2WGC+X35, Ragama, Sri Lanka	0.948382	
Kalutara	Kalutara South	Dharama Wijaya Pirivena	False	False	KLTRKLTRSTHDHRMWJYPRVN		Kalutara	LK-13	6.577316	80.127363	Kalutara South	PS-130296	6.58486	79.961043	6.584045	79.965254	HXM8+J46, Kalutara, Sri Lanka	0.474048	
Kalutara	Kalutara South	Mobile Team 1	False	False	KLTRKLTRSTHMBLTM		Kalutara	LK-13	6.577316	80.127363	Kalutara South	PS-130296	6.58486	79.961043					#CenterLocationUnknown
Kalutara	Beruwala	Beruwala Hospital	False	False	KLTRBRWLBRWLHSPTL		Kalutara	LK-13	6.577316	80.127363	Beruwala	PS-1302102	6.480329	79.983498	6.472087	79.983492	FXCM+R9Q, Beruwala, Sri Lanka	0.916757	
Kalutara	Bandaragama	MOH Office - Bandaragama	False	False	KLTRBNDRGMMHFFCBNDRGM		Kalutara	LK-13	6.577316	80.127363	Bandaragama	PS-130189	6.715179	79.987674	6.713351	79.991671	Library Path, Bandaragama, Sri Lanka	0.486104	
Kalutara	Bandaragama	Rerukana Maternity Clinic	False	False	KLTRBNDRGMRRKNMTRNTYCLNC		Kalutara	LK-13	6.577316	80.127363	Bandaragama	PS-130189	6.715179	79.987674	6.709889	79.991169	No 121 Kalutara-Matugama Rd, Bandaragama 12530, Sri Lanka	0.703763	
Kalutara	Millaniya	MOH Office - Millaniya	False	False	KLTRMLLNYMHFFCMLLNY		Kalutara	LK-13	6.577316	80.127363	Millaniya	PS-130191	6.681692	80.020847	6.724224	79.907284	A2, Panadura, Sri Lanka	13.407612	
Kalutara	Thebuwana	Nebada Hospital	False	False	KLTRTHBWNNBDHSPTL		Kalutara	LK-13	6.577316	80.127363	Thebuwana	PS-1302105	6.654997	80.058183	6.563228	79.985261	Kalutara-Matugama Rd, Sri Lanka	13.004249	
Kalutara	Agalawatta	Pimbura Hospital	False	False	KLTRGLWTTPMBRHSPTL		Kalutara	LK-13	6.577316	80.127363	Agalawatta		6.542566	80.157178	6.575949	80.158371	H5G5+98H, කළුතර, Sri Lanka	3.715525	
Kalutara	Meegahathenna	MOH Office - Meegahathenna	False	False	KLTRMGHTHNNMHFFCMGHTHNN		Kalutara	LK-13	6.577316	80.127363	Meegahathenna	PS-1302107	6.436941	80.1943	6.435016	80.198501	B158, Meegahathenna, Sri Lanka	0.511322	
Kalutara	Baduraliya	Baduraliya Hospital	False	False	KLTRBDRLYBDRLYHSPTL		Kalutara	LK-13	6.577316	80.127363	Baduraliya	PS-1302106	6.516756	80.226716	6.514727	80.232731	Tiruwanaketiya-Agalawatte Rd, Baduraliya, Sri Lanka	0.702098	
Kalutara	Baduraliya	Athale Vidyalaya	False	False	KLTRBDRLYTHLVDYLY		Kalutara	LK-13	6.577316	80.127363	Baduraliya	PS-1302106	6.516756	80.226716	6.455067	80.26489	F747+2XC, කළුතර, Sri Lanka	8.054908	
Kalutara	Matugama	Weththewa Hospital	False	False	KLTRMTGMWTHTHWHSPTL		Kalutara	LK-13	6.577316	80.127363	Mathugama	PS-1302103	6.520881	80.117908	6.523087	80.125192	District Hospital, Hospital Road,Weththewa,., Matugama, Sri Lanka	0.841523	
Kalutara	Horana	Base Hospital Horana	False	False	KLTRHRNBSHSPTLHRN		Kalutara	LK-13	6.577316	80.127363	Horana	PS-130192	6.714613	80.069091	6.710644	80.066589	Hospital Ln, Horana, Sri Lanka	0.520853	
Kalutara	Ingiriya	Ingiriya Gamini Central College	False	False	KLTRNGRYNGRYGMNCNTRLCLLG		Kalutara	LK-13	6.577316	80.127363	Ingiriya	PS-130193	6.743614	80.175077	6.744647	80.17251	A8, Ingiriya, Sri Lanka	0.305947	
Kalutara	Ingiriya	Maha Ingiriya Clinic	False	False	KLTRNGRYMHNGRYCLNC		Kalutara	LK-13	6.577316	80.127363	Ingiriya	PS-130193	6.743614	80.175077	6.741114	80.162065	Ratnapura - Horana - Panadura Hwy, Ingiriya, Sri Lanka	1.463965	
Kalutara	Ingiriya	Ingiriya Hospital	False	False	KLTRNGRYNGRYHSPTL		Kalutara	LK-13	6.577316	80.127363	Ingiriya	PS-130193	6.743614	80.175077	6.741133	80.162046	Panadura-Nambapana-Ratnapura Hwy, Ingiriya, Sri Lanka	1.465626	
Kurunegala	Kurunegala	Mobile Vaccination	False	False	KRNGLKRNGLMBLVCCNTN		Kurunegala	LK-61	7.66477	80.23677	Kurunegala	PS-610101	7.485852	80.364137					#CenterLocationUnknown
Kurunegala	Dankotuwa	MOH Office - Dankotuwa	False	False	KRNGLDNKTWMHFFCDNKTW		Kurunegala	LK-61	7.66477	80.23677	Dankotuwa	PS-620246	7.300337	79.882595	7.29759	79.888187	146 Negombo-Kurunegala Rd, Dankotuwa, Sri Lanka	0.688474	
Kandy	Kandy	Mobile Vaccination	False	False	KNDYKNDYMBLVCCNTN		Kandy	LK-21	7.27337	80.709602	Kandy	PS-210101	7.292948	80.642368					#CenterLocationUnknown
Kandy	Gampola	Ulapane Rathnawali Vidyalaya	False	False	KNDYGMPLLPNRTHNWLVDYLY		Kandy	LK-21	7.27337	80.709602	Gampola	PS-210216	7.132941	80.56799	7.145143	80.536914	Gampola - Dolosbage Rd, Sri Lanka	3.688558	
Kandy	Peradeniya	Augustawatta Youth Corps	False	False	KNDYPRDNYGSTWTTYTHCRPS		Kandy	LK-21	7.27337	80.709602	Peradeniya	PS-210110	7.267283	80.601901	7.260653	80.61093	Kandy, Sri Lanka	1.239484	
Kandy	Peradeniya	Rajawatta Sewa Piyasa	False	False	KNDYPRDNYRJWTTSWPYS		Kandy	LK-21	7.27337	80.709602	Peradeniya	PS-210110	7.267283	80.601901	7.268273	80.596599	Royal Botanic Gardens, Peradeniya Rd, Kandy, Sri Lanka	0.595276	
Kandy	Peradeniya	Bharathiya Pirivena	False	False	KNDYPRDNYBHRTHYPRVN		Kandy	LK-21	7.27337	80.709602	Peradeniya	PS-210110	7.267283	80.601901	7.257503	80.588885	Penideniya Rd, Peradeniya, Sri Lanka	1.801639	
Nuwara Eliya	Nuwara Eliya	Mobile Vaccination	False	False	NWRLYNWRLYMBLVCCNTN		Nuwara Eliya	LK-23	6.97423	80.711222	Nuwaraeliya	PS-230131	6.974148	80.767627					#CenterLocationUnknown
Nuwara Eliya	Pundaluoya	Dansinanwatta Tamil Maha Vidyalaya	False	False	NWRLYPNDLYDNSNNWTTTMLMHVDYLY		Nuwara Eliya	LK-23	6.97423	80.711222	Pudalu oya	PS-230132	6.907289	79.863819	7.014561	80.667559	Pundaluoya, Sri Lanka	89.539447	#CenterFarFromPolice
Nuwara Eliya	Matale	Matale District	False	False	NWRLYMTLMTLDSTRCT		Nuwara Eliya	LK-23	6.97423	80.711222	Matale	PS-220121	7.462789	80.626211	6.949717	80.789107	Nuwara Eliya, Sri Lanka	59.832993	#CenterFarFromPolice
Badulla	Badulla	Mobile Vaccination	False	False	BDLLBDLLMBLVCCNTN		Badulla	LK-81	7.074529	81.04486	Badulla	PS-810101	6.991337	81.055246					#CenterLocationUnknown
Badulla	Haldummulla	MOH Office - Haldummulla	False	False	BDLLHLDMMLLMHFFCHLDMMLL		Badulla	LK-81	7.074529	81.04486	Haldummulla		6.762216	80.885856	6.761089	80.876292	QV6G+CGM, Badulla, Sri Lanka	1.063814	
Badulla	Uva Paranagama	MOH Office - Uva Paranagama	False	False	BDLLVPRNGMMHFFCVPRNGM		Badulla	LK-81	7.074529	81.04486	Uvaparanagama	PS-810213	6.958341	80.930364	6.927934	80.896475	Udapussellawa-Welimada Road, Ambagasdowa, Sri Lanka	5.043837	
Badulla	Bandarawela	MOH Office - Bandarawela	False	False	BDLLBNDRWLMHFFCBNDRWL		Badulla	LK-81	7.074529	81.04486	Bandarawela	PS-810210	6.831526	80.986784	6.841272	80.98482	Hospital Junction Helamuduna Bus Stop, Etampitiya Rd, Bandarawela, Sri Lanka	1.105533	
Moneragala	Monaragala	Mobile Vaccination	False	False	MNRGLMNRGLMBLVCCNTN		Moneragala	LK-82	6.787517	81.303744	Monaragala	PS-820121	6.869866	81.348106					#CenterLocationUnknown
Monaragala	Hambegamuwa	Muthumala Rajamaha Viharaya	False	False	MNRGLHMBGMWMTHMLRJMHVHRY		Moneragala	LK-82	6.787517	81.303744	Hambegamuwa	PS-820132	6.545791	80.947866	6.541322	80.949288	Bodagama-Hambegamuwa-Kaltota Rd, Sri Lanka	0.521332	
Monaragala	Hambegamuwa	Laginagala Vidyalaya	False	False	MNRGLHMBGMWLGNGLVDYLY		Moneragala	LK-82	6.787517	81.303744	Hambegamuwa	PS-820132	6.545791	80.947866	6.534546	80.959523	Janapadaya Junction, Bodagama-Hambegamuwa-Kaltota Rd, Sri Lanka	1.795502	
Monaragala	Dambagalla	Udumulla Central College	False	False	MNRGLDMBGLLDMLLCNTRLCLLG		Moneragala	LK-82	6.787517	81.303744	Dambagalla	PS-820123	6.978806	81.372037	6.98417	81.374688	Dambagalla,Monaragala, Sri Lanka	0.66456	
Monaragala	Dambagalla	Deliwa Maha Vidyalaya	False	False	MNRGLDMBGLLDLWMHVDYLY		Moneragala	LK-82	6.787517	81.303744	Dambagalla	PS-820123	6.978806	81.372037	6.961757	81.371229	X96C+PF5, Dambagalla, Sri Lanka	1.898455	
Monaragala	Dambagalla	Baduluwela Primary School	False	False	MNRGLDMBGLLBDLWLPRMRYSCHL		Moneragala	LK-82	6.787517	81.303744	Dambagalla	PS-820123	6.978806	81.372037	7.08556	81.433739	3CPM+6FH, Monaragala, Sri Lanka	13.689175	
Galle	Galle	Mobile Vaccination	False	False	GLLGLLMBLVCCNTN		Galle	LK-31	6.222805	80.251977	Galle	PS-310120	6.032983	80.21714					#CenterLocationUnknown
Galle	Udugama	Udugama Maha Vidyalaya	False	False	GLLDGMDGMMHVDYLY		Galle	LK-31	6.222805	80.251977	Udugama	PS-310133	6.210944	80.339616	6.207589	80.338195	B320, Udugama, Sri Lanka	0.404908	
Matara	Matara	Wewahamanduwa Vidyalaya	False	False	MTRMTRWWHMNDWVDYLY		Matara	LK-32	6.142734	80.539994	Matara	PS-320101	5.94904	80.533659	5.967812	80.451926	AH 43, Sri Lanka	9.279985	
Matara	Matara	University of Ruhuna	False	False	MTRMTRNVRSTYFRHN		Matara	LK-32	6.142734	80.539994	Matara	PS-320101	5.94904	80.533659	5.938092	80.576134	A2, Matara, Sri Lanka	4.854312	
Matara	Hakmana	Town Hall - Hakmana	False	False	MTRHKMNTWNHLLHKMN		Matara	LK-32	6.142734	80.539994	Hakmana	PS-320106	6.084824	80.643227	6.079554	80.657662	Hakmana, Sri Lanka	1.700772	
Matara	Mawarala	Keppetipola Maha Vidyalaya	False	False	MTRMWRLKPPTPLMHVDYLY		Matara	LK-32	6.142734	80.539994	Mawarala	PS-320109	6.198061	80.587045	7.073732	80.015005	32F8+F2R, Gampaha, Sri Lanka	116.108873	#CenterFarFromPolice
Matara	Deiyandara	Athapaththukanda Primary School	False	False	MTRDYNDRTHPTHTHKNDPRMRYSCHL		Matara	LK-32	6.142734	80.539994	Deyyandara	PS-320119	6.198061	80.587045	6.153128	80.604283	5J33+7P3, Deiyandara, Sri Lanka	5.349085	
Matara	Kotawila	Kamburagamuwa Maha Vidyalaya	False	False	MTRKTWLKMBRGMWMHVDYLY		Matara	LK-32	6.142734	80.539994	Kotawila	PS-320115	5.967553	80.493921	5.943445	80.494334	medagoda Kamburugamuwa - Labima Rd, Matara, Sri Lanka	2.681918	
Matara	Gandara	MOH Office - Devinuwara	False	False	MTRGNDRMHFFCDVNWR		Matara	LK-32	6.142734	80.539994	Gandara	PS-320102	5.941629	80.614037	5.925907	80.586456	Port Access Road, Dondra, Sri Lanka	3.516979	
Hambantota	Hambantota	Mobile Vaccination	False	False	HMBNTTHMBNTTMBLVCCNTN		Hambantota	LK-33	6.259779	81.098619	Hambantota	PS-330156	6.125872	81.12521					#CenterLocationUnknown
Hambantota	Hambantota	MOH Office - Hambantota	False	False	HMBNTTHMBNTTMHFFCHMBNTT		Hambantota	LK-33	6.259779	81.098619	Hambantota	PS-330156	6.125872	81.12521	6.171162	81.127	54CG+FQ9, Hambantota, Sri Lanka	5.041487	
Hambantota	Walasmulla	MOH Office - Walasmulla	False	False	HMBNTTWLSMLLMHFFCWLSMLL		Hambantota	LK-33	6.259779	81.098619	Walasmulla	PS-330151	6.154102	80.698256	6.150889	80.693718	Walasmulla, Sri Lanka	0.616099	
Hambantota	Weeraketiya	MOH Office - Weeraketiya	False	False	HMBNTTWRKTYMHFFCWRKTY		Hambantota	LK-33	6.259779	81.098619	Weeraketiya	PS-330149	6.153899	80.76737	6.144703	80.765287	4QV8+V4M, Weeraketiya, Sri Lanka	1.048488	
Hambantota	Katuwana	Siyarapitiya Maha Vidyalaya	False	False	HMBNTTKTWNSYRPTYMHVDYLY		Hambantota	LK-33	6.259779	81.098619	Katuwana	PS-330153	6.269722	80.690963	6.290408	80.693009	7MRV+566, Hambantota, Sri Lanka	2.311993	
Hambantota	Katuwana	Udagomadiya Maha Vidyalaya	False	False	HMBNTTKTWNDGMDYMHVDYLY		Hambantota	LK-33	6.259779	81.098619	Katuwana	PS-330153	6.269722	80.690963	6.249382	80.70948	Julampitiya Rd, Katuwana, Sri Lanka	3.051265	
Hambantota	Katuwana	Hingurakanda Maha Vidyalaya	False	False	HMBNTTKTWNHNGRKNDMHVDYLY		Hambantota	LK-33	6.259779	81.098619	Katuwana	PS-330153	6.269722	80.690963	6.249382	80.70948	Julampitiya Rd, Katuwana, Sri Lanka	3.051265	
Hambantota	Angunukolapelessa	MOH Office - Angunukolapelessa	False	False	HMBNTTNGNKLPLSSMHFFCNGNKLPLSS		Hambantota	LK-33	6.259779	81.098619	Angunakolapelessa	PS-330150	6.321993	80.844883	6.164691	80.898963	Unnamed Road, Agunukolapelessa, Sri Lanka	18.490258	
Hambantota	Angunukolapelessa	Dambarella Maha Vidyalaya	False	False	HMBNTTNGNKLPLSSDMBRLLMHVDYLY		Hambantota	LK-33	6.259779	81.098619	Angunakolapelessa	PS-330150	6.321993	80.844883	6.07308	80.704144	Hakmana - Beliatte - Tangalle Rd, Sri Lanka	31.760796	#CenterFarFromPolice
Hambantota	Angunukolapelessa	Talawa Hospital	False	False	HMBNTTNGNKLPLSSTLWHSPTL		Hambantota	LK-33	6.259779	81.098619	Angunakolapelessa	PS-330150	6.321993	80.844883	8.233797	80.348381	68MX+G96, Talawa, Sri Lanka	219.591722	#CenterFarFromPolice
Hambantota	Ambalantota	MOH Office - Ambalantota	False	False	HMBNTTMBLNTTMHFFCMBLNTT		Hambantota	LK-33	6.259779	81.098619	Ambalantota	PS-330157	6.12516	81.023981	6.122767	81.005973	Walawa watta Road, Malpeththawa, Ambalantota, Sri Lanka	2.009195	
Hambantota	Sooriyawewa	MOH Office - Sooriyawewa	False	False	HMBNTTSRYWWMHFFCSRYWW		Hambantota	LK-33	6.259779	81.098619	Sooriyawewa	PS-330155	6.306022	81.003873	6.304862	81.004768	8233+WWR, Sooriyawewa, Sri Lanka	0.1626	
Hambantota	Tissamaharama	Yodhakandiya Dansal Hall	False	False	HMBNTTTSSMHRMYDHKNDYDNSLHLL		Hambantota	LK-33	6.259779	81.098619	Tissamaharamaya	PS-330158	6.26109	81.236724	6.24806	81.315185	Yodhakandiya, Sri Lanka	8.795488	
Hambantota	Tissamaharama	Muthiyammagama Primary School	False	False	HMBNTTTSSMHRMMTHYMMGMPRMRYSCHL		Hambantota	LK-33	6.259779	81.098619	Tissamaharamaya	PS-330158	6.26109	81.236724	6.284838	81.276204	77MG+WFP, Tissamaharama, Sri Lanka	5.102079	
Hambantota	Beliatta	MOH Office – Beliatta	False	False	HMBNTTBLTTMHFFCBLTT		Hambantota	LK-33	6.259779	81.098619	Beliatta	PS-330152	6.046936	80.735408	6.051828	80.741735	3P2R+PMQ, Hambantota, Sri Lanka	0.886482	
Hambantota	Tangalle	MOH Office – Tangalle	False	False	HMBNTTTNGLLMHFFCTNGLL		Hambantota	LK-33	6.259779	81.098619	Tangalle	PS-330147	6.023954	80.797255	6.02363	80.795742	2QFW+F75, Tangalle, Sri Lanka	0.171198	
Hambantota	Samanalawewa	University of Sabaragamuwa	False	False	HMBNTTSMNLWWNVRSTYFSBRGMW		Hambantota	LK-33	6.259779	81.098619									#PoliceLocationUnknown
Rathnapura	Pinnawala	MOH Office - Imbulpe	False	False	RTHNPRPNNWLMHFFCMBLP		Ratnapura	LK-91	6.586826	80.566158	Pinnawala	PS-910115	7.299943	80.386604	6.673445	80.719412	Colombo - Ratnapura - Wellawaya - Batticaloa Rd, Sri Lanka	78.778756	#CenterFarFromPolice
Rathnapura	Bulathkohupitiya	MOH Office - Bulathkohupitiya	False	False	RTHNPRBLTHKHPTYMHFFCBLTHKHPTY		Ratnapura	LK-91	6.586826	80.566158	Bulathkohupitiya	PS-920232	7.106684	80.3347	7.109127	80.334565	485M+MR4, Bulathkohupitiya, Sri Lanka	0.272143	
Kegalle	Kegalle	MOH Office - Kegalle	False	False	KGLLKGLLMHFFCKGLL		Kegalle	LK-92	7.104216	80.342866	Kegalle	PS-920118	7.255928	80.353156	7.24797	80.343583	Kegalle-Bulathkohupitiya-Karawanella Hwy, Kegalle, Sri Lanka	1.378052	
Anuradhapura	Anuradhapura	MOH Office - Nuwaragampalatha Central	False	False	NRDHPRNRDHPRMHFFCNWRGMPLTHCNTRL		Anuradhapura	LK-71	8.39199	80.512958	Anuradapura	PS-710101	8.329752	80.407265	8.341215	80.374096	Unnamed Road, Anuradhapura, Sri Lanka	3.866675	
Anuradhapura	Anuradhapura	Teaching Hospital Anuradhapura	False	False	NRDHPRNRDHPRTCHNGHSPTLNRDHPR		Anuradhapura	LK-71	8.39199	80.512958	Anuradapura	PS-710101	8.329752	80.407265	8.324765	80.413968	Harischandra Mawatha, Anuradhapura, Sri Lanka	0.922993	
Anuradhapura	Anuradhapura	MOH Office - Nuwaragampalatha East	False	False	NRDHPRNRDHPRMHFFCNWRGMPLTHST		Anuradhapura	LK-71	8.39199	80.512958	Anuradapura	PS-710101	8.329752	80.407265	8.324809	80.412262	Kandy Rd, Anuradhapura, Sri Lanka	0.777651	
Anuradhapura	Mihintale	MOH Office - Mihintale	False	False	NRDHPRMHNTLMHFFCMHNTL		Anuradhapura	LK-71	8.39199	80.512958	Mihintale	PS-710104	8.360062	80.511889	8.357612	80.509049	Puttalam - Anuradhapura - Trincomalee Hwy, Mihintale, Sri Lanka	0.41466	
Jaffna	Jaffna	Mobile Vaccination	False	False	JFFNJFFNMBLVCCNTN		Jaffna	LK-41	9.691792	80.098594	Jaffna	PS-410209	9.659919	80.010965					#CenterLocationUnknown
Jaffna	Waddukkottai	MOH Office – Chankanai	False	False	JFFNWDDKKTTMHFFCCHNKN		Jaffna	LK-41	9.691792	80.098594									#PoliceLocationUnknown
Jaffna	Kayts	MOH Office - Velanai	False	False	JFFNKYTSMHFFCVLN		Jaffna	LK-41	9.691792	80.098594	Kayts	PS-410212	9.728654	79.94775	9.636317	79.903777	Chatty vangkalvady road, Velanai, Sri Lanka	11.346015	
Jaffna	Kayts	MOH Office - Kayts	False	False	JFFNKYTSMHFFCKYTS		Jaffna	LK-41	9.691792	80.098594	Kayts	PS-410212	9.728654	79.94775	9.697759	79.866366	Sri Lanka, Kayts, Sri Lanka	9.561445	
Jaffna	Kayts	MOH Office - Karainagar	False	False	JFFNKYTSMHFFCKRNGR		Jaffna	LK-41	9.691792	80.098594	Kayts	PS-410212	9.728654	79.94775	9.725097	79.99772	Sri Lanka, Manipay, Sri Lanka	5.492521	
Jaffna	Thelippalai	MOH Office - Thelippalai	False	False	JFFNTHLPPLMHFFCTHLPPL		Jaffna	LK-41	9.691792	80.098594	Thelippalay	PS-410104	6.933075	79.857181	9.785272	80.032899	Q2PM+452, Tellippalai, Sri Lanka	317.838063	#CenterFarFromPolice
Jaffna	Chavakachcheri	Town Hall - Chavakachcheri	False	False	JFFNCHVKCHCHRTWNHLLCHVKCHCHR		Jaffna	LK-41	9.691792	80.098594	Chawakachcheri	PS-410215	9.666459	80.132384	9.659136	80.160946	M556+M94, Chavakachcheri, Sri Lanka	3.236063	
Kilinochchi	Mulankavil	Mulankavil Hospital	False	False	KLNCHCHMLNKVLMLNKVLHSPTL		Kilinochchi	LK-45	9.415742	80.30358	Mulankavil	PS-450135	9.254463	80.141528	9.243423	80.143894	Base Hospital Mulankavil, A32 Road, Mulankavil, Kumulamunai, Sri Lanka	1.255148	
Kilinochchi	Pooneryn	MOH Office – Pooneryn	False	False	KLNCHCHPNRYNMHFFCPNRYN		Kilinochchi	LK-45	9.415742	80.30358	Pooneryn		9.505717	80.21101	9.507968	80.208317	G655+58P, Pooneryn, Sri Lanka	0.387256	
Kilinochchi	Kilinochchi	MOH Office – Karachchi	False	False	KLNCHCHKLNCHCHMHFFCKRCHCH		Kilinochchi	LK-45	9.415742	80.30358	Kilinochchi	PS-450131	9.392265	80.407846	7.683586	81.730767	MPMJ+C8J, Kattankudy, Sri Lanka	239.363691	#CenterFarFromPolice
Kilinochchi	Kilinochchi	MOH Office - Kandavalai	False	False	KLNCHCHKLNCHCHMHFFCKNDVL		Kilinochchi	LK-45	9.415742	80.30358	Kilinochchi	PS-450131	9.392265	80.407846	9.411006	80.516427	Parantan-Mullaitivu Hwy, Sri Lanka	12.096188	
Kilinochchi	Mallavi	MOH Office - Mallavi	False	False	KLNCHCHMLLVMHFFCMLLV		Kilinochchi	LK-45	9.415742	80.30358	Mallavi	PS-440153	9.137878	80.307257	9.136526	80.307948	48P5+J58, Mallavi, Sri Lanka	0.168444	
Mullaitivu	Oddusuddan	Medical Superintendent of Health Office	False	False	MLLTVDDSDDNMDCLSPRNTNDNTFHLTHFFC		Mullaitivu	LK-44	9.167643	80.549091	Oddusudan	PS-440151	9.160983	80.652821	9.261573	80.813807	Mullaittivu-Kokkilai Rd, Mullaitivu, Sri Lanka	20.919119	#CenterFarFromPolice
Mullaitivu	Puthukudiyiruppu	Medical Superintendent of Health Office	False	False	MLLTVPTHKDYRPPMDCLSPRNTNDNTFHLTHFFC		Mullaitivu	LK-44	9.167643	80.549091	Pudukuduiruppu	PS-440149	7.00152	79.95003	9.320996	80.683002	8MCM+96R, Puthukkudiyiruppu, Sri Lanka	270.320843	#CenterFarFromPolice
Mannar	Mannar	Mn/Puthukudiyiruppu Muslim School	False	False	MNNRMNNRMNPTHKDYRPPMSLMSCHL		Mannar	LK-42	8.877429	80.088628	Mannar	PS-420138	8.978123	79.911642	9.050652	79.855757	Mannar Island, Sri Lanka	10.137742	
Trincomalee	Muttur	MOH Office – Muttur	False	False	TRNCMLMTTRMHFFCMTTR		Trincomalee	LK-53	8.551241	81.092014	Mutur	PS-530138	8.461133	81.259371	8.453916	81.264494	1 Old Batticaloa Rd, Mutur, Sri Lanka	0.980859	
Trincomalee	Kinniya	MOH Office – Kinniya	False	False	TRNCMLKNNYMHFFCKNNY		Trincomalee	LK-53	8.551241	81.092014	Kinnia	PS-530140	6.907289	79.863819	8.498696	81.179644	F5XH+FVC, Kinniya 31100, Sri Lanka	228.840304	#CenterFarFromPolice
Trincomalee	Kinniya	Surangal Rural Health Medical Center	False	False	TRNCMLKNNYSRNGLRRLHLTHMDCLCNTR		Trincomalee	LK-53	8.551241	81.092014	Kinnia	PS-530140	6.907289	79.863819	8.47091	81.139893	F4CQ+9X6, Kinniya, Sri Lanka	223.680372	#CenterFarFromPolice
Trincomalee	Sripura	MOH Office – Sripura	False	False	TRNCMLSRPRMHFFCSRPR		Trincomalee	LK-53	8.551241	81.092014	Sripura	PS-530136	8.929617	80.81428	8.926697	80.814799	Padavi Sripura, Padaviya - Sripura Road, Welioya, Sri Lanka	0.329869	
Trincomalee	Kuchchaveli	MOH Office – Kuchchaveli	False	False	TRNCMLKCHCHVLMHFFCKCHCHVL		Trincomalee	LK-53	8.551241	81.092014	Kuchchaweli	PS-530133	8.81895	81.100438	8.740082	81.161616	P5R6+2JQ, Kumpurupiddi, Sri Lanka	11.053646	
Trincomalee	Kuchchaveli	Kuchchaveli Hospital	False	False	TRNCMLKCHCHVLKCHCHVLHSPTL		Trincomalee	LK-53	8.551241	81.092014	Kuchchaweli	PS-530133	8.81895	81.100438	8.814795	81.102358	R472+WW9, Kuchchaveli, Sri Lanka	0.508064	
Trincomalee	Kuchchaveli	Divisional Hospital – Nilaveli	False	False	TRNCMLKCHCHVLDVSNLHSPTLNLVL		Trincomalee	LK-53	8.551241	81.092014	Kuchchaweli	PS-530133	8.81895	81.100438	8.681035	81.193632	M5JV+CF6, Nilaveli, Sri Lanka	18.44695	
Trincomalee	Pulmoddai	MOH Office - Pulmoddai	False	False	TRNCMLPLMDDMHFFCPLMDD		Trincomalee	LK-53	8.551241	81.092014	Pulmudai	PS-530135	6.915266	79.87829	8.599018	81.217151	H6X8+JV2, Trincomalee, Sri Lanka	238.425888	#CenterFarFromPolice
Trincomalee	Uppuveli	MOH Office - Uppuveli	False	False	TRNCMLPPVLMHFFCPPVL		Trincomalee	LK-53	8.551241	81.092014	Uppuweli	PS-530134	8.593614	81.21743	8.607961	81.216512	Nilaveli Rd, Trincomalee, Sri Lanka	1.599005	
Trincomalee	Harbour Police	MOH Office - Trincomalee	False	False	TRNCMLHRBRPLCMHFFCTRNCML		Trincomalee	LK-53	8.551241	81.092014	Trinco Harbour Police	PS-530131	8.56705	81.231407	8.598974	81.216963	MOH Office, Farm Rd, Trincomalee, Sri Lanka	3.890062	
Trincomalee	Harbour Police	Base Hospital - Trincomalee	False	False	TRNCMLHRBRPLCBSHSPTLTRNCML		Trincomalee	LK-53	8.551241	81.092014	Trinco Harbour Police	PS-530131	8.56705	81.231407	8.56486	81.239445	Hospital Ln, Trincomalee, Sri Lanka	0.917037	
Trincomalee	Gomarankadawala	MOH Office - Gomarankadawala	False	False	TRNCMLGMRNKDWLMHFFCGMRNKDWL		Trincomalee	LK-53	8.551241	81.092014	Gomarankadawala	PS-530248	8.674487	80.967555	8.674726	80.955691	Unnamed Road, Gomarankadawala, Sri Lanka	1.304806	
Trincomalee	Thambalagamuwa	MOH Office - Thambalagamuwa	False	False	TRNCMLTHMBLGMWMHFFCTHMBLGMW		Trincomalee	LK-53	8.551241	81.092014	Thambalagamuva	PS-530243	6.907289	79.863819	8.563603	81.239584	Hospital Ln, Trincomalee, Sri Lanka	238.604889	#CenterFarFromPolice
Trincomalee	Ichchalampattu	MOH Office - Ichchalampattu	False	False	TRNCMLCHCHLMPTTMHFFCCHCHLMPTT	Eachchilampattu Hospital	Trincomalee	LK-53	8.551241	81.092014	Ichchalampattu		8.289549	81.359002	8.289644	81.358983	Highway, Ichchalampattu, Trincomalee, Sri Lanka	0.010772	
Trincomalee	Serunuwara	MOH Office - Serunuwara	False	False	TRNCMLSRNWRMHFFCSRNWR		Trincomalee	LK-53	8.551241	81.092014	Serunuwara	PS-530244	8.321863	81.299322	8.323143	81.299894	B10, Sri Lanka	0.155671	
Trincomalee	Kantale	MOH Office - Kantale	False	False	TRNCMLKNTLMHFFCKNTL		Trincomalee	LK-53	8.551241	81.092014	Kantale	PS-530241	8.356129	81.007739	8.349617	81.009107	අග්‍රබෝධි මාවත, Kantale, Sri Lanka	0.739809	
Batticaloa	Batticaloa	Mobile Vaccination	False	False	BTTCLBTTCLMBLVCCNTN		Batticaloa	LK-51	7.792772	81.486513	Batticaloa	PS-510101	7.717949	81.699294					#CenterLocationUnknown
Batticaloa	Batticaloa	MOH Office - Batticaloa	False	False	BTTCLBTTCLMHFFCBTTCL		Batticaloa	LK-51	7.792772	81.486513	Batticaloa	PS-510101	7.717949	81.699294	7.708253	81.691368	Hospital Rd, Batticaloa, Sri Lanka	1.387934	
Batticaloa	Batticaloa	MOH Office - Ariyampathi	False	False	BTTCLBTTCLMHFFCRYMPTH		Batticaloa	LK-51	7.792772	81.486513	Batticaloa	PS-510101	7.717949	81.699294	7.672862	81.735019	MPFP+42R, Sri Lanka	6.376321	
Batticaloa	Vakarai	MOH Office - Vakarai	False	False	BTTCLVKRMHFFCVKR	Divisional Hospital Vakarai	Batticaloa	LK-51	7.792772	81.486513	Wakarai	PS-510109	6.934132	79.856305	8.134552	81.435328	Trincomalee Hwy, Vakarai, Sri Lanka	219.417822	#CenterFarFromPolice
Batticaloa	Valachchenai	Valachchenai Base Hospital	False	False	BTTCLVLCHCHNVLCHCHNBSHSPTL		Batticaloa	LK-51	7.792772	81.486513	Valachchanai	PS-510107	7.908015	81.533004	7.911315	81.533046	Valaichchenai-Nasuvantivu-Navaladi Road, Sri Lanka	0.367088	
Batticaloa	Valachchenai	MOH Office - Valachchenai	False	False	BTTCLVLCHCHNMHFFCVLCHCHN		Batticaloa	LK-51	7.792772	81.486513	Valachchanai	PS-510107	7.908015	81.533004	7.912281	81.532775	WG6M+W46, Batticaloa, Sri Lanka	0.475177	
Batticaloa	Valachchenai	MOH Office - Oddamavadi	False	False	BTTCLVLCHCHNMHFFCDDMVD		Batticaloa	LK-51	7.792772	81.486513	Valachchanai	PS-510107	7.908015	81.533004	7.912281	81.532775	WG6M+W46, Batticaloa, Sri Lanka	0.475177	
Batticaloa	Valachchenai	MOH Office – Kiran	False	False	BTTCLVLCHCHNMHFFCKRN		Batticaloa	LK-51	7.792772	81.486513	Valachchanai	PS-510107	7.908015	81.533004	7.623441	81.717877	Muthalaikudah Kanchirankudah Rd, Sri Lanka	37.64378	#CenterFarFromPolice
Batticaloa	Valachchenai	MOH Office – Navallady	False	False	BTTCLVLCHCHNMHFFCNVLLDY		Batticaloa	LK-51	7.792772	81.486513	Valachchanai	PS-510107	7.908015	81.533004	7.912281	81.532775	WG6M+W46, Batticaloa, Sri Lanka	0.475177	
Batticaloa	Kaluwanchikudy	MOH Office - Kaluwanchikudy	False	False	BTTCLKLWNCHKDYMHFFCKLWNCHKDY	Medical Officer of Health Kaluwanchikudy	Batticaloa	LK-51	7.792772	81.486513	Kalawanchikudy	PS-510110	7.515908	81.787051	7.509333	81.79204	Colombo - Batticaloa Hwy, Kaluwanchikudy, Sri Lanka	0.915167	
Batticaloa	Kaluwanchikudy	Settipalayam Maha Vidyalaya	False	False	BTTCLKLWNCHKDYSTTPLYMMHVDYLY		Batticaloa	LK-51	7.792772	81.486513	Kalawanchikudy	PS-510110	7.515908	81.787051	7.517234	81.786135	Paddiruppu M.M.V National School, Base Hospital Road Kaluwanchikudi - Vellaveli Rd, Kaluwanchikudy 038975, Sri Lanka	0.178765	
Batticaloa	Kaluwanchikudy	Kottakallar Maha Vidyalaya	False	False	BTTCLKLWNCHKDYKTTKLLRMHVDYLY		Batticaloa	LK-51	7.792772	81.486513	Kalawanchikudy	PS-510110	7.515908	81.787051	7.487461	81.807055	FRP4+XRM, Kaluwanchikudy, Sri Lanka	3.85724	
Batticaloa	Kaluwanchikudy	Kurumanvely Sivasakthi Maha Vidyalaya	False	False	BTTCLKLWNCHKDYKRMNVLYSVSKTHMHVDYLY		Batticaloa	LK-51	7.792772	81.486513	Kalawanchikudy	PS-510110	7.515908	81.787051	7.491746	81.778381	Kurumanvelly Ferry Rd, Kaluwanchikudy, Sri Lanka	2.852539	
Batticaloa	Kaluwanchikudy	Base Hospita Kaluwanchikudy	False	False	BTTCLKLWNCHKDYBSHSPTKLWNCHKDY		Batticaloa	LK-51	7.792772	81.486513	Kalawanchikudy	PS-510110	7.515908	81.787051	7.51724	81.785184	GQ8P+V3V, Kaluwanchikudy, Sri Lanka	0.25365	
Batticaloa	Kokkadicholai	MOH Office – Pattipala	False	False	BTTCLKKKDCHLMHFFCPTTPL		Batticaloa	LK-51	7.792772	81.486513	Kokkadicholai	PS-510112	7.715979	81.698757	7.023407	80.262082	A7, Karawanella, Sri Lanka	176.210764	#CenterFarFromPolice
Batticaloa	Kattankudy	MOH Office - Kattankudy	False	False	BTTCLKTTNKDYMHFFCKTTNKDY		Batticaloa	LK-51	7.792772	81.486513	Kaththankudi	PS-510103	7.715979	81.698757	7.683586	81.730767	MPMJ+C8J, Kattankudy, Sri Lanka	5.042961	
Batticaloa	Vavunathivu	MOH Office - Vavunathivu	False	False	BTTCLVVNTHVMHFFCVVNTHV		Batticaloa	LK-51	7.792772	81.486513	Vavunathive	PS-510102	6.933075	79.857181	7.708253	81.691368	Hospital Rd, Batticaloa, Sri Lanka	219.95575	#CenterFarFromPolice
Batticaloa	Eravur	Sandiveli Hospital	False	False	BTTCLRVRSNDVLHSPTL		Batticaloa	LK-51	7.792772	81.486513	Eravur	PS-510104	7.715979	81.698757	7.777289	81.602853	Trincomalee Hwy, Eravur, Sri Lanka	12.578998	
Batticaloa	Eravur	MOH Office – Eravur	False	False	BTTCLRVRMHFFCRVR		Batticaloa	LK-51	7.792772	81.486513	Eravur	PS-510104	7.715979	81.698757	7.783664	81.605626	QJM4+F76, Eravur, Sri Lanka	12.729342	
Batticaloa	Eravur	Eravur Hospital	False	False	BTTCLRVRRVRHSPTL		Batticaloa	LK-51	7.792772	81.486513	Eravur	PS-510104	7.715979	81.698757	7.783168	81.605999	QJM4+799, Eravur 30300, Sri Lanka	12.663585	
Batticaloa	Eravur	Badurdeen Vidyalaya	False	False	BTTCLRVRBDRDNVDYLY		Batticaloa	LK-51	7.792772	81.486513	Eravur	PS-510104	7.715979	81.698757	7.792395	81.60168	QJR2+XM3, Eravur, Sri Lanka	13.664435	
Batticaloa	Eravur	MOH Office - Chenkaladi	False	False	BTTCLRVRMHFFCCHNKLD		Batticaloa	LK-51	7.792772	81.486513	Eravur	PS-510104	7.715979	81.698757	7.783599	81.593367	Trincomalee Hwy, Chenkaladi 30350, Sri Lanka	13.837876	
Batticaloa	Eravur	Siththandi Vidyalaya	False	False	BTTCLRVRSTHTHNDVDYLY		Batticaloa	LK-51	7.792772	81.486513	Eravur	PS-510104	7.715979	81.698757	7.777732	81.603631	Trincomalee Road, Eravur, Sri Lanka	12.533962	
Batticaloa	Eravur	Chenkaladi Hospital	False	False	BTTCLRVRCHNKLDHSPTL		Batticaloa	LK-51	7.792772	81.486513	Eravur	PS-510104	7.715979	81.698757	7.783546	81.589961	Batticaloa Rd, Chenkaladi, Sri Lanka	14.151406	
Batticaloa	Eravur	Wantaramule Vishnu Vidyalaya	False	False	BTTCLRVRWNTRMLVSHNVDYLY		Batticaloa	LK-51	7.792772	81.486513	Eravur	PS-510104	7.715979	81.698757	7.648793	81.628046	Irudducholaimadu, Kannankudha, Batticaloa, Sri Lanka	10.798262	
Batticaloa	Eravur	Mawadiwembu Hospital	False	False	BTTCLRVRMWDWMBHSPTL		Batticaloa	LK-51	7.792772	81.486513	Eravur	PS-510104	7.715979	81.698757	7.808545	81.566328	Mawadiwembu Hospital, Sri Lanka	17.861302	
Batticaloa	Karadiyanaru	Pillumalai Vidyalaya	False	False	BTTCLKRDYNRPLLMLVDYLY		Batticaloa	LK-51	7.792772	81.486513	Karadiyanaru	PS-510105	7.701992	81.537252	7.697454	81.542768	MGWV+X4J, Karadiyanaru, Sri Lanka	0.790229	
Batticaloa	Karadiyanaru	Koduwamatu Clinic	False	False	BTTCLKRDYNRKDWMTCLNC		Batticaloa	LK-51	7.792772	81.486513	Karadiyanaru	PS-510105	7.701992	81.537252	7.708032	81.690622	Hospital Ln, Batticaloa 30000, Sri Lanka	16.918643	
Batticaloa	Karadiyanaru	Malilawattuwan Vidyalaya	False	False	BTTCLKRDYNRMLLWTTWNVDYLY		Batticaloa	LK-51	7.792772	81.486513	Karadiyanaru	PS-510105	7.701992	81.537252	7.697454	81.542768	MGWV+X4J, Karadiyanaru, Sri Lanka	0.790229	
Batticaloa	Karadiyanaru	Karadiyanaru Hospital	False	False	BTTCLKRDYNRKRDYNRHSPTL		Batticaloa	LK-51	7.792772	81.486513	Karadiyanaru	PS-510105	7.701992	81.537252	7.700216	81.539779	PG2Q+3WJ, Karadiyanaru, Sri Lanka	0.341482	
Ampara	Karaitivu	MOH Office – Karaitivu	False	False	MPRKRTVMHFFCKRTV		Ampara	LK-52	7.23699	81.550391	Karaitivu		9.744059	79.870587	7.377712	81.838796	Colombo-Ratnapura-Wellawaya-Batticaloa Highway, Karativu 32250, Sri Lanka	340.788666	#CenterFarFromPolice
Ampara	Chavalakade	MOH Office - Navidanveli	False	False	MPRCHVLKDMHFFCNVDNVL		Ampara	LK-52	7.23699	81.550391	Chawalakade	PS-520125	7.413559	81.776822	7.420081	81.788401	B77, Sri Lanka	1.468805	
Ampara	Sainthamarthu	MOH Office – Sainthamarthu	False	False	MPRSNTHMRTHMHFFCSNTHMRTH		Ampara	LK-52	7.23699	81.550391									#PoliceLocationUnknown
Ampara	Akkaraipattu	MOH Office – Addalachenai	False	False	MPRKKRPTTMHFFCDDLCHN		Ampara	LK-52	7.23699	81.550391	Akkaraipattu	PS-520126	7.216084	81.853254	7.260916	81.853493	7V63+999, Addalaichenai, Sri Lanka	4.986726	
Ampara	Akkaraipattu	MOH Office - Alayadiwembu	False	False	MPRKKRPTTMHFFCLYDWMB		Ampara	LK-52	7.23699	81.550391	Akkaraipattu	PS-520126	7.216084	81.853254	7.413484	81.826588	Colombo - Batticaloa Hwy, Kalmunai 32300, Sri Lanka	22.152981	#CenterFarFromPolice
Ampara	Akkaraipattu	MOH Office - Akkaraipattu	False	False	MPRKKRPTTMHFFCKKRPTT		Ampara	LK-52	7.23699	81.550391	Akkaraipattu	PS-520126	7.216084	81.853254	7.228134	81.851123	6VH2+7C5, Akkaraipattu, Sri Lanka	1.360772	
Ampara	Thirukkovil	MOH Office – Thirukkovil	False	False	MPRTHRKKVLMHFFCTHRKKVL		Ampara	LK-52	7.23699	81.550391	Thirukkovil	PS-520127	7.113998	81.852219	7.111635	81.852892	Central Rd, Vinayagapuram, Sri Lanka	0.273131	
Ampara	Kalmunai	MOH Office - Kalmunai South	False	False	MPRKLMNMHFFCKLMNSTH		Ampara	LK-52	7.23699	81.550391	Kalmunai	PS-520123	7.414289	81.825006	7.411712	81.838462	CR6Q+M9P, Kalmunai 32300, Sri Lanka	1.511625	
Ampara	Kalmunai	MOH Office - Kalmunai North	False	False	MPRKLMNMHFFCKLMNNRTH		Ampara	LK-52	7.23699	81.550391	Kalmunai	PS-520123	7.414289	81.825006	7.411712	81.838462	CR6Q+M9P, Kalmunai 32300, Sri Lanka	1.511625	
Ampara	Sammanthurai	MOH Office - Sammanthurai	False	False	MPRSMMNTHRMHFFCSMMNTHR		Ampara	LK-52	7.23699	81.550391	Samanthurai	PS-520124	7.365785	81.810859	7.369857	81.812264	9R96+WWR, Sammanthurai, Sri Lanka	0.478712	
Ampara	Sammanthurai	MOH Office – Nintavur	False	False	MPRSMMNTHRMHFFCNNTVR		Ampara	LK-52	7.23699	81.550391	Samanthurai	PS-520124	7.365785	81.810859	7.352821	81.856939	Hospital Rd, Nintavur 32340, Sri Lanka	5.283925	
Ampara	Pottuvil	MOH Office – Pottuvil	False	False	MPRPTTVLMHFFCPTTVL		Ampara	LK-52	7.23699	81.550391	Pothuvil	PS-520128	6.878387	81.826859	6.877076	81.828969	B374, Pottuvil, Sri Lanka	0.274874	
Ampara	Pottuvil	Al Israk Vidyalaya	False	False	MPRPTTVLLSRKVDYLY		Ampara	LK-52	7.23699	81.550391	Pothuvil	PS-520128	6.878387	81.826859	6.873537	81.823156	VRFF+C76, Pottuvil, Sri Lanka	0.676934	
Ampara	Pottuvil	Al Hidaya Vidyalaya	False	False	MPRPTTVLLHDYVDYLY		Ampara	LK-52	7.23699	81.550391	Pothuvil	PS-520128	6.878387	81.826859	6.878199	81.841868	VRHR+7PH, Pottuvil, Sri Lanka	1.657565	
