district	police	center	dose1	dose2	fuzzy_key	alt_name	district_name_norm	district_id	district_lat	district_lng	ps_name_norm	ps_id	ps_lat	ps_lng	lat	lng	formatted_address	dis_center_to_police	tags	district_si	police_si	center_si	district_ta	police_ta	center_ta	formatted_address_si	formatted_address_ta
Colombo	Cinnamon Gardens	Viharamahadevi Park	False	False	CLMBCNNMNGRDNSVHRMHDVPRK		Colombo	LK-11	6.869636	80.019598	Cinnamon Garden	PS-110324	6.907289	79.863819	6.913391	79.86174	Viharamahadevi Park, Colombo, Sri Lanka	0.716497		කොළඹ	කුරුඳු උද්‍යාන	විහාරමහාදේවි උද්‍යානය	கொழும்பு	இலவங்கப்பட்டை தோட்டங்கள்	விஹாரமஹாதேவி பூங்கா	විහාරමහාදේවි උද්‍යානය, කොළඹ, ශ්‍රී ලංකාව	விஹாரமஹாதேவி பூங்கா, கொழும்பு, இலங்கை
Colombo	Thalangama	Diyatha Uyana	False	False	CLMBTHLNGMDYTHYN		Colombo	LK-11	6.869636	80.019598	Thalangama	PS-110466	6.91089	79.929325	6.904575	79.909831	Diyatha Uyana, B240, Sri Jayawardenepura Kotte, Sri Lanka	2.264281		කොළඹ	තලංගම	දියත උයන	கொழும்பு	தலங்கம	தியாத உயனா	දියත උයන, බී 240, ශ්‍රී ජයවර්ධනපුර කෝට්ටේ, ශ්‍රී ලංකාව	தியாத உயனா, B240, ஸ்ரீ ஜெயவர்தனபுர கோட்டே, இலங்கை
Colombo	Grandpass	Sugathadasa Outdoor Stadium	False	False	CLMBGRNDPSSSGTHDSTDRSTDM		Colombo	LK-11	6.869636	80.019598	Grandpass	PS-110215	6.949052	79.872983	6.94806	79.868842	Prince of Wales Ave, Colombo 01400, Sri Lanka	0.470345		කොළඹ	ග්‍රෑන්ඩ්පාස්	සුගතදාස එළිමහන් ක්‍රීඩාංගනය	கொழும்பு	கிராண்ட்பாஸ்	சுகததாச வெளிப்புற அரங்கம்	වේල්ස් කුමර මාවත, කොළඹ 01400, ශ්‍රී ලංකාව	பிரின்ஸ் ஆஃப் வேல்ஸ் அவே, கொழும்பு 01400, இலங்கை
Colombo	Narahenpita	Army Hospital Narahenpita	False	False	CLMBNRHNPTRMYHSPTLNRHNPT		Colombo	LK-11	6.869636	80.019598	Narahenpita	PS-110321	6.891832	79.876715	6.900252	79.87618	08 Elvitigala Mawatha, Colombo 00800, Sri Lanka	0.938417		කොළඹ	නාරාහේන්පිට	නාරාහේන්පිට හමුදා රෝහල	கொழும்பு	நரஹேன்பிட்ட	இராணுவ மருத்துவமனை நாரஹேன்பிட்ட	08 ඇල්විටිගල මාවත, කොළඹ 00800, ශ්‍රී ලංකාව	08 எல்விட்டிகல மாவத்தை, கொழும்பு 00800, இலங்கை
Colombo	Narahenpita	Army Headquarters Mobile Team	False	False	CLMBNRHNPTRMYHDQRTRSMBLTM		Colombo	LK-11	6.869636	80.019598	Narahenpita	PS-110321	6.891832	79.876715					#CenterLocationUnknown	කොළඹ	නාරාහේන්පිට	යුද හමුදා මූලස්ථානයේ ජංගම කණ්ඩායම	கொழும்பு	நரஹேன்பிட்ட	இராணுவ தலைமையகம் மொபைல் குழு		
Colombo	Boralesgamuwa	Kotelawala Defence Hospital	False	False	CLMBBRLSGMWKTLWLDFNCHSPTL		Colombo	LK-11	6.869636	80.019598	Boralesgamuwa	PS-110464	6.841331	79.901255	6.82518	79.907167	RWG4+3VF, Boralesgamuwa, Sri Lanka	1.911444		කොළඹ	බොරලැස්ගමුව	කොතලාවල ආරක්‍ෂක රෝහල	கொழும்பு	பொரலஸ்கமுவா	கொத்தலாவல பாதுகாப்பு மருத்துவமனை	RWG4+3VF, බොරලැස්ගමුව, ශ්‍රී ලංකාව	RWG4+3VF, பொரலஸ்கமுவா, இலங்கை
Colombo	Boralesgamuwa	MOH Office – Werahera	False	False	CLMBBRLSGMWMHFFCWRHR		Colombo	LK-11	6.869636	80.019598	Boralesgamuwa	PS-110464	6.841331	79.901255	6.833094	79.905583	RWM4+66P, Boralesgamuwa, Sri Lanka	1.033386		කොළඹ	බොරලැස්ගමුව	MOH කාර්යාලය - වේරහැර	கொழும்பு	பொரலஸ்கமுவா	MOH அலுவலகம் - வெரஹெரா	RWM4+66P, බොරලැස්ගමුව, ශ්‍රී ලංකාව	RWM4+66P, பொரலஸ்கமுவா, இலங்கை
Colombo	Homagama	Panagoda Bodhirajarama Viharaya	False	False	CLMBHMGMPNGDBDHRJRMVHRY		Colombo	LK-11	6.869636	80.019598	Homagama	PS-110470	6.836155	80.003474	6.929161	79.88265	Gnanawimala Rd, Colombo, Sri Lanka	16.883101		කොළඹ	හෝමාගම	පනාගොඩ බෝධිරාජාරාම විහාරය	கொழும்பு	ஹோமாகம	பனகொட போதிராஜாராம விஹாராயா	ඥානවිමල පාර, කොළඹ, ශ්‍රී ලංකාව	ஞானவிமல வீதி, கொழும்பு, இலங்கை
Colombo	Homagama	Katuwana Pimbima Viharaya	False	False	CLMBHMGMKTWNPMBMVHRY		Colombo	LK-11	6.869636	80.019598	Homagama	PS-110470	6.836155	80.003474	6.833932	79.998989	Katuwana, Homagama, Sri Lanka	0.553509		කොළඹ	හෝමාගම	කටුවන පිඹිම විහාරය	கொழும்பு	ஹோமாகம	கடுவானா பிம்பிமா விஹாராயா	කටුවාන, හෝමාගම, ශ්‍රී ලංකාව	கட்டுவானா, ஹோமாகம, இலங்கை
Colombo	Mirihana	Pegiriwatta Vivekaramaya	False	False	CLMBMRHNPGRWTTVVKRMY		Colombo	LK-11	6.869636	80.019598	Mirihana	PS-110462	6.873714	79.901724	6.870742	79.90777	Old Kottawa Rd, Nugegoda 10100, Sri Lanka	0.74502		කොළඹ	මිරිහාන	පගිරිවත්ත විවේකාරාමය	கொழும்பு	மிரிஹானா	பெகிரிவத்த விவேகராமையா	පරණ කොට්ටාව පාර, නුගේගොඩ 10100, ශ්‍රී ලංකාව	பழைய கொட்டாவா சாலை, நுகேகொட 10100, இலங்கை
Colombo	Kotahena	Wiwekananda Vidyalaya	False	False	CLMBKTHNWWKNNDVDYLY		Colombo	LK-11	6.869636	80.019598	Kotahena	PS-110212	6.950879	79.862496	6.943047	79.860046	55-57, Colombo 01300, Sri Lanka	0.912186		කොළඹ	කොටහේන	විවේකානන්ද විද්‍යාලය	கொழும்பு	கோட்டஹேனா	விவேகானந்தா வித்யாலயா	55-57, කොළඹ 01300, ශ්‍රී ලංකාව	55-57, கொழும்பு 01300, இலங்கை
Colombo	Kirulapana	Sithumina Community Hall	False	False	CLMBKRLPNSTHMNCMMNTYHLL		Colombo	LK-11	6.869636	80.019598	Kirulapone	PS-110319	6.878122	79.874159	6.876704	79.879161	00600, Mugalan Rd, Colombo 00600, Sri Lanka	0.574445		කොළඹ	කිරුලන	සිතුමිණ ප්‍රජා ශාලාව	கொழும்பு	கிருலபனா	சித்துமினா சமுதாயக் கூடம்	00600, මුගලන් පාර, කොළඹ 00600, ශ්‍රී ලංකාව	00600, முகலான் சாலை, கொழும்பு 00600, இலங்கை
Colombo	Maradana	Forbes Road Community Hall	False	False	CLMBMRDNFRBSRDCMMNTYHLL		Colombo	LK-11	6.869636	80.019598	Maradana	PS-110107	6.927939	79.865471	6.876704	79.879161	00600, Mugalan Rd, Colombo 00600, Sri Lanka	5.895952		කොළඹ	මරදාන	ෆෝබ්ස් පාරේ ප්‍රජා ශාලාව	கொழும்பு	மரதானா	ஃபோர்ப்ஸ் சாலை சமூக மண்டபம்	00600, මුගලන් පාර, කොළඹ 00600, ශ්‍රී ලංකාව	00600, முகலான் சாலை, கொழும்பு 00600, இலங்கை
Colombo	Maradana	National Hospital – Colombo	False	False	CLMBMRDNNTNLHSPTLCLMB		Colombo	LK-11	6.869636	80.019598	Maradana	PS-110107	6.927939	79.865471	6.918743	79.868992	Colombo 00700, Sri Lanka	1.094265		කොළඹ	මරදාන	ජාතික රෝහල - කොළඹ	கொழும்பு	மரதானா	தேசிய மருத்துவமனை - கொழும்பு	කොළඹ 00700, ශ්‍රී ලංකාව	கொழும்பு 00700, இலங்கை
Colombo	Fort	Navy Headquarters	False	False	CLMBFRTNVYHDQRTRS		Colombo	LK-11	6.869636	80.019598	Fort	PS-110105	6.9334	79.842895	6.936952	79.842104	WRPR+QRQ, Colombo, Sri Lanka	0.404627		කොළඹ	කොටුව	නාවික හමුදා මූලස්ථානය	கொழும்பு	கோட்டை	கடற்படை தலைமையகம்	WRPR+QRQ, කොළඹ, ශ්‍රී ලංකාව	WRPR+QRQ, கொழும்பு, இலங்கை
Colombo	Wellawatta	Roxy Gardens Premises	False	False	CLMBWLLWTTRXYGRDNSPRMSS		Colombo	LK-11	6.869636	80.019598	Wellawatta	PS-110320	6.873107	79.86167	6.863747	79.862088	Dehiwala Canal, Colombo, Sri Lanka	1.042134		කොළඹ	වැල්ලවත්ත	රොක්සි උද්‍යාන පරිශ්‍රය	கொழும்பு	வெள்ளவத்தை	ராக்ஸி கார்டன்ஸ் வளாகம்	දෙහිවල ඇල, කොළඹ, ශ්‍රී ලංකාව	தெஹிவளை கால்வாய், கொழும்பு, இலங்கை
Colombo	Wellampitiya	MOH Office – Kolonnawa	False	False	CLMBWLLMPTYMHFFCKLNNW		Colombo	LK-11	6.869636	80.019598	Wellampitiya	PS-110465	6.937514	79.896298	6.922088	79.916237	Mandavila Rd, Kotikawatta, Sri Lanka	2.791266		කොළඹ	වැල්ලම්පිටිය	MOH කාර්යාලය - කොළොන්නාව	கொழும்பு	வெல்லம்பிட்டிய	MOH அலுவலகம் - கொலன்னாவா	මණ්ඩවිල පාර, කොටිකාවත්ත, ශ්‍රී ලංකාව	மண்டவில வீதி, கொட்டிகாவத்த, இலங்கை
Colombo	Mulleriyawa	MOH Office - Gothatuwa	False	False	CLMBMLLRYWMHFFCGTHTW		Colombo	LK-11	6.869636	80.019598	Mulleriyawa	PS-110469	6.927187	79.929108	6.922088	79.916237	Mandavila Rd, Kotikawatta, Sri Lanka	1.530186		කොළඹ	මුල්ලේරියාව	MOH කාර්යාලය - ගොතටුව	கொழும்பு	முல்லேரியாவா	MOH அலுவலகம் - கோததுவா	මණ්ඩවිල පාර, කොටිකාවත්ත, ශ්‍රී ලංකාව	மண்டவில வீதி, கொட்டிகாவத்த, இலங்கை
Colombo	Kottawa	Rukmalgama Community Hall	False	False	CLMBKTTWRKMLGMCMMNTYHLL		Colombo	LK-11	6.869636	80.019598	Kottawa	PS-110471	6.841333	79.963553	6.855958	79.986274	Athurugiriya Rd, Pannipitiya, Sri Lanka	2.990394		කොළඹ	කොට්ටාව	රුක්මල්ගම ප්‍රජා ශාලාව	கொழும்பு	கொட்டாவா	ருக்மல்கம சமுதாயக் கூடம்	අතුරුගිරිය පාර, පන්නිපිටිය, ශ්‍රී ලංකාව	அதுருகிரிய வீதி, பன்னிப்பிட்டிய, இலங்கை
Colombo	Fore shore	MOH Office - Jinthupitiya	False	False	CLMBFRSHRMHFFCJNTHPTY		Colombo	LK-11	6.869636	80.019598	Fore shore	PS-110210	6.949589	79.857355	6.943258	79.859238	No.27 Vivekananda Hill, Colombo 01300, Sri Lanka	0.734247		කොළඹ	ඉදිරිපස වෙරළ	MOH කාර්යාලය - ජින්තුපිටිය	கொழும்பு	முன் கரை	MOH அலுவலகம் - ஜிந்துபிடியா	අංක 27 විවේකානන්ද කන්ද, කොළඹ 01300, ශ්‍රී ලංකාව	எண் .27 விவேகானந்த மலை, கொழும்பு 01300, இலங்கை
Colombo	Padukka	MOH Office – Padukka	False	False	CLMBPDKKMHFFCPDKK		Colombo	LK-11	6.869636	80.019598	Padukka	PS-110473	6.842195	80.09247	6.840164	80.093288	Galagedera - Horana Rd, Padukka, Sri Lanka	0.243301		කොළඹ	පාදුක්ක	MOH කාර්යාලය - පාදුක්ක	கொழும்பு	பாதுக்கா	MOH அலுவலகம் - பாதுக்கா	ගලගෙදර - හොරණ පාර, පාදුක්ක, ශ්‍රී ලංකාව	கலகெடெரா - ஹொரானா வீதி, பாதுக்கா, இலங்கை
Colombo	Avissawella	Avissawella Hospital	False	False	CLMBVSSWLLVSSWLLHSPTL		Colombo	LK-11	6.869636	80.019598	Awissawella	PS-920226	6.947538	80.215422	6.957085	80.207381	Avissawella Rd, Avissawella, Sri Lanka	1.384155		කොළඹ	අවිස්සාවේල්ල	අවිස්සාවේල්ල රෝහල	கொழும்பு	அவிசாவெல்லா	அவிசாவளை மருத்துவமனை	අවිස්සාවේල්ල පාර, අවිස්සාවේල්ල, ශ්‍රී ලංකාව	அவிசாவெல்லா சாலை, அவிசாவல்லா, இலங்கை
Colombo	Kosgama	Kosgama Hospital	False	False	CLMBKSGMKSGMHSPTL		Colombo	LK-11	6.869636	80.019598	Kosgama	PS-920227	6.946597	80.137869	6.940956	80.124888	Salawa-Akarawita, 10730, Sri Lanka	1.564606		කොළඹ	කොස්ගම	කොස්ගම රෝහල	கொழும்பு	கொஸ்கம	கொஸ்கம மருத்துவமனை	සාලාව-අකරවිට, 10730, ශ්‍රී ලංකාව	சலாவா-அகரவிட, 10730, இலங்கை
Gampaha	Minuwangoda	Mabodala Maha Vidyalaya	False	False	GMPHMNWNGDMBDLMHVDYLY		Gampaha	LK-12	7.123598	80.018508	Minuwangoda	PS-120238	7.174215	79.957874	7.161204	79.991999	Dewalapola, Sri Lanka	4.03455		ගම්පහ	මිනුවන්ගොඩ	මාබොඩල මහා විද්‍යාලය	கம்பஹா	மினுவாங்கொட	மபோதல மகா வித்தியாலயம்	දේවලපොළ, ශ්‍රී ලංකාව	தேவலபொல, இலங்கை
Gampaha	Minuwangoda	Divisional Hospital – Minuwangoda	False	False	GMPHMNWNGDDVSNLHSPTLMNWNGD		Gampaha	LK-12	7.123598	80.018508	Minuwangoda	PS-120238	7.174215	79.957874	7.172257	79.956152	Veyangoda Rd, Minuwangoda 11550, Sri Lanka	0.289044		ගම්පහ	මිනුවන්ගොඩ	ප්‍රාදේශීය රෝහල - මිනුවන්ගොඩ	கம்பஹா	மினுவாங்கொட	பிரதேச மருத்துவமனை - மினுவாங்கொட	වේයන්ගොඩ පාර, මිනුවන්ගොඩ 11550, ශ්‍රී ලංකාව	வேயங்கொட வீதி, மினுவாங்கொட 11550, இலங்கை
Gampaha	Katana	MOH Office - Katana	False	False	GMPHKTNMHFFCKTN		Gampaha	LK-12	7.123598	80.018508	Katana	PS-120360	7.224796	79.880015	7.22436	79.88271	Katana, Negombo - Mirigama Rd, Negombo, Sri Lanka	0.301313		ගම්පහ	කටාන	MOH කාර්යාලය - කටාන	கம்பஹா	கட்டானா	MOH அலுவலகம் - கட்டானா	කටාන, මීගමුව - මීරිගම පාර, මීගමුව, ශ්‍රී ලංකාව	கட்டானா, நீர்கொழும்பு - மீரிகம வீதி, நீர்கொழும்பு, இலங்கை
Gampaha	Nittambuwa	Walgammulla Viharaya	False	False	GMPHNTTMBWWLGMMLLVHRY		Gampaha	LK-12	7.123598	80.018508	Nittambuwa	PS-120246	7.149726	80.10046	7.142563	80.085532	344/1, Vivekarama, Temple Rd, Nittambuwa, Sri Lanka	1.830078		ගම්පහ	නිට්ටඹුව	වල්ගම්මුල්ල විහාරය	கம்பஹா	நிட்டம்புவா	வல்கம்முல்லா விஹாராயா	344/1, විවේකාරාම, පන්සල පාර, නිට්ටඹුව, ශ්‍රී ලංකාව	344/1, விவேகாரமா, கோவில் வீதி, நிட்டம்புவா, இலங்கை
Gampaha	Nittambuwa	Meewitiya Clinic	False	False	GMPHNTTMBWMWTYCLNC		Gampaha	LK-12	7.123598	80.018508	Nittambuwa	PS-120246	7.149726	80.10046	7.146549	80.088866	43WQ+JG9, Nittambuwa, Sri Lanka	1.327475		ගම්පහ	නිට්ටඹුව	මීවිටිය සායනය	கம்பஹா	நிட்டம்புவா	மீவித்தியா மருத்துவமனை	43WQ+JG9, නිට්ටඹුව, ශ්‍රී ලංකාව	43WQ+JG9, நிட்டம்புவா, இலங்கை
Gampaha	Nittambuwa	Mathalana Viharaya	False	False	GMPHNTTMBWMTHLNVHRY		Gampaha	LK-12	7.123598	80.018508	Nittambuwa	PS-120246	7.149726	80.10046	7.113799	80.135467	Nittambuwa - Ruwanwella Rd, Sri Lanka	5.558543		ගම්පහ	නිට්ටඹුව	මාතලාන විහාරය	கம்பஹா	நிட்டம்புவா	மதலானா விஹாராயா	නිට්ටඹුව - රුවන්වැල්ල පාර, ශ්‍රී ලංකාව	நிட்டம்புவ - ருவன்வெல்ல வீதி, இலங்கை
Gampaha	Veyangoda	President's College Veyangoda	False	False	GMPHVYNGDPRSDNTSCLLGVYNGD		Gampaha	LK-12	7.123598	80.018508	Weyangoda	PS-120247	7.144053	80.095511	7.153809	80.05681	President's College Veyangoda, Mihindu Mawatha, Veyangoda 11100, Sri Lanka	4.406934		ගම්පහ	වේයන්ගොඩ	වේයන්ගොඩ ජනාධිපති විද්‍යාලය	கம்பஹா	வேயங்கொட	வேயங்கொட ஜனாதிபதி கல்லூரி	වේයන්ගොඩ ජනාධිපති විද්‍යාලය, මිහිඳු මාවත, වේයන්ගොඩ 11100, ශ්‍රී ලංකාව	ஜனாதிபதி கல்லூரி வேயங்கொட, மிஹிந்து மாவத்தை, வேயங்கொடை 11100, இலங்கை
Gampaha	Mirigama	Maladeniya Viharaya	False	False	GMPHMRGMMLDNYVHRY	Maladeniya Temple	Gampaha	LK-12	7.123598	80.018508	Meerigama	PS-120248	7.245169	80.128647	7.288053	80.111975	Sri Lanka	5.112395		ගම්පහ	මීරිගම	මාලදෙනිය පන්සල	கம்பஹா	மீரிகம	மலதேனியா கோவில்	ශ්රී ලංකාව	இலங்கை
Gampaha	Mirigama	Thalagama Clinic	False	False	GMPHMRGMTHLGMCLNC		Gampaha	LK-12	7.123598	80.018508	Meerigama	PS-120248	7.245169	80.128647	7.257804	80.135425	Wilwatta Railway Station, AB29, Mirigama, Sri Lanka	1.591996		ගම්පහ	මීරිගම	තලගම සායනය	கம்பஹா	மீரிகம	தலகம கிளினிக்	විල්වත්ත දුම්රිය ස්ථානය, ඒබී 29, මීරිගම, ශ්‍රී ලංකාව	வில்வத்த ரயில் நிலையம், ஏபி 29, மீரிகம, இலங்கை
Gampaha	Gampaha	Rathupaswala Bodhiraja Vidyalaya	False	False	GMPHGMPHRTHPSWLBDHRJVDYLY		Gampaha	LK-12	7.123598	80.018508	Gampaha	PS-120237	7.087765	80.01228	7.05988	80.01523	3258+X35, Mudungoda, Sri Lanka	3.11869		ගම්පහ	ගම්පහ	රතුපස්වල බෝධිරාජ විද්‍යාලය	கம்பஹா	கம்பஹா	ரத்துபஸ்வல போதிராஜா வித்யாலயா	3258+X35, මුදුන්ගොඩ, ශ්‍රී ලංකාව	3258+X35, முடுங்கொட, இலங்கை
Gampaha	Gampaha	Brandiyamulla Vidyasekara Pirivena	False	False	GMPHGMPHBRNDYMLLVDYSKRPRVN		Gampaha	LK-12	7.123598	80.018508	Gampaha	PS-120237	7.087765	80.01228	7.086041	80.008827	32P5+CG8, Gampaha, Sri Lanka	0.426663		ගම්පහ	ගම්පහ	බ්‍රන්දියමුල්ල විද්‍යාසේකර පිරිවෙන	கம்பஹா	கம்பஹா	பிராண்டியமுல்ல வித்யசேகர பிரிவேனா	32P5+CG8, ගම්පහ, ශ්‍රී ලංකාව	32P5+CG8, கம்பஹா, இலங்கை
Gampaha	Pugoda	MOH Office – Dompe	False	False	GMPHPGDMHFFCDMP		Gampaha	LK-12	7.123598	80.018508	Pugoda	PS-120241	6.98283	80.111189	6.976767	80.117422	Dompe, Pugoda-Mandawala Rd, Pugoda, Sri Lanka	0.963513		ගම්පහ	පූගොඩ	MOH කාර්යාලය - දොම්පේ	கம்பஹா	புகோடா	MOH அலுவலகம் - Dompe	දොම්පේ, පූගොඩ-මණ්ඩාවල පාර, පූගොඩ, ශ්‍රී ලංකාව	டோம்பே, புகோடா-மண்டவாலா சாலை, புகோடா, இலங்கை
Gampaha	Kirindiwela	Divisional Secretariat – Kirindiwela	False	False	GMPHKRNDWLDVSNLSCRTRTKRNDWL		Gampaha	LK-12	7.123598	80.018508	Kirindiwela	PS-120239	7.043011	80.120449	7.0293	80.132553	Hanwella - Kirindiwela - Urapola Rd, Sri Lanka	2.027619		ගම්පහ	කිරිඳිවැල	ප්‍රාදේශීය ලේකම් කාර්යාලය - කිරිඳිවැල	கம்பஹா	கிரிந்திவெல	பிரதேச செயலகம் - கிரிந்திவெல	හංවැල්ල - කිරිඳිවැල - raරාපොළ පාර, ශ්‍රී ලංකාව	ஹன்வெல்லா - கிரிந்திவெல - ஊரபோலா சாலை, இலங்கை
Gampaha	Pamunugama	Pamunugama Hospital	False	False	GMPHPMNGMPMNGMHSPTL		Gampaha	LK-12	7.123598	80.018508	Pamunugama	PS-120353	7.078892	79.859696	7.093543	79.850191	3VV2+C38, Negombo, Sri Lanka	1.938152		ගම්පහ	පමුණුගම	පමුණුගම රෝහල	கம்பஹா	பமுனுகம	பமுனுகம மருத்துவமனை	3VV2+C38, මීගමුව, ශ්‍රී ලංකාව	3VV2+C38, நீர்கொழும்பு, இலங்கை
Gampaha	Pamunugama	Uswetakeiyawa Dispensary	False	False	GMPHPMNGMSWTKYWDSPNSRY		Gampaha	LK-12	7.123598	80.018508	Pamunugama	PS-120353	7.078892	79.859696	6.980847	79.929943	XWJH+8XP, Kiribathgoda, Sri Lanka	13.381623		ගම්පහ	පමුණුගම	උස්වැටකෙයියාව බෙහෙත් ශාලාව	கம்பஹா	பமுனுகம	உஸ்வேதகேயாவா மருந்தகம்	XWJH+8XP, කිරිබත්ගොඩ, ශ්‍රී ලංකාව	XWJH+8XP, கிரிபத்கோடா, இலங்கை
Gampaha	Katunayaka	Adiambalama Veluvanaramaya	False	False	GMPHKTNYKDMBLMVLVNRMY		Gampaha	LK-12	7.123598	80.018508	Katunayaka	PS-120358	7.165898	79.882607	7.188569	79.904024	Andiambalama, Katunayake, Sri Lanka	3.456192		ගම්පහ	කටුනායක	ආඩියම්බලම වේළුවනාරාමය	கம்பஹா	கட்டுநாயக்க	ஆதியம்பலமா வேலுவனாராமையா	අන්ඩියම්බලම, කටුනායක, ශ්‍රී ලංකාව	ஆண்டியம்பலமா, கட்டுநாயக்க, இலங்கை
Gampaha	Negombo	Town Hall - Negombo	False	False	GMPHNGMBTWNHLLNGMB		Gampaha	LK-12	7.123598	80.018508	Negombo	PS-120351	7.224796	79.880015	7.206667	79.851863	Negombo, Sri Lanka	3.703623		ගම්පහ	මීගමුව	පුරහල - මීගමුව	கம்பஹா	நீர்கொழும்பு	டவுன் ஹால் - நீர்கொழும்பு	මීගමුව, ශ්‍රී ලංකාව	நீர்கொழும்பு, இலங்கை
Gampaha	Dungalapitiya	Thalahena Maternity Clinic	False	False	GMPHDNGLPTYTHLHNMTRNTYCLNC		Gampaha	LK-12	7.123598	80.018508	Dungalpitiya	PS-120361	7.139226	79.833543	7.170735	79.824995	5RCF+7XX, Negombo, Sri Lanka	3.629353		ගම්පහ	දුංගලපිටිය	තලාහේන මාතෘ සායනය	கம்பஹா	துங்கலப்பிட்டி	தலஹேனா மகப்பேறு மருத்துவமனை	5RCF+7XX, මීගමුව, ශ්‍රී ලංකාව	5RCF+7XX, நீர்கொழும்பு, இலங்கை
Gampaha	Seeduwa	MOH Office – Seeduwa	False	False	GMPHSDWMHFFCSDW		Gampaha	LK-12	7.123598	80.018508	Seeduwa	PS-120356	7.128721	79.877371	7.131527	79.879964	24 Kotugoda Rd, Katunayake 11410, Sri Lanka	0.423459		ගම්පහ	සීදුව	MOH කාර්යාලය - සීදුව	கம்பஹா	சீதுவா	MOH அலுவலகம் - சீதுவா	24 කොටුගොඩ පාර, කටුනායක 11410, ශ්‍රී ලංකාව	24 கொடுகொட வீதி, கட்டுநாயக்க 11410, இலங்கை
Gampaha	Divulapitiya	MOH Office – Divulapitiya	False	False	GMPHDVLPTYMHFFCDVLPTY		Gampaha	LK-12	7.123598	80.018508	Diulapitiya	PS-120355	7.174215	79.957874	7.215486	80.013606	6287+5CX, Divulapitiya, Sri Lanka	7.67456		ගම්පහ	දිවුලපිටිය	එම්ඕඑච් කාර්යාලය - දිවුලපිටිය	கம்பஹா	திவுலபிட்டிய	MOH அலுவலகம் - திவுலபிட்டிய	6287+5CX, දිවුලපිටිය, ශ්‍රී ලංකාව	6287+5CX, திவுலபிட்டிய, இலங்கை
Gampaha	Divulapitiya	Gnanodaya Maha Vidyalaya	False	False	GMPHDVLPTYGNNDYMHVDYLY		Gampaha	LK-12	7.123598	80.018508	Diulapitiya	PS-120355	7.174215	79.957874	7.222331	80.019709	62C9+WVP, Divulapitiya 11250, Sri Lanka	8.672135		ගම්පහ	දිවුලපිටිය	ඥානෝදය මහා විද්‍යාලය	கம்பஹா	திவுலபிட்டிய	ஞானோதயா மகா வித்தியாலயம்	62 සී 9+ඩබ්ලිව්වීපී, දිවුලපිටිය 11250, ශ්‍රී ලංකාව	62C9+WVP, திவுலபிட்டிய 11250, இலங்கை
Gampaha	Ja Ela	MOH Office - Ja Ela	False	False	GMPHJLMHFFCJL		Gampaha	LK-12	7.123598	80.018508	Ja - Ela	PS-120133	7.081055	79.890504	7.075216	79.893879	60 Mount Kalvary Rd, Ja-Ela, Sri Lanka	0.748731		ගම්පහ	ජා ඇල	MOH කාර්යාලය - ජා ඇල	கம்பஹா	ஜா எல	MOH அலுவலகம் - ஜா எல	60 කල්වාරි පාර, ජා-ඇල, ශ්‍රී ලංකාව	60 மவுண்ட் கல்வாரி சாலை, ஜா-எல, இலங்கை
Gampaha	Wattala	MOH Office – Wattala	False	False	GMPHWTTLMHFFCWTTL		Gampaha	LK-12	7.123598	80.018508	Wattala	PS-120128	6.993713	79.894506	6.995817	79.885793	301 Hendala Rd, Wattala, Sri Lanka	0.989991		ගම්පහ	වත්තල	MOH කාර්යාලය - වත්තල	கம்பஹா	வத்தளை	MOH அலுவலகம் - வத்தளை	301 හැඳල පාර, වත්තල, ශ්‍රී ලංකාව	301 ஹெந்தலா சாலை, வத்தளை, இலங்கை
Gampaha	Ragama	MOH Office – Ragama	False	False	GMPHRGMMHFFCRGM		Gampaha	LK-12	7.123598	80.018508	Ragama	PS-120134	7.034975	79.924148	7.027386	79.920232	2WGC+X35, Ragama, Sri Lanka	0.948382		ගම්පහ	රාගම	MOH කාර්යාලය - රාගම	கம்பஹா	ராகம	MOH அலுவலகம் - ராகம	2WGC+X35, රාගම, ශ්‍රී ලංකාව	2WGC+X35, ராகம, இலங்கை
Gampaha	Kadawata	Kirillawala Central College	False	False	GMPHKDWTKRLLWLCNTRLCLLG		Gampaha	LK-12	7.123598	80.018508	Kadawatha	PS-120136	7.00152	79.95003	7.015981	79.969223	2X89+9MX, Eldeniya, Sri Lanka	2.660247		ගම්පහ	කඩවත	කිරිල්ලවල මධ්‍ය මහා විද්‍යාලය	கம்பஹா	கடவாடா	கிரில்லாவாலா மத்திய கல்லூரி	2X89+9MX, ඇල්දෙනිය, ශ්‍රී ලංකාව	2X89+9MX, எல்டெனியா, இலங்கை
Gampaha	Weliweriya	Henegama Maha Bodhi Vidyalaya	False	False	GMPHWLWRYHNGMMHBDHVDYLY		Gampaha	LK-12	7.123598	80.018508	Weliweriya	PS-120244	7.03451	80.026114	7.023448	80.047474	22FW+9XH Sangabodhi Jr School, Weliweriya - Kirindiwela Rd, Matara, Sri Lanka	2.659731		ගම්පහ	වැලිවේරිය	හේනේගම මහා බෝධි විද්‍යාලය	கம்பஹா	வெலிவேரியா	ஹெனேகம மகா போதி வித்தியாலயம்	22FW+9XH සංඝබෝධි කනිෂ්ඨ විද්‍යාලය, වැලිවේරිය - කිරිඳිවැල පාර, මාතර, ශ්‍රී ලංකාව	22FW+9XH சங்கபோதி ஜூனியர் பள்ளி, வெலிவேரிய - கிரிந்திவெல சாலை, மாத்தறை, இலங்கை
Gampaha	Sapugaskanda	Obawatta Sri Dirananda Viharaya	False	False	GMPHSPGSKNDBWTTSRDRNNDVHRY		Gampaha	LK-12	7.123598	80.018508	Sapugaskanda	PS-120130	6.970586	79.953588	6.982805	79.976103	Sri Sudarshanarama Road, Gonawala, Sri Lanka	2.833088		ගම්පහ	සපුගස්කන්ද	ඔබ වත්ත ශ්‍රී දිරානන්ද විහාරය	கம்பஹா	சபுகஸ்கந்தா	ஒவாவத்த ஸ்ரீ திரானந்தா விஹாராயா	ශ්‍රී සුදර්ශනාරාම පාර, ගෝනවල, ශ්‍රී ලංකාව	ஸ்ரீ சுதர்சனராம சாலை, கோனாவாலா, இலங்கை
Gampaha	Peliyagoda	Peliyagoda Nawaloka Community Hall	False	False	GMPHPLYGDPLYGDNWLKCMMNTYHLL		Gampaha	LK-12	7.123598	80.018508	Peliyagoda	PS-120125	6.955193	79.88612	6.972784	79.921464	88 Colombo - Kandy Rd, Kelaniya 11300, Sri Lanka	4.365368		ගම්පහ	පෑලියගොඩ	පෑලියගොඩ නවලෝක ප්‍රජා ශාලාව	கம்பஹா	பேலியகொட	பேலியகொட நாவலோக சமூக மண்டபம்	88 කොළඹ - මහනුවර පාර, කැලණිය 11300, ශ්‍රී ලංකාව	88 கொழும்பு - கண்டி வீதி, களனியா 11300, இலங்கை
Kalutara	Ingiriya	Ingiriya Hospital	False	False	KLTRNGRYNGRYHSPTL		Kalutara	LK-13	6.577316	80.127363	Ingiriya	PS-130193	6.743614	80.175077	6.741133	80.162046	Panadura-Nambapana-Ratnapura Hwy, Ingiriya, Sri Lanka	1.465626		කළුතර	ඉංගිරිය	ඉංගිරිය රෝහල	களுத்துறை	இங்கிரிய	இங்கிரிய மருத்துவமனை	පානදුර-නාම්බපන-රත්නපුර හ්වි, ඉංගිරිය, ශ්‍රී ලංකාව	பாணாதுரா-நம்பபனா-ரத்னபுரா ஹ்வி, இங்கிரிய, இலங்கை
Kalutara	Ingiriya	Poruwadanda Thilakarama Viharaya	False	False	KLTRNGRYPRWDNDTHLKRMVHRY		Kalutara	LK-13	6.577316	80.127363	Ingiriya	PS-130193	6.743614	80.175077	6.734825	80.117154	P4M8+WVC, Poruwadanda, Sri Lanka	6.472503		කළුතර	ඉංගිරිය	පෝරුවදණ්ඩ තිලකරාම විහාරය	களுத்துறை	இங்கிரிய	பொருவதண்ட திலகரம விஹாராயா	P4M8+WVC, පෝරුවදණ්ඩ, ශ්‍රී ලංකාව	P4M8+WVC, பொருவாதண்டா, இலங்கை
Kalutara	Anguruwatota	MOH Office – Madurawala	False	False	KLTRNGRWTTMHFFCMDRWL		Kalutara	LK-13	6.577316	80.127363	Anguruwatota	PS-130190	6.654997	80.058183	6.654814	80.057811	M335+W4F, Keselhenawa, Sri Lanka	0.045863		කළුතර	අඟුරුවාතොට	MOH කාර්යාලය - මදුරාවල	களுத்துறை	அங்குருவடோட்டா	MOH அலுவலகம் - மதுரவாலா	M335+W4F, කෙසෙල්හේනාව, ශ්‍රී ලංකාව	M335+W4F, கெசல்ஹேனாவா, இலங்கை
Kalutara	Horana	Base Hospital - Horana	False	False	KLTRHRNBSHSPTLHRN		Kalutara	LK-13	6.577316	80.127363	Horana	PS-130192	6.714613	80.069091	6.710644	80.066589	Hospital Ln, Horana, Sri Lanka	0.520853		කළුතර	හොරණ	මූලික රෝහල - හොරණ	களுத்துறை	ஹொரானா	அடிப்படை மருத்துவமனை - ஹொரணை	හොරණ රෝහල, ශ්‍රී ලංකාව	மருத்துவமனை Ln, ஹொரானா, இலங்கை
Kalutara	Horana	Ilimba Viharaya	False	False	KLTRHRNLMBVHRY		Kalutara	LK-13	6.577316	80.127363	Horana	PS-130192	6.714613	80.069091	6.706943	80.102584	P443+Q2G, Horana, Sri Lanka	3.796982		කළුතර	හොරණ	ඉලිඹ විහාරය	களுத்துறை	ஹொரானா	இலிம்பா விஹாராயா	P443+Q2G, හොරණ, ශ්‍රී ලංකාව	P443+Q2G, ஹொரணை, இலங்கை
Kalutara	Horana	Bellapitiya Mangalasiripura Viharaya	False	False	KLTRHRNBLLPTYMNGLSRPRVHRY		Kalutara	LK-13	6.577316	80.127363	Horana	PS-130192	6.714613	80.069091	6.623019	80.067244	Uduwara Anguruwatota, Begamuwa- Yatawara Rd, Sri Lanka	10.189917		කළුතර	හොරණ	බෙල්ලපිටිය මංගලසිරිපුර විහාරය	களுத்துறை	ஹொரானா	பெல்லபிட்டிய மங்களசிறிபுர விகாரை	උඩුවර අඟුරුවාතොට, බෙගමුව- යටවර පාර, ශ්‍රී ලංකාව	உடுவாரா அங்குருவடோட்டா, பெகமுவா- யதவாரா சாலை, இலங்கை
Kalutara	Thebuwana	Divisional Hospital – Neboda	False	False	KLTRTHBWNDVSNLHSPTLNBD		Kalutara	LK-13	6.577316	80.127363	Thebuwana	PS-1302105	6.654997	80.058183	6.570354	80.073048	wellatha Neboda ., Neboda - Wellatha Rd, Sri Lanka	9.557015		කළුතර	තෙබුවන	ප්‍රාදේශීය රෝහල - නැබොඩ	களுத்துறை	தேபுவானா	பிரிவு மருத்துவமனை - நெபோடா	වෙල්ලතා නැබොඩ., නැබොඩ - වෙල්ලත පාර, ශ්‍රී ලංකාව	வெல்லதா நெபோடா., நெபோடா - வெல்லதா ஆர்ட், இலங்கை
Kalutara	Dodangoda	MOH Office – Dodangoda	False	False	KLTRDDNGDMHFFCDDNGD	6.540366199937832,80.03661033076219	Kalutara	LK-13	6.577316	80.127363	Dodangoda	PS-130299	6.553375	80.023569	6.541731	80.04335	Dodangoda, Sri Lanka	2.540775		කළුතර	දොඩන්ගොඩ	6.540366199937832,80.03661033076219	களுத்துறை	தொடங்கொட	6.540366199937832,80.03661033076219	දොඩන්ගොඩ, ශ්‍රී ලංකාව	தொடங்கொட, இலங்கை
Kalutara	Dodangoda	Dodangoda Hospital	False	False	KLTRDDNGDDDNGDHSPTL		Kalutara	LK-13	6.577316	80.127363	Dodangoda	PS-130299	6.553375	80.023569	6.540961	80.036553	Wilpatha Rd, Sri Lanka	1.991373		කළුතර	දොඩන්ගොඩ	දොඩන්ගොඩ රෝහල	களுத்துறை	தொடங்கொட	தொடங்கொட மருத்துவமனை	විල්පත පාර, ශ්‍රී ලංකාව	வில்பதா சாலை, இலங்கை
Kalutara	Dodangoda	Bombuwala Mankada Viharaya	False	False	KLTRDDNGDBMBWLMNKDVHRY		Kalutara	LK-13	6.577316	80.127363	Dodangoda	PS-130299	6.553375	80.023569	6.575407	80.01428	Bombuwala, Sri Lanka	2.656896		කළුතර	දොඩන්ගොඩ	බෝම්බුවල මාන්කඩ විහාරය	களுத்துறை	தொடங்கொட	பொம்புவலா மங்காடா விஹாராயா	බෝම්බුවල, ශ්‍රී ලංකාව	பம்புவாலா, இலங்கை
Kalutara	Dodangoda	Miriswatta National College	False	False	KLTRDDNGDMRSWTTNTNLCLLG		Kalutara	LK-13	6.577316	80.127363	Dodangoda	PS-130299	6.553375	80.023569	6.549825	80.029992	G2XH+WXH, Kalutara, Sri Lanka	0.812209		කළුතර	දොඩන්ගොඩ	මිරිස්වත්ත ජාතික විද්‍යාලය	களுத்துறை	தொடங்கொட	மிரிஸ்வத்த தேசிய கல்லூரி	G2XH+WXH, කළුතර, ශ්‍රී ලංකාව	G2XH+WXH, களுத்துறை, இலங்கை
Kalutara	Matugama	MOH Office - Matugama	False	False	KLTRMTGMMHFFCMTGM		Kalutara	LK-13	6.577316	80.127363	Mathugama	PS-1302103	6.520881	80.117908	6.523544	80.126443	G4FG+CH8, Matugama, Sri Lanka	0.988725		කළුතර	මතුගම	MOH කාර්යාලය - මතුගම	களுத்துறை	மத்துகம	MOH அலுவலகம் - மத்துகம	G4FG+CH8, මතුගම, ශ්‍රී ලංකාව	G4FG+CH8, மத்துகம, இலங்கை
Kalutara	Matugama	Sirikandura State permises	False	False	KLTRMTGMSRKNDRSTTPRMSS		Kalutara	LK-13	6.577316	80.127363	Mathugama	PS-1302103	6.520881	80.117908	6.509835	80.135693	Sirikandura Estate, Sirikadura Rd, Matugama, Sri Lanka	2.317875		කළුතර	මතුගම	සිරිකඳුර රාජ්‍ය පරිශ්‍රය	களுத்துறை	மத்துகம	சிறிகந்துரா மாநில வளாகம்	සිරිකඳුර වත්ත, සිරිකදුර පාර, මතුගම, ශ්‍රී ලංකාව	சிறிகந்துரா எஸ்டேட், சிறிகதுரா சாலை, மத்துகம, இலங்கை
Kalutara	Matugama	Ananda Shasthralaya National College	False	False	KLTRMTGMNNDSHSTHRLYNTNLCLLG		Kalutara	LK-13	6.577316	80.127363	Mathugama	PS-1302103	6.520881	80.117908	6.524298	80.116714	Ananda Sasthralaya Rd, Matugama, Sri Lanka	0.402325		කළුතර	මතුගම	ආනන්ද ශාස්ත්‍රාලය ජාතික විද්‍යාලය	களுத்துறை	மத்துகம	ஆனந்த சாஸ்திராலயா தேசிய கல்லூரி	ආනන්ද ශාස්ත්‍රාලය පාර, මතුගම, ශ්‍රී ලංකාව	ஆனந்த சாஸ்திராலயா சாலை, மத்துகம, இலங்கை
Kalutara	Matugama	Katugahahena Hospital	False	False	KLTRMTGMKTGHHNHSPTL		Kalutara	LK-13	6.577316	80.127363	Mathugama	PS-1302103	6.520881	80.117908	6.489328	80.08471	F3QM+PVP, Bopitiya, Sri Lanka	5.077192		කළුතර	මතුගම	කටුගහහේන රෝහල	களுத்துறை	மத்துகம	கட்டுகஹஹேனா மருத்துவமனை	F3QM+PVP, බෝපිටිය, ශ්‍රී ලංකාව	F3QM+PVP, போபிடியா, இலங்கை
Kalutara	Agalawatta	Bellana Maha Vidyalaya	False	False	KLTRGLWTTBLLNMHVDYLY		Kalutara	LK-13	6.577316	80.127363	Agalawatta		6.542566	80.157178	6.521895	80.17809	Tiruwanaketiya-Agalawatte Rd, Bellana, Sri Lanka	3.259893		කළුතර	අගලවත්ත	බෙල්ලන මහා විද්‍යාලය	களுத்துறை	அகலவத்தை	பெல்லானா மகா வித்தியாலயம்	තිරුවානකැටිය-අගලවත්ත පාර, බෙලාන, ශ්‍රී ලංකාව	திருவனகெட்டிய-அகலவத்தை சாலை, பெல்லானா, இலங்கை
Kalutara	Agalawatta	Pimbura Hospital	False	False	KLTRGLWTTPMBRHSPTL		Kalutara	LK-13	6.577316	80.127363	Agalawatta		6.542566	80.157178	6.575949	80.158371	H5G5+98H, කළුතර, Sri Lanka	3.715525		කළුතර	අගලවත්ත	පිඹුර රෝහල	களுத்துறை	அகலவத்தை	பிம்புரா மருத்துவமனை	H5G5+98H, කළුතර, ශ්‍රී ලංකාව	H5G5+98H, கருப்புதர, இலங்கை
Kalutara	Meegahathenna	Meegahathenna Primary School	False	False	KLTRMGHTHNNMGHTHNNPRMRYSCHL		Kalutara	LK-13	6.577316	80.127363	Meegahathenna	PS-1302107	6.436941	80.1943	6.437225	80.191542	C5PR+VJM, Migahatenna, Sri Lanka	0.30647		කළුතර	මීගහතැන්න	මීගහතැන්න ප්‍රාථමික විද්‍යාලය	களுத்துறை	மீகஹதென்ன	மீகஹதென்ன ஆரம்பப் பள்ளி	සී 5 පීආර්+වීජේඑම්, මිගහතැන්න, ශ්‍රී ලංකාව	C5PR+VJM, மிகஹதென்ன, இலங்கை
Kalutara	Wadduwa	Prime Minister's College – Wadduwa	False	False	KLTRWDDWPRMMNSTRSCLLGWDDW		Kalutara	LK-13	6.577316	80.127363	Wadduwa	PS-130188	6.664403	79.929851	6.660266	79.936966	Wadduwa, Sri Lanka	0.91084		කළුතර	වාද්දුව	අගමැති විද්‍යාලය - වාද්දුව	களுத்துறை	வாத்துவா	பிரதம மந்திரி கல்லூரி - வாத்துவ	වාද්දුව, ශ්‍රී ලංකාව	வாத்துவா, இலங்கை
Kalutara	Wadduwa	Gonaduwa Hospital	False	False	KLTRWDDWGNDWHSPTL		Kalutara	LK-13	6.577316	80.127363	Wadduwa	PS-130188	6.664403	79.929851	6.671445	79.972598	Hospital Bus Stop, Waskaduwa - Bandaragama Rd, Maha Gonaduwa, Sri Lanka	4.787096		කළුතර	වාද්දුව	ගෝනඩුව රෝහල	களுத்துறை	வாத்துவா	கோனடுவா மருத்துவமனை	රෝහල් බස් නැවතුම, වස්කඩුව - බණ්ඩාරගම පාර, මහා ගොනඩුව, ශ්‍රී ලංකාව	மருத்துவமனை பேருந்து நிறுத்தம், வாஸ்கடுவ - பண்டாரகம வீதி, மகா கோனடுவ, இலங்கை
Kalutara	Payagala	Hirigalgoda Vidyalaya	False	False	KLTRPYGLHRGLGDVDYLY		Kalutara	LK-13	6.577316	80.127363	Payagala	PS-130298	6.541144	79.974855	6.519709	79.991532	Yatadola Rd, Maggona, Sri Lanka	3.013454		කළුතර	පයාගල	හිරිගල්ගොඩ විද්‍යාලය	களுத்துறை	பயாகலா	ஹிரிகல்கொட வித்யாலயா	යටදොළ පාර, මග්ගොන, ශ්‍රී ලංකාව	யடடோலா சாலை, மாகோனா, இலங்கை
Kalutara	Payagala	Halkadawila Vidyalaya	False	False	KLTRPYGLHLKDWLVDYLY		Kalutara	LK-13	6.577316	80.127363	Payagala	PS-130298	6.541144	79.974855	6.519709	79.991532	Yatadola Rd, Maggona, Sri Lanka	3.013454		කළුතර	පයාගල	හල්කඩවිල විද්‍යාලය	களுத்துறை	பயாகலா	ஹல்கடவில வித்யாலயா	යටදොළ පාර, මග්ගොන, ශ්‍රී ලංකාව	யடடோலா சாலை, மாகோனா, இலங்கை
Kalutara	Kalutara South	Palatota Gangaramaya	False	False	KLTRKLTRSTHPLTTGNGRMY		Kalutara	LK-13	6.577316	80.127363	Kalutara South	PS-130296	6.58486	79.961043	6.59577	79.963203	HXW7+874, Wadduwa, Sri Lanka	1.236765		කළුතර	කළුතර දකුණ	පලතොට ගංගාරාමය	களுத்துறை	களுத்துறை தெற்கு	பாலதோட கங்கராமையா	HXW7+874, වාද්දුව, ශ්‍රී ලංකාව	HXW7+874, வாத்துவா, இலங்கை
Kalutara	Millaniya	MOH Office – Millaniya	False	False	KLTRMLLNYMHFFCMLLNY		Kalutara	LK-13	6.577316	80.127363	Millaniya	PS-130191	6.681692	80.020847	6.724224	79.907284	A2, Panadura, Sri Lanka	13.407612		කළුතර	මිල්ලනිය	MOH කාර්යාලය - මිල්ලනිය	களுத்துறை	மில்லனியா	MOH அலுவலகம் - மில்லனியா	ඒ 2, පානදුර, ශ්‍රී ලංකාව	ஏ 2, பாணந்துரா, இலங்கை
Kalutara	Baduraliya	Baduraliya Hospital	False	False	KLTRBDRLYBDRLYHSPTL		Kalutara	LK-13	6.577316	80.127363	Baduraliya	PS-1302106	6.516756	80.226716	6.514727	80.232731	Tiruwanaketiya-Agalawatte Rd, Baduraliya, Sri Lanka	0.702098		කළුතර	බදුරලිය	බදුරලිය රෝහල	களுத்துறை	பதுரலியா	பதுரலியா மருத்துவமனை	තිරුවානකැටිය-අගලවත්ත පාර, බදුරලිය, ශ්‍රී ලංකාව	திருவனகெட்டிய-அகலவத்தை சாலை, பதுரலியா, இலங்கை
Kalutara	Baduraliya	Morapitiya Veediya Bandara Maha Vidyalaya	False	False	KLTRBDRLYMRPTYVDYBNDRMHVDYLY		Kalutara	LK-13	6.577316	80.127363	Baduraliya	PS-1302106	6.516756	80.226716	6.537873	80.268623	Rathnapura Road,Morapitiya,, Sri Lanka	5.192745		කළුතර	බදුරලිය	මොරපිටිය වීදිය බණ්ඩාර මහා විද්‍යාලය	களுத்துறை	பதுரலியா	மொரபிட்டிய வீதிய பண்டார மகா வித்தியாலயம்	රත්නපුර පාර, මොරපිටිය, ශ්‍රී ලංකාව	இரத்தினபுரி சாலை, மொராபிட்டிய ,, இலங்கை
Kalutara	Bandragama	Maithri Hall - Bandaragama	False	False	KLTRBNDRGMMTHRHLLBNDRGM		Kalutara	LK-13	6.577316	80.127363	Bandaragama	PS-130189	6.715179	79.987674	6.713508	79.990766	PX7R+C82, Bandaragama, Sri Lanka	0.388859		කළුතර	බණ්ඩාරගම	මෛත් රී ශාලාව - බණ්ඩාරගම	களுத்துறை	பந்த்ரகம	மைத்திரி மண்டபம் - பண்டாரகம	PX7R+C82, බණ්ඩාරගම, ශ්‍රී ලංකාව	PX7R+C82, பண்டாரகம, இலங்கை
Kalutara	Bandragama	Bandaragama Hospital	False	False	KLTRBNDRGMBNDRGMHSPTL		Kalutara	LK-13	6.577316	80.127363	Bandaragama	PS-130189	6.715179	79.987674	6.716162	79.991484	Horana Rd, Bandaragama, Sri Lanka	0.434849		කළුතර	බණ්ඩාරගම	බණ්ඩාරගම රෝහල	களுத்துறை	பந்த்ரகம	பண்டாரகம மருத்துவமனை	හොරණ පාර, බණ්ඩාරගම, ශ්‍රී ලංකාව	ஹொரானா வீதி, பண்டாரகம, இலங்கை
Kalutara	Bandragama	Maha Arukbogoda Viharaya	False	False	KLTRBNDRGMMHRKBGDVHRY		Kalutara	LK-13	6.577316	80.127363	Bandaragama	PS-130189	6.715179	79.987674	6.7075	79.991389	Kalutara Rd., Bandaragama., Waskaduwa - Bandaragama Rd, Bandaragama, Sri Lanka	0.947609		කළුතර	බණ්ඩාරගම	මහා අරුක්බොගොඩ විහාරය	களுத்துறை	பந்த்ரகம	மஹா அருக்போகொட விஹாராயா	කළුතර පාර, බණ්ඩාරගම., වස්කඩුව - බණ්ඩාරගම පාර, බණ්ඩාරගම, ශ්‍රී ලංකාව	களுத்துறை வீதி, பண்டாரகம., வாஸ்கடுவ - பண்டாரகம வீதி, பண்டாரகம, இலங்கை
Kalutara	Bandragama	Gammanpila Viharaya	False	False	KLTRBNDRGMGMMNPLVHRY		Kalutara	LK-13	6.577316	80.127363	Bandaragama	PS-130189	6.715179	79.987674	6.713096	79.995265	Atulugama Rd, Bandaragama, Sri Lanka	0.869974		කළුතර	බණ්ඩාරගම	ගම්මන්පිල විහාරය	களுத்துறை	பந்த்ரகம	கம்மன்பில விஹாராயா	අතුළුගම පාර, බණ්ඩාරගම, ශ්‍රී ලංකාව	அதுலுகம வீதி, பண்டாரகம, இலங்கை
Kalutara	Panadura South	Walana Mahanama Vidyalaya	False	False	KLTRPNDRSTHWLNMHNMVDYLY		Kalutara	LK-13	6.577316	80.127363	Panadura South	PS-130186	6.720941	79.907315	6.725866	79.907901	PWG5+85R, Panadura, Sri Lanka	0.551618		කළුතර	පානදුර දකුණ	වලානා මහානාම විද්‍යාලය	களுத்துறை	பாணந்துறை தெற்கு	வலான மகாநாம வித்யாலயா	PWG5+85R, පානදුර, ශ්‍රී ලංකාව	PWG5+85R, பாணந்துரா, இலங்கை
Kalutara	Panadura South	Sumangala Boys' School - Panadura	False	False	KLTRPNDRSTHSMNGLBYSSCHLPNDR		Kalutara	LK-13	6.577316	80.127363	Panadura South	PS-130186	6.720941	79.907315	6.710155	79.914215	Sri Sumangala College, Panadura 12500, Sri Lanka	1.421379		කළුතර	පානදුර දකුණ	සුමංගල පිරිමි විද්‍යාලය - පානදුර	களுத்துறை	பாணந்துறை தெற்கு	சுமங்கல ஆண்கள் பள்ளி - பாணந்துறை	ශ්‍රී සුමංගල විද්‍යාලය, පානදුර 12500, ශ්‍රී ලංකාව	ஸ்ரீ சுமங்கலா கல்லூரி, பாணந்துரா 12500, இலங்கை
Kalutara	Panadura South	Keselwatta Jilan Vidyalaya	False	False	KLTRPNDRSTHKSLWTTJLNVDYLY		Kalutara	LK-13	6.577316	80.127363	Panadura South	PS-130186	6.720941	79.907315	6.752794	79.903778	50 Thakshala Rd, Panadura 12500, Sri Lanka	3.564481		කළුතර	පානදුර දකුණ	කෙසෙල්වත්ත ජිලාන් විද්‍යාලය	களுத்துறை	பாணந்துறை தெற்கு	கெசல்வத்த ஜிலன் வித்யாலயா	50 තක්ෂලා පාර, පානදුර 12500, ශ්‍රී ලංකාව	50 தக்ஷலா சாலை, பாணந்துரா 12500, இலங்கை
Kurunegala	Rasnayakapura	Abokkagama Vidyalaya	False	False	KRNGLRSNYKPRBKKGMVDYLY		Kurunegala	LK-61	7.66477	80.23677	Rasnayakapura	PS-610323	7.776658	80.012692	7.775358	80.021998	Q2GC+4QX, Puttalam, Sri Lanka	1.03573		කුරුණෑගල	රස්නායකපුර	අබොක්කගම විද්‍යාලය	குருநாகல்	ரஸ்நாயகாபுரா	அபொக்ககம வித்தியாலயம்	Q2GC+4QX, පුත්තලම, ශ්‍රී ලංකාව	Q2GC+4QX, புத்தளம், இலங்கை
Kurunegala	Rasnayakapura	Unagolla Vidyalaya	False	False	KRNGLRSNYKPRNGLLVDYLY		Kurunegala	LK-61	7.66477	80.23677	Rasnayakapura	PS-610323	7.776658	80.012692	7.775358	80.021998	Q2GC+4QX, Puttalam, Sri Lanka	1.03573		කුරුණෑගල	රස්නායකපුර	උණගොල්ල විද්‍යාලය	குருநாகல்	ரஸ்நாயகாபுரா	உனகொல்லா வித்யாலயா	Q2GC+4QX, පුත්තලම, ශ්‍රී ලංකාව	Q2GC+4QX, புத்தளம், இலங்கை
Kurunegala	Nikaweratiya	Nikaweratiya Fair Premises	False	False	KRNGLNKWRTYNKWRTYFRPRMSS		Kurunegala	LK-61	7.66477	80.23677	Nikaweratiya	PS-610320	7.742612	80.121177	7.746386	80.131693	Nikaweratiya, Sri Lanka	1.232701		කුරුණෑගල	නිකවැරටිය	නිකවැරටිය පොළ පරිශ්‍රය	குருநாகல்	நிகவெரட்டியா	நிகவெரட்டிய சிகப்பு வளாகம்	නිකවැරටිය, ශ්‍රී ලංකාව	நிகவெரட்டிய, இலங்கை
Kurunegala	Galgamuwa	Meegalewa Hospital	False	False	KRNGLGLGMWMGLWHSPTL		Kurunegala	LK-61	7.66477	80.23677	Galgamuwa	PS-610327	8.000932	80.277867	8.057144	80.355761	3944+V82, Meegalewa, Sri Lanka	10.615833		කුරුණෑගල	ගල්ගමුව	මීගලෑව රෝහල	குருநாகல்	கல்கமுவா	மீகலேவா மருத்துவமனை	3944+වී 82, මීගලෑව, ශ්‍රී ලංකාව	3944+V82, மீகலேவா, இலங்கை
Kurunegala	Alawwa	Akbowa Maha Vidyalaya	False	False	KRNGLLWWKBWMHVDYLY		Kurunegala	LK-61	7.66477	80.23677	Alawwa	PS-610103	7.295909	80.24277	7.301775	80.237185	Alawwa-Dampelessa Rd, Alawwa 60280, Sri Lanka	0.897444		කුරුණෑගල	අලව්ව	අක්බෝව මහා විද්‍යාලය	குருநாகல்	அலவ்வா	அக்போவா மகா வித்தியாலயம்	අලව්ව-දම්පැලැස්ස පාර, අලව්ව 60280, ශ්‍රී ලංකාව	அலவ்வா-டம்பெலெஸா சாலை, அலவ்வா 60280, இலங்கை
Kurunegala	Maho	Thisnampalaga Vidyalaya	False	False	KRNGLMHTHSNMPLGVDYLY		Kurunegala	LK-61	7.66477	80.23677	Maho	PS-610324	7.824001	80.28038	7.826372	80.268023	Nikaweratiya - Moragollagama - Siyambalangamuwa, Maho 60600, Sri Lanka	1.386972		කුරුණෑගල	මහෝ	තිසනම්පලග විද්‍යාලය	குருநாகல்	மஹோ	திஸ்னாம்பலகா வித்யாலயா	නිකවැරටිය - මොරගොල්ලාගම - සියඹලන්ගමුව, මහෝ 60600, ශ්‍රී ලංකාව	நிகவெரட்டிய - மொரகொல்லாகம - சியம்பலங்கமுவ, மஹோ 60600, இலங்கை
Kurunegala	Pothuhera	Arambepola Vidyalaya	False	False	KRNGLPTHHRRMBPLVDYLY		Kurunegala	LK-61	7.66477	80.23677	Pothuhera	PS-610104	7.416243	80.327534	7.400738	80.339804	Arambepola, Pothuhera, Sri Lanka	2.192257		කුරුණෑගල	පොතුහැර	අරඹේපොළ විද්‍යාලය	குருநாகல்	பொதுஹெரா	ஆரம்பம்பொல வித்தியாலயம்	අරඹේපොල, පොතුහැර, ශ්‍රී ලංකාව	அரம்பேபோல, பொதுஹெரா, இலங்கை
Kurunegala	Pothuhera	Wimalasurendra Vidyalaya Wadakada	False	False	KRNGLPTHHRWMLSRNDRVDYLYWDKD		Kurunegala	LK-61	7.66477	80.23677	Pothuhera	PS-610104	7.416243	80.327534	7.39575	80.266257	97W8+7GR, Kurunegala, Sri Lanka	7.132987		කුරුණෑගල	පොතුහැර	විමලසුරේන්ද්‍ර විද්‍යාලය, වකඩ	குருநாகல்	பொதுஹெரா	விமலசுரேந்திர வித்யாலயா வடகடா	97W8+7GR, කුරුණෑගල, ශ්‍රී ලංකාව	97W8+7GR, குருநாகல், இலங்கை
Kurunegala	Pothuhera	Hiripathwewa Viharaya	False	False	KRNGLPTHHRHRPTHWWVHRY		Kurunegala	LK-61	7.66477	80.23677	Pothuhera	PS-610104	7.416243	80.327534	7.48751	80.370935	F9QC+293, Kurunegala, Sri Lanka	9.260141		කුරුණෑගල	පොතුහැර	හිරිපත්වැව විහාරය	குருநாகல்	பொதுஹெரா	ஹிரிபத்வெவ விஹாராயா	F9QC+293, කුරුණෑගල, ශ්‍රී ලංකාව	F9QC+293, குருநாகல், இலங்கை
Kurunegala	Mawatagama	Ilukewela Viharaya	False	False	KRNGLMWTGMLKWLVHRY		Kurunegala	LK-61	7.66477	80.23677	Mawathagama	PS-610109	7.432976	80.449904	7.458741	80.451416	Arampola - Thalgaspitiya Rd, Mawathagama, Sri Lanka	2.870684		කුරුණෑගල	මාවතගම	ඉලුකෙවෙල විහාරය	குருநாகல்	மாவடகம	இலுகேவெல விஹாராயா	අරම්පොල - තල්ගස්පිටිය පාර, මාවතගම, ශ්‍රී ලංකාව	அரம்பொல - தல்கஸ்பிட்டிய வீதி, மாவத்தகம, இலங்கை
Kurunegala	Mawatagama	Pilessa Maha Vidyalaya	False	False	KRNGLMWTGMPLSSMHVDYLY		Kurunegala	LK-61	7.66477	80.23677	Mawathagama	PS-610109	7.432976	80.449904	7.453153	80.418221	Pilessa,Kurunegala, Sri Lanka	4.153029		කුරුණෑගල	මාවතගම	පිලැස්ස මහා විද්‍යාලය	குருநாகல்	மாவடகம	பைலஸ்ஸா மகா வித்தியாலயம்	පිලැස්ස, කුරුණෑගල, ශ්‍රී ලංකාව	பிலெஸ்ஸா, குருநாகல், இலங்கை
Puttalam	Chilaw	Ananda National College	False	False	PTTLMCHLWNNDNTNLCLLG		Puttalam	LK-62	7.973531	79.913833	Chilaw	PS-620241	7.576197	79.788003	7.571297	79.799123	Puttalam - Colombo Rd, Chilaw, Sri Lanka	1.341767		පුත්තලම	භලාවත	ආනන්ද ජාතික විද්‍යාලය	புத்தளம்	சிலாபம்	ஆனந்தா தேசிய கல்லூரி	පුත්තලම - කොළඹ පාර, හලාවත, ශ්‍රී ලංකාව	புத்தளம் - கொழும்பு வீதி, சிலாபம், இலங்கை
Puttalam	Wennappuwa	Joshep Vas Colleg	False	False	PTTLMWNNPPWJSHPVSCLLG		Puttalam	LK-62	7.973531	79.913833	Wennappuwa	PS-620245	7.339623	79.843017	7.338961	79.841754	Puttalam Road, Wennappuwa, Sri Lanka	0.157593		පුත්තලම	වෙන්නප්පුව	ජෝෂප් වාස් කොලෙග්	புத்தளம்	வென்னப்புவா	ஜோசப் வாஸ் கல்லூரி	පුත්තලම පාර, වෙන්නප්පුව, ශ්‍රී ලංකාව	புத்தளம் சாலை, வென்னப்புவ, இலங்கை
Puttalam	Wennappuwa	Thambaravila Primary School	False	False	PTTLMWNNPPWTHMBRVLPRMRYSCHL		Puttalam	LK-62	7.973531	79.913833	Wennappuwa	PS-620245	7.339623	79.843017	7.496326	79.856808	Kurunegala-Narammala-Madampe Rd, Madampe, Sri Lanka	17.496298		පුත්තලම	වෙන්නප්පුව	තඹරවිල ප්‍රාථමික විද්‍යාලය	புத்தளம்	வென்னப்புவா	தம்பரவில ஆரம்பப் பள்ளி	කුරුණෑගල-නාරම්මල-මාදම්පේ පාර, මාදම්පේ, ශ්‍රී ලංකාව	குருநாகல்-நாரம்மாலா-மாதம்பே சாலை, மாதம்பே, இலங்கை
Puttalam	Wennappuwa	Dummaladeniya Viharaya	False	False	PTTLMWNNPPWDMMLDNYVHRY		Puttalam	LK-62	7.973531	79.913833	Wennappuwa	PS-620245	7.339623	79.843017	7.324478	79.849106	Nainamadama, Sri Lanka	1.813569		පුත්තලම	වෙන්නප්පුව	දුම්මලදෙණිය විහාරය	புத்தளம்	வென்னப்புவா	தும்மலதெனிய விஹாராயா	නයිනමඩම, ශ්‍රී ලංකාව	நைனமடாமா, இலங்கை
Puttalam	Wennappuwa	Bandirippuwa Primary School	False	False	PTTLMWNNPPWBNDRPPWPRMRYSCHL		Puttalam	LK-62	7.973531	79.913833	Wennappuwa	PS-620245	7.339623	79.843017	7.324791	79.870284	Bandirippuwa East, Sri Lanka	3.430801		පුත්තලම	වෙන්නප්පුව	බණ්ඩිරිප්පුව ප්‍රාථමික විද්‍යාලය	புத்தளம்	வென்னப்புவா	பண்டிரிப்புவ தொடக்கப்பள்ளி	බණ්ඩිරිප්පුව නැගෙනහිර, ශ්‍රී ලංකාව	பண்டிரிப்புவா கிழக்கு, இலங்கை
Puttalam	Dankotuwa	Wekada Maha Vidyalaya	False	False	PTTLMDNKTWWKDMHVDYLY		Puttalam	LK-62	7.973531	79.913833	Dankotuwa	PS-620246	7.300337	79.882595	7.294468	79.928811	7WVH+QGM, Puttalam, Sri Lanka	5.140579		පුත්තලම	දන්කොටුව	වෑකඩ මහා විද්‍යාලය	புத்தளம்	டாங்கொட்டுவா	வெகடா மகா வித்தியாலயம்	7WVH+QGM, පුත්තලම, ශ්‍රී ලංකාව	7WVH+QGM, புத்தளம், இலங்கை
Puttalam	Koswatta	Pothuwatawana Vidyalaya	False	False	PTTLMKSWTTPTHWTWNVDYLY		Puttalam	LK-62	7.973531	79.913833	Koswatta	PS-620244	7.374528	79.898302	7.358541	79.916471	Lihiriyagama Rd, Sri Lanka	2.679392		පුත්තලම	කොස්වත්ත	පොතුවටවන විද්‍යාලය	புத்தளம்	கொஸ்வத்த	பொதுவாதவன வித்தியாலயம்	ලිහිරියාගම පාර, ශ්‍රී ලංකාව	லிஹிரியாகம சாலை, இலங்கை
Puttalam	Marawila	Katuneriya Primary School	False	False	PTTLMMRWLKTNRYPRMRYSCHL		Puttalam	LK-62	7.973531	79.913833	Marawila	PS-620243	7.415075	79.839776	7.364706	79.832758	9R7M+V4J, Katuneriya, Sri Lanka	5.655765		පුත්තලම	මාරවිල	කටුනේරිය ප්‍රාථමික විද්‍යාලය	புத்தளம்	மாரவில	கட்டுனேரியா ஆரம்பப் பள்ளி	9 ආර් 7 එම්+වී 4 ජේ, කටුනේරිය, ශ්‍රී ලංකාව	9R7M+V4J, கட்டுனேரியா, இலங்கை
Puttalam	Nawagattegama	Multi Task Centre - Nawagattegama	False	False	PTTLMNWGTTGMMLTTSKCNTRNWGTTGM		Puttalam	LK-62	7.973531	79.913833	Nawagaththegama	PS-620133	8.002882	80.106543	8.00654	80.112149	Nawagattegama, Sri Lanka	0.73948		පුත්තලම	නවගත්තේගම	බහුකාර්ය මධ්‍යස්ථානය - නවගත්තේගම	புத்தளம்	நவகத்தேகம	பல்பணி மையம் - நவகத்தேகம	නවගත්තේගම, ශ්‍රී ලංකාව	நவகத்தேகம, இலங்கை
Puttalam	Wanathwilluwa	Banadaranayakapura Vidyalaya	False	False	PTTLMWNTHWLLWBNDRNYKPRVDYLY		Puttalam	LK-62	7.973531	79.913833	Wanathawilluwa	PS-620134	8.188137	79.858447	8.028082	79.840608	Katugastota-Kurunegala-Puttalam Hwy, Puttalam, Sri Lanka	17.91094		පුත්තලම	වනාතවිල්ලුව	බණදරනායකපුර විද්‍යාලය	புத்தளம்	வனத்வில்லுவா	பனதாரநாயகபுர வித்யாலயா	කටුගස්තොට-කුරුණෑගල-පුත්තලම හ්වි, පුත්තලම, ශ්‍රී ලංකාව	கட்டுகஸ்தோட்டா-குருநாகல்-புத்தளம் Hwy, புத்தளம், இலங்கை
Puttalam	Wanathwilluwa	Watitakandal Vidyalaya	False	False	PTTLMWNTHWLLWWTTKNDLVDYLY		Puttalam	LK-62	7.973531	79.913833	Wanathawilluwa	PS-620134	8.188137	79.858447	7.341361	79.892557	8VRV+G2V, Kirimatiyana Junction, Sri Lanka	94.261743	#CenterFarFromPolice	පුත්තලම	වනාතවිල්ලුව	වටිටකන්දල් විද්‍යාලය	புத்தளம்	வனத்வில்லுவா	வாடிடகண்டல் வித்யாலயா	8VRV+G2V, කිරිමැටියාන හන්දිය, ශ්‍රී ලංකාව	8VRV+G2V, கிரிமதியான சந்தி, இலங்கை
Puttalam	Wanathwilluwa	Wijayapura Primary School	False	False	PTTLMWNTHWLLWWJYPRPRMRYSCHL		Puttalam	LK-62	7.973531	79.913833	Wanathawilluwa	PS-620134	8.188137	79.858447	8.025991	79.847127	Puttalam, Sri Lanka	18.078388		පුත්තලම	වනාතවිල්ලුව	විජයපුර ප්‍රාථමික විද්‍යාලය	புத்தளம்	வனத்வில்லுவா	விஜயபுரா தொடக்கப்பள்ளி	පුත්තලම, ශ්‍රී ලංකාව	புத்தளம், இலங்கை
Puttalam	Wanathwilluwa	Pallama Ground	False	False	PTTLMWNTHWLLWPLLMGRND		Puttalam	LK-62	7.973531	79.913833	Wanathawilluwa	PS-620134	8.188137	79.858447	8.025991	79.847127	Puttalam, Sri Lanka	18.078388		පුත්තලම	වනාතවිල්ලුව	පල්ලම පිටිය	புத்தளம்	வனத்வில்லுவா	பல்லாமா மைதானம்	පුත්තලම, ශ්‍රී ලංකාව	புத்தளம், இலங்கை
Puttalam	Anamaduwa	MOH Office - Anamaduwa	False	False	PTTLMNMDWMHFFCNMDW		Puttalam	LK-62	7.973531	79.913833	Anamaduwa	PS-620131	7.874852	80.01316	7.889992	80.010421	V2Q6+X5V, Anamaduwa, Sri Lanka	1.710846		පුත්තලම	ආණමඩුව	MOH කාර්යාලය - ආණමඩුව	புத்தளம்	ஆனமடுவா	MOH அலுவலகம் - ஆனமடுவா	V2Q6+X5V, ආණමඩුව, ශ්‍රී ලංකාව	V2Q6+X5V, ஆனமடுவா, இலங்கை
Puttalam	Mundalama	Mundalama Maha Vidyalaya	False	False	PTTLMMNDLMMNDLMMHVDYLY		Puttalam	LK-62	7.973531	79.913833	Mundal	PS-620138	7.808859	79.825729	7.79154	79.82809	Puttlam Road, mundalama, Sri Lanka	1.943881		පුත්තලම	මුන්දලම	මුන්දලම මහා විද්‍යාලය	புத்தளம்	முண்டாலமா	முண்டலமா மகா வித்தியாலயம்	පුත්තලම් පාර, මුන්දලම, ශ්‍රී ලංකාව	புத்தளம் சாலை, முண்டாலமா, இலங்கை
Puttalam	Kadugannawa	MOH Office – Yatinuwara	False	False	PTTLMKDGNNWMHFFCYTNWR		Puttalam	LK-62	7.973531	79.913833	Kadugannawa	PS-210112	7.256285	80.516908	7.261486	80.533248	750 Colombo - Kandy Rd, Henawala, Sri Lanka	1.893468		පුත්තලම	කඩුගන්නාව	MOH කාර්යාලය - යටිනුවර	புத்தளம்	கடுகன்னாவா	MOH அலுவலகம் - யடினுவாரா	750 කොළඹ - නුවර පාර, හේනාවල, ශ්‍රී ලංකාව	750 கொழும்பு - கண்டி வீதி, ஹெனவாலா, இலங்கை
Kandy	Daulagala	Bambaradeniya Hospital	False	False	KNDYDLGLBMBRDNYHSPTL		Kandy	LK-21	7.27337	80.709602	Daulagala	PS-210111	7.227283	80.574409	7.203751	80.565657	Daulagala-Watadeniya Rd, Sri Lanka	2.78995		මහනුවර	දවුලගල	බම්බරදෙණිය රෝහල	கண்டி	தauலகலா	பம்பரதெனிய மருத்துவமனை	දවුලගල-වටදෙනිය පාර, ශ්‍රී ලංකාව	தவுலகலா-வடதேனியா சாலை, இலங்கை
Nuwara Eliya	Talawakelle	Watagoda Tamil College	False	False	NWRLYTLWKLLWTGDTMLCLLG		Nuwara Eliya	LK-23	6.97423	80.711222	Thalawakale	PS-230136	6.938198	80.662105	6.908287	80.680199	Nagasena Watagoda, Sri Lanka	3.880796		නුවරඑලිය	තලවකැලේ	වටගොඩ දෙමළ විද්‍යාලය	நுவரெலியா	தலவாக்கலை	வடகொட தமிழ் கல்லூரி	නාගසේන වටගොඩ, ශ්‍රී ලංකාව	நாகசேன வடகொட, இலங்கை
Nuwara Eliya	Nuwara Eliya	Municipal Council - Nuwara Eliya	False	False	NWRLYNWRLYMNCPLCNCLNWRLY		Nuwara Eliya	LK-23	6.97423	80.711222	Nuwaraeliya	PS-230131	6.974148	80.767627	6.97305	80.768352	Old Uda Pussellawa Rd, Nuwara Eliya 22200, Sri Lanka	0.146024		නුවරඑලිය	නුවරඑලිය	නගර සභාව - නුවරඑළිය	நுவரெலியா	நுவரெலியா	மாநகர சபை - நுவரெலியா	පැරණි උඩ පුස්සැල්ලාව පාර, නුවරඑළිය 22200, ශ්‍රී ලංකාව	பழைய உட புசெல்லவா சாலை, நுவரெலியா 22200, இலங்கை
Nuwara Eliya	Pudaluoya	jayahela National College	False	False	NWRLYPDLYJYHLNTNLCLLG		Nuwara Eliya	LK-23	6.97423	80.711222	Pudalu oya	PS-230132	6.907289	79.863819	7.01668	80.668529	2M89+MCC, Pundaluoya, Sri Lanka	89.677066	#CenterFarFromPolice	නුවරඑලිය	පුඩළුඔය	ජයහෙල ජාතික විද්‍යාලය	நுவரெலியா	புடலுஓயா	ஜெயஹேலா தேசிய கல்லூரி	2 එම් 89+එම්සීසී, පුණ්ඩළුඔය, ශ්‍රී ලංකාව	2M89+MCC, புண்டலுஓயா, இலங்கை
Nuwara Eliya	Kothmale	MOH Office – Kothmale	False	False	NWRLYKTHMLMHFFCKTHML		Nuwara Eliya	LK-23	6.97423	80.711222	Kotmale	PS-230134	7.063602	80.685054	7.062013	80.685533	3M6P+R63, Kothmale New Town, Sri Lanka	0.184484		නුවරඑලිය	කොත්මලේ	MOH කාර්යාලය - කොත්මලේ	நுவரெலியா	கோத்மலே	MOH அலுவலகம் - கொத்மலை	3 එම් 6 පී+ආර් 63, කොත්මලේ නව නගරය, ශ්‍රී ලංකාව	3M6P+R63, கொத்தமலை புதிய நகரம், இலங்கை
Nuwara Eliya	Udupussellawa	Rupaha Sadhananda Maha Vidyalaya	False	False	NWRLYDPSSLLWRPHSDHNNDMHVDYLY		Nuwara Eliya	LK-23	6.97423	80.711222	Udupussellawa	PS-230143	6.958254	80.930291	7.03093	80.907786	Rupaha Road, Walapane, Sri Lanka	8.456954		නුවරඑලිය	උඩුපුස්සැල්ලාව	රූපසාහානන්ද මහා විද්‍යාලය	நுவரெலியா	உடுபுசெல்லவா	ரூபஹா சதானந்த மகா வித்தியாலயம்	රූපහා පාර, වලපනේ, ශ්‍රී ලංකාව	ரூபஹா சாலை, வலப்பனே, இலங்கை
Nuwara Eliya	Udupussellawa	Madulla Vidyalaya	False	False	NWRLYDPSSLLWMDLLVDYLY		Nuwara Eliya	LK-23	6.97423	80.711222	Udupussellawa	PS-230143	6.958254	80.930291	7.053575	80.927879	Madulla, C343, Sri Lanka	10.605882		නුවරඑලිය	උඩුපුස්සැල්ලාව	මඩුල්ල විද්‍යාලය	நுவரெலியா	உடுபுசெல்லவா	மடுல்லா வித்தியாலயம்	මඩුල්ල, සී 343, ශ්‍රී ලංකාව	மதுல்லா, சி 343, இலங்கை
Nuwara Eliya	Udupussellawa	Kurupanawela Vidyalaya	False	False	NWRLYDPSSLLWKRPNWLVDYLY		Nuwara Eliya	LK-23	6.97423	80.711222	Udupussellawa	PS-230143	6.958254	80.930291	6.999782	80.906566	Udapussellawa-Welimada Road, Udupussellawa, Sri Lanka	5.31015		නුවරඑලිය	උඩුපුස්සැල්ලාව	කුරුපනාවල විද්‍යාලය	நுவரெலியா	உடுபுசெல்லவா	குருபனவெல வித்தியாலயம்	උඩපුස්සැල්ලාව-වැලිමඩ පාර, උඩුපුස්සැල්ලාව, ශ්‍රී ලංකාව	உடபுசெல்லவா-வெலிமட சாலை, உடுபுசெல்லவா, இலங்கை
Matale	Galewela	Galewela Hospital	False	False	MTLGLWLGLWLHSPTL		Matale	LK-22	7.667587	80.731008	Galewela	PS-220129	7.763244	80.574149	7.760542	80.571552	QH6C+6J7, Galewela, Sri Lanka	0.415026		මාතලේ	ගලේවෙල	ගලේවෙල රෝහල	மாத்தளை	கலேவெல	கலேவெல மருத்துவமனை	QH6C+6J7, ගලේවෙල, ශ්‍රී ලංකාව	QH6C+6J7, கலேவெல, இலங்கை
Matale	Galewela	Madipola Hospital	False	False	MTLGLWLMDPLHSPTL		Matale	LK-22	7.667587	80.731008	Galewela	PS-220129	7.763244	80.574149	7.685835	80.576848	MHPG+8PQ, Madipola, Sri Lanka	8.615328		මාතලේ	ගලේවෙල	මාදිපොල රෝහල	மாத்தளை	கலேவெல	மடிப்பொல மருத்துவமனை	MHPG+8PQ, මාදිපොල, ශ්‍රී ලංකාව	MHPG+8PQ, மடிபோலா, இலங்கை
Matale	Galewela	Thalakiriyagama Buddajanthi Viharaya	False	False	MTLGLWLTHLKRYGMBDDJNTHVHRY		Matale	LK-22	7.667587	80.731008	Galewela	PS-220129	7.763244	80.574149	7.855404	80.651345	Kandy - Jaffna Hwy, Dambulla, Sri Lanka	13.320981		මාතලේ	ගලේවෙල	තලකිරියාගම බුද්ධජන්ති විහාරය	மாத்தளை	கலேவெல	தலகிரியாகம புத்தஜந்தி விஹாராயா	මහනුවර - යාපනය හ්වි, දඹුල්ල, ශ්‍රී ලංකාව	கண்டி - யாழ்ப்பாணம், தம்புள்ளை, இலங்கை
Matale	Galewela	Makulugaswewa Vidyalaya	False	False	MTLGLWLMKLGSWWVDYLY		Matale	LK-22	7.667587	80.731008	Galewela	PS-220129	7.763244	80.574149	7.842251	80.579391	RHRH+WQ2, Makulugaswewa, Sri Lanka	8.806901		මාතලේ	ගලේවෙල	මකුළුගස්වැව විද්‍යාලය	மாத்தளை	கலேவெல	மகுலுகஸ்வெவ வித்தியாலயம்	ආර්එච්ආර්එච්+ඩබ්ලිව්කියු 2, මකුළුගස්වැව, ශ්‍රී ලංකාව	RHRH+WQ2, மகுலுகஸ்வெவா, இலங்கை
Matale	Dambulla	Lenagedra Hospital	False	False	MTLDMBLLLNGDRHSPTL		Matale	LK-22	7.667587	80.731008	Dambulla	PS-220128	7.86208	80.649166	7.846353	80.654133	A9, Dambulla, Sri Lanka	1.832928		මාතලේ	දඹුල්ල	ලෙනගෙදර රෝහල	மாத்தளை	தம்புள்ளை	லெனகெத்ரா மருத்துவமனை	ඒ 9, දඹුල්ල, ශ්‍රී ලංකාව	ஏ 9, தம்புள்ளா, இலங்கை
Matale	Dambulla	Kalundawa Dispensary	False	False	MTLDMBLLKLNDWDSPNSRY		Matale	LK-22	7.667587	80.731008	Dambulla	PS-220128	7.86208	80.649166	7.808265	80.658615	Kalundawa Road, Dambulla 21100, Sri Lanka	6.075714		මාතලේ	දඹුල්ල	කළුන්දාව බෙහෙත් ශාලාව	மாத்தளை	தம்புள்ளை	கலந்தாவா மருந்தகம்	කළුන්දාව පාර, දඹුල්ල 21100, ශ්‍රී ලංකාව	களுந்தாவா சாலை, தம்புள்ள 21100, இலங்கை
Matale	Dambulla	Sigiriya Maha Vidyalaya	False	False	MTLDMBLLSGRYMHVDYLY		Matale	LK-22	7.667587	80.731008	Dambulla	PS-220128	7.86208	80.649166	7.957253	80.760037	Sigiriya, 8 Ela pahalawewa, Dambulla 21100, Sri Lanka	16.163764		මාතලේ	දඹුල්ල	සීගිරිය මහා විද්‍යාලය	மாத்தளை	தம்புள்ளை	சிகிரியா மகா வித்தியாலயம்	සීගිරිය, 8 ඇල පහලවැව, දඹුල්ල 21100, ශ්‍රී ලංකාව	சிகிரியா, 8 எல பஹலவெவ, தம்புள்ள 21100, இலங்கை
Matale	Dambulla	DS Senanayaka Vidyalaya – Kandalama	False	False	MTLDMBLLDSSNNYKVDYLYKNDLM		Matale	LK-22	7.667587	80.731008	Dambulla	PS-220128	7.86208	80.649166	7.858174	80.68972	Kandalama Tank Acess Rd, Dambulla, Sri Lanka	4.489507		මාතලේ	දඹුල්ල	ඩීඑස් සේනානායක විදුහල - කණ්ඩලම	மாத்தளை	தம்புள்ளை	டிஎஸ் சேனாநாயக்க வித்யாலயா - கண்டலாமா	කණ්ඩලම ටැංකි පිවිසුම් පාර, දඹුල්ල, ශ්‍රී ලංකාව	கண்டலாமா டேங்க் ஏஸஸ் சாலை, தம்புள்ளா, இலங்கை
Matale	Dambulla	Digampathana Viharaya	False	False	MTLDMBLLDGMPTHNVHRY		Matale	LK-22	7.667587	80.731008	Dambulla	PS-220128	7.86208	80.649166	7.855404	80.651345	Kandy - Jaffna Hwy, Dambulla, Sri Lanka	0.78042		මාතලේ	දඹුල්ල	දිගම්පතන විහාරය	மாத்தளை	தம்புள்ளை	திகம்பதன விஹாராயா	මහනුවර - යාපනය හ්වි, දඹුල්ල, ශ්‍රී ලංකාව	கண்டி - யாழ்ப்பாணம், தம்புள்ளை, இலங்கை
Matale	Naula	Adawala Viharaya	False	False	MTLNLDWLVHRY		Matale	LK-22	7.667587	80.731008	Naula	PS-220126	7.692051	80.64963	7.669749	80.645856	Gedige Rd, Matale, Sri Lanka	2.51529		මාතලේ	නාවුලා	අඩවල විහාරය	மாத்தளை	நாவுலா	அடவாலா விஹாராயா	ගෙඩිගේ පාර, මාතලේ, ශ්‍රී ලංකාව	Gedige Rd, மாத்தளை, இலங்கை
Matale	Naula	Opalagama Vidyalaya	False	False	MTLNLPLGMVDYLY		Matale	LK-22	7.667587	80.731008	Naula	PS-220126	7.692051	80.64963	7.706636	80.656564	Elahera Road, Naula, Sri Lanka	1.793319		මාතලේ	නාවුලා	ඕපලගම විද්‍යාලය	மாத்தளை	நாவுலா	ஓபலகம வித்யாலயா	ඇලහැර පාර, නාඋල, ශ්‍රී ලංකාව	எலஹெரா சாலை, நாவுலா, இலங்கை
Matale	Akuressa	Pahala Maliduwa Viharaya	False	False	MTLKRSSPHLMLDWVHRY		Matale	LK-22	7.667587	80.731008	Akuressa	PS-320112	6.099044	80.4776	6.121173	80.420134	Pahala Maliduwa, Sri Lanka	6.815603		මාතලේ	අකුරැස්ස	පහළ මලිදුව විහාරය	மாத்தளை	அக்குரஸ்ஸா	பஹால மாலிடுவ விஹாராயா	පහළ මාලිඩුව, ශ්‍රී ලංකාව	பஹால மாலிடுவா, இலங்கை
Matara	Weligama	Kokmaduwa Primary School	False	False	MTRWLGMKKMDWPRMRYSCHL		Matara	LK-32	6.142734	80.539994	Weligama	PS-320111	5.973301	80.426455	6.023787	80.429393	Kokmaduwa Kananke Weligama Road, Sri Lanka	5.62494		මාතර	වැලිගම	කොක්මඩුව ප්‍රාථමික විද්‍යාලය	மாத்தறை	வெலிகம	கொக்மடுவா ஆரம்பப் பள்ளி	කොක්මඩුව කනංකේ වැලිගම පාර, ශ්‍රී ලංකාව	கோக்மடுவ கனங்கே வெலிகம சாலை, இலங்கை
Matara	Weligama	Denipitiya Maha Vidyalaya	False	False	MTRWLGMDNPTYMHVDYLY		Matara	LK-32	6.142734	80.539994	Weligama	PS-320111	5.973301	80.426455	5.979963	80.454755	Polathumodara, Polwathumodara - Denipitiya Rd, Denipitiya, Sri Lanka	3.217195		මාතර	වැලිගම	දෙනිපිටිය මහා විද්‍යාලය	மாத்தறை	வெலிகம	தேனிபிட்டிய மகா வித்தியாலயம்	පොලතුමෝදර, පොල්වතුමෝදර - දෙනිපිටිය පාර, දෙනිපිටිය, ශ්‍රී ලංකාව	பொலத்துமோதரா, பொல்வாத்துமோதரா - தேனிபிட்டிய சாலை, தேனிபிட்டிய, இலங்கை
Badulla	Passara	MOH Office – Badulla	False	False	BDLLPSSRMHFFCBDLL		Badulla	LK-81	7.074529	81.04486	Passara	PS-810102	6.934481	81.154796	6.988514	81.053232	Mediriya Road, Badulla, Sri Lanka	12.722709		බදුල්ල	පස්සර	MOH කාර්යාලය - බදුල්ල	பதுளை	பசர	MOH அலுவலகம் - பதுளை	මැදිරි පාර, බදුල්ල, ශ්‍රී ලංකාව	மெதிரியா சாலை, பதுளை, இலங்கை
Badulla	Haputale	Diyatalawa Hospital	False	False	BDLLHPTLDYTLWHSPTL		Badulla	LK-81	7.074529	81.04486	Haputale	PS-810215	6.767653	80.957218	6.80555	80.956366	12 Fair Rd, Diyatalawa, Sri Lanka	4.216327		බදුල්ල	හපුතලේ	දියතලාව රෝහල	பதுளை	ஹப்புதலே	தியத்தலாவா மருத்துவமனை	12 සාධාරණ පාර, දියතලාව, ශ්‍රී ලංකාව	12 சிகப்பு சாலை, தியத்தலாவா, இலங்கை
Badulla	Haliela	Haliela Central College	False	False	BDLLHLLHLLCNTRLCLLG		Badulla	LK-81	7.074529	81.04486	Haliela	PS-810108	6.958216	81.034447	6.96042	81.034923	Peradeniya-Badulla-Chenkaladi Hwy, Hali-ela, Sri Lanka	0.250721		බදුල්ල	හාලිලා	හාලිඇල මධ්‍ය මහා විද්‍යාලය	பதுளை	ஹாலீலா	ஹாலீலா மத்திய கல்லூரி	පේරාදෙණිය-බදුල්ල-චෙන්කලාඩි හ්වි, හාලි ඇල, ශ්‍රී ලංකාව	பேராதனை-பதுளை-செங்கலடி ஹ்வி, ஹாலி-எல, இலங்கை
Badulla	Haliela	District Hospital - Atampitiya	False	False	BDLLHLLDSTRCTHSPTLTMPTY		Badulla	LK-81	7.074529	81.04486	Haliela	PS-810108	6.958216	81.034447	6.934746	80.989784	Etampitiya Rd, Sri Lanka	5.579755		බදුල්ල	හාලිලා	දිසා රෝහල - ඇටම්පිටිය	பதுளை	ஹாலீலா	மாவட்ட மருத்துவமனை - அடம்பிட்டிய	ඇටම්පිටිය පාර, ශ්‍රී ලංකාව	இடம்பிட்டிய சாலை, இலங்கை
Badulla	Haliela	Wewelhinna Primary School	False	False	BDLLHLLWWLHNNPRMRYSCHL		Badulla	LK-81	7.074529	81.04486	Haliela	PS-810108	6.958216	81.034447	6.947643	81.027144	Sri Lanka, Hali-ela, Sri Lanka	1.425915		බදුල්ල	හාලිලා	වේවැල්හින්න ප්‍රාථමික විද්‍යාලය	பதுளை	ஹாலீலா	வெவெல்ஹின்னா ஆரம்பப் பள்ளி	ශ්‍රී ලංකාව, හාලි ඇල, ශ්‍රී ලංකාව	இலங்கை, ஹாலி-எல, இலங்கை
Badulla	Haliela	Spring Valley Hospital	False	False	BDLLHLLSPRNGVLLYHSPTL		Badulla	LK-81	7.074529	81.04486	Haliela	PS-810108	6.958216	81.034447					#CenterLocationUnknown	බදුල්ල	හාලිලා	ස්ප්‍රිං වැලී රෝහල	பதுளை	ஹாலீலா	வசந்த பள்ளத்தாக்கு மருத்துவமனை		
Monaragala	Wellawaya	Army Camp - Warnagama	False	False	MNRGLWLLWYRMYCMPWRNGM		Moneragala	LK-82	6.787517	81.303744	wellawaya	PS-820130	6.730804	81.100708	6.73774	81.10306	D.S. Gama, Wellawaya 91200, Sri Lanka	0.814062		මොනරාගල	වැල්ලවාය	යුද හමුදා කඳවුර - වර්ණගම	மொனராகலை	வெள்ளவாயா	இராணுவ முகாம் - வர்னாகம	ඩීඑස් ගම, වැල්ලවාය 91200, ශ්‍රී ලංකාව	டி.எஸ்.காமா, வெள்ளவாய 91200, இலங்கை
Monaragala	Kudaoya	Dorn Lanka	False	False	MNRGLKDYDRNLNK		Moneragala	LK-82	6.787517	81.303744	Kudaoya	PS-820134	6.523777	81.123696	6.531545	81.122881	Kuda Oya Cottages, Uva, Kuda Oya, Kuda Oya, 91000, Kuda Oya 91000, Sri Lanka	0.868715		මොනරාගල	කුඩාඔය	ඩෝර්න් ලංකා	மொனராகலை	குடோயா	டோர்ன் லங்கா	කුඩා ඔය ගෘහ, vaව, කුඩා ඔය, කුඩා ඔය, 91000, කුඩා ඔය 91000, ශ්‍රී ලංකාව	குட ஓயா குடிசைகள், ஊவா, குட ஓயா, குட ஓயா, 91000, குட ஓயா 91000, இலங்கை
Moneragala	Bibila	Radaliyadda Viharaya	False	False	MNRGLBBLRDLYDDVHRY		Moneragala	LK-82	6.787517	81.303744	Bibila	PS-820125	7.165232	81.225463	7.183482	81.232146	Peradeniya-Badulla-Chenkaladi Hwy, Radaliyadda, Sri Lanka	2.159774		මොණරාගල	බිබිල	රදලියද්ද විහාරය	மொனராகலை	பிபிலா	ரதாலியத்த விஹாராயா	පේරාදෙණිය-බදුල්ල-චෙන්කලාඩි හ්වි, රදලියද්ද, ශ්‍රී ලංකාව	பேராதனை-பதுல்லா-செங்கலடி ஹ்வி, ரதாலியத்த, இலங்கை
Moneragala	Bibila	Cultural Centre – Bibila	False	False	MNRGLBBLCLTRLCNTRBBL		Moneragala	LK-82	6.787517	81.303744	Bibila	PS-820125	7.165232	81.225463	7.157124	81.223758	564F+RGR, Bibile, Sri Lanka	0.921273		මොණරාගල	බිබිල	සංස්කෘතික මධ්‍යස්ථානය - බිබිල	மொனராகலை	பிபிலா	கலாச்சார மையம் - பிபிலா	564 එෆ්+ආර්ජීආර්, බිබිලේ, ශ්‍රී ලංකාව	564F+RGR, பிபிலே, இலங்கை
Moneragala	Bibila	Wellassa National College	False	False	MNRGLBBLWLLSSNTNLCLLG		Moneragala	LK-82	6.787517	81.303744	Bibila	PS-820125	7.165232	81.225463	7.134962	81.219121	Peradeniya-Badulla-Chenkaladi Hwy, Bibile, Sri Lanka	3.43891		මොණරාගල	බිබිල	වෙල්ලස්ස ජාතික විද්‍යාලය	மொனராகலை	பிபிலா	வெல்லஸ்ஸா தேசிய கல்லூரி	පේරාදෙණිය-බදුල්ල-චෙන්කලාඩි හ්වි, බිබිලේ, ශ්‍රී ලංකාව	பேராதனை-பதுளை-செங்கலடி ஹ்வி, பிபிலே, இலங்கை
Moneragala	Buttala	Janasanka Primary School	False	False	MNRGLBTTLJNSNKPRMRYSCHL		Moneragala	LK-82	6.787517	81.303744	Buttala	PS-820127	6.762499	81.250445	6.748647	81.234839	Puhul Kotuwa Rd, Buttala, Sri Lanka	2.312016		මොණරාගල	බුත්තල	ජනසංක ප්‍රාථමික විද්‍යාලය	மொனராகலை	புத்தலா	ஜனசங்க தொடக்கப்பள்ளி	පුහුල් කොටුව පාර, බුත්තල, ශ්‍රී ලංකාව	புஹுல் கொட்டுவா சாலை, புத்தலா, இலங்கை
Moneragala	Buttala	Ranjan Wijerathna Maha Vidyalaya	False	False	MNRGLBTTLRNJNWJRTHNMHVDYLY		Moneragala	LK-82	6.787517	81.303744	Buttala	PS-820127	6.762499	81.250445	6.720947	81.214921	P6C7+9XF, Pelwatta, Sri Lanka	6.062926		මොණරාගල	බුත්තල	රන්ජන් විජේරත්න මහා විද්‍යාලය	மொனராகலை	புத்தலா	ரஞ்சன் விஜேரத்ன மகா வித்தியாலயம்	P6C7+9XF, පැල්වත්ත, ශ්‍රී ලංකාව	P6C7+9XF, பெல்வத்த, இலங்கை
Moneragala	Buttala	Buttala Hospital	False	False	MNRGLBTTLBTTLHSPTL		Moneragala	LK-82	6.787517	81.303744	Buttala	PS-820127	6.762499	81.250445	6.75781	81.239724	Colombo - Batticaloa Hwy, Buttala, Sri Lanka	1.293971		මොණරාගල	බුත්තල	බුත්තල රෝහල	மொனராகலை	புத்தலா	புத்தலா மருத்துவமனை	කොළඹ - මඩකලපුව හ්වි, බුත්තල, ශ්‍රී ලංකාව	கொழும்பு - மட்டக்களப்பு Hwy, புத்தலா, இலங்கை
Moneragala	Buttala	Unawatuna Primary School	False	False	MNRGLBTTLNWTNPRMRYSCHL		Moneragala	LK-82	6.787517	81.303744	Buttala	PS-820127	6.762499	81.250445	6.753178	81.217737	Q639+73H, Buttala, Sri Lanka	3.758754		මොණරාගල	බුත්තල	උණවටුන ප්‍රාථමික විද්‍යාලය	மொனராகலை	புத்தலா	உனவடுனா ஆரம்பப் பள்ளி	Q639+73H, බුත්තල, ශ්‍රී ලංකාව	Q639+73H, புத்தலா, இலங்கை
Galle	Galle	Mobile Medical Team	False	False	GLLGLLMBLMDCLTM		Galle	LK-31	6.222805	80.251977	Galle	PS-310120	6.032983	80.21714					#CenterLocationUnknown	ගාල්ල	ගාල්ල	ජංගම වෛද්‍ය කණ්ඩායම	காலி	காலி	மொபைல் மருத்துவ குழு		
Galle	Galle	Sanghamitta Balika Vidyalaya	False	False	GLLGLLSNGHMTTBLKVDYLY		Galle	LK-31	6.222805	80.251977	Galle	PS-310120	6.032983	80.21714	6.047235	80.212517	Wakwella Rd, Galle 80000, Sri Lanka	1.665683		ගාල්ල	ගාල්ල	සංඝමිත්තා බාලිකා විද්‍යාලය	காலி	காலி	சங்கமித்த பாலிகா வித்யாலயா	වක්වැල්ල පාර, ගාල්ල 80000, ශ්‍රී ලංකාව	வாக்வெல்லா சாலை, காலி 80000, இலங்கை
Galle	Kosgoda	Gamini Maha Vidayalaya	False	False	GLLKSGDGMNMHVDYLY		Galle	LK-31	6.222805	80.251977	Kosgoda	PS-310245	6.335782	80.030182	6.325317	80.034296	Hegalla Vidyalaya, Galle Rd, Kosgoda, Sri Lanka	1.249718		ගාල්ල	කොස්ගොඩ	ගාමිණී මහා විද්‍යාලය	காலி	கொஸ்கொட	காமினி மஹா வித்யாலயா	හෑගල්ල විද්‍යාලය, ගාල්ල පාර, කොස්ගොඩ, ශ්‍රී ලංකාව	ஹேகல்லா வித்தியாலயம், காலி வீதி, கொஸ்கொட, இலங்கை
Galle	Kosgoda	Hegalla Maha Vidyalaya	False	False	GLLKSGDHGLLMHVDYLY		Galle	LK-31	6.222805	80.251977	Kosgoda	PS-310245	6.335782	80.030182	6.325317	80.034296	Hegalla Vidyalaya, Galle Rd, Kosgoda, Sri Lanka	1.249718		ගාල්ල	කොස්ගොඩ	හෑගල්ල මහා විද්‍යාලය	காலி	கொஸ்கொட	ஹேகல்ல மகா வித்தியாலயம்	හෑගල්ල විද්‍යාලය, ගාල්ල පාර, කොස්ගොඩ, ශ්‍රී ලංකාව	ஹேகல்லா வித்தியாலயம், காலி வீதி, கொஸ்கொட, இலங்கை
Galle	Meetiyagala	kahawa Rathanasara Vidyalaya	False	False	GLLMTYGLKHWRTHNSRVDYLY		Galle	LK-31	6.222805	80.251977	Meetiyagoda	PS-310241	6.189422	80.094722	6.190006	80.141616	54RR+2J5, Aluthwala, Sri Lanka	5.186011		ගාල්ල	මීටියාගල	කහව රතනසාර විද්‍යාලය	காலி	மீதியகலா	கஹவா ரதனசர வித்யாலயா	54RR+2J5, අළුත්වල, ශ්‍රී ලංකාව	54RR+2J5, அளுத்வாலா, இலங்கை
Galle	Elpitiya	Ananda Vidyalaya Rupa Karunatilake Hall	False	False	GLLLPTYNNDVDYLYRPKRNTLKHLL		Galle	LK-31	6.222805	80.251977	Elpitiya	PS-310235	6.279163	80.142917	6.06409	80.209473	3675+JQQ, Galle 80000, Sri Lanka	25.029158	#CenterFarFromPolice	ගාල්ල	ඇල්පිටිය	ආනන්ද විද්‍යාලයේ රූපා කරුණාතිලක ශාලාව	காலி	எல்பிட்டிய	ஆனந்த வித்யாலயா ரூபா கருணாதிலக ஹால்	3675+JQQ, ගාල්ල 80000, ශ්‍රී ලංකාව	3675+JQQ, காலி 80000, இலங்கை
Galle	Elpitiya	St. Teresa's Primary School	False	False	GLLLPTYSTTRSSPRMRYSCHL		Galle	LK-31	6.222805	80.251977	Elpitiya	PS-310235	6.279163	80.142917	6.277414	80.14249	Ambalangoda - Elpitiya - Pitigala Rd, Sri Lanka	0.200187		ගාල්ල	ඇල්පිටිය	ශාන්ත තෙරේසා ප්‍රාථමික විද්‍යාලය	காலி	எல்பிட்டிய	செயின்ட் தெரசா ஆரம்பப் பள்ளி	අම්බලන්ගොඩ - ඇල්පිටිය - පිටිගල පාර, ශ්‍රී ලංකාව	அம்பலங்கொட - எல்பிட்டிய - பிடிகல வீதி, இலங்கை
Galle	Karandeniya	Karandeniya Samaraweera Ground	False	False	GLLKRNDNYKRNDNYSMRWRGRND		Galle	LK-31	6.222805	80.251977	Karandeniya	PS-310238	6.271732	80.08479	6.269634	80.10128	Borakanda, Karandeniya, Karandeniya, Sri Lanka	1.83808		ගාල්ල	කරන්දෙණිය	කරන්දෙණිය සමරවීර පිටිය	காலி	கரந்தெனியா	கரந்தெனிய சமரவீர மைதானம்	බොරකන්ද, කරන්දෙණිය, කරන්දෙණිය, ශ්‍රී ලංකාව	போரகந்தா, கரந்தெனியா, கரந்தெனியா, இலங்கை
Galle	Pitigala	Weihena Vidyashanthi Pirivena	False	False	GLLPTGLWHNVDYSHNTHPRVN		Galle	LK-31	6.222805	80.251977	Pitigala	PS-310237	6.335202	80.221149	6.30778	80.23492	Weihena, Sri Lanka	3.408986		ගාල්ල	පිටිගල	වීහේන විද්‍යාශාන්ති පිරිවෙන	காலி	பிடிகலா	வெய்ஹேனா வித்யாசாந்தி பிரிவேனா	වේහේන, ශ්‍රී ලංකාව	வெய்ஹெனா, இலங்கை
Galle	Ambalagoda	Sri Wijayarama Viharaya	False	False	GLLMBLGDSRWJYRMVHRY		Galle	LK-31	6.222805	80.251977	Ambalangoda	PS-310243	6.244958	80.047598	6.245269	80.057509	Dhirakkanda Buddhist Temple, Dhirakkanda Mawatha, Kaluwadumulla, Ambalangada., Ambalangoda 80300, Sri Lanka	1.096403		ගාල්ල	අම්බලගොඩ	ශ්‍රී විජයාරාම විහාරය	காலி	அம்பலகொட	ஸ்ரீ விஜயராம விஹாராயா	ධිරාක්කන්ද බෞද්ධ විහාරය, ධිරාක්කන්ද මාවත, කළුවාඩුමුල්ල, අම්බලන්ගොඩ., අම්බලන්ගොඩ 80300, ශ්‍රී ලංකාව	திரக்கந்த புத்த கோவில், திரக்கந்த மாவத்தை, களுவாடுமுல்ல, அம்பலங்கடா., அம்பலங்கொட 80300, இலங்கை
Galle	Hiniduma	Abinawarama Viharaya	False	False	GLLHNDMBNWRMVHRY		Galle	LK-31	6.222805	80.251977	Hiniduma	PS-310131	6.329517	80.322442	6.299397	80.314804	78X7+QW3, Galle, Sri Lanka	3.455021		ගාල්ල	හිනිදුම	අබිනවරම විහාරය	காலி	ஹினிடுமா	அபிநவரம விஹாராயா	78X7+QW3, ගාල්ල, ශ්‍රී ලංකාව	78X7+QW3, காலி, இலங்கை
Galle	Neluwa	Dellawa Maha Vidyalaya	False	False	GLLNLWDLLWMHVDYLY		Galle	LK-31	6.222805	80.251977	Neluwa	PS-310132	6.379651	80.358956	6.32396	80.43865	Sri Lanka	10.769716		ගාල්ල	නෙළුව	දෙල්ලව මහා විද්‍යාලය	காலி	நெலுவா	தெல்லாவ மகா வித்தியாலயம்	ශ්රී ලංකාව	இலங்கை
Galle	Neluwa	Neluwa National College	False	False	GLLNLWNLWNTNLCLLG		Galle	LK-31	6.222805	80.251977	Neluwa	PS-310132	6.379651	80.358956	6.37678	80.358703	B411, Neluwa, Sri Lanka	0.320563		ගාල්ල	නෙළුව	නෙළුව ජාතික විද්‍යාලය	காலி	நெலுவா	நெலுவா தேசிய கல்லூரி	බී 411, නෙළුව, ශ්‍රී ලංකාව	பி 411, நெலுவா, இலங்கை
Galle	Wanduramba	Urala Primary School	False	False	GLLWNDRMBRLPRMRYSCHL		Galle	LK-31	6.222805	80.251977	Wanduramba	PS-310124	6.1257	80.252985	6.139319	80.242057	Pahala Lelwala, Wanduramba, Sri Lanka	1.937876		ගාල්ල	වඳුරඹ	Raරල ප්‍රාථමික විද්‍යාලය	காலி	வந்துராம்பா	ஊராலா தொடக்கப்பள்ளி	පහළ ලේල්වල, වඳුරඹ, ශ්‍රී ලංකාව	பஹலா லெல்வாலா, வாண்டுராம்பா, இலங்கை
Galle	Wanduramba	Wanduramba Gamini Maha Vidyalaya	False	False	GLLWNDRMBWNDRMBGMNMHVDYLY		Galle	LK-31	6.222805	80.251977	Wanduramba	PS-310124	6.1257	80.252985	6.133267	80.252075	Wanduramba - Mapalagama Rd, Wanduramba, Sri Lanka	0.847672		ගාල්ල	වඳුරඹ	වඳුරඹ ගාමිණී මහා විද්‍යාලය	காலி	வந்துராம்பா	வந்துரம்ப காமினி மகா வித்தியாலயம்	වඳුරඹ - මාපලගම පාර, වඳුරඹ, ශ්‍රී ලංකාව	வந்துரம்பா - மாபலகம வீதி, வந்துரம்பா, இலங்கை
Galle	Wanduramba	Dolahena Primary School	False	False	GLLWNDRMBDLHNPRMRYSCHL		Galle	LK-31	6.222805	80.251977	Wanduramba	PS-310124	6.1257	80.252985					#CenterLocationUnknown	ගාල්ල	වඳුරඹ	දොලහේන ප්‍රාථමික විද්‍යාලය	காலி	வந்துராம்பா	டோலஹேனா ஆரம்ப பள்ளி		
Galle	Wanduramba	Mabotuwana Primary School	False	False	GLLWNDRMBMBTWNPRMRYSCHL		Galle	LK-31	6.222805	80.251977	Wanduramba	PS-310124	6.1257	80.252985	6.12833	80.273204	Wanduramba - Yakkalamulla Rd, Sri Lanka	2.255163		ගාල්ල	වඳුරඹ	මාබොටුවන ප්‍රාථමික විද්‍යාලය	காலி	வந்துராம்பா	மபோட்டுவான ஆரம்பப் பள்ளி	වඳුරඹ - යක්කලමුල්ල පාර, ශ්‍රී ලංකාව	வந்துரம்பா - யக்கலமுல்லா சாலை, இலங்கை
Galle	Rathgama	Imbulgoda Dhammodayaramaya	False	False	GLLRTHGMMBLGDDHMMDYRMY		Galle	LK-31	6.222805	80.251977	Ratgama	PS-310121	6.145115	80.099693	7.087046	80.01751	Imbulgoda, Gampaha, Sri Lanka	105.163572	#CenterFarFromPolice	ගාල්ල	රත්ගම	ඉඹුල්ගොඩ ධම්මෝදයාරාමය	காலி	ரத்கம	இம்புல்கொட தம்மோதயராமையா	ඉඹුල්ගොඩ, ගම්පහ, ශ්‍රී ලංකාව	இம்புல்கொட, கம்பஹா, இலங்கை
Galle	Akmeemana	Labuduwa Siridhamma Vidyalaya	False	False	GLLKMMNLBDWSRDHMMVDYLY		Galle	LK-31	6.222805	80.251977	Akmeemana	PS-310123	6.073453	80.276627	6.071463	80.232066	සිරිධම්ම විද්‍යාලය, සිරිධම්ම මාවත, ගාල්ල 80090, Sri Lanka	4.933669		ගාල්ල	අක්මීමන	ලබුදූව සිරිධම්ම විද්‍යාලය	காலி	அக்மீமானா	லபுடுவா சிரிதம்மா வித்யாலயா	සිරිධම්ම විද්‍යාලය, සිරිධම්ම මාවත, ගාල්ල 80090, ශ්‍රී ලංකාව	ஸ்ரீதம்ம மின்வலம், ஸ்ரீதம்ம மாவத்த, காள்ள 80090, இலங்கை
Galle	Akmeemana	Wijaya Primary School	False	False	GLLKMMNWJYPRMRYSCHL		Galle	LK-31	6.222805	80.251977	Akmeemana	PS-310123	6.073453	80.276627	6.076547	80.258231	37G5+J79, Rathjambugaha, Sri Lanka	2.063592		ගාල්ල	අක්මීමන	විජය ප්‍රාථමික විද්‍යාලය	காலி	அக்மீமானா	விஜயா தொடக்கப்பள்ளி	37G5+J79, රත්ජඹුගහ, ශ්‍රී ලංකාව	37 ஜி 5+ஜே 79, ரத்ஜம்புகா, இலங்கை
Galle	Akmeemana	President's Girls' College Akmeemana	False	False	GLLKMMNPRSDNTSGRLSCLLGKMMN		Galle	LK-31	6.222805	80.251977	Akmeemana	PS-310123	6.073453	80.276627	6.08641	80.242064	Ganegoda,Akmeemana., Wanduramba - Mapalagama Rd, 80090, Sri Lanka	4.085458		ගාල්ල	අක්මීමන	අක්මීමන ජනාධිපති බාලිකා විද්‍යාලය	காலி	அக்மீமானா	ஜனாதிபதி பெண்கள் கல்லூரி அக்மீமானா	ගනේගොඩ, අක්මීමන., වඳුරඹ - මාපලගම පාර, 80090, ශ්‍රී ලංකාව	கணேகொட, அக்மீமானா., வண்டுரம்பா - மாபலகம வீதி, 80090, இலங்கை
Galle	Ahangama	Pelessa Siri Vimalasiri Maha Vidyalaya	False	False	GLLHNGMPLSSSRVMLSRMHVDYLY		Galle	LK-31	6.222805	80.251977	Ahangama	PS-310128	5.972267	80.365256	6.005927	80.335236	Pelessa, Sri Lanka	5.004582		ගාල්ල	අහංගම	පැලැස්ස සිරි විමලසිරි මහා විද්‍යාලය	காலி	அஹங்கமா	பெலஸ்ஸ சிறி விமலசிறி மகா வித்தியாலயம்	පැලැස්ස, ශ්‍රී ලංකාව	பெலஸ்ஸா, இலங்கை
Galle	Ahangama	Nakanda Kumara Vidyalaya	False	False	GLLHNGMNKNDKMRVDYLY		Galle	LK-31	6.222805	80.251977	Ahangama	PS-310128	5.972267	80.365256	5.985926	80.373817	Ranaviru Captain Rohitha Mawatha, Ahangama, Sri Lanka	1.790295		ගාල්ල	අහංගම	නාකන්ද කුමාර විද්‍යාලය	காலி	அஹங்கமா	நாகந்த குமார வித்யாலயா	රණවිරු කපිතාන් රෝහිත මාවත, අහංගම, ශ්‍රී ලංකාව	ரணவிரு கேப்டன் ரோஹித மாவத்தை, அஹங்கமா, இலங்கை
Galle	Imaduwa	Howpe Welhenawatta	False	False	GLLMDWHWPWLHNWTT		Galle	LK-31	6.222805	80.251977	Imaduwa	PS-310134	6.034389	80.391055	6.038266	80.390916	Imaduwa, Sri Lanka	0.431512		ගාල්ල	ඉමදුව	හෝපේ වෙල්හේනවත්ත	காலி	இமடுவா	ஹpeப் வெல்ஹெனவத்த	ඉමදුව, ශ්‍රී ලංකාව	இமதுவா, இலங்கை
Matara	Dickwella	Siri Niketharamaya	False	False	MTRDCKWLLSRNKTHRMY		Matara	LK-32	6.142734	80.539994	Dikwella	PS-320103	5.964296	80.693198	5.970342	80.631913	Rathmale Rd, Sri Lanka	6.813054		මාතර	දික්වැල්ල	සිරි නිකේතාරාමය	மாத்தறை	டிக்வெல்லா	ஸ்ரீ நிகேதராமையா	රත්මලේ පාර, ශ්‍රී ලංකාව	ரத்மலே சாலை, இலங்கை
Matara	Dickwella	Dematapitiya Maha Vidyalaya	False	False	MTRDCKWLLDMTPTYMHVDYLY		Matara	LK-32	6.142734	80.539994	Dikwella	PS-320103	5.964296	80.693198	5.965899	80.694907	XM8V+9X3, Dikwella, Sri Lanka	0.259877		මාතර	දික්වැල්ල	දෙමටපිටිය මහා විද්‍යාලය	மாத்தறை	டிக்வெல்லா	தெமடபிட்டிய மகா வித்தியாலயம்	XM8V+9X3, දික්වැල්ල, ශ්‍රී ලංකාව	XM8V+9X3, திக்வெல்லா, இலங்கை
Matara	Hakmana	Narawelpita Uththara Maha Vidyalaya	False	False	MTRHKMNNRWLPTTHTHRMHVDYLY		Matara	LK-32	6.142734	80.539994	Hakmana	PS-320106	6.084824	80.643227	6.090854	80.61892	B309, Sri Lanka	2.77082		මාතර	හක්මන	නාරවැල්පිට උත්තර මහා විද්‍යාලය	மாத்தறை	ஹக்மனா	நரவெல்பித உத்தர மகா வித்தியாலயம்	බී 309, ශ්‍රී ලංකාව	பி 309, இலங்கை
Matara	Hakmana	Ellewela Ashokaramaya	False	False	MTRHKMNLLWLSHKRMY		Matara	LK-32	6.142734	80.539994	Hakmana	PS-320106	6.084824	80.643227	6.096667	80.598056	Ellewela Wewa, Sri Lanka	5.166748		මාතර	හක්මන	එල්ලේවෙල අශෝකාරාමය	மாத்தறை	ஹக்மனா	எல்லேவெல அசோகராமையா	එල්ලේවෙල වැව, ශ්‍රී ලංකාව	எல்லேவெல வெவா, இலங்கை
Matara	Kamburupitiya	Ullala Maha Vidyalaya	False	False	MTRKMBRPTYLLLMHVDYLY		Matara	LK-32	6.142734	80.539994	Kamburupitiya	PS-320105	6.073875	80.564579	6.06449	80.583592	Akkara 50 Rd, Sri Lanka	2.347796		මාතර	කඹුරුපිටිය	උල්ලාල මහා විද්‍යාලය	மாத்தறை	கம்புருபிட்டிய	உல்லால மகா வித்தியாலயம்	අක්කර 50 පාර, ශ්‍රී ලංකාව	அக்கர 50 வீதி, இலங்கை
Matara	Kamburupitiya	Mapalana Bodhiya	False	False	MTRKMBRPTYMPLNBDHY		Matara	LK-32	6.142734	80.539994	Kamburupitiya	PS-320105	6.073875	80.564579	6.055376	80.562551	Sri Lanka, 티하고다 - 캄부루피티야-마와랄라-코타폴라 로드	2.069831		මාතර	කඹුරුපිටිය	මාපලන බෝධිය	மாத்தறை	கம்புருபிட்டிய	மாபலான போதியா	ශ්‍රී ලංකාව, 티 하고 하고-캄 부루 피티 야-마 와 랄라-코타 폴라 로드	இலங்கை, 티 하고 다-캄 부루 피티 야-마 와 랄라-코타 폴라 로드
Matara	Matara	Uyanwatta Ground	False	False	MTRMTRYNWTTGRND		Matara	LK-32	6.142734	80.539994	Matara	PS-320101	5.94904	80.533659	5.949299	80.549097	WGXX+PJ9, Matara, Sri Lanka	1.708161		මාතර	මාතර	උයන්වත්ත පිටිය	மாத்தறை	மாத்தறை	உயன்வத்தை மைதானம்	WGXX+PJ9, මාතර, ශ්‍රී ලංකාව	WGXX+PJ9, மாத்தறை, இலங்கை
Matara	Thihagoda	Pahala Vitiyala Vidyalaya	False	False	MTRTHHGDPHLVTYLVDYLY		Matara	LK-32	6.142734	80.539994	Thihagoda	PS-320104	6.01331	80.567932	6.038122	80.540214	2GQR+63W, Pahala Vitiyala, Sri Lanka	4.125197		මාතර	තිහගොඩ	පහළ විටියල විද්‍යාලය	மாத்தறை	திஹாகொட	பஹால விட்டியாலா வித்யாலயா	2GQR+63W, පහළ විටියල, ශ්‍රී ලංකාව	2GQR+63W, பஹால விட்டியாலா, இலங்கை
Matara	Thihagoda	Naimbala Maha Vidyalaya	False	False	MTRTHHGDNMBLMHVDYLY		Matara	LK-32	6.142734	80.539994	Thihagoda	PS-320104	6.01331	80.567932	5.998448	80.55614	Matara - Hakmana Road, Thihagoda, Sri Lanka	2.105766		මාතර	තිහගොඩ	නයිම්බල මහා විද්‍යාලය	மாத்தறை	திஹாகொட	நைம்பலா மகா வித்தியாலயம்	මාතර - හක්මන පාර, තිහගොඩ, ශ්‍රී ලංකාව	மாத்தறை - ஹக்மனா சாலை, திஹகொட, இலங்கை
Matara	Gandara	Thalalla Mandalaramaya	False	False	MTRGNDRTHLLLMNDLRMY		Matara	LK-32	6.142734	80.539994	Gandara	PS-320102	5.941629	80.614037	6.045496	80.631391	B630, Sri Lanka	11.71152		මාතර	ගන්දර	තලල්ල මණ්ඩලාරාමය	மாத்தறை	கந்தரா	தலல்ல மண்டலராமயா	බී 630, ශ්‍රී ලංකාව	பி 630, இலங்கை
Hambantota	Hambantota	Mobile Medical Team	False	False	HMBNTTHMBNTTMBLMDCLTM		Hambantota	LK-33	6.259779	81.098619	Hambantota	PS-330156	6.125872	81.12521					#CenterLocationUnknown	හම්බන්තොට	හම්බන්තොට	ජංගම වෛද්‍ය කණ්ඩායම	அம்பாந்தோட்டை	அம்பாந்தோட்டை	மொபைல் மருத்துவ குழு		
Hambantota	Hambantota	MOH Office – Hambantota	False	False	HMBNTTHMBNTTMHFFCHMBNTT		Hambantota	LK-33	6.259779	81.098619	Hambantota	PS-330156	6.125872	81.12521	6.171162	81.127	54CG+FQ9, Hambantota, Sri Lanka	5.041487		හම්බන්තොට	හම්බන්තොට	MOH කාර්යාලය - හම්බන්තොට	அம்பாந்தோட்டை	அம்பாந்தோட்டை	MOH அலுவலகம் - அம்பாந்தோட்டை	54CG+FQ9, හම්බන්තොට, ශ්‍රී ලංකාව	54CG+FQ9, ஹம்பாந்தோட்டை, இலங்கை
Hambantota	Walasmulla	Walasmulla Fair Premises	False	False	HMBNTTWLSMLLWLSMLLFRPRMSS		Hambantota	LK-33	6.259779	81.098619	Walasmulla	PS-330151	6.154102	80.698256	6.148552	80.697555	4MXX+C2F, Walasmulla, Sri Lanka	0.622174		හම්බන්තොට	වලස්මුල්ල	වලස්මුල්ල පොළ පරිශ්රය	அம்பாந்தோட்டை	வலஸ்முல்லா	வலஸ்முல்லா சிகப்பு வளாகம்	4MXX+C2F, වලස්මුල්ල, ශ්‍රී ලංකාව	4MXX+C2F, வலஸ்முல்லா, இலங்கை
Hambantota	Walasmulla	MOH Office – Okewela	False	False	HMBNTTWLSMLLMHFFCKWL		Hambantota	LK-33	6.259779	81.098619	Walasmulla	PS-330151	6.154102	80.698256	6.098886	80.715898	Okewela, Sri Lanka	6.444136		හම්බන්තොට	වලස්මුල්ල	MOH කාර්යාලය - ඕකේවෙල	அம்பாந்தோட்டை	வலஸ்முல்லா	MOH அலுவலகம் - ஒகேவெலா	ඕකේවෙල, ශ්‍රී ලංකාව	ஒகேவெலா, இலங்கை
Hambantota	Agunukolapelessa	Binkama Maha Vidyalaya	False	False	HMBNTTGNKLPLSSBNKMMHVDYLY		Hambantota	LK-33	6.259779	81.098619	Angunakolapelessa	PS-330150	6.321993	80.844883	6.194315	80.895005	Angunakolapessa Rd, Sri Lanka	15.244629		හම්බන්තොට	අගුණුකොලපැලැස්ස	බිංකම මහා විද්‍යාලය	அம்பாந்தோட்டை	அகுணுகோலாபெலெஸ்ஸா	பிங்காமா மகா வித்தியாலயம்	අඟුණකොලපැස්ස පාර, ශ්‍රී ලංකාව	அங்குனகோலபெசா சாலை, இலங்கை
Hambantota	Agunukolapelessa	Wetiya Dharmapala Maha Vidyalaya	False	False	HMBNTTGNKLPLSSWTYDHRMPLMHVDYLY		Hambantota	LK-33	6.259779	81.098619	Angunakolapelessa	PS-330150	6.321993	80.844883	6.165569	80.903117	Agunukolapelessa, Sri Lanka	18.55224		හම්බන්තොට	අගුණුකොලපැලැස්ස	වැටිය ධර්මපාල මහා විද්‍යාලය	அம்பாந்தோட்டை	அகுணுகோலாபெலெஸ்ஸா	வெட்டிய தர்மபால மகா வித்தியாலயம்	අගුණුකොලපැලැස්ස, ශ්‍රී ලංකාව	அகுனுகோலபெலஸ்ஸா, இலங்கை
Hambantota	Middeniya	Talawa Hospital	False	False	HMBNTTMDDNYTLWHSPTL		Hambantota	LK-33	6.259779	81.098619	Middeniya	PS-330154	6.248275	80.765018	8.233797	80.348381	68MX+G96, Talawa, Sri Lanka	225.582995	#CenterFarFromPolice	හම්බන්තොට	මිද්දෙණිය	තලාව රෝහල	அம்பாந்தோட்டை	மிதேனியா	தலைவா மருத்துவமனை	68 එම්එක්ස්+ජී 96, තලාව, ශ්‍රී ලංකාව	68MX+G96, தலைவா, இலங்கை
Hambantota	Weeraketiya	Mandaduwa Maha Vidyalaya	False	False	HMBNTTWRKTYMNDDWMHVDYLY		Hambantota	LK-33	6.259779	81.098619	Weeraketiya	PS-330149	6.153899	80.76737	6.152753	80.767945	Weeraketiya - Middeniya Rd, Weeraketiya, Sri Lanka	0.14245		හම්බන්තොට	වීරකැටිය	මණ්ඩඩුව මහා විද්‍යාලය	அம்பாந்தோட்டை	வீரகெட்டிய	மண்டடுவா மகா வித்தியாலயம்	වීරකැටිය - මිද්දෙණිය පාර, වීරකැටිය, ශ්‍රී ලංකාව	வீரகெட்டிய - மித்தெனிய வீதி, வீரகெட்டிய, இலங்கை
Hambantota	Beliatta	Palapotha Maha Vidyalaya	False	False	HMBNTTBLTTPLPTHMHVDYLY		Hambantota	LK-33	6.259779	81.098619	Beliatta	PS-330152	6.046936	80.735408	6.023506	80.747169	Tangalle-Kadurupokuna-Beliatta Rd, Sri Lanka	2.912771		හම්බන්තොට	බෙලිඅත්ත	පලපොත මහා විද්‍යාලය	அம்பாந்தோட்டை	பெலியாட்டா	பாலபோத மகா வித்தியாலயம்	තංගල්ල-කදුරුපොකුණ-බෙලිඅත්ත පාර, ශ්‍රී ලංකාව	தங்காலை-கதுருபோகுன-பெலியாட்டா சாலை, இலங்கை
Hambantota	Beliatta	Kudahilla Maha Vidyalaya	False	False	HMBNTTBLTTKDHLLMHVDYLY		Hambantota	LK-33	6.259779	81.098619	Beliatta	PS-330152	6.046936	80.735408	6.056995	80.750125	3Q42+Q3R, Hambantota, Sri Lanka	1.975372		හම්බන්තොට	බෙලිඅත්ත	කුඩාහිල්ල මහා විද්‍යාලය	அம்பாந்தோட்டை	பெலியாட்டா	குடில்லா மகா வித்தியாலயம்	3Q42+Q3R, හම්බන්තොට, ශ්‍රී ලංකාව	3Q42+Q3R, ஹம்பாந்தோட்டை, இலங்கை
Hambantota	Beliatta	Sitinamaluwa Primary School	False	False	HMBNTTBLTTSTNMLWPRMRYSCHL		Hambantota	LK-33	6.259779	81.098619	Beliatta	PS-330152	6.046936	80.735408					#CenterLocationUnknown	හම්බන්තොට	බෙලිඅත්ත	සිටිනාමළුව ප්‍රාථමික විද්‍යාලය	அம்பாந்தோட்டை	பெலியாட்டா	சீதினமாலுவ ஆரம்பப் பள்ளி		
Hambantota	Beliatta	Galagama Maha Vidyalaya	False	False	HMBNTTBLTTGLGMMHVDYLY		Hambantota	LK-33	6.259779	81.098619	Beliatta	PS-330152	6.046936	80.735408	6.006329	80.71096	Galagama Road, Sri Lanka	5.264314		හම්බන්තොට	බෙලිඅත්ත	ගලගම මහා විද්‍යාලය	அம்பாந்தோட்டை	பெலியாட்டா	கலகம மகா வித்தியாலயம்	ගලගම පාර, ශ්‍රී ලංකාව	கலகம சாலை, இலங்கை
Hambantota	Beliatta	MOH Office – Beliatta	False	False	HMBNTTBLTTMHFFCBLTT		Hambantota	LK-33	6.259779	81.098619	Beliatta	PS-330152	6.046936	80.735408	6.051828	80.741735	3P2R+PMQ, Hambantota, Sri Lanka	0.886482		හම්බන්තොට	බෙලිඅත්ත	MOH කාර්යාලය - බෙලිඅත්ත	அம்பாந்தோட்டை	பெலியாட்டா	MOH அலுவலகம் - பெலியாட்ட	3P2R+PMQ, හම්බන්තොට, ශ්‍රී ලංකාව	3P2R+PMQ, ஹம்பாந்தோட்டை, இலங்கை
Hambantota	Tangalla	Netolpitiya Gemunu Maha Vidyalaya	False	False	HMBNTTTNGLLNTLPTYGMNMHVDYLY		Hambantota	LK-33	6.259779	81.098619	Tangalle	PS-330147	6.023954	80.797255	6.066529	80.83693	3R8P+JQ7, Netolpitiya, Sri Lanka	6.456389		හම්බන්තොට	තංගල්ල	නෙටොල්පිටිය ගැමුණු මහා විද්‍යාලය	அம்பாந்தோட்டை	தங்கல்லா	நெடோல்பிட்டிய கெமுனு மகா வித்தியாலயம்	3R8P+JQ7, නෙටොල්පිටිය, ශ්‍රී ලංකාව	3R8P+JQ7, நெட்டோல்பிட்டிய, இலங்கை
Hambantota	Hungama	Kattakaduwa Maha Vidyalaya	False	False	HMBNTTHNGMKTTKDWMHVDYLY		Hambantota	LK-33	6.259779	81.098619	Hungama	PS-330148	6.111262	80.932642	6.128818	80.891993	4VHR+GQH, Hungama, Sri Lanka	4.901405		හම්බන්තොට	හුංගම	කට්ටකඩුව මහා විද්‍යාලය	அம்பாந்தோட்டை	ஹங்காமா	கட்டகடுவ மகா வித்தியாலயம்	4VHR+GQH, හුංගම, ශ්‍රී ලංකාව	4VHR+GQH, ஹங்காமா, இலங்கை
Hambantota	Hungama	Multi Task Centre - Wigamuwa	False	False	HMBNTTHNGMMLTTSKCNTRWGMW		Hambantota	LK-33	6.259779	81.098619	Hungama	PS-330148	6.111262	80.932642	6.100065	80.84901	4R2X+2JC, Hambantota, Sri Lanka	9.333076		හම්බන්තොට	හුංගම	බහුකාර්ය මධ්‍යස්ථානය - විගමුව	அம்பாந்தோட்டை	ஹங்காமா	பல பணி மையம் - விகமுவா	4R2X+2JC, හම්බන්තොට, ශ්‍රී ලංකාව	4R2X+2JC, ஹம்பாந்தோட்டை, இலங்கை
Hambantota	Ambalatota	Mamadama Maha Vidyalaya	False	False	HMBNTTMBLTTMMDMMHVDYLY		Hambantota	LK-33	6.259779	81.098619	Ambalantota	PS-330157	6.12516	81.023981	6.15621	80.974631	5X4F+FVJ, Mamadala, Sri Lanka	6.458669		හම්බන්තොට	අම්බලතොට	මාමඩම මහා විද්යාලය	அம்பாந்தோட்டை	அம்பலத்தோட்டா	மமதமா மகா வித்தியாலயம்	5X4F+FVJ, මාමඩල, ශ්‍රී ලංකාව	5X4F+FVJ, மமதலா, இலங்கை
Hambantota	Sooriyawewa	Mahapelessa Pre School	False	False	HMBNTTSRYWWMHPLSSPRSCHL		Hambantota	LK-33	6.259779	81.098619	Sooriyawewa	PS-330155	6.306022	81.003873	6.307631	80.998212	8X5X+374, Sooriyawewa, Sri Lanka	0.650947		හම්බන්තොට	සූරියවැව	මහපැලැස්ස පෙර පාසල	அம்பாந்தோட்டை	சூரியவெவ	மஹாபெலஸ்ஸா முன்பள்ளி	8X5X+374, සූරියවැව, ශ්‍රී ලංකාව	8X5X+374, சூரியவெவ, இலங்கை
Hambantota	Sooriyawewa	Bedigamthota Vidyalaya	False	False	HMBNTTSRYWWBDGMTHTVDYLY		Hambantota	LK-33	6.259779	81.098619	Sooriyawewa	PS-330155	6.306022	81.003873	6.07308	80.704144	Hakmana - Beliatte - Tangalle Rd, Sri Lanka	42.070026	#CenterFarFromPolice	හම්බන්තොට	සූරියවැව	බැදිගම්තොට විද්‍යාලය	அம்பாந்தோட்டை	சூரியவெவ	பெடிக்கம்தோட்டா வித்தியாலயம்	හක්මන - බෙලිඅත්තේ - තංගල්ල පාර, ශ්‍රී ලංකාව	ஹக்மனா - பெலியாட்டே - தங்காலை சாலை, இலங்கை
Hambantota	Sooriyawewa	Hathporuwa Viharaya	False	False	HMBNTTSRYWWHTHPRWVHRY		Hambantota	LK-33	6.259779	81.098619	Sooriyawewa	PS-330155	6.306022	81.003873	6.288525	80.953136	alioluara,, Sooriyawewa, Sri Lanka	5.937441		හම්බන්තොට	සූරියවැව	හත්පොරුව විහාරය	அம்பாந்தோட்டை	சூரியவெவ	ஹத்போருவ விஹாராயா	alioluara ,, සූරියවැව, ශ්‍රී ලංකාව	alioluara ,, சூரியவெவ, இலங்கை
Hambantota	Sooriyawewa	Viharagala Vidyalaya	False	False	HMBNTTSRYWWVHRGLVDYLY		Hambantota	LK-33	6.259779	81.098619	Sooriyawewa	PS-330155	6.306022	81.003873	6.277872	80.959495	7XH5+4QX, Sooriyawewa, Sri Lanka	5.820387		හම්බන්තොට	සූරියවැව	විහාරගල විද්‍යාලය	அம்பாந்தோட்டை	சூரியவெவ	விஹாரகலா வித்யாலயா	7XH5+4QX, සූරියවැව, ශ්‍රී ලංකාව	7XH5+4QX, சூரியவெவ, இலங்கை
Hambantota	Tissamaharama	Vidyartha Maha Vidyalaya	False	False	HMBNTTTSSMHRMVDYRTHMHVDYLY		Hambantota	LK-33	6.259779	81.098619	Tissamaharamaya	PS-330158	6.26109	81.236724	6.268602	81.250606	7792+C6X, Hambantota, Sri Lanka	1.747566		හම්බන්තොට	තිස්සමහාරාම	විද්යාර්ථ මහා විද්යාලය	அம்பாந்தோட்டை	திஸ்ஸமஹாராம	வித்யார்த்த மகா வித்தியாலயம்	7792+සී 6 එක්ස්, හම්බන්තොට, ශ්‍රී ලංකාව	7792+C6X, ஹம்பாந்தோட்டை, இலங்கை
Hambantota	Lunugamwehara	MOH Office – Lunugamwehera	False	False	HMBNTTLNGMWHRMHFFCLNGMWHR		Hambantota	LK-33	6.259779	81.098619	Lunugamwehera	PS-330160	6.341544	81.202699	6.346093	81.196977	85WW+CQQ, Mattala, Sri Lanka	0.810032		හම්බන්තොට	ලුණුගම්වෙහෙර	MOH කාර්යාලය - ලුණුගම්වෙහෙර	அம்பாந்தோட்டை	லுனுகம்வெஹரா	MOH அலுவலகம் - லுனுகம்வெஹெரா	85WW+CQQ, මත්තල, ශ්‍රී ලංකාව	85WW+CQQ, மத்தள, இலங்கை
Hambantota	Lunugamwehara	Lunugamwehera Hospital	False	False	HMBNTTLNGMWHRLNGMWHRHSPTL		Hambantota	LK-33	6.259779	81.098619	Lunugamwehera	PS-330160	6.341544	81.202699	6.346521	81.196711	Mattala - Lunugamwehera Old Rd, Mattala, Sri Lanka	0.862938		හම්බන්තොට	ලුණුගම්වෙහෙර	ලුණුගම්වෙහෙර රෝහල	அம்பாந்தோட்டை	லுனுகம்வெஹரா	லுனுகம்வெஹெரா மருத்துவமனை	මත්තල - ලුණුගම්වෙහෙර පැරණි පාර, මත්තල, ශ්‍රී ලංකාව	மத்தள - லுனுகம்வெஹெரா பழைய வீதி, மத்தள, இலங்கை
Hambantota	Katuwana	Siyarapitiya Maha Vidyalaya	False	False	HMBNTTKTWNSYRPTYMHVDYLY		Hambantota	LK-33	6.259779	81.098619	Katuwana	PS-330153	6.269722	80.690963	6.290408	80.693009	7MRV+566, Hambantota, Sri Lanka	2.311993		හම්බන්තොට	කටුවන	සියරපිටිය මහා විද්‍යාලය	அம்பாந்தோட்டை	கட்டுவானா	சியராபிட்டிய மகா வித்தியாலயம்	7 එම්ආර්වී+566, හම්බන්තොට, ශ්‍රී ලංකාව	7MRV+566, ஹம்பாந்தோட்டை, இலங்கை
Rathnapura	Opanayaka	Near Malmikanda Bodhiya	False	False	RTHNPRPNYKNRMLMKNDBDHY		Ratnapura	LK-91	6.586826	80.566158	Opanayaka	PS-910104	6.608519	80.619285	6.440955	80.759711	Pelmadulla - Embilipitiya Hwy, Ratnapura, Sri Lanka	24.252898	#CenterFarFromPolice	රත්නපුර	ඕපනායක	මල්මිකන්ද බෝධිය අසල	இரத்தினபுரி	ஓபநாயக்கா	மால்மிகண்ட போதியா அருகில்	පැල්මඩුල්ල - ඇඹිලිපිටිය හ්වි, රත්නපුර, ශ්‍රී ලංකාව	பெல்மதுல்லா - எம்பிலிப்பிட்டிய ஹ்வி, இரத்தினபுரி, இலங்கை
Rathnapura	Opanayaka	Wallaketiya Viharaya	False	False	RTHNPRPNYKWLLKTYVHRY		Ratnapura	LK-91	6.586826	80.566158	Opanayaka	PS-910104	6.608519	80.619285	6.611237	80.594059	A4, Sri Lanka	2.803581		රත්නපුර	ඕපනායක	වල්ලකැටිය විහාරය	இரத்தினபுரி	ஓபநாயக்கா	வல்லகெட்டிய விஹாராயா	ඒ 4, ශ්‍රී ලංකාව	ஏ 4, இலங்கை
Rathnapura	Opanayaka	Udawela Vidyalaya	False	False	RTHNPRPNYKDWLVDYLY		Ratnapura	LK-91	6.586826	80.566158	Opanayaka	PS-910104	6.608519	80.619285	6.606694	80.637221	Kahawatta Opanayake Rd, Udawela, Sri Lanka	1.992136		රත්නපුර	ඕපනායක	උඩවෙල විද්‍යාලය	இரத்தினபுரி	ஓபநாயக்கா	உடவெல வித்யாலயா	කහවත්ත ඕපනායක පාර, උඩවෙල, ශ්‍රී ලංකාව	கஹவத்த ஓபநாயக்க வீதி, உடவெல, இலங்கை
Rathnapura	Pinnawala	Divisional Secretariat - Imbulpe	False	False	RTHNPRPNNWLDVSNLSCRTRTMBLP		Ratnapura	LK-91	6.586826	80.566158	Pinnawala	PS-910115	7.299943	80.386604	6.732373	80.674305	Pinnawala, Sri Lanka	70.670072	#CenterFarFromPolice	රත්නපුර	පින්නවල	ප්‍රාදේශීය ලේකම් කාර්යාලය - ඉඹුල්පේ	இரத்தினபுரி	பின்னாவாலா	பிரதேச செயலகம் - இம்புல்பே	පින්නවල, ශ්‍රී ලංකාව	பின்னாவாலா, இலங்கை
Rathnapura	Pinnawala	Primary Health Unit - Denagama	False	False	RTHNPRPNNWLPRMRYHLTHNTDNGM		Ratnapura	LK-91	6.586826	80.566158	Pinnawala	PS-910115	7.299943	80.386604	6.702167	80.72453	Nelliwala Rd, Sri Lanka	76.241744	#CenterFarFromPolice	රත්නපුර	පින්නවල	ප්‍රාථමික සෞඛ්‍ය ඒකකය - දෙනගම	இரத்தினபுரி	பின்னாவாலா	ஆரம்ப சுகாதார பிரிவு - தெனகம	නෙල්ලිවල පාර, ශ්‍රී ලංකාව	நெல்லிவாலா சாலை, இலங்கை
Rathnapura	Pinnawala	Marathenna Hospital	False	False	RTHNPRPNNWLMRTHNNHSPTL		Ratnapura	LK-91	6.586826	80.566158	Pinnawala	PS-910115	7.299943	80.386604	6.739118	80.698827	PMQX+JGW, Ratnapura, Sri Lanka	71.269702	#CenterFarFromPolice	රත්නපුර	පින්නවල	මාරතැන්න රෝහල	இரத்தினபுரி	பின்னாவாலா	மாரதென்ன மருத்துவமனை	PMQX+JGW, රත්නපුර, ශ්‍රී ලංකාව	PMQX+JGW, இரத்தினபுரி, இலங்கை
Rathnapura	Balangoda	Balangoda Vidyaloka Vidyalaya	False	False	RTHNPRBLNGDBLNGDVDYLKVDYLY		Ratnapura	LK-91	6.586826	80.566158	Balangoda	PS-910103	6.649474	80.700276	6.648651	80.698377	Barns Rathwathta Mawatha, Balangoda 70100, Sri Lanka	0.228906		රත්නපුර	බලන්ගොඩ	බලංගොඩ විද්‍යාලෝක විද්‍යාලය	இரத்தினபுரி	பலாங்கொடை	பலாங்கொட வித்யாலோக வித்யாலயா	බාන්ස් රත්වත්ත මාවත, බලංගොඩ 70100, ශ්‍රී ලංකාව	பார்ன்ஸ் ரத்வத்த மாவத்தை, பலாங்கொட 70100, இலங்கை
Rathnapura	Weligepola	Pragahamadiththa Community Hall	False	False	RTHNPRWLGPLPRGHMDTHTHCMMNTYHLL		Ratnapura	LK-91	6.586826	80.566158	Weligepola	PS-910106	6.596426	80.723695	6.583202	80.711558	Galgoda - Weligepola Rd, Weligepola, Sri Lanka	1.990489		රත්නපුර	වැලිගෙපොළ	ප්‍රගහමදිත්ත ප්‍රජා ශාලාව	இரத்தினபுரி	வெலிகெபொல	பிரகஹமதித்த சமுதாயக் கூடம்	ගල්ගොඩ - වැලිගෙපොල පාර, වැලිගෙපොල, ශ්‍රී ලංකාව	கல்கொட - வெலிகெபொல வீதி, வெலிகெபொல, இலங்கை
Rathnapura	Weligepola	Weligepola Viharaya	False	False	RTHNPRWLGPLWLGPLVHRY		Ratnapura	LK-91	6.586826	80.566158	Weligepola	PS-910106	6.596426	80.723695	6.580929	80.730893	pollamura, Sri Lanka	1.898371		රත්නපුර	වැලිගෙපොළ	වැලිගෙපොල විහාරය	இரத்தினபுரி	வெலிகெபொல	வெலிக்போல விஹாராயா	පොලමුර, ශ්‍රී ලංකාව	பொல்லாமுரா, இலங்கை
Rathnapura	Weligepola	Pollamura Viharaya	False	False	RTHNPRWLGPLPLLMRVHRY		Ratnapura	LK-91	6.586826	80.566158	Weligepola	PS-910106	6.596426	80.723695	6.580929	80.730893	pollamura, Sri Lanka	1.898371		රත්නපුර	වැලිගෙපොළ	පොලමුර විහාරය	இரத்தினபுரி	வெலிகெபொல	பொல்லமுரா விகாரை	පොලමුර, ශ්‍රී ලංකාව	பொல்லாமுரா, இலங்கை
Rathnapura	Kiriella	Galawathura Vidyalaya	False	False	RTHNPRKRLLGLWTHRVDYLY		Ratnapura	LK-91	6.586826	80.566158	Kiriella	PS-910114	6.735338	80.276481	6.736827	80.272908	Idangoda, Kiriella-Nadurana-Eheliyagoda Rd, Sri Lanka	0.428023		රත්නපුර	කිරිඇල්ල	ගලවතුර විද්‍යාලය	இரத்தினபுரி	கிரியெல்லா	கலாவத்துரா வித்தியாலயம்	ඉඩංගොඩ, කිරිඇල්ල-නඳුරණ-ඇහැලියගොඩ පාර, ශ්‍රී ලංකාව	இடங்கொட, கிரியெல்ல-நடுரான-எஹெலியகொட வீதி, இலங்கை
Rathnapura	Kiriella	Dumbara Viharaya	False	False	RTHNPRKRLLDMBRVHRY		Ratnapura	LK-91	6.586826	80.566158	Kiriella	PS-910114	6.735338	80.276481	6.721764	80.221942	P6CC+PQ4, Ratnapura, Sri Lanka	6.210892		රත්නපුර	කිරිඇල්ල	දුම්බර විහාරය	இரத்தினபுரி	கிரியெல்லா	தும்பரா விஹாராயா	P6CC+PQ4, රත්නපුර, ශ්‍රී ලංකාව	P6CC+PQ4, இரத்தினபுரி, இலங்கை
Rathnapura	Rathnapura	Rahula Vidyalaya	False	False	RTHNPRRTHNPRRHLVDYLY		Ratnapura	LK-91	6.586826	80.566158	Ratnapura	PS-910101	6.679456	80.40223	6.726152	80.332768	Millakade Dodampe, Ratnapura - Horana - Panadura Hwy, Millakade, Sri Lanka	9.266021		රත්නපුර	රත්නපුර	රාහුල විද්‍යාලය	இரத்தினபுரி	இரத்தினபுரி	ராகுல வித்யாலயா	මිල්ලකඩේ දොඩම්පේ, රත්නපුර - හොරණ - පානදුර හ්වි, මිල්ලකඩේ, ශ්‍රී ලංකාව	மில்லக்கடே தோடம்பே, இரத்தினபுரி - ஹொரணை - பாணாதுரா ஹ்வி, மில்லக்கடே, இலங்கை
Rathnapura	Rathnapura	Dippitiya Vidyalaya	False	False	RTHNPRRTHNPRDPPTYVDYLY		Ratnapura	LK-91	6.586826	80.566158	Ratnapura	PS-910101	6.679456	80.40223	7.174959	80.456001	B278, Dippitiya, Sri Lanka	55.433591	#CenterFarFromPolice	රත්නපුර	රත්නපුර	දිප්පිටිය විද්‍යාලය	இரத்தினபுரி	இரத்தினபுரி	திப்பிட்டிய வித்தியாலயம்	බී 278, දිප්පිටිය, ශ්‍රී ලංකාව	பி 278, திப்பிட்டிய, இலங்கை
Rathnapura	Rathnapura	Bodhirajaramaya	False	False	RTHNPRRTHNPRBDHRJRMY		Ratnapura	LK-91	6.586826	80.566158	Ratnapura	PS-910101	6.679456	80.40223	6.679281	80.406471	Warakatota Rd, Ratnapura 70000, Sri Lanka	0.468928		රත්නපුර	රත්නපුර	බෝධිරාජාරාමය	இரத்தினபுரி	இரத்தினபுரி	போதிராஜராமையா	වරකාතොට පාර, රත්නපුර 70000, ශ්‍රී ලංකාව	வாரகடோட்டா சாலை, இரத்தினபுரா 70000, இலங்கை
Rathnapura	Rathnapura	Mudduwa Pirivena	False	False	RTHNPRRTHNPRMDDWPRVN		Ratnapura	LK-91	6.586826	80.566158	Ratnapura	PS-910101	6.679456	80.40223	6.674151	80.401313	MCF2+MG8, Ratnapura, Sri Lanka	0.598707		රත්නපුර	රත්නපුර	මුද්දුව පිරිවෙන	இரத்தினபுரி	இரத்தினபுரி	முட்டுவா பிரிவேனா	MCF2+MG8, රත්නපුර, ශ්‍රී ලංකාව	MCF2+MG8, இரத்தினபுரி, இலங்கை
Rathnapura	Rathnapura	Sivali Central College	False	False	RTHNPRRTHNPRSVLCNTRLCLLG		Ratnapura	LK-91	6.586826	80.566158	Ratnapura	PS-910101	6.679456	80.40223	6.713215	80.385002	70000, 70000 A4, Ratnapura, Sri Lanka	4.209679		රත්නපුර	රත්නපුර	සිවලී මධ්‍ය විද්‍යාලය	இரத்தினபுரி	இரத்தினபுரி	சிவாலி மத்திய கல்லூரி	70000, 70000 ඒ 4, රත්නපුර, ශ්‍රී ලංකාව	70000, 70000 A4, இரத்தினபுரா, இலங்கை
Rathnapura	Rathnapura	Elapatha Vidayalaya	False	False	RTHNPRRTHNPRLPTHVDYLY		Ratnapura	LK-91	6.586826	80.566158	Ratnapura	PS-910101	6.679456	80.40223	6.662647	80.373694	M97F+6JV, B390, Elapatha, Sri Lanka	3.665283		රත්නපුර	රත්නපුර	ඇලපාත විදයාලය	இரத்தினபுரி	இரத்தினபுரி	எலபத விதயலய	M97F+6JV, B390, ඇලපාත, ශ්‍රී ලංකාව	M97F+6JV, B390, Elapatha, இலங்கை
Rathnapura	Pelmadulla	Mahinda Vidyalaya	False	False	RTHNPRPLMDLLMHNDVDYLY		Ratnapura	LK-91	6.586826	80.566158	Pelmadulla	PS-910117	6.632692	80.521315	6.630199	80.53881	Colombo - Batticaloa Hwy, Pelmadulla, Sri Lanka	1.952735		රත්නපුර	පැල්මඩුල්ල	මහින්ද විද්‍යාලය	இரத்தினபுரி	பெல்மடுல்லா	மஹிந்த வித்யாலயா	කොළඹ - මඩකලපුව හ්වි, පැල්මඩුල්ල, ශ්‍රී ලංකාව	கொழும்பு - மட்டக்களப்பு Hwy, Pelmadulla, Sri Lanka
Rathnapura	Pelmadulla	Nidangala Bodhiya	False	False	RTHNPRPLMDLLNDNGLBDHY		Ratnapura	LK-91	6.586826	80.566158	Pelmadulla	PS-910117	6.632692	80.521315	6.621538	80.552147	JHC2+JV6, Pelmadulla, Sri Lanka	3.625415		රත්නපුර	පැල්මඩුල්ල	නිදංගල බෝධිය	இரத்தினபுரி	பெல்மடுல்லா	நிடங்கலா போதியா	JHC2+JV6, පැල්මඩුල්ල, ශ්‍රී ලංකාව	JHC2+JV6, பெல்மடுல்லா, இலங்கை
Rathnapura	Kalawana	Panapola Vidyalaya	False	False	RTHNPRKLWNPNPLVDYLY		Ratnapura	LK-91	6.586826	80.566158	Kalawana	PS-910110	6.530738	80.390719	6.430037	80.44934	Panapola, Sri Lanka	12.939687		රත්නපුර	කලවාන	පනාපොල විද්‍යාලය	இரத்தினபுரி	கலவானா	பனபோல வித்யாலயா	පනාපොල, ශ්‍රී ලංකාව	பனபோலா, இலங்கை
Rathnapura	Kalawana	Meepagama Vidyalaya	False	False	RTHNPRKLWNMPGMVDYLY		Ratnapura	LK-91	6.586826	80.566158	Kalawana	PS-910110	6.530738	80.390719	6.536341	80.356644	G9P4+GMJ, Ratnapura, Sri Lanka	3.816766		රත්නපුර	කලවාන	මීපාගම විද්‍යාලය	இரத்தினபுரி	கலவானா	மீபகம வித்யாலயா	ජී 9 පී 4+ජීඑම්ජේ, රත්නපුර, ශ්‍රී ලංකාව	G9P4+GMJ, இரத்தினபுரி, இலங்கை
Rathnapura	Kalawana	Kudumiriya Vidyalaya	False	False	RTHNPRKLWNKDMRYVDYLY		Ratnapura	LK-91	6.586826	80.566158	Kalawana	PS-910110	6.530738	80.390719	6.535423	80.401004	GCP2+5C6, Kalawana, Sri Lanka	1.25034		රත්නපුර	කලවාන	කුඩුමිරිය විද්‍යාලය	இரத்தினபுரி	கலவானா	குடுமிரிய வித்யாலயா	GCP2+5C6, කලවාන, ශ්‍රී ලංකාව	GCP2+5C6, கலவானா, இலங்கை
Rathnapura	Kuruwita	Mudunkotuwa Vidyalaya	False	False	RTHNPRKRWTMDNKTWVDYLY		Ratnapura	LK-91	6.586826	80.566158	Kuruwita	PS-910112	6.778839	80.364712	6.776404	80.305578	Mudunkotuwa E Rd, Ratnapura, Sri Lanka	6.537113		රත්නපුර	කුරුවිට	මුදුන්කොටුව විද්‍යාලය	இரத்தினபுரி	குருவிடா	முடுங்கொட்டுவ வித்தியாலயம்	මුදුන්කොටුව ඊ පාර, රත්නපුර, ශ්‍රී ලංකාව	முடுங்கொட்டுவ மின் சாலை, இரத்தினபுரி, இலங்கை
Rathnapura	Kuruwita	Ranasinharama Viharaya	False	False	RTHNPRKRWTRNSNHRMVHRY		Ratnapura	LK-91	6.586826	80.566158	Kuruwita	PS-910112	6.778839	80.364712	6.77558	80.35651	Q9G4+6JJ, Kuruwita, Sri Lanka	0.975765		රත්නපුර	කුරුවිට	රණසිංහාරාම විහාරය	இரத்தினபுரி	குருவிடா	ரணசிங்கராம விஹாராயா	Q9G4+6JJ, කුරුවිට, ශ්‍රී ලංකාව	Q9G4+6JJ, குருவிட, இலங்கை
Rathnapura	Kuruwita	Lellagoda Vidyalaya	False	False	RTHNPRKRWTLLLGDVDYLY		Ratnapura	LK-91	6.586826	80.566158	Kuruwita	PS-910112	6.778839	80.364712	6.788828	80.33233	Sri Sumanatissa Mawatha, Kuruwita, Sri Lanka	3.74523		රත්නපුර	කුරුවිට	ලෙල්ලාගොඩ විද්‍යාලය	இரத்தினபுரி	குருவிடா	லெல்லகொட வித்யாலயா	ශ්‍රී ලංකාව, කුරුවිට, ශ්‍රී සුමනතිස්ස මාවත	ஸ்ரீ சுமனதிஸ்ஸ மாவத்தை, குருவிட, இலங்கை
Rathnapura	Kahawatta	Gajanayaka Vidyalaya	False	False	RTHNPRKHWTTGJNYKVDYLY		Ratnapura	LK-91	6.586826	80.566158	Kahawatta	PS-910107	6.591434	80.56893	6.579766	80.579587	Kahawatta Opanayake Rd, Kahawatta, Sri Lanka	1.752426		රත්නපුර	කහවත්ත	ගජනායක විද්‍යාලය	இரத்தினபுரி	கஹவத்த	கஜநாயக்க வித்யாலயா	කහවත්ත ඕපනායක පාර, කහවත්ත, ශ්‍රී ලංකාව	கஹவத்த ஓபநாயக்க வீதி, கஹவத்த, இலங்கை
Rathnapura	Kahawatta	Kalalella Vidyalaya	False	False	RTHNPRKHWTTKLLLLVDYLY		Ratnapura	LK-91	6.586826	80.566158	Kahawatta	PS-910107	6.591434	80.56893	6.529789	80.577421	GHHG+WX7, Kahawatta, Sri Lanka	6.920676		රත්නපුර	කහවත්ත	කලලැල්ල විද්‍යාලය	இரத்தினபுரி	கஹவத்த	கலலெல்லா வித்யாலயா	GHHG+WX7, කහවත්ත, ශ්‍රී ලංකාව	GHHG+WX7, கஹவத்த, இலங்கை
Rathnapura	Kahawatta	Keththarama Viharaya	False	False	RTHNPRKHWTTKTHTHRMVHRY		Ratnapura	LK-91	6.586826	80.566158	Kahawatta	PS-910107	6.591434	80.56893	6.533996	80.570457	Unnamed Road, Sri Lanka	6.391047		රත්නපුර	කහවත්ත	කෙත්තාරාම විහාරය	இரத்தினபுரி	கஹவத்த	கெத்தாராம விஹாராயா	නම් නොකළ පාර, ශ්‍රී ලංකාව	பெயரிடப்படாத சாலை, இலங்கை
Rathnapura	Kahawatta	Musgimi Vidyalaya	False	False	RTHNPRKHWTTMSGMVDYLY		Ratnapura	LK-91	6.586826	80.566158	Kahawatta	PS-910107	6.591434	80.56893	6.564863	80.577528	HH7H+W2R, Weladura, Sri Lanka	3.104435		රත්නපුර	කහවත්ත	මුස්ගිමි විද්‍යාලය	இரத்தினபுரி	கஹவத்த	முஸ்கிமி வித்யாலயா	HH7H+W2R, වේලාදුර, ශ්‍රී ලංකාව	HH7H+W2R, வெலதுரா, இலங்கை
Rathnapura	Rakwana	GalawattaVidyalaya	False	False	RTHNPRRKWNGLWTTVDYLY		Ratnapura	LK-91	6.586826	80.566158	Rakwana	PS-910108	6.470133	80.613684	6.48015	80.61832	Masimbula Road, Rakwana 70300, Sri Lanka	1.226353		රත්නපුර	රක්වාන	ගලවත්ත විද්‍යාලය	இரத்தினபுரி	ரக்வானா	கலாவத்த வித்யாலயா	මසිබුල පාර, රක්වාන 70300, ශ්‍රී ලංකාව	மாசிம்புலா சாலை, ரக்வானா 70300, இலங்கை
Rathnapura	Eheliyagoda	MOH Office – Eheliyagoda	False	False	RTHNPRHLYGDMHFFCHLYGD		Ratnapura	LK-91	6.586826	80.566158	Ehaliyagoda	PS-910113	6.854603	80.260446	6.848679	80.264764	R7X7+FWC, Eheliyagoda, Sri Lanka	0.813375		රත්නපුර	ඇහැලියගොඩ	MOH කාර්යාලය - ඇහැලියගොඩ	இரத்தினபுரி	எஹெலியகொட	MOH அலுவலகம் - எஹெலியகொட	ආර් 7 එක්ස් 7+එෆ්ඩබ්ලිව්සී, ඇහැලියගොඩ, ශ්‍රී ලංකාව	R7X7+FWC, எஹெலியகொட, இலங்கை
Rathnapura	Bulathkohupitiya	MOH Office – Bulathkohupitiya	False	False	RTHNPRBLTHKHPTYMHFFCBLTHKHPTY		Ratnapura	LK-91	6.586826	80.566158	Bulathkohupitiya	PS-920232	7.106684	80.3347	7.109127	80.334565	485M+MR4, Bulathkohupitiya, Sri Lanka	0.272143		රත්නපුර	බුලත්කොහුපිටිය	MOH කාර්යාලය - බුලත්කොහුපිටිය	இரத்தினபுரி	புலத்கோஹுபிடியா	MOH அலுவலகம் - புலத்கோஹுபிட்டிய	485 එම්+එම්ආර් 4, බුලත්කොහුපිටිය, ශ්‍රී ලංකාව	485M+MR4, புலத்கோஹுபிட்டிய, இலங்கை
Anuradhapura	Anuradhapura	Army Hospital Anuradhapura	False	False	NRDHPRNRDHPRRMYHSPTLNRDHPR		Anuradhapura	LK-71	8.39199	80.512958	Anuradapura	PS-710101	8.329752	80.407265	8.338302	80.407646	AB02, Anuradhapura, Sri Lanka	0.951939		අනුරාධපුර	අනුරාධපුර	අනුරාධපුර හමුදා රෝහල	அனுராதபுரம்	அனுராதபுரம்	அனுராதபுரம் இராணுவ மருத்துவமனை	ඒබී 02, අනුරාධපුර, ශ්‍රී ලංකාව	ஏபி 02, அனுராதபுரம், இலங்கை
Anuradhapura	Anuradhapura	Teaching Hospital – Anuradhapura	False	False	NRDHPRNRDHPRTCHNGHSPTLNRDHPR		Anuradhapura	LK-71	8.39199	80.512958	Anuradapura	PS-710101	8.329752	80.407265	8.324765	80.413968	Harischandra Mawatha, Anuradhapura, Sri Lanka	0.922993		අනුරාධපුර	අනුරාධපුර	ශික්ෂණ රෝහල - අනුරාධපුර	அனுராதபுரம்	அனுராதபுரம்	போதனா மருத்துவமனை - அனுராதபுரம்	හරිශ්චන්ද්‍ර මාවත, අනුරාධපුර, ශ්‍රී ලංකාව	ஹரிச்சந்திர மாவத்தை, அனுராதபுரம், இலங்கை
Anuradhapura	Anuradhapura	Thammanakulam Community Hall	False	False	NRDHPRNRDHPRTHMMNKLMCMMNTYHLL		Anuradhapura	LK-71	8.39199	80.512958	Anuradapura	PS-710101	8.329752	80.407265	8.315625	80.396482	898W+7H5, Anuradhapura, Sri Lanka	1.969142		අනුරාධපුර	අනුරාධපුර	තමනකුලම් ප්‍රජා ශාලාව	அனுராதபுரம்	அனுராதபுரம்	தம்மனுக்குளம் சமுதாயக் கூடம்	898W+7H5, අනුරාධපුර, ශ්‍රී ලංකාව	898W+7H5, அனுராதபுரம், இலங்கை
Anuradhapura	Anuradhapura	MOH Office - Nuwaragampalatha East	False	False	NRDHPRNRDHPRMHFFCNWRGMPLTHST		Anuradhapura	LK-71	8.39199	80.512958	Anuradapura	PS-710101	8.329752	80.407265	8.324809	80.412262	Kandy Rd, Anuradhapura, Sri Lanka	0.777651		අනුරාධපුර	අනුරාධපුර	MOH කාර්යාලය - නුවරගම්පලතා නැගෙනහිර	அனுராதபுரம்	அனுராதபுரம்	MOH அலுவலகம் - நுவரகம்பலதா கிழக்கு	මහනුවර පාර, අනුරාධපුර, ශ්‍රී ලංකාව	கண்டி வீதி, அனுராதபுரம், இலங்கை
Anuradhapura	Anuradhapura	Walisinghe Harischandra Ground	False	False	NRDHPRNRDHPRWLSNGHHRSCHNDRGRND		Anuradhapura	LK-71	8.39199	80.512958	Anuradapura	PS-710101	8.329752	80.407265	8.337404	80.405697	8CP4+X78, Anuradhapura, Sri Lanka	0.868448		අනුරාධපුර	අනුරාධපුර	වලිසිංහ හරිස්චන්ද්‍ර පිටිය	அனுராதபுரம்	அனுராதபுரம்	வாலிசிங்க ஹரிச்சந்திர மைதானம்	8CP4+X78, අනුරාධපුර, ශ්‍රී ලංකාව	8CP4+X78, அனுராதபுரம், இலங்கை
Anuradhapura	Thirappane	Kattamurichchana Vidyalaya	False	False	NRDHPRTHRPPNKTTMRCHCHNVDYLY		Anuradhapura	LK-71	8.39199	80.512958	Thirappone	PS-710106	6.907289	79.863819	8.192501	80.58221	5HVJ+2V4, Anuradhapura, Sri Lanka	163.433069	#CenterFarFromPolice	අනුරාධපුර	තිරප්පනේ	කට්ටමුරිච්චාන විද්‍යාලය	அனுராதபுரம்	திரப்பனே	கட்டமுறிச்சனா வித்யாலயா	5HVJ+2V4, අනුරාධපුර, ශ්‍රී ලංකාව	5HVJ+2V4, அனுராதபுரம், இலங்கை
Anuradhapura	Mahawilachchiya	MOH Office – Mahawilachchiya	False	False	NRDHPRMHWLCHCHYMHFFCMHWLCHCHY		Anuradhapura	LK-71	8.39199	80.512958	Mahawilachchiya	PS-710120	8.484987	80.193911	8.494303	80.186519	F5VP+PJC, Mahawilachchiya, Sri Lanka	1.317298		අනුරාධපුර	මහවිලච්චිය	MOH කාර්යාලය - මහවිලච්චිය	அனுராதபுரம்	மகாவிலாச்சியா	MOH அலுவலகம் - மகாவிலாச்சியா	F5VP+PJC, මහවිලච්චිය, ශ්‍රී ලංකාව	F5VP+PJC, மகாவிலாச்சியா, இலங்கை
Anuradhapura	Mihintale	Mihintale Hospital	False	False	NRDHPRMHNTLMHNTLHSPTL		Anuradhapura	LK-71	8.39199	80.512958	Mihintale	PS-710104	8.360062	80.511889	8.35505	80.509287	Kandy Rd, Mihintale, Sri Lanka	0.626724		අනුරාධපුර	මිහින්තලය	මිහින්තලේ රෝහල	அனுராதபுரம்	மிஹிந்தலை	மிஹிந்தலை மருத்துவமனை	මහනුවර පාර, මිහින්තලය, ශ්‍රී ලංකාව	கண்டி வீதி, மிஹிந்தலை, இலங்கை
Anuradhapura	Mihintale	Mihintale Vidyalaya	False	False	NRDHPRMHNTLMHNTLVDYLY		Anuradhapura	LK-71	8.39199	80.512958	Mihintale	PS-710104	8.360062	80.511889	8.356948	80.508134	9G45+Q7C, Mihintale, Sri Lanka	0.539196		අනුරාධපුර	මිහින්තලය	මිහින්තලා විද්‍යාලය	அனுராதபுரம்	மிஹிந்தலை	மிஹிந்தலை வித்யாலயா	9G45+Q7C, මිහින්තලය, ශ්‍රී ලංකාව	9G45+Q7C, மிஹிந்தலை, இலங்கை
Anuradhapura	Hidogama	Kaluwila Sena Maha Vidyalaya	False	False	NRDHPRHDGMKLWLSNMHVDYLY		Anuradhapura	LK-71	8.39199	80.512958	Hidogama	PS-710102	8.31575	80.420358	8.252403	80.423959	Kaluwila, Sri Lanka	7.057216		අනුරාධපුර	හිදෝගම	කළුවිල සේනා මහා විද්‍යාලය	அனுராதபுரம்	ஹிடோகாமா	களுவில சேனா மகா வித்தியாலயம்	කලුවිල, ශ්‍රී ලංකාව	களுவில, இலங்கை
Anuradhapura	Parasangaswewa	Asirikgama Vidyalaya	False	False	NRDHPRPRSNGSWWSRKGMVDYLY		Anuradhapura	LK-71	8.39199	80.512958	Parasangaswewa	PS-710123	8.650981	80.314759	8.335922	80.407513	Maithripala Senanayake Mawatha, Anuradhapura 50000, Sri Lanka	36.499283	#CenterFarFromPolice	අනුරාධපුර	පරසන්ගස්වැව	ආසිරික්ගම විද්‍යාලය	அனுராதபுரம்	பராசங்கஸ்வேவா	ஆசிரிக்கம வித்யாலயா	මෛත්‍රීපාල සේනානායක මාවත, අනුරාධපුර 50000, ශ්‍රී ලංකාව	மைத்திரிபால சேனாநாயக்க மாவத்தை, அனுராதபுரம் 50000, இலங்கை
Anuradhapura	Parasangaswewa	Aluthgama Vidyalaya	False	False	NRDHPRPRSNGSWWLTHGMVDYLY		Anuradhapura	LK-71	8.39199	80.512958	Parasangaswewa	PS-710123	8.650981	80.314759	8.422674	80.45927	A20, Sri Lanka	29.959317	#CenterFarFromPolice	අනුරාධපුර	පරසන්ගස්වැව	අලුත්ගම විද්‍යාලය	அனுராதபுரம்	பராசங்கஸ்வேவா	அளுத்கம வித்தியாலயம்	ඒ 20, ශ්‍රී ලංකාව	ஏ 20, இலங்கை
Polonnaruwa	Polonnaruwa	Bendiweva Maha vidyalaya	False	False	PLNNRWPLNNRWBNDWVMHVDYLY		Polonnaruwa	LK-72	7.993659	81.026061	Polonnaruwa	PS-720125	7.924307	81.036895	7.954439	81.024595	Somawathiya Rd, Polonnaruwa, Sri Lanka	3.615125		පොළොන්නරුව	පොළොන්නරුව	බෙන්දිවැව මහා විද්‍යාලය	பொலன்னறுவை	பொலன்னறுவை	பெண்டிவெவ மகா வித்தியாலயம்	සෝමාවතිය පාර, පොළොන්නරුව, ශ්‍රී ලංකාව	சோமாவதியா சாலை, பொலன்னறுவை, இலங்கை
Polonnaruwa	Polonnaruwa	Bdiwewa Maha Vidyalaya	False	False	PLNNRWPLNNRWBDWWMHVDYLY		Polonnaruwa	LK-72	7.993659	81.026061	Polonnaruwa	PS-720125	7.924307	81.036895	7.954439	81.024595	Somawathiya Rd, Polonnaruwa, Sri Lanka	3.615125		පොළොන්නරුව	පොළොන්නරුව	බදුවැව මහා විද්‍යාලය	பொலன்னறுவை	பொலன்னறுவை	பிடிவெவ மகா வித்தியாலயம்	සෝමාවතිය පාර, පොළොන්නරුව, ශ්‍රී ලංකාව	சோமாவதியா சாலை, பொலன்னறுவை, இலங்கை
Polonnaruwa	Polonnaruwa	Kaduruwela Jayanthi Maha vidyalaya	False	False	PLNNRWPLNNRWKDRWLJYNTHMHVDYLY		Polonnaruwa	LK-72	7.993659	81.026061	Polonnaruwa	PS-720125	7.924307	81.036895	7.927939	81.036362	W2HP+5GH, Polonnaruwa, Sri Lanka	0.408232		පොළොන්නරුව	පොළොන්නරුව	කදුරුවෙල ජයන්ති මහා විද්‍යාලය	பொலன்னறுவை	பொலன்னறுவை	கதுருவெல ஜெயந்தி மகா வித்தியாலயம்	W2HP+5GH, පොළොන්නරුව, ශ්‍රී ලංකාව	W2HP+5GH, பொலன்னறுவை, இலங்கை
Polonnaruwa	Medirigiriya	Medirigiriya National College	False	False	PLNNRWMDRGRYMDRGRYNTNLCLLG		Polonnaruwa	LK-72	7.993659	81.026061	Medirigiriya	PS-720130	8.150847	80.984493	8.143379	80.968732	Rohala street, මැදිරිගිරිය, Sri Lanka	1.923959		පොළොන්නරුව	මැදිරිගිරිය	මැදිරිගිරිය ජාතික විද්‍යාලය	பொலன்னறுவை	மெதிரிகிரியா	மெதிரிகிரிய தேசிய கல்லூரி	රෝහල වීදිය, මැදිරිගිරිය, ශ්‍රී ලංකාව	ரோஹலா தெரு, மத்தியிரிகிரியா, இலங்கை
Polonnaruwa	Medirigiriya	Divulankadawala National College	False	False	PLNNRWMDRGRYDVLNKDWLNTNLCLLG		Polonnaruwa	LK-72	7.993659	81.026061	Medirigiriya	PS-720130	8.150847	80.984493	8.110764	80.952098	Thissa Amuna, Sri Lanka	5.709776		පොළොන්නරුව	මැදිරිගිරිය	දිවුලන්කඩවල ජාතික විද්‍යාලය	பொலன்னறுவை	மெதிரிகிரியா	திவுலங்கடவாலா தேசிய கல்லூரி	තිසා අමුණ, ශ්‍රී ලංකාව	திசா அமுனா, இலங்கை
Polonnaruwa	Bakamuna	Segala Central College	False	False	PLNNRWBKMNSGLCNTRLCLLG		Polonnaruwa	LK-72	7.993659	81.026061	Bakamuna	PS-720132	7.778789	80.816102	7.780602	80.818401	Bakamuna, Sri Lanka	0.323821		පොළොන්නරුව	බකමූනා	සේගල මධ්‍ය මහා විද්‍යාලය	பொலன்னறுவை	பக்கமுனா	செகலா மத்திய கல்லூரி	බකමූණ, ශ්‍රී ලංකාව	பகமுனா, இலங்கை
Polonnaruwa	Bakamuna	Bakamuna Mahasen Vidyalaya	False	False	PLNNRWBKMNBKMNMHSNVDYLY		Polonnaruwa	LK-72	7.993659	81.026061	Bakamuna	PS-720132	7.778789	80.816102	7.775622	80.819812	Dambulla - Bakamuna - Kalugahawela Road, Bakamuna, Sri Lanka	0.539688		පොළොන්නරුව	බකමූනා	බකමූණ මහසෙන් විද්‍යාලය	பொலன்னறுவை	பக்கமுனா	பக்கமுனா மஹாசென் வித்யாலயா	දඹුල්ල - බකමූණ - කළුගහවෙල පාර, බකමූණ, ශ්‍රී ලංකාව	தம்புள்ளை - பகமுனா - கலுகஹவெல சாலை, பக்கமுனா, இலங்கை
Jaffna	Jaffna	Mobile Medical Team	False	False	JFFNJFFNMBLMDCLTM		Jaffna	LK-41	9.691792	80.098594	Jaffna	PS-410209	9.659919	80.010965					#CenterLocationUnknown	යාපනය	යාපනය	ජංගම වෛද්‍ය කණ්ඩායම	யாழ்	யாழ்	மொபைல் மருத்துவ குழு		
Jaffna	Jaffna	St. John's College	False	False	JFFNJFFNSTJHNSCLLG		Jaffna	LK-41	9.691792	80.098594	Jaffna	PS-410209	9.659919	80.010965	9.657495	80.026568	Main Street, Chundikuli-Columbuthurai Rd, section, Sri Lanka	1.732049		යාපනය	යාපනය	ශාන්ත ජෝන් විද්‍යාලය	யாழ்	யாழ்	செயின்ட் ஜான்ஸ் கல்லூரி	ප්‍රධාන වීදිය, චුන්දිකුලි-කොළම්බුතුරේ පාර, කොටස, ශ්‍රී ලංකාව	பிரதான வீதி, சுண்டிக்குளி-கொலம்புதுறை வீதி, பிரிவு, இலங்கை
Jaffna	Jaffna	Kevil GTM Vidyalaya	False	False	JFFNJFFNKVLGTMVDYLY		Jaffna	LK-41	9.691792	80.098594	Jaffna	PS-410209	9.659919	80.010965	9.678516	80.012338	M2H6+CW4, Jaffna, Sri Lanka	2.074012		යාපනය	යාපනය	කෙවිල් ජීටීඑම් විද්‍යාලය	யாழ்	யாழ்	கெவில் ஜிடிஎம் வித்யாலயா	M2H6+CW4, යාපනය, ශ්‍රී ලංකාව	M2H6+CW4, யாழ்ப்பாணம், இலங்கை
Jaffna	Jaffna	Mobile Vaccination	False	False	JFFNJFFNMBLVCCNTN		Jaffna	LK-41	9.691792	80.098594	Jaffna	PS-410209	9.659919	80.010965					#CenterLocationUnknown	යාපනය	යාපනය	ජංගම එන්නත	யாழ்	யாழ்	மொபைல் தடுப்பூசி		
Jaffna	Kopay	MOH Office- Nallur	False	False	JFFNKPYMHFFCNLLR		Jaffna	LK-41	9.691792	80.098594	Kopai	PS-410216	9.686887	80.03856	9.673947	80.027736	M2FH+H3H, Jaffna, Sri Lanka	1.865513		යාපනය	කෝපායි	එම්ඕඑච් කාර්යාලය- නල්ලූර්	யாழ்	கோப்பாய்	MOH அலுவலகம்- நல்லூர்	M2FH+H3H, යාපනය, ශ්‍රී ලංකාව	M2FH+H3H, யாழ்ப்பாணம், இலங்கை
Jaffna	Kopay	Irubalai Kandaveli Tamil College	False	False	JFFNKPYRBLKNDVLTMLCLLG		Jaffna	LK-41	9.691792	80.098594	Kopai	PS-410216	9.686887	80.03856	9.686982	80.048279	M2PX+Q8R, Jaffna, Sri Lanka	1.065681		යාපනය	කෝපායි	ඉරුබලෙයි කන්දවේලි දෙමළ විද්‍යාලය	யாழ்	கோப்பாய்	இருபளை கண்டவெளி தமிழ் கல்லூரி	M2PX+Q8R, යාපනය, ශ්‍රී ලංකාව	M2PX+Q8R, யாழ்ப்பாணம், இலங்கை
Jaffna	Kopay	Urumbirai Hindu College	False	False	JFFNKPYRMBRHNDCLLG		Jaffna	LK-41	9.691792	80.098594	Kopai	PS-410216	9.686887	80.03856	9.72601	80.047054	P2GW+CR3, Jaffna, Sri Lanka	4.450175		යාපනය	කෝපායි	උරුම්බිරායි හින්දු විද්‍යාලය	யாழ்	கோப்பாய்	உரும்பிராய் இந்து கல்லூரி	P2GW+CR3, යාපනය, ශ්‍රී ලංකාව	P2GW+CR3, யாழ்ப்பாணம், இலங்கை
Jaffna	Kopay	Mobile Vaccination	False	False	JFFNKPYMBLVCCNTN		Jaffna	LK-41	9.691792	80.098594	Kopai	PS-410216	9.686887	80.03856					#CenterLocationUnknown	යාපනය	කෝපායි	ජංගම එන්නත	யாழ்	கோப்பாய்	மொபைல் தடுப்பூசி		
Jaffna	Chunnagam	MOH Office - Uduvil	False	False	JFFNCHNNGMMHFFCDVL		Jaffna	LK-41	9.691792	80.098594	Chunnakam	PS-410211	9.745309	80.029151	9.742938	80.035132	P2VP+53C, Chunnakam, Sri Lanka	0.706719		යාපනය	චුන්නාගම්	MOH කාර්යාලය - උඩුවිල්	யாழ்	சுன்னாகம்	MOH அலுவலகம் - உடுவில்	පී 2 වීපී+53 සී, චුන්නාකම්, ශ්‍රී ලංකාව	P2VP+53C, சுன்னாகம், இலங்கை
Jaffna	Chunnagam	Ellale Divya Community Hall	False	False	JFFNCHNNGMLLLDVYCMMNTYHLL		Jaffna	LK-41	9.691792	80.098594	Chunnakam	PS-410211	9.745309	80.029151	9.664467	80.010483	AB16, Jaffna, Sri Lanka	9.222033		යාපනය	චුන්නාගම්	එල්ලාලේ දිව්‍යා ප්‍රජා ශාලාව	யாழ்	சுன்னாகம்	எல்லாளே திவ்யா சமுதாயக் கூடம்	ඒබී 16, යාපනය, ශ්‍රී ලංකාව	ஏபி 16, யாழ்ப்பாணம், இலங்கை
Jaffna	Point Pedro	Wadu Hindu Girl's College	False	False	JFFNPNTPDRWDHNDGRLSCLLG		Jaffna	LK-41	9.691792	80.098594	Point Pedro	PS-410106	9.827018	80.233187	9.817623	80.23136	Vinayaga Muthaliyaar Veethy, Point Pedro, Sri Lanka	1.064016		යාපනය	පේදුරුතුඩුව	වාඩු හින්දු බාලිකා විද්‍යාලය	யாழ்	பருத்தித்துறை	வடு இந்து பெண்கள் கல்லூரி	විනයාග මුතලියාර් වීති, පේදුරුතුඩුව, ශ්‍රී ලංකාව	விநாயக முதலியார் வீதி, பருத்தித்துறை, இலங்கை
Jaffna	Nelliyady	MOH Office – Karaveddy	False	False	JFFNNLLYDYMHFFCKRVDDY		Jaffna	LK-41	9.691792	80.098594	Nelliadi	PS-410108	9.778397	80.113303	9.792126	80.201799	Q6R2+VP3, Point Pedro, Sri Lanka	9.819656		යාපනය	නෙල්ලියාඩි	MOH කාර්යාලය - කරවෙඩ්ඩි	யாழ்	நெல்லியடி	MOH அலுவலகம் - கரவெட்டி	Q6R2+VP3, පේදුරුතුඩුව, ශ්‍රී ලංකාව	Q6R2+VP3, பருத்தித்துறை, இலங்கை
Jaffna	Thelippalai	MOH Office – Thelippalai	False	False	JFFNTHLPPLMHFFCTHLPPL		Jaffna	LK-41	9.691792	80.098594	Thelippalay	PS-410104	6.933075	79.857181	9.785272	80.032899	Q2PM+452, Tellippalai, Sri Lanka	317.838063	#CenterFarFromPolice	යාපනය	තෙලිප්පලෙයි	MOH කාර්යාලය - තෙලිප්පලෙයි	யாழ்	தெளிப்பளை	MOH அலுவலகம் - தெல்லிப்பழை	Q2PM+452, තෙලිප්පලෙයි, ශ්‍රී ලංකාව	Q2PM+452, தெல்லிப்பழை, இலங்கை
Jaffna	Kodikaman	DH – Varani	False	False	JFFNKDKMNDHVRN		Jaffna	LK-41	9.691792	80.098594	Kodikamam	PS-410217	9.666459	80.132384	9.681381	80.219829	Kodikamam, Kandy - Jaffna Hwy, Sri Lanka	9.73078		යාපනය	කොඩිකාමන්	ඩීඑච් - වාරානි	யாழ்	கொடிகாமன்	DH - வரணி	කොඩිකාමම්, මහනුවර - යාපනය හ්වි, ශ්‍රී ලංකාව	கொடிகாமம், கண்டி - யாழ்ப்பாணம், இலங்கை
Jaffna	Achchuveli	Somaskanda Vidyalaya	False	False	JFFNCHCHVLSMSKNDVDYLY		Jaffna	LK-41	9.691792	80.098594	Achchuweli	PS-410103	6.934132	79.856305	9.745655	80.104632	AB20 - Point Pedro Road Puttur west, Jaffna 40000, Sri Lanka	313.916871	#CenterFarFromPolice	යාපනය	අච්චුවේලි	සෝමස්කන්ද විද්‍යාලය	யாழ்	அச்சுவேலி	சோமாஸ்கந்தா வித்யாலயா	ඒබී 20 - පේදුරුතුඩුව පාර, පුත්තූර් බටහිර, යාපනය 40000, ශ්‍රී ලංකාව	AB20 - பருத்தித்துறை சாலை புத்தூர் மேற்கு, யாழ்ப்பாணம் 40000, இலங்கை
Jaffna	Wadukkotte	MOH Office – Chankanai	False	False	JFFNWDKKTTMHFFCCHNKN		Jaffna	LK-41	9.691792	80.098594	Vaddukoddai		9.728886	79.947771	9.753617	79.976004	QX3G+CCR, Sri Lanka	4.140836		යාපනය	වඩුක්කෝට්ටේ	MOH කාර්යාලය - චංකනායි	யாழ்	வட்டுக்கோட்டை	MOH அலுவலகம் - சங்கனை	QX3G+CCR, ශ්‍රී ලංකාව	QX3G+CCR, இலங்கை
Jaffna	Manippai	MOH Office – Sandilippai	False	False	JFFNMNPPMHFFCSNDLPP		Jaffna	LK-41	9.691792	80.098594	Manippai	PS-410210	9.727151	79.996905	9.749336	79.987383	Sandilipay, Sri Lanka	2.679343		යාපනය	මනිප්පායි	MOH කාර්යාලය - සඳිලිප්පෙයි	யாழ்	மணிப்பை	MOH அலுவலகம் - சண்டிலிப்பாய்	සඳිලිපේ, ශ්‍රී ලංකාව	சண்டிலிபே, இலங்கை
Jaffna	Kayts	MOH Office – Karainagar	False	False	JFFNKYTSMHFFCKRNGR		Jaffna	LK-41	9.691792	80.098594	Kayts	PS-410212	9.728654	79.94775	9.725097	79.99772	Sri Lanka, Manipay, Sri Lanka	5.492521		යාපනය	කයිට්ස්	MOH කාර්යාලය - කරෙයිනගර්	யாழ்	ஊர்காவற்துறையினர்	MOH அலுவலகம் - காரைநகர்	ශ්‍රී ලංකාව, මනිපායි, ශ්‍රී ලංකාව	இலங்கை, மானிப்பாய், இலங்கை
Jaffna	Kayts	MOH Office – Valanai	False	False	JFFNKYTSMHFFCVLN		Jaffna	LK-41	9.691792	80.098594	Kayts	PS-410212	9.728654	79.94775	9.636317	79.903777	Chatty vangkalvady road, Velanai, Sri Lanka	11.346015		යාපනය	කයිට්ස්	MOH කාර්යාලය - වලනායි	யாழ்	ஊர்காவற்துறையினர்	MOH அலுவலகம் - வளணை	චැටි වංගල්වඩි පාර, වෙලනායි, ශ්‍රී ලංකාව	சட்டி வாங்கல்வாடி சாலை, வேலணை, இலங்கை
Jaffna	Kayts	MOH Office – Kayts	False	False	JFFNKYTSMHFFCKYTS		Jaffna	LK-41	9.691792	80.098594	Kayts	PS-410212	9.728654	79.94775	9.697759	79.866366	Sri Lanka, Kayts, Sri Lanka	9.561445		යාපනය	කයිට්ස්	MOH කාර්යාලය - කයිට්ස්	யாழ்	ஊர்காவற்துறையினர்	MOH அலுவலகம் - ஊர்காவற்துறை	ශ්‍රී ලංකාව, කයිට්ස්, ශ්‍රී ලංකාව	இலங்கை, ஊர்காவற்துறை, இலங்கை
Jaffna	Chavakachcheri	Navatkiri AMTM Vidyalaya	False	False	JFFNCHVKCHCHRNVTKRMTMVDYLY		Jaffna	LK-41	9.691792	80.098594	Chawakachcheri	PS-410215	9.666459	80.132384	9.679424	80.095274	M3HW+Q46, Chavakachcheri, Sri Lanka	4.317041		යාපනය	චාවකච්චේරි	නවත්කිරි ඒඑම්ටීඑම් විද්‍යාලය	யாழ்	சாவகச்சேரி	நவட்கிரி AMTM வித்யாலயா	M3HW+Q46, චාවකච්චේරි, ශ්‍රී ලංකාව	M3HW+Q46, சாவகச்சேரி, இலங்கை
Jaffna	Chavakachcheri	Golden Jubilee Hall	False	False	JFFNCHVKCHCHRGLDNJBLHLL		Jaffna	LK-41	9.691792	80.098594	Chawakachcheri	PS-410215	9.666459	80.132384	9.659136	80.160946	M556+M94, Chavakachcheri, Sri Lanka	3.236063		යාපනය	චාවකච්චේරි	ස්වර්ණ ජුබිළි ශාලාව	யாழ்	சாவகச்சேரி	கோல்டன் ஜூபிலி ஹால்	එම් 556+එම් 94, චාවකච්චේරි, ශ්‍රී ලංකාව	M556+M94, சாவகச்சேரி, இலங்கை
Kilinochchi	Kilinochchi	Mobile Medical Team	False	False	KLNCHCHKLNCHCHMBLMDCLTM		Kilinochchi	LK-45	9.415742	80.30358	Kilinochchi	PS-450131	9.392265	80.407846					#CenterLocationUnknown	කිලිනොච්චි	කිලිනොච්චි	ජංගම වෛද්‍ය කණ්ඩායම	கிளிநொச்சி	கிளிநொச்சி	மொபைல் மருத்துவ குழு		
Kilinochchi	Kilinochchi	MOH Office – Kanadawala	False	False	KLNCHCHKLNCHCHMHFFCKNDWL		Kilinochchi	LK-45	9.415742	80.30358	Kilinochchi	PS-450131	9.392265	80.407846	9.396965	80.407782	Kandy - Jaffna Hwy, Kilinochchi, Sri Lanka	0.522827		කිලිනොච්චි	කිලිනොච්චි	MOH කාර්යාලය - කැනඩවල	கிளிநொச்சி	கிளிநொச்சி	MOH அலுவலகம் - கனடாவாலா	මහනුවර - යාපනය හ්වි, කිලිනොච්චි, ශ්‍රී ලංකාව	கண்டி - யாழ்ப்பாணம், கிளிநொச்சி, இலங்கை
Kilinochchi	Kilinochchi	MOH Office - Karachchi	False	False	KLNCHCHKLNCHCHMHFFCKRCHCH		Kilinochchi	LK-45	9.415742	80.30358	Kilinochchi	PS-450131	9.392265	80.407846	9.396965	80.407782	Kandy - Jaffna Hwy, Kilinochchi, Sri Lanka	0.522827		කිලිනොච්චි	කිලිනොච්චි	MOH කාර්යාලය - කරච්චි	கிளிநொச்சி	கிளிநொச்சி	MOH அலுவலகம் - கராச்சி	මහනුවර - යාපනය හ්වි, කිලිනොච්චි, ශ්‍රී ලංකාව	கண்டி - யாழ்ப்பாணம், கிளிநொச்சி, இலங்கை
Kilinochchi	Kilinochchi	MOH Office - Punakar	False	False	KLNCHCHKLNCHCHMHFFCPNKR		Kilinochchi	LK-45	9.415742	80.30358	Kilinochchi	PS-450131	9.392265	80.407846	9.396965	80.407782	Kandy - Jaffna Hwy, Kilinochchi, Sri Lanka	0.522827		කිලිනොච්චි	කිලිනොච්චි	MOH කාර්යාලය - පුනාකාර්	கிளிநொச்சி	கிளிநொச்சி	MOH அலுவலகம் - புனகர்	මහනුවර - යාපනය හ්වි, කිලිනොච්චි, ශ්‍රී ලංකාව	கண்டி - யாழ்ப்பாணம், கிளிநொச்சி, இலங்கை
Kilinochchi	Kilinochchi	MOH Office – Palai	False	False	KLNCHCHKLNCHCHMHFFCPL		Kilinochchi	LK-45	9.415742	80.30358	Kilinochchi	PS-450131	9.392265	80.407846	7.330938	80.29484	06 A6, Polgahawela, Sri Lanka	229.618032	#CenterFarFromPolice	කිලිනොච්චි	කිලිනොච්චි	MOH කාර්යාලය - පලෙයි	கிளிநொச்சி	கிளிநொச்சி	MOH அலுவலகம் - பாளை	06 ඒ 6, පොල්ගහවෙල, ශ්‍රී ලංකාව	06 A6, பொல்கஹவெல, இலங்கை
Kilinochchi	Pooneryn	MOH Office – Pooneryn	False	False	KLNCHCHPNRYNMHFFCPNRYN		Kilinochchi	LK-45	9.415742	80.30358	Pooneryn		9.505717	80.21101	9.507968	80.208317	G655+58P, Pooneryn, Sri Lanka	0.387256		කිලිනොච්චි	පුනරීන්	MOH කාර්යාලය - පුනරීන්	கிளிநொச்சி	பூனெரின்	MOH அலுவலகம் - பூனெரின்	ජී 655+58 පී, පූනරීන්, ශ්‍රී ලංකාව	G655+58P, பூனெரின், இலங்கை
Kilinochchi	Mulankavil	Mulankavil Hospital	False	False	KLNCHCHMLNKVLMLNKVLHSPTL		Kilinochchi	LK-45	9.415742	80.30358	Mulankavil	PS-450135	9.254463	80.141528	9.243423	80.143894	Base Hospital Mulankavil, A32 Road, Mulankavil, Kumulamunai, Sri Lanka	1.255148		කිලිනොච්චි	මුලංකාවිල්	මුලංකාවිල් රෝහල	கிளிநொச்சி	முழங்காவில்	முழங்காவில் மருத்துவமனை	මුලික රෝහල මුලංකාවිල්, ඒ 32 පාර, මුලංකාවිල්, කුමුලමුනෙයි, ශ්‍රී ලංකාව	அடிப்படை மருத்துவமனை முழங்காவில், A32 சாலை, முழங்காவில், குமுலமுனை, இலங்கை
Mullaitivu	Welioya	MOH Office – Sampathnuwara	False	False	MLLTVWLYMHFFCSMPTHNWR		Mullaitivu	LK-44	9.167643	80.549091	Welioya	PS-440152	8.980582	80.773572	8.981127	80.771815	XQJC+FP4, Welioya, Sri Lanka	0.20233		මුලතිව්	වැලිඔය	MOH කාර්යාලය - සම්පත්නුවර	முல்லைத்தீவு	வெலிஓயா	MOH அலுவலகம் - சம்பத்நுவரா	XQJC+FP4, වැලිඔය, ශ්‍රී ලංකාව	XQJC+FP4, வெலிஓயா, இலங்கை
Mullaitivu	Welioya	Sampathnuwara Hospital	False	False	MLLTVWLYSMPTHNWRHSPTL		Mullaitivu	LK-44	9.167643	80.549091	Welioya	PS-440152	8.980582	80.773572	8.98045	80.772558	XQJF+52F, Welioya, Sri Lanka	0.112368		මුලතිව්	වැලිඔය	සම්පත්නුවර රෝහල	முல்லைத்தீவு	வெலிஓயா	சம்பத்நுவர மருத்துவமனை	XQJF+52F, වැලිඔය, ශ්‍රී ලංකාව	XQJF+52F, வெலிஓயா, இலங்கை
Mullaitivu	Mullaitivu	Anichchamkulam Tamil College	False	False	MLLTVMLLTVNCHCHMKLMTMLCLLG		Mullaitivu	LK-44	9.167643	80.549091	Mullativu	PS-440148	9.212825	80.760159	9.224412	80.782443	6QFJ+QX8, Mulliyawalai, Sri Lanka	2.765333		මුලතිව්	මුලතිව්	අනිච්චම්කුලම් දෙමළ විද්‍යාලය	முல்லைத்தீவு	முல்லைத்தீவு	அனிச்சம்குளம் தமிழ் கல்லூரி	6QFJ+QX8, මුල්ලියවලෙයි, ශ්‍රී ලංකාව	6QFJ+QX8, முள்ளியவளை, இலங்கை
Mullaitivu	Mankulam	Nattankandal Primary School	False	False	MLLTVMNKLMNTTNKNDLPRMRYSCHL		Mullaitivu	LK-44	9.167643	80.549091	Mankulam	PS-440147	9.124606	80.448404	9.376223	80.551326	9HG2+FGP, Visuvamadu, Sri Lanka	30.18211	#CenterFarFromPolice	මුලතිව්	මාන්කුලම්	නාත්තන්කන්දල් ප්‍රාථමික විද්‍යාලය	முல்லைத்தீவு	மாங்குளம்	நாட்டங்கண்டல் தொடக்கப்பள்ளி	9 එච්ජී 2+එෆ්ජීපී, විශ්වමඩු, ශ්‍රී ලංකාව	9HG2+FGP, விசுவமடு, இலங்கை
Mullaitivu	Puthukudiyiruppu	Puthukudiyiruppu Bharathi Vidyalaya	False	False	MLLTVPTHKDYRPPPTHKDYRPPBHRTHVDYLY		Mullaitivu	LK-44	9.167643	80.549091	Pudukuduiruppu	PS-440149	7.00152	79.95003	9.31067	80.699589	8M6X+7R8, Puthukkudiyiruppu, Sri Lanka	269.778207	#CenterFarFromPolice	මුලතිව්	පුදුකුඩියිරුප්පු	පුදුකුඩියිරුප්පු භාරතී විද්‍යාලය	முல்லைத்தீவு	புதுக்குடியிருப்பு	புதுக்குடியிருப்பு பாரதி வித்தியாலயம்	8M6X+7R8, පුදුක්කුඩියිරුප්පු, ශ්‍රී ලංකාව	8M6X+7R8, புதுக்குடியிருப்பு, இலங்கை
Mullaitivu	Puthukudiyiruppu	Mungilaru Primary School	False	False	MLLTVPTHKDYRPPMNGLRPRMRYSCHL		Mullaitivu	LK-44	9.167643	80.549091	Pudukuduiruppu	PS-440149	7.00152	79.95003	9.322944	80.702342	Puthukkudiyiruppu-Mathalan Rd, Puthukkudiyiruppu, Sri Lanka	271.170338	#CenterFarFromPolice	මුලතිව්	පුදුකුඩියිරුප්පු	මුංගිලාරු ප්‍රාථමික විද්‍යාලය	முல்லைத்தீவு	புதுக்குடியிருப்பு	முங்கிலாறு தொடக்கப்பள்ளி	පුදුක්කුඩියිරුප්පු-මාතලන් පාර, පුදුක්කුඩියිරුප්පු, ශ්‍රී ලංකාව	புதுக்குடியிருப்பு-மாத்தலன் சாலை, புதுக்குடியிருப்பு, இலங்கை
Mullaitivu	Puthukudiyiruppu	Devipuram Treatment Centre	False	False	MLLTVPTHKDYRPPDVPRMTRTMNTCNTR		Mullaitivu	LK-44	9.167643	80.549091	Pudukuduiruppu	PS-440149	7.00152	79.95003	9.313637	80.696168	Puthukudiyiruppu, Sri Lanka	269.977487	#CenterFarFromPolice	මුලතිව්	පුදුකුඩියිරුප්පු	දෙවිපුරම් ප්‍රතිකාර මධ්‍යස්ථානය	முல்லைத்தீவு	புதுக்குடியிருப்பு	தேவிபுரம் சிகிச்சை மையம்	පුදුකුඩියිරුප්පු, ශ්‍රී ලංකාව	புதுக்குடியிருப்பு, இலங்கை
Mullaitivu	Puthukudiyiruppu	Sri Subramaniyam Vidyalaya	False	False	MLLTVPTHKDYRPPSRSBRMNYMVDYLY		Mullaitivu	LK-44	9.167643	80.549091	Pudukuduiruppu	PS-440149	7.00152	79.95003	9.314562	80.696594	8M7W+RJG, Puthukkudiyiruppu, Sri Lanka	270.089737	#CenterFarFromPolice	මුලතිව්	පුදුකුඩියිරුප්පු	ශ්‍රී සුබ්‍රමනියම් විද්‍යාලය	முல்லைத்தீவு	புதுக்குடியிருப்பு	ஸ்ரீ சுப்பிரமணியம் வித்யாலயா	8M7W+ආර්ජේජී, පුදුක්කුඩියිරුප්පු, ශ්‍රී ලංකාව	8M7W+RJG, புதுக்குடியிருப்பு, இலங்கை
Mullaitivu	Mullaitivu	Unnapilavu Hospital – Mullaitivu	False	False	MLLTVMLLTVNNPLVHSPTLMLLTV		Mullaitivu	LK-44	9.167643	80.549091	Mullativu	PS-440148	9.212825	80.760159	9.26205	80.81366	Unnappulavu, Mullaitivu, Sri Lanka	8.029915		මුලතිව්	මුලතිව්	උන්නපිලව් රෝහල - මුලතිව්	முல்லைத்தீவு	முல்லைத்தீவு	உன்னபிலவு மருத்துவமனை - முல்லைத்தீவு	උන්නප්පුලවු, මුලතිව්, ශ්‍රී ලංකාව	உன்னப்புலவு, முல்லைத்தீவு, இலங்கை
Mullaitivu	Mulliyawalai	Mulliyawalai Vidyanada Vidyalaya	False	False	MLLTVMLLYWLMLLYWLVDYNDVDYLY		Mullaitivu	LK-44	9.167643	80.549091	Muliyaweli	PS-440150	6.915266	79.87829	9.224239	80.774541	6QFF+MRV, Tanniyutttu, Sri Lanka	275.137621	#CenterFarFromPolice	මුලතිව්	මුල්ලියාවලෙයි	මුල්ලියවලෙයි විද්‍යනාද විද්‍යාලය	முல்லைத்தீவு	முள்ளியவளை	முள்ளியவளை வித்யானதா வித்தியாலயம்	6QFF+එම්ආර්වී, තනියූත්තු, ශ්‍රී ලංකාව	6QFF+MRV, தன்னியூட்டு, இலங்கை
Mullaitivu	Oddusuddan	MOH Office – Oddusuddan	False	False	MLLTVDDSDDNMHFFCDDSDDN		Mullaitivu	LK-44	9.167643	80.549091	Oddusudan	PS-440151	9.160983	80.652821	9.162816	80.661584	5M76+4JG, Oddusuddan, Sri Lanka	0.983634		මුලතිව්	ඔඩ්ඩුසුඩාන්	MOH කාර්යාලය - ඔඩ්ඩුසුඩාන්	முல்லைத்தீவு	ஒட்டுசுட்டான்	MOH அலுவலகம் - ஒட்டுசுட்டான்	5 එම් 76+4 ජේජී, ඔඩ්ඩුසුඩාන්, ශ්‍රී ලංකාව	5M76+4JG, ஒட்டுசுட்டான், இலங்கை
Trincomalee	Muttur	MOH Office – Muttur	False	False	TRNCMLMTTRMHFFCMTTR		Trincomalee	LK-53	8.551241	81.092014	Mutur	PS-530138	8.461133	81.259371	8.453916	81.264494	1 Old Batticaloa Rd, Mutur, Sri Lanka	0.980859		ත්රිකුණාමලය	මුතූර්	MOH කාර්යාලය - මුතූර්	திருகோணமலை	மூதூர்	MOH அலுவலகம் - மூதூர்	1 පරණ මඩකලපුව පාර, මුතූර්, ශ්‍රී ලංකාව	1 பழைய மட்டக்களப்பு வீதி, மூதூர், இலங்கை
Trincomalee	Muttur	Kalemahal Vidyalaya	False	False	TRNCMLMTTRKLMHLVDYLY		Trincomalee	LK-53	8.551241	81.092014	Mutur	PS-530138	8.461133	81.259371	8.574433	81.234967	Dockyard Rd, Trincomalee, Sri Lanka	12.885068		ත්රිකුණාමලය	මුතූර්	කාලෙමහල් විද්‍යාලය	திருகோணமலை	மூதூர்	காலேமஹால் வித்யாலயா	ඩොක්යාඩ් පාර, ත්‍රිකුණාමලය, ශ්‍රී ලංකාව	கப்பல்துறை சாலை, திருகோணமலை, இலங்கை
Trincomalee	Muttur	Pallekudiirippu Kale Mahal Vidyalaya	False	False	TRNCMLMTTRPLLKDRPPKLMHLVDYLY		Trincomalee	LK-53	8.551241	81.092014	Mutur	PS-530138	8.461133	81.259371	8.449646	81.26789	1 Old Batticaloa Rd, Mutur, Sri Lanka	1.584607		ත්රිකුණාමලය	මුතූර්	පල්ලේකුඩඉරිප්පු කැලේ මහල් විද්‍යාලය	திருகோணமலை	மூதூர்	பல்லேக்குடியிருப்பு காலே மஹால் வித்யாலயா	1 පරණ මඩකලපුව පාර, මුතූර්, ශ්‍රී ලංකාව	1 பழைய மட்டக்களப்பு வீதி, மூதூர், இலங்கை
Trincomalee	Muttur	Ralkuli Vidyalaya	False	False	TRNCMLMTTRRLKLVDYLY		Trincomalee	LK-53	8.551241	81.092014	Mutur	PS-530138	8.461133	81.259371	8.447261	81.243706	Ralkuli Bridge, Trincomalee Hwy, Sri Lanka	2.313261		ත්රිකුණාමලය	මුතූර්	රාල්කුලි විද්‍යාලය	திருகோணமலை	மூதூர்	ரல்குலி வித்யாலயா	රාල්කුලි පාලම, ත්‍රිකුණාමලය හ්වි, ශ්‍රී ලංකාව	ரல்குலி பாலம், திருகோணமலை ஹெவி, இலங்கை
Trincomalee	Kinniya	MOH Office – Kurungnakeni	False	False	TRNCMLKNNYMHFFCKRNGNKN		Trincomalee	LK-53	8.551241	81.092014	Kinnia	PS-530140	6.907289	79.863819	7.484932	80.353119	F9M3+X6H, Kurunegala 60000, Sri Lanka	83.927094	#CenterFarFromPolice	ත්රිකුණාමලය	කින්නියා	එම්ඕඑච් කාර්යාලය - කුරුංග්ණකේනි	திருகோணமலை	கிண்ணியா	MOH அலுவலகம் - குருங்நகேணி	F9M3+X6H, කුරුණෑගල 60000, ශ්‍රී ලංකාව	F9M3+X6H, குருநாகல் 60000, இலங்கை
Trincomalee	Kinniya	MOH Office – Kinniya	False	False	TRNCMLKNNYMHFFCKNNY		Trincomalee	LK-53	8.551241	81.092014	Kinnia	PS-530140	6.907289	79.863819	8.498696	81.179644	F5XH+FVC, Kinniya 31100, Sri Lanka	228.840304	#CenterFarFromPolice	ත්රිකුණාමලය	කින්නියා	MOH කාර්යාලය - කින්නියා	திருகோணமலை	கிண்ணியா	MOH அலுவலகம் - கிண்ணியா	F5XH+FVC, කින්නියා 31100, ශ්‍රී ලංකාව	F5XH+FVC, கிண்ணியா 31100, இலங்கை
Trincomalee	Kinniya	Kinniya Hospital	False	False	TRNCMLKNNYKNNYHSPTL		Trincomalee	LK-53	8.551241	81.092014	Kinnia	PS-530140	6.907289	79.863819	8.501539	81.187539	Tampalakamam-Kinniya Rd, Kinniya 31100, Sri Lanka	229.636589	#CenterFarFromPolice	ත්රිකුණාමලය	කින්නියා	කින්නියා රෝහල	திருகோணமலை	கிண்ணியா	கிண்ணியா மருத்துவமனை	තම්පලකමම්-කින්නියා පාර, කින්නියා 31100, ශ්‍රී ලංකාව	தம்பலகாமம்-கிண்ணியா சாலை, கிண்ணியா 31100, இலங்கை
Trincomalee	Kinniya	Base Hospital Kinniya	False	False	TRNCMLKNNYBSHSPTLKNNY		Trincomalee	LK-53	8.551241	81.092014	Kinnia	PS-530140	6.907289	79.863819	8.501539	81.187539	Tampalakamam-Kinniya Rd, Kinniya 31100, Sri Lanka	229.636589	#CenterFarFromPolice	ත්රිකුණාමලය	කින්නියා	කින්නියා මූලික රෝහල	திருகோணமலை	கிண்ணியா	கிண்ணியா அடிப்படை மருத்துவமனை	තම්පලකමම්-කින්නියා පාර, කින්නියා 31100, ශ්‍රී ලංකාව	தம்பலகாமம்-கிண்ணியா சாலை, கிண்ணியா 31100, இலங்கை
Trincomalee	Sripura	MOH Office – Sripura	False	False	TRNCMLSRPRMHFFCSRPR		Trincomalee	LK-53	8.551241	81.092014	Sripura	PS-530136	8.929617	80.81428	8.926697	80.814799	Padavi Sripura, Padaviya - Sripura Road, Welioya, Sri Lanka	0.329869		ත්රිකුණාමලය	ශ්‍රීපුර	MOH කාර්යාලය - ශ්‍රීපුර	திருகோணமலை	ஸ்ரீபுரா	MOH அலுவலகம் - ஸ்ரீபுரா	පදවි ශ්‍රීපුර, පදවිය - ශ්‍රීපුර පාර, වැලිඔය, ශ්‍රී ලංකාව	படவி ஸ்ரீபுரா, படாவியா - ஸ்ரீபுரா சாலை, வெலிஓயா, இலங்கை
Trincomalee	Kuchchaveli	MOH Office – Kuchchaveli	False	False	TRNCMLKCHCHVLMHFFCKCHCHVL		Trincomalee	LK-53	8.551241	81.092014	Kuchchaweli	PS-530133	8.81895	81.100438	8.740082	81.161616	P5R6+2JQ, Kumpurupiddi, Sri Lanka	11.053646		ත්රිකුණාමලය	කුච්චවේලි	MOH කාර්යාලය - කුච්චවේලි	திருகோணமலை	குச்சவெளி	MOH அலுவலகம் - குச்சவெளி	P5R6+2JQ, කුඹුරුපිඩි, ශ්‍රී ලංකාව	P5R6+2JQ, கும்புறுப்பிடி, இலங்கை
Trincomalee	Kuchchaveli	Divisional Hospital – Kuchchaveli	False	False	TRNCMLKCHCHVLDVSNLHSPTLKCHCHVL		Trincomalee	LK-53	8.551241	81.092014	Kuchchaweli	PS-530133	8.81895	81.100438	8.814795	81.102358	R472+WW9, Kuchchaveli, Sri Lanka	0.508064		ත්රිකුණාමලය	කුච්චවේලි	ප්‍රාදේශීය රෝහල - කුච්චවේලි	திருகோணமலை	குச்சவெளி	பிரதேச மருத்துவமனை - குச்சவெளி	ආර් 472+WW9, කුච්චවේලි, ශ්‍රී ලංකාව	R472+WW9, குச்சவெளி, இலங்கை
Trincomalee	Kuchchaveli	Divisional Hospital – Nilaveli	False	False	TRNCMLKCHCHVLDVSNLHSPTLNLVL		Trincomalee	LK-53	8.551241	81.092014	Kuchchaweli	PS-530133	8.81895	81.100438	8.681035	81.193632	M5JV+CF6, Nilaveli, Sri Lanka	18.44695		ත්රිකුණාමලය	කුච්චවේලි	ප්‍රාදේශීය රෝහල - නිලාවේලි	திருகோணமலை	குச்சவெளி	பிரதேச மருத்துவமனை - நிலாவெளி	M5JV+CF6, නිලාවේලි, ශ්‍රී ලංකාව	M5JV+CF6, நிலவேலி, இலங்கை
Trincomalee	Pulmoddai	Base Hospital -Pulmoddai	False	False	TRNCMLPLMDDBSHSPTLPLMDD		Trincomalee	LK-53	8.551241	81.092014	Pulmudai	PS-530135	6.915266	79.87829	8.941204	80.983139	WXRM+F7J, Pulmoddai, Sri Lanka	256.112801	#CenterFarFromPolice	ත්රිකුණාමලය	පුල්මොඩෙයි	මූලික රෝහල -පුල්මොඩෙයි	திருகோணமலை	புல்மோட்டை	அடிப்படை மருத்துவமனை -புல்மோடை	ඩබ්ලිව්එක්ස්ආර්එම්+එෆ් 7 ජේ, පුල්මොඩෙයි, ශ්‍රී ලංකාව	WXRM+F7J, புல்மோடை, இலங்கை
Trincomalee	Serunuwara	MOH Office – Serunuwara	False	False	TRNCMLSRNWRMHFFCSRNWR		Trincomalee	LK-53	8.551241	81.092014	Serunuwara	PS-530244	8.321863	81.299322	8.323143	81.299894	B10, Sri Lanka	0.155671		ත්රිකුණාමලය	සේරුනුවර	MOH කාර්යාලය - සේරුනුවර	திருகோணமலை	சேருநுவரா	MOH அலுவலகம் - சேருநுவரா	බී 10, ශ්‍රී ලංකාව	பி 10, இலங்கை
Trincomalee	Harbour Police	MOH Office – Trincomalee	False	False	TRNCMLHRBRPLCMHFFCTRNCML		Trincomalee	LK-53	8.551241	81.092014	Trinco Harbour Police	PS-530131	8.56705	81.231407	8.598974	81.216963	MOH Office, Farm Rd, Trincomalee, Sri Lanka	3.890062		ත්රිකුණාමලය	වරාය පොලිසිය	එම්ඕඑච් කාර්යාලය - ත්‍රිකුණාමලය	திருகோணமலை	துறைமுக காவல்துறை	MOH அலுவலகம் - திருகோணமலை	එම්ඕඑච් කාර්යාලය, ගොවිපල පාර, ත්‍රිකුණාමලය, ශ්‍රී ලංකාව	MOH அலுவலகம், பண்ணை சாலை, திருகோணமலை, இலங்கை
Trincomalee	Harbour Police	Base Hospital – Trincomalee	False	False	TRNCMLHRBRPLCBSHSPTLTRNCML		Trincomalee	LK-53	8.551241	81.092014	Trinco Harbour Police	PS-530131	8.56705	81.231407	8.56486	81.239445	Hospital Ln, Trincomalee, Sri Lanka	0.917037		ත්රිකුණාමලය	වරාය පොලිසිය	මූලික රෝහල - ත්‍රිකුණාමලය	திருகோணமலை	துறைமுக காவல்துறை	அடிப்படை மருத்துவமனை - திருகோணமலை	රෝහල, ත්‍රිකුණාමලය, ශ්‍රී ලංකාව	மருத்துவமனை Ln, திருகோணமலை, இலங்கை
Trincomalee	Uppuveli	MOH Office - Uppuveli	False	False	TRNCMLPPVLMHFFCPPVL		Trincomalee	LK-53	8.551241	81.092014	Uppuweli	PS-530134	8.593614	81.21743	8.607961	81.216512	Nilaveli Rd, Trincomalee, Sri Lanka	1.599005		ත්රිකුණාමලය	උප්පුවේලි	MOH කාර්යාලය - උප්පුවේලි	திருகோணமலை	உப்புவேலி	MOH அலுவலகம் - உப்புவேலி	නිලාවේලි පාර, ත්‍රිකුණාමලය, ශ්‍රී ලංකාව	நிலவேலி வீதி, திருகோணமலை, இலங்கை
Trincomalee	Kantale	MOH Office - Kantale	False	False	TRNCMLKNTLMHFFCKNTL		Trincomalee	LK-53	8.551241	81.092014	Kantale	PS-530241	8.356129	81.007739	8.349617	81.009107	අග්‍රබෝධි මාවත, Kantale, Sri Lanka	0.739809		ත්රිකුණාමලය	කන්තලේ	MOH කාර්යාලය - කන්තලේ	திருகோணமலை	கந்தலே	MOH அலுவலகம் - கந்தலே	වැඩි දියුණු කිරීම මාවත, කන්තලේ, ශ්‍රී ලංකාව	தீவிரப்படுத்தி மாவத்த, கந்தலே, இலங்கை
Trincomalee	Ichchalampattu	MOH Office – Ichchalampattu	False	False	TRNCMLCHCHLMPTTMHFFCCHCHLMPTT	Eachchilampattu Hospital	Trincomalee	LK-53	8.551241	81.092014	Ichchalampattu		8.289549	81.359002	8.289644	81.358983	Highway, Ichchalampattu, Trincomalee, Sri Lanka	0.010772		ත්රිකුණාමලය	ඉච්චලම්පත්තු	එක්ර්චිලම්පත්තු රෝහල	திருகோணமலை	இச்சலம்பட்டு	ஒவ்வொருசிலம்பட்டு மருத்துவமனை	අධිවේගී මාර්ගය, ඉච්චලම්පත්තු, ත්‍රිකුණාමලය, ශ්‍රී ලංකාව	நெடுஞ்சாலை, ஈச்சலாம்பட்டு, திருகோணமலை, இலங்கை
Trincomalee	Thambalagamuwa	MOH Office - Thambalagamuwa	False	False	TRNCMLTHMBLGMWMHFFCTHMBLGMW		Trincomalee	LK-53	8.551241	81.092014	Thambalagamuva	PS-530243	6.907289	79.863819	8.563603	81.239584	Hospital Ln, Trincomalee, Sri Lanka	238.604889	#CenterFarFromPolice	ත්රිකුණාමලය	තඹලගමුව	MOH කාර්යාලය - තඹලගමුව	திருகோணமலை	தம்பலகாமுவா	MOH அலுவலகம் - தம்பலகமுவ	රෝහල, ත්‍රිකුණාමලය, ශ්‍රී ලංකාව	மருத்துவமனை Ln, திருகோணமலை, இலங்கை
Batticaloa	Batticaloa	Mobile Medical Team	False	False	BTTCLBTTCLMBLMDCLTM		Batticaloa	LK-51	7.792772	81.486513	Batticaloa	PS-510101	7.717949	81.699294					#CenterLocationUnknown	මඩකලපුව	මඩකලපුව	ජංගම වෛද්‍ය කණ්ඩායම	மட்டக்களப்பு	மட்டக்களப்பு	மொபைல் மருத்துவ குழு		
Batticaloa	Kokkadicholai	Mahiladithivu Vidyalaya	False	False	BTTCLKKKDCHLMHLDTHVVDYLY		Batticaloa	LK-51	7.792772	81.486513	Kokkadicholai	PS-510112	7.715979	81.698757	7.623008	81.719383	Muthalaikudah Kanchirankudah Rd, Batticaloa, Sri Lanka	10.588158		මඩකලපුව	කොක්කඩිචෝලේ	මහිලදිතිවු විද්‍යාලය	மட்டக்களப்பு	கொக்கடிச்சோலை	மகிழடித்தீவு வித்தியாலயம்	මුතලෙයිකුඩා කාංචිරන්කුඩා පාර, මඩකලපුව, ශ්‍රී ලංකාව	முத்தலைக்கூடா காஞ்சிரங்குடா சாலை, மட்டக்களப்பு, இலங்கை
Batticaloa	Vellawali	Thikkodaya Tamil College	False	False	BTTCLVLLWLTHKKDYTMLCLLG		Batticaloa	LK-51	7.792772	81.486513	Vellavali	PS-510111	6.907289	79.863819	8.12458	81.43356	4CFM+RCM, Sri Lanka	219.763448	#CenterFarFromPolice	මඩකලපුව	වෙල්ලවාලි	තික්කෝදය දෙමළ විද්‍යාලය	மட்டக்களப்பு	வெல்லவாலி	திக்கோதயா தமிழ் கல்லூரி	4 සීඑෆ්එම්+ආර්සීඑම්, ශ්‍රී ලංකාව	4CFM+RCM, இலங்கை
Batticaloa	Vellawali	Thumpankeni Tamil College	False	False	BTTCLVLLWLTHMPNKNTMLCLLG		Batticaloa	LK-51	7.792772	81.486513	Vellavali	PS-510111	6.907289	79.863819	7.505166	81.784614	GQ4M+3R9, Kaluwanchikudy, Sri Lanka	222.148428	#CenterFarFromPolice	මඩකලපුව	වෙල්ලවාලි	තුම්පන්කේනි දෙමළ විද්‍යාලය	மட்டக்களப்பு	வெல்லவாலி	தும்பன்கேணி தமிழ் கல்லூரி	GQ4M+3R9, කළුවාංචිකුඩි, ශ්‍රී ලංකාව	GQ4M+3R9, களுவாஞ்சிக்குடி, இலங்கை
Batticaloa	Vellawali	Kovil Portivu Tamil College	False	False	BTTCLVLLWLKVLPRTVTMLCLLG		Batticaloa	LK-51	7.792772	81.486513	Vellavali	PS-510111	6.907289	79.863819	7.5182	81.75479	kovilporathivu, Sri Lanka	219.452145	#CenterFarFromPolice	මඩකලපුව	වෙල්ලවාලි	කෝවිල පෝර්තිවු දෙමළ විද්‍යාලය	மட்டக்களப்பு	வெல்லவாலி	கோவில் போர்டிவு தமிழ் கல்லூரி	කෝවිල්පොරතිව්, ශ්‍රී ලංකාව	கோவில்போரதீவு, இலங்கை
Batticaloa	Valachchenai	Valachchenai Base Hospital	False	False	BTTCLVLCHCHNVLCHCHNBSHSPTL		Batticaloa	LK-51	7.792772	81.486513	Valachchanai	PS-510107	7.908015	81.533004	7.911315	81.533046	Valaichchenai-Nasuvantivu-Navaladi Road, Sri Lanka	0.367088		මඩකලපුව	වාලච්චේන	වාලච්චේන මූලික රෝහල	மட்டக்களப்பு	வாலாச்சேனை	வாலாச்சேனை ஆதார மருத்துவமனை	වාලච්චේනයි-නසුවන්ටිව්-නවාලාඩි පාර, ශ්‍රී ලංකාව	வாழைச்சேனை-நசுவந்திவு-நாவலடி சாலை, இலங்கை
Batticaloa	Valachchenai	MOH Office – Oddamavadi	False	False	BTTCLVLCHCHNMHFFCDDMVD		Batticaloa	LK-51	7.792772	81.486513	Valachchanai	PS-510107	7.908015	81.533004	7.912281	81.532775	WG6M+W46, Batticaloa, Sri Lanka	0.475177		මඩකලපුව	වාලච්චේන	එම්ඕඑච් කාර්යාලය - ඔද්දමවඩි	மட்டக்களப்பு	வாலாச்சேனை	MOH அலுவலகம் - ஓட்டமாவடி	WG6M+W46, මඩකලපුව, ශ්‍රී ලංකාව	WG6M+W46, மட்டக்களப்பு, இலங்கை
Batticaloa	Valachchenai	MOH Office - Koralepattu Central	False	False	BTTCLVLCHCHNMHFFCKRLPTTCNTRL		Batticaloa	LK-51	7.792772	81.486513	Valachchanai	PS-510107	7.908015	81.533004	7.922593	81.530022	Batticaloa, Sri Lanka	1.654455		මඩකලපුව	වාලච්චේන	MOH කාර්යාලය - කෝරළේපත්තු මධ්‍යම	மட்டக்களப்பு	வாலாச்சேனை	MOH அலுவலகம் - கோரலேப்பட்டு மத்திய	මඩකලපුව, ශ්‍රී ලංකාව	மட்டக்களப்பு, இலங்கை
Batticaloa	Valachchenai	MOH Office - Koralepattu	False	False	BTTCLVLCHCHNMHFFCKRLPTT		Batticaloa	LK-51	7.792772	81.486513	Valachchanai	PS-510107	7.908015	81.533004	7.922593	81.530022	WGFJ+22J, Sri Lanka	1.654455		මඩකලපුව	වාලච්චේන	MOH කාර්යාලය - කෝරළේපත්තු	மட்டக்களப்பு	வாலாச்சேனை	MOH அலுவலகம் - கோரலேபட்டு	WGFJ+22J, ශ්‍රී ලංකාව	WGFJ+22J, இலங்கை
Batticaloa	Valachchenai	MOH Office – Kiran	False	False	BTTCLVLCHCHNMHFFCKRN		Batticaloa	LK-51	7.792772	81.486513	Valachchanai	PS-510107	7.908015	81.533004	7.623441	81.717877	Muthalaikudah Kanchirankudah Rd, Sri Lanka	37.64378	#CenterFarFromPolice	මඩකලපුව	වාලච්චේන	MOH කාර්යාලය - කිරාන්	மட்டக்களப்பு	வாலாச்சேனை	MOH அலுவலகம் - கிரண்	මුතලෙයිකුඩා කාංචිරන්කුඩා පාර, ශ්‍රී ලංකාව	முத்தலைக்கூடா காஞ்சிரங்குடா சாலை, இலங்கை
Batticaloa	Vakarai	MOH Office - Vakarai	False	False	BTTCLVKRMHFFCVKR	Divisional Hospital Vakarai	Batticaloa	LK-51	7.792772	81.486513	Wakarai	PS-510109	6.934132	79.856305	8.134552	81.435328	Trincomalee Hwy, Vakarai, Sri Lanka	219.417822	#CenterFarFromPolice	මඩකලපුව	වාකරේ	වාකරේ ප්‍රාදේශීය රෝහල	மட்டக்களப்பு	வாகரை	வாகரை பிரதேச மருத்துவமனை	ත්‍රිකුණාමලය හ්වි, වාකරේ, ශ්‍රී ලංකාව	திருகோணமலை Hwy, வாகரை, இலங்கை
Batticaloa	Eravur	Sandiveli Hospital	False	False	BTTCLRVRSNDVLHSPTL		Batticaloa	LK-51	7.792772	81.486513	Eravur	PS-510104	7.715979	81.698757	7.777289	81.602853	Trincomalee Hwy, Eravur, Sri Lanka	12.578998		මඩකලපුව	එරාවුර්	සඳිවේලි රෝහල	மட்டக்களப்பு	ஏறாவூர்	சண்டிவேலி மருத்துவமனை	ත්‍රිකුණාමලය හ්වි, එරාවුර්, ශ්‍රී ලංකාව	திருகோணமலை Hwy, ஏறாவூர், இலங்கை
Batticaloa	Eravur	MOH Office – Eravur	False	False	BTTCLRVRMHFFCRVR		Batticaloa	LK-51	7.792772	81.486513	Eravur	PS-510104	7.715979	81.698757	7.783664	81.605626	QJM4+F76, Eravur, Sri Lanka	12.729342		මඩකලපුව	එරාවුර්	MOH කාර්යාලය - එරාවුර්	மட்டக்களப்பு	ஏறாவூர்	MOH அலுவலகம் - ஏறாவூர்	QJM4+F76, එරාවුර්, ශ්‍රී ලංකාව	QJM4+F76, ஏறாவூர், இலங்கை
Batticaloa	Eravur	Eravur Hospital	False	False	BTTCLRVRRVRHSPTL		Batticaloa	LK-51	7.792772	81.486513	Eravur	PS-510104	7.715979	81.698757	7.783168	81.605999	QJM4+799, Eravur 30300, Sri Lanka	12.663585		මඩකලපුව	එරාවුර්	එරාවුර් රෝහල	மட்டக்களப்பு	ஏறாவூர்	ஏறாவூர் மருத்துவமனை	QJM4+799, එරාවුර් 30300, ශ්‍රී ලංකාව	QJM4+799, ஏறாவூர் 30300, இலங்கை
Batticaloa	Eravur	Badurdeen Vidyalaya	False	False	BTTCLRVRBDRDNVDYLY		Batticaloa	LK-51	7.792772	81.486513	Eravur	PS-510104	7.715979	81.698757	7.792395	81.60168	QJR2+XM3, Eravur, Sri Lanka	13.664435		මඩකලපුව	එරාවුර්	බදුර්දීන් විද්‍යාලය	மட்டக்களப்பு	ஏறாவூர்	பதுர்தீன் வித்யாலயா	QJR2+XM3, එරාවුර්, ශ්‍රී ලංකාව	QJR2+XM3, ஏறாவூர், இலங்கை
Batticaloa	Eravur	Mobile Vaccination	False	False	BTTCLRVRMBLVCCNTN		Batticaloa	LK-51	7.792772	81.486513	Eravur	PS-510104	7.715979	81.698757					#CenterLocationUnknown	මඩකලපුව	එරාවුර්	ජංගම එන්නත	மட்டக்களப்பு	ஏறாவூர்	மொபைல் தடுப்பூசி		
Batticaloa	Eravur	Mawadiwembu Hospital	False	False	BTTCLRVRMWDWMBHSPTL		Batticaloa	LK-51	7.792772	81.486513	Eravur	PS-510104	7.715979	81.698757	7.808545	81.566328	Mawadiwembu Hospital, Sri Lanka	17.861302		මඩකලපුව	එරාවුර්	මාවඩිවේඹු රෝහල	மட்டக்களப்பு	ஏறாவூர்	மாவடிவெம்பு மருத்துவமனை	මාවඩිවේඹු රෝහල, ශ්‍රී ලංකාව	மாவடிவெம்பு மருத்துவமனை, இலங்கை
Batticaloa	Eravur	MOH Office – Chenkaladi	False	False	BTTCLRVRMHFFCCHNKLD		Batticaloa	LK-51	7.792772	81.486513	Eravur	PS-510104	7.715979	81.698757	7.783599	81.593367	Trincomalee Hwy, Chenkaladi 30350, Sri Lanka	13.837876		මඩකලපුව	එරාවුර්	MOH කාර්යාලය - චෙන්කලාඩි	மட்டக்களப்பு	ஏறாவூர்	MOH அலுவலகம் - செங்கலடி	ත්‍රිකුණාමලය හ්වි, චෙන්කලාඩි 30350, ශ්‍රී ලංකාව	திருகோணமலை Hwy, செங்கலடி 30350, இலங்கை
Batticaloa	Eravur	Chenkaladi Hospital	False	False	BTTCLRVRCHNKLDHSPTL		Batticaloa	LK-51	7.792772	81.486513	Eravur	PS-510104	7.715979	81.698757	7.783546	81.589961	Batticaloa Rd, Chenkaladi, Sri Lanka	14.151406		මඩකලපුව	එරාවුර්	චෙන්කලාඩි රෝහල	மட்டக்களப்பு	ஏறாவூர்	செங்கலடி மருத்துவமனை	මඩකලපුව පාර, චෙන්කලාඩි, ශ්‍රී ලංකාව	மட்டக்களப்பு வீதி, செங்கலடி, இலங்கை
Batticaloa	Karadiyanaru	Karadiyanaru Hospital	False	False	BTTCLKRDYNRKRDYNRHSPTL		Batticaloa	LK-51	7.792772	81.486513	Karadiyanaru	PS-510105	7.701992	81.537252	7.700216	81.539779	PG2Q+3WJ, Karadiyanaru, Sri Lanka	0.341482		මඩකලපුව	කරදියනාරු	කරදියනාරු රෝහල	மட்டக்களப்பு	கரடியனாறு	கரடியனாறு மருத்துவமனை	PG2Q+3WJ, කරදියනාරු, ශ්‍රී ලංකාව	PG2Q+3WJ, கரடியனாறு, இலங்கை
Ampara	Ampara	Ampara Hospital	False	False	MPRMPRMPRHSPTL		Ampara	LK-52	7.23699	81.550391	Ampara	PS-520113	7.296771	81.677161	7.298334	81.690841	Dharmapala Mawatha, Ampara, Sri Lanka	1.519279		අම්පාර	අම්පාර	අම්පාර රෝහල	அம்பாறை	அம்பாறை	அம்பாறை மருத்துவமனை	ධර්මපාල මාවත, අම්පාර, ශ්‍රී ලංකාව	தர்மபால மாவத்தை, அம்பாறை, இலங்கை
Ampara	Chavalakade	MOH Office – Navidanveli	False	False	MPRCHVLKDMHFFCNVDNVL		Ampara	LK-52	7.23699	81.550391	Chawalakade	PS-520125	7.413559	81.776822	7.420081	81.788401	B77, Sri Lanka	1.468805		අම්පාර	චවලකඩේ	MOH කාර්යාලය - නාවිදන්වේලි	அம்பாறை	சவளகடே	MOH அலுவலகம் - நாவிதன்வெளி	බී 77, ශ්‍රී ලංකාව	பி 77, இலங்கை
Ampara	Dehiattakandiya	MOH Office – Dehiattakandiya	False	False	MPRDHTTKNDYMHFFCDHTTKNDY		Ampara	LK-52	7.23699	81.550391	Dehiaththakandiya	PS-520121	7.672072	81.044241	7.67421	81.045286	Office of the Medical Officer of Health, Dehiattakandiya, Sri Lanka	0.264241		අම්පාර	දෙහිඅත්තකණ්ඩිය	MOH කාර්යාලය - දෙහිඅත්තකණ්ඩිය	அம்பாறை	தெஹியத்தகண்டியா	MOH அலுவலகம் - தெஹியத்தகண்டியா	දෙහිඅත්තකණ්ඩිය, සෞඛ්‍ය වෛද්‍ය නිලධාරි කාර්යාලය, ශ්‍රී ලංකාව	சுகாதார மருத்துவ அதிகாரி அலுவலகம், தெஹியத்தகண்டியா, இலங்கை
Ampara	Karaitivu	MOH Office – Karaitivu	False	False	MPRKRTVMHFFCKRTV		Ampara	LK-52	7.23699	81.550391	Karaitivu		9.744059	79.870587	7.377712	81.838796	Colombo-Ratnapura-Wellawaya-Batticaloa Highway, Karativu 32250, Sri Lanka	340.788666	#CenterFarFromPolice	අම්පාර	කාරතිව්	MOH කාර්යාලය - කරෙයිතිව්	அம்பாறை	காரைதீவு	MOH அலுவலகம் - காரைதீவு	කොළඹ-රත්නපුර-වැල්ලවාය-මඩකලපුව අධිවේගී මාර්ගය, කරතිවු 32250, ශ්‍රී ලංකාව	கொழும்பு-இரத்தினபுரி-வெள்ளவாயா-மட்டக்களப்பு நெடுஞ்சாலை, காரடிவு 32250, இலங்கை
Ampara	Karaitivu	Sanmuha Vidyalaya	False	False	MPRKRTVSNMHVDYLY		Ampara	LK-52	7.23699	81.550391	Karaitivu		9.744059	79.870587	7.368576	81.84344	Shanmuga Maha Vidyalaya, Karaitivu 32250, Sri Lanka	341.89962	#CenterFarFromPolice	අම්පාර	කාරතිව්	සන්මුහා විද්‍යාලය	அம்பாறை	காரைதீவு	சண்முக வித்யாலயா	ශන්මුග මහා විද්‍යාලය, කාරතිව් 32250, ශ්‍රී ලංකාව	சண்முக மகா வித்தியாலயம், காரைதீவு 32250, இலங்கை
Ampara	Karaitivu	RKM Vidyalaya	False	False	MPRKRTVRKMVDYLY		Ampara	LK-52	7.23699	81.550391	Karaitivu		9.744059	79.870587	7.382042	81.843013	Central Rd, Karaitivu 32250, Sri Lanka	340.711182	#CenterFarFromPolice	අම්පාර	කාරතිව්	ආර්කේඑම් විද්‍යාලය	அம்பாறை	காரைதீவு	ஆர்.கே.எம் வித்யாலயா	මධ්‍යම පාර, කාරතිව් 32250, ශ්‍රී ලංකාව	மத்திய சாலை, காரைதீவு 32250, இலங்கை
Ampara	Karaitivu	Al Husen Vidyalaya	False	False	MPRKRTVLHSNVDYLY		Ampara	LK-52	7.23699	81.550391	Karaitivu		9.744059	79.870587	7.388044	81.841647	Maligaroad, Karaitivu, Kalmunai 32250, Sri Lanka	340.099835	#CenterFarFromPolice	අම්පාර	කාරතිව්	අල් හුසෙන් විද්‍යාලය	அம்பாறை	காரைதீவு	அல் ஹூசன் வித்யாலயா	මාලිගාආඩ්, කාරතිව්, කල්මුණේ 32250, ශ්‍රී ලංකාව	மாளிகரோட், காரைதீவு, கல்முனை 32250, இலங்கை
Ampara	Kalmunai	Ashraff Memorial Hospital	False	False	MPRKLMNSHRFFMMRLHSPTL		Ampara	LK-52	7.23699	81.550391	Kalmunai	PS-520123	7.414289	81.825006	7.403172	81.831146	A4, Ashraff Memorial Base Hospital, A4 A4, Kalmunai 32300, Sri Lanka	1.409859		අම්පාර	කල්මුණේ	අෂ්රොෆ් අනුස්මරණ රෝහල	அம்பாறை	கல்முனை	அஷ்ரஃப் நினைவு மருத்துவமனை	ඒ 4, අෂ්රොෆ් අනුස්මරණ මූලික රෝහල, ඒ 4 ඒ 4, කල්මුණේ 32300, ශ්‍රී ලංකාව	A4, அஷ்ரஃப் மெமோரியல் பேஸ் ஹாஸ்பிடல், A4 A4, கல்முனை 32300, இலங்கை
Ampara	Kalmunai	Ramakrishna Mission College	False	False	MPRKLMNRMKRSHNMSSNCLLG		Ampara	LK-52	7.23699	81.550391	Kalmunai	PS-520123	7.414289	81.825006	7.412373	81.828629	Udyar Rd, Kalmunai 32300, Sri Lanka	0.452893		අම්පාර	කල්මුණේ	රාමක්‍රිෂ්ණා මිෂන් විද්‍යාලය	அம்பாறை	கல்முனை	ராமகிருஷ்ணா மிஷன் கல்லூரி	උද්‍යාර් පාර, කල්මුණේ 32300, ශ්‍රී ලංකාව	உடியார் சாலை, கல்முனை 32300, இலங்கை
Ampara	Kalmunai	Base Hospital - Kalmunai North	False	False	MPRKLMNBSHSPTLKLMNNRTH		Ampara	LK-52	7.23699	81.550391	Kalmunai	PS-520123	7.414289	81.825006	7.420034	81.82232	hospital near, Kalmunai 32300, Sri Lanka	0.704353		අම්පාර	කල්මුණේ	මූලික රෝහල - කල්මුණේ උතුර	அம்பாறை	கல்முனை	அடிப்படை மருத்துவமனை - கல்முனை வடக்கு	රෝහල අසල, කල්මුණේ 32300, ශ්‍රී ලංකාව	மருத்துவமனை அருகில், கல்முனை 32300, இலங்கை
Ampara	Kalmunai	MOH Office - Kalmunai South	False	False	MPRKLMNMHFFCKLMNSTH		Ampara	LK-52	7.23699	81.550391	Kalmunai	PS-520123	7.414289	81.825006	7.411712	81.838462	CR6Q+M9P, Kalmunai 32300, Sri Lanka	1.511625		අම්පාර	කල්මුණේ	MOH කාර්යාලය - කල්මුණේ දකුණ	அம்பாறை	கல்முனை	MOH அலுவலகம் - கல்முனை தெற்கு	CR6Q+M9P, කල්මුණේ 32300, ශ්‍රී ලංකාව	CR6Q+M9P, கல்முனை 32300, இலங்கை
Ampara	Kalmunai	Al Bahariya National College	False	False	MPRKLMNLBHRYNTNLCLLG		Ampara	LK-52	7.23699	81.550391	Kalmunai	PS-520123	7.414289	81.825006	7.399481	81.839854	Zahira College Rd, Sainthamaruthu 32280, Sri Lanka	2.32275		අම්පාර	කල්මුණේ	අල් බහාරියා ජාතික විද්‍යාලය	அம்பாறை	கல்முனை	அல் பஹாரியா தேசிய கல்லூரி	සහිරා විද්‍යාලය පාර, සාන්තමරුතු 32280, ශ්‍රී ලංකාව	ஸாஹிரா கல்லூரி வீதி, சாய்ந்தமருது 32280, இலங்கை
Ampara	Kalmunai	Al Manar Central College	False	False	MPRKLMNLMNRCNTRLCLLG		Ampara	LK-52	7.23699	81.550391	Kalmunai	PS-520123	7.414289	81.825006	7.436331	81.812701	Maruthamunai, Sri Lanka	2.802316		අම්පාර	කල්මුණේ	අල් මනාර් මධ්‍ය විද්‍යාලය	அம்பாறை	கல்முனை	அல் மனார் மத்திய கல்லூரி	මරුතාමුණේ, ශ්‍රී ලංකාව	மருதமுனை, இலங்கை
Ampara	Kalmunai	Al Madina Vidyalaya	False	False	MPRKLMNLMDNVDYLY		Ampara	LK-52	7.23699	81.550391	Kalmunai	PS-520123	7.414289	81.825006	7.434363	81.817655	03 Mashoor Moulana Rd, Maruthamunai 32314, Sri Lanka	2.375481		අම්පාර	කල්මුණේ	අල් මදීනා විද්‍යාලය	அம்பாறை	கல்முனை	அல் மதீனா வித்யாலயா	03 මාෂූර් මවුලානා පාර, මරුතාමුණේ 32314, ශ්‍රී ලංකාව	03 மஷூர் மouலானா சாலை, மருதமுனை 32314, இலங்கை
Ampara	Kalmunai	MOH Office - Kalmunai North	False	False	MPRKLMNMHFFCKLMNNRTH		Ampara	LK-52	7.23699	81.550391	Kalmunai	PS-520123	7.414289	81.825006	7.411712	81.838462	CR6Q+M9P, Kalmunai 32300, Sri Lanka	1.511625		අම්පාර	කල්මුණේ	MOH කාර්යාලය - කල්මුණේ උතුර	அம்பாறை	கல்முனை	MOH அலுவலகம் - கல்முனை வடக்கு	CR6Q+M9P, කල්මුණේ 32300, ශ්‍රී ලංකාව	CR6Q+M9P, கல்முனை 32300, இலங்கை
Ampara	Sainthamarthu	MOH Office – Sainthamarthu	False	False	MPRSNTHMRTHMHFFCSNTHMRTH		Ampara	LK-52	7.23699	81.550391									#PoliceLocationUnknown	අම්පාර	සයින්දමර්තු	MOH කාර්යාලය - සයින්දමර්තු	அம்பாறை	சாய்ந்தமருது	MOH அலுவலகம் - சாய்ந்தமருது		
Ampara	Sainthamarthu	Saindamarudu Hospital	False	False	MPRSNTHMRTHSNDMRDHSPTL		Ampara	LK-52	7.23699	81.550391									#PoliceLocationUnknown	අම්පාර	සයින්දමර්තු	සයින්දමරුදු රෝහල	அம்பாறை	சாய்ந்தமருது	சைந்தமருது மருத்துவமனை		
Ampara	Sammanthurai	Sammanthurai Base Hospital	False	False	MPRSMMNTHRSMMNTHRBSHSPTL		Ampara	LK-52	7.23699	81.550391	Samanthurai	PS-520124	7.365785	81.810859	7.368355	81.813042	9R96+MWM, Hospital Rd, Sammanthurai, Sri Lanka	0.373773		අම්පාර	සමන්තුරේ	සමන්තුරේ මූලික රෝහල	அம்பாறை	சம்மாந்துறை	சம்மாந்துறை அடிப்படை மருத்துவமனை	9R96+MWM, රෝහල් පාර, සමන්තුරේ, ශ්‍රී ලංකාව	9R96+MWM, மருத்துவமனை சாலை, சம்மாந்துறை, இலங்கை
Ampara	Sammanthurai	MOH Office – Nintavur	False	False	MPRSMMNTHRMHFFCNNTVR		Ampara	LK-52	7.23699	81.550391	Samanthurai	PS-520124	7.365785	81.810859	7.352821	81.856939	Hospital Rd, Nintavur 32340, Sri Lanka	5.283925		අම්පාර	සමන්තුරේ	එම්ඕඑච් කාර්යාලය - නින්දවූර්	அம்பாறை	சம்மாந்துறை	MOH அலுவலகம் - நிந்தவூர்	රෝහල පාර, නින්දවූර් 32340, ශ්‍රී ලංකාව	மருத்துவமனை Rd, நிந்தவூர் 32340, இலங்கை
Ampara	Sammanthurai	Nintavur Hospital	False	False	MPRSMMNTHRNNTVRHSPTL		Ampara	LK-52	7.23699	81.550391	Samanthurai	PS-520124	7.365785	81.810859	7.353372	81.856852	Hospital Rd, Nintavur, Sri Lanka	5.258159		අම්පාර	සමන්තුරේ	නින්දවූර් රෝහල	அம்பாறை	சம்மாந்துறை	நிந்தவூர் மருத்துவமனை	රෝහල පාර, නින්දවූර්, ශ්‍රී ලංකාව	மருத்துவமனை Rd, நிந்தவூர், இலங்கை
Ampara	Sammanthurai	Al Maskar Balika Vidyalaya	False	False	MPRSMMNTHRLMSKRBLKVDYLY		Ampara	LK-52	7.23699	81.550391	Samanthurai	PS-520124	7.365785	81.810859	7.357484	81.795105	Sammanthurai, Sri Lanka	1.967921		අම්පාර	සමන්තුරේ	අල් මස්කාර් බාලිකා විද්‍යාලය	அம்பாறை	சம்மாந்துறை	அல் மஸ்கர் பாலிகா வித்யாலயா	සමන්තුරේ, ශ්‍රී ලංකාව	சம்மாந்துறை, இலங்கை
Ampara	Sammanthurai	Darussalam Vidyalaya	False	False	MPRSMMNTHRDRSSLMVDYLY		Ampara	LK-52	7.23699	81.550391	Samanthurai	PS-520124	7.365785	81.810859	7.357562	81.802725	9R53+23H, Sammanthurai, Sri Lanka	1.281286		අම්පාර	සමන්තුරේ	දරුස්සලාම් විද්‍යාලය	அம்பாறை	சம்மாந்துறை	தாருஸ்ஸலாம் வித்யாலயா	9 ආර් 53+23 එච්, සමන්තුරේ, ශ්‍රී ලංකාව	9R53+23H, சம்மாந்துறை, இலங்கை
Ampara	Sammanthurai	Madina Vidyalaya	False	False	MPRSMMNTHRMDNVDYLY		Ampara	LK-52	7.23699	81.550391	Samanthurai	PS-520124	7.365785	81.810859	7.35018	81.80359	Kallarichchel 02, Sammanthurai, Sri Lanka	1.912014		අම්පාර	සමන්තුරේ	මදීනා විද්‍යාලය	அம்பாறை	சம்மாந்துறை	மதீனா வித்யாலயா	කල්ලරිචෙල් 02, සම්මන්තුරේ, ශ්‍රී ලංකාව	கல்லறிச்செல் 02, சம்மாந்துறை, இலங்கை
Ampara	Sammanthurai	Kannahi Vidyalaya	False	False	MPRSMMNTHRKNNHVDYLY		Ampara	LK-52	7.23699	81.550391	Samanthurai	PS-520124	7.365785	81.810859	7.35018	81.80359	Kallarichchel 02, Sammanthurai, Sri Lanka	1.912014		අම්පාර	සමන්තුරේ	කන්නහි විද්‍යාලය	அம்பாறை	சம்மாந்துறை	கண்ணாஹி வித்யாலயா	කල්ලරිචෙල් 02, සම්මන්තුරේ, ශ්‍රී ලංකාව	கல்லறிச்செல் 02, சம்மாந்துறை, இலங்கை
Ampara	Sammanthurai	Al Marjan Vidyalaya	False	False	MPRSMMNTHRLMRJNVDYLY		Ampara	LK-52	7.23699	81.550391	Samanthurai	PS-520124	7.365785	81.810859	7.363356	81.799869	9Q7X+8WX, Sammanthurai, Sri Lanka	1.242072		අම්පාර	සමන්තුරේ	අල් මර්ජාන් විද්‍යාලය	அம்பாறை	சம்மாந்துறை	அல் மர்ஜன் வித்யாலயா	9Q7X+8WX, සම්මන්තුරේ, ශ්‍රී ලංකාව	9Q7X+8WX, சம்மாந்துறை, இலங்கை
Ampara	Thirukkovil	MOH Office – Thirukkovil	False	False	MPRTHRKKVLMHFFCTHRKKVL		Ampara	LK-52	7.23699	81.550391	Thirukkovil	PS-520127	7.113998	81.852219	7.111635	81.852892	Central Rd, Vinayagapuram, Sri Lanka	0.273131		අම්පාර	තිරුක්කෝවිල්	MOH කාර්යාලය - තිරුක්කෝවිල්	அம்பாறை	திருக்கோவில்	MOH அலுவலகம் - திருக்கோவில்	මධ්‍යම පාර, විනයාගපුරම්, ශ්‍රී ලංකාව	மத்திய வீதி, விநாயகபுரம், இலங்கை
Ampara	Akkaraipattu	Akkaraipattu Nuraniya Church	False	False	MPRKKRPTTKKRPTTNRNYCHRCH		Ampara	LK-52	7.23699	81.550391	Akkaraipattu	PS-520126	7.216084	81.853254	7.217154	81.849717	Sagama Rd, Akkaraipattu, Sri Lanka	0.408046		අම්පාර	අක්කරපත්තුව	අක්කරෙයිපත්තු නුරානිය පල්ලිය	அம்பாறை	அக்கரைப்பற்று	அக்கரைப்பற்று நூரானிய தேவாலயம்	සගම පාර, අක්කරපත්තුව, ශ්‍රී ලංකාව	சாகம வீதி, அக்கரைப்பற்று, இலங்கை
Ampara	Akkaraipattu	Nuraniya Mosque	False	False	MPRKKRPTTNRNYMSQ		Ampara	LK-52	7.23699	81.550391	Akkaraipattu	PS-520126	7.216084	81.853254	7.223051	81.842753	6RFV+64C, Akkaraipattu, Sri Lanka	1.39401		අම්පාර	අක්කරපත්තුව	නුරානිය පල්ලිය	அம்பாறை	அக்கரைப்பற்று	நுரானியா மசூதி	6 ආර්එෆ්වී+64 සී, අක්කරපත්තුව, ශ්‍රී ලංකාව	6RFV+64C, அக்கரைப்பற்று, இலங்கை
Ampara	Akkaraipattu	Kovil Vinayagar Vidayalaya	False	False	MPRKKRPTTKVLVNYGRVDYLY		Ampara	LK-52	7.23699	81.550391	Akkaraipattu	PS-520126	7.216084	81.853254	7.198526	81.849358	Akkaraipattu-Sagamam Rd, Sri Lanka	1.999736		අම්පාර	අක්කරපත්තුව	කෝවිල විනයගර් විද්‍යාලය	அம்பாறை	அக்கரைப்பற்று	கோவில் விநாயகர் வித்யாலயா	අක්කරපත්තුව-සගමම් පාර, ශ්‍රී ලංකාව	அக்கரைப்பற்று-சாகமம் வீதி, இலங்கை
Ampara	Akkaraipattu	Palamuna Muslim Vidyalaya	False	False	MPRKKRPTTPLMNMSLMVDYLY		Ampara	LK-52	7.23699	81.550391	Akkaraipattu	PS-520126	7.216084	81.853254	7.225665	81.838179	MCC Road, Akkaraipattu-06, Akkaraipattu 32400, Sri Lanka	1.975577		අම්පාර	අක්කරපත්තුව	පලමුන මුස්ලිම් විද්‍යාලය	அம்பாறை	அக்கரைப்பற்று	பாலமுனா முஸ்லிம் வித்யாலயா	එම්සීසී පාර, අක්කරපත්තුව -06, අක්කරෙයිපත්තු 32400, ශ්‍රී ලංකාව	MCC சாலை, அக்கரைப்பற்று -06, அக்கரைப்பற்று 32400, இலங்கை
Ampara	Akkaraipattu	Oluwil Hamra Vidyalaya	False	False	MPRKKRPTTLWLHMRVDYLY		Ampara	LK-52	7.23699	81.550391	Akkaraipattu	PS-520126	7.216084	81.853254	7.290277	81.857414	7VR4+4X7, Oluvil, Sri Lanka	8.265231		අම්පාර	අක්කරපත්තුව	ඔළුවිල් හම්රා විද්‍යාලය	அம்பாறை	அக்கரைப்பற்று	ஒலுவில் ஹம்ரா வித்தியாலயம்	7VR4+4X7, ඔලුවිල්, ශ්‍රී ලංකාව	7VR4+4X7, ஒலுவில், இலங்கை
Ampara	Akkaraipattu	Badur Mosque	False	False	MPRKKRPTTBDRMSQ		Ampara	LK-52	7.23699	81.550391	Akkaraipattu	PS-520126	7.216084	81.853254	7.21798	81.859573	Deens Road, Akkaraipattu, Sri Lanka	0.728487		අම්පාර	අක්කරපත්තුව	බදුර් පල්ලිය	அம்பாறை	அக்கரைப்பற்று	படூர் மசூதி	ඩීන්ස් පාර, අක්කරපත්තුව, ශ්‍රී ලංකාව	டீன்ஸ் சாலை, அக்கரைப்பற்று, இலங்கை
Ampara	Akkaraipattu	Alsiraj Vidyalaya	False	False	MPRKKRPTTLSRJVDYLY		Ampara	LK-52	7.23699	81.550391	Akkaraipattu	PS-520126	7.216084	81.853254	7.219333	81.85313	Akkaraipattu, Sri Lanka	0.361645		අම්පාර	අක්කරපත්තුව	අල්සිරාජ් විද්‍යාලය	அம்பாறை	அக்கரைப்பற்று	அல்சிராஜ் வித்யாலயா	අක්කරපත්තුව, ශ්‍රී ලංකාව	அக்கரைப்பற்று, இலங்கை
Ampara	Akkaraipattu	MOH Office – Addalachenai	False	False	MPRKKRPTTMHFFCDDLCHN		Ampara	LK-52	7.23699	81.550391	Akkaraipattu	PS-520126	7.216084	81.853254	7.260916	81.853493	7V63+999, Addalaichenai, Sri Lanka	4.986726		අම්පාර	අක්කරපත්තුව	MOH කාර්යාලය - අද්දලචේනයි	அம்பாறை	அக்கரைப்பற்று	MOH அலுவலகம் - ஆடலச்சேனை	7V63+999, අද්දලෙයිචේනෙයි, ශ්‍රී ලංකාව	7V63+999, அடிலைச்சேனை, இலங்கை
Ampara	Akkaraipattu	Addalachenai Hospital	False	False	MPRKKRPTTDDLCHNHSPTL		Ampara	LK-52	7.23699	81.550391	Akkaraipattu	PS-520126	7.216084	81.853254	7.253287	81.853598	Colombo - Batticaloa Hwy, Addalachchena, Sri Lanka	4.138258		අම්පාර	අක්කරපත්තුව	අද්දලචේනෙයි රෝහල	அம்பாறை	அக்கரைப்பற்று	அத்தலச்சேனை மருத்துவமனை	කොළඹ - මඩකලපුව හ්වි, අද්දලච්චේන, ශ්‍රී ලංකාව	கொழும்பு - மட்டக்களப்பு Hwy, Addalachchena, இலங்கை
Ampara	Akkaraipattu	Addalachenai National College	False	False	MPRKKRPTTDDLCHNNTNLCLLG		Ampara	LK-52	7.23699	81.550391	Akkaraipattu	PS-520126	7.216084	81.853254	7.248937	81.857951	Addalaichenai, Sri Lanka	3.690806		අම්පාර	අක්කරපත්තුව	අද්දලචේනයි ජාතික විද්‍යාලය	அம்பாறை	அக்கரைப்பற்று	அத்தலச்சேனை தேசியக் கல்லூரி	අද්දලෙයිචේනෙයි, ශ්‍රී ලංකාව	அடிலைச்சேனை, இலங்கை
Ampara	Akkaraipattu	MOH Office - Alayadivembu	False	False	MPRKKRPTTMHFFCLYDVMB		Ampara	LK-52	7.23699	81.550391	Akkaraipattu	PS-520126	7.216084	81.853254	7.228134	81.851123	6VH2+7C5, Akkaraipattu, Sri Lanka	1.360772		අම්පාර	අක්කරපත්තුව	එම්ඕඑච් කාර්යාලය - අලයාදිවෙම්බු	அம்பாறை	அக்கரைப்பற்று	MOH அலுவலகம் - ஆலையடிவேம்பு	6VH2+7C5, අක්කරපත්තුව, ශ්‍රී ලංකාව	6VH2+7C5, அக்கரைப்பற்று, இலங்கை
Ampara	Pottuvil	Hidayapuram Health Centre	False	False	MPRPTTVLHDYPRMHLTHCNTR		Ampara	LK-52	7.23699	81.550391	Pothuvil	PS-520128	6.878387	81.826859	6.869819	81.831263	Panama Rd, Pottuvil, Sri Lanka	1.069936		අම්පාර	පොතුවිල්	හිදයාපුරම් සෞඛ්‍ය මධ්‍යස්ථානය	அம்பாறை	பொட்டுவில்	ஹிதாயபுரம் சுகாதார மையம்	පැනමා පාර, පොතුවිල්, ශ්‍රී ලංකාව	பனாமா சாலை, பொத்துவில், இலங்கை
Ampara	Pottuvil	Base Hospital – Pottuvil	False	False	MPRPTTVLBSHSPTLPTTVL		Ampara	LK-52	7.23699	81.550391	Pothuvil	PS-520128	6.878387	81.826859	6.876098	81.830463	Main Street Colombo - Batticaloa Hwy, Pottuvil 32500, Sri Lanka	0.47246		අම්පාර	පොතුවිල්	මූලික රෝහල - පොතුවිල්	அம்பாறை	பொட்டுவில்	அடிப்படை மருத்துவமனை - பொத்துவில்	කොළඹ ප්‍රධාන වීදිය - මඩකලපුව හ්වි, පොතුවිල් 32500, ශ්‍රී ලංකාව	பிரதான வீதி கொழும்பு - மட்டக்களப்பு Hwy, பொத்துவில் 32500, இலங்கை
Ampara	Pottuvil	Pottuvil Central College	False	False	MPRPTTVLPTTVLCNTRLCLLG		Ampara	LK-52	7.23699	81.550391	Pothuvil	PS-520128	6.878387	81.826859	6.879508	81.835585	Pottuvil, Sri Lanka	0.971748		අම්පාර	පොතුවිල්	පොතුවිල් මධ්‍ය විද්‍යාලය	அம்பாறை	பொட்டுவில்	பொத்துவில் மத்திய கல்லூரி	පොතුවිල්, ශ්‍රී ලංකාව	பொத்துவில், இலங்கை
Ampara	Pottuvil	Bahiriya Vidyalaya	False	False	MPRPTTVLBHRYVDYLY		Ampara	LK-52	7.23699	81.550391	Pothuvil	PS-520128	6.878387	81.826859	6.86413	81.834297	VR7M+MP3, Pottuvil, Sri Lanka	1.785902		අම්පාර	පොතුවිල්	බහිරියා විද්‍යාලය	அம்பாறை	பொட்டுவில்	பகிரிய வித்யாலயா	වීආර් 7 එම්+එම්පී 3, පොතුවිල්, ශ්‍රී ලංකාව	VR7M+MP3, பொத்துவில், இலங்கை
Ampara	Pottuvil	Al Huda Vidyalaya	False	False	MPRPTTVLLHDVDYLY		Ampara	LK-52	7.23699	81.550391	Pothuvil	PS-520128	6.878387	81.826859	7.244244	81.745885	Irakkamam, Eragama, Sri Lanka	41.664323	#CenterFarFromPolice	අම්පාර	පොතුවිල්	අල් හුදා විද්‍යාලය	அம்பாறை	பொட்டுவில்	அல் ஹுதா வித்யாலயா	ඉරක්කමම්, එරගම, ශ්‍රී ලංකාව	இறக்காமம், எரகம, இலங்கை
Ampara	Panama	Panama Health Centre	False	False	MPRPNMPNMHLTHCNTR		Ampara	LK-52	7.23699	81.550391	Panama	PS-520129	6.752004	81.79349	6.755913	81.804416	Panama-Kumbukkana Rd, Panama, Sri Lanka	1.282797		අම්පාර	පැනමා	පැනමා සෞඛ්‍ය මධ්‍යස්ථානය	அம்பாறை	பனாமா	பனாமா சுகாதார மையம்	පැනමා-කුඹුක්කන පාර, පැනම, ශ්‍රී ලංකාව	பனாமா-கும்புகானா சாலை, பனாமா, இலங்கை
