district	police	center	dose1	dose2	fuzzy_key	alt_name	district_name_norm	district_id	district_lat	district_lng	ps_name_norm	ps_id	ps_lat	ps_lng	lat	lng	formatted_address	dis_center_to_police	tags	district_si	police_si	center_si	district_ta	police_ta	center_ta	formatted_address_si	formatted_address_ta
Colombo	Cinnamon Gardens	Viharamahadevi Park	False	False	CLMBCNNMNGRDNSVHRMHDVPRK		Colombo	LK-11	6.869636	80.019598	Cinnamon Garden	PS-110324	6.907289	79.863819	6.913391	79.86174	Viharamahadevi Park, Colombo, Sri Lanka	0.716497		කොළඹ	කුරුඳු උද්‍යාන	විහාරමහාදේවි උද්‍යානය	கொழும்பு	இலவங்கப்பட்டை தோட்டங்கள்	விஹாரமஹாதேவி பூங்கா	විහාරමහාදේවි උද්‍යානය, කොළඹ, ශ්‍රී ලංකාව	விஹாரமஹாதேவி பூங்கா, கொழும்பு, இலங்கை
Colombo	Grandpass	Sugathadasa Outdoor Stadium	False	False	CLMBGRNDPSSSGTHDSTDRSTDM		Colombo	LK-11	6.869636	80.019598	Grandpass	PS-110215	6.949052	79.872983	6.94806	79.868842	Prince of Wales Ave, Colombo 01400, Sri Lanka	0.470345		කොළඹ	ග්‍රෑන්ඩ්පාස්	සුගතදාස එළිමහන් ක්‍රීඩාංගනය	கொழும்பு	கிராண்ட்பாஸ்	சுகததாச வெளிப்புற அரங்கம்	වේල්ස් කුමර මාවත, කොළඹ 01400, ශ්‍රී ලංකාව	பிரின்ஸ் ஆஃப் வேல்ஸ் அவே, கொழும்பு 01400, இலங்கை
Colombo	Narahenpita	Army Hospital Narahenpita	False	False	CLMBNRHNPTRMYHSPTLNRHNPT		Colombo	LK-11	6.869636	80.019598	Narahenpita	PS-110321	6.891832	79.876715	6.900252	79.87618	08 Elvitigala Mawatha, Colombo 00800, Sri Lanka	0.938417		කොළඹ	නාරාහේන්පිට	නාරාහේන්පිට හමුදා රෝහල	கொழும்பு	நரஹேன்பிட்ட	இராணுவ மருத்துவமனை நாரஹேன்பிட்ட	08 ඇල්විටිගල මාවත, කොළඹ 00800, ශ්‍රී ලංකාව	08 எல்விட்டிகல மாவத்தை, கொழும்பு 00800, இலங்கை
Colombo	Dehiwala	MOH Office - Dehiwala	False	False	CLMBDHWLMHFFCDHWL		Colombo	LK-11	6.869636	80.019598	Dehiwala	PS-110580	6.850088	79.871696	6.861346	79.865943	VV68+G9P, Dehiwala-Mount Lavinia, Sri Lanka	1.404177		කොළඹ	දෙහිවල	MOH කාර්යාලය - දෙහිවල	கொழும்பு	தெஹிவளை	MOH அலுவலகம் - தெஹிவளை	VV68+G9P, දෙහිවල-ගල්කිස්ස, ශ්‍රී ලංකාව	VV68+G9P, தெஹிவளை-கல்கிசை, இலங்கை
Colombo	Maradana	National Hospital - Colombo	False	False	CLMBMRDNNTNLHSPTLCLMB		Colombo	LK-11	6.869636	80.019598	Maradana	PS-110107	6.927939	79.865471	6.918743	79.868992	Colombo 00700, Sri Lanka	1.094265		කොළඹ	මරදාන	ජාතික රෝහල - කොළඹ	கொழும்பு	மரதானா	தேசிய மருத்துவமனை - கொழும்பு	කොළඹ 00700, ශ්‍රී ලංකාව	கொழும்பு 00700, இலங்கை
Colombo	Homagama	Panagoda Bodhirajarama Viharaya	False	False	CLMBHMGMPNGDBDHRJRMVHRY		Colombo	LK-11	6.869636	80.019598	Homagama	PS-110470	6.836155	80.003474	6.929161	79.88265	Gnanawimala Rd, Colombo, Sri Lanka	16.883101		කොළඹ	හෝමාගම	පනාගොඩ බෝධිරාජාරාම විහාරය	கொழும்பு	ஹோமாகம	பனகொட போதிராஜாராம விஹாராயா	ඥානවිමල පාර, කොළඹ, ශ්‍රී ලංකාව	ஞானவிமல வீதி, கொழும்பு, இலங்கை
Colombo	Borella	St. Luke's Church - Borella	False	False	CLMBBRLLSTLKSCHRCHBRLL		Colombo	LK-11	6.869636	80.019598	Borella	PS-110323	6.915266	79.87829	6.918035	79.874548	1091 Gnanartha Pradeepa Mawatha, Colombo 00800, Sri Lanka	0.515354		කොළඹ	බොරැල්ල	ශාන්ත ලූක් දේවස්ථානය - බොරැල්ල	கொழும்பு	பொரெல்லா	செயின்ட் லூக்கா தேவாலயம் - பொரெல்லா	1091 ඥානාර්ථ ප්‍රදීපා මාවත, කොළඹ 00800, ශ්‍රී ලංකාව	1091 ஞானார்த்த பிரதீப மாவத்தை, கொழும்பு 00800, இலங்கை
Colombo	Wellampitiya	MOH Office - Kolonnawa	False	False	CLMBWLLMPTYMHFFCKLNNW		Colombo	LK-11	6.869636	80.019598	Wellampitiya	PS-110465	6.937514	79.896298	6.938303	79.889664	25 Pansalhena 1st Ln, 10600, Sri Lanka	0.737734		කොළඹ	වැල්ලම්පිටිය	MOH කාර්යාලය - කොළොන්නාව	கொழும்பு	வெல்லம்பிட்டிய	MOH அலுவலகம் - கொலன்னாவா	25 පන්සල්හේන 1 වන අංකය, 10600, ශ්‍රී ලංකාව	25 பன்சால்ஹேனா 1 வது எண், 10600, இலங்கை
Colombo	Kaduwela	MOH Office - Kaduwela	False	False	CLMBKDWLMHFFCKDWL		Colombo	LK-11	6.869636	80.019598	Kaduwela		6.936234	79.970183	6.934127	79.984398	B263, Kaduwela, Sri Lanka	1.586964		කොළඹ	කඩුවෙල	MOH කාර්යාලය - කඩුවෙල	கொழும்பு	கடுவெல	MOH அலுவலகம் - கடுவெல	බී 263, කඩුවෙල, ශ්‍රී ලංකාව	பி 263, கடுவெல, இலங்கை
Colombo	Kosgama	Kosgama Hospital	False	False	CLMBKSGMKSGMHSPTL		Colombo	LK-11	6.869636	80.019598	Kosgama	PS-920227	6.946597	80.137869	6.940956	80.124888	Salawa-Akarawita, 10730, Sri Lanka	1.564606		කොළඹ	කොස්ගම	කොස්ගම රෝහල	கொழும்பு	கொஸ்கம	கொஸ்கம மருத்துவமனை	සාලාව-අකරවිට, 10730, ශ්‍රී ලංකාව	சலாவா-அகரவிட, 10730, இலங்கை
Colombo	Fore shore	MOH Office - Jinthupitiya	False	False	CLMBFRSHRMHFFCJNTHPTY		Colombo	LK-11	6.869636	80.019598	Fore shore	PS-110210	6.949589	79.857355	6.943258	79.859238	No.27 Vivekananda Hill, Colombo 01300, Sri Lanka	0.734247		කොළඹ	ඉදිරිපස වෙරළ	MOH කාර්යාලය - ජින්තුපිටිය	கொழும்பு	முன் கரை	MOH அலுவலகம் - ஜிந்துபிடியா	අංක 27 විවේකානන්ද කන්ද, කොළඹ 01300, ශ්‍රී ලංකාව	எண் .27 விவேகானந்த மலை, கொழும்பு 01300, இலங்கை
Colombo	Awissawella	Awissawella Hospital	False	False	CLMBWSSWLLWSSWLLHSPTL		Colombo	LK-11	6.869636	80.019598	Awissawella	PS-920226	6.947538	80.215422	6.957085	80.207381	Avissawella Rd, Avissawella, Sri Lanka	1.384155		කොළඹ	අවිස්සාවේල්ල	අවිස්සාවේල්ල රෝහල	கொழும்பு	அவிசாவெல்லா	அவிசாவளை மருத்துவமனை	අවිස්සාවේල්ල පාර, අවිස්සාවේල්ල, ශ්‍රී ලංකාව	அவிசாவெல்லா சாலை, அவிசாவல்லா, இலங்கை
Gampaha	Gampaha	MOH Office - Gampaha	False	False	GMPHGMPHMHFFCGMPH		Gampaha	LK-12	7.123598	80.018508	Gampaha	PS-120237	7.087765	80.01228	7.090643	80.002094	Colombo Rd, Gampaha, Sri Lanka	1.16901		ගම්පහ	ගම්පහ	MOH කාර්යාලය - ගම්පහ	கம்பஹா	கம்பஹா	MOH அலுவலகம் - கம்பஹா	කොළඹ පාර, ගම්පහ, ශ්‍රී ලංකාව	கொழும்பு வீதி, கம்பஹா, இலங்கை
Gampaha	Minuwangoda	MOH Office - Minuwangoda	False	False	GMPHMNWNGDMHFFCMNWNGD		Gampaha	LK-12	7.123598	80.018508	Minuwangoda	PS-120238	7.174215	79.957874	7.17227	79.956823	Katunayake-Veyangoda Rd, Minuwangoda, Sri Lanka	0.245525		ගම්පහ	මිනුවන්ගොඩ	MOH කාර්යාලය - මිනුවන්ගොඩ	கம்பஹா	மினுவாங்கொட	MOH அலுவலகம் - மினுவாங்கொட	කටුනායක-වේයන්ගොඩ පාර, මිනුවන්ගොඩ, ශ්‍රී ලංකාව	கட்டுநாயக்க-வெயங்கொட வீதி, மினுவாங்கொட, இலங்கை
Gampaha	Minuwangoda	Katuwellegama Maternity Clinic	False	False	GMPHMNWNGDKTWLLGMMTRNTYCLNC		Gampaha	LK-12	7.123598	80.018508	Minuwangoda	PS-120238	7.174215	79.957874	7.172386	79.957553	Katunayake-Veyangoda Rd, Minuwangoda, Sri Lanka	0.206501		ගම්පහ	මිනුවන්ගොඩ	කටුවැල්ලේගම මාතෘ සායනය	கம்பஹா	மினுவாங்கொட	கட்டுவெல்லேகம மகப்பேறு மருத்துவமனை	කටුනායක-වේයන්ගොඩ පාර, මිනුවන්ගොඩ, ශ්‍රී ලංකාව	கட்டுநாயக்க-வெயங்கொட வீதி, மினுவாங்கொட, இலங்கை
Gampaha	Nittambuwa	Mobile Vaccination -Thihariya	False	False	GMPHNTTMBWMBLVCCNTNTHHRY		Gampaha	LK-12	7.123598	80.018508	Nittambuwa	PS-120246	7.149726	80.10046					#CenterLocationUnknown	ගම්පහ	නිට්ටඹුව	ජංගම එන්නත -තිහාරිය	கம்பஹா	நிட்டம்புவா	மொபைல் தடுப்பூசி -திஹாரியா		
Gampaha	Mirigama	Nambuluwa Government Dispensary	False	False	GMPHMRGMNMBLWGVRNMNTDSPNSRY		Gampaha	LK-12	7.123598	80.018508	Meerigama	PS-120248	7.245169	80.128647	7.197393	80.094227	Kaleliya - Medagampitiya Rd, Pallewela, Sri Lanka	6.531912		ගම්පහ	මීරිගම	නම්බුළුව රජයේ බෙහෙත් ශාලාව	கம்பஹா	மீரிகம	நம்புலுவ அரசு மருந்தகம்	කලෙළිය - මැදගම්පිටිය පාර, පල්ලෙවෙල, ශ්‍රී ලංකාව	கலேலியா - மேடகம்பிட்டிய வீதி, பல்லெவெல, இலங்கை
Gampaha	Kadawata	MOH Office – Mahara	False	False	GMPHKDWTMHFFCMHR		Gampaha	LK-12	7.123598	80.018508	Kadawatha	PS-120136	7.00152	79.95003	7.020757	79.973481	Mahara, Eldeniya, Sri Lanka	3.358732		ගම්පහ	කඩවත	MOH කාර්යාලය - මහර	கம்பஹா	கடவாடா	MOH அலுவலகம் - மஹாரா	මහර, ඇල්දෙනිය, ශ්‍රී ලංකාව	மஹாரா, எல்டெனியா, இலங்கை
Gampaha	Biyagama	MOH Office - Biyagama	False	False	GMPHBYGMMHFFCBYGM		Gampaha	LK-12	7.123598	80.018508	Biyagama	PS-120131	6.962284	80.009037	6.946824	79.994052	Hospital Rd, Sri Lanka	2.386313		ගම්පහ	බියගම	MOH කාර්යාලය - බියගම	கம்பஹா	பியகம	MOH அலுவலகம் - பியாகம	රෝහල පාර, ශ්‍රී ලංකාව	மருத்துவமனை Rd, இலங்கை
Gampaha	Pugoda	MOH Office – Dompe	False	False	GMPHPGDMHFFCDMP		Gampaha	LK-12	7.123598	80.018508	Pugoda	PS-120241	6.98283	80.111189	6.976767	80.117422	Dompe, Pugoda-Mandawala Rd, Pugoda, Sri Lanka	0.963513		ගම්පහ	පූගොඩ	MOH කාර්යාලය - දොම්පේ	கம்பஹா	புகோடா	MOH அலுவலகம் - Dompe	දොම්පේ, පූගොඩ-මණ්ඩාවල පාර, පූගොඩ, ශ්‍රී ලංකාව	டோம்பே, புகோடா-மண்டவாலா சாலை, புகோடா, இலங்கை
Gampaha	Pamunugama	Pamunugama Hospital	False	False	GMPHPMNGMPMNGMHSPTL		Gampaha	LK-12	7.123598	80.018508	Pamunugama	PS-120353	7.078892	79.859696	7.093543	79.850191	3VV2+C38, Negombo, Sri Lanka	1.938152		ගම්පහ	පමුණුගම	පමුණුගම රෝහල	கம்பஹா	பமுனுகம	பமுனுகம மருத்துவமனை	3VV2+C38, මීගමුව, ශ්‍රී ලංකාව	3VV2+C38, நீர்கொழும்பு, இலங்கை
Gampaha	Seeduwa	MOH Office - Seeduwa	False	False	GMPHSDWMHFFCSDW		Gampaha	LK-12	7.123598	80.018508	Seeduwa	PS-120356	7.128721	79.877371	7.131527	79.879964	24 Kotugoda Rd, Katunayake 11410, Sri Lanka	0.423459		ගම්පහ	සීදුව	MOH කාර්යාලය - සීදුව	கம்பஹா	சீதுவா	MOH அலுவலகம் - சீதுவா	24 කොටුගොඩ පාර, කටුනායක 11410, ශ්‍රී ලංකාව	24 கொடுகொட வீதி, கட்டுநாயக்க 11410, இலங்கை
Gampaha	Divulapitiya	MOH Office - Divulapitiya	False	False	GMPHDVLPTYMHFFCDVLPTY		Gampaha	LK-12	7.123598	80.018508	Diulapitiya	PS-120355	7.174215	79.957874	7.215486	80.013606	6287+5CX, Divulapitiya, Sri Lanka	7.67456		ගම්පහ	දිවුලපිටිය	එම්ඕඑච් කාර්යාලය - දිවුලපිටිය	கம்பஹா	திவுலபிட்டிய	MOH அலுவலகம் - திவுலபிட்டிய	6287+5CX, දිවුලපිටිය, ශ්‍රී ලංකාව	6287+5CX, திவுலபிட்டிய, இலங்கை
Gampaha	Ja Ela	MOH Office - Ja Ela	False	False	GMPHJLMHFFCJL		Gampaha	LK-12	7.123598	80.018508	Ja - Ela	PS-120133	7.081055	79.890504	7.075216	79.893879	60 Mount Kalvary Rd, Ja-Ela, Sri Lanka	0.748731		ගම්පහ	ජා ඇල	MOH කාර්යාලය - ජා ඇල	கம்பஹா	ஜா எல	MOH அலுவலகம் - ஜா எல	60 කල්වාරි පාර, ජා-ඇල, ශ්‍රී ලංකාව	60 மவுண்ட் கல்வாரி சாலை, ஜா-எல, இலங்கை
Gampaha	Wattala	MOH Office – Wattala	False	False	GMPHWTTLMHFFCWTTL		Gampaha	LK-12	7.123598	80.018508	Wattala	PS-120128	6.993713	79.894506	6.995817	79.885793	301 Hendala Rd, Wattala, Sri Lanka	0.989991		ගම්පහ	වත්තල	MOH කාර්යාලය - වත්තල	கம்பஹா	வத்தளை	MOH அலுவலகம் - வத்தளை	301 හැඳල පාර, වත්තල, ශ්‍රී ලංකාව	301 ஹெந்தலா சாலை, வத்தளை, இலங்கை
Gampaha	Ragama	MOH Office – Ragama	False	False	GMPHRGMMHFFCRGM		Gampaha	LK-12	7.123598	80.018508	Ragama	PS-120134	7.034975	79.924148	7.027386	79.920232	2WGC+X35, Ragama, Sri Lanka	0.948382		ගම්පහ	රාගම	MOH කාර්යාලය - රාගම	கம்பஹா	ராகம	MOH அலுவலகம் - ராகம	2WGC+X35, රාගම, ශ්‍රී ලංකාව	2WGC+X35, ராகம, இலங்கை
Kalutara	Thebuwana	Divisional Hospital - Neboda	False	False	KLTRTHBWNDVSNLHSPTLNBD		Kalutara	LK-13	6.577316	80.127363	Thebuwana	PS-1302105	6.654997	80.058183	6.570354	80.073048	wellatha Neboda ., Neboda - Wellatha Rd, Sri Lanka	9.557015		කළුතර	තෙබුවන	ප්‍රාදේශීය රෝහල - නැබොඩ	களுத்துறை	தேபுவானா	பிரிவு மருத்துவமனை - நெபோடா	වෙල්ලතා නැබොඩ., නැබොඩ - වෙල්ලත පාර, ශ්‍රී ලංකාව	வெல்லதா நெபோடா., நெபோடா - வெல்லதா ஆர்ட், இலங்கை
Kalutara	Dodangoda	Dodangoda Hospital	False	False	KLTRDDNGDDDNGDHSPTL		Kalutara	LK-13	6.577316	80.127363	Dodangoda	PS-130299	6.553375	80.023569	6.540961	80.036553	Wilpatha Rd, Sri Lanka	1.991373		කළුතර	දොඩන්ගොඩ	දොඩන්ගොඩ රෝහල	களுத்துறை	தொடங்கொட	தொடங்கொட மருத்துவமனை	විල්පත පාර, ශ්‍රී ලංකාව	வில்பதா சாலை, இலங்கை
Kalutara	Dodangoda	MOH Office - Dodangoda	False	False	KLTRDDNGDMHFFCDDNGD	6.540366199937832,80.03661033076219	Kalutara	LK-13	6.577316	80.127363	Dodangoda	PS-130299	6.553375	80.023569	6.541731	80.04335	Dodangoda, Sri Lanka	2.540775		කළුතර	දොඩන්ගොඩ	6.540366199937832,80.03661033076219	களுத்துறை	தொடங்கொட	6.540366199937832,80.03661033076219	දොඩන්ගොඩ, ශ්‍රී ලංකාව	தொடங்கொட, இலங்கை
Kalutara	Horana	Poruwadanda Thilakarama Viharaya	False	False	KLTRHRNPRWDNDTHLKRMVHRY		Kalutara	LK-13	6.577316	80.127363	Horana	PS-130192	6.714613	80.069091	6.734825	80.117154	P4M8+WVC, Poruwadanda, Sri Lanka	5.765635		කළුතර	හොරණ	පෝරුවදණ්ඩ තිලකරාම විහාරය	களுத்துறை	ஹொரானா	பொருவதண்ட திலகரம விஹாராயா	P4M8+WVC, පෝරුවදණ්ඩ, ශ්‍රී ලංකාව	P4M8+WVC, பொருவாதண்டா, இலங்கை
Kalutara	Ingiriya	Ingiriya Hospital	False	False	KLTRNGRYNGRYHSPTL		Kalutara	LK-13	6.577316	80.127363	Ingiriya	PS-130193	6.743614	80.175077	6.741133	80.162046	Panadura-Nambapana-Ratnapura Hwy, Ingiriya, Sri Lanka	1.465626		කළුතර	ඉංගිරිය	ඉංගිරිය රෝහල	களுத்துறை	இங்கிரிய	இங்கிரிய மருத்துவமனை	පානදුර-නාම්බපන-රත්නපුර හ්වි, ඉංගිරිය, ශ්‍රී ලංකාව	பாணாதுரா-நம்பபனா-ரத்னபுரா ஹ்வி, இங்கிரிய, இலங்கை
Kalutara	Ingiriya	Handapangoda Maha Vidyalaya	False	False	KLTRNGRYHNDPNGDMHVDYLY		Kalutara	LK-13	6.577316	80.127363	Ingiriya	PS-130193	6.743614	80.175077	6.790569	80.140067	Handapangoda, Sri Lanka	6.498577		කළුතර	ඉංගිරිය	හඳපාන්ගොඩ මහා විද්‍යාලය	களுத்துறை	இங்கிரிய	ஹந்தபங்கொட மகா வித்தியாலயம்	හඳපාන්ගොඩ, ශ්‍රී ලංකාව	ஹந்தபங்கொட, இலங்கை
Kalutara	Ingiriya	Kotigala Clinic	False	False	KLTRNGRYKTGLCLNC		Kalutara	LK-13	6.577316	80.127363	Ingiriya	PS-130193	6.743614	80.175077	6.743882	80.176689	Ingiriya, Sri Lanka	0.18054		කළුතර	ඉංගිරිය	කොටිගල සායනය	களுத்துறை	இங்கிரிய	கொட்டிகலா கிளினிக்	ඉංගිරිය, ශ්‍රී ලංකාව	இங்கிரிய, இலங்கை
Kalutara	Agalawatta	Pimbura Hospital	False	False	KLTRGLWTTPMBRHSPTL		Kalutara	LK-13	6.577316	80.127363	Agalawatta		6.542566	80.157178	6.575949	80.158371	H5G5+98H, කළුතර, Sri Lanka	3.715525		කළුතර	අගලවත්ත	පිඹුර රෝහල	களுத்துறை	அகலவத்தை	பிம்புரா மருத்துவமனை	H5G5+98H, කළුතර, ශ්‍රී ලංකාව	H5G5+98H, கருப்புதர, இலங்கை
Kalutara	Matugama	Weththewa Hospital	False	False	KLTRMTGMWTHTHWHSPTL		Kalutara	LK-13	6.577316	80.127363	Mathugama	PS-1302103	6.520881	80.117908	6.523087	80.125192	District Hospital, Hospital Road,Weththewa,., Matugama, Sri Lanka	0.841523		කළුතර	මතුගම	වෙත්තෑව රෝහල	களுத்துறை	மத்துகம	வெத்தேவா மருத்துவமனை	දිසා රෝහල, රෝහල් පාර, වෙත්තෑව,., මතුගම, ශ්‍රී ලංකාව	மாவட்ட மருத்துவமனை, மருத்துவமனை சாலை, வெத்தேவா,., மத்துகம, இலங்கை
Kalutara	Matugama	Katuhena Hospital	False	False	KLTRMTGMKTHNHSPTL		Kalutara	LK-13	6.577316	80.127363	Mathugama	PS-1302103	6.520881	80.117908	6.946064	79.860912	WVW6+99, 213 Jampettah St, Colombo 01300, Sri Lanka	55.159144	#CenterFarFromPolice	කළුතර	මතුගම	කටුහේන රෝහල	களுத்துறை	மத்துகம	கட்டுஹேனா மருத்துவமனை	ඩබ්ලිව්වීඩබ්ලිව් 6+99, 213 ජම්පත්තාව ශාන්ත, කොළඹ 01300, ශ්‍රී ලංකාව	WVW6+99, 213 ஜம்பேட்டா செயின்ட், கொழும்பு 01300, இலங்கை
Kalutara	Matugama	MOH Office - Matugama	False	False	KLTRMTGMMHFFCMTGM		Kalutara	LK-13	6.577316	80.127363	Mathugama	PS-1302103	6.520881	80.117908	6.523544	80.126443	G4FG+CH8, Matugama, Sri Lanka	0.988725		කළුතර	මතුගම	MOH කාර්යාලය - මතුගම	களுத்துறை	மத்துகம	MOH அலுவலகம் - மத்துகம	G4FG+CH8, මතුගම, ශ්‍රී ලංකාව	G4FG+CH8, மத்துகம, இலங்கை
Kalutara	Baduraliya	Baduraliya Hospital	False	False	KLTRBDRLYBDRLYHSPTL		Kalutara	LK-13	6.577316	80.127363	Baduraliya	PS-1302106	6.516756	80.226716	6.514727	80.232731	Tiruwanaketiya-Agalawatte Rd, Baduraliya, Sri Lanka	0.702098		කළුතර	බදුරලිය	බදුරලිය රෝහල	களுத்துறை	பதுரலியா	பதுரலியா மருத்துவமனை	තිරුවානකැටිය-අගලවත්ත පාර, බදුරලිය, ශ්‍රී ලංකාව	திருவனகெட்டிய-அகலவத்தை சாலை, பதுரலியா, இலங்கை
Kalutara	Beruwala	MOH Office - Beruwala	False	False	KLTRBRWLMHFFCBRWL		Kalutara	LK-13	6.577316	80.127363	Beruwala	PS-1302102	6.480329	79.983498	6.437559	79.999356	CXQX+2PH, Aluthgama, Sri Lanka	5.069893		කළුතර	බේරුවල	MOH කාර්යාලය - බේරුවල	களுத்துறை	பேருவளை	MOH அலுவலகம் - பேருவளை	CXQX+2PH, අළුත්ගම, ශ්‍රී ලංකාව	CXQX+2PH, அளுத்கம, இலங்கை
Kalutara	Beruwala	Beruwala Hospital	False	False	KLTRBRWLBRWLHSPTL		Kalutara	LK-13	6.577316	80.127363	Beruwala	PS-1302102	6.480329	79.983498	6.472087	79.983492	FXCM+R9Q, Beruwala, Sri Lanka	0.916757		කළුතර	බේරුවල	බේරුවල රෝහල	களுத்துறை	பேருவளை	பேருவளை மருத்துவமனை	FXCM+R9Q, බේරුවල, ශ්‍රී ලංකාව	FXCM+R9Q, பேருவளை, இலங்கை
Kalutara	Bulathsinhala	MOH Office - Bulathsinhala	False	False	KLTRBLTHSNHLMHFFCBLTHSNHL		Kalutara	LK-13	6.577316	80.127363	Bulathsinhala	PS-1302104	6.650425	80.17703	6.644683	80.179607	J5VH+VRH, Bulathsinhala, Sri Lanka	0.699369		කළුතර	බුලත්සිංහල	MOH කාර්යාලය - බුලත්සිංහල	களுத்துறை	புலத்சிங்களா	MOH அலுவலகம் - புலத்சிங்களா	J5VH+VRH, බුලත්සිංහල, ශ්‍රී ලංකාව	J5VH+VRH, புலத்சிங்களா, இலங்கை
Kalutara	Bandragama	MOH Office - Bandaragama	False	False	KLTRBNDRGMMHFFCBNDRGM		Kalutara	LK-13	6.577316	80.127363	Bandaragama	PS-130189	6.715179	79.987674	6.713351	79.991671	Library Path, Bandaragama, Sri Lanka	0.486104		කළුතර	බණ්ඩාරගම	MOH කාර්යාලය - බණ්ඩාරගම	களுத்துறை	பந்த்ரகம	MOH அலுவலகம் - பண்டாரகம	පුස්තකාල මාවත, බණ්ඩාරගම, ශ්‍රී ලංකාව	நூலகப் பாதை, பண்டாரகம, இலங்கை
Kalutara	Bandragama	Bandaragama Hospital	False	False	KLTRBNDRGMBNDRGMHSPTL		Kalutara	LK-13	6.577316	80.127363	Bandaragama	PS-130189	6.715179	79.987674	6.716162	79.991484	Horana Rd, Bandaragama, Sri Lanka	0.434849		කළුතර	බණ්ඩාරගම	බණ්ඩාරගම රෝහල	களுத்துறை	பந்த்ரகம	பண்டாரகம மருத்துவமனை	හොරණ පාර, බණ්ඩාරගම, ශ්‍රී ලංකාව	ஹொரானா வீதி, பண்டாரகம, இலங்கை
Kalutara	Bandragama	Al Ghazali Vidyalaya - Atalugama	False	False	KLTRBNDRGMLGHZLVDYLYTLGM		Kalutara	LK-13	6.577316	80.127363	Bandaragama	PS-130189	6.715179	79.987674	6.704854	79.996315	Atulugama Rd, Bandaragama, Sri Lanka	1.493354		කළුතර	බණ්ඩාරගම	අල් ගසාලි විද්‍යාලය - අටලුගම	களுத்துறை	பந்த்ரகம	அல் கஜாலி வித்யாலயா - அடலுகம	අතුළුගම පාර, බණ්ඩාරගම, ශ්‍රී ලංකාව	அதுலுகம வீதி, பண்டாரகம, இலங்கை
Kurunegala	Nikaweratiya	Divullegoda Vidyalaya	False	False	KRNGLNKWRTYDVLLGDVDYLY		Kurunegala	LK-61	7.66477	80.23677	Nikaweratiya	PS-610320	7.742612	80.121177	7.762665	80.201634	Diullegoda, Sri Lanka	9.143644		කුරුණෑගල	නිකවැරටිය	දිවුල්ලේගොඩ විද්‍යාලය	குருநாகல்	நிகவெரட்டியா	திவுல்லேகொட வித்தியாலயம்	දිල්ලෙගොඩ, ශ්‍රී ලංකාව	டுல்லேகொட, இலங்கை
Kurunegala	Nikaweratiya	Thumbulla Vidyalaya	False	False	KRNGLNKWRTYTHMBLLVDYLY		Kurunegala	LK-61	7.66477	80.23677	Nikaweratiya	PS-610320	7.742612	80.121177	7.788099	80.100061	Nebadawa, Nikaweratiya, Sri Lanka	5.569064		කුරුණෑගල	නිකවැරටිය	තුඹුල්ල විද්‍යාලය	குருநாகல்	நிகவெரட்டியா	தும்புல்லா வித்யாலயா	නැබඩාව, නිකවැරටිය, ශ්‍රී ලංකාව	நெபடாவா, நிகவெரட்டியா, இலங்கை
Kurunegala	Nikaweratiya	Dalukgolla Vidyalaya	False	False	KRNGLNKWRTYDLKGLLVDYLY		Kurunegala	LK-61	7.66477	80.23677	Nikaweratiya	PS-610320	7.742612	80.121177	7.784931	80.171207	Dalukgolla School, Nikaweratiya-Maho Rd, Nikaweratiya, Sri Lanka	7.24978		කුරුණෑගල	නිකවැරටිය	දළුක්ගොල්ල විද්‍යාලය	குருநாகல்	நிகவெரட்டியா	டாலுகொல்லா வித்யாலயா	දළුක්ගොල්ල පාසල, නිකවැරටිය-මහෝ පාර, නිකවැරටිය, ශ්‍රී ලංකාව	டாலுகொல்லா பள்ளி, நிகவெரட்டிய-மஹோ ஆர்ட், நிகவெரட்டியா, இலங்கை
Kurunegala	Rasnayakapura	Abokkagama Vidyalaya	False	False	KRNGLRSNYKPRBKKGMVDYLY		Kurunegala	LK-61	7.66477	80.23677	Rasnayakapura	PS-610323	7.776658	80.012692	7.775358	80.021998	Q2GC+4QX, Puttalam, Sri Lanka	1.03573		කුරුණෑගල	රස්නායකපුර	අබොක්කගම විද්‍යාලය	குருநாகல்	ரஸ்நாயகாபுரா	அபொக்ககம வித்தியாலயம்	Q2GC+4QX, පුත්තලම, ශ්‍රී ලංකාව	Q2GC+4QX, புத்தளம், இலங்கை
Kurunegala	Mawathagama	Pilessa Viharaya	False	False	KRNGLMWTHGMPLSSVHRY		Kurunegala	LK-61	7.66477	80.23677	Mawathagama	PS-610109	7.432976	80.449904	7.434223	80.443251	Katugastota-Kurunegala-Puttalam Hwy, Mawathagama, Sri Lanka	0.746787		කුරුණෑගල	මාවතගම	පිලැස්ස විහාරය	குருநாகல்	மாவத்தகம	பைலஸ்ஸா விஹாராயா	කටුගස්තොට-කුරුණෑගල-පුත්තලම හ්වි, මාවතගම, ශ්‍රී ලංකාව	கட்டுகஸ்தோட்டை-குருநாகல்-புத்தளம் Hwy, மாவத்தகம, இலங்கை
Kurunegala	Mawathagama	Udagama Clinic	False	False	KRNGLMWTHGMDGMCLNC		Kurunegala	LK-61	7.66477	80.23677	Mawathagama	PS-610109	7.432976	80.449904	7.471418	80.351438	1st Lane. Masangwatte, Vahara,, 1lane Ambepussa - Kurunegala - Trincomalee Hwy, Kurunegala 60000, Sri Lanka	11.671314		කුරුණෑගල	මාවතගම	උඩගම සායනය	குருநாகல்	மாவத்தகம	உதகம கிளினிக்	1 වන පටුමග. මසංවත්ත, වහර ,, 1 ලේන් අඹේපුස්ස - කුරුණෑගල - ත්‍රිකුණාමලය හ්වි, කුරුණෑගල 60000, ශ්‍රී ලංකාව	முதல் பாதை மாசங்வத்தை, வஹாரா ,, 1 லேன் அம்பேபுஸ்ஸா - குருநாகல் - திருகோணமலை ஹ்வி, குருநாகல் 60000, இலங்கை
Kurunegala	Ganewatta	Nambiriththawewa Maha Vidyalaya	False	False	KRNGLGNWTTNMBRTHTHWWMHVDYLY		Kurunegala	LK-61	7.66477	80.23677									#PoliceLocationUnknown	කුරුණෑගල	ගනේවත්ත	නම්බිරිත්තවැව මහා විද්‍යාලය	குருநாகல்	கணேவத்த	நம்பிரித்தவெவ மகா வித்தியாலயம்		
Kurunegala	Gokarella	Polgolla Hospital	False	False	KRNGLGKRLLPLGLLHSPTL		Kurunegala	LK-61	7.66477	80.23677	Gokarella	PS-610108	7.59543	80.480081	7.585624	80.475057	A6, Gokarella, Sri Lanka	1.223315		කුරුණෑගල	ගොකරැල්ල	පොල්ගොල්ල රෝහල	குருநாகல்	கோகரெல்லா	பொல்கொல்லா மருத்துவமனை	ඒ 6, ගොකරැල්ල, ශ්‍රී ලංකාව	ஏ 6, கோகரெல்லா, இலங்கை
Kurunegala	Polgahawela	Hadugala Maha Vidyalaya	False	False	KRNGLPLGHWLHDGLMHVDYLY		Kurunegala	LK-61	7.66477	80.23677	Polgahawela	PS-610102	7.333281	80.300363	7.33121	80.29554	A6, Polgahawela, Sri Lanka	0.5798		කුරුණෑගල	පොල්ගහවෙල	හඩුගල මහා විද්‍යාලය	குருநாகல்	பொல்கஹவெல	ஹடுகல மகா வித்தியாலயம்	ඒ 6, පොල්ගහවෙල, ශ්‍රී ලංකාව	A6, பொல்கஹவெல, இலங்கை
Kurunegala	Pothuhera	Kolabalamulla Vidyalaya	False	False	KRNGLPTHHRKLBLMLLVDYLY		Kurunegala	LK-61	7.66477	80.23677	Pothuhera	PS-610104	7.416243	80.327534	7.418023	80.327718	Ambepussa - Kurunegala - Trincomalee Hwy, Pothuhera, Sri Lanka	0.199027		කුරුණෑගල	පොතුහැර	කොලබලමුල්ල විද්‍යාලය	குருநாகல்	பொதுஹெரா	கோலாபாலமுல்லா வித்யாலயா	අඹේපුස්ස - කුරුණෑගල - ත්‍රිකුණාමලය හ්වි, පොතුහැර, ශ්‍රී ලංකාව	அம்பேபுஸ்ஸா - குருநாகல் - திருகோணமலை ஹெவி, பொதுஹெரா, இலங்கை
Kurunegala	Maduragoda	Kavisigamuwa Maha Vidyalaya	False	False	KRNGLMDRGDKVSGMWMHVDYLY		Kurunegala	LK-61	7.66477	80.23677									#PoliceLocationUnknown	කුරුණෑගල	මදුරගොඩ	කවිසිගමුව මහා විද්‍යාලය	குருநாகல்	மதுரகொட	கவிசிகமுவா மகா வித்தியாலயம்		
Kurunegala	Kumbukgete	Kumbukwewa Maha Vidyalaya	False	False	KRNGLKMBKGTKMBKWWMHVDYLY		Kurunegala	LK-61	7.66477	80.23677	Kumbukgatey	PS-610111	6.934132	79.856305	7.635819	80.434563	JCPM+8RG, Kumbukwewa, Sri Lanka	100.806824	#CenterFarFromPolice	කුරුණෑගල	කුඹුක්ගැටේ	කුඹුක්වැව මහා විද්‍යාලය	குருநாகல்	கும்புகெட்டே	கும்புக்வெவ மகா வித்தியாலயம்	JCPM+8RG, කුඹුක්වැව, ශ්‍රී ලංකාව	JCPM+8RG, கும்புக்வெவா, இலங்கை
Kurunegala	Kurunegala	Thorayaya Muslim Vidyalaya	False	False	KRNGLKRNGLTHRYYMSLMVDYLY		Kurunegala	LK-61	7.66477	80.23677	Kurunegala	PS-610101	7.485852	80.364137	7.511024	80.413707	Ambepussa - Kurunegala - Trincomalee Hwy, Thorayaya, Sri Lanka	6.141829		කුරුණෑගල	කුරුණෑගල	තෝරයාය මුස්ලිම් විද්යාලය	குருநாகல்	குருநாகல்	தோராயா முஸ்லிம் வித்யாலயா	අඹේපුස්ස - කුරුණෑගල - ත්‍රිකුණාමලය හ්වි, තෝරයයා, ශ්‍රී ලංකාව	அம்பேபுஸ்ஸா - குருநாகல் - திருகோணமலை ஹ்வி, தொராயய்யா, இலங்கை
Kurunegala	Kurunegala	Doratiyawa Vidyalaya	False	False	KRNGLKRNGLDRTYWVDYLY		Kurunegala	LK-61	7.66477	80.23677	Kurunegala	PS-610101	7.485852	80.364137	7.456644	80.391148	F94R+MF2, Kurunegala, Sri Lanka	4.407798		කුරුණෑගල	කුරුණෑගල	දොරටියාව විද්‍යාලය	குருநாகல்	குருநாகல்	டோரடியாவா வித்யாலயா	F94R+MF2, කුරුණෑගල, ශ්‍රී ලංකාව	F94R+MF2, குருநாகல், இலங்கை
Puttalam	Marawila	Nattandiya Dhammissara Vidyalaya	False	False	PTTLMMRWLNTTNDYDHMMSSRVDYLY		Puttalam	LK-62	7.973531	79.913833	Marawila	PS-620243	7.415075	79.839776	7.411623	79.858074	Nattandiya, Sri Lanka	2.05447		පුත්තලම	මාරවිල	නාත්තණ්ඩිය ධම්මිස්සර විද්‍යාලය	புத்தளம்	மாரவில	நாட்டாண்டியா தம்மிஸ்ஸார வித்தியாலயம்	නාත්තන්ඩිය, ශ්‍රී ලංකාව	நாட்டாண்டியா, இலங்கை
Puttalam	Kalpitiya	Kalpitiya Hospital	False	False	PTTLMKLPTYKLPTYHSPTL		Puttalam	LK-62	7.973531	79.913833	Kalpitiya	PS-620137	8.235145	79.764567	8.235596	79.766951	6QP8+6QP, Kalpitiya, Sri Lanka	0.267189		පුත්තලම	කල්පිටිය	කල්පිටිය රෝහල	புத்தளம்	கல்பிட்டிய	கல்பிட்டி மருத்துவமனை	6QP8+6QP, කල්පිටිය, ශ්‍රී ලංකාව	6QP8+6QP, கல்பிட்டிய, இலங்கை
Puttalam	Wennappuwa	St Mary's College - Nainamadama	False	False	PTTLMWNNPPWSTMRYSCLLGNNMDM		Puttalam	LK-62	7.973531	79.913833	Wennappuwa	PS-620245	7.339623	79.843017	7.306523	79.850256	St Mary's College, Nainamadama, Sri Lanka	3.76733		පුත්තලම	වෙන්නප්පුව	ශාන්ත මරියා විද්‍යාලය - නයිනමඩම	புத்தளம்	வென்னப்புவா	செயின்ட் மேரிஸ் கல்லூரி - நைனமடாமா	ශාන්ත මරියා විද්‍යාලය, නයිනමඩම, ශ්‍රී ලංකාව	செயின்ட் மேரீஸ் கல்லூரி, நைனமடாமா, இலங்கை
Puttalam	Wennappuwa	Waikkala Government School	False	False	PTTLMWNNPPWWKKLGVRNMNTSCHL		Puttalam	LK-62	7.973531	79.913833	Wennappuwa	PS-620245	7.339623	79.843017	7.283262	79.855145	Waikkala Government School, Waikkal, Sri Lanka	6.410225		පුත්තලම	වෙන්නප්පුව	වයික්කල රජයේ පාසල	புத்தளம்	வென்னப்புவா	வாய்க்கால அரசு பள்ளி	වයික්කාල රජයේ පාසල, වයික්කාල්, ශ්‍රී ලංකාව	வாய்க்கால அரசு பள்ளி, வாய்க்கால், இலங்கை
Puttalam	Koswatta	Kirimetiyana Vidyalaya	False	False	PTTLMKSWTTKRMTYNVDYLY		Puttalam	LK-62	7.973531	79.913833	Koswatta	PS-620244	7.374528	79.898302	7.3289	79.862086	Kirimetiyana, Sri Lanka	6.459032		පුත්තලම	කොස්වත්ත	කිරිමැටියාන විද්‍යාලය	புத்தளம்	கொஸ்வத்த	கிரிமெட்டியானா வித்யாலயா	කිරිමැටියාන, ශ්‍රී ලංකාව	கிரிமெட்டியானா, இலங்கை
Puttalam	Dankotuwa	Atiyawala Maha Vidyalaya	False	False	PTTLMDNKTWTYWLMHVDYLY		Puttalam	LK-62	7.973531	79.913833	Dankotuwa	PS-620246	7.300337	79.882595	7.28868	79.899265	Matikotuwa Road, Dankotuwa, Sri Lanka	2.250294		පුත්තලම	දන්කොටුව	ඇටියාවල මහා විද්‍යාලය	புத்தளம்	டாங்கொட்டுவா	அதியவல மகா வித்தியாலயம்	මැටිකොටුව පාර, දංකොටුව, ශ්‍රී ලංකාව	மாடிகொட்டுவா சாலை, டாங்கொட்டுவா, இலங்கை
Puttalam	Dankotuwa	Dankotuwa Balika Vidyalaya	False	False	PTTLMDNKTWDNKTWBLKVDYLY		Puttalam	LK-62	7.973531	79.913833	Dankotuwa	PS-620246	7.300337	79.882595	7.29238	79.878239	Toppuwa - Madampe Rd, Dankotuwa, Sri Lanka	1.007122		පුත්තලම	දන්කොටුව	දංකොටුව බාලිකා විද්‍යාලය	புத்தளம்	டாங்கொட்டுவா	தங்கொட்டுவ பாலிகா வித்தியாலயம்	තොප්පුව - මාදම්පේ පාර, දංකොටුව, ශ්‍රී ලංකාව	தொப்புவா - மாதம்பே வீதி, தங்கொட்டுவா, இலங்கை
Puttalam	Wanathavilluwa	Karativi Muslim College	False	False	PTTLMWNTHVLLWKRTVMSLMCLLG		Puttalam	LK-62	7.973531	79.913833	Wanathawilluwa	PS-620134	8.188137	79.858447	8.039642	79.828624	Mannar Rd, Puttalam, Sri Lanka	16.84038		පුත්තලම	වනාතවිල්ලුව	කරතිවි මුස්ලිම් විද්‍යාලය	புத்தளம்	வனதவில்லுவா	காரடிவி முஸ்லிம் கல்லூரி	මන්නාරම පාර, පුත්තලම, ශ්‍රී ලංකාව	மன்னார் சாலை, புத்தளம், இலங்கை
Kandy	Peradeniya	Gelioya Sri Janaranjanaramaya	False	False	KNDYPRDNYGLYSRJNRNJNRMY		Kandy	LK-21	7.27337	80.709602	Peradeniya	PS-210110	7.267283	80.601901	7.214088	80.596913	B135, Gelioya, Sri Lanka	5.942415		මහනුවර	පේරාදෙණිය	ගෙලිඔය ශ්‍රී ජනරංජනාරාමය	கண்டி	பேராதனை	கெலிஓயா ஸ்ரீ ஜனரஞ்சனாராமயா	බී 135, ගෙලිඔය, ශ්‍රී ලංකාව	B135, கெலியோயா, இலங்கை
Kandy	Kandy	Pushpadana Girls' College	False	False	KNDYKNDYPSHPDNGRLSCLLG		Kandy	LK-21	7.27337	80.709602	Kandy	PS-210101	7.292948	80.642368	7.293989	80.633	16 Kandy Rd, Kandy 20000, Sri Lanka	1.040036		මහනුවර	මහනුවර	පුෂ්පදාන බාලිකා විද්‍යාලය	கண்டி	கண்டி	புஷ்படனா பெண்கள் கல்லூரி	16 මහනුවර පාර, මහනුවර 20000, ශ්‍රී ලංකාව	16 கண்டி வீதி, கண்டி 20000, இலங்கை
Kandy	Kandy	St.Sylvester's Primary School	False	False	KNDYKNDYSTSYLVSTRSPRMRYSCHL		Kandy	LK-21	7.27337	80.709602	Kandy	PS-210101	7.292948	80.642368	7.29757	80.634654	Wariyapola Sri Sumangala Mawatha, Kandy, Sri Lanka	0.994305		මහනුවර	මහනුවර	ශාන්ත සිල්වෙස්ටර් ප්‍රාථමික පාසල	கண்டி	கண்டி	செயின்ட் சில்வெஸ்டர்ஸ் ஆரம்ப பள்ளி	වාරියපොළ ශ්‍රී සුමංගල මාවත, මහනුවර, ශ්‍රී ලංකාව	வாரியபொல ஸ்ரீ சுமங்கல மாவத்தை, கண்டி, இலங்கை
Kandy	Kandy	Mahanama Vidyalaya	False	False	KNDYKNDYMHNMVDYLY		Kandy	LK-21	7.27337	80.709602	Kandy	PS-210101	7.292948	80.642368	7.272228	80.607279	396, 17 Peradeniya Rd, Kandy 20000, Sri Lanka	4.505525		මහනුවර	මහනුවර	මහානාම විද්‍යාලය	கண்டி	கண்டி	மகாநாம வித்யாலயா	396, 17 පේරාදෙණිය පාර, මහනුවර 20000, ශ්‍රී ලංකාව	396, 17 பேராதெனிய சாலை, கண்டி 20000, இலங்கை
Kandy	Daulagala	Alapalawala Piriven Viharaya	False	False	KNDYDLGLLPLWLPRVNVHRY		Kandy	LK-21	7.27337	80.709602	Daulagala	PS-210111	7.227283	80.574409	7.238425	80.576046	Embilmeegama-Daulagala-Penideniya Rd, Sri Lanka	1.252418		මහනුවර	දවුලගල	අලපලවල පිරිවෙන් විහාරය	கண்டி	தauலகலா	அலபலாவாலா பிரிவென் விஹாராயா	ඇඹිල්මීගම-දවුලගල-පෙනිදෙනිය පාර, ශ්‍රී ලංකාව	எம்பில்மீகம-தவுலகலா-பெனிடெனியா சாலை, இலங்கை
Kandy	Panvila	Madolkele Hospital	False	False	KNDYPNVLMDLKLHSPTL		Kandy	LK-21	7.27337	80.709602	Panwila	PS-210361	7.362355	80.713731	7.398005	80.733186	9PXM+673, Huluganga, Sri Lanka	4.508822		මහනුවර	පන්විල	මාදොල්කැලේ රෝහල	கண்டி	பன்விலா	மடோல்கேல் மருத்துவமனை	9PXM+673, හුළුගඟ, ශ්‍රී ලංකාව	9PXM+673, ஹுலுகங்கா, இலங்கை
Kandy	Balagolla	Bandaranayaka National College	False	False	KNDYBLGLLBNDRNYKNTNLCLLG		Kandy	LK-21	7.27337	80.709602									#PoliceLocationUnknown	මහනුවර	බලගොල්ල	බණ්ඩාරනායක ජාතික විද්‍යාලය	கண்டி	பாலகொல்லா	பண்டாரநாயக்க தேசிய கல்லூரி		
Kandy	Balagolla	Kengalla National College	False	False	KNDYBLGLLKNGLLNTNLCLLG		Kandy	LK-21	7.27337	80.709602									#PoliceLocationUnknown	මහනුවර	බලගොල්ල	කෙන්ගල්ල ජාතික විද්‍යාලය	கண்டி	பாலகொல்லா	கெங்கல்லா தேசிய கல்லூரி		
Kandy	Thalathuoya	Social Services Institute	False	False	KNDYTHLTHYSCLSRVCSNSTTT		Kandy	LK-21	7.27337	80.709602	Thalathuoya	PS-210107	7.25166	80.689528	7.276897	80.618109	37 Bodhiyangana Mawatha, Kandy 32350, Sri Lanka	8.365213		මහනුවර	තලාතුඔය	සමාජ සේවා ආයතනය	கண்டி	தலத்துஓயா	சமூக சேவை நிறுவனம்	37 බෝධියංගණ මාවත, මහනුවර 32350, ශ්‍රී ලංකාව	37 போதியங்கன மாவத்தை, கண்டி 32350, இலங்கை
Kandy	Wattegama	Walala A.Rathnayake Central College	False	False	KNDYWTTGMWLLRTHNYKCNTRLCLLG		Kandy	LK-21	7.27337	80.709602	Wattegama	PS-210357	7.350603	80.68335	7.318909	80.693359	8M9V+H89, Menikhinna, Sri Lanka	3.694199		මහනුවර	වත්තේගම	වලල ඒ. රත්නායක මධ්‍ය මහා විද්‍යාලය	கண்டி	வட்டேகம	வாலாலா ஏ.ரத்நாயக்க மத்திய கல்லூரி	8 එම් 9 වී+එච් 89, මැණික්හින්න, ශ්‍රී ලංකාව	8M9V+H89, மெனிகின்னா, இலங்கை
Kandy	Wattegama	Wattegama Baliak Vidyalaya	False	False	KNDYWTTGMWTTGMBLKVDYLY		Kandy	LK-21	7.27337	80.709602	Wattegama	PS-210357	7.350603	80.68335	7.351534	80.682953	Pitiyagedera - Wattegama - Iriyagastenne Rd, Wattegama, Sri Lanka	0.112435		මහනුවර	වත්තේගම	වත්තේගම බාලියාක් විද්‍යාලය	கண்டி	வட்டேகம	வட்டேகம பாலியாக் வித்தியாலயம்	පිටියගෙදර - වත්තේගම - ඊරියගස්තැන්න පාර, වත්තේගම, ශ්‍රී ලංකාව	பிட்டியகெடெரா - வட்டேகம - இரியாகஸ்டென் சாலை, வட்டேகம, இலங்கை
Kandy	Nawalapitiya	Anurudda Kumara Primary School	False	False	KNDYNWLPTYNRDDKMRPRMRYSCHL		Kandy	LK-21	7.27337	80.709602	Nawalapitiya	PS-210219	7.057355	80.536075	7.053484	80.527436	Nawalapitiya - Ginigathena Rd, Nawalapitiya, Sri Lanka	1.046335		මහනුවර	නාවලපිටිය	අනුරුද්ධ කුමාර ප්‍රාථමික විද්‍යාලය	கண்டி	நாவலப்பிட்டி	அனுருத்த குமார தொடக்கப் பள்ளி	නාවලපිටිය - ගිනිගත්හේන පාර, නාවලපිටිය, ශ්‍රී ලංකාව	நாவலப்பிட்டிய - கினிகத்தேனா வீதி, நாவலப்பிட்டி, இலங்கை
Kandy	Nawalapitiya	Nawalapitiya Central College	False	False	KNDYNWLPTYNWLPTYCNTRLCLLG		Kandy	LK-21	7.27337	80.709602	Nawalapitiya	PS-210219	7.057355	80.536075	7.046305	80.537454	Weligampola Road, Nawalapitiya, Sri Lanka	1.238481		මහනුවර	නාවලපිටිය	නාවලපිටිය මධ්‍ය මහා විද්‍යාලය	கண்டி	நாவலப்பிட்டி	நாவலப்பிட்டி மத்திய கல்லூரி	වැලිගම්පොල පාර, නාවලපිටිය, ශ්‍රී ලංකාව	வெலிகம்பொல வீதி, நாவலப்பிட்டி, இலங்கை
Kandy	Pussellawa	Town Hall - Pussellawa	False	False	KNDYPSSLLWTWNHLLPSSLLW		Kandy	LK-21	7.27337	80.709602	Pussellawa	PS-210217	7.115334	80.635553	7.106515	80.636264	Peradeniya - Badulla - Chenkaladi Hwy, Pussellawa, Sri Lanka	0.98407		මහනුවර	පුස්සැල්ලාව	නගර ශාලාව - පුස්සැල්ලාව	கண்டி	புசெல்லவா	டவுன் ஹால் - புஸ்ஸல்லாவ	පේරාදෙණිය - බදුල්ල - චෙන්කලාඩි හ්වි, පුස්සැල්ලාව, ශ්‍රී ලංකාව	பேராதனை - பதுளை - செங்கலடி ஹ்வி, புஸ்ஸல்லவா, இலங்கை
Nuwara Eliya	Kotmale	MOH Office – Kotmale	False	False	NWRLYKTMLMHFFCKTML		Nuwara Eliya	LK-23	6.97423	80.711222	Kotmale	PS-230134	7.063602	80.685054	7.062013	80.685533	3M6P+R63, Kothmale New Town, Sri Lanka	0.184484		නුවරඑලිය	කොත්මලේ	MOH කාර්යාලය - කොත්මලේ	நுவரெலியா	கொத்மலை	MOH அலுவலகம் - கொத்மலை	3 එම් 6 පී+ආර් 63, කොත්මලේ නව නගරය, ශ්‍රී ලංකාව	3M6P+R63, கொத்தமலை புதிய நகரம், இலங்கை
Nuwara Eliya	Mathurata	Denike National College	False	False	NWRLYMTHRTDNKNTNLCLLG		Nuwara Eliya	LK-23	6.97423	80.711222	Maturata	PS-230144	7.079873	80.801871	6.96	80.770172	Gamini College, PBC Hwy, Nuwara Eliya 22200, Sri Lanka	13.785031		නුවරඑලිය	මතුරට	ඩෙනිකේ ජාතික විද්‍යාලය	நுவரெலியா	மதுரதா	டெனிகே தேசியக் கல்லூரி	ගාමිණී විද්‍යාලය, පීබීසී හ්වි, නුවරඑළිය 22200, ශ්‍රී ලංකාව	காமினி கல்லூரி, PBC Hwy, நுவரெலியா 22200, இலங்கை
Nuwara Eliya	Hanguranketa	Victoria National School - Adhikarigama	False	False	NWRLYHNGRNKTVCTRNTNLSCHLDHKRGM		Nuwara Eliya	LK-23	6.97423	80.711222	Hanguranketha	PS-210108	7.176511	80.777388	7.219271	80.786858	Adhikarigama, Mahaweli Raja Mawatha, Sri Lanka	4.869645		නුවරඑලිය	හඟුරන්කැට	වික්ටෝරියා ජාතික පාසල - අධිකාරිගම	நுவரெலியா	ஹங்குரன்கெட்டா	விக்டோரியா தேசிய பள்ளி - அதிகரிகம	අධිකාරිගම, මහවැලි රජ මාවත, ශ්‍රී ලංකාව	அதிகரிகம, மகாவெலி ராஜா மாவத்தை, இலங்கை
Nuwara Eliya	Ragala	T B M Herath Maha Vidyalaya	False	False	NWRLYRGLTBMHRTHMHVDYLY		Nuwara Eliya	LK-23	6.97423	80.711222	Ragala	PS-230142	7.012347	80.858498	7.008783	80.855595	Ragala, Sri Lanka	0.509698		නුවරඑලිය	රාගල	ටී බී එම් හේරත් මහා විද්‍යාලය	நுவரெலியா	ராகலா	டி பி எம் ஹேரத் மகா வித்தியாலயம்	රාගල, ශ්‍රී ලංකාව	ராகலா, இலங்கை
Nuwara Eliya	Nuwara Eliya	MOH Office - Nuwara Eliya	False	False	NWRLYNWRLYMHFFCNWRLY		Nuwara Eliya	LK-23	6.97423	80.711222	Nuwaraeliya	PS-230131	6.974148	80.767627	6.97244	80.78051	XQCJ+X6C, Nuwara Eliya 22200, Sri Lanka	1.435005		නුවරඑලිය	නුවරඑලිය	MOH කාර්යාලය - නුවරඑළිය	நுவரெலியா	நுவரெலியா	MOH அலுவலகம் - நுவரெலியா	XQCJ+X6C, නුවරඑළිය 22200, ශ්‍රී ලංකාව	XQCJ+X6C, நுவரெலியா 22200, இலங்கை
Nuwara Eliya	Kandapola	Kandapola Mahinda Vidyalaya	False	False	NWRLYKNDPLKNDPLMHNDVDYLY		Nuwara Eliya	LK-23	6.97423	80.711222	Kandapola	PS-230135	6.997489	80.823635	6.993379	80.820046	B332, Kandapola, Sri Lanka	0.604971		නුවරඑලිය	කඳපොළ	කඳපොළ මහින්ද විද්‍යාලය	நுவரெலியா	கந்தபொல	கந்தபொல மகிந்த வித்தியாலயம்	බී 322, කඳපොළ, ශ්‍රී ලංකාව	B332, கந்தபொல, இலங்கை
Nuwara Eliya	Pudaluoya	Jayahela Vidyalaya	False	False	NWRLYPDLYJYHLVDYLY		Nuwara Eliya	LK-23	6.97423	80.711222	Pudalu oya	PS-230132	6.907289	79.863819	7.01668	80.668529	2M89+MCC, Pundaluoya, Sri Lanka	89.677066	#CenterFarFromPolice	නුවරඑලිය	පුඩළුඔය	ජයහෙල විද්‍යාලය	நுவரெலியா	புடலுஓயா	ஜெயஹேலா வித்யாலயா	2 එම් 89+එම්සීසී, පුණ්ඩළුඔය, ශ්‍රී ලංකාව	2M89+MCC, புண்டலுஓயா, இலங்கை
Matale	Galewela	Silwathgama Viharaya	False	False	MTLGLWLSLWTHGMVHRY		Matale	LK-22	7.667587	80.731008	Galewela	PS-220129	7.763244	80.574149	7.855404	80.651345	Kandy - Jaffna Hwy, Dambulla, Sri Lanka	13.320981		මාතලේ	ගලේවෙල	සිල්වත්ගම විහාරය	மாத்தளை	கலேவெல	சில்வத்கம விஹாராயா	මහනුවර - යාපනය හ්වි, දඹුල්ල, ශ්‍රී ලංකාව	கண்டி - யாழ்ப்பாணம், தம்புள்ளை, இலங்கை
Matale	Rattota	Kaikawela Central College	False	False	MTLRTTTKKWLCNTRLCLLG		Matale	LK-22	7.667587	80.731008	Rattota	PS-220122	7.520684	80.678809	7.505709	80.663587	B274, kaikawela, Sri Lanka	2.364775		මාතලේ	රත්තොට	කයිකාවල මධ්‍ය විද්‍යාලය	மாத்தளை	ரத்தோட்டா	கைகாவெல மத்திய கல்லூரி	බී 274, කයිකවෙල, ශ්‍රී ලංකාව	பி 274, கைகவேலா, இலங்கை
Matale	Mahawela	Kirimbaruwa Viharaya	False	False	MTLMHWLKRMBRWVHRY		Matale	LK-22	7.667587	80.731008	Mahawela	PS-220123	7.589247	80.61027	7.5875	80.608831	HJQ5+2G4, Matale, Sri Lanka	0.250863		මාතලේ	මහවෙල	කිරිම්බරුව විහාරය	மாத்தளை	மகாவெல	கிரிம்பருவ விகாரை	HJQ5+2G4, මාතලේ, ශ්‍රී ලංකාව	HJQ5+2G4, மாத்தளை, இலங்கை
Matale	Makulugaswewa	Nilagama Viharaya	False	False	MTLMKLGSWWNLGMVHRY		Matale	LK-22	7.667587	80.731008									#PoliceLocationUnknown	මාතලේ	මකුළුගස්වැව	නිලගම විහාරය	மாத்தளை	மகுலுகஸ்வெவ	நிலகம விஹாராயா		
Matale	Dambulla	Dambulla National College	False	False	MTLDMBLLDMBLLNTNLCLLG		Matale	LK-22	7.667587	80.731008	Dambulla	PS-220128	7.86208	80.649166	7.863027	80.646392	Nishshanka Road Link Rd, Dambulla 21100, Sri Lanka	0.323292		මාතලේ	දඹුල්ල	දඹුල්ල ජාතික විද්‍යාලය	மாத்தளை	தம்புள்ளை	தம்புள்ள தேசிய கல்லூரி	නිශ්ශංක පාර සම්බන්ධ පාර, දඹුල්ල 21100, ශ්‍රී ලංකාව	நிஷ்சங்கா சாலை இணைப்பு வீதி, தம்புள்ள 21100, இலங்கை
Matale	Dambulla	MOH Office - Dambulla	False	False	MTLDMBLLMHFFCDMBLL		Matale	LK-22	7.667587	80.731008	Dambulla	PS-220128	7.86208	80.649166	7.870886	80.650631	A36,Bus stand, Dambulla, Sri Lanka	0.992702		මාතලේ	දඹුල්ල	MOH කාර්යාලය - දඹුල්ල	மாத்தளை	தம்புள்ளை	MOH அலுவலகம் - தம்புள்ளை	ඒ 36, බස් නැවතුම, දඹුල්ල, ශ්‍රී ලංකාව	ஏ 36, பேருந்து நிலையம், தம்புள்ளை, இலங்கை
Matale	Naula	MOH Office – Naula	False	False	MTLNLMHFFCNL		Matale	LK-22	7.667587	80.731008	Naula	PS-220126	7.692051	80.64963	7.70502	80.6517	PM42+2M4, Naula, Sri Lanka	1.460473		මාතලේ	නාවුලා	MOH කාර්යාලය - නාඋල	மாத்தளை	நாவுலா	MOH அலுவலகம் - Naula	පීඑම් 42+2 එම් 4, නාඋල, ශ්‍රී ලංකාව	PM42+2M4, நauலா, இலங்கை
Matale	Wilgamuwa	Nugagolla Vidyalaya	False	False	MTLWLGMWNGGLLVDYLY		Matale	LK-22	7.667587	80.731008	Wilgamuwa	PS-220127	7.542012	80.916496	7.503824	80.923539	Nugagolla, Sri Lanka	4.318063		මාතලේ	විල්ගමුව	නුගගොල්ල විද්‍යාලය	மாத்தளை	வில்கமுவா	நுககொல்லா வித்யாலயா	නුගගොල්ල, ශ්‍රී ලංකාව	நுககோல்லா, இலங்கை
Matale	Matale	Aluviharaya	False	False	MTLMTLLVHRY		Matale	LK-22	7.667587	80.731008	Matale	PS-220121	7.462789	80.626211	7.497535	80.624366	Aluvihare, Sri Lanka	3.870144		මාතලේ	මාතලේ	අලුවිහාරය	மாத்தளை	மாத்தளை	அலுவிராய	අළුවිහාරේ, ශ්‍රී ලංකාව	அலுவிஹாரே, இலங்கை
Matale	Matale	Hindu Vidyalaya	False	False	MTLMTLHNDVDYLY		Matale	LK-22	7.667587	80.731008	Matale	PS-220121	7.462789	80.626211	7.4855	80.624027	A9, Matale, Sri Lanka	2.537598		මාතලේ	මාතලේ	හින්දු විද්‍යාලය	மாத்தளை	மாத்தளை	இந்து வித்யாலயா	ඒ 9, මාතලේ, ශ්‍රී ලංකාව	ஏ 9, மாத்தளை, இலங்கை
Matale	Matale	Warakamura	False	False	MTLMTLWRKMR		Matale	LK-22	7.667587	80.731008	Matale	PS-220121	7.462789	80.626211	7.436128	80.62321	Warakamura, Sri Lanka	2.983912		මාතලේ	මාතලේ	වරකාමුර	மாத்தளை	மாத்தளை	வாரகாமுரா	වරකාමුර, ශ්‍රී ලංකාව	வரகமுரா, இலங்கை
Matale	Matale	Annuur Muslim College -Warakamura	False	False	MTLMTLNNRMSLMCLLGWRKMR		Matale	LK-22	7.667587	80.731008	Matale	PS-220121	7.462789	80.626211	7.476746	80.627364	Zahira College Office Building, Matale, Sri Lanka	1.557634		මාතලේ	මාතලේ	අන්නූර් මුස්ලිම් විද්‍යාලය -වරකාමුර	மாத்தளை	மாத்தளை	அன்னூர் முஸ்லிம் கல்லூரி -வரகமுரா	සහිරා විද්‍යාල කාර්යාල ගොඩනැගිල්ල, මාතලේ, ශ්‍රී ලංකාව	ஸாஹிரா கல்லூரி அலுவலக கட்டிடம், மாத்தளை, இலங்கை
Matale	Matale	Udupihilla Maha Vidyalaya	False	False	MTLMTLDPHLLMHVDYLY		Matale	LK-22	7.667587	80.731008	Matale	PS-220121	7.462789	80.626211	7.437811	80.609941	Mt/Sri Saranankara Maha Vidyalaya, Udupihilla, Matale 21000, Sri Lanka	3.307405		මාතලේ	මාතලේ	උඩුපිහිල්ල මහා විද්‍යාලය	மாத்தளை	மாத்தளை	உடுப்பிஹில்லா மகா வித்தியாலயம்	කන්ද/ශ්‍රී සරණංකර මහා විද්‍යාලය, උඩුපිහිල්ල, මාතලේ 21000, ශ්‍රී ලංකාව	மவுண்ட்/ஸ்ரீ சரணங்கர மகா வித்தியாலயம், உடுப்பிஹில்லா, மாத்தளை 21000, இலங்கை
Matale	Yatawatta	Dullewa Maha Vidyalaya	False	False	MTLYTWTTDLLWMHVDYLY		Matale	LK-22	7.667587	80.731008	Yatawatta	PS-220124	7.563527	80.567967	7.507898	80.597512	GH5X+522, Matale, Sri Lanka	6.992881		මාතලේ	යටවත්ත	දුල්ලෑව මහා විද්‍යාලය	மாத்தளை	யதவத்த	துல்லேவா மகா வித்தியாலயம்	GH5X+522, මාතලේ, ශ්‍රී ලංකාව	GH5X+522, மாத்தளை, இலங்கை
Badulla	Girandurukotte	Girandurukotte Hospital	False	False	BDLLGRNDRKTTGRNDRKTTHSPTL		Badulla	LK-81	7.074529	81.04486	Giradurukotte	PS-810106	7.469138	81.016938	7.469386	81.019097	F299+QJ5, Girandurukotte, Sri Lanka	0.2397		බදුල්ල	ගිරාඳුරුකෝට්ටේ	ගිරාඳුරුකෝට්ටේ රෝහල	பதுளை	கிரந்துருகோட்டே	கிரந்துருகோட்டை மருத்துவமனை	F299+QJ5, ගිරාඳුරුකෝට්ටේ, ශ්‍රී ලංකාව	F299+QJ5, கிரந்துருகோட்டை, இலங்கை
Badulla	Bandarawela	Town Hall - Bandarawela	False	False	BDLLBNDRWLTWNHLLBNDRWL		Badulla	LK-81	7.074529	81.04486	Bandarawela	PS-810210	6.831526	80.986784	6.83182	80.987414	32/9 Esplanade Rd, Bandarawela, Sri Lanka	0.076879		බදුල්ල	බණ්ඩාරවෙල	නගර ශාලාව - බණ්ඩාරවෙල	பதுளை	பண்டாரவளை	டவுன் ஹால் - பண்டாரவளை	32/9 එස්ප්ලනාඩ් පාර, බණ්ඩාරවෙල, ශ්‍රී ලංකාව	32/9 எஸ்ப்ளனேட் சாலை, பண்டாரவளை, இலங்கை
Badulla	Bandarawela	Kirioruwa Vidyalaya	False	False	BDLLBNDRWLKRRWVDYLY		Badulla	LK-81	7.074529	81.04486	Bandarawela	PS-810210	6.831526	80.986784	6.863648	80.993754	VX7V+FG2, Bandarawela, Sri Lanka	3.6549		බදුල්ල	බණ්ඩාරවෙල	කිරිඔරුව විද්‍යාලය	பதுளை	பண்டாரவளை	கிரியோருவ வித்யாலயா	VX7V+FG2, බණ්ඩාරවෙල, ශ්‍රී ලංකාව	VX7V+FG2, பண்டாரவளை, இலங்கை
Badulla	Bandarawela	Dulgolla Vidyalaya	False	False	BDLLBNDRWLDLGLLVDYLY		Badulla	LK-81	7.074529	81.04486	Bandarawela	PS-810210	6.831526	80.986784	6.830621	80.992983	RXJV+65X, Bandarawela, Sri Lanka	0.692089		බදුල්ල	බණ්ඩාරවෙල	දුල්ගොල්ල විද්‍යාලය	பதுளை	பண்டாரவளை	துல்கொல்லா வித்யாலயா	RXJV+65X, බණ්ඩාරවෙල, ශ්‍රී ලංකාව	RXJV+65X, பண்டாரவளை, இலங்கை
Badulla	Haldummulla	MOH Office - Haldummulla	False	False	BDLLHLDMMLLMHFFCHLDMMLL		Badulla	LK-81	7.074529	81.04486	Haldummulla		6.762216	80.885856	6.761089	80.876292	QV6G+CGM, Badulla, Sri Lanka	1.063814		බදුල්ල	හල්දුම්මුල්ල	MOH කාර්යාලය - හල්දුම්මුල්ල	பதுளை	ஹல்தும்முல்லா	MOH அலுவலகம் - ஹல்தும்முல்லா	QV6G+CGM, බදුල්ල, ශ්‍රී ලංකාව	QV6G+CGM, பதுளை, இலங்கை
Badulla	Haldummulla	Haldummulla Hospital	False	False	BDLLHLDMMLLHLDMMLLHSPTL		Badulla	LK-81	7.074529	81.04486	Haldummulla		6.762216	80.885856	6.758168	80.879938	Colombo - Ratnapura - Wellawaya - Batticaloa Rd, Sri Lanka	0.793746		බදුල්ල	හල්දුම්මුල්ල	හල්දුම්මුල්ල රෝහල	பதுளை	ஹல்தும்முல்லா	ஹல்துமுல்லா மருத்துவமனை	කොළඹ - රත්නපුර - වැල්ලවාය - මඩකලපුව පාර, ශ්‍රී ලංකාව	கொழும்பு - இரத்தினபுரி - வெள்ளவாய - மட்டக்களப்பு வீதி, இலங்கை
Badulla	Uva Paranagama	District Hospital - Uva Paranagama	False	False	BDLLVPRNGMDSTRCTHSPTLVPRNGM		Badulla	LK-81	7.074529	81.04486	Uvaparanagama	PS-810213	6.958341	80.930364	6.938076	80.890525	Rendapola-Galahagama-Ambagasdowa Rd, Himbiliyagahamadiththa, Sri Lanka	4.942648		බදුල්ල	Vaව පරණගම	දිසා රෝහල - vaව පරණගම	பதுளை	ஊவ பரணகம	மாவட்ட மருத்துவமனை - ஊவா பரணகம	රෙන්ඳපොල-ගලහගම-අඹගස්දෝව පාර, හිම්බිලියගහමදිත්ත, ශ්‍රී ලංකාව	ரெண்டபொல-கலஹகம-அம்பகஸ்தோவ வீதி, ஹிம்பிலியகஹமாதித்த, இலங்கை
Badulla	Welimada	Girimbe Vidyalaya	False	False	BDLLWLMDGRMBVDYLY		Badulla	LK-81	7.074529	81.04486	Welimada	PS-810212	6.900481	80.905809	6.900188	80.906947	Peradeniya-Badulla-Chenkaladi Hwy, Welimada, Sri Lanka	0.12982		බදුල්ල	වැලිමඞ	ගිරිඹේ විද්‍යාලය	பதுளை	வெலிமடா	கிரிம்பே வித்யாலயா	පේරාදෙණිය-බදුල්ල-චෙන්කලාඩි හ්වි, වැලිමඩ, ශ්‍රී ලංකාව	பேராதனை-பதுளை-செங்கலடி ஹ்வி, வெலிமடா, இலங்கை
Badulla	Welimada	YWCA Hall	False	False	BDLLWLMDYWCHLL		Badulla	LK-81	7.074529	81.04486	Welimada	PS-810212	6.900481	80.905809	6.902423	80.90244	Peradeniya-Badulla-Chenkaladi Hwy, Sri Lanka	0.430183		බදුල්ල	වැලිමඞ	YWCA ශාලාව	பதுளை	வெலிமடா	YWCA மண்டபம்	පේරාදෙණිය-බදුල්ල-චෙන්කලාඩි හ්වි, ශ්‍රී ලංකාව	பேராதனை-பதுளை-செங்கலடி ஹ்வி, இலங்கை
Badulla	Welimada	Bogahakumbura Hospital	False	False	BDLLWLMDBGHKMBRHSPTL		Badulla	LK-81	7.074529	81.04486	Welimada	PS-810212	6.900481	80.905809	6.862306	80.875527	B48, Sri Lanka	5.404861		බදුල්ල	වැලිමඞ	බෝගහකුඹුර රෝහල	பதுளை	வெலிமடா	போகஹகும்புரா மருத்துவமனை	බී 48, ශ්‍රී ලංකාව	பி 48, இலங்கை
Badulla	Haputale	Kahaththawela Vidyalaya	False	False	BDLLHPTLKHTHTHWLVDYLY		Badulla	LK-81	7.074529	81.04486	Haputale	PS-810215	6.767653	80.957218	6.768414	80.962064	QX96+9R8, Haputale, Sri Lanka	0.541915		බදුල්ල	හපුතලේ	කහත්තවෙල විද්‍යාලය	பதுளை	ஹப்புதலே	கஹத்தவெல வித்தியாலயம்	QX96+9R8, හපුතලේ, ශ්‍රී ලංකාව	QX96+9R8, ஹப்புத்தளை, இலங்கை
Badulla	Haputale	Haputale Hospital	False	False	BDLLHPTLHPTLHSPTL		Badulla	LK-81	7.074529	81.04486	Haputale	PS-810215	6.767653	80.957218	6.772723	80.956317	Haputale -Bandarawela, Diyatalawa, Sri Lanka	0.57263		බදුල්ල	හපුතලේ	හපුතලේ රෝහල	பதுளை	ஹப்புதலே	ஹப்புத்தளை மருத்துவமனை	හපුතලේ -බණ්ඩාරවෙල, දියතලාව, ශ්‍රී ලංකාව	ஹப்புதலே -பண்டாரவளை, தியத்தலாவ, இலங்கை
Badulla	Haputale	Yahalabedda Hospital	False	False	BDLLHPTLYHLBDDHSPTL		Badulla	LK-81	7.074529	81.04486	Haputale	PS-810215	6.767653	80.957218	6.778743	80.937291	Boralanda Road, 90150, Sri Lanka	2.523104		බදුල්ල	හපුතලේ	යහලබැද්ද රෝහල	பதுளை	ஹப்புதலே	யஹலபெத்த மருத்துவமனை	බොරලන්ද පාර, 90150, ශ්‍රී ලංකාව	போரலாந்தா சாலை, 90150, இலங்கை
Badulla	Haputale	Town Hall – Haputale	False	False	BDLLHPTLTWNHLLHPTL		Badulla	LK-81	7.074529	81.04486	Haputale	PS-810215	6.767653	80.957218	6.768965	80.959255	Station Rd, Haputale, Sri Lanka	0.268271		බදුල්ල	හපුතලේ	පුරහල - හපුතලේ	பதுளை	ஹப்புதலே	டவுன் ஹால் - ஹப்புத்தளை	දුම්රිය ස්ථානය, හපුතලේ, ශ්‍රී ලංකාව	ஸ்டேஷன் ஆர்ட், ஹப்புதலே, இலங்கை
Badulla	Haputale	Pitarathmale Vidyalaya	False	False	BDLLHPTLPTRTHMLVDYLY		Badulla	LK-81	7.074529	81.04486	Haputale	PS-810215	6.767653	80.957218	6.78509	80.996105	QXPW+2CQ, Bandarawela, Sri Lanka	4.712778		බදුල්ල	හපුතලේ	පිටරත්මලේ විද්‍යාලය	பதுளை	ஹப்புதலே	பிதரத்மலே வித்யாலயா	QXPW+2CQ, බණ්ඩාරවෙල, ශ්‍රී ලංකාව	QXPW+2CQ, பண்டாரவளை, இலங்கை
Badulla	Ella	Ella Vidyalaya	False	False	BDLLLLLLVDYLY		Badulla	LK-81	7.074529	81.04486	Ella	PS-810211	6.876609	81.048276	6.873531	81.052607	Passara Rd, Bandarawela, Sri Lanka	0.588183		බදුල්ල	ඇලා	ඇල්ල විද්‍යාලය	பதுளை	எல்ல	எல்ல வித்யாலயா	පස්සර පාර, බණ්ඩාරවෙල, ශ්‍රී ලංකාව	பசர வீதி, பண்டாரவளை, இலங்கை
Badulla	Ella	Demodara Hospital	False	False	BDLLLLDMDRHSPTL		Badulla	LK-81	7.074529	81.04486	Ella	PS-810211	6.876609	81.048276	6.900561	81.057232	W324+6VH, Demodara, Sri Lanka	2.841818		බදුල්ල	ඇලා	දෙමෝදර රෝහල	பதுளை	எல்ல	தெமோதரா மருத்துவமனை	ඩබ්ලිව් 324+6 වීඑච්, දෙමෝදර, ශ්‍රී ලංකාව	W324+6VH, தெமோதரா, இலங்கை
Badulla	Mahiyanganaya	Dambana Hospital	False	False	BDLLMHYNGNYDMBNHSPTL		Badulla	LK-81	7.074529	81.04486	Mahiyangane	PS-810105	7.334975	80.993108	7.396058	81.121672	94WC+CMF, Badulla, Sri Lanka	15.725627		බදුල්ල	මහියංගනය	දඹාන රෝහල	பதுளை	மஹியங்கனாய	தம்பனா மருத்துவமனை	94WC+CMF, බදුල්ල, ශ්‍රී ලංකාව	94WC+CMF, பதுளை, இலங்கை
Badulla	Passara	Medawelagama Maha Vidyalaya	False	False	BDLLPSSRMDWLGMMHVDYLY		Badulla	LK-81	7.074529	81.04486	Passara	PS-810102	6.934481	81.154796	6.940187	81.167598	Peradeniya-Badulla-Chenkaladi Hwy, Passara 90500, Sri Lanka	1.549487		බදුල්ල	පස්සර	මැදවෙලගම මහා විද්‍යාලය	பதுளை	பசர	மேடவெலகம மகா வித்தியாலயம்	පේරාදෙණිය-බදුල්ල-චෙන්කලාඩි හ්වි, පස්සර 90500, ශ්‍රී ලංකාව	பேராதெனிய-பதுல்லா-செங்கலடி Hwy, பசறை 90500, இலங்கை
Badulla	Passara	Bibilegama Hospital	False	False	BDLLPSSRBBLGMHSPTL		Badulla	LK-81	7.074529	81.04486	Passara	PS-810102	6.934481	81.154796	6.895098	81.14174	Bibilegama Rd, Passara, Sri Lanka	4.611693		බදුල්ල	පස්සර	බිබිලේගම රෝහල	பதுளை	பசர	பிபிலேகம மருத்துவமனை	බිබිලේගම පාර, පස්සර, ශ්‍රී ලංකාව	பிபிலேகம வீதி, பசர, இலங்கை
Badulla	Passara	Meedumpitiya Hospital	False	False	BDLLPSSRMDMPTYHSPTL		Badulla	LK-81	7.074529	81.04486	Passara	PS-810102	6.934481	81.154796	6.945576	81.190338	Peradeniya-Badulla-Chenkaladi Hwy, Sri Lanka	4.113834		බදුල්ල	පස්සර	මීදුම්පිටිය රෝහල	பதுளை	பசர	மீடும்பிட்டிய மருத்துவமனை	පේරාදෙණිය-බදුල්ල-චෙන්කලාඩි හ්වි, ශ්‍රී ලංකාව	பேராதனை-பதுளை-செங்கலடி ஹ்வி, இலங்கை
Badulla	Passara	Kanawerella Hospital	False	False	BDLLPSSRKNWRLLHSPTL		Badulla	LK-81	7.074529	81.04486	Passara	PS-810102	6.934481	81.154796	6.933517	81.152592	Demodera - Spring Valley - Badulla Road, Passara, Sri Lanka	0.265888		බදුල්ල	පස්සර	කනවැරැල්ල රෝහල	பதுளை	பசர	கானவெரெல்லா மருத்துவமனை	දෙමෝදර - වසන්ත නිම්නය - බදුල්ල පාර, පස්සර, ශ්‍රී ලංකාව	டெமோடெரா - வசந்த பள்ளத்தாக்கு - பதுல்லா சாலை, பசாரா, இலங்கை
Badulla	Passara	Eltab Clinic	False	False	BDLLPSSRLTBCLNC		Badulla	LK-81	7.074529	81.04486	Passara	PS-810102	6.934481	81.154796	6.933352	81.149887	149A Badulla road, Passara 90500, Sri Lanka	0.556391		බදුල්ල	පස්සර	එල්ටාබ් සායනය	பதுளை	பசர	எல்டாப் கிளினிக்	149 ඒ බදුල්ල පාර, පස්සර 90500, ශ්‍රී ලංකාව	149A பதுல்லா சாலை, பசரா 90500, இலங்கை
Badulla	Passara	Ury Hospital	False	False	BDLLPSSRRYHSPTL		Badulla	LK-81	7.074529	81.04486	Passara	PS-810102	6.934481	81.154796	6.94256	81.126231	W4VG+2FH, Pelgahatenna, Sri Lanka	3.279529		බදුල්ල	පස්සර	යූරි රෝහල	பதுளை	பசர	யூரி மருத்துவமனை	ඩබ්ලිව් 4 වීජී+2 එෆ්එච්, පැල්ගහතැන්න, ශ්‍රී ලංකාව	W4VG+2FH, பெல்கஹதென்ன, இலங்கை
Badulla	Passara	Kahataruppa Hospital	False	False	BDLLPSSRKHTRPPHSPTL		Badulla	LK-81	7.074529	81.04486	Passara	PS-810102	6.934481	81.154796	7.02379	81.116022	Muthumala - Kahataruppa Rd, Sri Lanka	10.816965		බදුල්ල	පස්සර	කහටරුප්ප රෝහල	பதுளை	பசர	கஹடருப்பா மருத்துவமனை	මුතුමල - කහටරුප්ප පාර, ශ්‍රී ලංකාව	முத்துமாலா - கஹதருப்பா வீதி, இலங்கை
Badulla	Badulla	Kandegolla Vidyalaya	False	False	BDLLBDLLKNDGLLVDYLY		Badulla	LK-81	7.074529	81.04486	Badulla	PS-810101	6.991337	81.055246	7.003669	81.095163	233W+F37, Kendagolla, Sri Lanka	4.615431		බදුල්ල	බදුල්ල	කන්දේගොල්ල විද්‍යාලය	பதுளை	பதுளை	கண்டேகொல்லா வித்தியாலயம்	233W+F37, කෙන්දගොල්ල, ශ්‍රී ලංකාව	233W+F37, கெண்டகொல்லா, இலங்கை
Badulla	Badulla	Hegoda Community Hall	False	False	BDLLBDLLHGDCMMNTYHLL		Badulla	LK-81	7.074529	81.04486	Badulla	PS-810101	6.991337	81.055246	7.001622	81.059928	Kshethrarama Road, Badulla, Sri Lanka	1.255356		බදුල්ල	බදුල්ල	හෑගොඩ ප්‍රජා ශාලාව	பதுளை	பதுளை	ஹெகொட சமூக மண்டபம்	ක්ෂේත්‍රාරාම පාර, බදුල්ල, ශ්‍රී ලංකාව	க்ஷேத்ரராம சாலை, பதுளை, இலங்கை
Badulla	Badulla	Udawela Vidyalaya	False	False	BDLLBDLLDWLVDYLY		Badulla	LK-81	7.074529	81.04486	Badulla	PS-810101	6.991337	81.055246	6.976003	81.08561	Udawela, Passara Road, Peradeniya-Badulla-Chenkaladi Hwy, Sri Lanka	3.76127		බදුල්ල	බදුල්ල	උඩවෙල විද්‍යාලය	பதுளை	பதுளை	உடவெல வித்யாலயா	උඩවෙල, පස්සර පාර, පේරාදෙණිය-බදුල්ල-චෙන්කලාඩි හ්වි, ශ්‍රී ලංකාව	உடவெல, பசர சாலை, பேராதெனிய-பதுல்லா-செங்கலடி Hwy, இலங்கை
Monaragala	Wellawaya	Weherayaya Maha Vidyalaya	False	False	MNRGLWLLWYWHRYYMHVDYLY		Moneragala	LK-82	6.787517	81.303744	wellawaya	PS-820130	6.730804	81.100708	6.635121	81.113894	J4P7+2HR, Telulla, Sri Lanka	10.742034		මොනරාගල	වැල්ලවාය	වෙහෙරයාය මහා විද්‍යාලය	மொனராகலை	வெள்ளவாயா	வெஹராயாய மகா வித்தியாலயம்	J4P7+2HR, තෙලුල්ල, ශ්‍රී ලංකාව	J4P7+2HR, தெல்லுல்லா, இலங்கை
Monaragala	Dambagalla	Madulla Central College	False	False	MNRGLDMBGLLMDLLCNTRLCLLG		Moneragala	LK-82	6.787517	81.303744	Dambagalla	PS-820123	6.978806	81.372037	6.98417	81.374688	Dambagalla,Monaragala, Sri Lanka	0.66456		මොනරාගල	දඹගල්ල	මඩුල්ල මධ්‍ය විද්‍යාලය	மொனராகலை	தம்பகல்லா	மடுல்லா மத்திய கல்லூரி	දඹගල්ල, මොනරාගල, ශ්‍රී ලංකාව	தம்பகல்லா, மொனராகலை, இலங்கை
Monaragala	Dambagalla	Thampalawela Sewa Piyasa	False	False	MNRGLDMBGLLTHMPLWLSWPYS		Moneragala	LK-82	6.787517	81.303744	Dambagalla	PS-820123	6.978806	81.372037	6.95	81.366667	Dambagalla, Sri Lanka	3.258481		මොනරාගල	දඹගල්ල	තම්පලාවල සේවා පියස	மொனராகலை	தம்பகல்லா	தம்பலாவெல சேவா பியசா	දඹගල්ල, ශ්‍රී ලංකාව	தம்பகல்லா, இலங்கை
Monaragala	Dambagalla	Elpitiya Maha Vidyalaya	False	False	MNRGLDMBGLLLPTYMHVDYLY		Moneragala	LK-82	6.787517	81.303744	Dambagalla	PS-820123	6.978806	81.372037	7.873054	80.771797	Sri Lanka	119.484951	#CenterFarFromPolice	මොනරාගල	දඹගල්ල	ඇල්පිටිය මහා විද්‍යාලය	மொனராகலை	தம்பகல்லா	எல்பிட்டிய மகா வித்தியாலயம்	ශ්රී ලංකාව	இலங்கை
Monaragala	Kataragama	Mathikamatha Hall	False	False	MNRGLKTRGMMTHKMTHHLL		Moneragala	LK-82	6.787517	81.303744	Kataragama	PS-330159	6.41352	81.331368	6.418507	81.333278	Main Office Ruhunu Maha Kataragama Dewalaya, Kataragama 91400, Sri Lanka	0.59352		මොනරාගල	කතරගම	මතිකාමතා ශාලාව	மொனராகலை	கதிர்காமம்	மத்திகமாதா மண்டபம்	ප්‍රධාන කාර්යාලය රුහුණු මහා කතරගම දේවාලය, කතරගම 91400, ශ්‍රී ලංකාව	பிரதான அலுவலகம் ருஹுனு மகா கதிர்காம தேவாலயா, கதிர்காம 91400, இலங்கை
Monaragala	Kataragama	Gothamigama Primary School	False	False	MNRGLKTRGMGTHMGMPRMRYSCHL		Moneragala	LK-82	6.787517	81.303744	Kataragama	PS-330159	6.41352	81.331368	6.435258	81.331831	C8PJ+4P4, Kataragama, Sri Lanka	2.418456		මොනරාගල	කතරගම	ගෝතමිගම ප්‍රාථමික විද්‍යාලය	மொனராகலை	கதிர்காமம்	கோத்தமிகம தொடக்கப்பள்ளி	C8PJ+4P4, කතරගම, ශ්‍රී ලංකාව	C8PJ+4P4, கதிர்காமம், இலங்கை
Monaragala	Kudaoya	Kudaoya Vidyalaya	False	False	MNRGLKDYKDYVDYLY		Moneragala	LK-82	6.787517	81.303744	Kudaoya	PS-820134	6.523777	81.123696	6.528089	81.125799	Wellawaya Road, A2, Kuda Oya, Sri Lanka	0.532962		මොනරාගල	කුඩාඔය	කුඩාඔය විද්‍යාලය	மொனராகலை	குடோயா	குடோயா வித்யாலயா	වැල්ලවාය පාර, ඒ 2, කුඩා ඔය, ශ්‍රී ලංකාව	வெள்ளவாய சாலை, A2, குட ஓயா, இலங்கை
Monaragala	Kudaoya	Theilla Viharaya	False	False	MNRGLKDYTHLLVHRY		Moneragala	LK-82	6.787517	81.303744	Kudaoya	PS-820134	6.523777	81.123696	6.531545	81.122881	Kuda Oya Cottages, Uva, Kuda Oya, Kuda Oya, 91000, Kuda Oya 91000, Sri Lanka	0.868715		මොනරාගල	කුඩාඔය	තියෙයිලා විහාරය	மொனராகலை	குடோயா	தில்லா விஹாராயா	කුඩා ඔය ගෘහ, vaව, කුඩා ඔය, කුඩා ඔය, 91000, කුඩා ඔය 91000, ශ්‍රී ලංකාව	குட ஓயா குடிசைகள், ஊவா, குட ஓயா, குட ஓயா, 91000, குட ஓயா 91000, இலங்கை
Monaragala	Hambegamuwa	Kotaweheramankada Vidyalaya	False	False	MNRGLHMBGMWKTWHRMNKDVDYLY		Moneragala	LK-82	6.787517	81.303744	Hambegamuwa	PS-820132	6.545791	80.947866	6.539485	80.948994	Bodagama-Hambegamuwa-Kaltota Rd, Sri Lanka	0.712405		මොනරාගල	හම්බෙගමුව	කොටවෙහෙරමන්කඩ විද්‍යාලය	மொனராகலை	ஹம்பேகமுவா	கொட்டவெஹெராமன்கடா வித்தியாலயம்	බෝදාගම-හම්බෙගමුව-කල්තොට පාර, ශ්‍රී ලංකාව	போடகம-ஹம்பேகமுவா-கல்தோடா சாலை, இலங்கை
Monaragala	Hambegamuwa	Laginagala Vidyalaya	False	False	MNRGLHMBGMWLGNGLVDYLY		Moneragala	LK-82	6.787517	81.303744	Hambegamuwa	PS-820132	6.545791	80.947866	6.534546	80.959523	Janapadaya Junction, Bodagama-Hambegamuwa-Kaltota Rd, Sri Lanka	1.795502		මොනරාගල	හම්බෙගමුව	ලගිනගල විද්‍යාලය	மொனராகலை	ஹம்பேகமுவா	லாகினகலா வித்யாலயா	ජනපදය හන්දිය, බෝඩගම-හම්බෙගමුව-කල්තොට පාර, ශ්‍රී ලංකාව	ஜனபதாய சந்தி, போடகம-ஹம்பேகமுவா-கல்தோடா சாலை, இலங்கை
Monaragala	Hambegamuwa	Aluthwewa Primary School	False	False	MNRGLHMBGMWLTHWWPRMRYSCHL		Moneragala	LK-82	6.787517	81.303744	Hambegamuwa	PS-820132	6.545791	80.947866	6.58493	80.92818	Bodagama-Hambegamuwa-Kaltota Rd, Sri Lanka	4.86665		මොනරාගල	හම්බෙගමුව	අළුත්වැව ප්‍රාථමික විද්‍යාලය	மொனராகலை	ஹம்பேகமுவா	அளுத்வெவ ஆரம்பப் பள்ளி	බෝදාගම-හම්බෙගමුව-කල්තොට පාර, ශ්‍රී ලංකාව	போடகம-ஹம்பேகமுவா-கல்தோடா சாலை, இலங்கை
Monaragala	Thanamalwila	Kahakurullanpelessa Primary School	False	False	MNRGLTHNMLWLKHKRLLNPLSSPRMRYSCHL		Moneragala	LK-82	6.787517	81.303744	Thanamalwila	PS-820131	6.437696	81.131051	6.440337	81.130949	A2, Thanamalwila, Sri Lanka	0.293974		මොනරාගල	තණමල්විල	කහකුරුල්ලන්පැලැස්ස ප්‍රාථමික විද්‍යාලය	மொனராகலை	தனமல்வில	கஹாகுருல்லன்பெலெஸ்ஸா ஆரம்பப் பள்ளி	ඒ 2, තණමල්විල, ශ්‍රී ලංකාව	A2, தனமல்வில, இலங்கை
Monaragala	Thanamalwila	Kithulkote Vidyalaya	False	False	MNRGLTHNMLWLKTHLKTVDYLY		Moneragala	LK-82	6.787517	81.303744	Thanamalwila	PS-820131	6.437696	81.131051	6.428482	81.100816	Sri Lanka	3.49548		මොනරාගල	තණමල්විල	කිතුල්කොටේ විද්‍යාලය	மொனராகலை	தனமல்வில	கித்துல்கோட் வித்யாலயா	ශ්රී ලංකාව	இலங்கை
Monaragala	Thanamalwila	Balaharuwa Vidyalaya	False	False	MNRGLTHNMLWLBLHRWVDYLY		Moneragala	LK-82	6.787517	81.303744	Thanamalwila	PS-820131	6.437696	81.131051	6.566306	81.046303	Balaharuwa, Uva-kudaoya, Sri Lanka, 91200, Sri Lanka	17.098485		මොනරාගල	තණමල්විල	බලහරුව විද්‍යාලය	மொனராகலை	தனமல்வில	பாலஹருவா வித்யாலயா	බලහරුව, vaව-කුඩාඔය, ශ්‍රී ලංකාව, 91200, ශ්‍රී ලංකාව	பலஹருவா, ஊவா-குடோயா, இலங்கை, 91200, இலங்கை
Monaragala	Badalkumbura	Nishshanka National College	False	False	MNRGLBDLKMBRNSHSHNKNTNLCLLG		Moneragala	LK-82	6.787517	81.303744	Badalkumbura	PS-820128	6.889017	81.235441	6.892079	81.237627	Mo/ Nissanka National School, Buttala Rd, Badalkumbura, Sri Lanka	0.417455		මොනරාගල	බඩල්කුඹුර	නිශ්ශංක ජාතික විද්‍යාලය	மொனராகலை	படல்கும்புரா	நிஷங்க தேசிய கல்லூரி	මා/ නිශ්ශංක ජාතික පාසල, බුත්තල පාර, බඩල්කුඹුර, ශ්‍රී ලංකාව	மோ/ நிசங்க தேசிய பள்ளி, புத்தலா சாலை, படல்கும்புரா, இலங்கை
Monaragala	Medagama	Nannapura Vidyalaya	False	False	MNRGLMDGMNNNPRVDYLY		Moneragala	LK-82	6.787517	81.303744	Medagama	PS-820126	7.033608	81.276708	7.031205	81.276445	Moneragala Road,Medagama, B56, Monaragala 91550, Sri Lanka	0.268858		මොනරාගල	මැදගම	නන්නපුර විද්‍යාලය	மொனராகலை	மேடகம	நன்னாபுரா வித்யாலயா	මොනරාගල පාර, මැදගම, බී 56, මොනරාගල 91550, ශ්‍රී ලංකාව	மொனராகல சாலை, மேடகம, பி 56, மொனராகலை 91550, இலங்கை
Monaragala	Medagama	Medagama National College	False	False	MNRGLMDGMMDGMNTNLCLLG		Moneragala	LK-82	6.787517	81.303744	Medagama	PS-820126	7.033608	81.276708	7.031205	81.276445	Moneragala Road,Medagama, B56, Monaragala 91550, Sri Lanka	0.268858		මොනරාගල	මැදගම	මැදගම ජාතික විද්‍යාලය	மொனராகலை	மேடகம	மெடகம தேசிய கல்லூரி	මොනරාගල පාර, මැදගම, බී 56, මොනරාගල 91550, ශ්‍රී ලංකාව	மொனராகல சாலை, மேடகம, பி 56, மொனராகலை 91550, இலங்கை
Monaragala	Medagama	Dahagoniaya Vidyalaya	False	False	MNRGLMDGMDHGNYVDYLY		Moneragala	LK-82	6.787517	81.303744	Medagama	PS-820126	7.033608	81.276708	7.031205	81.276445	Moneragala Road,Medagama, B56, Monaragala 91550, Sri Lanka	0.268858		මොනරාගල	මැදගම	දහගොනිය විද්‍යාලය	மொனராகலை	மேடகம	தஹகோனியா வித்யாலயா	මොනරාගල පාර, මැදගම, බී 56, මොනරාගල 91550, ශ්‍රී ලංකාව	மொனராகல சாலை, மேடகம, பி 56, மொனராகலை 91550, இலங்கை
Monaragala	Medagama	Thambana Vidyalaya	False	False	MNRGLMDGMTHMBNVDYLY		Moneragala	LK-82	6.787517	81.303744	Medagama	PS-820126	7.033608	81.276708	7.061966	81.357426	3964+QXM, Monaragala, Sri Lanka	9.452236		මොනරාගල	මැදගම	තම්බන විද් යාලය	மொனராகலை	மேடகம	தம்பனா வித்யாலயா	3964+QXM, මොනරාගල, ශ්‍රී ලංකාව	3964+QXM, மொனராகலை, இலங்கை
Moneragala	Bibila	Wegama Vidyalaya	False	False	MNRGLBBLWGMVDYLY		Moneragala	LK-82	6.787517	81.303744	Bibila	PS-820125	7.165232	81.225463	7.031205	81.276445	Moneragala Road,Medagama, B56, Monaragala 91550, Sri Lanka	15.934508		මොණරාගල	බිබිල	වෑගම විද්‍යාලය	மொனராகலை	பிபிலா	வேகமா வித்யாலயா	මොනරාගල පාර, මැදගම, බී 56, මොනරාගල 91550, ශ්‍රී ලංකාව	மொனராகல சாலை, மேடகம, பி 56, மொனராகலை 91550, இலங்கை
Moneragala	Bibila	Samadhi Resort	False	False	MNRGLBBLSMDHRSRT		Moneragala	LK-82	6.787517	81.303744	Bibila	PS-820125	7.165232	81.225463	7.158847	81.19934	No.96A, Bibile 91500, Sri Lanka	2.969174		මොණරාගල	බිබිල	සමාධි නිවාඩු නිකේතනය	மொனராகலை	பிபிலா	சமாதி ரிசார்ட்	අංක 96 ඒ, බිබිලේ 91500, ශ්‍රී ලංකාව	எண் .96 ஏ, பிபில் 91500, இலங்கை
Moneragala	Bibila	Kotagama Viharaya	False	False	MNRGLBBLKTGMVHRY		Moneragala	LK-82	6.787517	81.303744	Bibila	PS-820125	7.165232	81.225463	7.132273	81.183688	Bibile - kotagama, Badullagammana Rd, Sri Lanka	5.890373		මොණරාගල	බිබිල	කොටගම විහාරය	மொனராகலை	பிபிலா	கொட்டகம விஹாராயா	බිබිලේ - කොටගම, බදුල්ලගම්මන පාර, ශ්‍රී ලංකාව	பிபிலே - கொட்டகம, பதுல்லகம்மானா சாலை, இலங்கை
Moneragala	Bibila	Mallehewa Vidyalaya	False	False	MNRGLBBLMLLHWVDYLY		Moneragala	LK-82	6.787517	81.303744	Bibila	PS-820125	7.165232	81.225463	7.162409	81.22159	Bibile, Sri Lanka	0.530371		මොණරාගල	බිබිල	මල්ලේහේවා විද්‍යාලය	மொனராகலை	பிபிலா	மல்லேஹேவா வித்தியாலயம்	බිබිලේ, ශ්‍රී ලංකාව	பிபிலே, இலங்கை
Moneragala	Buttala	Viharamahadevi Primary School	False	False	MNRGLBTTLVHRMHDVPRMRYSCHL		Moneragala	LK-82	6.787517	81.303744	Buttala	PS-820127	6.762499	81.250445	6.640574	81.189278	J5RQ+6PC, මොණරාගල, Sri Lanka	15.151837		මොණරාගල	බුත්තල	විහාරමහාදේවි ප්‍රාථමික විද්‍යාලය	மொனராகலை	புத்தலா	விஹாரமஹாதேவி தொடக்கப்பள்ளி	J5RQ+6PC, මොනරාගල, ශ්‍රී ලංකාව	J5RQ+6PC, மோனராங்கள, இலங்கை
Moneragala	Buttala	Buttala Hospital	False	False	MNRGLBTTLBTTLHSPTL		Moneragala	LK-82	6.787517	81.303744	Buttala	PS-820127	6.762499	81.250445	6.75781	81.239724	Colombo - Batticaloa Hwy, Buttala, Sri Lanka	1.293971		මොණරාගල	බුත්තල	බුත්තල රෝහල	மொனராகலை	புத்தலா	புத்தலா மருத்துவமனை	කොළඹ - මඩකලපුව හ්වි, බුත්තල, ශ්‍රී ලංකාව	கொழும்பு - மட்டக்களப்பு Hwy, புத்தலா, இலங்கை
Moneragala	Buttala	Kukuranpola Maha Vidyalaya	False	False	MNRGLBTTLKKRNPLMHVDYLY		Moneragala	LK-82	6.787517	81.303744	Buttala	PS-820127	6.762499	81.250445	6.761476	81.247194	Q66W+HVW, Buttala, Sri Lanka	0.37669		මොණරාගල	බුත්තල	කුකුරන්පොල මහා විද්‍යාලය	மொனராகலை	புத்தலா	குக்குரன்பொல மகா வித்தியாலயம்	Q66W+HVW, බුත්තල, ශ්‍රී ලංකාව	Q66W+HVW, புத்தலா, இலங்கை
Moneragala	Buttala	Pelwatta Maha Vidyalaya	False	False	MNRGLBTTLPLWTTMHVDYLY		Moneragala	LK-82	6.787517	81.303744	Buttala	PS-820127	6.762499	81.250445	6.747501	81.194213	A4, Pelwatta, Sri Lanka	6.431383		මොණරාගල	බුත්තල	පැල්වත්ත මහා විද්‍යාලය	மொனராகலை	புத்தலா	பெல்வத்த மகா வித்தியாலயம்	ඒ 4, පැල්වත්ත, ශ්‍රී ලංකාව	ஏ 4, பெல்வத்த, இலங்கை
Moneragala	Buttala	Siddharitha Maha Vidyalaya	False	False	MNRGLBTTLSDDHRTHMHVDYLY		Moneragala	LK-82	6.787517	81.303744	Buttala	PS-820127	6.762499	81.250445	6.761476	81.247194	Q66W+HVW, Buttala, Sri Lanka	0.37669		මොණරාගල	බුත්තල	සිද්ධාර්ථ මහා විද්‍යාලය	மொனராகலை	புத்தலா	சித்தரித மகா வித்தியாலயம்	Q66W+HVW, බුත්තල, ශ්‍රී ලංකාව	Q66W+HVW, புத்தலா, இலங்கை
Matara	Urubokka	Kirilapana Primary School	False	False	MTRRBKKKRLPNPRMRYSCHL		Matara	LK-32	6.142734	80.539994	Urubokka	PS-320108	6.310257	80.629013	6.319119	80.625275	Kotapola - Urubokka - Mulatiyana Rd, Sri Lanka	1.068884		මාතර	Ruරුබොක්ක	කිරිලාපන ප්‍රාථමික විද්‍යාලය	மாத்தறை	உரூபோக்கா	கிரிலாபனா தொடக்கப்பள்ளி	කොටපොල - ruරුබොක්ක - මුලටියන පාර, ශ්‍රී ලංකාව	கோட்டபொல - ஊருபொக்க - முலாட்டியானா வீதி, இலங்கை
Matara	Urubokka	Baralapanathara Maha Vidyalaya	False	False	MTRRBKKBRLPNTHRMHVDYLY		Matara	LK-32	6.142734	80.539994	Urubokka	PS-320108	6.310257	80.629013	6.316869	80.595089	Kotapola - Urubokka - Mulatiyana Rd, Sri Lanka	3.821904		මාතර	Ruරුබොක්ක	බාරලපනාතර මහා විද්‍යාලය	மாத்தறை	உரூபோக்கா	பரலபநாதர மகா வித்தியாலயம்	කොටපොල - ruරුබොක්ක - මුලටියන පාර, ශ්‍රී ලංකාව	கோட்டபொல - ஊருபொக்க - முலாட்டியானா வீதி, இலங்கை
Matara	Akuressa	Godapita Primary School	False	False	MTRKRSSGDPTPRMRYSCHL		Matara	LK-32	6.142734	80.539994	Akuressa	PS-320112	6.099044	80.4776	6.088958	80.476156	A24, Amalagoda 81400, Sri Lanka	1.133175		මාතර	අකුරැස්ස	ගොඩපිට ප්‍රාථමික විද්‍යාලය	மாத்தறை	அக்குரஸ்ஸா	கோதாபிதா தொடக்கப்பள்ளி	ඒ 24, අමලගොඩ 81400, ශ්‍රී ලංකාව	ஏ 24, அமலகொட 81400, இலங்கை
Matara	Akuressa	MOH Office - Athuraliya	False	False	MTRKRSSMHFFCTHRLY		Matara	LK-32	6.142734	80.539994	Akuressa	PS-320112	6.099044	80.4776	6.096437	80.479606	3FWH+HRH, Matara, Sri Lanka	0.365117		මාතර	අකුරැස්ස	MOH කාර්යාලය - අතුරලිය	மாத்தறை	அக்குரஸ்ஸா	MOH அலுவலகம் - அதுரலியா	3FWH+HRH, මාතර, ශ්‍රී ලංකාව	3FWH+HRH, மாத்தறை, இலங்கை
Matara	Matara	Uyanwatta Ground	False	False	MTRMTRYNWTTGRND		Matara	LK-32	6.142734	80.539994	Matara	PS-320101	5.94904	80.533659	5.949299	80.549097	WGXX+PJ9, Matara, Sri Lanka	1.708161		මාතර	මාතර	උයන්වත්ත පිටිය	மாத்தறை	மாத்தறை	உயன்வத்தை மைதானம்	WGXX+PJ9, මාතර, ශ්‍රී ලංකාව	WGXX+PJ9, மாத்தறை, இலங்கை
Matara	Thihagoda	Parayakanaththa Viaharaya	False	False	MTRTHHGDPRYKNTHTHVHRY		Matara	LK-32	6.142734	80.539994	Thihagoda	PS-320104	6.01331	80.567932	6.013226	80.564285	Mahindagiri Vihara Mawatha, Thihagoda 81280, Sri Lanka	0.403531		මාතර	තිහගොඩ	පරායකනාථ විහාරය	மாத்தறை	திஹாகொட	பரயகனத்த வியாஹராய	මහින්දගිරි විහාර මාවත, තිහගොඩ 81280, ශ්‍රී ලංකාව	மஹிந்தகிரி விஹார மாவத்தை, திஹாகொட 81280, இலங்கை
Matara	Thihagoda	Owitigala Purana Viaharaya	False	False	MTRTHHGDWTGLPRNVHRY		Matara	LK-32	6.142734	80.539994	Thihagoda	PS-320104	6.01331	80.567932	5.999928	80.562421	B275, Matara, Sri Lanka	1.608521		මාතර	තිහගොඩ	ඕවිටිගල පුරාණ විහාරය	மாத்தறை	திஹாகொட	ஓவிடிகல புராண வியாஹராய	බී 275, මාතර, ශ්‍රී ලංකාව	B275, மாத்தறை, இலங்கை
Matara	Hakmana	Henry Ariyaratne Maha Vidyalaya	False	False	MTRHKMNHNRYRYRTNMHVDYLY		Matara	LK-32	6.142734	80.539994	Hakmana	PS-320106	6.084824	80.643227	6.079554	80.657662	Hakmana, Sri Lanka	1.700772		මාතර	හක්මන	හෙන්රි ආරියරත්න මහා විද්යාලය	மாத்தறை	ஹக்மனா	ஹென்றி ஆரியரத்ன மகா வித்தியாலயம்	හක්මන, ශ්‍රී ලංකාව	ஹக்மனா, இலங்கை
Matara	Hakmana	Gangodagama Jayawardhana Maha Vidyalaya	False	False	MTRHKMNGNGDGMJYWRDHNMHVDYLY		Matara	LK-32	6.142734	80.539994	Hakmana	PS-320106	6.084824	80.643227	6.077814	80.677187	Gangodagama, Hakmana, Hakmana - Beliatte - Tangalle Rd, Sri Lanka	3.836185		මාතර	හක්මන	ගංගොඩගම ජයවර්ධන මහා විද්‍යාලය	மாத்தறை	ஹக்மனா	கங்கோதகம ஜெயவர்த்தன மகா வித்தியாலயம்	ගංගොඩගම, හක්මන, හක්මන - බෙලිඅත්තේ - තංගල්ල පාර, ශ්‍රී ලංකාව	கங்கோதகாமா, ஹக்மனா, ஹக்மனா - பெலியாட்டே - தங்காலை சாலை, இலங்கை
Matara	Mawarala	Makandura Central College	False	False	MTRMWRLMKNDRCNTRLCLLG		Matara	LK-32	6.142734	80.539994	Mawarala	PS-320109	6.198061	80.587045	6.141498	80.55999	Mulatiyana Kamburupitiya Rd, Makandura, Sri Lanka	6.966657		මාතර	මාවරල	මාකඳුර මධ්‍ය මහා විද්‍යාලය	மாத்தறை	மவரல	மகந்துரா மத்திய கல்லூரி	මුලටියන කඹුරුපිටිය පාර, මාකඳුර, ශ්‍රී ලංකාව	முலாட்டியான கம்புருபிட்டிய சாலை, மகந்துரா, இலங்கை
Matara	Pitabeddara	Derangala Maha Vidyalaya	False	False	MTRPTBDDRDRNGLMHVDYLY		Matara	LK-32	6.142734	80.539994	Pitabeddara	PS-320114	6.203675	80.475004	6.253488	80.446914	7C3W+9QV, Matara, Sri Lanka	6.351891		මාතර	පිටබැද්දර	දැරංගල මහා විද්‍යාලය	மாத்தறை	பிடபெத்தர	தேரங்கலா மகா வித்தியாலயம்	7C3W+9QV, මාතර, ශ්‍රී ලංකාව	7C3W+9QV, மாத்தறை, இலங்கை
Matara	Pitabeddara	Dudley Senanayake Vidyalaya - Dehigassa	False	False	MTRPTBDDRDDLYSNNYKVDYLYDHGSS		Matara	LK-32	6.142734	80.539994	Pitabeddara	PS-320114	6.203675	80.475004	6.199502	80.478204	5FXH+R74, Matara, Sri Lanka	0.583659		මාතර	පිටබැද්දර	ඩඩ්ලි සේනානායක විද්‍යාලය - දෙහිගස්ස	மாத்தறை	பிடபெத்தர	டட்லி சேனாநாயக்க வித்யாலயா - தெஹிகஸ்ஸா	5FXH+R74, මාතර, ශ්‍රී ලංකාව	5FXH+R74, மாத்தறை, இலங்கை
Matara	Deniyaya	Viharahena Viharaya	False	False	MTRDNYYVHRHNVHRY		Matara	LK-32	6.142734	80.539994	Deniyaya	PS-320110	6.341435	80.558719	6.386058	80.602922	Deniyaya, Enasalwaththa Rd, Viharahena, Sri Lanka	6.965077		මාතර	දෙනියාය	විහාරහේන විහාරය	மாத்தறை	தெனியாய	விஹாரஹேன விஹாராயா	දෙනියාය, එනසල්වත්ත පාර, විහාරහේන, ශ්‍රී ලංකාව	தெனியாயா, எனசல்வத்த சாலை, விஹாரஹேனா, இலங்கை
Hambantota	Hambantota	Bundala Primary School	False	False	HMBNTTHMBNTTBNDLPRMRYSCHL		Hambantota	LK-33	6.259779	81.098619	Hambantota	PS-330156	6.125872	81.12521	6.253094	81.271784	773C+6PM, Hambantota, Sri Lanka	21.516469	#CenterFarFromPolice	හම්බන්තොට	හම්බන්තොට	බූන්දල ප්‍රාථමික විද්‍යාලය	அம்பாந்தோட்டை	அம்பாந்தோட்டை	பூந்தலை தொடக்கப்பள்ளி	773C+6PM, හම්බන්තොට, ශ්‍රී ලංකාව	773C+6PM, ஹம்பாந்தோட்டை, இலங்கை
Hambantota	Hambantota	Gonnoruwa Primary School	False	False	HMBNTTHMBNTTGNNRWPRMRYSCHL		Hambantota	LK-33	6.259779	81.098619	Hambantota	PS-330156	6.125872	81.12521	6.127164	81.120617	New Rd, Hambantota, Sri Lanka	0.527898		හම්බන්තොට	හම්බන්තොට	ගොන්නොරුව ප්‍රාථමික විද්‍යාලය	அம்பாந்தோட்டை	அம்பாந்தோட்டை	கொன்னொருவ ஆரம்பப் பள்ளி	නව පාර, හම්බන්තොට, ශ්‍රී ලංකාව	புதிய வீதி, அம்பாந்தோட்டை, இலங்கை
Hambantota	Lunugamvehera	Samanpura Maha Vidyalaya	False	False	HMBNTTLNGMVHRSMNPRMHVDYLY		Hambantota	LK-33	6.259779	81.098619	Lunugamwehera	PS-330160	6.341544	81.202699	6.34061	81.203129	86R3+67R, Hambantota, Sri Lanka	0.114248		හම්බන්තොට	ලුණුගම්වෙහෙර	සමන්පුර මහා විද්‍යාලය	அம்பாந்தோட்டை	லுனுகம்வெஹெரா	சமன்புரா மகா வித்தியாலயம்	86 ආර් 3+67 ආර්, හම්බන්තොට, ශ්‍රී ලංකාව	86R3+67R, ஹம்பாந்தோட்டை, இலங்கை
Hambantota	Lunugamvehera	Kuda Gammana 03 Primary School	False	False	HMBNTTLNGMVHRKDGMMNPRMRYSCHL		Hambantota	LK-33	6.259779	81.098619	Lunugamwehera	PS-330160	6.341544	81.202699	6.32746	81.204876	Unnamed Road, Sri Lanka	1.58494		හම්බන්තොට	ලුණුගම්වෙහෙර	කුඩා ගම්මාන 03 ප්‍රාථමික විද්‍යාලය	அம்பாந்தோட்டை	லுனுகம்வெஹெரா	குட கம்மனா 03 தொடக்கப்பள்ளி	නම් නොකළ පාර, ශ්‍රී ලංකාව	பெயரிடப்படாத சாலை, இலங்கை
Hambantota	Lunugamvehera	Ranawaranawa Primary School	False	False	HMBNTTLNGMVHRRNWRNWPRMRYSCHL		Hambantota	LK-33	6.259779	81.098619	Lunugamwehera	PS-330160	6.341544	81.202699	6.34061	81.203129	86R3+67R, Hambantota, Sri Lanka	0.114248		හම්බන්තොට	ලුණුගම්වෙහෙර	රණවාරණව ප්‍රාථමික විද්‍යාලය	அம்பாந்தோட்டை	லுனுகம்வெஹெரா	ரணவரனாவ ஆரம்பப் பள்ளி	86 ආර් 3+67 ආර්, හම්බන්තොට, ශ්‍රී ලංකාව	86R3+67R, ஹம்பாந்தோட்டை, இலங்கை
Hambantota	Lunugamvehera	Mahaaluthgam Ara Seva Piyasa	False	False	HMBNTTLNGMVHRMHLTHGMRSVPYS		Hambantota	LK-33	6.259779	81.098619	Lunugamwehera	PS-330160	6.341544	81.202699	6.34682	81.196851	Lunugamvehera, Sri Lanka	0.87312		හම්බන්තොට	ලුණුගම්වෙහෙර	මහලුත්ගම් අර සේවා පියස	அம்பாந்தோட்டை	லுனுகம்வெஹெரா	மஹாளுத்கம் அர சேவா பியாச	ලුණුගම්වෙහෙර, ශ්‍රී ලංකාව	லுனுகம்வெஹெரா, இலங்கை
Hambantota	Weerawila	Vidyartha Vidyalaya	False	False	HMBNTTWRWLVDYRTHVDYLY		Hambantota	LK-33	6.259779	81.098619	Weeravila	PS-330161	6.26109	81.236724	6.268602	81.250606	7792+C6X, Hambantota, Sri Lanka	1.747566		හම්බන්තොට	වීරවිල	විද්යාර්ථ විද්යාලය	அம்பாந்தோட்டை	வீரவில	வித்யார்த்த வித்யாலயா	7792+සී 6 එක්ස්, හම්බන්තොට, ශ්‍රී ලංකාව	7792+C6X, ஹம்பாந்தோட்டை, இலங்கை
Hambantota	Ambalantota	Malpeththawa Maha Vidyalaya	False	False	HMBNTTMBLNTTMLPTHTHWMHVDYLY		Hambantota	LK-33	6.259779	81.098619	Ambalantota	PS-330157	6.12516	81.023981	6.121096	81.008692	42C5+CFP, Ambalantota, Sri Lanka	1.750272		හම්බන්තොට	අම්බලන්තොට	මල්පෙත්තාව මහා විද්‍යාලය	அம்பாந்தோட்டை	அம்பலாந்தோட்டை	மால்பெத்தவா மகா வித்தியாலயம்	42C5+CFP, අම්බලන්තොට, ශ්‍රී ලංකාව	42C5+CFP, அம்பலாந்தோட்டை, இலங்கை
Hambantota	Walasmulla	Nathuwala Maha Vidyalaya	False	False	HMBNTTWLSMLLNTHWLMHVDYLY		Hambantota	LK-33	6.259779	81.098619	Walasmulla	PS-330151	6.154102	80.698256	6.184092	80.683769	Walasmulla - Katuwana - Middeniya Road, Ethpitiya, Sri Lanka	3.700544		හම්බන්තොට	වලස්මුල්ල	නතුවල මහා විද්‍යාලය	அம்பாந்தோட்டை	வலஸ்முல்லா	நத்துவலா மகா வித்தியாலயம்	වලස්මුල්ල - කටුවාන - මිද්දෙණිය පාර, ඇත්පිටිය, ශ්‍රී ලංකාව	வலஸ்முல்ல - கட்டுவானா - மித்தெனியா சாலை, எத்பிட்டிய, இலங்கை
Hambantota	Weeraketiya	MOH Office - Weeraketiya	False	False	HMBNTTWRKTYMHFFCWRKTY		Hambantota	LK-33	6.259779	81.098619	Weeraketiya	PS-330149	6.153899	80.76737	6.144703	80.765287	4QV8+V4M, Weeraketiya, Sri Lanka	1.048488		හම්බන්තොට	වීරකැටිය	MOH කාර්යාලය - වීරකැටිය	அம்பாந்தோட்டை	வீரகெட்டிய	MOH அலுவலகம் - வீரகெட்டிய	4QV8+V4M, වීරකැටිය, ශ්‍රී ලංකාව	4QV8+V4M, வீரகெட்டிய, இலங்கை
Hambantota	Katuwana	MOH Office - Katuwana	False	False	HMBNTTKTWNMHFFCKTWN		Hambantota	LK-33	6.259779	81.098619	Katuwana	PS-330153	6.269722	80.690963	6.26627	80.693035	7M8V+G63, Katuwana, Sri Lanka	0.447115		හම්බන්තොට	කටුවන	MOH කාර්යාලය - කටුවන	அம்பாந்தோட்டை	கட்டுவானா	MOH அலுவலகம் - கட்டுவானா	7 එම් 8 වී+ජී 63, කටුවන, ශ්‍රී ලංකාව	7M8V+G63, கட்டுவானா, இலங்கை
Hambantota	Sooriyawewa	MOH Office - Sooriyawewa	False	False	HMBNTTSRYWWMHFFCSRYWW		Hambantota	LK-33	6.259779	81.098619	Sooriyawewa	PS-330155	6.306022	81.003873	6.304862	81.004768	8233+WWR, Sooriyawewa, Sri Lanka	0.1626		හම්බන්තොට	සූරියවැව	MOH කාර්යාලය - සූරියවැව	அம்பாந்தோட்டை	சூரியவெவ	MOH அலுவலகம் - சூரியவெவ	8233+ඩබ්ලිව්ඩබ්ලිව්ආර්, සූරියවැව, ශ්‍රී ලංකාව	8233+WWR, சூரியவெவ, இலங்கை
Hambantota	Beliatta	MOH Office – Beliatta	False	False	HMBNTTBLTTMHFFCBLTT		Hambantota	LK-33	6.259779	81.098619	Beliatta	PS-330152	6.046936	80.735408	6.051828	80.741735	3P2R+PMQ, Hambantota, Sri Lanka	0.886482		හම්බන්තොට	බෙලිඅත්ත	MOH කාර්යාලය - බෙලිඅත්ත	அம்பாந்தோட்டை	பெலியாட்டா	MOH அலுவலகம் - பெலியாட்ட	3P2R+PMQ, හම්බන්තොට, ශ්‍රී ලංකාව	3P2R+PMQ, ஹம்பாந்தோட்டை, இலங்கை
Hambantota	Tangalla	MOH Office – Tangalla	False	False	HMBNTTTNGLLMHFFCTNGLL		Hambantota	LK-33	6.259779	81.098619	Tangalle	PS-330147	6.023954	80.797255	6.02363	80.795742	2QFW+F75, Tangalle, Sri Lanka	0.171198		හම්බන්තොට	තංගල්ල	MOH කාර්යාලය - තංගල්ල	அம்பாந்தோட்டை	தங்கல்லா	MOH அலுவலகம் - தங்கல்லா	2QFW+F75, තංගල්ල, ශ්‍රී ලංකාව	2QFW+F75, தங்காலை, இலங்கை
Rathnapura	Kiriella	Galathura Maha Vidyalaya	False	False	RTHNPRKRLLGLTHRMHVDYLY		Ratnapura	LK-91	6.586826	80.566158	Kiriella	PS-910114	6.735338	80.276481	6.714894	80.288574	Mada galathura, Sri Lanka	2.637325		රත්නපුර	කිරිඇල්ල	ගලතුර මහා විද්‍යාලය	இரத்தினபுரி	கிரியெல்லா	கலாதுரா மகா வித்தியாலயம்	මඩ ගලතුර, ශ්‍රී ලංකාව	மட கலாதுரா, இலங்கை
Rathnapura	Kiriella	Kiriella Devarakkhita Vidyalaya	False	False	RTHNPRKRLLKRLLDVRKKHTVDYLY		Ratnapura	LK-91	6.586826	80.566158	Kiriella	PS-910114	6.735338	80.276481	6.736789	80.272832	Kiriella-Nadurana-Eheliyagoda Rd, Idangoda, Sri Lanka	0.434187		රත්නපුර	කිරිඇල්ල	කිරිඇල්ල දේවරක්ඛිත විද්‍යාලය	இரத்தினபுரி	கிரியெல்லா	கிரியெல்லா தேவரக்கிதா வித்யாலயா	කිරිඇල්ල-නාඳුරාන-ඇහැලියගොඩ පාර, ඉඩන්ගොඩ, ශ්‍රී ලංකාව	கிரியெல்ல-நடுரானா-எஹெலியகொட வீதி, இடங்கொடை, இலங்கை
Rathnapura	Kiriella	Ghanarama Viharaya	False	False	RTHNPRKRLLGHNRMVHRY		Ratnapura	LK-91	6.586826	80.566158	Kiriella	PS-910114	6.735338	80.276481	6.735464	80.221828	Ratnapura - Horana - Panadura Hwy, Sri Lanka	6.037105		රත්නපුර	කිරිඇල්ල	ඝනාරාම විහාරය	இரத்தினபுரி	கிரியெல்லா	கானாராம விஹாராயா	රත්නපුර - හොරණ - පානදුර හ්වි, ශ්‍රී ලංකාව	இரத்தினபுரி - ஹொரணை - பாணாதுரா ஹ்வை, இலங்கை
Rathnapura	Kiriella	Sangikaramaya	False	False	RTHNPRKRLLSNGKRMY		Ratnapura	LK-91	6.586826	80.566158	Kiriella	PS-910114	6.735338	80.276481	6.74486	80.248221	Kiriella, Hadunkanda Rd, Sri Lanka	3.296412		රත්නපුර	කිරිඇල්ල	සංගිකාරාමය	இரத்தினபுரி	கிரியெல்லா	சங்கிகாராமையா	කිරිඇල්ල, හදුන්කන්ද පාර, ශ්‍රී ලංකාව	கிரியெல்லா, ஹடுங்கண்டா சாலை, இலங்கை
Rathnapura	Pinnawala	Denagama Health Centre	False	False	RTHNPRPNNWLDNGMHLTHCNTR		Ratnapura	LK-91	6.586826	80.566158	Pinnawala	PS-910115	7.299943	80.386604	6.114211	80.661644	Denagama, Sri Lanka	135.343112	#CenterFarFromPolice	රත්නපුර	පින්නවල	දෙනගම සෞඛ්‍ය මධ්‍යස්ථානය	இரத்தினபுரி	பின்னாவாலா	தெனகம சுகாதார மையம்	දෙනගම, ශ්‍රී ලංකාව	தெனகாமா, இலங்கை
Rathnapura	Pinnawala	Divisional Secretariat - Imbulpe	False	False	RTHNPRPNNWLDVSNLSCRTRTMBLP		Ratnapura	LK-91	6.586826	80.566158	Pinnawala	PS-910115	7.299943	80.386604	6.732373	80.674305	Pinnawala, Sri Lanka	70.670072	#CenterFarFromPolice	රත්නපුර	පින්නවල	ප්‍රාදේශීය ලේකම් කාර්යාලය - ඉඹුල්පේ	இரத்தினபுரி	பின்னாவாலா	பிரதேச செயலகம் - இம்புல்பே	පින්නවල, ශ්‍රී ලංකාව	பின்னாவாலா, இலங்கை
Rathnapura	Pinnawala	Pinnawala Health Centre	False	False	RTHNPRPNNWLPNNWLHLTHCNTR		Ratnapura	LK-91	6.586826	80.566158	Pinnawala	PS-910115	7.299943	80.386604	6.732373	80.674305	Pinnawala, Sri Lanka	70.670072	#CenterFarFromPolice	රත්නපුර	පින්නවල	පින්නවල සෞඛ්‍ය මධ්‍යස්ථානය	இரத்தினபுரி	பின்னாவாலா	பின்வாலா சுகாதார மையம்	පින්නවල, ශ්‍රී ලංකාව	பின்னாவாலா, இலங்கை
Rathnapura	Balangoda	Sri Sudarshana Rankoth Viharaya - Rassagala	False	False	RTHNPRBLNGDSRSDRSHNRNKTHVHRYRSSGL		Ratnapura	LK-91	6.586826	80.566158	Balangoda	PS-910103	6.649474	80.700276	6.696751	80.634952	Balangoda - Rassagala - Uwella Rd, 70100, Sri Lanka	8.929419		රත්නපුර	බලන්ගොඩ	ශ්‍රී සුදර්ශන රන්කොත් විහාරය - රාස්සගල	இரத்தினபுரி	பலாங்கொடை	ஸ்ரீ சுதர்சன ரங்கோத் விஹாராயா - ராசகலா	බලංගොඩ - රාස්සගල - උවැල්ල පාර, 70100, ශ්‍රී ලංකාව	பலாங்கொட - ரஸ்ஸகலா - உவெல்லா சாலை, 70100, இலங்கை
Rathnapura	Balangoda	Balangoda Vidyaloka Maha Vidyalaya	False	False	RTHNPRBLNGDBLNGDVDYLKMHVDYLY		Ratnapura	LK-91	6.586826	80.566158	Balangoda	PS-910103	6.649474	80.700276	6.648651	80.698377	Barns Rathwathta Mawatha, Balangoda 70100, Sri Lanka	0.228906		රත්නපුර	බලන්ගොඩ	බලංගොඩ විද්‍යාලෝක මහා විද්‍යාලය	இரத்தினபுரி	பலாங்கொடை	பலாங்கொட வித்யாலோக மகா வித்தியாலயம்	බාන්ස් රත්වත්ත මාවත, බලංගොඩ 70100, ශ්‍රී ලංකාව	பார்ன்ஸ் ரத்வத்த மாவத்தை, பலாங்கொட 70100, இலங்கை
Rathnapura	Balangoda	Massenna Udumulla Viharaya	False	False	RTHNPRBLNGDMSSNNDMLLVHRY		Ratnapura	LK-91	6.586826	80.566158	Balangoda	PS-910103	6.649474	80.700276	6.651852	80.695029	66/3 Pettigala Rd, Balangoda, Sri Lanka	0.637189		රත්නපුර	බලන්ගොඩ	මස්සැන්න උඩුමුල්ල විහාරය	இரத்தினபுரி	பலாங்கொடை	மஸ்ஸென்னா உடுமுல்லா விஹாராயா	66/3 පෙට්ටිගල පාර, බලංගොඩ, ශ්‍රී ලංකාව	66/3 பெட்டிகலா சாலை, பலாங்கோடா, இலங்கை
Rathnapura	Balangoda	Damahana Vidyalaya	False	False	RTHNPRBLNGDDMHNVDYLY		Ratnapura	LK-91	6.586826	80.566158	Balangoda	PS-910103	6.649474	80.700276	6.602628	80.734181	JP3M+3M3, Ratnapura, Sri Lanka	6.41748		රත්නපුර	බලන්ගොඩ	දමහන විද්‍යාලය	இரத்தினபுரி	பலாங்கொடை	தமஹானா வித்யாலயா	JP3M+3M3, රත්නපුර, ශ්‍රී ලංකාව	JP3M+3M3, இரத்தினபுரி, இலங்கை
Rathnapura	Balangoda	Thalangama Vidyalaya	False	False	RTHNPRBLNGDTHLNGMVDYLY		Ratnapura	LK-91	6.586826	80.566158	Balangoda	PS-910103	6.649474	80.700276	6.641498	80.714138	JPR7+HMR, Balangoda, Sri Lanka	1.769912		රත්නපුර	බලන්ගොඩ	තලංගම විද්‍යාලය	இரத்தினபுரி	பலாங்கொடை	தலங்கம வித்தியாலயம்	JPR7+HMR, බලංගොඩ, ශ්‍රී ලංකාව	JPR7+HMR, பலாங்கோடா, இலங்கை
Rathnapura	Balangoda	Ellepola Vidyalaya	False	False	RTHNPRBLNGDLLPLVDYLY		Ratnapura	LK-91	6.586826	80.566158	Balangoda	PS-910103	6.649474	80.700276	6.630783	80.686023	JMJP+8C6, Balangoda, Sri Lanka	2.607973		රත්නපුර	බලන්ගොඩ	ඇල්ලේපොළ විද්‍යාලය	இரத்தினபுரி	பலாங்கொடை	எல்லெபோலா வித்யாலயா	JMJP+8C6, බලංගොඩ, ශ්‍රී ලංකාව	JMJP+8C6, பலாங்கோடா, இலங்கை
Rathnapura	Balangoda	Kirimetithenna Vidyalaya	False	False	RTHNPRBLNGDKRMTTHNNVDYLY		Ratnapura	LK-91	6.586826	80.566158	Balangoda	PS-910103	6.649474	80.700276	6.641498	80.714138	JPR7+HMR, Balangoda, Sri Lanka	1.769912		රත්නපුර	බලන්ගොඩ	කිරිමැටිතැන්න විද්‍යාලය	இரத்தினபுரி	பலாங்கொடை	கிரிமெதிதென்ன வித்யாலயா	JPR7+HMR, බලංගොඩ, ශ්‍රී ලංකාව	JPR7+HMR, பலாங்கோடா, இலங்கை
Rathnapura	Balangoda	Pettigala Vidyalaya	False	False	RTHNPRBLNGDPTTGLVDYLY		Ratnapura	LK-91	6.586826	80.566158	Balangoda	PS-910103	6.649474	80.700276	6.648651	80.698377	Barns Rathwathta Mawatha, Balangoda 70100, Sri Lanka	0.228906		රත්නපුර	බලන්ගොඩ	පෙට්ටිගල විද්‍යාලය	இரத்தினபுரி	பலாங்கொடை	பெட்டிகல வித்யாலயா	බාන්ස් රත්වත්ත මාවත, බලංගොඩ 70100, ශ්‍රී ලංකාව	பார்ன்ஸ் ரத்வத்த மாவத்தை, பலாங்கொட 70100, இலங்கை
Rathnapura	Kalawana	Delgoda Colony Vidyalaya	False	False	RTHNPRKLWNDLGDCLNYVDYLY		Ratnapura	LK-91	6.586826	80.566158	Kalawana	PS-910110	6.530738	80.390719	6.489049	80.411009	DAUGALA, Kalawana, Sri Lanka	5.150752		රත්නපුර	කලවාන	දෙල්ගොඩ ජනපද විද්‍යාලය	இரத்தினபுரி	கலவானா	தெல்கொட காலனி வித்யாலயா	දවුගල, කලවාන, ශ්‍රී ලංකාව	தUகலா, கலவானா, இலங்கை
Rathnapura	Kalawana	Veddagala North Vidyalaya	False	False	RTHNPRKLWNVDDGLNRTHVDYLY		Ratnapura	LK-91	6.586826	80.566158	Kalawana	PS-910110	6.530738	80.390719	6.535423	80.401004	GCP2+5C6, Kalawana, Sri Lanka	1.25034		රත්නපුර	කලවාන	වැද්දගල උතුරු විද්‍යාලය	இரத்தினபுரி	கலவானா	வேட்டகலா வடக்கு வித்தியாலயம்	GCP2+5C6, කලවාන, ශ්‍රී ලංකාව	GCP2+5C6, கலவானா, இலங்கை
Rathnapura	Kalawana	Gamini Central College	False	False	RTHNPRKLWNGMNCNTRLCLLG		Ratnapura	LK-91	6.586826	80.566158	Kalawana	PS-910110	6.530738	80.390719	6.519315	80.393873	Kalawana-Depedene-Rakwana Rd, Sri Lanka	1.317518		රත්නපුර	කලවාන	ගාමිණී මධ්‍ය විද්‍යාලය	இரத்தினபுரி	கலவானா	காமினி மத்திய கல்லூரி	කලවාන-දෙපාදෙන-රක්වාන පාර, ශ්‍රී ලංකාව	கலவானா-டெபெடென்-ரக்வானா சாலை, இலங்கை
Rathnapura	Kalawana	Wewagama Vidyalaya	False	False	RTHNPRKLWNWWGMVDYLY		Ratnapura	LK-91	6.586826	80.566158	Kalawana	PS-910110	6.530738	80.390719	6.479826	80.383687	Wewagama kokkavita, Kalawana, Sri Lanka	5.716008		රත්නපුර	කලවාන	වෑවගම විද්‍යාලය	இரத்தினபுரி	கலவானா	வெவாகம வித்யாலயா	වැවගම කොක්කවිට, කලවාන, ශ්‍රී ලංකාව	வெவாகம கொக்கவிட, கலவானா, இலங்கை
Rathnapura	Kalawana	Pitigalakanda Vidyalaya	False	False	RTHNPRKLWNPTGLKNDVDYLY		Ratnapura	LK-91	6.586826	80.566158	Kalawana	PS-910110	6.530738	80.390719	6.496845	80.351883	F9W2+PQJ, Pitigalakanda, Sri Lanka	5.712451		රත්නපුර	කලවාන	පිටිගලකන්ද විද්‍යාලය	இரத்தினபுரி	கலவானா	பிடிகலகண்ட வித்யாலயா	F9W2+PQJ, පිටිගලකන්ද, ශ්‍රී ලංකාව	F9W2+PQJ, பிடிகலகண்ட, இலங்கை
Rathnapura	Kalawana	Wembiyagoda Vidyalaya	False	False	RTHNPRKLWNWMBYGDVDYLY		Ratnapura	LK-91	6.586826	80.566158	Kalawana	PS-910110	6.530738	80.390719	6.535423	80.401004	GCP2+5C6, Kalawana, Sri Lanka	1.25034		රත්නපුර	කලවාන	වෙම්බියාගොඩ විද්‍යාලය	இரத்தினபுரி	கலவானா	வெம்பியகொட வித்தியாலயம்	GCP2+5C6, කලවාන, ශ්‍රී ලංකාව	GCP2+5C6, கலவானா, இலங்கை
Rathnapura	Kalawana	Wathurawa Colony Vidyalaya	False	False	RTHNPRKLWNWTHRWCLNYVDYLY		Ratnapura	LK-91	6.586826	80.566158	Kalawana	PS-910110	6.530738	80.390719	6.517913	80.423724	GC9F+5F9, රත්නපුර, Sri Lanka	3.916407		රත්නපුර	කලවාන	වතුරාව ජනපද විද්‍යාලය	இரத்தினபுரி	கலவானா	வதுராவா காலனி வித்யாலயா	GC9F+5F9, රත්නපුර, ශ්‍රී ලංකාව	GC9F+5F9, ரத்னபுரம், இலங்கை
Rathnapura	Kalawana	Hagarangala Model School	False	False	RTHNPRKLWNHGRNGLMDLSCHL		Ratnapura	LK-91	6.586826	80.566158	Kalawana	PS-910110	6.530738	80.390719	6.535423	80.401004	GCP2+5C6, Kalawana, Sri Lanka	1.25034		රත්නපුර	කලවාන	හගරංගල ආදර්ශ විද්‍යාලය	இரத்தினபுரி	கலவானா	ஹகரங்கலா மாதிரி பள்ளி	GCP2+5C6, කලවාන, ශ්‍රී ලංකාව	GCP2+5C6, கலவானா, இலங்கை
Rathnapura	Kalawana	Kalawana National College	False	False	RTHNPRKLWNKLWNNTNLCLLG		Ratnapura	LK-91	6.586826	80.566158	Kalawana	PS-910110	6.530738	80.390719	6.535423	80.401004	GCP2+5C6, Kalawana, Sri Lanka	1.25034		රත්නපුර	කලවාන	කලවාන ජාතික විද්‍යාලය	இரத்தினபுரி	கலவானா	கலவானா தேசிய கல்லூரி	GCP2+5C6, කලවාන, ශ්‍රී ලංකාව	GCP2+5C6, கலவானா, இலங்கை
Rathnapura	Kuruwita	Savon Reception Hall	False	False	RTHNPRKRWTSVNRCPTNHLL		Ratnapura	LK-91	6.586826	80.566158	Kuruwita	PS-910112	6.778839	80.364712	6.765939	80.371764	Q98C+9PC, Kuruwita, Sri Lanka	1.632554		රත්නපුර	කුරුවිට	සැවෝන් පිළිගැනීමේ ශාලාව	இரத்தினபுரி	குருவிடா	சவோன் வரவேற்பு மண்டபம்	Q98C+9PC, කුරුවිට, ශ්‍රී ලංකාව	Q98C+9PC, குருவிட, இலங்கை
Rathnapura	Kuruwita	Gangarama Viharaya	False	False	RTHNPRKRWTGNGRMVHRY		Ratnapura	LK-91	6.586826	80.566158	Kuruwita	PS-910112	6.778839	80.364712	6.77558	80.35651	Q9G4+6JJ, Kuruwita, Sri Lanka	0.975765		රත්නපුර	කුරුවිට	ගංගාරාම විහාරය	இரத்தினபுரி	குருவிடா	கங்காராம விகாரை	Q9G4+6JJ, කුරුවිට, ශ්‍රී ලංකාව	Q9G4+6JJ, குருவிட, இலங்கை
Rathnapura	Ayagama	Pallekada Vidyalaya	False	False	RTHNPRYGMPLLKDVDYLY		Ratnapura	LK-91	6.586826	80.566158	Ayagama	PS-910109	6.637727	80.312554	6.652164	80.295693	Gavaragiriya Road, Pallekada, Sri Lanka	2.459446		රත්නපුර	අයගම	පල්ලේකඩ විද්‍යාලය	இரத்தினபுரி	அயகம	பல்லேகடா வித்யாலயா	ගවරගිරිය පාර, පල්ලේකඩ, ශ්‍රී ලංකාව	கவரகிரியா சாலை, பல்லேகடா, இலங்கை
Rathnapura	Ayagama	Dumbara Vidyalaya	False	False	RTHNPRYGMDMBRVDYLY		Ratnapura	LK-91	6.586826	80.566158	Ayagama	PS-910109	6.637727	80.312554	6.739418	80.382045	A4, Kuruwita, Sri Lanka	13.670209		රත්නපුර	අයගම	දුම්බර විද්‍යාලය	இரத்தினபுரி	அயகம	தும்பரா வித்யாலயா	ඒ 4, කුරුවිට, ශ්‍රී ලංකාව	A4, குருவிட, இலங்கை
Rathnapura	Wewelwatta	Banagoda Vidyalaya	False	False	RTHNPRWWLWTTBNGDVDYLY		Ratnapura	LK-91	6.586826	80.566158	Wewalwatta	PS-910102	6.707202	80.555569	6.708183	80.541656	PG5R+7MC, Ratnapura, Sri Lanka	1.540816		රත්නපුර	වේවැල්වත්ත	බනාගොඩ විද්‍යාලය	இரத்தினபுரி	வெவெல்வத்தை	பனகொட வித்யாலயா	PG5R+7MC, රත්නපුර, ශ්‍රී ලංකාව	PG5R+7MC, இரத்தினபுரி, இலங்கை
Rathnapura	Siripagama	Rathganga Viharaya	False	False	RTHNPRSRPGMRTHGNGVHRY		Ratnapura	LK-91	6.586826	80.566158	Siripagama	PS-910116	6.783587	80.4322	6.739427	80.482769	PFQM+Q4C, Nilwala, Sri Lanka	7.438102		රත්නපුර	සිරිපාගම	රත්ගඟ විහාරය	இரத்தினபுரி	சிறிபாகம	ரத்கங்கா விஹாராயா	PFQM+Q4C, නිල්වලා, ශ්‍රී ලංකාව	PFQM+Q4C, நில்வாலா, இலங்கை
Rathnapura	Siripagama	Induruwa Viharaya	False	False	RTHNPRSRPGMNDRWVHRY		Ratnapura	LK-91	6.586826	80.566158	Siripagama	PS-910116	6.783587	80.4322	6.386489	80.022706	galagama, Induruwa,, Sri Lanka	63.231615	#CenterFarFromPolice	රත්නපුර	සිරිපාගම	ඉඳුරුව විහාරය	இரத்தினபுரி	சிறிபாகம	இந்துருவ விஹாராயா	ගලගම, ඉඳුරුව, ශ්‍රී ලංකාව	கலகம, இந்துருவ ,, இலங்கை
Rathnapura	Siripagama	Gilimale Vidyalaya	False	False	RTHNPRSRPGMGLMLVDYLY		Ratnapura	LK-91	6.586826	80.566158	Siripagama	PS-910116	6.783587	80.4322	6.751871	80.426648	Malwala - Siripagama Rd, Sri Lanka	3.58067		රත්නපුර	සිරිපාගම	ගිලීමලේ විද්‍යාලය	இரத்தினபுரி	சிறிபாகம	கிலிமலை வித்யாலயா	මල්වල - සිරිපාගම පාර, ශ්‍රී ලංකාව	மல்வாலா - சிறிபாகம வீதி, இலங்கை
Rathnapura	Rathnapura	Convent National College	False	False	RTHNPRRTHNPRCNVNTNTNLCLLG		Ratnapura	LK-91	6.586826	80.566158	Ratnapura	PS-910101	6.679456	80.40223	6.681597	80.40321	St.Aloysius' College , Church Road , Ratnapura , Srilanka, Cathedral Road, Ratnapura 70000, Sri Lanka	0.261598		රත්නපුර	රත්නපුර	කන්‍යාරාම ජාතික විද්‍යාලය	இரத்தினபுரி	இரத்தினபுரி	கான்வென்ட் தேசிய கல்லூரி	ශාන්ත ඇලෝසියස් විද්‍යාලය, පල්ලිය පාර, රත්නපුර, ශ්‍රී ලංකාව, ආසන දෙව්මැදුර පාර, රත්නපුර 70000, ශ්‍රී ලංකාව	செயின்ட் அலோசியஸ் கல்லூரி, சர்ச் சாலை, இரத்தினபுரா, இலங்கை, கதீட்ரல் சாலை, இரத்தினபுரா 70000, இலங்கை
Rathnapura	Rathnapura	Mudduwa Pirivena	False	False	RTHNPRRTHNPRMDDWPRVN		Ratnapura	LK-91	6.586826	80.566158	Ratnapura	PS-910101	6.679456	80.40223	6.674151	80.401313	MCF2+MG8, Ratnapura, Sri Lanka	0.598707		රත්නපුර	රත්නපුර	මුද්දුව පිරිවෙන	இரத்தினபுரி	இரத்தினபுரி	முட்டுவா பிரிவேனா	MCF2+MG8, රත්නපුර, ශ්‍රී ලංකාව	MCF2+MG8, இரத்தினபுரி, இலங்கை
Rathnapura	Rathnapura	Diddeniya Vidyalaya	False	False	RTHNPRRTHNPRDDDNYVDYLY		Ratnapura	LK-91	6.586826	80.566158	Ratnapura	PS-910101	6.679456	80.40223	6.890574	80.104782	V4R3+6WF, Sri Lanka	40.382875	#CenterFarFromPolice	රත්නපුර	රත්නපුර	දිද්දෙණිය විද්‍යාලය	இரத்தினபுரி	இரத்தினபுரி	தித்தெனிய வித்யாலயா	V4R3+6WF, ශ්‍රී ලංකාව	V4R3+6WF, இலங்கை
Rathnapura	Rathnapura	Godagama Vidyalaya	False	False	RTHNPRRTHNPRGDGMVDYLY		Ratnapura	LK-91	6.586826	80.566158	Ratnapura	PS-910101	6.679456	80.40223	6.602628	80.734181	JP3M+3M3, Ratnapura, Sri Lanka	37.657536	#CenterFarFromPolice	රත්නපුර	රත්නපුර	ගොඩගම විද්‍යාලය	இரத்தினபுரி	இரத்தினபுரி	கோடகம வித்தியாலயம்	JP3M+3M3, රත්නපුර, ශ්‍රී ලංකාව	JP3M+3M3, இரத்தினபுரி, இலங்கை
Rathnapura	Rathnapura	Dombagaswinna Vidyalaya	False	False	RTHNPRRTHNPRDMBGSWNNVDYLY		Ratnapura	LK-91	6.586826	80.566158	Ratnapura	PS-910101	6.679456	80.40223	6.681597	80.40321	St.Aloysius' College , Church Road , Ratnapura , Srilanka, Cathedral Road, Ratnapura 70000, Sri Lanka	0.261598		රත්නපුර	රත්නපුර	දොඹගස්වින්න විද්‍යාලය	இரத்தினபுரி	இரத்தினபுரி	டோம்பகஸ்வின்னா வித்யாலயா	ශාන්ත ඇලෝසියස් විද්‍යාලය, පල්ලිය පාර, රත්නපුර, ශ්‍රී ලංකාව, ආසන දෙව්මැදුර පාර, රත්නපුර 70000, ශ්‍රී ලංකාව	செயின்ட் அலோசியஸ் கல்லூரி, சர்ச் சாலை, இரத்தினபுரா, இலங்கை, கதீட்ரல் சாலை, இரத்தினபுரா 70000, இலங்கை
Rathnapura	Rathnapura	Kiraweldeniya Vidyalaya	False	False	RTHNPRRTHNPRKRWLDNYVDYLY		Ratnapura	LK-91	6.586826	80.566158	Ratnapura	PS-910101	6.679456	80.40223	6.712526	80.378602	AB35, Ratnapura, Sri Lanka	4.51039		රත්නපුර	රත්නපුර	කිරවෙල්දෙණිය විද්‍යාලය	இரத்தினபுரி	இரத்தினபுரி	கிரவெல்தெனிய வித்தியாலயம்	ඒබී 35, රත්නපුර, ශ්‍රී ලංකාව	ஏபி 35, இரத்தினபுரா, இலங்கை
Rathnapura	Rathnapura	Dippitigala Vidyalaya	False	False	RTHNPRRTHNPRDPPTGLVDYLY		Ratnapura	LK-91	6.586826	80.566158	Ratnapura	PS-910101	6.679456	80.40223	6.650772	80.492757	MF2V+842, Pelmadulla, Sri Lanka	10.497828		රත්නපුර	රත්නපුර	දිප්පිටිගල විද්‍යාලය	இரத்தினபுரி	இரத்தினபுரி	திப்பித்திகல வித்யாலயா	එම්එෆ් 2 වී+842, පැල්මඩුල්ල, ශ්‍රී ලංකාව	MF2V+842, பெல்மடுல்லா, இலங்கை
Rathnapura	Rathnapura	Thunadahena Vidyalaya	False	False	RTHNPRRTHNPRTHNDHNVDYLY		Ratnapura	LK-91	6.586826	80.566158	Ratnapura	PS-910101	6.679456	80.40223	6.736502	80.301307	A8, Sri Lanka	12.827999		රත්නපුර	රත්නපුර	තුනාදහේන විද්‍යාලය	இரத்தினபுரி	இரத்தினபுரி	துனடஹேன வித்யாலயா	ඒ 8, ශ්‍රී ලංකාව	ஏ 8, இலங்கை
Rathnapura	Eheliyagoda	Getaheththa  Anura Vidyalaya	False	False	RTHNPRHLYGDGTHTHTHNRVDYLY		Ratnapura	LK-91	6.586826	80.566158	Ehaliyagoda	PS-910113	6.854603	80.260446	6.90585	80.226631	anuramaha vidyalaya, gatahaththa, Getaheththa, Sri Lanka	6.814405		රත්නපුර	ඇහැලියගොඩ	ගැටහැත්ත අනුර විද්‍යාලය	இரத்தினபுரி	எஹெலியகொட	கெதஹெத்த அனுரா வித்தியாலயம்	අනුරමහා විද්‍යාලය, ගැටහත්ත, ගැටහෙත්ත, ශ්‍රී ලංකාව	அனுரமஹா வித்யாலயா, கதஹத்தா, கெட்டஹெத்தா, இலங்கை
Rathnapura	Kahawatta	Divisional Secretariat - Kahawatta	False	False	RTHNPRKHWTTDVSNLSCRTRTKHWTT		Ratnapura	LK-91	6.586826	80.566158	Kahawatta	PS-910107	6.591434	80.56893	6.533551	80.593332	Pelmadulla - Embilipitiya Hwy, Kavuduwawa 70294, Sri Lanka	6.980168		රත්නපුර	කහවත්ත	ප්‍රාදේශීය ලේකම් කාර්යාලය - කහවත්ත	இரத்தினபுரி	கஹவத்த	பிரதேச செயலகம் - கஹவத்த	පැල්මඩුල්ල - ඇඹිලිපිටිය හ්වි, කවුඩුවාව 70294, ශ්‍රී ලංකාව	பெல்மடுல்லா - எம்பிலிப்பிட்டிய ஹ்வி, கவுடுவாவா 70294, இலங்கை
Rathnapura	Kahawatta	Yayinna Vidyalaya	False	False	RTHNPRKHWTTYYNNVDYLY		Ratnapura	LK-91	6.586826	80.566158	Kahawatta	PS-910107	6.591434	80.56893	6.571516	80.553136	HHC3+J72, Allagewaththa, Sri Lanka	2.820285		රත්නපුර	කහවත්ත	යෙයින්න විද්‍යාලය	இரத்தினபுரி	கஹவத்த	யாயின்னா வித்யாலயா	HHC3+J72, අලගේවත්ත, ශ්‍රී ලංකාව	HHC3+J72, அல்லகேவத்த, இலங்கை
Rathnapura	Godakawela	Meddegama Viaharaya	False	False	RTHNPRGDKWLMDDGMVHRY		Ratnapura	LK-91	6.586826	80.566158	Godakawela	PS-910233	6.50224	80.655642	6.504061	80.651163	GM32+JFF, Godakawela, Sri Lanka	0.534831		රත්නපුර	ගොඩකවෙල	මැද්දේගම විහාරය	இரத்தினபுரி	கோடகவேலா	மெடேகம வியாஹராய	GM32+JFF, ගොඩකවෙල, ශ්‍රී ලංකාව	GM32+JFF, கோடகவேலா, இலங்கை
Rathnapura	Godakawela	Bibilegama Vidyalaya	False	False	RTHNPRGDKWLBBLGMVDYLY		Ratnapura	LK-91	6.586826	80.566158	Godakawela	PS-910233	6.50224	80.655642	6.474499	80.659186	FMF5+QMV, Pallebedda, Sri Lanka	3.110386		රත්නපුර	ගොඩකවෙල	බිබිලේගම විද්‍යාලය	இரத்தினபுரி	கோடகவேலா	பிபிலேகம வித்யாலயா	FMF5+QMV, පල්ලෙබැද්ද, ශ්‍රී ලංකාව	FMF5+QMV, பள்ளேபெட்டா, இலங்கை
Rathnapura	Godakawela	Balavinna Vidyalaya	False	False	RTHNPRGDKWLBLVNNVDYLY		Ratnapura	LK-91	6.586826	80.566158	Godakawela	PS-910233	6.50224	80.655642	6.482314	80.694414	Balawinna, Pallebedda, Sri Lanka	4.824215		රත්නපුර	ගොඩකවෙල	බලවින්න විද්‍යාලය	இரத்தினபுரி	கோடகவேலா	பாலவின்னா வித்யாலயா	බලවින්න, පල්ලෙබැද්ද, ශ්‍රී ලංකාව	பாலவின்னா, பள்ளேபெத்த, இலங்கை
Rathnapura	Godakawela	Pinnakanada Vidyalaya	False	False	RTHNPRGDKWLPNNKNDVDYLY		Ratnapura	LK-91	6.586826	80.566158	Godakawela	PS-910233	6.50224	80.655642	6.505873	80.640843	GJ4R+88W, Ratnapura, Sri Lanka	1.684679		රත්නපුර	ගොඩකවෙල	පින්නකනද විද්‍යාලය	இரத்தினபுரி	கோடகவேலா	பின்னகனடா வித்யாலயா	ජීජේ 4 ආර්+88 ඩබ්, රත්නපුර, ශ්‍රී ලංකාව	GJ4R+88W, இரத்தினபுரி, இலங்கை
Rathnapura	Godakawela	Mas Imbula Health Office	False	False	RTHNPRGDKWLMSMBLHLTHFFC		Ratnapura	LK-91	6.586826	80.566158	Godakawela	PS-910233	6.50224	80.655642	6.502044	80.657016	Pelmadulla - Embilipitiya Hwy, Godakawela, Sri Lanka	0.153404		රත්නපුර	ගොඩකවෙල	මාස් ඉඹුල සෞඛ්‍ය කාර්යාලය	இரத்தினபுரி	கோடகவேலா	மாஸ் இம்புலா சுகாதார அலுவலகம்	පැල්මඩුල්ල - ඇඹිලිපිටිය හ්වි, ගොඩකවෙල, ශ්‍රී ලංකාව	பெல்மடுல்லா - எம்பிலிப்பிட்டிய ஹ்வி, கோடகவேலா, இலங்கை
Rathnapura	Embilipitiya	Moraketiya Vidyalaya	False	False	RTHNPRMBLPTYMRKTYVDYLY		Ratnapura	LK-91	6.586826	80.566158	Embilipitiya	PS-910237	6.321993	80.844883	6.340635	80.880629	8VRJ+772, Embilipitiya, Sri Lanka	4.462745		රත්නපුර	ඇඹිලිපිටිය	මොරකැටිය විද්‍යාලය	இரத்தினபுரி	எம்பிலிப்பிட்டிய	மொரகெட்டிய வித்யாலயா	8VRJ+772, ඇඹිලිපිටිය, ශ්‍රී ලංකාව	8VRJ+772, எம்பிலிப்பிட்டிய, இலங்கை
Rathnapura	Embilipitiya	Hinguraara Viaharaya	False	False	RTHNPRMBLPTYHNGRRVHRY		Ratnapura	LK-91	6.586826	80.566158	Embilipitiya	PS-910237	6.321993	80.844883	6.347362	80.84119	Sri Bodhiraja Mawatha, Embilipitiya, Sri Lanka	2.851171		රත්නපුර	ඇඹිලිපිටිය	හිඟුආරආහාරහාරය	இரத்தினபுரி	எம்பிலிப்பிட்டிய	ஹிங்குராரா வியஹாராயா	ශ්‍රී බෝධිරාජ මාවත, ඇඹිලිපිටිය, ශ්‍රී ලංකාව	ஸ்ரீ போதிராஜா மாவத்தை, எம்பிலிப்பிட்டிய, இலங்கை
Rathnapura	Embilipitiya	Jandura Vidyalaya	False	False	RTHNPRMBLPTYJNDRVDYLY		Ratnapura	LK-91	6.586826	80.566158	Embilipitiya	PS-910237	6.321993	80.844883	6.344554	80.750166	Embilipitiya-Panamure-Bulutota Road, Sri Lanka	10.767565		රත්නපුර	ඇඹිලිපිටිය	ජඳුර විද්‍යාලය	இரத்தினபுரி	எம்பிலிப்பிட்டிய	ஜந்துரா வித்யாலயா	ඇඹිලිපිටිය-පනාමුරේ-බුලුතොට පාර, ශ්‍රී ලංකාව	எம்பிலிப்பிட்டிய-பனமுரே-புளுடோட்டா சாலை, இலங்கை
Rathnapura	Udawalawa	Gageyaya Vidyalaya	False	False	RTHNPRDWLWGGYYVDYLY		Ratnapura	LK-91	6.586826	80.566158	Udawalawa	PS-910234	6.422661	80.814293	6.682615	80.39899	Vinisuru Mw, රත්නපුර 70000, Sri Lanka	54.241657	#CenterFarFromPolice	රත්නපුර	උඩවලව	ගගේයාය විද්‍යාලය	இரத்தினபுரி	உடவலவா	Gageyaya Vidyalaya	විනිසුරු මාවත, රත්නපුර 70000, ශ්‍රී ලංකාව	வினிசுரு Mw, இரத்தினபுரம் 70000, இலங்கை
Rathnapura	Udawalawa	Ketagalara Vidyalaya	False	False	RTHNPRDWLWKTGLRVDYLY		Ratnapura	LK-91	6.586826	80.566158	Udawalawa	PS-910234	6.422661	80.814293	6.602628	80.734181	JP3M+3M3, Ratnapura, Sri Lanka	21.888122	#CenterFarFromPolice	රත්නපුර	උඩවලව	කැටගලාර විද්‍යාලය	இரத்தினபுரி	உடவலவா	கேடகலரா வித்யாலயா	JP3M+3M3, රත්නපුර, ශ්‍රී ලංකාව	JP3M+3M3, இரத்தினபுரி, இலங்கை
Rathnapura	Udawalawa	Panahanduwa Vidyalaya	False	False	RTHNPRDWLWPNHNDWVDYLY		Ratnapura	LK-91	6.586826	80.566158	Udawalawa	PS-910234	6.422661	80.814293	6.681023	80.397939	Bandaranaike Mawatha, Ratnapura, Sri Lanka	54.245999	#CenterFarFromPolice	රත්නපුර	උඩවලව	පනහන්දූව විද්‍යාලය	இரத்தினபுரி	உடவலவா	பனஹந்துவா வித்யாலயா	බණ්ඩාරනායක මාවත, රත්නපුර, ශ්‍රී ලංකාව	பண்டாரநாயக்க மாவத்தை, இரத்தினபுரி, இலங்கை
Rathnapura	Udawalawa	Nindagama Vidyalaya	False	False	RTHNPRDWLWNNDGMVDYLY		Ratnapura	LK-91	6.586826	80.566158	Udawalawa	PS-910234	6.422661	80.814293	6.438113	80.888568	Udawalawe National Park, Udawalawa, Sri Lanka	8.387602		රත්නපුර	උඩවලව	නින්දගම විද්‍යාලය	இரத்தினபுரி	உடவலவா	நிந்தகம வித்யாலயா	උඩවලව ජාතික වනෝද්‍යානය, උඩවලව, ශ්‍රී ලංකාව	உடவாலாவே தேசிய பூங்கா, உடவாலாவா, இலங்கை
Rathnapura	Kolonna	Omalpe Vidyalaya	False	False	RTHNPRKLNNMLPVDYLY		Ratnapura	LK-91	6.586826	80.566158	Kolonna	PS-910235	6.40194	80.687615	6.326763	80.69649	Omalpe, Sri Lanka	8.419282		රත්නපුර	කොළොන්න	ඕමල්පේ විද්‍යාලය	இரத்தினபுரி	கொலோன்னா	ஓமல்பே வித்யாலயா	ඕමල්පේ, ශ්‍රී ලංකාව	ஓமல்பே, இலங்கை
Rathnapura	Kolonna	Dorapane Vidyalaya	False	False	RTHNPRKLNNDRPNVDYLY		Ratnapura	LK-91	6.586826	80.566158	Kolonna	PS-910235	6.40194	80.687615					#CenterLocationUnknown	රත්නපුර	කොළොන්න	දොරපානේ විද්‍යාලය	இரத்தினபுரி	கொலோன்னா	டோரபேன் வித்யாலயா		
Rathnapura	Endana	Demuwatha Viharaya	False	False	RTHNPRNDNDMWTHVHRY		Ratnapura	LK-91	6.586826	80.566158									#PoliceLocationUnknown	රත්නපුර	එන්දනා	දෙමුවත විහාරය	இரத்தினபுரி	எண்டனா	தேமுவத விஹாராயா		
Rathnapura	Endana	Madalagama Vidyalaya	False	False	RTHNPRNDNMDLGMVDYLY		Ratnapura	LK-91	6.586826	80.566158									#PoliceLocationUnknown	රත්නපුර	එන්දනා	මඩලගම විද්‍යාලය	இரத்தினபுரி	எண்டனா	மதலகம வித்யாலயா		
Kegalle	Pindeniya	Iddamalpatha Viharaya	False	False	KGLLPNDNYDDMLPTHVHRY		Kegalle	LK-92	7.104216	80.342866	Pindeniya	PS-920124	7.156486	80.295092	7.08313	80.429741	3CMH+7V5, Kegalle, Sri Lanka	16.954043		කෑගල්ල	පිණ්ඩෙණිය	ඉද්දමල්පත විහාරය	கேகாலை	பிந்தெனியா	இடமால்பாத விஹாராயா	3CMH+7V5, කෑගල්ල, ශ්‍රී ලංකාව	3CMH+7V5, கேகாலை, இலங்கை
Kegalle	Pindeniya	Yatalathissa Vidyalaya	False	False	KGLLPNDNYYTLTHSSVDYLY		Kegalle	LK-92	7.104216	80.342866	Pindeniya	PS-920124	7.156486	80.295092	7.248596	80.350635	Bandaranayaka Ave, Kegalle, Sri Lanka	11.938843		කෑගල්ල	පිණ්ඩෙණිය	යටලතිස්ස විද්‍යාලය	கேகாலை	பிந்தெனியா	யதலதிஸ்ஸ வித்யாலயா	බණ්ඩාරනායක මාවත, කෑගල්ල, ශ්‍රී ලංකාව	பண்டாரநாயக்க அவே, கேகாலை, இலங்கை
Kegalle	Pindeniya	Malwana Vidyalaya	False	False	KGLLPNDNYMLWNVDYLY		Kegalle	LK-92	7.104216	80.342866	Pindeniya	PS-920124	7.156486	80.295092	7.156574	80.294509	87 Galigamuwa-Ruwanwella Rd, Atala, Sri Lanka	0.065082		කෑගල්ල	පිණ්ඩෙණිය	මල්වාන විද්‍යාලය	கேகாலை	பிந்தெனியா	மல்வானா வித்தியாலயம்	87 ගලිගමුව-රුවන්වැල්ල පාර, ඇටලා, ශ්‍රී ලංකාව	87 கலிகமுவா-ருவான்வெல்லா சாலை, அட்டாலா, இலங்கை
Kegalle	Warakapola	MOH Office - Warakapola	False	False	KGLLWRKPLMHFFCWRKPL		Kegalle	LK-92	7.104216	80.342866	Wrakapola	PS-920119	7.227488	80.199696	7.226501	80.197818	65GX+J44, Warakapola, Sri Lanka	0.234514		කෑගල්ල	වරකාපොල	MOH කාර්යාලය - වරකාපොල	கேகாலை	வாரகபொல	MOH அலுவலகம் - வாரகபொல	65GX+J44, වරකාපොල, ශ්‍රී ලංකාව	65GX+J44, வராகபொல, இலங்கை
Kegalle	Warakapola	Weragala Viharaya	False	False	KGLLWRKPLWRGLVHRY		Kegalle	LK-92	7.104216	80.342866	Wrakapola	PS-920119	7.227488	80.199696	7.13485	80.262777	Weragala Rd, Sri Lanka	12.435291		කෑගල්ල	වරකාපොල	වේරගල විහාරය	கேகாலை	வாரகபொல	வெராகல விஹாராயா	වේරගල පාර, ශ්‍රී ලංකාව	வெராகலா சாலை, இலங்கை
Kegalle	Mawanella	Seneviratnarama Viharaya	False	False	KGLLMWNLLSNVRTNRMVHRY		Kegalle	LK-92	7.104216	80.342866	Mawanella	PS-920122	7.256966	80.445912	7.250057	80.454304	Colombo - Kandy Rd, Mawanella, Sri Lanka	1.203326		කෑගල්ල	මාවනැල්ල	සෙනවිරත්නාරාම විහාරය	கேகாலை	மாவனெல்லா	செனவிரட்னராம விஹாராயா	කොළඹ - නුවර පාර, මාවනැල්ල, ශ්‍රී ලංකාව	கொழும்பு - கண்டி வீதி, மாவனெல்லா, இலங்கை
Kegalle	Mawanella	Randiwala Maha Vidyalaya	False	False	KGLLMWNLLRNDWLMHVDYLY	Randiwala Maha Vidyalaya	Kegalle	LK-92	7.104216	80.342866	Mawanella	PS-920122	7.256966	80.445912	7.262182	80.456886	7F64+VQC, Mawanella, Sri Lanka	1.34267		කෑගල්ල	මාවනැල්ල	රන්දිවල මහා විද්‍යාලය	கேகாலை	மாவனெல்லா	ரண்டிவல மகா வித்தியாலயம்	7F64+VQC, මාවනැල්ල, ශ්‍රී ලංකාව	7F64+VQC, மாவனெல்லா, இலங்கை
Kegalle	Mawanella	Mederigama Maha Vidyalaya	False	False	KGLLMWNLLMDRGMMHVDYLY		Kegalle	LK-92	7.104216	80.342866	Mawanella	PS-920122	7.256966	80.445912	7.248421	80.464111	Colombo - Kandy Rd, Mawanella, Sri Lanka	2.221652		කෑගල්ල	මාවනැල්ල	මැදිරිගම මහා විද්‍යාලය	கேகாலை	மாவனெல்லா	மெடரிகம மகா வித்தியாலயம்	කොළඹ - නුවර පාර, මාවනැල්ල, ශ්‍රී ලංකාව	கொழும்பு - கண்டி வீதி, மாவனெல்லா, இலங்கை
Kegalle	Mawanella	Manikkawa Maha Vidyalaya	False	False	KGLLMWNLLMNKKWMHVDYLY		Kegalle	LK-92	7.104216	80.342866	Mawanella	PS-920122	7.256966	80.445912	7.248421	80.464111	Colombo - Kandy Rd, Mawanella, Sri Lanka	2.221652		කෑගල්ල	මාවනැල්ල	මානික්කාව මහා විද්‍යාලය	கேகாலை	மாவனெல்லா	மாணிக்கவா மகா வித்தியாலயம்	කොළඹ - නුවර පාර, මාවනැල්ල, ශ්‍රී ලංකාව	கொழும்பு - கண்டி வீதி, மாவனெல்லா, இலங்கை
Kegalle	Mawanella	Hinatipana Viharaya	False	False	KGLLMWNLLHNTPNVHRY		Kegalle	LK-92	7.104216	80.342866	Mawanella	PS-920122	7.256966	80.445912	7.250057	80.454304	Colombo - Kandy Rd, Mawanella, Sri Lanka	1.203326		කෑගල්ල	මාවනැල්ල	හිනාටිපාන විහාරය	கேகாலை	மாவனெல்லா	ஹினடிபான விஹாராயா	කොළඹ - නුවර පාර, මාවනැල්ල, ශ්‍රී ලංකාව	கொழும்பு - கண்டி வீதி, மாவனெல்லா, இலங்கை
Kegalle	Mawanella	Welwathura Viharaya	False	False	KGLLMWNLLWLWTHRVHRY		Kegalle	LK-92	7.104216	80.342866	Mawanella	PS-920122	7.256966	80.445912	7.250057	80.454304	Colombo - Kandy Rd, Mawanella, Sri Lanka	1.203326		කෑගල්ල	මාවනැල්ල	වැල්වතුර විහාරය	கேகாலை	மாவனெல்லா	வெல்வத்துரா விஹாராயா	කොළඹ - නුවර පාර, මාවනැල්ල, ශ්‍රී ලංකාව	கொழும்பு - கண்டி வீதி, மாவனெல்லா, இலங்கை
Kegalle	Mawanella	Kotegoda Vidyalaya	False	False	KGLLMWNLLKTGDVDYLY		Kegalle	LK-92	7.104216	80.342866	Mawanella	PS-920122	7.256966	80.445912	7.165133	80.511442	5G86+3H4, Kegalle, Sri Lanka	12.51512		කෑගල්ල	මාවනැල්ල	කොටේගොඩ විද්‍යාලය	கேகாலை	மாவனெல்லா	கோட்டேகொட வித்தியாலயம்	5G86+3H4, කෑගල්ල, ශ්‍රී ලංකාව	5G86+3H4, கேகாலை, இலங்கை
Kegalle	Mawanella	Balathgamuwa Viharaya	False	False	KGLLMWNLLBLTHGMWVHRY		Kegalle	LK-92	7.104216	80.342866	Mawanella	PS-920122	7.256966	80.445912	7.250057	80.454304	Colombo - Kandy Rd, Mawanella, Sri Lanka	1.203326		කෑගල්ල	මාවනැල්ල	බලත්ගමුව විහාරය	கேகாலை	மாவனெல்லா	பலத்கமுவா விஹாராயா	කොළඹ - නුවර පාර, මාවනැල්ල, ශ්‍රී ලංකාව	கொழும்பு - கண்டி வீதி, மாவனெல்லா, இலங்கை
Kegalle	Kegalle	Ambanpitiya Viharaya	False	False	KGLLKGLLMBNPTYVHRY		Kegalle	LK-92	7.104216	80.342866	Kegalle	PS-920118	7.255928	80.353156	7.252449	80.323654	782F+XFC, Kegalle, Sri Lanka	3.278156		කෑගල්ල	කෑගල්ල	අඹන්පිටිය විහාරය	கேகாலை	கேகாலை	அம்பன்பிட்டிய விகாரை	782 එෆ්+එක්ස්එෆ්සී, කෑගල්ල, ශ්‍රී ලංකාව	782F+XFC, கேகாலை, இலங்கை
Kegalle	Kegalle	Randeniya Viharaya	False	False	KGLLKGLLRNDNYVHRY		Kegalle	LK-92	7.104216	80.342866	Kegalle	PS-920118	7.255928	80.353156	7.251332	80.346375	782W+GHJ, Kegalle, Sri Lanka	0.906179		කෑගල්ල	කෑගල්ල	රන්දෙණිය විහාරය	கேகாலை	கேகாலை	ரந்தெனிய விஹாராயா	782W+ජීඑච්ජේ, කෑගල්ල, ශ්‍රී ලංකාව	782W+GHJ, கேகாலை, இலங்கை
Kegalle	Kegalle	Udumagama Viharaya	False	False	KGLLKGLLDMGMVHRY		Kegalle	LK-92	7.104216	80.342866	Kegalle	PS-920118	7.255928	80.353156					#CenterLocationUnknown	කෑගල්ල	කෑගල්ල	උඩුමාගම විහාරය	கேகாலை	கேகாலை	உடுமகம விஹாராயா		
Kegalle	Awissawella	Dehiowita National College	False	False	KGLLWSSWLLDHWTNTNLCLLG		Kegalle	LK-92	7.104216	80.342866	Awissawella	PS-920226	6.947538	80.215422	6.964079	80.265062	Yatiyantota Road, Sri Lanka	5.781379		කෑගල්ල	අවිස්සාවේල්ල	දෙහිඕවිට ජාතික විද්‍යාලය	கேகாலை	அவிசாவெல்லா	தெஹியோவிட தேசிய கல்லூரி	යටියන්තොට පාර, ශ්‍රී ලංකාව	யடியந்தோட்டை சாலை, இலங்கை
Kegalle	Rambukkana	Kadigamuwa Primary School	False	False	KGLLRMBKKNKDGMWPRMRYSCHL		Kegalle	LK-92	7.104216	80.342866	Rambukkana	PS-920123	7.324319	80.387808					#CenterLocationUnknown	කෑගල්ල	රඹුක්කන	කඩිගමුව ප්‍රාථමික විද්‍යාලය	கேகாலை	ரம்புக்கானா	கடிகமுவா ஆரம்பப் பள்ளி		
Kegalle	Rambukkana	Halagiriya Primary School	False	False	KGLLRMBKKNHLGRYPRMRYSCHL		Kegalle	LK-92	7.104216	80.342866	Rambukkana	PS-920123	7.324319	80.387808	7.294224	80.416972	Walikanda Rd, Rambukkana, Sri Lanka	4.643071		කෑගල්ල	රඹුක්කන	හලගිරිය ප්‍රාථමික විද්‍යාලය	கேகாலை	ரம்புக்கானா	ஹலகிரியா தொடக்கப்பள்ளி	වලිකන්ද පාර, රඹුක්කන, ශ්‍රී ලංකාව	வலிகண்டா சாலை, ரம்புக்கானா, இலங்கை
Kegalle	Rambukkana	Uduhuruwa Maha Vidyalaya	False	False	KGLLRMBKKNDHRWMHVDYLY		Kegalle	LK-92	7.104216	80.342866	Rambukkana	PS-920123	7.324319	80.387808	7.290243	80.386481	Karandupona-Rambukkna Road, Rambukkana 71100, Sri Lanka	3.793094		කෑගල්ල	රඹුක්කන	උඩුහුරුව මහා විද්‍යාලය	கேகாலை	ரம்புக்கானா	உதுஹுருவ மகா வித்தியாலயம்	කරndුපොන-රඹුක්කන පාර, රඹුක්කන 71100, ශ්‍රී ලංකාව	கரண்டுபோனா-ரம்புக்னா சாலை, ரம்புக்கனா 71100, இலங்கை
Kegalle	Rambukkana	Beddewela Primary School	False	False	KGLLRMBKKNBDDWLPRMRYSCHL		Kegalle	LK-92	7.104216	80.342866	Rambukkana	PS-920123	7.324319	80.387808	7.287744	80.451084	Rambukkana-Mawanella Rd, Sri Lanka	8.079936		කෑගල්ල	රඹුක්කන	බැද්දේවෙල ප්‍රාථමික විද්‍යාලය	கேகாலை	ரம்புக்கானா	பெத்தெவெல ஆரம்பப் பள்ளி	රඹුක්කන-මාවනැල්ල පාර, ශ්‍රී ලංකාව	ரம்புக்கான-மாவனெல்லா சாலை, இலங்கை
Kegalle	Deraniyagala	Dodawatte Sri Visuddharamaya	False	False	KGLLDRNYGLDDWTTSRVSDDHRMY		Kegalle	LK-92	7.104216	80.342866	Deraniyagala	PS-920228	6.935815	80.334998	7.362185	80.409296	9C65+VPF, Rambukkana, Sri Lanka	48.128732	#CenterFarFromPolice	කෑගල්ල	දැරණියගල	දොඩාවත්ත ශ්‍රී විසුද්ධාරාමය	கேகாலை	தரனியகலா	தோடவத்தே ஸ்ரீ விசுத்தராமையா	9C65+වීපීඑෆ්, රඹුක්කන, ශ්‍රී ලංකාව	9C65+VPF, ரம்புக்கானா, இலங்கை
Kegalle	Deraniyagala	Polgaswatta Community Hall	False	False	KGLLDRNYGLPLGSWTTCMMNTYHLL		Kegalle	LK-92	7.104216	80.342866	Deraniyagala	PS-920228	6.935815	80.334998	6.928375	80.336999	Deraniyagala Road, Deraniyagala, Sri Lanka	0.856537		කෑගල්ල	දැරණියගල	පොල්ගස්වත්ත ප්‍රජා ශාලාව	கேகாலை	தரனியகலா	பொல்கஸ்வத்த சமுதாயக் கூடம்	දැරණියගල පාර, දැරණියගල, ශ්‍රී ලංකාව	தரனியகலா சாலை, தெரணியகலா, இலங்கை
Kegalle	Yatiyantota	Malalpola Maha Vidyalaya	False	False	KGLLYTYNTTMLLPLMHVDYLY		Kegalle	LK-92	7.104216	80.342866	Yatiyantota	PS-920230	7.027207	80.290753	7.031041	80.295242	Old Rd, Yatiyanthota, Sri Lanka	0.65379		කෑගල්ල	යටියන්තොට	මලල්පොල මහා විද්‍යාලය	கேகாலை	யடியந்தோட்டா	மலல்போல மகா வித்தியாலயம்	පැරණි පාර, යටියන්තොට, ශ්‍රී ලංකාව	பழைய சாலை, யட்டியந்தோட்டை, இலங்கை
Kegalle	Yatiyantota	Amanawala Maha Vidyalaya	False	False	KGLLYTYNTTMNWLMHVDYLY		Kegalle	LK-92	7.104216	80.342866	Yatiyantota	PS-920230	7.027207	80.290753	7.031041	80.295242	Old Rd, Yatiyanthota, Sri Lanka	0.65379		කෑගල්ල	යටියන්තොට	අණවල මහා විද්‍යාලය	கேகாலை	யடியந்தோட்டா	அமனாவாலா மகா வித்தியாலயம்	පැරණි පාර, යටියන්තොට, ශ්‍රී ලංකාව	பழைய சாலை, யட்டியந்தோட்டை, இலங்கை
Kegalle	Yatiyantota	Berannawa Abhayaraja Vidyalaya	False	False	KGLLYTYNTTBRNNWBHYRJVDYLY		Kegalle	LK-92	7.104216	80.342866	Yatiyantota	PS-920230	7.027207	80.290753	7.073317	80.411637	Yatiyanthota - Parussella - Punugala - Meenagala Rd, Berannawa, Sri Lanka	14.29582		කෑගල්ල	යටියන්තොට	බෙරන්නාව අභයරාජ විද්‍යාලය	கேகாலை	யடியந்தோட்டா	பெரன்னாவா அபயராஜா வித்யாலயா	යටියන්තොට - පරුස්සැල්ල - පුනුගල - මීගල පාර, බෙරන්නාව, ශ්‍රී ලංකාව	யடியந்தோட்ட - பருசெல்ல - புனுகல - மீனகல சாலை, பெரன்னாவா, இலங்கை
Kegalle	Yatiyantota	Dombepola Primary School	False	False	KGLLYTYNTTDMBPLPRMRYSCHL		Kegalle	LK-92	7.104216	80.342866	Yatiyantota	PS-920230	7.027207	80.290753	7.027852	80.292443	27HR+4XW, Kegalle, Sri Lanka	0.199885		කෑගල්ල	යටියන්තොට	දොඹේපොල ප්‍රාථමික විද්‍යාලය	கேகாலை	யடியந்தோட்டா	தொம்பேபோல ஆரம்பப் பள்ளி	27HR+4XW, කෑගල්ල, ශ්‍රී ලංකාව	27HR+4XW, கேகாலை, இலங்கை
Kegalle	Ruwanwella	Hamdaswalam Vidyalaya	False	False	KGLLRWNWLLHMDSWLMVDYLY		Kegalle	LK-92	7.104216	80.342866	Ruwanwella	PS-920229	7.046189	80.254174	7.039832	80.255654	A21, Ruwanwella, Sri Lanka	0.725717		කෑගල්ල	රුවන්වැල්ල	හම්දස්වලම් විද්‍යාලය	கேகாலை	ருவன்வெல்ல	ஹம்தஸ்வாலம் வித்யாலயா	ඒ 21, රුවන්වැල්ල, ශ්‍රී ලංකාව	A21, ருவான்வெல்லா, இலங்கை
Kegalle	Ruwanwella	Arapolamulla Maha Vidyalaya	False	False	KGLLRWNWLLRPLMLLMHVDYLY		Kegalle	LK-92	7.104216	80.342866	Ruwanwella	PS-920229	7.046189	80.254174	7.043054	80.255045	A21, Ruwanwella, Sri Lanka	0.361719		කෑගල්ල	රුවන්වැල්ල	අරපොලමුල්ල මහා විද්‍යාලය	கேகாலை	ருவன்வெல்ல	அரபோலமுல்ல மகா வித்தியாலயம்	ඒ 21, රුවන්වැල්ල, ශ්‍රී ලංකාව	A21, ருவான்வெல்லா, இலங்கை
Kegalle	Ruwanwella	Imbulana Sri Sena Vidyalaya	False	False	KGLLRWNWLLMBLNSRSNVDYLY		Kegalle	LK-92	7.104216	80.342866	Ruwanwella	PS-920229	7.046189	80.254174	7.071095	80.254427	Ruwanwella, Warakapola Road, Sri Lanka	2.770431		කෑගල්ල	රුවන්වැල්ල	ඉඹුලාන ශ්‍රී සේන විද්‍යාලය	கேகாலை	ருவன்வெல்ல	இம்புலான ஸ்ரீ சேனா வித்யாலயா	රුවන්වැල්ල, වරකාපොල පාර, ශ්‍රී ලංකාව	ருவன்வெல்ல, வரகபொல சாலை, இலங்கை
Kegalle	Ruwanwella	Lewangama Primary School	False	False	KGLLRWNWLLLWNGMPRMRYSCHL		Kegalle	LK-92	7.104216	80.342866	Ruwanwella	PS-920229	7.046189	80.254174	7.043001	80.254684	27V3+6V3, Ruwanwella, Sri Lanka	0.359042		කෑගල්ල	රුවන්වැල්ල	ලේවන්ගම ප්‍රාථමික විද්‍යාලය	கேகாலை	ருவன்வெல்ல	லெவங்கம தொடக்கப்பள்ளி	27V3+6V3, රුවන්වැල්ල, ශ්‍රී ලංකාව	27V3+6V3, ருவான்வெல்லா, இலங்கை
Anuradhapura	Anuradhapura	Pradeshiya Shabha - Vijayapura	False	False	NRDHPRNRDHPRPRDSHYSHBHVJYPR		Anuradhapura	LK-71	8.39199	80.512958	Anuradapura	PS-710101	8.329752	80.407265	8.304729	80.417186	Nagasena Mawatha, Anuradhapura, Sri Lanka	2.989822		අනුරාධපුර	අනුරාධපුර	ප්‍රාදේශීය සභාව - විජයපුර	அனுராதபுரம்	அனுராதபுரம்	பிரதேச சபா - விஜயபுரா	නාගසේන මාවත, අනුරාධපුර, ශ්‍රී ලංකාව	நாகசேன மாவத்தை, அனுராதபுரம், இலங்கை
Anuradhapura	Anuradhapura	Walisinghe Harischandra Ground	False	False	NRDHPRNRDHPRWLSNGHHRSCHNDRGRND		Anuradhapura	LK-71	8.39199	80.512958	Anuradapura	PS-710101	8.329752	80.407265	8.337404	80.405697	8CP4+X78, Anuradhapura, Sri Lanka	0.868448		අනුරාධපුර	අනුරාධපුර	වලිසිංහ හරිස්චන්ද්‍ර පිටිය	அனுராதபுரம்	அனுராதபுரம்	வாலிசிங்க ஹரிச்சந்திர மைதானம்	8CP4+X78, අනුරාධපුර, ශ්‍රී ලංකාව	8CP4+X78, அனுராதபுரம், இலங்கை
Anuradhapura	Kahatagasdigiliya	Rathmalgahawewa Vidyalaya	False	False	NRDHPRKHTGSDGLYRTHMLGHWWVDYLY		Anuradhapura	LK-71	8.39199	80.512958	Kahatagasdigiliya	PS-710118	8.427328	80.688349	8.531687	80.674104	Medawachchiya-Horowpotana Rd, Sri Lanka	11.713145		අනුරාධපුර	කහටගස්දිගිලිය	රත්මල්ගහවැව විද්‍යාලය	அனுராதபுரம்	கஹதகஸ்திகிலியா	ரத்மல்கஹவெவ வித்தியாலயம்	මැදවච්චිය-හොරොව්පොතාන පාර, ශ්‍රී ලංකාව	மேடவாச்சியா-ஹொரவ்பொத்தானா சாலை, இலங்கை
Anuradhapura	Horowpothana	Ruwanveli Central College	False	False	NRDHPRHRWPTHNRWNVLCNTRLCLLG		Anuradhapura	LK-71	8.39199	80.512958	Horowpathana	PS-710117	8.553878	80.830734	8.552126	80.830957	A29, Horowupotana, Sri Lanka	0.196412		අනුරාධපුර	හොරොව්පොතාන	රුවන්වැලි මධ්‍ය විද්‍යාලය	அனுராதபுரம்	ஹோரோபோதனா	ருவன்வெளி மத்திய கல்லூரி	ඒ 29, හොරොවුපොතාන, ශ්‍රී ලංකාව	ஏ 29, ஹொரோவுபோதனா, இலங்கை
Anuradhapura	Kallanchiya	Kallanchiya Vidyalaya	False	False	NRDHPRKLLNCHYKLLNCHYVDYLY		Anuradhapura	LK-71	8.39199	80.512958									#PoliceLocationUnknown	අනුරාධපුර	කල්ලංචිය	කල්ලංචිය විද්‍යාලය	அனுராதபுரம்	கல்லாஞ்சியா	கல்லாஞ்சியா வித்யாலயா		
Anuradhapura	Mihintale	MOH Office - Mihintale	False	False	NRDHPRMHNTLMHFFCMHNTL		Anuradhapura	LK-71	8.39199	80.512958	Mihintale	PS-710104	8.360062	80.511889	8.357612	80.509049	Puttalam - Anuradhapura - Trincomalee Hwy, Mihintale, Sri Lanka	0.41466		අනුරාධපුර	මිහින්තලය	MOH කාර්යාලය - මිහින්තලය	அனுராதபுரம்	மிஹிந்தலை	MOH அலுவலகம் - மிஹிந்தலை	පුත්තලම - අනුරාධපුර - ත්‍රිකුණාමලය හ්වි, මිහින්තලය, ශ්‍රී ලංකාව	புத்தளம் - அனுராதபுரம் - திருகோணமலை Hwy, மிஹிந்தலை, இலங்கை
Anuradhapura	Mihintale	Katukeliyawa Muslim Vidyalaya	False	False	NRDHPRMHNTLKTKLYWMSLMVDYLY		Anuradhapura	LK-71	8.39199	80.512958	Mihintale	PS-710104	8.360062	80.511889	8.35	80.5	Katukeliyawa, Mihintale, Sri Lanka	1.721756		අනුරාධපුර	මිහින්තලය	කටුකැලියාව මුස්ලිම් විද්‍යාලය	அனுராதபுரம்	மிஹிந்தலை	கட்டுகெலியாவா முஸ்லிம் வித்தியாலயம்	කටුකැලියාව, මිහින්තලය, ශ්‍රී ලංකාව	கட்டுகெலியாவா, மிஹிந்தலை, இலங்கை
Anuradhapura	Mahawilachchiya	MOH Office - Mahawilachchiya	False	False	NRDHPRMHWLCHCHYMHFFCMHWLCHCHY		Anuradhapura	LK-71	8.39199	80.512958	Mahawilachchiya	PS-710120	8.484987	80.193911	8.494303	80.186519	F5VP+PJC, Mahawilachchiya, Sri Lanka	1.317298		අනුරාධපුර	මහවිලච්චිය	MOH කාර්යාලය - මහවිලච්චිය	அனுராதபுரம்	மகாவிலாச்சியா	MOH அலுவலகம் - மகாவிலாச்சியா	F5VP+PJC, මහවිලච්චිය, ශ්‍රී ලංකාව	F5VP+PJC, மகாவிலாச்சியா, இலங்கை
Anuradhapura	Hidogama	Senamaha Vidyalaya	False	False	NRDHPRHDGMSNMHVDYLY		Anuradhapura	LK-71	8.39199	80.512958	Hidogama	PS-710102	8.31575	80.420358	8.252403	80.423959	Kaluwila, Sri Lanka	7.057216		අනුරාධපුර	හිදෝගම	සේනාමහා විද්‍යාලය	அனுராதபுரம்	ஹிடோகாமா	சேனமஹா வித்யாலயா	කලුවිල, ශ්‍රී ලංකාව	களுவில, இலங்கை
Anuradhapura	Polonnaruwa	Muslim Central College - Kaduruwela	False	False	NRDHPRPLNNRWMSLMCNTRLCLLGKDRWL		Anuradhapura	LK-71	8.39199	80.512958	Polonnaruwa	PS-720125	7.924307	81.036895	7.927202	81.038607	Kaduruwela, පොළොන්නරු, Sri Lanka	0.37318		අනුරාධපුර	පොළොන්නරුව	මුස්ලිම් මධ්‍ය විද්‍යාලය - කදුරුවෙල	அனுராதபுரம்	பொலன்னறுவை	முஸ்லிம் மத்திய கல்லூரி - கதுருவெல	කදුරුවෙල, පොළොන්නරු, ශ්‍රී ලංකාව	கடுருவெல, நிலன்னரு, இலங்கை
Anuradhapura	Polonnaruwa	Gallella Al Azhar Maha Vidyalaya	False	False	NRDHPRPLNNRWGLLLLLZHRMHVDYLY		Anuradhapura	LK-71	8.39199	80.512958	Polonnaruwa	PS-720125	7.924307	81.036895	7.908812	81.066664	221, Gallella, Sri Lanka	3.704934		අනුරාධපුර	පොළොන්නරුව	ගල්ලැල්ල අල් අසාර් මහා විද්‍යාලය	அனுராதபுரம்	பொலன்னறுவை	காலெல்லா அல் அசார் மகா வித்தியாலயம்	221, ගාල්ල, ශ්‍රී ලංකාව	221, கல்லெல்லா, இலங்கை
Anuradhapura	Polonnaruwa	Bediwewa Maha Vidyalaya	False	False	NRDHPRPLNNRWBDWWMHVDYLY		Anuradhapura	LK-71	8.39199	80.512958	Polonnaruwa	PS-720125	7.924307	81.036895	8.235692	80.747058	6PPW+7RF, Anuradhapura, Sri Lanka	47.099798	#CenterFarFromPolice	අනුරාධපුර	පොළොන්නරුව	බැදිවැව මහා විද්‍යාලය	அனுராதபுரம்	பொலன்னறுவை	பேடிவெவ மகா வித்தியாலயம்	6PPW+7RF, අනුරාධපුර, ශ්‍රී ලංකාව	6PPW+7RF, அனுராதபுரம், இலங்கை
Jaffna	Nelliyady	MOH Office - Karaveddy	False	False	JFFNNLLYDYMHFFCKRVDDY		Jaffna	LK-41	9.691792	80.098594	Nelliadi	PS-410108	9.778397	80.113303	9.792126	80.201799	Q6R2+VP3, Point Pedro, Sri Lanka	9.819656		යාපනය	නෙල්ලියාඩි	MOH කාර්යාලය - කරවෙඩ්ඩි	யாழ்	நெல்லியடி	MOH அலுவலகம் - கரவெட்டி	Q6R2+VP3, පේදුරුතුඩුව, ශ්‍රී ලංකාව	Q6R2+VP3, பருத்தித்துறை, இலங்கை
Jaffna	Jaffna	Ariyale Tirappamkulam Mahamari Amman Hall	False	False	JFFNJFFNRYLTRPPMKLMMHMRMMNHLL		Jaffna	LK-41	9.691792	80.098594	Jaffna	PS-410209	9.659919	80.010965	9.664467	80.010483	AB16, Jaffna, Sri Lanka	0.508627		යාපනය	යාපනය	ආරියලේ තිරප්පම්කුලම් මහමාරි අම්මාන් ශාලාව	யாழ்	யாழ்	அரியாலே திரப்பம்குளம் மகாமாரி அம்மன் மண்டபம்	ඒබී 16, යාපනය, ශ්‍රී ලංකාව	ஏபி 16, யாழ்ப்பாணம், இலங்கை
Jaffna	Jaffna	Ilangavendan Hall Niraviadi	False	False	JFFNJFFNLNGVNDNHLLNRVD		Jaffna	LK-41	9.691792	80.098594	Jaffna	PS-410209	9.659919	80.010965	9.664467	80.010483	AB16, Jaffna, Sri Lanka	0.508627		යාපනය	යාපනය	ඉලංගවේන්දන් ශාලාව නිරවියදි	யாழ்	யாழ்	இளங்கவேந்தன் மண்டபம் நிரவியடி	ඒබී 16, යාපනය, ශ්‍රී ලංකාව	ஏபி 16, யாழ்ப்பாணம், இலங்கை
Jaffna	Jaffna	Vaitheeswara Vidyalaya	False	False	JFFNJFFNVTHSWRVDYLY		Jaffna	LK-41	9.691792	80.098594	Jaffna	PS-410209	9.659919	80.010965	9.672726	80.009234	M2F5+3MX, Jaffna, Sri Lanka	1.43711		යාපනය	යාපනය	වෛතීස්වර විද්‍යාලය	யாழ்	யாழ்	வைத்தீஸ்வரா வித்யாலயா	M2F5+3MX, යාපනය, ශ්‍රී ලංකාව	M2F5+3MX, யாழ்ப்பாணம், இலங்கை
Jaffna	Point Pedro	Vadamarachchi Hindu Girls' College	False	False	JFFNPNTPDRVDMRCHCHHNDGRLSCLLG		Jaffna	LK-41	9.691792	80.098594	Point Pedro	PS-410106	9.827018	80.233187	9.817623	80.23136	Vinayaga Muthaliyaar Veethy, Point Pedro, Sri Lanka	1.064016		යාපනය	පේදුරුතුඩුව	වඩමාරච්චි හින්දු බාලිකා විද්‍යාලය	யாழ்	பருத்தித்துறை	வடமராட்சி இந்து பெண்கள் கல்லூரி	විනයාග මුතලියාර් වීති, පේදුරුතුඩුව, ශ්‍රී ලංකාව	விநாயக முதலியார் வீதி, பருத்தித்துறை, இலங்கை
Jaffna	Point Pedro	MOH Office - Maradankeni	False	False	JFFNPNTPDRMHFFCMRDNKN		Jaffna	LK-41	9.691792	80.098594	Point Pedro	PS-410106	9.827018	80.233187	9.660774	80.029846	M26H+8W5, Jaffna, Sri Lanka	28.962559	#CenterFarFromPolice	යාපනය	පේදුරුතුඩුව	MOH කාර්යාලය - මරදන්කේනි	யாழ்	பருத்தித்துறை	MOH அலுவலகம் - மரடங்கேணி	M26H+8W5, යාපනය, ශ්‍රී ලංකාව	M26H+8W5, யாழ்ப்பாணம், இலங்கை
Jaffna	Point Pedro	Vada Hindu Girls' College	False	False	JFFNPNTPDRVDHNDGRLSCLLG		Jaffna	LK-41	9.691792	80.098594	Point Pedro	PS-410106	9.827018	80.233187	9.817623	80.23136	Vinayaga Muthaliyaar Veethy, Point Pedro, Sri Lanka	1.064016		යාපනය	පේදුරුතුඩුව	වද හින්දු බාලිකා විද්‍යාලය	யாழ்	பருத்தித்துறை	வட இந்து பெண்கள் கல்லூரி	විනයාග මුතලියාර් වීති, පේදුරුතුඩුව, ශ්‍රී ලංකාව	விநாயக முதலியார் வீதி, பருத்தித்துறை, இலங்கை
Jaffna	Kayts	MOH Office – Kayts	False	False	JFFNKYTSMHFFCKYTS		Jaffna	LK-41	9.691792	80.098594	Kayts	PS-410212	9.728654	79.94775	9.697759	79.866366	Sri Lanka, Kayts, Sri Lanka	9.561445		යාපනය	කයිට්ස්	MOH කාර්යාලය - කයිට්ස්	யாழ்	ஊர்காவற்துறையினர்	MOH அலுவலகம் - ஊர்காவற்துறை	ශ්‍රී ලංකාව, කයිට්ස්, ශ්‍රී ලංකාව	இலங்கை, ஊர்காவற்துறை, இலங்கை
Jaffna	Kayts	MOH Office – Velanai	False	False	JFFNKYTSMHFFCVLN		Jaffna	LK-41	9.691792	80.098594	Kayts	PS-410212	9.728654	79.94775	9.636317	79.903777	Chatty vangkalvady road, Velanai, Sri Lanka	11.346015		යාපනය	කයිට්ස්	එම්ඕඑච් කාර්යාලය - වෙලනායි	யாழ்	ஊர்காவற்துறையினர்	MOH அலுவலகம் - வேலணை	චැටි වංගල්වඩි පාර, වෙලනායි, ශ්‍රී ලංකාව	சட்டி வாங்கல்வாடி சாலை, வேலணை, இலங்கை
Jaffna	Kayts	Analativu Hospital	False	False	JFFNKYTSNLTVHSPTL		Jaffna	LK-41	9.691792	80.098594	Kayts	PS-410212	9.728654	79.94775	9.67012	79.780212	Ward No-1, Analaitivu, Main Rd, Sri Lanka	19.488554		යාපනය	කයිට්ස්	අනලතිව් රෝහල	யாழ்	ஊர்காவற்துறையினர்	அனலடிவு மருத்துவமனை	වාට්ටු අංක -1, අනලතිව්, ප්‍රධාන පාර, ශ්‍රී ලංකාව	வார்டு எண் -1, அனலைதீவு, பிரதான சாலை, இலங்கை
Jaffna	Kayts	PMCU Eluvaithivu	False	False	JFFNKYTSPMCLVTHV		Jaffna	LK-41	9.691792	80.098594	Kayts	PS-410212	9.728654	79.94775	9.757134	79.938543	QW4Q+VC3, Jaffna, Sri Lanka	3.324733		යාපනය	කයිට්ස්	PMCU එළුවයිතිව්	யாழ்	ஊர்காவற்துறையினர்	PMCU Eluvaithivu	QW4Q+VC3, යාපනය, ශ්‍රී ලංකාව	QW4Q+VC3, யாழ்ப்பாணம், இலங்கை
Jaffna	Kayts	Velanai Saraswathi  Vidyalaya	False	False	JFFNKYTSVLNSRSWTHVDYLY		Jaffna	LK-41	9.691792	80.098594	Kayts	PS-410212	9.728654	79.94775	9.63724	79.901078	JWP2+VCW, Velanai, Sri Lanka	11.383096		යාපනය	කයිට්ස්	වෙලනායි සරස්වතී විද්‍යාලය	யாழ்	ஊர்காவற்துறையினர்	வேலணை சரஸ்வதி வித்யாலயா	JWP2+VCW, වේලනායි, ශ්‍රී ලංකාව	JWP2+VCW, வேலணை, இலங்கை
Jaffna	Kayts	Velanai Maha Vidyalaya	False	False	JFFNKYTSVLNMHVDYLY		Jaffna	LK-41	9.691792	80.098594	Kayts	PS-410212	9.728654	79.94775	9.62768	79.902605	JWH3+32H, Kayts, Sri Lanka	12.273757		යාපනය	කයිට්ස්	වෙලනායි මහා විද්‍යාලය	யாழ்	ஊர்காவற்துறையினர்	வேலணை மகா வித்தியாலயம்	JWH3+32H, කයිට්ස්, ශ්‍රී ලංකාව	JWH3+32H, ஊர்காவற்துறை, இலங்கை
Jaffna	Kayts	MOH Office - Karainagar	False	False	JFFNKYTSMHFFCKRNGR		Jaffna	LK-41	9.691792	80.098594	Kayts	PS-410212	9.728654	79.94775	9.725097	79.99772	Sri Lanka, Manipay, Sri Lanka	5.492521		යාපනය	කයිට්ස්	MOH කාර්යාලය - කරෙයිනගර්	யாழ்	ஊர்காவற்துறையினர்	MOH அலுவலகம் - காரைநகர்	ශ්‍රී ලංකාව, මනිපායි, ශ්‍රී ලංකාව	இலங்கை, மானிப்பாய், இலங்கை
Jaffna	Kopay	MOH Office – Kopay	False	False	JFFNKPYMHFFCKPY		Jaffna	LK-41	9.691792	80.098594	Kopai	PS-410216	9.686887	80.03856	9.706729	80.065433	B268, Jaffna, Sri Lanka	3.681313		යාපනය	කෝපායි	MOH කාර්යාලය - කෝපායි	யாழ்	கோப்பாய்	MOH அலுவலகம் - கோப்பாய்	බී 268, යාපනය, ශ්‍රී ලංකාව	பி 268, யாழ்ப்பாணம், இலங்கை
Jaffna	Kopay	Urumpirai Hindu College	False	False	JFFNKPYRMPRHNDCLLG		Jaffna	LK-41	9.691792	80.098594	Kopai	PS-410216	9.686887	80.03856	9.72601	80.047054	P2GW+CR3, Jaffna, Sri Lanka	4.450175		යාපනය	කෝපායි	උරුම්පිරායි හින්දු විද්‍යාලය	யாழ்	கோப்பாய்	உரும்பிராய் இந்து கல்லூரி	P2GW+CR3, යාපනය, ශ්‍රී ලංකාව	P2GW+CR3, யாழ்ப்பாணம், இலங்கை
Jaffna	Kopay	MOH Office- Nallur	False	False	JFFNKPYMHFFCNLLR		Jaffna	LK-41	9.691792	80.098594	Kopai	PS-410216	9.686887	80.03856	9.673947	80.027736	M2FH+H3H, Jaffna, Sri Lanka	1.865513		යාපනය	කෝපායි	එම්ඕඑච් කාර්යාලය- නල්ලූර්	யாழ்	கோப்பாய்	MOH அலுவலகம்- நல்லூர்	M2FH+H3H, යාපනය, ශ්‍රී ලංකාව	M2FH+H3H, யாழ்ப்பாணம், இலங்கை
Jaffna	Kopay	Muthathuthambi Maha Vidyalaya - Nallur	False	False	JFFNKPYMTHTHTHMBMHVDYLYNLLR		Jaffna	LK-41	9.691792	80.098594	Kopai	PS-410216	9.686887	80.03856	9.681904	80.024552	Palali Rd, Jaffna, Sri Lanka	1.632851		යාපනය	කෝපායි	මුතාතුතම්බි මහා විද්‍යාලය - නල්ලූර්	யாழ்	கோப்பாய்	முத்தாத்தம்பி மகா வித்தியாலயம் - நல்லூர்	පලාලි පාර, යාපනය, ශ්‍රී ලංකාව	பலாலி வீதி, யாழ்ப்பாணம், இலங்கை
Jaffna	Kopay	Magnmanpathi Kovil	False	False	JFFNKPYMGNMNPTHKVL		Jaffna	LK-41	9.691792	80.098594	Kopai	PS-410216	9.686887	80.03856	9.674532	80.029444	M2FH+RQ8, Jaffna, Sri Lanka	1.699298		යාපනය	කෝපායි	මැග්මන්පති කෝවිල	யாழ்	கோப்பாய்	மாகன்மன்பதி கோவில்	M2FH+RQ8, යාපනය, ශ්‍රී ලංකාව	M2FH+RQ8, யாழ்ப்பாணம், இலங்கை
Jaffna	Illawalai	St.Henry's College - Illawalai	False	False	JFFNLLWLSTHNRYSCLLGLLWL		Jaffna	LK-41	9.691792	80.098594	Ilavalai	PS-410102	9.775967	79.983146	9.795043	79.991203	College Lane, Ilavalai, Sri Lanka	2.298273		යාපනය	ඉලවලයි	ශාන්ත හෙන්රි විද්‍යාලය - ඉලවලයි	யாழ்	இல்லவாலை	செயின்ட் ஹென்றி கல்லூரி - இளவாலை	විද්‍යාල පටුමග, ඉලවලයි, ශ්‍රී ලංකාව	கல்லூரி லேன், இளவாலை, இலங்கை
Jaffna	Chunnakam	MOH Office – Uduvil	False	False	JFFNCHNNKMMHFFCDVL		Jaffna	LK-41	9.691792	80.098594	Chunnakam	PS-410211	9.745309	80.029151	9.742938	80.035132	P2VP+53C, Chunnakam, Sri Lanka	0.706719		යාපනය	චුන්නාකම්	MOH කාර්යාලය - උඩුවිල්	யாழ்	சுன்னாகம்	MOH அலுவலகம் - உடுவில்	පී 2 වීපී+53 සී, චුන්නාකම්, ශ්‍රී ලංකාව	P2VP+53C, சுன்னாகம், இலங்கை
Jaffna	Chunnakam	Inuvil Arivalayam Community Hall	False	False	JFFNCHNNKMNVLRVLYMCMMNTYHLL		Jaffna	LK-41	9.691792	80.098594	Chunnakam	PS-410211	9.745309	80.029151	9.689313	80.031016	M2QJ+PCC, Jaffna, Sri Lanka	6.231781		යාපනය	චුන්නාකම්	ඉනුවිල් ආරිවලයම් ප්‍රජා ශාලාව	யாழ்	சுன்னாகம்	இணுவில் அறிவாலயம் சமுதாயக் கூடம்	M2QJ+PCC, යාපනය, ශ්‍රී ලංකාව	M2QJ+PCC, யாழ்ப்பாணம், இலங்கை
Jaffna	Chunnakam	Sitti Vinayagar Vidyalaya - Punnale Kattuwan	False	False	JFFNCHNNKMSTTVNYGRVDYLYPNNLKTTWN		Jaffna	LK-41	9.691792	80.098594	Chunnakam	PS-410211	9.745309	80.029151	9.744083	80.027248	P2VG+JVQ, Chunnakam, Sri Lanka	0.249233		යාපනය	චුන්නාකම්	සිත්ති විනයගර් විද්‍යාලය - පුන්නලේ කට්ටුවාන්	யாழ்	சுன்னாகம்	சித்தி விநாயகர் வித்யாலயா - புன்னலே கட்டுவான்	P2VG+JVQ, චුන්නාකම්, ශ්‍රී ලංකාව	P2VG+JVQ, சுன்னாகம், இலங்கை
Jaffna	Kodikaman	DH – Varani	False	False	JFFNKDKMNDHVRN		Jaffna	LK-41	9.691792	80.098594	Kodikamam	PS-410217	9.666459	80.132384	9.681381	80.219829	Kodikamam, Kandy - Jaffna Hwy, Sri Lanka	9.73078		යාපනය	කොඩිකාමන්	ඩීඑච් - වාරානි	யாழ்	கொடிகாமன்	DH - வரணி	කොඩිකාමම්, මහනුවර - යාපනය හ්වි, ශ්‍රී ලංකාව	கொடிகாமம், கண்டி - யாழ்ப்பாணம், இலங்கை
Jaffna	Manippai	Manipay Memorial Vidyalaya	False	False	JFFNMNPPMNPYMMRLVDYLY		Jaffna	LK-41	9.691792	80.098594	Manippai	PS-410210	9.727151	79.996905	9.727933	79.999604	Memorial Lane, Manipay, Sri Lanka	0.308413		යාපනය	මනිප්පායි	මනිපායි අනුස්මරණ විද්‍යාලය	யாழ்	மணிப்பை	மானிப்பாய் நினைவு வித்தியாலயம்	අනුස්මරණ පටුමග, මනිපායි, ශ්‍රී ලංකාව	நினைவு வழி, மானிப்பாய், இலங்கை
Jaffna	Thelippalai	Kirimale Naguleswaram Maha Vidyalaya	False	False	JFFNTHLPPLKRMLNGLSWRMMHVDYLY		Jaffna	LK-41	9.691792	80.098594	Thelippalay	PS-410104	6.933075	79.857181	9.813444	80.012116	R276+9RH, Kankesanturai, Sri Lanka	320.836205	#CenterFarFromPolice	යාපනය	තෙලිප්පලෙයි	කිරිමලේ නාගුලේෂ්වරම් මහා විද්‍යාලය	யாழ்	தெளிப்பளை	கிரிமலை நாகுலேஸ்வரம் மகா வித்தியாலயம்	ආර් 276+9 ආර්එච්, කන්කසන්තුරේ, ශ්‍රී ලංකාව	R276+9RH, காங்கேசன்துறை, இலங்கை
Jaffna	Wadukkotte	MOH Office – Chankanai	False	False	JFFNWDKKTTMHFFCCHNKN		Jaffna	LK-41	9.691792	80.098594	Vaddukoddai		9.728886	79.947771	9.753617	79.976004	QX3G+CCR, Sri Lanka	4.140836		යාපනය	වඩුක්කෝට්ටේ	MOH කාර්යාලය - චංකනායි	யாழ்	வட்டுக்கோட்டை	MOH அலுவலகம் - சங்கனை	QX3G+CCR, ශ්‍රී ලංකාව	QX3G+CCR, இலங்கை
Jaffna	Wadukkotte	Jaffna Vidyalaya	False	False	JFFNWDKKTTJFFNVDYLY		Jaffna	LK-41	9.691792	80.098594	Vaddukoddai		9.728886	79.947771	9.689647	80.003829	M2Q3+VG4, Jaffna, Sri Lanka	7.538147		යාපනය	වඩුක්කෝට්ටේ	යාපනය විද්‍යාලය	யாழ்	வட்டுக்கோட்டை	யாழ் வித்தியாலயம்	M2Q3+VG4, යාපනය, ශ්‍රී ලංකාව	M2Q3+VG4, யாழ்ப்பாணம், இலங்கை
Jaffna	Wadukkotte	Victoria Vidyalaya - Chulipuram	False	False	JFFNWDKKTTVCTRVDYLYCHLPRM		Jaffna	LK-41	9.691792	80.098594	Vaddukoddai		9.728886	79.947771	9.759993	79.942186	Paralai Rd, Sri Lanka	3.513779		යාපනය	වඩුක්කෝට්ටේ	වික්ටෝරියා විද්‍යාලය - චුලිපුරම්	யாழ்	வட்டுக்கோட்டை	விக்டோரியா வித்யாலயா - சுழிபுரம்	පරලෙයි පාර, ශ්‍රී ලංකාව	பரலை சாலை, இலங்கை
Jaffna	Achchuveli	Achchuveli Hospital	False	False	JFFNCHCHVLCHCHVLHSPTL		Jaffna	LK-41	9.691792	80.098594	Achchuweli	PS-410103	6.934132	79.856305	9.772721	80.115501	Avarankal-Tondaimanar Rd, Sri Lanka	317.021383	#CenterFarFromPolice	යාපනය	අච්චුවේලි	අච්චුවේලි රෝහල	யாழ்	அச்சுவேலி	அச்சுவேலி மருத்துவமனை	අවරන්කල්-තොණ්ඩයිමානර් පාර, ශ්‍රී ලංකාව	அவரங்கால்-தொண்டைமானார் சாலை, இலங்கை
Jaffna	Achchuveli	Puttur Sri Somaskanda Vidyalaya	False	False	JFFNCHCHVLPTTRSRSMSKNDVDYLY		Jaffna	LK-41	9.691792	80.098594	Achchuweli	PS-410103	6.934132	79.856305	9.745655	80.104632	AB20 - Point Pedro Road Puttur west, Jaffna 40000, Sri Lanka	313.916871	#CenterFarFromPolice	යාපනය	අච්චුවේලි	පුත්තූර් ශ්‍රී සෝමස්කන්ද විද්‍යාලය	யாழ்	அச்சுவேலி	புத்தூர் ஸ்ரீ சோமாஸ்கந்தா வித்தியாலயம்	ඒබී 20 - පේදුරුතුඩුව පාර, පුත්තූර් බටහිර, යාපනය 40000, ශ්‍රී ලංකාව	AB20 - பருத்தித்துறை சாலை புத்தூர் மேற்கு, யாழ்ப்பாணம் 40000, இலங்கை
Jaffna	Chavakachcheri	Town Hall - Chavakachcheri	False	False	JFFNCHVKCHCHRTWNHLLCHVKCHCHR		Jaffna	LK-41	9.691792	80.098594	Chawakachcheri	PS-410215	9.666459	80.132384	9.659136	80.160946	M556+M94, Chavakachcheri, Sri Lanka	3.236063		යාපනය	චාවකච්චේරි	නගර ශාලාව - චාවකච්චේරි	யாழ்	சாவகச்சேரி	டவுன் ஹால் - சாவகச்சேரி	එම් 556+එම් 94, චාවකච්චේරි, ශ්‍රී ලංකාව	M556+M94, சாவகச்சேரி, இலங்கை
Jaffna	Chavakachcheri	Nawakkuli Maha Vidyalaya	False	False	JFFNCHVKCHCHRNWKKLMHVDYLY		Jaffna	LK-41	9.691792	80.098594	Chawakachcheri	PS-410215	9.666459	80.132384	9.658598	80.097497	M35W+CXQ, Chavakachcheri, Sri Lanka	3.924081		යාපනය	චාවකච්චේරි	නවක්කුලි මහා විද්‍යාලය	யாழ்	சாவகச்சேரி	நவக்குளி மகா வித்தியாலயம்	M35W+CXQ, චාවකච්චේරි, ශ්‍රී ලංකාව	M35W+CXQ, சாவகச்சேரி, இலங்கை
Jaffna	Chavakachcheri	UC Hall	False	False	JFFNCHVKCHCHRCHLL		Jaffna	LK-41	9.691792	80.098594	Chawakachcheri	PS-410215	9.666459	80.132384	9.66646	80.132092	Chavakachcheri, Sri Lanka	0.032018		යාපනය	චාවකච්චේරි	යූසී ශාලාව	யாழ்	சாவகச்சேரி	யூசி ஹால்	චාවකච්චේරි, ශ්‍රී ලංකාව	சாவகச்சேரி, இலங்கை
Jaffna	Chavakachcheri	Kachchai Public Health Centre	False	False	JFFNCHVKCHCHRKCHCHPBLCHLTHCNTR		Jaffna	LK-41	9.691792	80.098594	Chawakachcheri	PS-410215	9.666459	80.132384	9.661539	80.166807	M568+JP7, Chavakachcheri, Sri Lanka	3.813979		යාපනය	චාවකච්චේරි	කච්චෙයි මහජන සෞඛ්‍ය මධ්‍යස්ථානය	யாழ்	சாவகச்சேரி	கச்சாய் பொது சுகாதார மையம்	M568+JP7, චාවකච්චේරි, ශ්‍රී ලංකාව	M568+JP7, சாவகச்சேரி, இலங்கை
Jaffna	Chavakachcheri	Manduvil RCTM College	False	False	JFFNCHVKCHCHRMNDVLRCTMCLLG		Jaffna	LK-41	9.691792	80.098594	Chawakachcheri	PS-410215	9.666459	80.132384	9.659342	80.162349	Chavakachcheri, Sri Lanka	3.379732		යාපනය	චාවකච්චේරි	මණ්ඩුවිල් ආර්සීටීඑම් විද්‍යාලය	யாழ்	சாவகச்சேரி	மாண்டுவில் ஆர்சிடிஎம் கல்லூரி	චාවකච්චේරි, ශ්‍රී ලංකාව	சாவகச்சேரி, இலங்கை
Jaffna	Pooneryn	MOH Office – Pooneryn	False	False	JFFNPNRYNMHFFCPNRYN		Jaffna	LK-41	9.691792	80.098594	Pooneryn		9.505717	80.21101	9.507968	80.208317	G655+58P, Pooneryn, Sri Lanka	0.387256		යාපනය	පුනරීන්	MOH කාර්යාලය - පුනරීන්	யாழ்	பூனெரின்	MOH அலுவலகம் - பூனெரின்	ජී 655+58 පී, පූනරීන්, ශ්‍රී ලංකාව	G655+58P, பூனெரின், இலங்கை
Kilinochchi	Mulankavil	Mulankavil Hospital	False	False	KLNCHCHMLNKVLMLNKVLHSPTL		Kilinochchi	LK-45	9.415742	80.30358	Mulankavil	PS-450135	9.254463	80.141528	9.243423	80.143894	Base Hospital Mulankavil, A32 Road, Mulankavil, Kumulamunai, Sri Lanka	1.255148		කිලිනොච්චි	මුලංකාවිල්	මුලංකාවිල් රෝහල	கிளிநொச்சி	முழங்காவில்	முழங்காவில் மருத்துவமனை	මුලික රෝහල මුලංකාවිල්, ඒ 32 පාර, මුලංකාවිල්, කුමුලමුනෙයි, ශ්‍රී ලංකාව	அடிப்படை மருத்துவமனை முழங்காவில், A32 சாலை, முழங்காவில், குமுலமுனை, இலங்கை
Mullaitivu	Mulliyawalai	Mulliyawalai Tamil Maha Vidyalaya	False	False	MLLTVMLLYWLMLLYWLTMLMHVDYLY		Mullaitivu	LK-44	9.167643	80.549091	Muliyaweli	PS-440150	6.915266	79.87829	9.216635	80.768422	6Q89+M93, Mulliyawalai, Sri Lanka	274.107051	#CenterFarFromPolice	මුලතිව්	මුල්ලියාවලෙයි	මුල්ලියවලෙයි දෙමළ මහා විද්‍යාලය	முல்லைத்தீவு	முள்ளியவளை	முள்ளியவளை தமிழ் மகா வித்தியாலயம்	6Q89+M93, මුල්ලියවලෙයි, ශ්‍රී ලංකාව	6Q89+M93, முள்ளியவளை, இலங்கை
Mullaitivu	Welioya	MOH Office - Sampathnuwa	False	False	MLLTVWLYMHFFCSMPTHNW		Mullaitivu	LK-44	9.167643	80.549091	Welioya	PS-440152	8.980582	80.773572	8.981105	80.771742	XQJC+CMX, Welioya, Sri Lanka	0.209302		මුලතිව්	වැලිඔය	MOH කාර්යාලය - සම්පත්නුවර	முல்லைத்தீவு	வெலிஓயா	MOH அலுவலகம் - சம்பத்னுவா	XQJC+CMX, වැලිඔය, ශ්‍රී ලංකාව	XQJC+CMX, வெலிஓயா, இலங்கை
Mullaitivu	Puthukudiyiruppu	Sri Subramaniyam Vidyalaya	False	False	MLLTVPTHKDYRPPSRSBRMNYMVDYLY		Mullaitivu	LK-44	9.167643	80.549091	Pudukuduiruppu	PS-440149	7.00152	79.95003	9.314562	80.696594	8M7W+RJG, Puthukkudiyiruppu, Sri Lanka	270.089737	#CenterFarFromPolice	මුලතිව්	පුදුකුඩියිරුප්පු	ශ්‍රී සුබ්‍රමනියම් විද්‍යාලය	முல்லைத்தீவு	புதுக்குடியிருப்பு	ஸ்ரீ சுப்பிரமணியம் வித்யாலயா	8M7W+ආර්ජේජී, පුදුක්කුඩියිරුප්පු, ශ්‍රී ලංකාව	8M7W+RJG, புதுக்குடியிருப்பு, இலங்கை
Mullaitivu	Puthukudiyiruppu	Devipuram Primary Clinic Centre	False	False	MLLTVPTHKDYRPPDVPRMPRMRYCLNCCNTR		Mullaitivu	LK-44	9.167643	80.549091	Pudukuduiruppu	PS-440149	7.00152	79.95003	9.313637	80.696168	Puthukudiyiruppu, Sri Lanka	269.977487	#CenterFarFromPolice	මුලතිව්	පුදුකුඩියිරුප්පු	දේවිපුරම් ප්‍රාථමික සායන මධ්‍යස්ථානය	முல்லைத்தீவு	புதுக்குடியிருப்பு	தேவிபுரம் ஆரம்ப மருத்துவமனை மையம்	පුදුකුඩියිරුප්පු, ශ්‍රී ලංකාව	புதுக்குடியிருப்பு, இலங்கை
Mullaitivu	Puthukudiyiruppu	Mungilaru Hospital	False	False	MLLTVPTHKDYRPPMNGLRHSPTL		Mullaitivu	LK-44	9.167643	80.549091	Pudukuduiruppu	PS-440149	7.00152	79.95003	9.315321	80.704462	8P83+4QP Puthukkudiyiruppu Divisional Hospital, Parantan-Mullaitivu Hwy, Puthukkudiyiruppu, Sri Lanka	270.434821	#CenterFarFromPolice	මුලතිව්	පුදුකුඩියිරුප්පු	මුංගිලාරු රෝහල	முல்லைத்தீவு	புதுக்குடியிருப்பு	முங்கிலாறு மருத்துவமனை	8P83+4QP පුදුක්කුඩියිරුප්පු ප්‍රාදේශීය රෝහල, පරන්තන්-මුලතිව් හ්වි, පුදුක්කුඩියිරුප්පු, ශ්‍රී ලංකාව	8P83+4QP புதுக்குடியிருப்பு பிரதேச மருத்துவமனை, பரந்தன்-முல்லைத்தீவு Hwy, புதுக்குடியிருப்பு, இலங்கை
Mullaitivu	Puthukudiyiruppu	Vishwamadu Bharathi Vidyalaya	False	False	MLLTVPTHKDYRPPVSHWMDBHRTHVDYLY		Mullaitivu	LK-44	9.167643	80.549091	Pudukuduiruppu	PS-440149	7.00152	79.95003	9.346216	80.738258	8PWQ+F8J, Ampalavanpokkanai, Sri Lanka	274.858191	#CenterFarFromPolice	මුලතිව්	පුදුකුඩියිරුප්පු	විශ්වමඩු භාරතී විද්‍යාලය	முல்லைத்தீவு	புதுக்குடியிருப்பு	விஸ்வமடு பாரதி வித்யாலயா	8PWQ+F8J, අම්පලවන්පොක්කනෙයි, ශ්‍රී ලංකාව	8PWQ+F8J, அம்பலவன்பொக்கனை, இலங்கை
Mullaitivu	Mankulam	MOH Office – Vannivilan	False	False	MLLTVMNKLMMHFFCVNNVLN		Mullaitivu	LK-44	9.167643	80.549091	Mankulam	PS-440147	9.124606	80.448404	9.224944	80.775953	6QFG+X9G, Tanniyutttu, Sri Lanka	37.658882	#CenterFarFromPolice	මුලතිව්	මාන්කුලම්	එම්ඕඑච් කාර්යාලය - වන්නිවිලාන්	முல்லைத்தீவு	மாங்குளம்	MOH அலுவலகம் - வன்னிவிலன்	6QFG+X9G, ටන්නියුත්තු, ශ්‍රී ලංකාව	6QFG+X9G, தன்னியூட்டு, இலங்கை
Mannar	Adampan	Pallemadu Hospital	False	False	MNNRDMPNPLLMDHSPTL		Mannar	LK-42	8.877429	80.088628	Adampan		8.939451	80.002055	8.981662	79.904574	Thalvupadu - Mannar Rd, Mannar 41000, Sri Lanka	11.69437		මන්නාරම	අඩම්පන්	පල්ලේමාඩු රෝහල	மன்னார்	அடம்பன்	பள்ளேமடு மருத்துவமனை	තල්වුපාඩු - මන්නාරම පාර, මන්නාරම 41000, ශ්‍රී ලංකාව	தல்வுபடு - மன்னார் சாலை, மன்னார் 41000, இலங்கை
Mannar	Uyilankulama	RCTMS College	False	False	MNNRYLNKLMRCTMSCLLG		Mannar	LK-42	8.877429	80.088628									#PoliceLocationUnknown	මන්නාරම	උයිලන්කුලම	ආර්සීටීඑම්එස් විද්‍යාලය	மன்னார்	உயிலங்குளமா	ஆர்சிடிஎம்எஸ் கல்லூரி		
Trincomalee	Muttur	Kanguveli Maha Vidyalaya	False	False	TRNCMLMTTRKNGVLMHVDYLY		Trincomalee	LK-53	8.551241	81.092014	Mutur	PS-530138	8.461133	81.259371	8.395769	81.282165	Paddithidal, Sri Lanka	7.690846		ත්රිකුණාමලය	මුතූර්	කන්ගුවේලි මහා විද්‍යාලය	திருகோணமலை	மூதூர்	கங்குவேலி மகா வித்தியாலயம்	පද්දතිඩාල්, ශ්‍රී ලංකාව	பத்திதிடல், இலங்கை
Trincomalee	Muttur	MOH Office – Muttur	False	False	TRNCMLMTTRMHFFCMTTR		Trincomalee	LK-53	8.551241	81.092014	Mutur	PS-530138	8.461133	81.259371	8.453916	81.264494	1 Old Batticaloa Rd, Mutur, Sri Lanka	0.980859		ත්රිකුණාමලය	මුතූර්	MOH කාර්යාලය - මුතූර්	திருகோணமலை	மூதூர்	MOH அலுவலகம் - மூதூர்	1 පරණ මඩකලපුව පාර, මුතූර්, ශ්‍රී ලංකාව	1 பழைய மட்டக்களப்பு வீதி, மூதூர், இலங்கை
Trincomalee	Kinniya	MOH Office - Kurungnakeni	False	False	TRNCMLKNNYMHFFCKRNGNKN		Trincomalee	LK-53	8.551241	81.092014	Kinnia	PS-530140	6.907289	79.863819	7.484932	80.353119	F9M3+X6H, Kurunegala 60000, Sri Lanka	83.927094	#CenterFarFromPolice	ත්රිකුණාමලය	කින්නියා	එම්ඕඑච් කාර්යාලය - කුරුංග්ණකේනි	திருகோணமலை	கிண்ணியா	MOH அலுவலகம் - குருங்நகேணி	F9M3+X6H, කුරුණෑගල 60000, ශ්‍රී ලංකාව	F9M3+X6H, குருநாகல் 60000, இலங்கை
Trincomalee	Kinniya	Al Surangal Maha Vidyalaya	False	False	TRNCMLKNNYLSRNGLMHVDYLY		Trincomalee	LK-53	8.551241	81.092014	Kinnia	PS-530140	6.907289	79.863819	8.480347	81.185754	F5JP+48J, Kinniya, Sri Lanka	227.697731	#CenterFarFromPolice	ත්රිකුණාමලය	කින්නියා	අල් සුරංගල් මහා විද්‍යාලය	திருகோணமலை	கிண்ணியா	அல் சுரங்கல் மகா வித்தியாலயம்	F5JP+48J, කින්නියා, ශ්‍රී ලංකාව	F5JP+48J, கிண்ணியா, இலங்கை
Trincomalee	Kinniya	Iladi Puhari Maha Vidyalaya	False	False	TRNCMLKNNYLDPHRMHVDYLY		Trincomalee	LK-53	8.551241	81.092014	Kinnia	PS-530140	6.907289	79.863819	8.480347	81.185754	F5JP+48J, Kinniya, Sri Lanka	227.697731	#CenterFarFromPolice	ත්රිකුණාමලය	කින්නියා	ඉලඩි පුහාරි මහා විද්‍යාලය	திருகோணமலை	கிண்ணியா	இலடி புஹாரி மகா வித்தியாலயம்	F5JP+48J, කින්නියා, ශ්‍රී ලංකාව	F5JP+48J, கிண்ணியா, இலங்கை
Trincomalee	Kinniya	Al Hira Vidyalaya	False	False	TRNCMLKNNYLHRVDYLY		Trincomalee	LK-53	8.551241	81.092014	Kinnia	PS-530140	6.907289	79.863819	8.495277	81.185362	MEH Mahroof Rd, Kinniya, Sri Lanka	228.947124	#CenterFarFromPolice	ත්රිකුණාමලය	කින්නියා	අල් හිරා විද්‍යාලය	திருகோணமலை	கிண்ணியா	அல் ஹிரா வித்யாலயா	මෙහ් මහරුෆ් පාර, කින්නියා, ශ්‍රී ලංකාව	MEH மஹ்ரூஃப் சாலை, கிண்ணியா, இலங்கை
Trincomalee	Kinniya	Majeeth Nagar Rural Hospital	False	False	TRNCMLKNNYMJTHNGRRRLHSPTL		Trincomalee	LK-53	8.551241	81.092014	Kinnia	PS-530140	6.907289	79.863819					#CenterLocationUnknown	ත්රිකුණාමලය	කින්නියා	මජිත් නගර් ග්‍රාමීය රෝහල	திருகோணமலை	கிண்ணியா	மஜீத் நகர் கிராமப்புற மருத்துவமனை		
Trincomalee	Kinniya	Base Hospital – Kinniya	False	False	TRNCMLKNNYBSHSPTLKNNY		Trincomalee	LK-53	8.551241	81.092014	Kinnia	PS-530140	6.907289	79.863819	8.501539	81.187539	Tampalakamam-Kinniya Rd, Kinniya 31100, Sri Lanka	229.636589	#CenterFarFromPolice	ත්රිකුණාමලය	කින්නියා	මූලික රෝහල - කින්නියා	திருகோணமலை	கிண்ணியா	அடிப்படை மருத்துவமனை - கிண்ணியா	තම්පලකමම්-කින්නියා පාර, කින්නියා 31100, ශ්‍රී ලංකාව	தம்பலகாமம்-கிண்ணியா சாலை, கிண்ணியா 31100, இலங்கை
Trincomalee	Kinniya	MOH Office – Kinniya	False	False	TRNCMLKNNYMHFFCKNNY		Trincomalee	LK-53	8.551241	81.092014	Kinnia	PS-530140	6.907289	79.863819	8.498696	81.179644	F5XH+FVC, Kinniya 31100, Sri Lanka	228.840304	#CenterFarFromPolice	ත්රිකුණාමලය	කින්නියා	MOH කාර්යාලය - කින්නියා	திருகோணமலை	கிண்ணியா	MOH அலுவலகம் - கிண்ணியா	F5XH+FVC, කින්නියා 31100, ශ්‍රී ලංකාව	F5XH+FVC, கிண்ணியா 31100, இலங்கை
Trincomalee	Sripura	MOH Office – Sripura	False	False	TRNCMLSRPRMHFFCSRPR		Trincomalee	LK-53	8.551241	81.092014	Sripura	PS-530136	8.929617	80.81428	8.926697	80.814799	Padavi Sripura, Padaviya - Sripura Road, Welioya, Sri Lanka	0.329869		ත්රිකුණාමලය	ශ්‍රීපුර	MOH කාර්යාලය - ශ්‍රීපුර	திருகோணமலை	ஸ்ரீபுரா	MOH அலுவலகம் - ஸ்ரீபுரா	පදවි ශ්‍රීපුර, පදවිය - ශ්‍රීපුර පාර, වැලිඔය, ශ්‍රී ලංකාව	படவி ஸ்ரீபுரா, படாவியா - ஸ்ரீபுரா சாலை, வெலிஓயா, இலங்கை
Trincomalee	Kuchchaveli	MOH Office - Kuchchaveli	False	False	TRNCMLKCHCHVLMHFFCKCHCHVL		Trincomalee	LK-53	8.551241	81.092014	Kuchchaweli	PS-530133	8.81895	81.100438	8.740082	81.161616	P5R6+2JQ, Kumpurupiddi, Sri Lanka	11.053646		ත්රිකුණාමලය	කුච්චවේලි	MOH කාර්යාලය - කුච්චවේලි	திருகோணமலை	குச்சவெளி	MOH அலுவலகம் - குச்சவெளி	P5R6+2JQ, කුඹුරුපිඩි, ශ්‍රී ලංකාව	P5R6+2JQ, கும்புறுப்பிடி, இலங்கை
Trincomalee	Kuchchaveli	Divisional Hospital - Kuchchaveli	False	False	TRNCMLKCHCHVLDVSNLHSPTLKCHCHVL		Trincomalee	LK-53	8.551241	81.092014	Kuchchaweli	PS-530133	8.81895	81.100438	8.814795	81.102358	R472+WW9, Kuchchaveli, Sri Lanka	0.508064		ත්රිකුණාමලය	කුච්චවේලි	ප්‍රාදේශීය රෝහල - කුච්චවේලි	திருகோணமலை	குச்சவெளி	பிரதேச மருத்துவமனை - குச்சவெளி	ආර් 472+WW9, කුච්චවේලි, ශ්‍රී ලංකාව	R472+WW9, குச்சவெளி, இலங்கை
Trincomalee	Kuchchaveli	Divisional Hospital - Nilaveli	False	False	TRNCMLKCHCHVLDVSNLHSPTLNLVL		Trincomalee	LK-53	8.551241	81.092014	Kuchchaweli	PS-530133	8.81895	81.100438	8.681035	81.193632	M5JV+CF6, Nilaveli, Sri Lanka	18.44695		ත්රිකුණාමලය	කුච්චවේලි	ප්‍රාදේශීය රෝහල - නිලාවේලි	திருகோணமலை	குச்சவெளி	பிரதேச மருத்துவமனை - நிலாவெளி	M5JV+CF6, නිලාවේලි, ශ්‍රී ලංකාව	M5JV+CF6, நிலவேலி, இலங்கை
Trincomalee	Pulmoddai	Base Hospital - Pulmoddai	False	False	TRNCMLPLMDDBSHSPTLPLMDD		Trincomalee	LK-53	8.551241	81.092014	Pulmudai	PS-530135	6.915266	79.87829	8.941204	80.983139	WXRM+F7J, Pulmoddai, Sri Lanka	256.112801	#CenterFarFromPolice	ත්රිකුණාමලය	පුල්මොඩෙයි	මූලික රෝහල - පුල්මොඩෙයි	திருகோணமலை	புல்மோட்டை	அடிப்படை மருத்துவமனை - புல்மோட்டை	ඩබ්ලිව්එක්ස්ආර්එම්+එෆ් 7 ජේ, පුල්මොඩෙයි, ශ්‍රී ලංකාව	WXRM+F7J, புல்மோடை, இலங்கை
Trincomalee	Serunuwara	MOH Office - Serunuwara	False	False	TRNCMLSRNWRMHFFCSRNWR		Trincomalee	LK-53	8.551241	81.092014	Serunuwara	PS-530244	8.321863	81.299322	8.323143	81.299894	B10, Sri Lanka	0.155671		ත්රිකුණාමලය	සේරුනුවර	MOH කාර්යාලය - සේරුනුවර	திருகோணமலை	சேருநுவரா	MOH அலுவலகம் - சேருநுவரா	බී 10, ශ්‍රී ලංකාව	பி 10, இலங்கை
Trincomalee	Harbour Police	MOH Office - Trincomalee	False	False	TRNCMLHRBRPLCMHFFCTRNCML		Trincomalee	LK-53	8.551241	81.092014	Trinco Harbour Police	PS-530131	8.56705	81.231407	8.598974	81.216963	MOH Office, Farm Rd, Trincomalee, Sri Lanka	3.890062		ත්රිකුණාමලය	වරාය පොලිසිය	එම්ඕඑච් කාර්යාලය - ත්‍රිකුණාමලය	திருகோணமலை	துறைமுக காவல்துறை	MOH அலுவலகம் - திருகோணமலை	එම්ඕඑච් කාර්යාලය, ගොවිපල පාර, ත්‍රිකුණාමලය, ශ්‍රී ලංකාව	MOH அலுவலகம், பண்ணை சாலை, திருகோணமலை, இலங்கை
Trincomalee	Harbour Police	Base Hospital - Trincomalee	False	False	TRNCMLHRBRPLCBSHSPTLTRNCML		Trincomalee	LK-53	8.551241	81.092014	Trinco Harbour Police	PS-530131	8.56705	81.231407	8.56486	81.239445	Hospital Ln, Trincomalee, Sri Lanka	0.917037		ත්රිකුණාමලය	වරාය පොලිසිය	මූලික රෝහල - ත්‍රිකුණාමලය	திருகோணமலை	துறைமுக காவல்துறை	அடிப்படை மருத்துவமனை - திருகோணமலை	රෝහල, ත්‍රිකුණාමලය, ශ්‍රී ලංකාව	மருத்துவமனை Ln, திருகோணமலை, இலங்கை
Trincomalee	Uppuveli	MOH Office - Uppuveli	False	False	TRNCMLPPVLMHFFCPPVL		Trincomalee	LK-53	8.551241	81.092014	Uppuweli	PS-530134	8.593614	81.21743	8.607961	81.216512	Nilaveli Rd, Trincomalee, Sri Lanka	1.599005		ත්රිකුණාමලය	උප්පුවේලි	MOH කාර්යාලය - උප්පුවේලි	திருகோணமலை	உப்புவேலி	MOH அலுவலகம் - உப்புவேலி	නිලාවේලි පාර, ත්‍රිකුණාමලය, ශ්‍රී ලංකාව	நிலவேலி வீதி, திருகோணமலை, இலங்கை
Trincomalee	Kantale	MOH Office - Kantale	False	False	TRNCMLKNTLMHFFCKNTL		Trincomalee	LK-53	8.551241	81.092014	Kantale	PS-530241	8.356129	81.007739	8.349617	81.009107	අග්‍රබෝධි මාවත, Kantale, Sri Lanka	0.739809		ත්රිකුණාමලය	කන්තලේ	MOH කාර්යාලය - කන්තලේ	திருகோணமலை	கந்தலே	MOH அலுவலகம் - கந்தலே	වැඩි දියුණු කිරීම මාවත, කන්තලේ, ශ්‍රී ලංකාව	தீவிரப்படுத்தி மாவத்த, கந்தலே, இலங்கை
Trincomalee	Ichchalampattu	MOH Office - Ichchalampattu	False	False	TRNCMLCHCHLMPTTMHFFCCHCHLMPTT	Eachchilampattu Hospital	Trincomalee	LK-53	8.551241	81.092014	Ichchalampattu		8.289549	81.359002	8.289644	81.358983	Highway, Ichchalampattu, Trincomalee, Sri Lanka	0.010772		ත්රිකුණාමලය	ඉච්චලම්පත්තු	එක්ර්චිලම්පත්තු රෝහල	திருகோணமலை	இச்சலம்பட்டு	ஒவ்வொருசிலம்பட்டு மருத்துவமனை	අධිවේගී මාර්ගය, ඉච්චලම්පත්තු, ත්‍රිකුණාමලය, ශ්‍රී ලංකාව	நெடுஞ்சாலை, ஈச்சலாம்பட்டு, திருகோணமலை, இலங்கை
Trincomalee	Thambalagamuwa	MOH Office - Thambalagamuwa	False	False	TRNCMLTHMBLGMWMHFFCTHMBLGMW		Trincomalee	LK-53	8.551241	81.092014	Thambalagamuva	PS-530243	6.907289	79.863819	8.563603	81.239584	Hospital Ln, Trincomalee, Sri Lanka	238.604889	#CenterFarFromPolice	ත්රිකුණාමලය	තඹලගමුව	MOH කාර්යාලය - තඹලගමුව	திருகோணமலை	தம்பலகாமுவா	MOH அலுவலகம் - தம்பலகமுவ	රෝහල, ත්‍රිකුණාමලය, ශ්‍රී ලංකාව	மருத்துவமனை Ln, திருகோணமலை, இலங்கை
Batticaloa	Batticaloa	Batticaloa Hindu College	False	False	BTTCLBTTCLBTTCLHNDCLLG		Batticaloa	LK-51	7.792772	81.486513	Batticaloa	PS-510101	7.717949	81.699294	7.720987	81.697673	PMCX+93V, Batticaloa, Sri Lanka	0.382244		මඩකලපුව	මඩකලපුව	මඩකලපුව හින්දු විද්‍යාලය	மட்டக்களப்பு	மட்டக்களப்பு	மட்டக்களப்பு இந்து கல்லூரி	PMCX+93V, මඩකලපුව, ශ්‍රී ලංකාව	PMCX+93V, மட்டக்களப்பு, இலங்கை
Batticaloa	Batticaloa	Pudur Wigneswara Vidyalaya	False	False	BTTCLBTTCLPDRWGNSWRVDYLY		Batticaloa	LK-51	7.792772	81.486513	Batticaloa	PS-510101	7.717949	81.699294	7.702421	81.680903	PM2J+X96, Batticaloa, Sri Lanka	2.663158		මඩකලපුව	මඩකලපුව	පුදූර් විග්නේෂ්වර විද්‍යාලය	மட்டக்களப்பு	மட்டக்களப்பு	புதூர் விக்னேஸ்வரா வித்யாலயா	PM2J+X96, මඩකලපුව, ශ්‍රී ලංකාව	PM2J+X96, மட்டக்களப்பு, இலங்கை
Batticaloa	Batticaloa	Kulawadi Cultural Hall	False	False	BTTCLBTTCLKLWDCLTRLHLL		Batticaloa	LK-51	7.792772	81.486513	Batticaloa	PS-510101	7.717949	81.699294	7.719059	81.70279	Goldsmith road, Batticaloa, Sri Lanka	0.404633		මඩකලපුව	මඩකලපුව	කුලවාඩි සංස්කෘතික ශාලාව	மட்டக்களப்பு	மட்டக்களப்பு	குலவாடி கலாச்சார மண்டபம்	ගෝල්ඩ්ස්මිත් පාර, මඩකලපුව, ශ්‍රී ලංකාව	கோல்ட்ஸ்மித் சாலை, மட்டக்களப்பு, இலங்கை
Batticaloa	Batticaloa	Kalladi Sivananda Vidyalaya	False	False	BTTCLBTTCLKLLDSVNNDVDYLY		Batticaloa	LK-51	7.792772	81.486513	Batticaloa	PS-510101	7.717949	81.699294	7.70372	81.716302	Batticaloa, Sri Lanka	2.453441		මඩකලපුව	මඩකලපුව	කල්ලඩි සිවානන්ද විද්‍යාලය	மட்டக்களப்பு	மட்டக்களப்பு	கல்லடி சிவானந்தா வித்தியாலயம்	මඩකලපුව, ශ්‍රී ලංකාව	மட்டக்களப்பு, இலங்கை
Batticaloa	Kokkadicholai	Ramakrishna Maha Vidyalaya	False	False	BTTCLKKKDCHLRMKRSHNMHVDYLY		Batticaloa	LK-51	7.792772	81.486513	Kokkadicholai	PS-510112	7.715979	81.698757	7.412373	81.828629	Udyar Rd, Kalmunai 32300, Sri Lanka	36.68073	#CenterFarFromPolice	මඩකලපුව	කොක්කඩිචෝලේ	රාමක්‍රිෂ්ණා මහා විද්‍යාලය	மட்டக்களப்பு	கொக்கடிச்சோலை	ராமகிருஷ்ணா மகா வித்தியாலயம்	උද්‍යාර් පාර, කල්මුණේ 32300, ශ්‍රී ලංකාව	உடியார் சாலை, கல்முனை 32300, இலங்கை
Batticaloa	Kokkadicholai	Pandariavali  Vidyalaya	False	False	BTTCLKKKDCHLPNDRVLVDYLY		Batticaloa	LK-51	7.792772	81.486513	Kokkadicholai	PS-510112	7.715979	81.698757	7.612375	81.709193	Kokkadicholai, Sri Lanka	11.581137		මඩකලපුව	කොක්කඩිචෝලේ	පණ්ඩරියාවලී විද්‍යාලය	மட்டக்களப்பு	கொக்கடிச்சோலை	பண்டாரியாவலி வித்யாலயா	කොක්කඩිචෝලේ, ශ්‍රී ලංකාව	கொக்கடிச்சோலை, இலங்கை
Batticaloa	Vellawali	Mandur Vidyalaya	False	False	BTTCLVLLWLMNDRVDYLY		Batticaloa	LK-51	7.792772	81.486513	Vellavali	PS-510111	6.907289	79.863819	7.720143	81.700516	PPC2+362, Batticaloa, Sri Lanka	221.887623	#CenterFarFromPolice	මඩකලපුව	වෙල්ලවාලි	මන්දූර් විද්‍යාලය	மட்டக்களப்பு	வெல்லவாலி	மண்டூர் வித்யாலயா	පීපීසී 2+362, මඩකලපුව, ශ්‍රී ලංකාව	PPC2+362, மட்டக்களப்பு, இலங்கை
Batticaloa	Vellawali	Thampalawatta Ganesha Vidyalaya	False	False	BTTCLVLLWLTHMPLWTTGNSHVDYLY		Batticaloa	LK-51	7.792772	81.486513	Vellavali	PS-510111	6.907289	79.863819	7.470733	81.808597	FRC5+7CX, Periyakallar, Sri Lanka	223.579216	#CenterFarFromPolice	මඩකලපුව	වෙල්ලවාලි	තම්පලාවත්ත ගනේෂා විද්‍යාලය	மட்டக்களப்பு	வெல்லவாலி	தம்பலவத்த விநாயகர் வித்தியாலயம்	FRC5+7CX, පෙරියකලර්, ශ්‍රී ලංකාව	FRC5+7CX, பெரியகல்லார், இலங்கை
Batticaloa	Valachchenai	Valachchenai Base Hospital	False	False	BTTCLVLCHCHNVLCHCHNBSHSPTL		Batticaloa	LK-51	7.792772	81.486513	Valachchanai	PS-510107	7.908015	81.533004	7.911315	81.533046	Valaichchenai-Nasuvantivu-Navaladi Road, Sri Lanka	0.367088		මඩකලපුව	වාලච්චේන	වාලච්චේන මූලික රෝහල	மட்டக்களப்பு	வாலாச்சேனை	வாலாச்சேனை ஆதார மருத்துவமனை	වාලච්චේනයි-නසුවන්ටිව්-නවාලාඩි පාර, ශ්‍රී ලංකාව	வாழைச்சேனை-நசுவந்திவு-நாவலடி சாலை, இலங்கை
Batticaloa	Valachchenai	MOH Office - Valachchenai	False	False	BTTCLVLCHCHNMHFFCVLCHCHN		Batticaloa	LK-51	7.792772	81.486513	Valachchanai	PS-510107	7.908015	81.533004	7.912281	81.532775	WG6M+W46, Batticaloa, Sri Lanka	0.475177		මඩකලපුව	වාලච්චේන	MOH කාර්යාලය - වාලච්චේන	மட்டக்களப்பு	வாலாச்சேனை	MOH அலுவலகம் - வாலாச்சேனை	WG6M+W46, මඩකලපුව, ශ්‍රී ලංකාව	WG6M+W46, மட்டக்களப்பு, இலங்கை
Batticaloa	Valachchenai	MOH Office - Oddamavadi	False	False	BTTCLVLCHCHNMHFFCDDMVD		Batticaloa	LK-51	7.792772	81.486513	Valachchanai	PS-510107	7.908015	81.533004	7.912281	81.532775	WG6M+W46, Batticaloa, Sri Lanka	0.475177		මඩකලපුව	වාලච්චේන	එම්ඕඑච් කාර්යාලය - ඔද්දමවඩි	மட்டக்களப்பு	வாலாச்சேனை	MOH அலுவலகம் - ஓட்டமாவடி	WG6M+W46, මඩකලපුව, ශ්‍රී ලංකාව	WG6M+W46, மட்டக்களப்பு, இலங்கை
Batticaloa	Valachchenai	MOH Office - Kiran	False	False	BTTCLVLCHCHNMHFFCKRN		Batticaloa	LK-51	7.792772	81.486513	Valachchanai	PS-510107	7.908015	81.533004	7.502211	79.839254	GR2Q+VPJ, Madampe, Sri Lanka	192.073036	#CenterFarFromPolice	මඩකලපුව	වාලච්චේන	MOH කාර්යාලය - කිරාන්	மட்டக்களப்பு	வாலாச்சேனை	MOH அலுவலகம் - கிரண்	GR2Q+VPJ, මාදම්පේ, ශ්‍රී ලංකාව	GR2Q+VPJ, மாதம்பே, இலங்கை
Batticaloa	Vakarai	Rural Development Office - Panichchankenai	False	False	BTTCLVKRRRLDVLPMNTFFCPNCHCHNKN		Batticaloa	LK-51	7.792772	81.486513	Wakarai	PS-510109	6.934132	79.856305	7.531513	80.43536	Bathalagoda, Ibbagamuwa, Sri Lanka	92.183337	#CenterFarFromPolice	මඩකලපුව	වාකරේ	ග්රාමීය සංවර්ධන කාර්යාලය - පනිච්චන්කේනෙයි	மட்டக்களப்பு	வாகரை	ஊரக வளர்ச்சி அலுவலகம் - பனிச்சங்கேனை	බතලගොඩ, ඉබ්බාගමුව, ශ්‍රී ලංකාව	பதலகொட, இப்பகமுவ, இலங்கை
Batticaloa	Vakarai	Puttur Pre School	False	False	BTTCLVKRPTTRPRSCHL		Batticaloa	LK-51	7.792772	81.486513	Wakarai	PS-510109	6.934132	79.856305	8.12458	81.43356	4CFM+RCM, Sri Lanka	218.591111	#CenterFarFromPolice	මඩකලපුව	වාකරේ	පුත්තූර් පෙර පාසල	மட்டக்களப்பு	வாகரை	புத்தூர் முன்பள்ளி	4 සීඑෆ්එම්+ආර්සීඑම්, ශ්‍රී ලංකාව	4CFM+RCM, இலங்கை
Batticaloa	Vakarai	Rural Development Office - Palchenai	False	False	BTTCLVKRRRLDVLPMNTFFCPLCHN		Batticaloa	LK-51	7.792772	81.486513	Wakarai	PS-510109	6.934132	79.856305	7.729967	81.690263	PMHR+X4J, Batticaloa, Sri Lanka	220.838594	#CenterFarFromPolice	මඩකලපුව	වාකරේ	ග්රාමීය සංවර්ධන කාර්යාලය - පල්චේනායි	மட்டக்களப்பு	வாகரை	ஊரக வளர்ச்சி அலுவலகம் - பால்சேனை	PMHR+X4J, මඩකලපුව, ශ්‍රී ලංකාව	PMHR+X4J, மட்டக்களப்பு, இலங்கை
Batticaloa	Kaluwanchikudy	Padirippu Maha Vidyalaya	False	False	BTTCLKLWNCHKDYPDRPPMHVDYLY		Batticaloa	LK-51	7.792772	81.486513	Kalawanchikudy	PS-510110	7.515908	81.787051	7.517234	81.786135	Paddiruppu M.M.V National School, Base Hospital Road Kaluwanchikudi - Vellaveli Rd, Kaluwanchikudy 038975, Sri Lanka	0.178765		මඩකලපුව	කළුවන්චිකුඩි	පදිරිප්පු මහා විද්‍යාලය	மட்டக்களப்பு	களுவாஞ்சிக்குடி	பதிரிப்பு மகா வித்தியாலயம்	පද්දිරුප්පු එම්එම්වී ජාතික පාසල, මූලික රෝහල පාර කළුවන්චිකුඩි - වෙල්ලවේලි පාර, කලුවාංචිකුඩි 038975, ශ්‍රී ලංකාව	பத்திருப்பு எம்.எம்.வி தேசிய பள்ளி, அடிப்படை மருத்துவமனை சாலை களுவாஞ்சிக்குடி - வெள்ளவெளி சாலை, களுவாஞ்சிகுடி 038975, இலங்கை
Batticaloa	Kaluwanchikudy	Eruvilkannaki Maha Vidyalaya	False	False	BTTCLKLWNCHKDYRVLKNNKMHVDYLY		Batticaloa	LK-51	7.792772	81.486513	Kalawanchikudy	PS-510110	7.515908	81.787051	7.506644	81.779511	GQ4H+MR2, Kaluwanchikudy, Sri Lanka	1.323995		මඩකලපුව	කළුවන්චිකුඩි	එරුවිල්කණ්ණකි මහා විද්‍යාලය	மட்டக்களப்பு	களுவாஞ்சிக்குடி	எருவில்கண்ணகி மகா வித்தியாலயம்	GQ4H+MR2, කලුවාංචිකුඩි, ශ්‍රී ලංකාව	GQ4H+MR2, களுவாஞ்சிக்குடி, இலங்கை
Batticaloa	Kaluwanchikudy	Mahilur Maha Vidyalaya	False	False	BTTCLKLWNCHKDYMHLRMHVDYLY		Batticaloa	LK-51	7.792772	81.486513	Kalawanchikudy	PS-510110	7.515908	81.787051	7.506644	81.779511	GQ4H+MR2, Kaluwanchikudy, Sri Lanka	1.323995		මඩකලපුව	කළුවන්චිකුඩි	මහීලූර් මහා විද්‍යාලය	மட்டக்களப்பு	களுவாஞ்சிக்குடி	மகிழூர் மகா வித்தியாலயம்	GQ4H+MR2, කලුවාංචිකුඩි, ශ්‍රී ලංකාව	GQ4H+MR2, களுவாஞ்சிக்குடி, இலங்கை
Batticaloa	Kaluwanchikudy	Base Hospital - Kaluwanchikudy	False	False	BTTCLKLWNCHKDYBSHSPTLKLWNCHKDY		Batticaloa	LK-51	7.792772	81.486513	Kalawanchikudy	PS-510110	7.515908	81.787051	7.51724	81.785184	GQ8P+V3V, Kaluwanchikudy, Sri Lanka	0.25365		මඩකලපුව	කළුවන්චිකුඩි	මූලික රෝහල - කළුවන්චිකුඩි	மட்டக்களப்பு	களுவாஞ்சிக்குடி	அடிப்படை மருத்துவமனை - களுவாஞ்சிக்குடி	GQ8P+V3V, කළුවාංචිකුඩි, ශ්‍රී ලංකාව	GQ8P+V3V, களுவாஞ்சிக்குடி, இலங்கை
Batticaloa	Kaluwanchikudy	Kurumanveli Maha Vidyalaya	False	False	BTTCLKLWNCHKDYKRMNVLMHVDYLY		Batticaloa	LK-51	7.792772	81.486513	Kalawanchikudy	PS-510110	7.515908	81.787051	7.491694	81.778475	FQRH+M9H, Kaluwanchikudy, Sri Lanka	2.854575		මඩකලපුව	කළුවන්චිකුඩි	කුරුමන්වේලි මහා විද්‍යාලය	மட்டக்களப்பு	களுவாஞ்சிக்குடி	குருமான்வெளி மகா வித்தியாலயம்	FQRH+M9H, කළුවාංචිකුඩි, ශ්‍රී ලංකාව	FQRH+M9H, களுவாஞ்சிக்குடி, இலங்கை
Batticaloa	Vavunathivu	MOH Office - Vavunathivu	False	False	BTTCLVVNTHVMHFFCVVNTHV		Batticaloa	LK-51	7.792772	81.486513	Vavunathive	PS-510102	6.933075	79.857181	7.708253	81.691368	Hospital Rd, Batticaloa, Sri Lanka	219.95575	#CenterFarFromPolice	මඩකලපුව	වවුනතිව්	MOH කාර්යාලය - වවුනතිව්	மட்டக்களப்பு	வவுணதீவு	MOH அலுவலகம் - வவுணதீவு	රෝහල පාර, මඩකලපුව, ශ්‍රී ලංකාව	மருத்துவமனை சாலை, மட்டக்களப்பு, இலங்கை
Batticaloa	Kattankudy	MOH Office - Arayampathy	False	False	BTTCLKTTNKDYMHFFCRYMPTHY		Batticaloa	LK-51	7.792772	81.486513	Kaththankudi	PS-510103	7.715979	81.698757	7.672862	81.735019	MPFP+42R, Sri Lanka	6.243191		මඩකලපුව	කාත්තන්කුඩි	MOH කාර්යාලය - අරයම්පති	மட்டக்களப்பு	காத்தான்குடி	MOH அலுவலகம் - ஆரையம்பதி	එම්පීඑෆ්පී+42 ආර්, ශ්‍රී ලංකාව	MPFP+42R, இலங்கை
Batticaloa	Kattankudy	MOH Office - Kattankudy	False	False	BTTCLKTTNKDYMHFFCKTTNKDY		Batticaloa	LK-51	7.792772	81.486513	Kaththankudi	PS-510103	7.715979	81.698757	7.683586	81.730767	MPMJ+C8J, Kattankudy, Sri Lanka	5.042961		මඩකලපුව	කාත්තන්කුඩි	MOH කාර්යාලය - කාත්තන්කුඩි	மட்டக்களப்பு	காத்தான்குடி	MOH அலுவலகம் - காத்தான்குடி	එම්පීඑම්ජේ+සී 8 ජේ, කාත්තන්කුඩි, ශ්‍රී ලංකාව	MPMJ+C8J, காத்தான்குடி, இலங்கை
Batticaloa	Eravur	Sandiveli Hospital	False	False	BTTCLRVRSNDVLHSPTL		Batticaloa	LK-51	7.792772	81.486513	Eravur	PS-510104	7.715979	81.698757	7.777289	81.602853	Trincomalee Hwy, Eravur, Sri Lanka	12.578998		මඩකලපුව	එරාවුර්	සඳිවේලි රෝහල	மட்டக்களப்பு	ஏறாவூர்	சண்டிவேலி மருத்துவமனை	ත්‍රිකුණාමලය හ්වි, එරාවුර්, ශ්‍රී ලංකාව	திருகோணமலை Hwy, ஏறாவூர், இலங்கை
Batticaloa	Eravur	MOH Office – Eravur	False	False	BTTCLRVRMHFFCRVR		Batticaloa	LK-51	7.792772	81.486513	Eravur	PS-510104	7.715979	81.698757	7.783664	81.605626	QJM4+F76, Eravur, Sri Lanka	12.729342		මඩකලපුව	එරාවුර්	MOH කාර්යාලය - එරාවුර්	மட்டக்களப்பு	ஏறாவூர்	MOH அலுவலகம் - ஏறாவூர்	QJM4+F76, එරාවුර්, ශ්‍රී ලංකාව	QJM4+F76, ஏறாவூர், இலங்கை
Batticaloa	Eravur	Al Askara Vidyalaya	False	False	BTTCLRVRLSKRVDYLY		Batticaloa	LK-51	7.792772	81.486513	Eravur	PS-510104	7.715979	81.698757	7.785947	81.590295	Trincomalee Road, Chenkaladi, Sri Lanka	14.264135		මඩකලපුව	එරාවුර්	අල් අස්කාර විද්‍යාලය	மட்டக்களப்பு	ஏறாவூர்	அல் அஸ்காரா வித்யாலயா	ත්‍රිකුණාමලය පාර, චෙන්කලාඩි, ශ්‍රී ලංකාව	திருகோணமலை சாலை, செங்கலடி, இலங்கை
Batticaloa	Eravur	Al Barkath Mosque	False	False	BTTCLRVRLBRKTHMSQ		Batticaloa	LK-51	7.792772	81.486513	Eravur	PS-510104	7.715979	81.698757	7.776897	81.604203	Eravur, Sri Lanka	12.430415		මඩකලපුව	එරාවුර්	අල් බර්කාත් පල්ලිය	மட்டக்களப்பு	ஏறாவூர்	அல் பர்கத் மசூதி	එරාවුර්, ශ්‍රී ලංකාව	ஏறாவூர், இலங்கை
Batticaloa	Eravur	Wigneswara Maha Vidyalaya	False	False	BTTCLRVRWGNSWRMHVDYLY		Batticaloa	LK-51	7.792772	81.486513	Eravur	PS-510104	7.715979	81.698757	7.781715	81.601743	Eravur - 04, Chenkaladi, Sri Lanka	12.953304		මඩකලපුව	එරාවුර්	විග්නේෂ්වර මහා විද්‍යාලය	மட்டக்களப்பு	ஏறாவூர்	விக்னேஸ்வரா மகா வித்தியாலயம்	එරාවුර් - 04, චෙන්කලාඩි, ශ්‍රී ලංකාව	ஏறாவூர் - 04, செங்கலடி, இலங்கை
Batticaloa	Eravur	Palayadithona Vidyalaya	False	False	BTTCLRVRPLYDTHNVDYLY		Batticaloa	LK-51	7.792772	81.486513	Eravur	PS-510104	7.715979	81.698757	7.785947	81.590295	Trincomalee Road, Chenkaladi, Sri Lanka	14.264135		මඩකලපුව	එරාවුර්	පලයාදිතෝනා විද්‍යාලය	மட்டக்களப்பு	ஏறாவூர்	பாளையதிதோன வித்யாலயா	ත්‍රිකුණාමලය පාර, චෙන්කලාඩි, ශ්‍රී ලංකාව	திருகோணமலை சாலை, செங்கலடி, இலங்கை
Batticaloa	Eravur	Mawadiwembu Hospital	False	False	BTTCLRVRMWDWMBHSPTL		Batticaloa	LK-51	7.792772	81.486513	Eravur	PS-510104	7.715979	81.698757	7.808545	81.566328	Mawadiwembu Hospital, Sri Lanka	17.861302		මඩකලපුව	එරාවුර්	මාවඩිවේඹු රෝහල	மட்டக்களப்பு	ஏறாவூர்	மாவடிவெம்பு மருத்துவமனை	මාවඩිවේඹු රෝහල, ශ්‍රී ලංකාව	மாவடிவெம்பு மருத்துவமனை, இலங்கை
Batticaloa	Eravur	Eravur Hospital	False	False	BTTCLRVRRVRHSPTL		Batticaloa	LK-51	7.792772	81.486513	Eravur	PS-510104	7.715979	81.698757	7.783168	81.605999	QJM4+799, Eravur 30300, Sri Lanka	12.663585		මඩකලපුව	එරාවුර්	එරාවුර් රෝහල	மட்டக்களப்பு	ஏறாவூர்	ஏறாவூர் மருத்துவமனை	QJM4+799, එරාවුර් 30300, ශ්‍රී ලංකාව	QJM4+799, ஏறாவூர் 30300, இலங்கை
Batticaloa	Eravur	Tamil Maha Vidyalaya	False	False	BTTCLRVRTMLMHVDYLY		Batticaloa	LK-51	7.792772	81.486513	Eravur	PS-510104	7.715979	81.698757	7.781715	81.601743	Eravur - 04, Chenkaladi, Sri Lanka	12.953304		මඩකලපුව	එරාවුර්	දෙමළ මහා විද්යාලය	மட்டக்களப்பு	ஏறாவூர்	தமிழ் மகா வித்தியாலயம்	එරාවුර් - 04, චෙන්කලාඩි, ශ්‍රී ලංකාව	ஏறாவூர் - 04, செங்கலடி, இலங்கை
Batticaloa	Eravur	MOH Office - Chenkaladi	False	False	BTTCLRVRMHFFCCHNKLD		Batticaloa	LK-51	7.792772	81.486513	Eravur	PS-510104	7.715979	81.698757	7.783599	81.593367	Trincomalee Hwy, Chenkaladi 30350, Sri Lanka	13.837876		මඩකලපුව	එරාවුර්	MOH කාර්යාලය - චෙන්කලාඩි	மட்டக்களப்பு	ஏறாவூர்	MOH அலுவலகம் - செங்கலடி	ත්‍රිකුණාමලය හ්වි, චෙන්කලාඩි 30350, ශ්‍රී ලංකාව	திருகோணமலை Hwy, செங்கலடி 30350, இலங்கை
Batticaloa	Eravur	Chenkaladi Hospital	False	False	BTTCLRVRCHNKLDHSPTL		Batticaloa	LK-51	7.792772	81.486513	Eravur	PS-510104	7.715979	81.698757	7.783546	81.589961	Batticaloa Rd, Chenkaladi, Sri Lanka	14.151406		මඩකලපුව	එරාවුර්	චෙන්කලාඩි රෝහල	மட்டக்களப்பு	ஏறாவூர்	செங்கலடி மருத்துவமனை	මඩකලපුව පාර, චෙන්කලාඩි, ශ්‍රී ලංකාව	மட்டக்களப்பு வீதி, செங்கலடி, இலங்கை
Batticaloa	Karadiyanaru	Kitula Sri Krishna Vidyalaya	False	False	BTTCLKRDYNRKTLSRKRSHNVDYLY		Batticaloa	LK-51	7.792772	81.486513	Karadiyanaru	PS-510105	7.701992	81.537252	7.700747	81.538387	Karadiyanaru, Sri Lanka	0.186625		මඩකලපුව	කරදියනාරු	කිතුල ශ්‍රී ක්‍රිෂ්ණා විද්‍යාලය	மட்டக்களப்பு	கரடியனாறு	கிதுலா ஸ்ரீ கிருஷ்ணா வித்யாலயா	කරදියනාරු, ශ්‍රී ලංකාව	கரடியனாறு, இலங்கை
Batticaloa	Karadiyanaru	Karadiyanaru Hospital	False	False	BTTCLKRDYNRKRDYNRHSPTL		Batticaloa	LK-51	7.792772	81.486513	Karadiyanaru	PS-510105	7.701992	81.537252	7.700216	81.539779	PG2Q+3WJ, Karadiyanaru, Sri Lanka	0.341482		මඩකලපුව	කරදියනාරු	කරදියනාරු රෝහල	மட்டக்களப்பு	கரடியனாறு	கரடியனாறு மருத்துவமனை	PG2Q+3WJ, කරදියනාරු, ශ්‍රී ලංකාව	PG2Q+3WJ, கரடியனாறு, இலங்கை
Ampara	Chavalakade	MOH Office - Navidanveli	False	False	MPRCHVLKDMHFFCNVDNVL		Ampara	LK-52	7.23699	81.550391	Chawalakade	PS-520125	7.413559	81.776822	7.420081	81.788401	B77, Sri Lanka	1.468805		අම්පාර	චවලකඩේ	MOH කාර්යාලය - නාවිදන්වේලි	அம்பாறை	சவளகடே	MOH அலுவலகம் - நாவிதன்வெளி	බී 77, ශ්‍රී ලංකාව	பி 77, இலங்கை
Ampara	Karaitivu	MOH Office – Karaitivu	False	False	MPRKRTVMHFFCKRTV		Ampara	LK-52	7.23699	81.550391	Karaitivu		9.744059	79.870587	7.377712	81.838796	Colombo-Ratnapura-Wellawaya-Batticaloa Highway, Karativu 32250, Sri Lanka	340.788666	#CenterFarFromPolice	අම්පාර	කාරතිව්	MOH කාර්යාලය - කරෙයිතිව්	அம்பாறை	காரைதீவு	MOH அலுவலகம் - காரைதீவு	කොළඹ-රත්නපුර-වැල්ලවාය-මඩකලපුව අධිවේගී මාර්ගය, කරතිවු 32250, ශ්‍රී ලංකාව	கொழும்பு-இரத்தினபுரி-வெள்ளவாயா-மட்டக்களப்பு நெடுஞ்சாலை, காரடிவு 32250, இலங்கை
Ampara	Kalmunai	Ashraff Memorial Hospital	False	False	MPRKLMNSHRFFMMRLHSPTL		Ampara	LK-52	7.23699	81.550391	Kalmunai	PS-520123	7.414289	81.825006	7.403172	81.831146	A4, Ashraff Memorial Base Hospital, A4 A4, Kalmunai 32300, Sri Lanka	1.409859		අම්පාර	කල්මුණේ	අෂ්රොෆ් අනුස්මරණ රෝහල	அம்பாறை	கல்முனை	அஷ்ரஃப் நினைவு மருத்துவமனை	ඒ 4, අෂ්රොෆ් අනුස්මරණ මූලික රෝහල, ඒ 4 ඒ 4, කල්මුණේ 32300, ශ්‍රී ලංකාව	A4, அஷ்ரஃப் மெமோரியல் பேஸ் ஹாஸ்பிடல், A4 A4, கல்முனை 32300, இலங்கை
Ampara	Kalmunai	MOH Office - Kalmunai South	False	False	MPRKLMNMHFFCKLMNSTH		Ampara	LK-52	7.23699	81.550391	Kalmunai	PS-520123	7.414289	81.825006	7.411712	81.838462	CR6Q+M9P, Kalmunai 32300, Sri Lanka	1.511625		අම්පාර	කල්මුණේ	MOH කාර්යාලය - කල්මුණේ දකුණ	அம்பாறை	கல்முனை	MOH அலுவலகம் - கல்முனை தெற்கு	CR6Q+M9P, කල්මුණේ 32300, ශ්‍රී ලංකාව	CR6Q+M9P, கல்முனை 32300, இலங்கை
Ampara	Kalmunai	Base Hospital - Kalmunai North	False	False	MPRKLMNBSHSPTLKLMNNRTH		Ampara	LK-52	7.23699	81.550391	Kalmunai	PS-520123	7.414289	81.825006	7.420034	81.82232	hospital near, Kalmunai 32300, Sri Lanka	0.704353		අම්පාර	කල්මුණේ	මූලික රෝහල - කල්මුණේ උතුර	அம்பாறை	கல்முனை	அடிப்படை மருத்துவமனை - கல்முனை வடக்கு	රෝහල අසල, කල්මුණේ 32300, ශ්‍රී ලංකාව	மருத்துவமனை அருகில், கல்முனை 32300, இலங்கை
Ampara	Kalmunai	Fathima National College	False	False	MPRKLMNFTHMNTNLCLLG		Ampara	LK-52	7.23699	81.550391	Kalmunai	PS-520123	7.414289	81.825006	7.419889	81.823933	Carmel Fatima College Rd, Kalmunai 32300, Sri Lanka	0.634031		අම්පාර	කල්මුණේ	ෆාතිමා ජාතික විද්‍යාලය	அம்பாறை	கல்முனை	பாத்திமா தேசிய கல்லூரி	කර්මෙල් ෆාතිමා විද්‍යාලය පාර, කල්මුණේ 32300, ශ්‍රී ලංකාව	கார்மல் பாத்திமா கல்லூரி சாலை, கல்முனை 32300, இலங்கை
Ampara	Kalmunai	MOH Office - Kalmunai North	False	False	MPRKLMNMHFFCKLMNNRTH		Ampara	LK-52	7.23699	81.550391	Kalmunai	PS-520123	7.414289	81.825006	7.411712	81.838462	CR6Q+M9P, Kalmunai 32300, Sri Lanka	1.511625		අම්පාර	කල්මුණේ	MOH කාර්යාලය - කල්මුණේ උතුර	அம்பாறை	கல்முனை	MOH அலுவலகம் - கல்முனை வடக்கு	CR6Q+M9P, කල්මුණේ 32300, ශ්‍රී ලංකාව	CR6Q+M9P, கல்முனை 32300, இலங்கை
Ampara	Sainthamarthu	MOH Office – Sainthamarthu	False	False	MPRSNTHMRTHMHFFCSNTHMRTH		Ampara	LK-52	7.23699	81.550391									#PoliceLocationUnknown	අම්පාර	සයින්දමර්තු	MOH කාර්යාලය - සයින්දමර්තු	அம்பாறை	சாய்ந்தமருது	MOH அலுவலகம் - சாய்ந்தமருது		
Ampara	Sainthamarthu	Saindamarthu Hospital	False	False	MPRSNTHMRTHSNDMRTHHSPTL		Ampara	LK-52	7.23699	81.550391									#PoliceLocationUnknown	අම්පාර	සයින්දමර්තු	සයින්දමාර්තු රෝහල	அம்பாறை	சாய்ந்தமருது	சைந்தமர்த்து மருத்துவமனை		
Ampara	Sammanthurai	Sammanthurai Base Hospital	False	False	MPRSMMNTHRSMMNTHRBSHSPTL		Ampara	LK-52	7.23699	81.550391	Samanthurai	PS-520124	7.365785	81.810859	7.368355	81.813042	9R96+MWM, Hospital Rd, Sammanthurai, Sri Lanka	0.373773		අම්පාර	සමන්තුරේ	සමන්තුරේ මූලික රෝහල	அம்பாறை	சம்மாந்துறை	சம்மாந்துறை அடிப்படை மருத்துவமனை	9R96+MWM, රෝහල් පාර, සමන්තුරේ, ශ්‍රී ලංකාව	9R96+MWM, மருத்துவமனை சாலை, சம்மாந்துறை, இலங்கை
Ampara	Sammanthurai	MOH Office – Nintavur	False	False	MPRSMMNTHRMHFFCNNTVR		Ampara	LK-52	7.23699	81.550391	Samanthurai	PS-520124	7.365785	81.810859	7.352821	81.856939	Hospital Rd, Nintavur 32340, Sri Lanka	5.283925		අම්පාර	සමන්තුරේ	එම්ඕඑච් කාර්යාලය - නින්දවූර්	அம்பாறை	சம்மாந்துறை	MOH அலுவலகம் - நிந்தவூர்	රෝහල පාර, නින්දවූර් 32340, ශ්‍රී ලංකාව	மருத்துவமனை Rd, நிந்தவூர் 32340, இலங்கை
Ampara	Sammanthurai	Nintavur Hospital	False	False	MPRSMMNTHRNNTVRHSPTL		Ampara	LK-52	7.23699	81.550391	Samanthurai	PS-520124	7.365785	81.810859	7.353372	81.856852	Hospital Rd, Nintavur, Sri Lanka	5.258159		අම්පාර	සමන්තුරේ	නින්දවූර් රෝහල	அம்பாறை	சம்மாந்துறை	நிந்தவூர் மருத்துவமனை	රෝහල පාර, නින්දවූර්, ශ්‍රී ලංකාව	மருத்துவமனை Rd, நிந்தவூர், இலங்கை
Ampara	Sammanthurai	MOH Office - Sammanthurai	False	False	MPRSMMNTHRMHFFCSMMNTHR		Ampara	LK-52	7.23699	81.550391	Samanthurai	PS-520124	7.365785	81.810859	7.369857	81.812264	9R96+WWR, Sammanthurai, Sri Lanka	0.478712		අම්පාර	සමන්තුරේ	MOH කාර්යාලය - සම්මන්තුරේ	அம்பாறை	சம்மாந்துறை	MOH அலுவலகம் - சம்மாந்துறை	9R96+ඩබ්ලිව්ඩබ්ලිව්ආර්, සම්මන්තුරේ, ශ්‍රී ලංකාව	9R96+WWR, சம்மாந்துறை, இலங்கை
Ampara	Thirukkovil	MOH Office – Thirukkovil	False	False	MPRTHRKKVLMHFFCTHRKKVL		Ampara	LK-52	7.23699	81.550391	Thirukkovil	PS-520127	7.113998	81.852219	7.111635	81.852892	Central Rd, Vinayagapuram, Sri Lanka	0.273131		අම්පාර	තිරුක්කෝවිල්	MOH කාර්යාලය - තිරුක්කෝවිල්	அம்பாறை	திருக்கோவில்	MOH அலுவலகம் - திருக்கோவில்	මධ්‍යම පාර, විනයාගපුරම්, ශ්‍රී ලංකාව	மத்திய வீதி, விநாயகபுரம், இலங்கை
Ampara	Thirukkovil	Thirukkovil Hospital	False	False	MPRTHRKKVLTHRKKVLHSPTL		Ampara	LK-52	7.23699	81.550391	Thirukkovil	PS-520127	7.113998	81.852219	7.115713	81.851887	4V82+7QJ, Thirukkovil, Sri Lanka	0.194247		අම්පාර	තිරුක්කෝවිල්	තිරුක්කෝවිල් රෝහල	அம்பாறை	திருக்கோவில்	திருக்கோவில் மருத்துவமனை	4V82+7QJ, තිරුක්කෝවිල්, ශ්‍රී ලංකාව	4V82+7QJ, திருக்கோவில், இலங்கை
Ampara	Akkaraipattu	MOH Office – Addalachenai	False	False	MPRKKRPTTMHFFCDDLCHN		Ampara	LK-52	7.23699	81.550391	Akkaraipattu	PS-520126	7.216084	81.853254	7.260916	81.853493	7V63+999, Addalaichenai, Sri Lanka	4.986726		අම්පාර	අක්කරපත්තුව	MOH කාර්යාලය - අද්දලචේනයි	அம்பாறை	அக்கரைப்பற்று	MOH அலுவலகம் - ஆடலச்சேனை	7V63+999, අද්දලෙයිචේනෙයි, ශ්‍රී ලංකාව	7V63+999, அடிலைச்சேனை, இலங்கை
Ampara	Akkaraipattu	MOH Office - Akkaraipattu	False	False	MPRKKRPTTMHFFCKKRPTT		Ampara	LK-52	7.23699	81.550391	Akkaraipattu	PS-520126	7.216084	81.853254	7.228134	81.851123	6VH2+7C5, Akkaraipattu, Sri Lanka	1.360772		අම්පාර	අක්කරපත්තුව	MOH කාර්යාලය - අක්කරපත්තුව	அம்பாறை	அக்கரைப்பற்று	MOH அலுவலகம் - அக்கரைப்பற்று	6VH2+7C5, අක්කරපත්තුව, ශ්‍රී ලංකාව	6VH2+7C5, அக்கரைப்பற்று, இலங்கை
Ampara	Ampara	MOH Office - Ampara	False	False	MPRMPRMHFFCMPR		Ampara	LK-52	7.23699	81.550391	Ampara	PS-520113	7.296771	81.677161	7.296412	81.689717	7MWQ+HV8, Ampara, Sri Lanka	1.385868		අම්පාර	අම්පාර	MOH කාර්යාලය - අම්පාර	அம்பாறை	அம்பாறை	MOH அலுவலகம் - அம்பாறை	7MWQ+HV8, අම්පාර, ශ්‍රී ලංකාව	7MWQ+HV8, அம்பாறை, இலங்கை
Ampara	Pottuvil	Hulannuge Vidyalaya	False	False	MPRPTTVLHLNNGVDYLY		Ampara	LK-52	7.23699	81.550391	Pothuvil	PS-520128	6.878387	81.826859	6.954907	81.669253	Hulannuge, Sri Lanka	19.372753		අම්පාර	පොතුවිල්	හුලන්නුගේ විද්‍යාලය	அம்பாறை	பொட்டுவில்	ஹுலன்னுகே வித்யாலயா	හුලන්නුගේ, ශ්‍රී ලංකාව	ஹுலன்னுகே, இலங்கை
Ampara	Pottuvil	Pottuvil Central College	False	False	MPRPTTVLPTTVLCNTRLCLLG		Ampara	LK-52	7.23699	81.550391	Pothuvil	PS-520128	6.878387	81.826859	6.879508	81.835585	Pottuvil, Sri Lanka	0.971748		අම්පාර	පොතුවිල්	පොතුවිල් මධ්‍ය විද්‍යාලය	அம்பாறை	பொட்டுவில்	பொத்துவில் மத்திய கல்லூரி	පොතුවිල්, ශ්‍රී ලංකාව	பொத்துவில், இலங்கை
Ampara	Pottuvil	Kalapukattu Vidyalaya	False	False	MPRPTTVLKLPKTTVDYLY		Ampara	LK-52	7.23699	81.550391	Pothuvil	PS-520128	6.878387	81.826859	6.868577	81.824091	VR9F+CJP, Pottuvil, Sri Lanka	1.13317		අම්පාර	පොතුවිල්	කලපුකට්ටු විද්‍යාලය	அம்பாறை	பொட்டுவில்	கலப்புக்கட்டு வித்யாலயா	වීආර් 9 එෆ්+සීජේපී, පොතුවිල්, ශ්‍රී ලංකාව	VR9F+CJP, பொத்துவில், இலங்கை
Ampara	Pottuvil	MOH Office – Pottuvil	False	False	MPRPTTVLMHFFCPTTVL		Ampara	LK-52	7.23699	81.550391	Pothuvil	PS-520128	6.878387	81.826859	6.877076	81.828969	B374, Pottuvil, Sri Lanka	0.274874		අම්පාර	පොතුවිල්	එම්ඕඑච් කාර්යාලය - පොතුවිල්	அம்பாறை	பொட்டுவில்	MOH அலுவலகம் - பொத்துவில்	බී 374, පොතුවිල්, ශ්‍රී ලංකාව	B374, பொத்துவில், இலங்கை
Ampara	Pottuvil	Pottuvil Hospital	False	False	MPRPTTVLPTTVLHSPTL		Ampara	LK-52	7.23699	81.550391	Pothuvil	PS-520128	6.878387	81.826859	6.876098	81.830463	Main Street Colombo - Batticaloa Hwy, Pottuvil 32500, Sri Lanka	0.47246		අම්පාර	පොතුවිල්	පොතුවිල් රෝහල	அம்பாறை	பொட்டுவில்	பொத்துவில் மருத்துவமனை	කොළඹ ප්‍රධාන වීදිය - මඩකලපුව හ්වි, පොතුවිල් 32500, ශ්‍රී ලංකාව	பிரதான வீதி கொழும்பு - மட்டக்களப்பு Hwy, பொத்துவில் 32500, இலங்கை
