district	police	center	dose1	dose2	fuzzy_key	alt_name	district_name_norm	district_id	district_lat	district_lng	ps_name_norm	ps_id	ps_lat	ps_lng	lat	lng	formatted_address	dis_center_to_police	tags
Colombo	Cinnamon Gardens	Viharamahadevi Park	True	True	CLMBCNNMNGRDNSVHRMHDVPRK		Colombo	LK-11	6.869636	80.019598	Cinnamon Garden	PS-110324	6.907289	79.863819	6.913391	79.86174	Viharamahadevi Park, Colombo, Sri Lanka	0.716497	
Colombo	Thalangama	Diyatha Uyana	True	True	CLMBTHLNGMDYTHYN		Colombo	LK-11	6.869636	80.019598	Thalangama	PS-110466	6.91089	79.929325	6.904575	79.909831	Diyatha Uyana, B240, Sri Jayawardenepura Kotte, Sri Lanka	2.264281	
Colombo	Grandpass	Sugathadasa Outdoor Stadium	True	True	CLMBGRNDPSSSGTHDSTDRSTDM		Colombo	LK-11	6.869636	80.019598	Grandpass	PS-110215	6.949052	79.872983	6.94806	79.868842	Prince of Wales Ave, Colombo 01400, Sri Lanka	0.470345	
Colombo	Narahenpita	Army Hospital Narahenpita	False	False	CLMBNRHNPTRMYHSPTLNRHNPT		Colombo	LK-11	6.869636	80.019598	Narahenpita	PS-110321	6.891832	79.876715	6.900252	79.87618	08 Elvitigala Mawatha, Colombo 00800, Sri Lanka	0.938417	
Colombo	Boralesgamuwa	Kotelawala Defence Hospital	False	True	CLMBBRLSGMWKTLWLDFNCHSPTL		Colombo	LK-11	6.869636	80.019598	Boralesgamuwa	PS-110464	6.841331	79.901255	6.82518	79.907167	RWG4+3VF, Boralesgamuwa, Sri Lanka	1.911444	
Colombo	Borella	St. Luke's Church - Borella	False	False	CLMBBRLLSTLKSCHRCHBRLL		Colombo	LK-11	6.869636	80.019598	Borella	PS-110323	6.915266	79.87829	6.918035	79.874548	1091 Gnanartha Pradeepa Mawatha, Colombo 00800, Sri Lanka	0.515354	
Colombo	Maradana	National Hospital - Colombo	False	False	CLMBMRDNNTNLHSPTLCLMB		Colombo	LK-11	6.869636	80.019598	Maradana	PS-110107	6.927939	79.865471	6.918743	79.868992	Colombo 00700, Sri Lanka	1.094265	
Colombo	Mount Lavinia	Children Park Maternity Clinic	False	False	CLMBMNTLVNCHLDRNPRKMTRNTYCLNC		Colombo	LK-11	6.869636	80.019598	Mount Lavinia	PS-110577	6.825006	79.87009	6.824371	79.872256	RVFC+PWR, Dehiwala-Mount Lavinia, Sri Lanka	0.249426	
Colombo	Wellawatta	MOH Office – Wellawatta	False	False	CLMBWLLWTTMHFFCWLLWTT		Colombo	LK-11	6.869636	80.019598	Wellawatta	PS-110320	6.873107	79.86167	6.861346	79.865943	VV68+G9P, Dehiwala-Mount Lavinia, Sri Lanka	1.390678	
Colombo	Wellampitiya	MOH Office – Kolonnawa	False	False	CLMBWLLMPTYMHFFCKLNNW		Colombo	LK-11	6.869636	80.019598	Wellampitiya	PS-110465	6.937514	79.896298	6.922088	79.916237	Mandavila Rd, Kotikawatta, Sri Lanka	2.791266	
Colombo	Mulleriyawa	MOH Office - Gothatuwa	False	False	CLMBMLLRYWMHFFCGTHTW		Colombo	LK-11	6.869636	80.019598	Mulleriyawa	PS-110469	6.927187	79.929108	6.922088	79.916237	Mandavila Rd, Kotikawatta, Sri Lanka	1.530186	
Colombo	Kaduwela	MOH Office – Kaduwela	False	False	CLMBKDWLMHFFCKDWL		Colombo	LK-11	6.869636	80.019598	Kaduwela		6.936234	79.970183	6.934127	79.984398	B263, Kaduwela, Sri Lanka	1.586964	
Colombo	Fore shore	MOH Office - Jinthupitiya	False	False	CLMBFRSHRMHFFCJNTHPTY		Colombo	LK-11	6.869636	80.019598	Fore shore	PS-110210	6.949589	79.857355	6.943258	79.859238	No.27 Vivekananda Hill, Colombo 01300, Sri Lanka	0.734247	
Colombo	Kosgama	Kosgama Hospital	False	False	CLMBKSGMKSGMHSPTL		Colombo	LK-11	6.869636	80.019598	Kosgama	PS-920227	6.946597	80.137869	6.940956	80.124888	Salawa-Akarawita, 10730, Sri Lanka	1.564606	
Gampaha	Minuwangoda	MOH Office – Minuwangoda	False	False	GMPHMNWNGDMHFFCMNWNGD		Gampaha	LK-12	7.123598	80.018508	Minuwangoda	PS-120238	7.174215	79.957874	7.17227	79.956823	Katunayake-Veyangoda Rd, Minuwangoda, Sri Lanka	0.245525	
Gampaha	Biyagama	MOH Office – Biyagama	False	False	GMPHBYGMMHFFCBYGM		Gampaha	LK-12	7.123598	80.018508	Biyagama	PS-120131	6.962284	80.009037	6.946824	79.994052	Hospital Rd, Sri Lanka	2.386313	
Gampaha	Kiribathgoda	Dalugama Clinic	False	False	GMPHKRBTHGDDLGMCLNC		Gampaha	LK-12	7.123598	80.018508	Kiribathgoda	PS-120135	6.978005	79.929433	6.980847	79.929943	XWJH+8XP, Kiribathgoda, Sri Lanka	0.321091	
Gampaha	Nittambuwa	MOH Office - Aththanagalla	False	False	GMPHNTTMBWMHFFCTHTHNGLL		Gampaha	LK-12	7.123598	80.018508	Nittambuwa	PS-120246	7.149726	80.10046	7.154005	80.062741	B445, Veyangoda 11100, Sri Lanka	4.189956	
Gampaha	Weeragula	Gorakadeniya Viharaya	False	False	GMPHWRGLGRKDNYVHRY		Gampaha	LK-12	7.123598	80.018508	Weeragula	PS-120243	7.097156	80.060399	7.096439	80.059604	33W5+HRH, Gampaha, Sri Lanka	0.118577	
Gampaha	Mirigama	Youth Resort Hall -Mirigama	False	False	GMPHMRGMYTHRSRTHLLMRGM		Gampaha	LK-12	7.123598	80.018508	Meerigama	PS-120248	7.245169	80.128647	7.071262	80.008775	Gampaha, Sri Lanka	23.43489	#CenterFarFromPolice
Gampaha	Katana	MOH Office – Katana	False	False	GMPHKTNMHFFCKTN		Gampaha	LK-12	7.123598	80.018508	Katana	PS-120360	7.224796	79.880015	7.22436	79.88271	Katana, Negombo - Mirigama Rd, Negombo, Sri Lanka	0.301313	
Gampaha	Kadawata	Kirillawala Central College	False	False	GMPHKDWTKRLLWLCNTRLCLLG		Gampaha	LK-12	7.123598	80.018508	Kadawatha	PS-120136	7.00152	79.95003	7.015981	79.969223	2X89+9MX, Eldeniya, Sri Lanka	2.660247	
Gampaha	Negombo	Town Hall – Negombo	False	False	GMPHNGMBTWNHLLNGMB		Gampaha	LK-12	7.123598	80.018508	Negombo	PS-120351	7.224796	79.880015	7.206667	79.851863	Negombo, Sri Lanka	3.703623	
Gampaha	Ja Ela	MOH Office - Ja Ela	False	False	GMPHJLMHFFCJL		Gampaha	LK-12	7.123598	80.018508	Ja - Ela	PS-120133	7.081055	79.890504	7.075216	79.893879	60 Mount Kalvary Rd, Ja-Ela, Sri Lanka	0.748731	
Gampaha	Wattala	MOH Office – Wattala	False	False	GMPHWTTLMHFFCWTTL		Gampaha	LK-12	7.123598	80.018508	Wattala	PS-120128	6.993713	79.894506	6.995817	79.885793	301 Hendala Rd, Wattala, Sri Lanka	0.989991	
Gampaha	Ragama	MOH Office – Ragama	False	False	GMPHRGMMHFFCRGM		Gampaha	LK-12	7.123598	80.018508	Ragama	PS-120134	7.034975	79.924148	7.027386	79.920232	2WGC+X35, Ragama, Sri Lanka	0.948382	
Gampaha	Divulapitiya	MOH Office – Divulapitiya	False	False	GMPHDVLPTYMHFFCDVLPTY		Gampaha	LK-12	7.123598	80.018508	Diulapitiya	PS-120355	7.174215	79.957874	7.215486	80.013606	6287+5CX, Divulapitiya, Sri Lanka	7.67456	
Kalutara	Kalutara	NIHS	False	False	KLTRKLTRNHS		Kalutara	LK-13	6.577316	80.127363	Kalutara South		6.584968	79.96102	6.559269	79.973486	Janatha Ln, Kalutara, Sri Lanka	3.173081	
Kalutara	Thebuwana	Divisional Hospital – Neboda	False	False	KLTRTHBWNDVSNLHSPTLNBD		Kalutara	LK-13	6.577316	80.127363	Thebuwana	PS-1302105	6.654997	80.058183	6.570354	80.073048	wellatha Neboda ., Neboda - Wellatha Rd, Sri Lanka	9.557015	
Kalutara	Dodangoda	MOH Office – Dodangoda	False	False	KLTRDDNGDMHFFCDDNGD	6.540366199937832,80.03661033076219	Kalutara	LK-13	6.577316	80.127363	Dodangoda	PS-130299	6.553375	80.023569	6.541731	80.04335	Dodangoda, Sri Lanka	2.540775	
Kalutara	Dodangoda	Dodangoda Hospital	False	False	KLTRDDNGDDDNGDHSPTL		Kalutara	LK-13	6.577316	80.127363	Dodangoda	PS-130299	6.553375	80.023569	6.540961	80.036553	Wilpatha Rd, Sri Lanka	1.991373	
Kalutara	Matugama	MOH Office – Matugama	False	False	KLTRMTGMMHFFCMTGM		Kalutara	LK-13	6.577316	80.127363	Mathugama	PS-1302103	6.520881	80.117908	6.523544	80.126443	G4FG+CH8, Matugama, Sri Lanka	0.988725	
Kalutara	Agalawatta	Pimbura Hospital	False	False	KLTRGLWTTPMBRHSPTL		Kalutara	LK-13	6.577316	80.127363	Agalawatta		6.542566	80.157178	6.575949	80.158371	H5G5+98H, කළුතර, Sri Lanka	3.715525	
Kalutara	Bulathsinhala	Bulathsinhala Auditorium	False	False	KLTRBLTHSNHLBLTHSNHLDTRM		Kalutara	LK-13	6.577316	80.127363	Bulathsinhala	PS-1302104	6.650425	80.17703	6.648747	80.179137	Bulathsinhala, Sri Lanka	0.29837	
Kalutara	Welipenna	MOH Office - Welipenna	False	False	KLTRWLPNNMHFFCWLPNN		Kalutara	LK-13	6.577316	80.127363	Welipanna	PS-1302101	6.467428	80.108313	6.724224	79.907284	A2, Panadura, Sri Lanka	36.18366	#CenterFarFromPolice
Kalutara	Baduraliya	Baduraliya Hospital	False	False	KLTRBDRLYBDRLYHSPTL		Kalutara	LK-13	6.577316	80.127363	Baduraliya	PS-1302106	6.516756	80.226716	6.514727	80.232731	Tiruwanaketiya-Agalawatte Rd, Baduraliya, Sri Lanka	0.702098	
Kalutara	Bandragama	Pinwala Maternity Clinic	False	False	KLTRBNDRGMPNWLMTRNTYCLNC		Kalutara	LK-13	6.577316	80.127363	Bandaragama	PS-130189	6.715179	79.987674	6.910641	79.884768	Castle St, Colombo 00800, Sri Lanka	24.532673	#CenterFarFromPolice
Kalutara	Bandragama	Madupitiya Community Hall	False	False	KLTRBNDRGMMDPTYCMMNTYHLL		Kalutara	LK-13	6.577316	80.127363	Bandaragama	PS-130189	6.715179	79.987674	6.756726	79.987538	Weediyagoda Rd, Sri Lanka	4.62129	
Kalutara	Millaniya	MOH Office – Millaniya	False	False	KLTRMLLNYMHFFCMLLNY		Kalutara	LK-13	6.577316	80.127363	Millaniya	PS-130191	6.681692	80.020847	6.724224	79.907284	A2, Panadura, Sri Lanka	13.407612	
Kurunegala	Kurunegala	Mobile Medical Team	False	False	KRNGLKRNGLMBLMDCLTM		Kurunegala	LK-61	7.66477	80.23677	Kurunegala	PS-610101	7.485852	80.364137					#CenterLocationUnknown
Kurunegala	Kurunegala	Indulgodakanda Viharaya	False	False	KRNGLKRNGLNDLGDKNDVHRY		Kurunegala	LK-61	7.66477	80.23677	Kurunegala	PS-610101	7.485852	80.364137	7.513944	80.370859	G97C+H8H, Kurunegala, Sri Lanka	3.211396	
Kurunegala	Kurunegala	Teaching Hospital - Kurunegala	False	False	KRNGLKRNGLTCHNGHSPTLKRNGL		Kurunegala	LK-61	7.66477	80.23677	Kurunegala	PS-610101	7.485852	80.364137	7.479122	80.359115	No. 176, Ambepussa - Trincomalee Hwy, Kurunegala 60000, Sri Lanka	0.931185	
Kurunegala	Kuliyapitiya	Teaching Hospital - Kuliyapitiyaala	False	False	KRNGLKLYPTYTCHNGHSPTLKLYPTYL		Kurunegala	LK-61	7.66477	80.23677	Kuliyapitiya	PS-610212	7.471205	80.024139	7.472045	80.044605	F2CV+RR9, Kuliyapitiya, Sri Lanka	2.259034	
Kurunegala	Kuliyapitiya	MOH Office – Kuliyapitiya	False	False	KRNGLKLYPTYMHFFCKLYPTY		Kurunegala	LK-61	7.66477	80.23677	Kuliyapitiya	PS-610212	7.471205	80.024139	7.460426	80.022112	F26C+5RH, Pahalakalugama, Sri Lanka	1.21961	
Kurunegala	Dummalasuriya	MOH Office - Udubaddawa	False	False	KRNGLDMMLSRYMHFFCDBDDW		Kurunegala	LK-61	7.66477	80.23677	Dummalasooriya	PS-610218	7.493843	79.912469	7.489026	79.922352	B247, Sri Lanka	1.214479	
Kurunegala	Pannala	Kithalahitiyawa Vidyalaya	False	False	KRNGLPNNLKTHLHTYWVDYLY		Kurunegala	LK-61	7.66477	80.23677	Pannala	PS-610214	7.327738	80.021761	7.38674	80.038327	Pannala-Kuliyapitiya Rd, Sri Lanka	6.812469	
Kurunegala	Pannala	Daraluwa Vidyalaya	False	False	KRNGLPNNLDRLWVDYLY		Kurunegala	LK-61	7.66477	80.23677	Pannala	PS-610214	7.327738	80.021761	7.349986	79.98557	Eliwila - Yakwila Rd, Daraluwa, Sri Lanka	4.697259	
Kurunegala	Kandanegedara	Kandanegedara Vidyalaya	False	False	KRNGLKNDNGDRKNDNGDRVDYLY		Kurunegala	LK-61	7.66477	80.23677									#PoliceLocationUnknown
Kurunegala	Rasnayakapura	MOH Office – Rasnayakapura	False	False	KRNGLRSNYKPRMHFFCRSNYKPR		Kurunegala	LK-61	7.66477	80.23677	Rasnayakapura	PS-610323	7.776658	80.012692	7.812336	80.080579	R36J+W6P, Sri Lanka	8.468673	
Kurunegala	Gokarella	Model College - Ibbagamuwa	False	False	KRNGLGKRLLMDLCLLGBBGMW		Kurunegala	LK-61	7.66477	80.23677	Gokarella	PS-610108	7.59543	80.480081	7.55541	80.456443	HF44+5H8, Kurunegala, Sri Lanka	5.158288	
Kurunegala	Alawwa	Medagampola Maha Vidyalaya	False	False	KRNGLLWWMDGMPLMHVDYLY		Kurunegala	LK-61	7.66477	80.23677	Alawwa	PS-610103	7.295909	80.24277	7.29543	80.236626	Alawwa, Sri Lanka	0.679954	
Kurunegala	Wariyapola	Kelegama Vidyalaya	False	False	KRNGLWRYPLKLGMVDYLY		Kurunegala	LK-61	7.66477	80.23677	Wariyapola	PS-610105	7.628129	80.241019	8.026821	80.285093	Kelegama, Sri Lanka	44.611593	#CenterFarFromPolice
Puttalam	Chilaw	Karavitagara Vidyalaya	False	False	PTTLMCHLWKRVTGRVDYLY		Puttalam	LK-62	7.973531	79.913833	Chilaw	PS-620241	7.576197	79.788003	7.578243	79.793162	Chilaw, Sri Lanka	0.61266	
Puttalam	Chilaw	Punchi Vilaththawa Primary School	False	False	PTTLMCHLWPNCHVLTHTHWPRMRYSCHL		Puttalam	LK-62	7.973531	79.913833	Chilaw	PS-620241	7.576197	79.788003	7.597799	79.903877	Punchi Vilattawa, Sri Lanka	12.999799	
Puttalam	Chilaw	Maradankulama Vidyalaya	False	False	PTTLMCHLWMRDNKLMVDYLY		Puttalam	LK-62	7.973531	79.913833	Chilaw	PS-620241	7.576197	79.788003	7.542572	79.828274	Maradankulama, Sri Lanka	5.805651	
Puttalam	Arachchikattuwa	Nalladarankattuwa Viharaya	False	False	PTTLMRCHCHKTTWNLLDRNKTTWVHRY		Puttalam	LK-62	7.973531	79.913833	Arachchikattuwa	PS-620247	7.65944	79.837772	7.669298	79.835761	Puttalam - Colombo Rd, Nalladarankattuwa, Sri Lanka	1.118689	
Puttalam	Mundalama	MOH Office – Mundalama	False	False	PTTLMMNDLMMHFFCMNDLM		Puttalam	LK-62	7.973531	79.913833	Mundal	PS-620138	7.808859	79.825729	7.78892	79.82751	Puttalam - Colombo Rd, Sri Lanka	2.226479	
Kandy	Kandy	Mobile Medical Team	False	False	KNDYKNDYMBLMDCLTM		Kandy	LK-21	7.27337	80.709602	Kandy	PS-210101	7.292948	80.642368					#CenterLocationUnknown
Kandy	Kandy	BOI – Pallekele	False	False	KNDYKNDYBPLLKL		Kandy	LK-21	7.27337	80.709602	Kandy	PS-210101	7.292948	80.642368	7.2822	80.723134	Kandy Industrial Park, Pallekele, Sri Lanka	8.990855	
Kandy	Kandy	Aruppala Technical College	False	False	KNDYKNDYRPPLTCHNCLCLLG		Kandy	LK-21	7.27337	80.709602	Kandy	PS-210101	7.292948	80.642368	7.309934	80.644831	47 Aruppola Watta Rd, Kandy 20000, Sri Lanka	1.908791	
Kandy	Kandy	Girls' High School – Kandy	False	False	KNDYKNDYGRLSHGHSCHLKNDY		Kandy	LK-21	7.27337	80.709602	Kandy	PS-210101	7.292948	80.642368	7.286871	80.626752	7JPG+PPR, Kandy, Sri Lanka	1.850775	
Kandy	Ankumbura	Ankumbura Parakrama Maha Vidyalaya	False	False	KNDYNKMBRNKMBRPRKRMMHVDYLY		Kandy	LK-21	7.27337	80.709602	Ankumbura	PS-210104	7.438826	80.571939	7.438119	80.57279	Alawatugoda-Ankumbura-Keppetigala Rd, Ankumbura, Sri Lanka	0.122449	
Kandy	Pujapitiya	Pujapitiya Primary School	False	False	KNDYPJPTYPJPTYPRMRYSCHL		Kandy	LK-21	7.27337	80.709602	Poojapitiya	PS-210115	7.372938	80.587619	7.370162	80.596585	Pujapitiya - Alawatugoda Rd, 20112, Sri Lanka	1.036122	
Kandy	Wattegama	Wattegama Balika Vidyalaya	False	False	KNDYWTTGMWTTGMBLKVDYLY		Kandy	LK-21	7.27337	80.709602	Wattegama	PS-210357	7.350603	80.68335	7.351534	80.682953	Pitiyagedera - Wattegama - Iriyagastenne Rd, Wattegama, Sri Lanka	0.112435	
Kandy	Wattegama	Walala A.Rathnayake Central College	False	False	KNDYWTTGMWLLRTHNYKCNTRLCLLG		Kandy	LK-21	7.27337	80.709602	Wattegama	PS-210357	7.350603	80.68335	7.318909	80.693359	8M9V+H89, Menikhinna, Sri Lanka	3.694199	
Kandy	Udadumbara	Udadumbara Secondary School	False	False	KNDYDDMBRDDMBRSCNDRYSCHL		Kandy	LK-21	7.27337	80.709602	Ududumbara	PS-210358	7.318133	80.8791	7.316566	80.878422	Madugalla Rd, Udadumbara, Sri Lanka	0.189669	
Kandy	Rattota	Kaikayala Maha Vidyalaya	False	False	KNDYRTTTKKYLMHVDYLY		Kandy	LK-21	7.27337	80.709602	Rattota	PS-220122	7.520684	80.678809	7.18627	80.608269	5JP5+G82, Doluwa, Sri Lanka	38.002058	#CenterFarFromPolice
Kandy	Matale	Pradeshiya Sabha - Ukuwela	False	False	KNDYMTLPRDSHYSBHKWL		Kandy	LK-21	7.27337	80.709602	Matale	PS-220121	7.462789	80.626211	7.422071	80.632466	CJCJ+RXG, Ukuwela, Sri Lanka	4.581298	
Kandy	Pallepola	Pallepola Hospital	False	False	KNDYPLLPLPLLPLHSPTL		Kandy	LK-21	7.27337	80.709602									#PoliceLocationUnknown
Badulla	Uva Paranagama	MOH Office - Uva Paranagama	False	False	BDLLVPRNGMMHFFCVPRNGM		Badulla	LK-81	7.074529	81.04486	Uvaparanagama	PS-810213	6.958341	80.930364	6.927934	80.896475	Udapussellawa-Welimada Road, Ambagasdowa, Sri Lanka	5.043837	
Badulla	Ella	MOH Office – Ella	False	False	BDLLLLMHFFCLL		Badulla	LK-81	7.074529	81.04486	Ella	PS-810211	6.876609	81.048276	6.779645	80.964114	QXH7+WC4, Badulla, Sri Lanka	14.237912	
Badulla	Welimada	MOH Office – Welimada	False	False	BDLLWLMDMHFFCWLMD		Badulla	LK-81	7.074529	81.04486	Welimada	PS-810212	6.900481	80.905809	6.927934	80.896475	Udapussellawa-Welimada Road, Ambagasdowa, Sri Lanka	3.222841	
Badulla	Diyatalawa	MOH Office – Haputale	False	False	BDLLDYTLWMHFFCHPTL		Badulla	LK-81	7.074529	81.04486	Diyathalawa	PS-810216	6.806037	80.960252	6.779645	80.964114	QXH7+WC4, Badulla, Sri Lanka	2.966406	
Badulla	Bandarawela	MOH Office – Bandarawela	False	False	BDLLBNDRWLMHFFCBNDRWL		Badulla	LK-81	7.074529	81.04486	Bandarawela	PS-810210	6.831526	80.986784	6.841272	80.98482	Hospital Junction Helamuduna Bus Stop, Etampitiya Rd, Bandarawela, Sri Lanka	1.105533	
Badulla	Mahiyanganaya	MOH Office - Mahiyanganaya	False	False	BDLLMHYNGNYMHFFCMHYNGNY		Badulla	LK-81	7.074529	81.04486	Mahiyangane	PS-810105	7.334975	80.993108	7.349752	80.949998	Hasalaka, Sri Lanka	5.031818	
Moneragala	Monaragala	Mobile Medical Team	False	False	MNRGLMNRGLMBLMDCLTM		Moneragala	LK-82	6.787517	81.303744	Monaragala	PS-820121	6.869866	81.348106					#CenterLocationUnknown
Moneragala	Monaragala	Mahanama Vidyalaya	False	False	MNRGLMNRGLMHNMVDYLY		Moneragala	LK-82	6.787517	81.303744	Monaragala	PS-820121	6.869866	81.348106	6.876259	81.348364	Potuvile Road Colombo - Batticaloa Hwy, Monaragala, Sri Lanka	0.711663	
Moneragala	Monaragala	Royal College	False	False	MNRGLMNRGLRYLCLLG		Moneragala	LK-82	6.787517	81.303744	Monaragala	PS-820121	6.869866	81.348106	6.86108	81.33918	V86Q+CMM, Monaragala, Sri Lanka	1.388052	
Moneragala	Monaragala	Tangwatta Primary School	False	False	MNRGLMNRGLTNGWTTPRMRYSCHL		Moneragala	LK-82	6.787517	81.303744	Monaragala	PS-820121	6.869866	81.348106	6.888323	81.329226	Kotigalhela road, Magandanamulla, Monaragala, Monaragala, Sri Lanka	2.926003	
Moneragala	Monaragala	Community Hall – Monaragala	False	False	MNRGLMNRGLCMMNTYHLLMNRGL		Moneragala	LK-82	6.787517	81.303744	Monaragala	PS-820121	6.869866	81.348106	6.86094	81.343078	Monaragala, Sri Lanka	1.137556	
Moneragala	Siyambalanduwa	03 Piyawara Maha Vidyalaya	False	False	MNRGLSYMBLNDWPYWRMHVDYLY		Moneragala	LK-82	6.787517	81.303744	Siyambalanduwa	PS-820122	6.906851	81.547598	6.906464	81.561014	Siyambalanduwa, Sri Lanka	1.482056	
Moneragala	Siyambalanduwa	Siyambalanduwa Maha Vidyalaya	False	False	MNRGLSYMBLNDWSYMBLNDWMHVDYLY		Moneragala	LK-82	6.787517	81.303744	Siyambalanduwa	PS-820122	6.906851	81.547598	6.906464	81.561014	Siyambalanduwa, Sri Lanka	1.482056	
Moneragala	Dambagalla	MOH Office - Dambagalla	False	False	MNRGLDMBGLLMHFFCDMBGLL		Moneragala	LK-82	6.787517	81.303744	Dambagalla	PS-820123	6.978806	81.372037	6.980456	81.375777	X9JG+58J, Monaragala, Sri Lanka	0.451866	
Moneragala	Badalkumbura	Yodhawewa Maha Vidyalaya Lunugala	False	False	MNRGLBDLKMBRYDHWWMHVDYLYLNGL		Moneragala	LK-82	6.787517	81.303744	Badalkumbura	PS-820128	6.889017	81.235441	6.89796	81.24123	Passara-Moneragala, Highway, Badalkumbura, Sri Lanka	1.182426	
Moneragala	Badalkumbura	Pallampara Viharaya	False	False	MNRGLBDLKMBRPLLMPRVHRY		Moneragala	LK-82	6.787517	81.303744	Badalkumbura	PS-820128	6.889017	81.235441	6.894987	81.239959	මොණරාගල පාර. බඩල්කුඹුර ,Monaragala Road, Passara-Moneragala Hwy, Badalkumbura 91070, Sri Lanka	0.830511	
Moneragala	Wellawaya	Malwatthawala National College	False	False	MNRGLWLLWYMLWTTHWLNTNLCLLG		Moneragala	LK-82	6.787517	81.303744	wellawaya	PS-820130	6.730804	81.100708	6.735177	81.115504	P4P8+36C, Monaragala, Sri Lanka	1.70525	
Moneragala	Wellawaya	Mahinda Rajapaksha Conference Hall	False	False	MNRGLWLLWYMHNDRJPKSHCNFRNCHLL		Moneragala	LK-82	6.787517	81.303744	wellawaya	PS-820130	6.730804	81.100708	6.732053	81.100032	A23, Wellawaya, Sri Lanka	0.157723	
Moneragala	Wellawaya	Ethaduthuwewa Primary School	False	False	MNRGLWLLWYTHDTHWWPRMRYSCHL		Moneragala	LK-82	6.787517	81.303744	wellawaya	PS-820130	6.730804	81.100708	6.711992	81.106917	P464+QQV, Wellawaya, Sri Lanka	2.201999	
Moneragala	Wellawaya	Mahaara Gama Primary School	False	False	MNRGLWLLWYMHRGMPRMRYSCHL		Moneragala	LK-82	6.787517	81.303744	wellawaya	PS-820130	6.730804	81.100708	6.737736	81.103057	Wellawaya, Sri Lanka	0.813535	
Moneragala	Wellawaya	Anapallama Primary School	False	False	MNRGLWLLWYNPLLMPRMRYSCHL		Moneragala	LK-82	6.787517	81.303744	wellawaya	PS-820130	6.730804	81.100708	7.330772	81.43419	8CJM+8M4, මොණරාගල, Sri Lanka	76.215133	#CenterFarFromPolice
Moneragala	Bibila	Lanka Garment	False	False	MNRGLBBLLNKGRMNT		Moneragala	LK-82	6.787517	81.303744	Bibila	PS-820125	7.165232	81.225463	7.173162	81.211371	56F6+7G9, Monaragala, Sri Lanka	1.787918	
Moneragala	Bibila	Bodhirukkarama Viharaya	False	False	MNRGLBBLBDHRKKRMVHRY		Moneragala	LK-82	6.787517	81.303744	Bibila	PS-820125	7.165232	81.225463	7.160371	81.224187	Bibile - Uraniya - Mahiyangana Rd, Bibile, Sri Lanka	0.558726	
Moneragala	Buttala	Gonaganara Sri Bodhi Vidyalaya	False	False	MNRGLBTTLGNGNRSRBDHVDYLY		Moneragala	LK-82	6.787517	81.303744	Buttala	PS-820127	6.762499	81.250445	6.761476	81.247194	Q66W+HVW, Buttala, Sri Lanka	0.37669	
Moneragala	Buttala	Waguruwela Maha Vidyalaya	False	False	MNRGLBTTLWGRWLMHVDYLY		Moneragala	LK-82	6.787517	81.303744	Buttala	PS-820127	6.762499	81.250445	6.716013	81.250856	Kataragama Rd, Thalakolawewa, Sri Lanka	5.170829	
Moneragala	Buttala	Divisional Hospital – Buttala	False	False	MNRGLBTTLDVSNLHSPTLBTTL		Moneragala	LK-82	6.787517	81.303744	Buttala	PS-820127	6.762499	81.250445	6.75781	81.239724	Colombo - Batticaloa Hwy, Buttala, Sri Lanka	1.293971	
Moneragala	Kataragama	Kataragama Devalaya Premises	False	False	MNRGLKTRGMKTRGMDVLYPRMSS		Moneragala	LK-82	6.787517	81.303744	Kataragama	PS-330159	6.41352	81.331368	6.418507	81.333278	Main Office Ruhunu Maha Kataragama Dewalaya, Kataragama 91400, Sri Lanka	0.59352	
Galle	Galle	Mobile Medical Team	False	False	GLLGLLMBLMDCLTM		Galle	LK-31	6.222805	80.251977	Galle	PS-310120	6.032983	80.21714					#CenterLocationUnknown
Galle	Akmeemana	MOH Office – Akmeemana	False	False	GLLKMMNMHFFCKMMN		Galle	LK-31	6.222805	80.251977	Akmeemana	PS-310123	6.073453	80.276627	6.051559	80.257222	Akmeemana MOH, Walahanduwa, Sri Lanka	3.246122	
Galle	Ambalangoda	Galagoda Primary School	False	False	GLLMBLNGDGLGDPRMRYSCHL		Galle	LK-31	6.222805	80.251977	Ambalangoda	PS-310243	6.244958	80.047598	6.206771	80.0831	634M+P65, Batapola, Sri Lanka	5.783754	
Galle	Imaduwa	MOH Office – Imaduwa	False	False	GLLMDWMHFFCMDW		Galle	LK-31	6.222805	80.251977	Imaduwa	PS-310134	6.034389	80.391055	6.030554	80.389371	29JQ+6PH, Delghawatta, Sri Lanka	0.465464	
Galle	Hiniduma	Hiniduma Malika Vidyalaya	False	False	GLLHNDMHNDMMLKVDYLY		Galle	LK-31	6.222805	80.251977	Hiniduma	PS-310131	6.329517	80.322442	6.309995	80.317557	B429, Hiniduma, Sri Lanka	2.23758	
Galle	Hiniduma	Sanasa Bank – Panangala	False	False	GLLHNDMSNSBNKPNNGL		Galle	LK-31	6.222805	80.251977	Hiniduma	PS-310131	6.329517	80.322442	6.229982	80.30456	Sanasa Development Bank, B320, Galwana, Sri Lanka	11.246407	
Galle	Batapola	Batapola Central College	False	False	GLLBTPLBTPLCNTRLCLLG		Galle	LK-31	6.222805	80.251977									#PoliceLocationUnknown
Galle	Elpitiya	MOH Office – Elpitiya	False	False	GLLLPTYMHFFCLPTY		Galle	LK-31	6.222805	80.251977	Elpitiya	PS-310235	6.279163	80.142917	6.295308	80.164521	75W7+4RC, Elpitiya, Sri Lanka	2.98833	
Galle	Karandeniya	MOH Office – Karandeniya	False	False	GLLKRNDNYMHFFCKRNDNY		Galle	LK-31	6.222805	80.251977	Karandeniya	PS-310238	6.271732	80.08479	6.268939	80.099876	Elpitiya Rd, Karandeniya, Sri Lanka	1.696659	
Galle	Wanduramba	Kumbalamalahena Sri Kashyapa Bodhiraja Viharaya	False	False	GLLWNDRMBKMBLMLHNSRKSHYPBDHRJVHRY		Galle	LK-31	6.222805	80.251977	Wanduramba	PS-310124	6.1257	80.252985	6.146839	80.247466	Kumbalamalahena, Sri Lanka	2.429216	
Matara	Matara	Mobile Medical Team	False	False	MTRMTRMBLMDCLTM		Matara	LK-32	6.142734	80.539994	Matara	PS-320101	5.94904	80.533659					#CenterLocationUnknown
Matara	Kamburupitiya	Sapugoda Pirivena	False	False	MTRKMBRPTYSPGDPRVN		Matara	LK-32	6.142734	80.539994	Kamburupitiya	PS-320105	6.073875	80.564579	6.08173	80.559712	Akuressa - Kamburupitiya Rd, Kamburupitiya, Sri Lanka	1.026231	
Matara	Malimbada	Kirimetimulla Vardhanarama Viharaya	False	False	MTRMLMBDKRMTMLLVRDHNRMVHRY		Matara	LK-32	6.142734	80.539994	Malimbada	PS-320117	6.010503	80.517438	5.953038	80.575286	Weherahena Rd, Matara, Sri Lanka	9.044753	
Matara	Weligama	Polathumodara Maha Vidyalaya	False	False	MTRWLGMPLTHMDRMHVDYLY		Matara	LK-32	6.142734	80.539994	Weligama	PS-320111	5.973301	80.426455	5.968208	80.456464	Polwathumodara - Denipitiya Rd, Weligama, Sri Lanka	3.367775	
Matara	Dickwella	Divisional Secretariat -  Dickwella	False	False	MTRDCKWLLDVSNLSCRTRTDCKWLL		Matara	LK-32	6.142734	80.539994	Dikwella	PS-320103	5.964296	80.693198	5.964398	80.689583	Tnagalle Road, Batigama, Sri Lanka	0.40008	
Hambantota	Ambalantota	Hambantota Singapore Hall	False	False	HMBNTTMBLNTTHMBNTTSNGPRHLL		Hambantota	LK-33	6.259779	81.098619	Ambalantota	PS-330157	6.12516	81.023981	6.152971	81.134575	Hambantota Bypass Road, Hambantota, Sri Lanka	12.615936	
Hambantota	Sooriyawewa	Town Hall – Sooriyapura	False	False	HMBNTTSRYWWTWNHLLSRYPR		Hambantota	LK-33	6.259779	81.098619	Sooriyawewa	PS-330155	6.306022	81.003873	6.308418	80.996606	School Rd, Sooriyawewa, Sri Lanka	0.846464	
Hambantota	Sooriyawewa	Sooriyawewa National College	False	False	HMBNTTSRYWWSRYWWNTNLCLLG		Hambantota	LK-33	6.259779	81.098619	Sooriyawewa	PS-330155	6.306022	81.003873	6.307631	80.998212	8X5X+374, Sooriyawewa, Sri Lanka	0.650947	
Hambantota	Weeraketiya	Weeraketiya Youth Corps	False	False	HMBNTTWRKTYWRKTYYTHCRPS		Hambantota	LK-33	6.259779	81.098619	Weeraketiya	PS-330149	6.153899	80.76737	6.147608	80.763374	Weeraketiya, Sri Lanka	0.827608	
Hambantota	Walasmulla	MOH Office – Walasmulla	False	False	HMBNTTWLSMLLMHFFCWLSMLL		Hambantota	LK-33	6.259779	81.098619	Walasmulla	PS-330151	6.154102	80.698256	6.150889	80.693718	Walasmulla, Sri Lanka	0.616099	
Hambantota	Beliatta	MOH Office – Beliatta	False	False	HMBNTTBLTTMHFFCBLTT		Hambantota	LK-33	6.259779	81.098619	Beliatta	PS-330152	6.046936	80.735408	6.051828	80.741735	3P2R+PMQ, Hambantota, Sri Lanka	0.886482	
Hambantota	Beliatta	Sri Sunandarama Viharaya	False	False	HMBNTTBLTTSRSNNDRMVHRY		Hambantota	LK-33	6.259779	81.098619	Beliatta	PS-330152	6.046936	80.735408	7.079663	80.05227	Yakkala - Radawana Rd, Sri Lanka	137.452826	#CenterFarFromPolice
Hambantota	Tangalla	Town Hall - Tangalla	False	False	HMBNTTTNGLLTWNHLLTNGLL		Hambantota	LK-33	6.259779	81.098619	Tangalle	PS-330147	6.023954	80.797255	6.026547	80.795587	Matara Rd, Tangalle, Sri Lanka	0.342386	
Hambantota	Hungama	MOH Office – Hungama	False	False	HMBNTTHNGMMHFFCHNGM		Hambantota	LK-33	6.259779	81.098619	Hungama	PS-330148	6.111262	80.932642	6.081379	80.641425	3JJR+HH3, Hakmana, Sri Lanka	32.379888	#CenterFarFromPolice
Hambantota	Katuwana	MOH Office – Katuwana	False	False	HMBNTTKTWNMHFFCKTWN		Hambantota	LK-33	6.259779	81.098619	Katuwana	PS-330153	6.269722	80.690963	6.26627	80.693035	7M8V+G63, Katuwana, Sri Lanka	0.447115	
Hambantota	Katuwana	Katuwana Maha Vidyalaya	False	False	HMBNTTKTWNKTWNMHVDYLY		Hambantota	LK-33	6.259779	81.098619	Katuwana	PS-330153	6.269722	80.690963	6.249382	80.70948	Julampitiya Rd, Katuwana, Sri Lanka	3.051265	
Hambantota	Katuwana	Ritigahayaya Maha Vidyalaya	False	False	HMBNTTKTWNRTGHYYMHVDYLY		Hambantota	LK-33	6.259779	81.098619	Katuwana	PS-330153	6.269722	80.690963	6.26863	80.726983	B485, Sri Lanka	3.984391	
Rathnapura	Opanayaka	Vidyakara Vidyalaya	False	False	RTHNPRPNYKVDYKRVDYLY		Ratnapura	LK-91	6.586826	80.566158	Opanayaka	PS-910104	6.608519	80.619285	6.610286	80.620812	JJ6C+487, Opanayake, Sri Lanka	0.259028	
Rathnapura	Opanayaka	MOH Office – Opanayaka	False	False	RTHNPRPNYKMHFFCPNYK		Ratnapura	LK-91	6.586826	80.566158	Opanayaka	PS-910104	6.608519	80.619285	6.609517	80.620516	Colombo - Ratnapura - Wellawaya - Batticaloa Rd, Opanayake, Sri Lanka	0.175563	
Rathnapura	Balangoda	Balangoda CC Tamil College	False	False	RTHNPRBLNGDBLNGDCCTMLCLLG		Ratnapura	LK-91	6.586826	80.566158	Balangoda	PS-910103	6.649474	80.700276	6.641498	80.714138	JPR7+HMR, Balangoda, Sri Lanka	1.769912	
Rathnapura	Balangoda	Pettigala Tamil College	False	False	RTHNPRBLNGDPTTGLTMLCLLG		Ratnapura	LK-91	6.586826	80.566158	Balangoda	PS-910103	6.649474	80.700276	6.641498	80.714138	JPR7+HMR, Balangoda, Sri Lanka	1.769912	
Rathnapura	Balangoda	Polwathugoda Vidyalaya	False	False	RTHNPRBLNGDPLWTHGDVDYLY		Ratnapura	LK-91	6.586826	80.566158	Balangoda	PS-910103	6.649474	80.700276	6.602628	80.734181	JP3M+3M3, Ratnapura, Sri Lanka	6.41748	
Rathnapura	Embilipitiya	Moraketiya Maha Vidyalaya	False	False	RTHNPRMBLPTYMRKTYMHVDYLY		Ratnapura	LK-91	6.586826	80.566158	Embilipitiya	PS-910237	6.321993	80.844883	6.340635	80.880629	8VRJ+772, Embilipitiya, Sri Lanka	4.462745	
Rathnapura	Embilipitiya	Modarawana Maha Vidyalaya	False	False	RTHNPRMBLPTYMDRWNMHVDYLY		Ratnapura	LK-91	6.586826	80.566158	Embilipitiya	PS-910237	6.321993	80.844883	6.337086	80.845788	8RPW+R8M, Embilipitiya, Sri Lanka	1.681771	
Rathnapura	Embilipitiya	Vijayaba Model College	False	False	RTHNPRMBLPTYVJYBMDLCLLG		Ratnapura	LK-91	6.586826	80.566158	Embilipitiya	PS-910237	6.321993	80.844883	6.326441	80.850977	Middeniya Road, ඇඹිලිපිටිය, Sri Lanka	0.83586	
Rathnapura	Embilipitiya	Ketagalara Vidyalaya	False	False	RTHNPRMBLPTYKTGLRVDYLY		Ratnapura	LK-91	6.586826	80.566158	Embilipitiya	PS-910237	6.321993	80.844883	6.337086	80.845788	8RPW+R8M, Embilipitiya, Sri Lanka	1.681771	
Rathnapura	Embilipitiya	Panahaduwa Vidyalaya	False	False	RTHNPRMBLPTYPNHDWVDYLY		Ratnapura	LK-91	6.586826	80.566158	Embilipitiya	PS-910237	6.321993	80.844883	6.467973	80.79348	Panahaduwa, Sri Lanka	17.202782	
Rathnapura	Panamura	Walalgoda Vidyalaya	False	False	RTHNPRPNMRWLLGDVDYLY		Ratnapura	LK-91	6.586826	80.566158	Panamure	PS-910236	6.40194	80.687615	6.32955	80.757703	Embilipitiya-Panamure-Urubokka Rd, Sri Lanka	11.174171	
Rathnapura	Panamura	Jandura Vidyalaya	False	False	RTHNPRPNMRJNDRVDYLY		Ratnapura	LK-91	6.586826	80.566158	Panamure	PS-910236	6.40194	80.687615	6.344554	80.750166	Embilipitiya-Panamure-Bulutota Road, Sri Lanka	9.410312	
Rathnapura	Panamura	Diyapota Vidyalaya	False	False	RTHNPRPNMRDYPTVDYLY		Ratnapura	LK-91	6.586826	80.566158	Panamure	PS-910236	6.40194	80.687615	6.705517	80.384839	Ratnapura, Sri Lanka	47.535351	#CenterFarFromPolice
Rathnapura	Godakawela	Meddegama Viharaya	False	False	RTHNPRGDKWLMDDGMVHRY		Ratnapura	LK-91	6.586826	80.566158	Godakawela	PS-910233	6.50224	80.655642	6.504061	80.651163	GM32+JFF, Godakawela, Sri Lanka	0.534831	
Rathnapura	Godakawela	Bibilegama Vidyalaya	False	False	RTHNPRGDKWLBBLGMVDYLY		Ratnapura	LK-91	6.586826	80.566158	Godakawela	PS-910233	6.50224	80.655642	6.474499	80.659186	FMF5+QMV, Pallebedda, Sri Lanka	3.110386	
Rathnapura	Kahawatta	Kahawatta Theater	False	False	RTHNPRKHWTTKHWTTTHTR		Ratnapura	LK-91	6.586826	80.566158	Kahawatta	PS-910107	6.591434	80.56893	6.572256	80.573736	Kahawatta, Sri Lanka	2.198274	
Rathnapura	Kahawatta	Madalagama Vidyalaya	False	False	RTHNPRKHWTTMDLGMVDYLY		Ratnapura	LK-91	6.586826	80.566158	Kahawatta	PS-910107	6.591434	80.56893	6.53663	80.523916	Madalagama, Kahawatta., Endana - Madalagama - Nahalwatura Rd, Sri Lanka	7.867701	
Rathnapura	Rathnapura	Kotamulla Viharaya	False	False	RTHNPRRTHNPRKTMLLVHRY		Ratnapura	LK-91	6.586826	80.566158	Ratnapura	PS-910101	6.679456	80.40223	6.666909	80.382503	M98M+Q26, Ratnapura, Sri Lanka	2.587921	
Rathnapura	Rathnapura	Kahawatta Vidyalaya	False	False	RTHNPRRTHNPRKHWTTVDYLY		Ratnapura	LK-91	6.586826	80.566158	Ratnapura	PS-910101	6.679456	80.40223	6.594629	80.579426	HHVH+VQ3, රත්නපුර, Sri Lanka	21.732442	#CenterFarFromPolice
Rathnapura	Bulathkohupitiya	MOH Office – Bulathkohupitiya	False	False	RTHNPRBLTHKHPTYMHFFCBLTHKHPTY		Ratnapura	LK-91	6.586826	80.566158	Bulathkohupitiya	PS-920232	7.106684	80.3347	7.109127	80.334565	485M+MR4, Bulathkohupitiya, Sri Lanka	0.272143	
Rathnapura	Anuradhapura	Army Hospital Anuradhapura	False	False	RTHNPRNRDHPRRMYHSPTLNRDHPR		Ratnapura	LK-91	6.586826	80.566158	Anuradapura	PS-710101	8.329752	80.407265	8.338302	80.407646	AB02, Anuradhapura, Sri Lanka	0.951939	
Anuradhapura	Mihintale	Mihintale Hospital	False	False	NRDHPRMHNTLMHNTLHSPTL		Anuradhapura	LK-71	8.39199	80.512958	Mihintale	PS-710104	8.360062	80.511889	8.35505	80.509287	Kandy Rd, Mihintale, Sri Lanka	0.626724	
Anuradhapura	Hingurakgoda	Civil Security Force Camp – Paluwewa	False	False	NRDHPRHNGRKGDCVLSCRTYFRCCMPPLWW		Anuradhapura	LK-71	8.39199	80.512958	Hingurakgoda	PS-720129	8.048819	80.965751	8.129143	80.196573	Paluwewa, Sri Lanka	85.174206	#CenterFarFromPolice
Anuradhapura	Polonnaruwa	Bediwewa Maha Vidyalaya	False	False	NRDHPRPLNNRWBDWWMHVDYLY		Anuradhapura	LK-71	8.39199	80.512958	Polonnaruwa	PS-720125	7.924307	81.036895	8.235692	80.747058	6PPW+7RF, Anuradhapura, Sri Lanka	47.099798	#CenterFarFromPolice
Anuradhapura	Polonnaruwa	Kadawalawewa Vidyalaya	False	False	NRDHPRPLNNRWKDWLWWVDYLY		Anuradhapura	LK-71	8.39199	80.512958	Polonnaruwa	PS-720125	7.924307	81.036895	7.939557	81.00034	Polonnaruwa, Sri Lanka	4.369767	
Anuradhapura	Bakamuna	Bakamuna Mahasen Vidyalaya	False	False	NRDHPRBKMNBKMNMHSNVDYLY		Anuradhapura	LK-71	8.39199	80.512958	Bakamuna	PS-720132	7.778789	80.816102	7.775622	80.819812	Dambulla - Bakamuna - Kalugahawela Road, Bakamuna, Sri Lanka	0.539688	
Jaffna	Jaffna	Mobile Medical Team	False	False	JFFNJFFNMBLMDCLTM		Jaffna	LK-41	9.691792	80.098594	Jaffna	PS-410209	9.659919	80.010965					#CenterLocationUnknown
Jaffna	Jaffna	St. John's College	False	False	JFFNJFFNSTJHNSCLLG		Jaffna	LK-41	9.691792	80.098594	Jaffna	PS-410209	9.659919	80.010965	9.657495	80.026568	Main Street, Chundikuli-Columbuthurai Rd, section, Sri Lanka	1.732049	
Jaffna	Jaffna	Navalar Hall	False	False	JFFNJFFNNVLRHLL		Jaffna	LK-41	9.691792	80.098594	Jaffna	PS-410209	9.659919	80.010965	9.669604	80.024455	M29F+RQW, Jaffna, Sri Lanka	1.829892	
Jaffna	Jaffna	PMCU – Punnalaikkadduvan	False	False	JFFNJFFNPMCPNNLKKDDVN		Jaffna	LK-41	9.691792	80.098594	Jaffna	PS-410209	9.659919	80.010965	9.750499	80.058066	Evinai - Punnalaikkadduvan Rd, Sri Lanka	11.321532	
Jaffna	Jaffna	Ariyalai Mahamari Amman Hall	False	False	JFFNJFFNRYLMHMRMMNHLL		Jaffna	LK-41	9.691792	80.098594	Jaffna	PS-410209	9.659919	80.010965	9.660091	80.041517	Pirappankulam, Jaffna, Sri Lanka	3.350164	
Jaffna	Kopay	MOH Office- Nallur	False	False	JFFNKPYMHFFCNLLR		Jaffna	LK-41	9.691792	80.098594	Kopai	PS-410216	9.686887	80.03856	9.673947	80.027736	M2FH+H3H, Jaffna, Sri Lanka	1.865513	
Jaffna	Kopay	Maniyamthottam Church	False	False	JFFNKPYMNYMTHTTMCHRCH		Jaffna	LK-41	9.691792	80.098594	Kopai	PS-410216	9.686887	80.03856	9.696721	80.056986	AB20, Jaffna, Sri Lanka	2.297381	
Jaffna	Chunnagam	Inuvil Ariwalyam Hall	False	False	JFFNCHNNGMNVLRWLYMHLL		Jaffna	LK-41	9.691792	80.098594	Chunnakam	PS-410211	9.745309	80.029151	9.734523	80.023895	Jaffna-Kankesanturai Rd, Chunnakam, Sri Lanka	1.330918	
Jaffna	Chunnagam	PMCU – Inuvil	False	False	JFFNCHNNGMPMCNVL		Jaffna	LK-41	9.691792	80.098594	Chunnakam	PS-410211	9.745309	80.029151	9.716491	80.018015	P289+H6R, Uduvil, Sri Lanka	3.430038	
Jaffna	Chunnagam	Sitti Vinayagar Hall	False	False	JFFNCHNNGMSTTVNYGRHLL		Jaffna	LK-41	9.691792	80.098594	Chunnakam	PS-410211	9.745309	80.029151	9.736919	80.041761	Urelu, Jaffna, Sri Lanka	1.667899	
Jaffna	Chunnagam	MOH Office - Uduvil	False	False	JFFNCHNNGMMHFFCDVL		Jaffna	LK-41	9.691792	80.098594	Chunnakam	PS-410211	9.745309	80.029151	9.742938	80.035132	P2VP+53C, Chunnakam, Sri Lanka	0.706719	
Jaffna	Point Pedro	Valvai Mahalar Maha Vidyalaya	False	False	JFFNPNTPDRVLVMHLRMHVDYLY		Jaffna	LK-41	9.691792	80.098594	Point Pedro	PS-410106	9.827018	80.233187	9.82511	80.176626	nediyakadu pilaiyar koyiladi, AB21, Valvettithurai, Sri Lanka, Valvettithurai, Sri Lanka	6.202612	
Jaffna	Valvettithurai	Hindu Balika Vidyalaya	False	False	JFFNVLVTTTHRHNDBLKVDYLY		Jaffna	LK-41	9.691792	80.098594	Valvettiththurai	PS-410107	9.823216	80.169633	9.826904	80.180819	R5GJ+Q88, Valvettithurai, Sri Lanka	1.292778	
Jaffna	Nelliyady	MOH Office – Karaveddy	False	False	JFFNNLLYDYMHFFCKRVDDY		Jaffna	LK-41	9.691792	80.098594	Nelliadi	PS-410108	9.778397	80.113303	9.792126	80.201799	Q6R2+VP3, Point Pedro, Sri Lanka	9.819656	
Jaffna	Kankesanthurai	Wadarawatta Wigneswara Vidyalaya	False	False	JFFNKNKSNTHRWDRWTTWGNSWRVDYLY		Jaffna	LK-41	9.691792	80.098594	Kankasanthurai	PS-410101	9.806238	80.04703	9.8158	80.048777	Thalsevana Holiday Resort,Kankesanthurai,Jaffna,Sri Lanka., AB21, Kankesanturai, Sri Lanka	1.080678	
Jaffna	Kankesanthurai	Kiramale Naguleswara Maha Vidyalaya	False	False	JFFNKNKSNTHRKRMLNGLSWRMHVDYLY		Jaffna	LK-41	9.691792	80.098594	Kankasanthurai	PS-410101	9.806238	80.04703	9.8158	80.048777	Thalsevana Holiday Resort,Kankesanthurai,Jaffna,Sri Lanka., AB21, Kankesanturai, Sri Lanka	1.080678	
Jaffna	Kodikaman	DH – Varani	False	False	JFFNKDKMNDHVRN		Jaffna	LK-41	9.691792	80.098594	Kodikamam	PS-410217	9.666459	80.132384	9.681381	80.219829	Kodikamam, Kandy - Jaffna Hwy, Sri Lanka	9.73078	
Jaffna	Kodikaman	DH – Kodikaman	False	False	JFFNKDKMNDHKDKMN		Jaffna	LK-41	9.691792	80.098594	Kodikamam	PS-410217	9.666459	80.132384	9.681381	80.219829	Kodikamam, Kandy - Jaffna Hwy, Sri Lanka	9.73078	
Jaffna	Ilavalai	St. Henry's College	False	False	JFFNLVLSTHNRYSCLLG		Jaffna	LK-41	9.691792	80.098594	Ilavalai	PS-410102	9.775967	79.983146	9.79516	79.991126	ilavala Jaffna Sandilippai-Senthankulam Road Sri Lanka, Ilavalai, Sri Lanka	2.30708	
Jaffna	Achchuveli	Puttur Somaskanda Vidyalaya	False	False	JFFNCHCHVLPTTRSMSKNDVDYLY		Jaffna	LK-41	9.691792	80.098594	Achchuweli	PS-410103	6.934132	79.856305	9.745655	80.104632	AB20 - Point Pedro Road Puttur west, Jaffna 40000, Sri Lanka	313.916871	#CenterFarFromPolice
Jaffna	Achchuveli	Achchuveli  Hospital	False	False	JFFNCHCHVLCHCHVLHSPTL		Jaffna	LK-41	9.691792	80.098594	Achchuweli	PS-410103	6.934132	79.856305	9.772721	80.115501	Avarankal-Tondaimanar Rd, Sri Lanka	317.021383	#CenterFarFromPolice
Jaffna	Wadukkotte	MOH Office – Chankanai	False	False	JFFNWDKKTTMHFFCCHNKN		Jaffna	LK-41	9.691792	80.098594	Vaddukoddai		9.728886	79.947771	9.753617	79.976004	QX3G+CCR, Sri Lanka	4.140836	
Jaffna	Manippai	MOH Office – Sandilippai	False	False	JFFNMNPPMHFFCSNDLPP		Jaffna	LK-41	9.691792	80.098594	Manippai	PS-410210	9.727151	79.996905	9.749336	79.987383	Sandilipay, Sri Lanka	2.679343	
Jaffna	Manippai	Sivabhumi Elders' Home	False	False	JFFNMNPPSVBHMLDRSHM		Jaffna	LK-41	9.691792	80.098594	Manippai	PS-410210	9.727151	79.996905	9.754461	79.95031	AB17, Vaddukoddai, Sri Lanka	5.943027	
Jaffna	Kayts	MOH Office – Karainagar	False	False	JFFNKYTSMHFFCKRNGR		Jaffna	LK-41	9.691792	80.098594	Kayts	PS-410212	9.728654	79.94775	9.725097	79.99772	Sri Lanka, Manipay, Sri Lanka	5.492521	
Jaffna	Kayts	Nayanativu Amutha Surabi Hall	False	False	JFFNKYTSNYNTVMTHSRBHLL		Jaffna	LK-41	9.691792	80.098594	Kayts	PS-410212	9.728654	79.94775	9.696917	79.860223	MVW6+Q39, Kayts, Sri Lanka	10.224775	
Jaffna	Kayts	MOH Office – Kayts	False	False	JFFNKYTSMHFFCKYTS		Jaffna	LK-41	9.691792	80.098594	Kayts	PS-410212	9.728654	79.94775	9.697759	79.866366	Sri Lanka, Kayts, Sri Lanka	9.561445	
Jaffna	Chavakachcheri	MOH Office – Chavakachcheri	False	False	JFFNCHVKCHCHRMHFFCCHVKCHCHR		Jaffna	LK-41	9.691792	80.098594	Chawakachcheri	PS-410215	9.666459	80.132384	9.663455	80.166068	Dutch Rd, Chavakachcheri, Sri Lanka	3.70857	
Jaffna	Chavakachcheri	Madduvil Health Centre	False	False	JFFNCHVKCHCHRMDDVLHLTHCNTR		Jaffna	LK-41	9.691792	80.098594	Chawakachcheri	PS-410215	9.666459	80.132384	9.687407	80.136578	Madduvil Centre, Sri Lanka	2.374988	
Jaffna	Chavakachcheri	Golden Jubilee Hall	False	False	JFFNCHVKCHCHRGLDNJBLHLL		Jaffna	LK-41	9.691792	80.098594	Chawakachcheri	PS-410215	9.666459	80.132384	9.659136	80.160946	M556+M94, Chavakachcheri, Sri Lanka	3.236063	
Jaffna	Chavakachcheri	Navakkuli Maha Vidyalaya	False	False	JFFNCHVKCHCHRNVKKLMHVDYLY		Jaffna	LK-41	9.691792	80.098594	Chawakachcheri	PS-410215	9.666459	80.132384	9.658598	80.097497	M35W+CXQ, Chavakachcheri, Sri Lanka	3.924081	
Jaffna	Pooneryn	MOH Office – Pooneryn	False	False	JFFNPNRYNMHFFCPNRYN		Jaffna	LK-41	9.691792	80.098594	Pooneryn		9.505717	80.21101	9.507968	80.208317	G655+58P, Pooneryn, Sri Lanka	0.387256	
Kilinochchi	Kilinochchi	MOH Office - Karachchi	False	False	KLNCHCHKLNCHCHMHFFCKRCHCH		Kilinochchi	LK-45	9.415742	80.30358	Kilinochchi	PS-450131	9.392265	80.407846	9.396965	80.407782	Kandy - Jaffna Hwy, Kilinochchi, Sri Lanka	0.522827	
Kilinochchi	Pudukudiruppu	MOH Office – Pudukudiruppu	False	False	KLNCHCHPDKDRPPMHFFCPDKDRPP		Kilinochchi	LK-45	9.415742	80.30358	Pudukuduiruppu	PS-440149	7.00152	79.95003	9.320965	80.683013	Parantan-Mullaitivu Hwy, Velikkandal, Sri Lanka	270.317914	#CenterFarFromPolice
Kilinochchi	Pudukudiruppu	Puthukkudiyiruppu Muslim Maha Vidyalaya	False	False	KLNCHCHPDKDRPPPTHKKDYRPPMSLMMHVDYLY		Kilinochchi	LK-45	9.415742	80.30358	Pudukuduiruppu	PS-440149	7.00152	79.95003	9.394954	80.409776	Vilson Rd, Kilinochchi 44400, Sri Lanka	270.989357	#CenterFarFromPolice
Mullaitivu	Mullaitivu	MOH Office – Mullaitivu	False	False	MLLTVMLLTVMHFFCMLLTV		Mullaitivu	LK-44	9.167643	80.549091	Mullativu	PS-440148	9.212825	80.760159	9.224944	80.775953	6QFG+X9G, Tanniyutttu, Sri Lanka	2.196383	
Mannar	Mannar	MOH Office – Mannar	False	False	MNNRMNNRMHFFCMNNR		Mannar	LK-42	8.877429	80.088628	Mannar	PS-420138	8.978123	79.911642	8.979156	79.91391	Uppukulam, Mannar, Sri Lanka	0.274394	
Mannar	Mannar	St' Marys College	False	False	MNNRMNNRSTMRYSCLLG		Mannar	LK-42	8.877429	80.088628	Mannar	PS-420138	8.978123	79.911642	8.986328	79.908915	XWP5+GHM, Mannar, Sri Lanka	0.96056	
Trincomalee	Muttur	MOH Office – Muttur	False	False	TRNCMLMTTRMHFFCMTTR		Trincomalee	LK-53	8.551241	81.092014	Mutur	PS-530138	8.461133	81.259371	8.453916	81.264494	1 Old Batticaloa Rd, Mutur, Sri Lanka	0.980859	
Trincomalee	Muttur	Base Hospital – Muttur	False	False	TRNCMLMTTRBSHSPTLMTTR		Trincomalee	LK-53	8.551241	81.092014	Mutur	PS-530138	8.461133	81.259371	8.454534	81.263018	Old Batticaloa Rd, Mutur, Sri Lanka	0.836517	
Trincomalee	Muttur	An Nahar Maha Vidyalaya	False	False	TRNCMLMTTRNNHRMHVDYLY		Trincomalee	LK-53	8.551241	81.092014	Mutur	PS-530138	8.461133	81.259371	8.451822	81.262307	F726+PWF, Mutur, Sri Lanka	1.084867	
Trincomalee	Muttur	Al Hidayah Maha Vidyalaya	False	False	TRNCMLMTTRLHDYHMHVDYLY		Trincomalee	LK-53	8.551241	81.092014	Mutur	PS-530138	8.461133	81.259371	8.449646	81.26789	1 Old Batticaloa Rd, Mutur, Sri Lanka	1.584607	
Trincomalee	Muttur	Chennaiur Maha Vidyalaya	False	False	TRNCMLMTTRCHNNRMHVDYLY		Trincomalee	LK-53	8.551241	81.092014	Mutur	PS-530138	8.461133	81.259371	8.449646	81.26789	1 Old Batticaloa Rd, Mutur, Sri Lanka	1.584607	
Trincomalee	Muttur	Al Hilal Maha Vidyalaya	False	False	TRNCMLMTTRLHLLMHVDYLY		Trincomalee	LK-53	8.551241	81.092014	Mutur	PS-530138	8.461133	81.259371	8.457062	81.268574	Mutur, Sri Lanka	1.109154	
Trincomalee	Muttur	Mallikaithivu Maha Vidyalaya	False	False	TRNCMLMTTRMLLKTHVMHVDYLY		Trincomalee	LK-53	8.551241	81.092014	Mutur	PS-530138	8.461133	81.259371	8.449646	81.26789	1 Old Batticaloa Rd, Mutur, Sri Lanka	1.584607	
Trincomalee	Muttur	Palathopur Zahira Maha Vidyalaya	False	False	TRNCMLMTTRPLTHPRZHRMHVDYLY		Trincomalee	LK-53	8.551241	81.092014	Mutur	PS-530138	8.461133	81.259371	8.457906	81.268402	Mutur, Sri Lanka	1.056434	
Trincomalee	Muttur	Al Hamra Vidyalaya	False	False	TRNCMLMTTRLHMRVDYLY		Trincomalee	LK-53	8.551241	81.092014	Mutur	PS-530138	8.461133	81.259371	8.726266	81.172086	P5GC+GR4, Irrakkakandi, Sri Lanka	31.013792	#CenterFarFromPolice
Trincomalee	Muttur	Bharathipuram Vidyalaya	False	False	TRNCMLMTTRBHRTHPRMVDYLY		Trincomalee	LK-53	8.551241	81.092014	Mutur	PS-530138	8.461133	81.259371	8.455202	81.293904	CHENAIYOOR, Mutur, Sri Lanka	3.856171	
Trincomalee	Muttur	Kiliveddy  Hospital	False	False	TRNCMLMTTRKLVDDYHSPTL		Trincomalee	LK-53	8.551241	81.092014	Mutur	PS-530138	8.461133	81.259371	8.361836	81.28427	Trincomalee Hwy, Sri Lanka	11.379518	
Trincomalee	Muttur	Pallekudiirippu Kale Mahal Vidyalaya	False	False	TRNCMLMTTRPLLKDRPPKLMHLVDYLY		Trincomalee	LK-53	8.551241	81.092014	Mutur	PS-530138	8.461133	81.259371	8.449646	81.26789	1 Old Batticaloa Rd, Mutur, Sri Lanka	1.584607	
Trincomalee	Muttur	Sampur Hospital	False	False	TRNCMLMTTRSMPRHSPTL		Trincomalee	LK-53	8.551241	81.092014	Mutur	PS-530138	8.461133	81.259371	8.481264	81.292795	F7JV+G43, Trincomalee, Sri Lanka	4.305295	
Trincomalee	Muttur	Thopur Hospital	False	False	TRNCMLMTTRTHPRHSPTL		Trincomalee	LK-53	8.551241	81.092014	Mutur	PS-530138	8.461133	81.259371	8.39979	81.304998	Thoppur, Sri Lanka	8.471041	
Trincomalee	Kinniya	MOH Office – Kurunjankeni	False	False	TRNCMLKNNYMHFFCKRNJNKN		Trincomalee	LK-53	8.551241	81.092014	Kinnia	PS-530140	6.907289	79.863819	8.498696	81.179644	F5XH+FVC, Kinniya 31100, Sri Lanka	228.840304	#CenterFarFromPolice
Trincomalee	Kinniya	MOH Office – Kinniya	False	False	TRNCMLKNNYMHFFCKNNY		Trincomalee	LK-53	8.551241	81.092014	Kinnia	PS-530140	6.907289	79.863819	8.498696	81.179644	F5XH+FVC, Kinniya 31100, Sri Lanka	228.840304	#CenterFarFromPolice
Trincomalee	Kinniya	Al Aksha Central College	False	False	TRNCMLKNNYLKSHCNTRLCLLG		Trincomalee	LK-53	8.551241	81.092014	Kinnia	PS-530140	6.907289	79.863819	8.496662	81.180256	F5WJ+M46, Kinniya 31100, Sri Lanka	228.708367	#CenterFarFromPolice
Trincomalee	Kinniya	Al Adan Vidyalaya	False	False	TRNCMLKNNYLDNVDYLY		Trincomalee	LK-53	8.551241	81.092014	Kinnia	PS-530140	6.907289	79.863819	8.502547	81.180383	Kinniya, Sri Lanka	229.222923	#CenterFarFromPolice
Trincomalee	Kinniya	Al Irfan Viyalaya	False	False	TRNCMLKNNYLRFNVYLY		Trincomalee	LK-53	8.551241	81.092014	Kinnia	PS-530140	6.907289	79.863819	8.481391	81.191368	F5JR+HG5, Kinniya, Sri Lanka	228.183186	#CenterFarFromPolice
Trincomalee	Kinniya	Base Hospital Kinniya	False	False	TRNCMLKNNYBSHSPTLKNNY		Trincomalee	LK-53	8.551241	81.092014	Kinnia	PS-530140	6.907289	79.863819	8.501539	81.187539	Tampalakamam-Kinniya Rd, Kinniya 31100, Sri Lanka	229.636589	#CenterFarFromPolice
Trincomalee	Sripura	MOH Office – Sripura	False	False	TRNCMLSRPRMHFFCSRPR		Trincomalee	LK-53	8.551241	81.092014	Sripura	PS-530136	8.929617	80.81428	8.926697	80.814799	Padavi Sripura, Padaviya - Sripura Road, Welioya, Sri Lanka	0.329869	
Trincomalee	Sripura	Jayanthipura Vidyalaya	False	False	TRNCMLSRPRJYNTHPRVDYLY		Trincomalee	LK-53	8.551241	81.092014	Sripura	PS-530136	8.929617	80.81428	8.908396	80.833813	Jayanthi wewa, Padavi -Sripura, Sri Lanka	3.190373	
Trincomalee	Sripura	Sripura Hospital	False	False	TRNCMLSRPRSRPRHSPTL		Trincomalee	LK-53	8.551241	81.092014	Sripura	PS-530136	8.929617	80.81428	8.929308	80.813901	Padaviya - Sripura Road, Welioya, Sri Lanka	0.053996	
Trincomalee	Kuchchaveli	MOH Office – Kuchchaveli	False	False	TRNCMLKCHCHVLMHFFCKCHCHVL		Trincomalee	LK-53	8.551241	81.092014	Kuchchaweli	PS-530133	8.81895	81.100438	8.740082	81.161616	P5R6+2JQ, Kumpurupiddi, Sri Lanka	11.053646	
Trincomalee	Kuchchaveli	Divisional Hospital – Kuchchaveli	False	False	TRNCMLKCHCHVLDVSNLHSPTLKCHCHVL		Trincomalee	LK-53	8.551241	81.092014	Kuchchaweli	PS-530133	8.81895	81.100438	8.814795	81.102358	R472+WW9, Kuchchaveli, Sri Lanka	0.508064	
Trincomalee	Kuchchaveli	Annuria Muslim Maha Vidyalaya	False	False	TRNCMLKCHCHVLNNRMSLMMHVDYLY		Trincomalee	LK-53	8.551241	81.092014	Kuchchaweli	PS-530133	8.81895	81.100438	8.504893	81.179851	Kinniya, Sri Lanka	36.007413	#CenterFarFromPolice
Trincomalee	Kuchchaveli	Erakkandi Muslim Maha Vidyalaya	False	False	TRNCMLKCHCHVLRKKNDMSLMMHVDYLY		Trincomalee	LK-53	8.551241	81.092014	Kuchchaweli	PS-530133	8.81895	81.100438	8.592448	81.222257	N, N Coast Rd, Trincomalee, Sri Lanka	28.532789	#CenterFarFromPolice
Trincomalee	Kuchchaveli	Kallanpattu Vidyalaya	False	False	TRNCMLKCHCHVLKLLNPTTVDYLY		Trincomalee	LK-53	8.551241	81.092014	Kuchchaweli	PS-530133	8.81895	81.100438	8.399144	81.032531	92XM+M22, Trincomalee, Sri Lanka	47.288391	#CenterFarFromPolice
Trincomalee	Kuchchaveli	Kallarawa Community Hall	False	False	TRNCMLKCHCHVLKLLRWCMMNTYHLL		Trincomalee	LK-53	8.551241	81.092014	Kuchchaweli	PS-530133	8.81895	81.100438	8.816329	81.100963	R482+G9P, Kuchchaveli, Sri Lanka	0.29719	
Trincomalee	Kuchchaveli	Putawakattu	False	False	TRNCMLKCHCHVLPTWKTT		Trincomalee	LK-53	8.551241	81.092014	Kuchchaweli	PS-530133	8.81895	81.100438	8.816329	81.100963	R482+G9P, Kuchchaveli, Sri Lanka	0.29719	
Trincomalee	Kuchchaveli	Divisional Hospital – Nilaveli	False	False	TRNCMLKCHCHVLDVSNLHSPTLNLVL		Trincomalee	LK-53	8.551241	81.092014	Kuchchaweli	PS-530133	8.81895	81.100438	8.681035	81.193632	M5JV+CF6, Nilaveli, Sri Lanka	18.44695	
Trincomalee	Sampur	Chennaiur Maha Vidyalaya	False	False	TRNCMLSMPRCHNNRMHVDYLY		Trincomalee	LK-53	8.551241	81.092014									#PoliceLocationUnknown
Trincomalee	Sampur	Patalipuram Health Medical Centre	False	False	TRNCMLSMPRPTLPRMHLTHMDCLCNTR		Trincomalee	LK-53	8.551241	81.092014									#PoliceLocationUnknown
Trincomalee	Pulmoddai	Base Hospital -Pulmoddai	False	False	TRNCMLPLMDDBSHSPTLPLMDD		Trincomalee	LK-53	8.551241	81.092014	Pulmudai	PS-530135	6.915266	79.87829	8.941204	80.983139	WXRM+F7J, Pulmoddai, Sri Lanka	256.112801	#CenterFarFromPolice
Trincomalee	Pulmoddai	Kallarawa Community Hall	False	False	TRNCMLPLMDDKLLRWCMMNTYHLL		Trincomalee	LK-53	8.551241	81.092014	Pulmudai	PS-530135	6.915266	79.87829	8.350552	81.008358	9225+68H, Kantale, Sri Lanka	202.50243	#CenterFarFromPolice
Trincomalee	Pulmoddai	Muslim National College	False	False	TRNCMLPLMDDMSLMNTNLCLLG		Trincomalee	LK-53	8.551241	81.092014	Pulmudai	PS-530135	6.915266	79.87829	8.940296	80.985139	B60, Pulmoddai, Sri Lanka	256.12882	#CenterFarFromPolice
Trincomalee	Serunuwara	MOH Office – Serunuwara	False	False	TRNCMLSRNWRMHFFCSRNWR		Trincomalee	LK-53	8.551241	81.092014	Serunuwara	PS-530244	8.321863	81.299322	8.323143	81.299894	B10, Sri Lanka	0.155671	
Trincomalee	Harbour Police	MOH Office – Trincomalee	False	False	TRNCMLHRBRPLCMHFFCTRNCML		Trincomalee	LK-53	8.551241	81.092014	Trinco Harbour Police	PS-530131	8.56705	81.231407	8.598974	81.216963	MOH Office, Farm Rd, Trincomalee, Sri Lanka	3.890062	
Trincomalee	Harbour Police	Base Hospital – Trincomalee	False	False	TRNCMLHRBRPLCBSHSPTLTRNCML		Trincomalee	LK-53	8.551241	81.092014	Trinco Harbour Police	PS-530131	8.56705	81.231407	8.56486	81.239445	Hospital Ln, Trincomalee, Sri Lanka	0.917037	
Trincomalee	Uppuveli	MOH Office - Uppuveli	False	False	TRNCMLPPVLMHFFCPPVL		Trincomalee	LK-53	8.551241	81.092014	Uppuweli	PS-530134	8.593614	81.21743	8.607961	81.216512	Nilaveli Rd, Trincomalee, Sri Lanka	1.599005	
Trincomalee	Ichchalampattu	MOH Office – Ichchalampattu	False	False	TRNCMLCHCHLMPTTMHFFCCHCHLMPTT	Eachchilampattu Hospital	Trincomalee	LK-53	8.551241	81.092014	Ichchalampattu		8.289549	81.359002	8.289644	81.358983	Highway, Ichchalampattu, Trincomalee, Sri Lanka	0.010772	
Trincomalee	Thambalagamuwa	MOH Office - Thambalagamuwa	False	False	TRNCMLTHMBLGMWMHFFCTHMBLGMW		Trincomalee	LK-53	8.551241	81.092014	Thambalagamuva	PS-530243	6.907289	79.863819	8.563603	81.239584	Hospital Ln, Trincomalee, Sri Lanka	238.604889	#CenterFarFromPolice
Batticaloa	Batticaloa	Thiraimadu Hospital	False	False	BTTCLBTTCLTHRMDHSPTL		Batticaloa	LK-51	7.792772	81.486513	Batticaloa	PS-510101	7.717949	81.699294	7.749017	81.671387	PMXC+JH2, Batticaloa, Sri Lanka	4.626304	
Batticaloa	Batticaloa	Navalady Hospital	False	False	BTTCLBTTCLNVLDYHSPTL		Batticaloa	LK-51	7.792772	81.486513	Batticaloa	PS-510101	7.717949	81.699294	7.73517	81.709217	Navalady Rd, Batticaloa, Sri Lanka	2.205798	
Batticaloa	Batticaloa	MOH Office – Batticaloa	False	False	BTTCLBTTCLMHFFCBTTCL		Batticaloa	LK-51	7.792772	81.486513	Batticaloa	PS-510101	7.717949	81.699294	7.708253	81.691368	Hospital Rd, Batticaloa, Sri Lanka	1.387934	
Batticaloa	Kaluwanchikudy	Periyakallar Udayapuram Vidyalaya	False	False	BTTCLKLWNCHKDYPRYKLLRDYPRMVDYLY		Batticaloa	LK-51	7.792772	81.486513	Kalawanchikudy	PS-510110	7.515908	81.787051	7.517234	81.786135	Paddiruppu M.M.V National School, Base Hospital Road Kaluwanchikudi - Vellaveli Rd, Kaluwanchikudy 038975, Sri Lanka	0.178765	
Batticaloa	Kaluwanchikudy	Periyakallar Arulanandam Tamil College	False	False	BTTCLKLWNCHKDYPRYKLLRRLNNDMTMLCLLG		Batticaloa	LK-51	7.792772	81.486513	Kalawanchikudy	PS-510110	7.515908	81.787051	7.467694	81.814238	Periyakallar, Sri Lanka	6.144034	
Batticaloa	Kaluwanchikudy	Kaluwanchikudy Hospital	False	False	BTTCLKLWNCHKDYKLWNCHKDYHSPTL	Base Hospital - Kaluwanchikudy	Batticaloa	LK-51	7.792772	81.486513	Kalawanchikudy	PS-510110	7.515908	81.787051	7.51724	81.785184	GQ8P+V3V, Kaluwanchikudy, Sri Lanka	0.25365	
Batticaloa	Valachchenai	Valachchenai Base Hospital	False	False	BTTCLVLCHCHNVLCHCHNBSHSPTL		Batticaloa	LK-51	7.792772	81.486513	Valachchanai	PS-510107	7.908015	81.533004	7.911315	81.533046	Valaichchenai-Nasuvantivu-Navaladi Road, Sri Lanka	0.367088	
Batticaloa	Valachchenai	MOH Office – Oddamavadi	False	False	BTTCLVLCHCHNMHFFCDDMVD		Batticaloa	LK-51	7.792772	81.486513	Valachchanai	PS-510107	7.908015	81.533004	7.912281	81.532775	WG6M+W46, Batticaloa, Sri Lanka	0.475177	
Batticaloa	Valachchenai	MOH Office – Navalady	False	False	BTTCLVLCHCHNMHFFCNVLDY		Batticaloa	LK-51	7.792772	81.486513	Valachchanai	PS-510107	7.908015	81.533004	7.708253	81.691368	Hospital Rd, Batticaloa, Sri Lanka	28.253495	#CenterFarFromPolice
Batticaloa	Valachchenai	MOH Office – Valachchenai	False	False	BTTCLVLCHCHNMHFFCVLCHCHN		Batticaloa	LK-51	7.792772	81.486513	Valachchanai	PS-510107	7.908015	81.533004	7.912281	81.532775	WG6M+W46, Batticaloa, Sri Lanka	0.475177	
Batticaloa	Valachchenai	MOH Office – Kiran	False	False	BTTCLVLCHCHNMHFFCKRN		Batticaloa	LK-51	7.792772	81.486513	Valachchanai	PS-510107	7.908015	81.533004	7.623441	81.717877	Muthalaikudah Kanchirankudah Rd, Sri Lanka	37.64378	#CenterFarFromPolice
Batticaloa	Vakarai	MOH Office - Vakarai	False	False	BTTCLVKRMHFFCVKR	Divisional Hospital Vakarai	Batticaloa	LK-51	7.792772	81.486513	Wakarai	PS-510109	6.934132	79.856305	8.134552	81.435328	Trincomalee Hwy, Vakarai, Sri Lanka	219.417822	#CenterFarFromPolice
Batticaloa	Kattankudy	Base Hospital -Kattankudy	False	False	BTTCLKTTNKDYBSHSPTLKTTNKDY		Batticaloa	LK-51	7.792772	81.486513	Kaththankudi	PS-510103	7.715979	81.698757	7.685147	81.739078	Dr Badhiudeen Mahmood Mawatha, Kattankudy, Sri Lanka	5.613752	
Batticaloa	Kattankudy	Brandix Garment Factory – Arayampathy	False	False	BTTCLKTTNKDYBRNDXGRMNTFCTRYRYMPTHY		Batticaloa	LK-51	7.792772	81.486513	Kaththankudi	PS-510103	7.715979	81.698757	7.658668	81.741119	Kovilkulam, Sri Lanka	7.902	
Batticaloa	Eravur	Sandiveli Hospital	False	False	BTTCLRVRSNDVLHSPTL		Batticaloa	LK-51	7.792772	81.486513	Eravur	PS-510104	7.715979	81.698757	7.777289	81.602853	Trincomalee Hwy, Eravur, Sri Lanka	12.578998	
Batticaloa	Eravur	MOH Office – Eravur	False	False	BTTCLRVRMHFFCRVR		Batticaloa	LK-51	7.792772	81.486513	Eravur	PS-510104	7.715979	81.698757	7.783664	81.605626	QJM4+F76, Eravur, Sri Lanka	12.729342	
Batticaloa	Eravur	MOH Office – Chenkaladi	False	False	BTTCLRVRMHFFCCHNKLD		Batticaloa	LK-51	7.792772	81.486513	Eravur	PS-510104	7.715979	81.698757	7.783599	81.593367	Trincomalee Hwy, Chenkaladi 30350, Sri Lanka	13.837876	
Batticaloa	Eravur	Chenkaladi Hospital	False	False	BTTCLRVRCHNKLDHSPTL		Batticaloa	LK-51	7.792772	81.486513	Eravur	PS-510104	7.715979	81.698757	7.783546	81.589961	Batticaloa Rd, Chenkaladi, Sri Lanka	14.151406	
Batticaloa	Eravur	Singarathoppu Saraswathi Vidyalaya	False	False	BTTCLRVRSNGRTHPPSRSWTHVDYLY		Batticaloa	LK-51	7.792772	81.486513	Eravur	PS-510104	7.715979	81.698757	7.781715	81.601743	Eravur - 04, Chenkaladi, Sri Lanka	12.953304	
Batticaloa	Eravur	Thihiliveti Vidyalaya	False	False	BTTCLRVRTHHLVTVDYLY		Batticaloa	LK-51	7.792772	81.486513	Eravur	PS-510104	7.715979	81.698757	7.781715	81.601743	Eravur - 04, Chenkaladi, Sri Lanka	12.953304	
Batticaloa	Eravur	Sitthandi Central College	False	False	BTTCLRVRSTTHNDCNTRLCLLG		Batticaloa	LK-51	7.792772	81.486513	Eravur	PS-510104	7.715979	81.698757	7.785947	81.590295	Trincomalee Road, Chenkaladi, Sri Lanka	14.264135	
Batticaloa	Eravur	Mawadiwembu Hospital	False	False	BTTCLRVRMWDWMBHSPTL		Batticaloa	LK-51	7.792772	81.486513	Eravur	PS-510104	7.715979	81.698757	7.808545	81.566328	Mawadiwembu Hospital, Sri Lanka	17.861302	
Batticaloa	Vavunathivu	MOH Office - Vavunathivu	False	False	BTTCLVVNTHVMHFFCVVNTHV		Batticaloa	LK-51	7.792772	81.486513	Vavunathive	PS-510102	6.933075	79.857181	7.708253	81.691368	Hospital Rd, Batticaloa, Sri Lanka	219.95575	#CenterFarFromPolice
Ampara	Ampara	Mobile Medical Team	False	False	MPRMPRMBLMDCLTM		Ampara	LK-52	7.23699	81.550391	Ampara	PS-520113	7.296771	81.677161					#CenterLocationUnknown
Ampara	Ampara	Ampara Hospital	False	False	MPRMPRMPRHSPTL		Ampara	LK-52	7.23699	81.550391	Ampara	PS-520113	7.296771	81.677161	7.298334	81.690841	Dharmapala Mawatha, Ampara, Sri Lanka	1.519279	
Ampara	Ampara	MOH Office – Ampara	False	False	MPRMPRMHFFCMPR		Ampara	LK-52	7.23699	81.550391	Ampara	PS-520113	7.296771	81.677161	7.296412	81.689717	7MWQ+HV8, Ampara, Sri Lanka	1.385868	
Ampara	Chavalakade	MOH Office – Navidanveli	False	False	MPRCHVLKDMHFFCNVDNVL		Ampara	LK-52	7.23699	81.550391	Chawalakade	PS-520125	7.413559	81.776822	7.420081	81.788401	B77, Sri Lanka	1.468805	
Ampara	Chavalakade	5th Colony Health Centre	False	False	MPRCHVLKDTHCLNYHLTHCNTR		Ampara	LK-52	7.23699	81.550391	Chawalakade	PS-520125	7.413559	81.776822	7.418836	81.781436	Chavalakade, Sri Lanka	0.776867	
Ampara	Karaitivu	MOH Office – Karaitivu	False	False	MPRKRTVMHFFCKRTV		Ampara	LK-52	7.23699	81.550391	Karaitivu		9.744059	79.870587	7.377712	81.838796	Colombo-Ratnapura-Wellawaya-Batticaloa Highway, Karativu 32250, Sri Lanka	340.788666	#CenterFarFromPolice
Ampara	Pottuvil	MOH Office – Pottuvil	False	False	MPRPTTVLMHFFCPTTVL		Ampara	LK-52	7.23699	81.550391	Pothuvil	PS-520128	6.878387	81.826859	6.877076	81.828969	B374, Pottuvil, Sri Lanka	0.274874	
Ampara	Pottuvil	MOH Office – panama	False	False	MPRPTTVLMHFFCPNM		Ampara	LK-52	7.23699	81.550391	Pothuvil	PS-520128	6.878387	81.826859	6.877076	81.828969	B374, Pottuvil, Sri Lanka	0.274874	
Ampara	Pottuvil	GN – Sengamam	False	False	MPRPTTVLGNSNGMM		Ampara	LK-52	7.23699	81.550391	Pothuvil	PS-520128	6.878387	81.826859	6.867891	81.839008	Muhudu Maha Vihara Mawatha, Pottuvil, Sri Lanka	1.778462	
Ampara	Pottuvil	Urani Kangar Vidyalaya	False	False	MPRPTTVLRNKNGRVDYLY		Ampara	LK-52	7.23699	81.550391	Pothuvil	PS-520128	6.878387	81.826859	7.739125	81.677467	Urani, Batticaloa, Sri Lanka	97.148053	#CenterFarFromPolice
Ampara	Pottuvil	Al Hidayah Vidyalaya	False	False	MPRPTTVLLHDYHVDYLY		Ampara	LK-52	7.23699	81.550391	Pothuvil	PS-520128	6.878387	81.826859	6.878199	81.841868	VRHR+7PH, Pottuvil, Sri Lanka	1.657565	
Ampara	Pottuvil	Hulannuge Vidyalaya	False	False	MPRPTTVLHLNNGVDYLY		Ampara	LK-52	7.23699	81.550391	Pothuvil	PS-520128	6.878387	81.826859	6.954907	81.669253	Hulannuge, Sri Lanka	19.372753	
Ampara	Pottuvil	Mobile Vaccination	False	False	MPRPTTVLMBLVCCNTN		Ampara	LK-52	7.23699	81.550391	Pothuvil	PS-520128	6.878387	81.826859					#CenterLocationUnknown
Ampara	Eragama	MOH Office – Eragama	False	False	MPRRGMMHFFCRGM		Ampara	LK-52	7.23699	81.550391									#PoliceLocationUnknown
Ampara	Uhana	MOH Office – Uhana	False	False	MPRHNMHFFCHN		Ampara	LK-52	7.23699	81.550391	Uhana	PS-520116	7.362435	81.636035	7.366036	81.635659	A27, Sri Lanka	0.40268	
Ampara	Thirukkovil	MOH Office - Thirukkovil	False	False	MPRTHRKKVLMHFFCTHRKKVL		Ampara	LK-52	7.23699	81.550391	Thirukkovil	PS-520127	7.113998	81.852219	7.111635	81.852892	Central Rd, Vinayagapuram, Sri Lanka	0.273131	
Ampara	Thirukkovil	MOH Office - Alayadivembu	False	False	MPRTHRKKVLMHFFCLYDVMB		Ampara	LK-52	7.23699	81.550391	Thirukkovil	PS-520127	7.113998	81.852219	7.111627	81.852984	Courts road Road, Thirukkovil, Sri Lanka	0.276913	
Ampara	Akkaraipattu	MOH Office – Addalachenai	False	False	MPRKKRPTTMHFFCDDLCHN		Ampara	LK-52	7.23699	81.550391	Akkaraipattu	PS-520126	7.216084	81.853254	7.260916	81.853493	7V63+999, Addalaichenai, Sri Lanka	4.986726	
Ampara	Kalmunai	Ashraff Memorial Hospital	False	False	MPRKLMNSHRFFMMRLHSPTL		Ampara	LK-52	7.23699	81.550391	Kalmunai	PS-520123	7.414289	81.825006	7.403172	81.831146	A4, Ashraff Memorial Base Hospital, A4 A4, Kalmunai 32300, Sri Lanka	1.409859	
Ampara	Kalmunai	MOH Office - Kalmunai South	False	False	MPRKLMNMHFFCKLMNSTH		Ampara	LK-52	7.23699	81.550391	Kalmunai	PS-520123	7.414289	81.825006	7.411712	81.838462	CR6Q+M9P, Kalmunai 32300, Sri Lanka	1.511625	
Ampara	Sainthamarthu	MOH Office – Sainthamarthu	False	False	MPRSNTHMRTHMHFFCSNTHMRTH		Ampara	LK-52	7.23699	81.550391									#PoliceLocationUnknown
Ampara	Sainthamarthu	Saindamarudu Hospital	False	False	MPRSNTHMRTHSNDMRDHSPTL		Ampara	LK-52	7.23699	81.550391									#PoliceLocationUnknown
Ampara	Sammanthurai	Muslim Central College - Sammanthurai	False	False	MPRSMMNTHRMSLMCNTRLCLLGSMMNTHR		Ampara	LK-52	7.23699	81.550391	Samanthurai	PS-520124	7.365785	81.810859	7.370617	81.808855	AB33, Sammanthurai 32200, Sri Lanka	0.58115	
Ampara	Sammanthurai	Miranagar Health Centre	False	False	MPRSMMNTHRMRNGRHLTHCNTR		Ampara	LK-52	7.23699	81.550391	Samanthurai	PS-520124	7.365785	81.810859	7.359802	81.793874	Vilinaiyadi Rd, Sammanthurai, Sri Lanka	1.988336	
Ampara	Sammanthurai	Vavvalodai Health Centre	False	False	MPRSMMNTHRVVVLDHLTHCNTR		Ampara	LK-52	7.23699	81.550391	Samanthurai	PS-520124	7.365785	81.810859	7.359802	81.793874	Vilinaiyadi Rd, Sammanthurai, Sri Lanka	1.988336	
Ampara	Sammanthurai	Arasadi Health Centre	False	False	MPRSMMNTHRRSDHLTHCNTR		Ampara	LK-52	7.23699	81.550391	Samanthurai	PS-520124	7.365785	81.810859	7.359802	81.793874	Vilinaiyadi Rd, Sammanthurai, Sri Lanka	1.988336	
Ampara	Sammanthurai	Attapalam Health Centre	False	False	MPRSMMNTHRTTPLMHLTHCNTR		Ampara	LK-52	7.23699	81.550391	Samanthurai	PS-520124	7.365785	81.810859	7.359802	81.793874	Vilinaiyadi Rd, Sammanthurai, Sri Lanka	1.988336	
Ampara	Sammanthurai	Abdul Majeed Hall – Sammanthurai	False	False	MPRSMMNTHRBDLMJDHLLSMMNTHR		Ampara	LK-52	7.23699	81.550391	Samanthurai	PS-520124	7.365785	81.810859	7.363356	81.804123	9R73+8JX, Sammanthurai, Sri Lanka	0.790657	
Ampara	Sammanthurai	MOH Office – Sammanthurai	False	False	MPRSMMNTHRMHFFCSMMNTHR		Ampara	LK-52	7.23699	81.550391	Samanthurai	PS-520124	7.365785	81.810859	7.369857	81.812264	9R96+WWR, Sammanthurai, Sri Lanka	0.478712	
Ampara	Sammanthurai	Base Hospital - Sammanthurai	False	False	MPRSMMNTHRBSHSPTLSMMNTHR		Ampara	LK-52	7.23699	81.550391	Samanthurai	PS-520124	7.365785	81.810859	7.368355	81.813042	9R96+MWM, Hospital Rd, Sammanthurai, Sri Lanka	0.373773	
