district	police	center	dose1	dose2	fuzzy_key	alt_name	district_name_norm	district_id	district_lat	district_lng	ps_name_norm	ps_id	ps_lat	ps_lng	lat	lng	formatted_address	dis_center_to_police	tags
Colombo	Cinnamon Gardens	Viharamahadevi Park	False	False	CLMBCNNMNGRDNSVHRMHDVPRK		Colombo	LK-11	6.869636	80.019598	Cinnamon Garden	PS-110324	6.907289	79.863819	6.913391	79.86174	Viharamahadevi Park, Colombo, Sri Lanka	0.716497	
Colombo	Thalangama	Diyatha Uyana	False	False	CLMBTHLNGMDYTHYN		Colombo	LK-11	6.869636	80.019598	Thalangama	PS-110466	6.91089	79.929325	6.904575	79.909831	Diyatha Uyana, B240, Sri Jayawardenepura Kotte, Sri Lanka	2.264281	
Colombo	Narahenpita	Army Hospital Narahenpita	False	False	CLMBNRHNPTRMYHSPTLNRHNPT		Colombo	LK-11	6.869636	80.019598	Narahenpita	PS-110321	6.891832	79.876715	6.900252	79.87618	08 Elvitigala Mawatha, Colombo 00800, Sri Lanka	0.938417	
Colombo	Narahenpita	Army Headquarters Mobile Team	False	False	CLMBNRHNPTRMYHDQRTRSMBLTM		Colombo	LK-11	6.869636	80.019598	Narahenpita	PS-110321	6.891832	79.876715					#CenterLocationUnknown
Colombo	Homagama	Panagoda Bodhirajarama Viharaya	False	False	CLMBHMGMPNGDBDHRJRMVHRY		Colombo	LK-11	6.869636	80.019598	Homagama	PS-110470	6.836155	80.003474	6.929161	79.88265	Gnanawimala Rd, Colombo, Sri Lanka	16.883101	
Colombo	Borella	St. Luke's Church – Borella	False	False	CLMBBRLLSTLKSCHRCHBRLL		Colombo	LK-11	6.869636	80.019598	Borella	PS-110323	6.915266	79.87829	6.918035	79.874548	1091 Gnanartha Pradeepa Mawatha, Colombo 00800, Sri Lanka	0.515354	
Colombo	Mount Lavinia	MOH Office – Rathmalana	False	False	CLMBMNTLVNMHFFCRTHMLN		Colombo	LK-11	6.869636	80.019598	Mount Lavinia	PS-110577	6.825006	79.87009	6.827115	79.878359	RVGH+R8X, Dehiwala-Mount Lavinia, Sri Lanka	0.942915	
Colombo	Maradana	National Hospital – Colombo	False	False	CLMBMRDNNTNLHSPTLCLMB		Colombo	LK-11	6.869636	80.019598	Maradana	PS-110107	6.927939	79.865471	6.918743	79.868992	Colombo 00700, Sri Lanka	1.094265	
Colombo	Dehiwala	MOH Office – Dehiwala	False	False	CLMBDHWLMHFFCDHWL		Colombo	LK-11	6.869636	80.019598	Dehiwala	PS-110580	6.850088	79.871696	6.861346	79.865943	VV68+G9P, Dehiwala-Mount Lavinia, Sri Lanka	1.404177	
Colombo	Kosgama	Kosgama Hospital	False	False	CLMBKSGMKSGMHSPTL		Colombo	LK-11	6.869636	80.019598	Kosgama	PS-920227	6.946597	80.137869	6.940956	80.124888	Salawa-Akarawita, 10730, Sri Lanka	1.564606	
Gampaha	Minuwangoda	MOH Office – Minuwangoda	False	False	GMPHMNWNGDMHFFCMNWNGD		Gampaha	LK-12	7.123598	80.018508	Minuwangoda	PS-120238	7.174215	79.957874	7.17227	79.956823	Katunayake-Veyangoda Rd, Minuwangoda, Sri Lanka	0.245525	
Gampaha	Mirigama	Pohonnaruwa Viharaya	False	False	GMPHMRGMPHNNRWVHRY		Gampaha	LK-12	7.123598	80.018508	Meerigama	PS-120248	7.245169	80.128647	7.242735	80.126954	Mirigama, Sri Lanka	0.32902	
Gampaha	Pamunugama	Pamunugama Hospital	False	False	GMPHPMNGMPMNGMHSPTL		Gampaha	LK-12	7.123598	80.018508	Pamunugama	PS-120353	7.078892	79.859696	7.093543	79.850191	3VV2+C38, Negombo, Sri Lanka	1.938152	
Gampaha	Divulapitiya	MOH Office – Divulapitiya	False	False	GMPHDVLPTYMHFFCDVLPTY		Gampaha	LK-12	7.123598	80.018508	Diulapitiya	PS-120355	7.174215	79.957874	7.215486	80.013606	6287+5CX, Divulapitiya, Sri Lanka	7.67456	
Gampaha	Ja Ela	MOH Office - Ja Ela	False	False	GMPHJLMHFFCJL		Gampaha	LK-12	7.123598	80.018508	Ja - Ela	PS-120133	7.081055	79.890504	7.075216	79.893879	60 Mount Kalvary Rd, Ja-Ela, Sri Lanka	0.748731	
Gampaha	Wattala	MOH Office – Wattala	False	False	GMPHWTTLMHFFCWTTL		Gampaha	LK-12	7.123598	80.018508	Wattala	PS-120128	6.993713	79.894506	6.995817	79.885793	301 Hendala Rd, Wattala, Sri Lanka	0.989991	
Gampaha	Ragama	MOH Office – Ragama	False	False	GMPHRGMMHFFCRGM		Gampaha	LK-12	7.123598	80.018508	Ragama	PS-120134	7.034975	79.924148	7.027386	79.920232	2WGC+X35, Ragama, Sri Lanka	0.948382	
Kalutara	Baduraliya	Al Fasiyathul Nasriya Muslim Balika Navodaya Vidyalaya	False	False	KLTRBDRLYLFSYTHLNSRYMSLMBLKNVDYVDYLY		Kalutara	LK-13	6.577316	80.127363	Baduraliya	PS-1302106	6.516756	80.226716	6.465274	79.975427	12/7 Maradana Rd, Beruwala, Sri Lanka	28.355878	#CenterFarFromPolice
Kalutara	Agalawatta	Pimbura Hospital	False	False	KLTRGLWTTPMBRHSPTL		Kalutara	LK-13	6.577316	80.127363	Agalawatta		6.542566	80.157178	6.575949	80.158371	H5G5+98H, කළුතර, Sri Lanka	3.715525	
Kalutara	Matugama	Weththewa Hospital	False	False	KLTRMTGMWTHTHWHSPTL		Kalutara	LK-13	6.577316	80.127363	Mathugama	PS-1302103	6.520881	80.117908	6.523087	80.125192	District Hospital, Hospital Road,Weththewa,., Matugama, Sri Lanka	0.841523	
Kalutara	Matugama	Katugahahena Hospital	False	False	KLTRMTGMKTGHHNHSPTL		Kalutara	LK-13	6.577316	80.127363	Mathugama	PS-1302103	6.520881	80.117908	6.489328	80.08471	F3QM+PVP, Bopitiya, Sri Lanka	5.077192	
Kalutara	Dodangoda	Bombuwala Viharaya	False	False	KLTRDDNGDBMBWLVHRY		Kalutara	LK-13	6.577316	80.127363	Dodangoda	PS-130299	6.553375	80.023569	6.575407	80.01428	Bombuwala, Sri Lanka	2.656896	
Kalutara	Aluthgama	Moragalla Gangarama Viharaya	False	False	KLTRLTHGMMRGLLGNGRMVHRY		Kalutara	LK-13	6.577316	80.127363	Aluthgama	PS-1302100	6.432842	79.998032	6.449296	80.000796	Kandavihara Yati Rd, Beruwala, Sri Lanka	1.855498	
Kalutara	Kalutara South	NIHS	False	False	KLTRKLTRSTHNHS		Kalutara	LK-13	6.577316	80.127363	Kalutara South	PS-130296	6.58486	79.961043	6.55864	79.977416	HX5G+FX3, Katukurunda, Sri Lanka	3.432035	
Kalutara	Kalutara South	Army Headquarters Mobile Team	False	False	KLTRKLTRSTHRMYHDQRTRSMBLTM		Kalutara	LK-13	6.577316	80.127363	Kalutara South	PS-130296	6.58486	79.961043					#CenterLocationUnknown
Kalutara	Kalutara South	Rajawatta Viharaya	False	False	KLTRKLTRSTHRJWTTVHRY		Kalutara	LK-13	6.577316	80.127363	Kalutara South	PS-130296	6.58486	79.961043	6.586943	79.960167	Galle Rd, Kalutara, Sri Lanka	0.251098	
Moneragala	Monaragala	Monaragala Community Hall	False	False	MNRGLMNRGLMNRGLCMMNTYHLL		Moneragala	LK-82	6.787517	81.303744	Monaragala	PS-820121	6.869866	81.348106	6.872778	81.350683	Moneragala, Sri Lanka	0.431159	
Monaragala	Monaragala	Mahanama Vidyalaya	False	False	MNRGLMNRGLMHNMVDYLY		Moneragala	LK-82	6.787517	81.303744	Monaragala	PS-820121	6.869866	81.348106	6.876612	81.348211	Potuvile Road Colombo - Batticaloa Hwy, Monaragala, Sri Lanka	0.750446	
Monaragala	Ambalantota	MOH Office – Ambalantota	False	False	MNRGLMBLNTTMHFFCMBLNTT		Moneragala	LK-82	6.787517	81.303744	Ambalantota	PS-330157	6.12516	81.023981	6.122767	81.005973	Walawa watta Road, Malpeththawa, Ambalantota, Sri Lanka	2.009195	
Hambantota	Hambantota	MOH Office – Hambantota	False	False	HMBNTTHMBNTTMHFFCHMBNTT		Hambantota	LK-33	6.259779	81.098619	Hambantota	PS-330156	6.125872	81.12521	6.171162	81.127	54CG+FQ9, Hambantota, Sri Lanka	5.041487	
Hambantota	Sooriyawewa	MOH Office – Sooriyawewa	False	False	HMBNTTSRYWWMHFFCSRYWW		Hambantota	LK-33	6.259779	81.098619	Sooriyawewa	PS-330155	6.306022	81.003873	6.304862	81.004768	8233+WWR, Sooriyawewa, Sri Lanka	0.1626	
Hambantota	Kegalle	Damunu Pola Viharaya	False	False	HMBNTTKGLLDMNPLVHRY		Hambantota	LK-33	6.259779	81.098619	Kegalle	PS-920118	7.255928	80.353156	6.387517	81.450621	Situlpawwa, Sri Lanka	154.987102	#CenterFarFromPolice
Hambantota	Kegalle	Andurapotha Pirivena	False	False	HMBNTTKGLLNDRPTHPRVN		Hambantota	LK-33	6.259779	81.098619	Kegalle	PS-920118	7.255928	80.353156	6.125071	81.120965	Main St, Hambantota, Sri Lanka	151.711452	#CenterFarFromPolice
Hambantota	Aranayaka	Rivisanda Maha Vidyalaya - Ussapitiya	False	False	HMBNTTRNYKRVSNDMHVDYLYSSPTY		Hambantota	LK-33	6.259779	81.098619	Aranayaka	PS-920120	7.186505	80.455273	7.211407	80.458031	Mawanella-Aranayake-Horawela Rd, Sri Lanka	2.786516	
Hambantota	Aranayaka	Bodhiraja Vidyalaya - Ussapitiya	False	False	HMBNTTRNYKBDHRJVDYLYSSPTY		Hambantota	LK-33	6.259779	81.098619	Aranayaka	PS-920120	7.186505	80.455273	7.217564	80.451105	Hettimulla-Diwala-Ussapitiya Rd, Ussapitiya, Sri Lanka	3.485171	
Hambantota	Aranayaka	Galathara Maha Vidyalaya	False	False	HMBNTTRNYKGLTHRMHVDYLY		Hambantota	LK-33	6.259779	81.098619	Aranayaka	PS-920120	7.186505	80.455273	6.07308	80.704144	Hakmana - Beliatte - Tangalle Rd, Sri Lanka	126.861729	#CenterFarFromPolice
Hambantota	Rambukkana	Ashoka Maha Vidyalaya - Rambukkana	False	False	HMBNTTRMBKKNSHKMHVDYLYRMBKKN		Hambantota	LK-33	6.259779	81.098619	Rambukkana	PS-920123	7.324319	80.387808	7.329512	80.403092	Rambukkana-Mawanella Rd, Rambukkana 71100, Sri Lanka	1.782347	
Hambantota	Rambukkana	Hiriwadunna Primary School	False	False	HMBNTTRMBKKNHRWDNNPRMRYSCHL		Hambantota	LK-33	6.259779	81.098619	Rambukkana	PS-920123	7.324319	80.387808	7.290243	80.386481	Karandupona-Rambukkna Road, Rambukkana 71100, Sri Lanka	3.793094	
Hambantota	Rambukkana	Salvation Army Church – Rambukkana	False	False	HMBNTTRMBKKNSLVTNRMYCHRCHRMBKKN		Hambantota	LK-33	6.259779	81.098619	Rambukkana	PS-920123	7.324319	80.387808	7.381109	80.36739	99J8+CXR, Rambukkana, Sri Lanka	6.706311	
Hambantota	Deraniyagala	Sambodhi Viharaya	False	False	HMBNTTDRNYGLSMBDHVHRY		Hambantota	LK-33	6.259779	81.098619	Deraniyagala	PS-920228	6.935815	80.334998	6.877406	80.386449	C/11/2, Pahankanda shri sambodhi viharaya, Gollahinna, Deraniyagala, Sri Lanka	8.630558	
Hambantota	Deraniyagala	Kirihena Viharaya	False	False	HMBNTTDRNYGLKRHNVHRY		Hambantota	LK-33	6.259779	81.098619	Deraniyagala	PS-920228	6.935815	80.334998	6.153582	81.127149	Hambantota, Sri Lanka	123.421498	#CenterFarFromPolice
Hambantota	Bulathkohupitiya	Kendaoya Vidyalaya	False	False	HMBNTTBLTHKHPTYKNDYVDYLY		Hambantota	LK-33	6.259779	81.098619	Bulathkohupitiya	PS-920232	7.106684	80.3347	6.07308	80.704144	Hakmana - Beliatte - Tangalle Rd, Sri Lanka	121.999643	#CenterFarFromPolice
Hambantota	Bulathkohupitiya	Alawathura Vidyalaya	False	False	HMBNTTBLTHKHPTYLWTHRVDYLY		Hambantota	LK-33	6.259779	81.098619	Bulathkohupitiya	PS-920232	7.106684	80.3347	6.153582	81.127149	Hambantota, Sri Lanka	137.493408	#CenterFarFromPolice
Hambantota	Bulathkohupitiya	Ambamalla Community Hall	False	False	HMBNTTBLTHKHPTYMBMLLCMMNTYHLL		Hambantota	LK-33	6.259779	81.098619	Bulathkohupitiya	PS-920232	7.106684	80.3347	7.03101	80.046497	22JW+CH5, Sri Lanka	32.907796	#CenterFarFromPolice
Hambantota	Bulathkohupitiya	Dedunugala Maha Vidyalaya	False	False	HMBNTTBLTHKHPTYDDNGLMHVDYLY		Hambantota	LK-33	6.259779	81.098619	Bulathkohupitiya	PS-920232	7.106684	80.3347	6.07308	80.704144	Hakmana - Beliatte - Tangalle Rd, Sri Lanka	121.999643	#CenterFarFromPolice
Hambantota	Bulathkohupitiya	Nevismeier Pahala Primary School	False	False	HMBNTTBLTHKHPTYNVSMRPHLPRMRYSCHL		Hambantota	LK-33	6.259779	81.098619	Bulathkohupitiya	PS-920232	7.106684	80.3347	6.266428	80.690393	Urubokka Rd, Katuwana, Sri Lanka	101.3859	#CenterFarFromPolice
Hambantota	Ruwanwella	Humbaswalana Primary School	False	False	HMBNTTRWNWLLHMBSWLNPRMRYSCHL		Hambantota	LK-33	6.259779	81.098619	Ruwanwella	PS-920229	7.046189	80.254174	7.043001	80.254684	27V3+6V3, Ruwanwella, Sri Lanka	0.359042	
Hambantota	Ruwanwella	Dunumala Primary School	False	False	HMBNTTRWNWLLDNMLPRMRYSCHL		Hambantota	LK-33	6.259779	81.098619	Ruwanwella	PS-920229	7.046189	80.254174	7.043001	80.254684	27V3+6V3, Ruwanwella, Sri Lanka	0.359042	
Hambantota	Ruwanwella	Grand View Hall	False	False	HMBNTTRWNWLLGRNDVWHLL		Hambantota	LK-33	6.259779	81.098619	Ruwanwella	PS-920229	7.046189	80.254174	6.267019	81.228933	Randunu Kele Watte, Weerawila, Hambantota District, Sri Lanka., A2, Wirawila, Sri Lanka	138.233147	#CenterFarFromPolice
Hambantota	Ruwanwella	Lewangama Primary School	False	False	HMBNTTRWNWLLLWNGMPRMRYSCHL		Hambantota	LK-33	6.259779	81.098619	Ruwanwella	PS-920229	7.046189	80.254174	7.043001	80.254684	27V3+6V3, Ruwanwella, Sri Lanka	0.359042	
Hambantota	Ruwanwella	Arepolamulla Primary School	False	False	HMBNTTRWNWLLRPLMLLPRMRYSCHL		Hambantota	LK-33	6.259779	81.098619	Ruwanwella	PS-920229	7.046189	80.254174	7.043001	80.254684	27V3+6V3, Ruwanwella, Sri Lanka	0.359042	
Hambantota	Ruwanwella	Walgampotha Maha Vidyalaya	False	False	HMBNTTRWNWLLWLGMPTHMHVDYLY		Hambantota	LK-33	6.259779	81.098619	Ruwanwella	PS-920229	7.046189	80.254174	7.045873	80.253706	Ruwanwella, Sri Lanka	0.062423	
Hambantota	Ruwanwella	Imbulana Maternity Hall	False	False	HMBNTTRWNWLLMBLNMTRNTYHLL		Hambantota	LK-33	6.259779	81.098619	Ruwanwella	PS-920229	7.046189	80.254174	7.072413	80.250253	Imbulana, Sri Lanka	2.948813	
Hambantota	Ruwanwella	Kadigamuwa Primary School	False	False	HMBNTTRWNWLLKDGMWPRMRYSCHL		Hambantota	LK-33	6.259779	81.098619	Ruwanwella	PS-920229	7.046189	80.254174	7.129747	80.232804	Ruwanwella Rd, Sri Lanka	9.588801	
Hambantota	Anuradhapura	Army Hospital Anuradhapura	False	False	HMBNTTNRDHPRRMYHSPTLNRDHPR		Hambantota	LK-33	6.259779	81.098619	Anuradapura	PS-710101	8.329752	80.407265	8.338302	80.407646	AB02, Anuradhapura, Sri Lanka	0.951939	
Anuradhapura	Parasangaswewa	Ambagaswewa Vidyalaya	False	False	NRDHPRPRSNGSWWMBGSWWVDYLY		Anuradhapura	LK-71	8.39199	80.512958	Parasangaswewa	PS-710123	8.650981	80.314759	8.335922	80.407513	Maithripala Senanayake Mawatha, Anuradhapura 50000, Sri Lanka	36.499283	#CenterFarFromPolice
Jaffna	Wadukkotte	MOH Office – Chankanai	False	False	JFFNWDKKTTMHFFCCHNKN		Jaffna	LK-41	9.691792	80.098594	Vaddukoddai		9.728886	79.947771	9.753617	79.976004	QX3G+CCR, Sri Lanka	4.140836	
Jaffna	Kayts	MOH Office – Karainagar	False	False	JFFNKYTSMHFFCKRNGR		Jaffna	LK-41	9.691792	80.098594	Kayts	PS-410212	9.728654	79.94775	9.725097	79.99772	Sri Lanka, Manipay, Sri Lanka	5.492521	
Jaffna	Kayts	MOH Office – Kayts	False	False	JFFNKYTSMHFFCKYTS		Jaffna	LK-41	9.691792	80.098594	Kayts	PS-410212	9.728654	79.94775	9.697759	79.866366	Sri Lanka, Kayts, Sri Lanka	9.561445	
Jaffna	Chavakachcheri	Town Hall – Chavakachcheri	False	False	JFFNCHVKCHCHRTWNHLLCHVKCHCHR		Jaffna	LK-41	9.691792	80.098594	Chawakachcheri	PS-410215	9.666459	80.132384	9.659136	80.160946	M556+M94, Chavakachcheri, Sri Lanka	3.236063	
Kilinochchi	Kilinochchi	MOH Office - Karachchi	False	False	KLNCHCHKLNCHCHMHFFCKRCHCH		Kilinochchi	LK-45	9.415742	80.30358	Kilinochchi	PS-450131	9.392265	80.407846	9.396965	80.407782	Kandy - Jaffna Hwy, Kilinochchi, Sri Lanka	0.522827	
Kilinochchi	Palai	MOH Office – Palai	False	False	KLNCHCHPLMHFFCPL		Kilinochchi	LK-45	9.415742	80.30358	Palali	PS-410105	9.789552	80.06488	7.330938	80.29484	06 A6, Polgahawela, Sri Lanka	274.638245	#CenterFarFromPolice
Kilinochchi	Dharmapuram	MOH Office – Kandawalai	False	False	KLNCHCHDHRMPRMMHFFCKNDWL		Kilinochchi	LK-45	9.415742	80.30358	Dharmapuram	PS-450136	6.873107	79.86167	9.417165	80.504182	CG83+VM7, Velikkandal, Sri Lanka	291.682933	#CenterFarFromPolice
Kilinochchi	Pooneryn	MOH Office – Pooneryn	False	False	KLNCHCHPNRYNMHFFCPNRYN		Kilinochchi	LK-45	9.415742	80.30358	Pooneryn		9.505717	80.21101	9.507968	80.208317	G655+58P, Pooneryn, Sri Lanka	0.387256	
Kilinochchi	Mulankavil	Mulankavil Hospital	False	False	KLNCHCHMLNKVLMLNKVLHSPTL		Kilinochchi	LK-45	9.415742	80.30358	Mulankavil	PS-450135	9.254463	80.141528	9.243423	80.143894	Base Hospital Mulankavil, A32 Road, Mulankavil, Kumulamunai, Sri Lanka	1.255148	
Kilinochchi	Iyankulam	Iyankulam Tamil Maha Vidyalaya	False	False	KLNCHCHYNKLMYNKLMTMLMHVDYLY		Kilinochchi	LK-45	9.415742	80.30358	Mankulam	PS-440147	9.124606	80.448404	9.380289	80.377	Kilinochchi, Sri Lanka	29.500138	#CenterFarFromPolice
Mannar	Mannar	MOH Office – Mannar	False	False	MNNRMNNRMHFFCMNNR		Mannar	LK-42	8.877429	80.088628	Mannar	PS-420138	8.978123	79.911642	8.979156	79.91391	Uppukulam, Mannar, Sri Lanka	0.274394	
Mannar	Murungan	MOH Office – Nanatton	False	False	MNNRMRNGNMHFFCNNTTN		Mannar	LK-42	8.877429	80.088628	Murunkan	PS-420143	8.838186	80.038298	8.836611	80.036129	Murunkan - Nanattan Rd, Sri Lanka	0.295841	
Trincomalee	Muttur	Annahar Central College	False	False	TRNCMLMTTRNNHRCNTRLCLLG		Trincomalee	LK-53	8.551241	81.092014	Mutur	PS-530138	8.461133	81.259371	8.457042	81.268759	Old Batticaloa Rd, Mutur, Sri Lanka	1.12856	
Trincomalee	Muttur	Al Hidaya Vidyalaya	False	False	TRNCMLMTTRLHDYVDYLY		Trincomalee	LK-53	8.551241	81.092014	Mutur	PS-530138	8.461133	81.259371	8.457906	81.268402	Mutur, Sri Lanka	1.056434	
Trincomalee	Muttur	Al Hilal Central College	False	False	TRNCMLMTTRLHLLCNTRLCLLG		Trincomalee	LK-53	8.551241	81.092014	Mutur	PS-530138	8.461133	81.259371	8.457042	81.268759	Old Batticaloa Rd, Mutur, Sri Lanka	1.12856	
Trincomalee	Muttur	MOH Office – Muttur	False	False	TRNCMLMTTRMHFFCMTTR		Trincomalee	LK-53	8.551241	81.092014	Mutur	PS-530138	8.461133	81.259371	8.453916	81.264494	1 Old Batticaloa Rd, Mutur, Sri Lanka	0.980859	
Trincomalee	Muttur	Mallikaithivu Maha Vidyalaya	False	False	TRNCMLMTTRMLLKTHVMHVDYLY		Trincomalee	LK-53	8.551241	81.092014	Mutur	PS-530138	8.461133	81.259371	8.449646	81.26789	1 Old Batticaloa Rd, Mutur, Sri Lanka	1.584607	
Trincomalee	Muttur	Zahira Maha Vidyalaya	False	False	TRNCMLMTTRZHRMHVDYLY		Trincomalee	LK-53	8.551241	81.092014	Mutur	PS-530138	8.461133	81.259371	8.573355	81.232605	Mosque Rd, Trincomalee 31000, Sri Lanka	12.824988	
Trincomalee	Muttur	Al Hamra Vidyalaya	False	False	TRNCMLMTTRLHMRVDYLY		Trincomalee	LK-53	8.551241	81.092014	Mutur	PS-530138	8.461133	81.259371	8.726266	81.172086	P5GC+GR4, Irrakkakandi, Sri Lanka	31.013792	#CenterFarFromPolice
Trincomalee	Muttur	Periya Palam Church	False	False	TRNCMLMTTRPRYPLMCHRCH		Trincomalee	LK-53	8.551241	81.092014	Mutur	PS-530138	8.461133	81.259371	8.426188	81.267843	Trincomalee Hwy, Sri Lanka	3.997105	
Trincomalee	Muttur	Pallikudiirippu Maha Vidyalaya	False	False	TRNCMLMTTRPLLKDRPPMHVDYLY		Trincomalee	LK-53	8.551241	81.092014	Mutur	PS-530138	8.461133	81.259371	8.582339	81.215159	H6J8+W3M, Trincomalee, Sri Lanka	14.332115	
Trincomalee	Muttur	Jinnanagar Muslim College	False	False	TRNCMLMTTRJNNNGRMSLMCLLG		Trincomalee	LK-53	8.551241	81.092014	Mutur	PS-530138	8.461133	81.259371	8.44606	81.26022	Arabic College Road, Mutur., Mutur, Sri Lanka	1.679167	
Trincomalee	Muttur	Kilivetti Hospital	False	False	TRNCMLMTTRKLVTTHSPTL		Trincomalee	LK-53	8.551241	81.092014	Mutur	PS-530138	8.461133	81.259371	8.56486	81.239445	Hospital Ln, Trincomalee, Sri Lanka	11.743908	
Trincomalee	Muttur	Ralkuli Vidyalaya	False	False	TRNCMLMTTRRLKLVDYLY		Trincomalee	LK-53	8.551241	81.092014	Mutur	PS-530138	8.461133	81.259371	8.447261	81.243706	Ralkuli Bridge, Trincomalee Hwy, Sri Lanka	2.313261	
Trincomalee	Kinniya	MOH Office – Kurungnakeni	False	False	TRNCMLKNNYMHFFCKRNGNKN		Trincomalee	LK-53	8.551241	81.092014	Kinnia	PS-530140	6.907289	79.863819	7.484932	80.353119	F9M3+X6H, Kurunegala 60000, Sri Lanka	83.927094	#CenterFarFromPolice
Trincomalee	Kinniya	MOH Office – Kinniya	False	False	TRNCMLKNNYMHFFCKNNY		Trincomalee	LK-53	8.551241	81.092014	Kinnia	PS-530140	6.907289	79.863819	8.498696	81.179644	F5XH+FVC, Kinniya 31100, Sri Lanka	228.840304	#CenterFarFromPolice
Trincomalee	Kinniya	Al Aksha Vidyalaya – Kinniya	False	False	TRNCMLKNNYLKSHVDYLYKNNY		Trincomalee	LK-53	8.551241	81.092014	Kinnia	PS-530140	6.907289	79.863819	8.50241	81.18629	Tampalakamam-Kinniya Rd, Kinniya 31100, Sri Lanka	229.623896	#CenterFarFromPolice
Trincomalee	Kinniya	Al Adan Vidyalaya – Kinniya	False	False	TRNCMLKNNYLDNVDYLYKNNY		Trincomalee	LK-53	8.551241	81.092014	Kinnia	PS-530140	6.907289	79.863819	8.502547	81.180383	Kinniya, Sri Lanka	229.222923	#CenterFarFromPolice
Trincomalee	Kinniya	Al Irfan Vidyalaya – Kinniya	False	False	TRNCMLKNNYLRFNVDYLYKNNY		Trincomalee	LK-53	8.551241	81.092014	Kinnia	PS-530140	6.907289	79.863819	8.481391	81.191368	F5JR+HG5, Kinniya, Sri Lanka	228.183186	#CenterFarFromPolice
Trincomalee	Sampur	Sampur Hospital	False	False	TRNCMLSMPRSMPRHSPTL		Trincomalee	LK-53	8.551241	81.092014									#PoliceLocationUnknown
Trincomalee	Sampur	Health Medical Centre - Patalipuram	False	False	TRNCMLSMPRHLTHMDCLCNTRPTLPRM		Trincomalee	LK-53	8.551241	81.092014									#PoliceLocationUnknown
Trincomalee	Sampur	Cheneyur Central College	False	False	TRNCMLSMPRCHNYRCNTRLCLLG		Trincomalee	LK-53	8.551241	81.092014									#PoliceLocationUnknown
Trincomalee	Sripura	MOH Office – Sripura	False	False	TRNCMLSRPRMHFFCSRPR		Trincomalee	LK-53	8.551241	81.092014	Sripura	PS-530136	8.929617	80.81428	8.926697	80.814799	Padavi Sripura, Padaviya - Sripura Road, Welioya, Sri Lanka	0.329869	
Trincomalee	Sripura	Jayanthiya Maha Vidyalaya	False	False	TRNCMLSRPRJYNTHYMHVDYLY		Trincomalee	LK-53	8.551241	81.092014	Sripura	PS-530136	8.929617	80.81428	8.908396	80.833813	Jayanthi wewa, Padavi -Sripura, Sri Lanka	3.190373	
Trincomalee	Kuchchaveli	MOH Office – Kuchchaveli	False	False	TRNCMLKCHCHVLMHFFCKCHCHVL		Trincomalee	LK-53	8.551241	81.092014	Kuchchaweli	PS-530133	8.81895	81.100438	8.740082	81.161616	P5R6+2JQ, Kumpurupiddi, Sri Lanka	11.053646	
Trincomalee	Kuchchaveli	Divisional Hospital – Kuchchaveli	False	False	TRNCMLKCHCHVLDVSNLHSPTLKCHCHVL		Trincomalee	LK-53	8.551241	81.092014	Kuchchaweli	PS-530133	8.81895	81.100438	8.814795	81.102358	R472+WW9, Kuchchaveli, Sri Lanka	0.508064	
Trincomalee	Kuchchaveli	Divisional Hospital – Nilaveli	False	False	TRNCMLKCHCHVLDVSNLHSPTLNLVL		Trincomalee	LK-53	8.551241	81.092014	Kuchchaweli	PS-530133	8.81895	81.100438	8.681035	81.193632	M5JV+CF6, Nilaveli, Sri Lanka	18.44695	
Trincomalee	Kuchchaveli	Erakkandi Muslim College	False	False	TRNCMLKCHCHVLRKKNDMSLMCLLG		Trincomalee	LK-53	8.551241	81.092014	Kuchchaweli	PS-530133	8.81895	81.100438	8.824431	81.095742	R3FW+Q7H, Kuchchaveli, Sri Lanka	0.798806	
Trincomalee	Kuchchaveli	Al Nuria Vidyalaya – Kuchchaveli	False	False	TRNCMLKCHCHVLLNRVDYLYKCHCHVL		Trincomalee	LK-53	8.551241	81.092014	Kuchchaweli	PS-530133	8.81895	81.100438	8.821385	81.094781	Kuchchaveli, Sri Lanka	0.678215	
Trincomalee	Kuchchaveli	Family Health Services Office – Tiriyaya	False	False	TRNCMLKCHCHVLFMLYHLTHSRVCSFFCTRYY		Trincomalee	LK-53	8.551241	81.092014	Kuchchaweli	PS-530133	8.81895	81.100438	8.564779	81.237545	H67Q+W27, Manayaweli, Sri Lanka	32.039577	#CenterFarFromPolice
Trincomalee	Pulmoddai	Base Hospital -Pulmoddai	False	False	TRNCMLPLMDDBSHSPTLPLMDD		Trincomalee	LK-53	8.551241	81.092014	Pulmudai	PS-530135	6.915266	79.87829	8.941204	80.983139	WXRM+F7J, Pulmoddai, Sri Lanka	256.112801	#CenterFarFromPolice
Trincomalee	Pulmoddai	Muslim Maha Vidyalaya	False	False	TRNCMLPLMDDMSLMMHVDYLY		Trincomalee	LK-53	8.551241	81.092014	Pulmudai	PS-530135	6.915266	79.87829	8.940296	80.985139	B60, Pulmoddai, Sri Lanka	256.12882	#CenterFarFromPolice
Trincomalee	Serunuwara	MOH Office – Serunuwara	False	False	TRNCMLSRNWRMHFFCSRNWR		Trincomalee	LK-53	8.551241	81.092014	Serunuwara	PS-530244	8.321863	81.299322	8.323143	81.299894	B10, Sri Lanka	0.155671	
Trincomalee	Serunuwara	Serunuwara Hospital	False	False	TRNCMLSRNWRSRNWRHSPTL		Trincomalee	LK-53	8.551241	81.092014	Serunuwara	PS-530244	8.321863	81.299322	8.322964	81.299734	Allai-Kantalai Rd, Sri Lanka	0.130589	
Trincomalee	Serunuwara	Serunuwara Dehiwatta Vidyalaya	False	False	TRNCMLSRNWRSRNWRDHWTTVDYLY		Trincomalee	LK-53	8.551241	81.092014	Serunuwara	PS-530244	8.321863	81.299322	8.357931	81.271965	975C+5QG, Trincomalee, Sri Lanka	5.015912	
Trincomalee	Harbour Police	MOH Office – Trincomalee	False	False	TRNCMLHRBRPLCMHFFCTRNCML		Trincomalee	LK-53	8.551241	81.092014	Trinco Harbour Police	PS-530131	8.56705	81.231407	8.598974	81.216963	MOH Office, Farm Rd, Trincomalee, Sri Lanka	3.890062	
Trincomalee	Harbour Police	Base Hospital – Trincomalee	False	False	TRNCMLHRBRPLCBSHSPTLTRNCML		Trincomalee	LK-53	8.551241	81.092014	Trinco Harbour Police	PS-530131	8.56705	81.231407	8.56486	81.239445	Hospital Ln, Trincomalee, Sri Lanka	0.917037	
Trincomalee	Uppuveli	MOH Office - Uppuveli	False	False	TRNCMLPPVLMHFFCPPVL		Trincomalee	LK-53	8.551241	81.092014	Uppuweli	PS-530134	8.593614	81.21743	8.607961	81.216512	Nilaveli Rd, Trincomalee, Sri Lanka	1.599005	
Trincomalee	Kantale	MOH Office - Kantale	False	False	TRNCMLKNTLMHFFCKNTL		Trincomalee	LK-53	8.551241	81.092014	Kantale	PS-530241	8.356129	81.007739	8.349617	81.009107	අග්‍රබෝධි මාවත, Kantale, Sri Lanka	0.739809	
Trincomalee	Kantale	Altaric Vidyalaya	False	False	TRNCMLKNTLLTRCVDYLY		Trincomalee	LK-53	8.551241	81.092014	Kantale	PS-530241	8.356129	81.007739	8.365205	81.031496	928J+3HQ, Kantale, Sri Lanka	2.802542	
Trincomalee	Kantale	Ganthalawa Central College	False	False	TRNCMLKNTLGNTHLWCNTRLCLLG		Trincomalee	LK-53	8.551241	81.092014	Kantale	PS-530241	8.356129	81.007739	8.379492	81.010837	Kandy Rd, Kantale 31300, Sri Lanka	2.62093	
Trincomalee	Kantale	Unit 14 Jayarajarama Viharaya	False	False	TRNCMLKNTLNTJYRJRMVHRY		Trincomalee	LK-53	8.551241	81.092014	Kantale	PS-530241	8.356129	81.007739	8.351263	81.006993	Kantale, Sri Lanka	0.547435	
Trincomalee	Kantale	Vanela Central Dispensary	False	False	TRNCMLKNTLVNLCNTRLDSPNSRY		Trincomalee	LK-53	8.551241	81.092014	Kantale	PS-530241	8.356129	81.007739	8.456635	81.160349	F546+M45, Kinniya, Sri Lanka	20.173272	#CenterFarFromPolice
Trincomalee	Kantale	Jayanthipura Vidyalaya	False	False	TRNCMLKNTLJYNTHPRVDYLY		Trincomalee	LK-53	8.551241	81.092014	Kantale	PS-530241	8.356129	81.007739	8.369017	81.071671	939C+JM3, Kantale, Sri Lanka	7.180097	
Trincomalee	Kantale	Batukachchiya Central Dispensary	False	False	TRNCMLKNTLBTKCHCHYCNTRLDSPNSRY		Trincomalee	LK-53	8.551241	81.092014	Kantale	PS-530241	8.356129	81.007739	8.351263	81.006993	Kantale, Sri Lanka	0.547435	
Trincomalee	Ichchalampattu	MOH Office – Ichchalampattu	False	False	TRNCMLCHCHLMPTTMHFFCCHCHLMPTT	Eachchilampattu Hospital	Trincomalee	LK-53	8.551241	81.092014	Ichchalampattu		8.289549	81.359002	8.289644	81.358983	Highway, Ichchalampattu, Trincomalee, Sri Lanka	0.010772	
Trincomalee	Ichchalampattu	Mavadichenai  Vidyalaya	False	False	TRNCMLCHCHLMPTTMVDCHNVDYLY		Trincomalee	LK-53	8.551241	81.092014	Ichchalampattu		8.289549	81.359002	8.264751	81.372857	797F+W45, Verugal, Sri Lanka	3.151798	
Trincomalee	Ichchalampattu	Dwaraka Vidyalaya	False	False	TRNCMLCHCHLMPTTDWRKVDYLY		Trincomalee	LK-53	8.551241	81.092014	Ichchalampattu		8.289549	81.359002	8.289549	81.358986	Trincomalee Hwy, Sri Lanka	0.001761	
Trincomalee	Ichchalampattu	Sri Sanpaha Vidyalaya	False	False	TRNCMLCHCHLMPTTSRSNPHVDYLY		Trincomalee	LK-53	8.551241	81.092014	Ichchalampattu		8.289549	81.359002	8.289549	81.358986	Trincomalee Hwy, Sri Lanka	0.001761	
Trincomalee	Thambalagamuwa	Kulakotan Vidyalaya	False	False	TRNCMLTHMBLGMWKLKTNVDYLY		Trincomalee	LK-53	8.551241	81.092014	Thambalagamuva	PS-530243	6.907289	79.863819	8.499625	81.094502	Kandy Road, Sri Lanka	223.092723	#CenterFarFromPolice
Trincomalee	Thambalagamuwa	Mollipathana Sinhala Maha Vidyalaya	False	False	TRNCMLTHMBLGMWMLLPTHNSNHLMHVDYLY		Trincomalee	LK-53	8.551241	81.092014	Thambalagamuva	PS-530243	6.907289	79.863819	8.491061	81.104748	potkerney Thampalagamam, Sri Lanka	223.028906	#CenterFarFromPolice
Trincomalee	Thambalagamuwa	Mollipathana Central Dispensary	False	False	TRNCMLTHMBLGMWMLLPTHNCNTRLDSPNSRY		Trincomalee	LK-53	8.551241	81.092014	Thambalagamuva	PS-530243	6.907289	79.863819	8.454476	81.062722	96 A6, Mullipotana, Sri Lanka	216.98052	#CenterFarFromPolice
Trincomalee	Thambalagamuwa	Siraj Nagar Muslim College	False	False	TRNCMLTHMBLGMWSRJNGRMSLMCLLG		Trincomalee	LK-53	8.551241	81.092014	Thambalagamuva	PS-530243	6.907289	79.863819	8.465601	81.082906	Siraj Nagar,, Trincomalee, Sri Lanka	219.318228	#CenterFarFromPolice
Trincomalee	Thambalagamuwa	Gantalawa Central Dispensary	False	False	TRNCMLTHMBLGMWGNTLWCNTRLDSPNSRY		Trincomalee	LK-53	8.551241	81.092014	Thambalagamuva	PS-530243	6.907289	79.863819	8.454476	81.062722	96 A6, Mullipotana, Sri Lanka	216.98052	#CenterFarFromPolice
Trincomalee	Gomarankadawala	MOH Office – Gomarankadawala	False	False	TRNCMLGMRNKDWLMHFFCGMRNKDWL		Trincomalee	LK-53	8.551241	81.092014	Gomarankadawala	PS-530248	8.674487	80.967555	8.674726	80.955691	Unnamed Road, Gomarankadawala, Sri Lanka	1.304806	
Trincomalee	Vavunathivu	MOH Office – Vavunathivu	False	False	TRNCMLVVNTHVMHFFCVVNTHV		Trincomalee	LK-53	8.551241	81.092014	Vavunathive	PS-510102	6.933075	79.857181	7.708253	81.691368	Hospital Rd, Batticaloa, Sri Lanka	219.95575	#CenterFarFromPolice
Ampara	Chavalakade	MOH Office – Navidanveli	False	False	MPRCHVLKDMHFFCNVDNVL		Ampara	LK-52	7.23699	81.550391	Chawalakade	PS-520125	7.413559	81.776822	7.420081	81.788401	B77, Sri Lanka	1.468805	
Ampara	Chavalakade	5th Colony Health Centre	False	False	MPRCHVLKDTHCLNYHLTHCNTR		Ampara	LK-52	7.23699	81.550391	Chawalakade	PS-520125	7.413559	81.776822	7.418836	81.781436	Chavalakade, Sri Lanka	0.776867	
Ampara	Karaitivu	MOH Office – Karaitivu	False	False	MPRKRTVMHFFCKRTV		Ampara	LK-52	7.23699	81.550391	Karaitivu		9.744059	79.870587	7.377712	81.838796	Colombo-Ratnapura-Wellawaya-Batticaloa Highway, Karativu 32250, Sri Lanka	340.788666	#CenterFarFromPolice
Ampara	Kalmunai	Ashraff Memorial Hospital	False	False	MPRKLMNSHRFFMMRLHSPTL		Ampara	LK-52	7.23699	81.550391	Kalmunai	PS-520123	7.414289	81.825006	7.403172	81.831146	A4, Ashraff Memorial Base Hospital, A4 A4, Kalmunai 32300, Sri Lanka	1.409859	
Ampara	Kalmunai	MOH Office - Kalmunai North	False	False	MPRKLMNMHFFCKLMNNRTH		Ampara	LK-52	7.23699	81.550391	Kalmunai	PS-520123	7.414289	81.825006	7.411712	81.838462	CR6Q+M9P, Kalmunai 32300, Sri Lanka	1.511625	
Ampara	Kalmunai	MOH Office - Kalmunai South	False	False	MPRKLMNMHFFCKLMNSTH		Ampara	LK-52	7.23699	81.550391	Kalmunai	PS-520123	7.414289	81.825006	7.411712	81.838462	CR6Q+M9P, Kalmunai 32300, Sri Lanka	1.511625	
Ampara	Kalmunai	Carmal Fatima Vidyalaya - Kalmunai	False	False	MPRKLMNCRMLFTMVDYLYKLMN		Ampara	LK-52	7.23699	81.550391	Kalmunai	PS-520123	7.414289	81.825006	7.419889	81.823933	Carmel Fatima College Rd, Kalmunai 32300, Sri Lanka	0.634031	
Ampara	Kalmunai	Base Hospital - Kalmunai North	False	False	MPRKLMNBSHSPTLKLMNNRTH		Ampara	LK-52	7.23699	81.550391	Kalmunai	PS-520123	7.414289	81.825006	7.420034	81.82232	hospital near, Kalmunai 32300, Sri Lanka	0.704353	
Ampara	Sainthamarthu	MOH Office – Sainthamarthu	False	False	MPRSNTHMRTHMHFFCSNTHMRTH		Ampara	LK-52	7.23699	81.550391									#PoliceLocationUnknown
Ampara	Sainthamarthu	Saindamarudu Hospital	False	False	MPRSNTHMRTHSNDMRDHSPTL		Ampara	LK-52	7.23699	81.550391									#PoliceLocationUnknown
Ampara	Sammanthurai	Sammanthurai Base Hospital	False	False	MPRSMMNTHRSMMNTHRBSHSPTL		Ampara	LK-52	7.23699	81.550391	Samanthurai	PS-520124	7.365785	81.810859	7.368355	81.813042	9R96+MWM, Hospital Rd, Sammanthurai, Sri Lanka	0.373773	
Ampara	Sammanthurai	MOH Office – Nintavur	False	False	MPRSMMNTHRMHFFCNNTVR		Ampara	LK-52	7.23699	81.550391	Samanthurai	PS-520124	7.365785	81.810859	7.352821	81.856939	Hospital Rd, Nintavur 32340, Sri Lanka	5.283925	
Ampara	Sammanthurai	MOH Office - Sammanthurai	False	False	MPRSMMNTHRMHFFCSMMNTHR		Ampara	LK-52	7.23699	81.550391	Samanthurai	PS-520124	7.365785	81.810859	7.369857	81.812264	9R96+WWR, Sammanthurai, Sri Lanka	0.478712	
Ampara	Sammanthurai	Nintavur Hospital	False	False	MPRSMMNTHRNNTVRHSPTL		Ampara	LK-52	7.23699	81.550391	Samanthurai	PS-520124	7.365785	81.810859	7.353372	81.856852	Hospital Rd, Nintavur, Sri Lanka	5.258159	
Ampara	Sammanthurai	Darususalam Maha Vidyalaya	False	False	MPRSMMNTHRDRSSLMMHVDYLY		Ampara	LK-52	7.23699	81.550391	Samanthurai	PS-520124	7.365785	81.810859	7.370617	81.808855	AB33, Sammanthurai 32200, Sri Lanka	0.58115	
Ampara	Sammanthurai	Kannahi Vidyalaya	False	False	MPRSMMNTHRKNNHVDYLY		Ampara	LK-52	7.23699	81.550391	Samanthurai	PS-520124	7.365785	81.810859	7.35018	81.80359	Kallarichchel 02, Sammanthurai, Sri Lanka	1.912014	
Ampara	Thirukkovil	MOH Office – Thirukkovil	False	False	MPRTHRKKVLMHFFCTHRKKVL		Ampara	LK-52	7.23699	81.550391	Thirukkovil	PS-520127	7.113998	81.852219	7.111635	81.852892	Central Rd, Vinayagapuram, Sri Lanka	0.273131	
Ampara	Akkaraipattu	MOH Office – Addalachenai	False	False	MPRKKRPTTMHFFCDDLCHN		Ampara	LK-52	7.23699	81.550391	Akkaraipattu	PS-520126	7.216084	81.853254	7.260916	81.853493	7V63+999, Addalaichenai, Sri Lanka	4.986726	
Ampara	Akkaraipattu	MOH Office - Akkaraipattu	False	False	MPRKKRPTTMHFFCKKRPTT		Ampara	LK-52	7.23699	81.550391	Akkaraipattu	PS-520126	7.216084	81.853254	7.228134	81.851123	6VH2+7C5, Akkaraipattu, Sri Lanka	1.360772	
Ampara	Akkaraipattu	MOH Office - Alayadivembu	False	False	MPRKKRPTTMHFFCLYDVMB		Ampara	LK-52	7.23699	81.550391	Akkaraipattu	PS-520126	7.216084	81.853254	7.228134	81.851123	6VH2+7C5, Akkaraipattu, Sri Lanka	1.360772	
Ampara	Pottuvil	MOH Office – Pottuvil	False	False	MPRPTTVLMHFFCPTTVL		Ampara	LK-52	7.23699	81.550391	Pothuvil	PS-520128	6.878387	81.826859	6.877076	81.828969	B374, Pottuvil, Sri Lanka	0.274874	
