district	police	center	dose1	dose2	fuzzy_key	alt_name	district_name_norm	district_id	district_lat	district_lng	ps_name_norm	ps_id	ps_lat	ps_lng	lat	lng	formatted_address	dis_center_to_police	tags
Colombo	Cinnamon Gardens	Viharamahadevi Park	False	False	CLMBCNNMNGRDNSVHRMHDVPRK		Colombo	LK-11	6.869636	80.019598	Cinnamon Garden	PS-110324	6.907289	79.863819	6.913391	79.86174	Viharamahadevi Park, Colombo, Sri Lanka	0.716497	
Colombo	Thalangama	MOH Office – Battaramulla	False	False	CLMBTHLNGMMHFFCBTTRMLL		Colombo	LK-11	6.869636	80.019598	Thalangama	PS-110466	6.91089	79.929325	6.901538	79.919128	WW29+JM6, Battaramulla 10120, Sri Lanka	1.532936	
Colombo	Narahenpita	Army Hospital- Narahenpita	False	False	CLMBNRHNPTRMYHSPTLNRHNPT		Colombo	LK-11	6.869636	80.019598	Narahenpita	PS-110321	6.891832	79.876715	6.900252	79.87618	08 Elvitigala Mawatha, Colombo 00800, Sri Lanka	0.938417	
Colombo	Narahenpita	Army Headquarters Mobile Team	False	False	CLMBNRHNPTRMYHDQRTRSMBLTM		Colombo	LK-11	6.869636	80.019598	Narahenpita	PS-110321	6.891832	79.876715					#CenterLocationUnknown
Colombo	Narahenpita	Mobile Team	False	False	CLMBNRHNPTMBLTM		Colombo	LK-11	6.869636	80.019598	Narahenpita	PS-110321	6.891832	79.876715					#CenterLocationUnknown
Colombo	Homagama	Panagoda Bodhirajarama Viharaya	False	False	CLMBHMGMPNGDBDHRJRMVHRY		Colombo	LK-11	6.869636	80.019598	Homagama	PS-110470	6.836155	80.003474	6.929161	79.88265	Gnanawimala Rd, Colombo, Sri Lanka	16.883101	
Colombo	Padukka	Siri Piyarathana Primary School	False	False	CLMBPDKKSRPYRTHNPRMRYSCHL		Colombo	LK-11	6.869636	80.019598	Padukka	PS-110473	6.842195	80.09247	6.838859	80.088899	Padukka Rd, Padukka, Sri Lanka	0.541497	
Colombo	Borella	St. Luke's Church – Borella	False	False	CLMBBRLLSTLKSCHRCHBRLL		Colombo	LK-11	6.869636	80.019598	Borella	PS-110323	6.915266	79.87829	6.918035	79.874548	1091 Gnanartha Pradeepa Mawatha, Colombo 00800, Sri Lanka	0.515354	
Colombo	Mirihana	MOH Office – Beddagana	False	False	CLMBMRHNMHFFCBDDGN		Colombo	LK-11	6.869636	80.019598	Mirihana	PS-110462	6.873714	79.901724	6.885731	79.908328	Baddagana Rd, Sri Jayawardenepura Kotte 10100, Sri Lanka	1.522652	
Colombo	Boralesgamuwa	Kotelawala Defence Hospital	False	False	CLMBBRLSGMWKTLWLDFNCHSPTL		Colombo	LK-11	6.869636	80.019598	Boralesgamuwa	PS-110464	6.841331	79.901255	6.82518	79.907167	RWG4+3VF, Boralesgamuwa, Sri Lanka	1.911444	
Colombo	Dehiwala	MOH Office – Dehiwala	False	False	CLMBDHWLMHFFCDHWL		Colombo	LK-11	6.869636	80.019598	Dehiwala	PS-110580	6.850088	79.871696	6.861346	79.865943	VV68+G9P, Dehiwala-Mount Lavinia, Sri Lanka	1.404177	
Colombo	Grandpass	Fouzi Maternity Clinic	False	False	CLMBGRNDPSSFZMTRNTYCLNC		Colombo	LK-11	6.869636	80.019598	Grandpass	PS-110215	6.949052	79.872983	6.967647	79.870269	Hubert Pl, Colombo, Sri Lanka	2.089913	
Colombo	Foreshore	MOH Office - Jinthupitiya	False	False	CLMBFRSHRMHFFCJNTHPTY		Colombo	LK-11	6.869636	80.019598	Fore shore	PS-110210	6.949589	79.857355	6.943258	79.859238	No.27 Vivekananda Hill, Colombo 01300, Sri Lanka	0.734247	
Colombo	Wellampitiya	MOH Office – Kolonnawa	False	False	CLMBWLLMPTYMHFFCKLNNW		Colombo	LK-11	6.869636	80.019598	Wellampitiya	PS-110465	6.937514	79.896298	6.922088	79.916237	Mandavila Rd, Kotikawatta, Sri Lanka	2.791266	
Colombo	Kaduwela	MOH Office – Kaduwela	False	False	CLMBKDWLMHFFCKDWL		Colombo	LK-11	6.869636	80.019598	Kaduwela		6.936234	79.970183	6.934127	79.984398	B263, Kaduwela, Sri Lanka	1.586964	
Colombo	Maradana	National Hospital – Colombo	False	False	CLMBMRDNNTNLHSPTLCLMB		Colombo	LK-11	6.869636	80.019598	Maradana	PS-110107	6.927939	79.865471	6.918743	79.868992	Colombo 00700, Sri Lanka	1.094265	
Colombo	Kosgama	Kosgama Hospital	False	False	CLMBKSGMKSGMHSPTL		Colombo	LK-11	6.869636	80.019598	Kosgama	PS-920227	6.946597	80.137869	6.940956	80.124888	Salawa-Akarawita, 10730, Sri Lanka	1.564606	
Gampaha	Gampaha	MOH Office – Gampaha	False	False	GMPHGMPHMHFFCGMPH		Gampaha	LK-12	7.123598	80.018508	Gampaha	PS-120237	7.087765	80.01228	7.17227	79.956823	Katunayake-Veyangoda Rd, Minuwangoda, Sri Lanka	11.216745	
Gampaha	Gampaha	Idigolla Viharaya	False	False	GMPHGMPHDGLLVHRY		Gampaha	LK-12	7.123598	80.018508	Gampaha	PS-120237	7.087765	80.01228	7.091336	80.018613	32R9+GCQ, Gampaha, Sri Lanka	0.804	
Gampaha	Ganemulla	Galahitiyawa Vidyalaya	False	False	GMPHGNMLLGLHTYWVDYLY		Gampaha	LK-12	7.123598	80.018508	Ganemulla	PS-120242	7.066804	79.959751	7.069576	79.953719	Ganemulla-JaEla Road, Ganemulla 11020, Sri Lanka	0.733764	
Gampaha	Divulapitiya	MOH Office – Divulapitiya	False	False	GMPHDVLPTYMHFFCDVLPTY		Gampaha	LK-12	7.123598	80.018508	Diulapitiya	PS-120355	7.174215	79.957874	7.215486	80.013606	6287+5CX, Divulapitiya, Sri Lanka	7.67456	
Gampaha	Pamunugama	Pamunugama Hospital	False	False	GMPHPMNGMPMNGMHSPTL		Gampaha	LK-12	7.123598	80.018508	Pamunugama	PS-120353	7.078892	79.859696	7.093543	79.850191	3VV2+C38, Negombo, Sri Lanka	1.938152	
Gampaha	Ja Ela	MOH Office – Ja Ela	False	False	GMPHJLMHFFCJL		Gampaha	LK-12	7.123598	80.018508	Ja - Ela	PS-120133	7.081055	79.890504	7.075216	79.893879	60 Mount Kalvary Rd, Ja-Ela, Sri Lanka	0.748731	
Gampaha	Wattala	MOH Office – Wattala	False	False	GMPHWTTLMHFFCWTTL		Gampaha	LK-12	7.123598	80.018508	Wattala	PS-120128	6.993713	79.894506	6.995817	79.885793	301 Hendala Rd, Wattala, Sri Lanka	0.989991	
Gampaha	Ragama	MOH Office – Ragama	False	False	GMPHRGMMHFFCRGM		Gampaha	LK-12	7.123598	80.018508	Ragama	PS-120134	7.034975	79.924148	7.027386	79.920232	2WGC+X35, Ragama, Sri Lanka	0.948382	
Kalutara	Kalutara South	Mobile Team 01	False	False	KLTRKLTRSTHMBLTM		Kalutara	LK-13	6.577316	80.127363	Kalutara South	PS-130296	6.58486	79.961043					#CenterLocationUnknown
Kalutara	Kalutara South	Technical College, Kalamulla	False	False	KLTRKLTRSTHTCHNCLCLLGKLMLL		Kalutara	LK-13	6.577316	80.127363	Kalutara South	PS-130296	6.58486	79.961043	6.551872	79.974403	ANGANGODA,PAYAGALA, Temple Rd, Katukurunda, Sri Lanka	3.955096	
Kalutara	Kalutara South	Katukurunda Maha Vidyalaya	False	False	KLTRKLTRSTHKTKRNDMHVDYLY		Kalutara	LK-13	6.577316	80.127363	Kalutara South	PS-130296	6.58486	79.961043	6.560527	79.966763	Station Rd, Kalutara, Sri Lanka	2.779377	
Kalutara	Dodangoda	MOH Office – Dodangoda	False	False	KLTRDDNGDMHFFCDDNGD	6.540366199937832,80.03661033076219	Kalutara	LK-13	6.577316	80.127363	Dodangoda	PS-130299	6.553375	80.023569	6.541731	80.04335	Dodangoda, Sri Lanka	2.540775	
Kalutara	Dodangoda	Dodangoda Hospital	False	False	KLTRDDNGDDDNGDHSPTL		Kalutara	LK-13	6.577316	80.127363	Dodangoda	PS-130299	6.553375	80.023569	6.540961	80.036553	Wilpatha Rd, Sri Lanka	1.991373	
Kalutara	Thebuwana	Wellatha Hospital	False	False	KLTRTHBWNWLLTHHSPTL		Kalutara	LK-13	6.577316	80.127363	Thebuwana	PS-1302105	6.654997	80.058183	6.570354	80.073048	wellatha Neboda ., Neboda - Wellatha Rd, Sri Lanka	9.557015	
Kalutara	Wadduwa	Gonaduwa Primary School	False	False	KLTRWDDWGNDWPRMRYSCHL		Kalutara	LK-13	6.577316	80.127363	Wadduwa	PS-130188	6.664403	79.929851	6.650788	79.935438	MW2P+858, Wadduwa, Sri Lanka	1.635356	
Kalutara	Wadduwa	Pothupitiya Vidyalaya	False	False	KLTRWDDWPTHPTYVDYLY		Kalutara	LK-13	6.577316	80.127363	Wadduwa	PS-130188	6.664403	79.929851	6.639491	79.939759	A2, Wadduwa, Sri Lanka	2.979338	
Kalutara	Anguruwatota	MOH Office – Madurawala	False	False	KLTRNGRWTTMHFFCMDRWL		Kalutara	LK-13	6.577316	80.127363	Anguruwatota	PS-130190	6.654997	80.058183	6.654814	80.057811	M335+W4F, Keselhenawa, Sri Lanka	0.045863	
Kalutara	Agalawatta	Pimbura Hospital	False	False	KLTRGLWTTPMBRHSPTL		Kalutara	LK-13	6.577316	80.127363	Agalawatta		6.542566	80.157178	6.575949	80.158371	H5G5+98H, කළුතර, Sri Lanka	3.715525	
Kalutara	Meegahathenna	MOH Office – Meegahathenna	False	False	KLTRMGHTHNNMHFFCMGHTHNN		Kalutara	LK-13	6.577316	80.127363	Meegahathenna	PS-1302107	6.436941	80.1943	6.435016	80.198501	B158, Meegahathenna, Sri Lanka	0.511322	
Kalutara	Welipenna	Rahumaniya Maha Vidyalaya	False	False	KLTRWLPNNRHMNYMHVDYLY		Kalutara	LK-13	6.577316	80.127363	Welipanna	PS-1302101	6.467428	80.108313	6.465024	80.101427	Aluthgama - Mathugama Rd, Welipenna, Sri Lanka	0.806664	
Kalutara	Welipenna	Meegama Primary School	False	False	KLTRWLPNNMGMPRMRYSCHL		Kalutara	LK-13	6.577316	80.127363	Welipanna	PS-1302101	6.467428	80.108313	6.50421	80.123232	G43F+M7Q, Matugama, Sri Lanka	4.411006	
Kalutara	Lihiniyawa	07th Mile Post Reception Hall	False	False	KLTRLHNYWTHMLPSTRCPTNHLL		Kalutara	LK-13	6.577316	80.127363									#PoliceLocationUnknown
Kalutara	Bulathsinhala	Egaloya Viaharaya	False	False	KLTRBLTHSNHLGLYVHRY		Kalutara	LK-13	6.577316	80.127363	Bulathsinhala	PS-1302104	6.650425	80.17703	6.679657	80.161987	M5H6+VQ9, Egaloya, Sri Lanka	3.651581	
Kalutara	Bulathsinhala	Yatigampitiya Maha Vidyalaya	False	False	KLTRBLTHSNHLYTGMPTYMHVDYLY		Kalutara	LK-13	6.577316	80.127363	Bulathsinhala	PS-1302104	6.650425	80.17703	6.704892	80.169849	P539+XW5, Bulathsinhala, Sri Lanka	6.11009	
Kalutara	Baduraliya	Baduraliya Hospital	False	False	KLTRBDRLYBDRLYHSPTL		Kalutara	LK-13	6.577316	80.127363	Baduraliya	PS-1302106	6.516756	80.226716	6.514727	80.232731	Tiruwanaketiya-Agalawatte Rd, Baduraliya, Sri Lanka	0.702098	
Kalutara	Matugama	Weththewa Hospital	False	False	KLTRMTGMWTHTHWHSPTL		Kalutara	LK-13	6.577316	80.127363	Mathugama	PS-1302103	6.520881	80.117908	6.523087	80.125192	District Hospital, Hospital Road,Weththewa,., Matugama, Sri Lanka	0.841523	
Kalutara	Matugama	Ananda Sastralaya	False	False	KLTRMTGMNNDSSTRLY		Kalutara	LK-13	6.577316	80.127363	Mathugama	PS-1302103	6.520881	80.117908	6.524157	80.11721	Ananda Sastralaya, Ananda Sasthralaya Rd, Matugama, Sri Lanka	0.372464	
Kalutara	Matugama	MOH Office – Matugama	False	False	KLTRMTGMMHFFCMTGM		Kalutara	LK-13	6.577316	80.127363	Mathugama	PS-1302103	6.520881	80.117908	6.523544	80.126443	G4FG+CH8, Matugama, Sri Lanka	0.988725	
Kalutara	Ingiriya	MOH Office – Ingiriya	False	False	KLTRNGRYMHFFCNGRY		Kalutara	LK-13	6.577316	80.127363	Ingiriya	PS-130193	6.743614	80.175077	6.74328	80.166145	A8, Ingiriya, Sri Lanka	0.987331	
Kalutara	Ingiriya	Ingiriya Hospital	False	False	KLTRNGRYNGRYHSPTL		Kalutara	LK-13	6.577316	80.127363	Ingiriya	PS-130193	6.743614	80.175077	6.741133	80.162046	Panadura-Nambapana-Ratnapura Hwy, Ingiriya, Sri Lanka	1.465626	
Kalutara	Katugastota	Nugawela Central College	False	False	KLTRKTGSTTNGWLCNTRLCLLG		Kalutara	LK-13	6.577316	80.127363	Katugastota	PS-210103	7.332014	80.623006	7.326405	80.585017	Nugawela Central College, Werallagama, Nugawela, Sri Lanka	4.237169	
Kalutara	Dambagalla	Obbegoda Maha Vidyalaya	False	False	KLTRDMBGLLBBGDMHVDYLY		Kalutara	LK-13	6.577316	80.127363	Dambagalla	PS-820123	6.978806	81.372037	6.95	81.366667	Dambagalla, Sri Lanka	3.258481	
Kalutara	Habaraduwa	Katukurunda Dharmika Maha Vidyalaya	False	False	KLTRHBRDWKTKRNDDHRMKMHVDYLY		Kalutara	LK-13	6.577316	80.127363	Habaraduwa	PS-310127	5.9871	80.327098	6.03447	80.315217	A17, Angulugaha, Sri Lanka	5.430394	
Kalutara	Opatha	Opatha Vidyalaya	False	False	KLTRPTHPTHVDYLY		Kalutara	LK-13	6.577316	80.127363									#PoliceLocationUnknown
Kalutara	Hiniduma	Dammala Viharaya	False	False	KLTRHNDMDMMLVHRY		Kalutara	LK-13	6.577316	80.127363	Hiniduma	PS-310131	6.329517	80.322442	6.795128	79.900867	Bandaranayake Mawatha, Moratuwa 10400, Sri Lanka	69.658373	#CenterFarFromPolice
Matara	Matara	Mobile Vaccination	False	False	MTRMTRMBLVCCNTN		Matara	LK-32	6.142734	80.539994	Matara	PS-320101	5.94904	80.533659					#CenterLocationUnknown
Matara	Pitabeddara	Kanduruwana Primary School	False	False	MTRPTBDDRKNDRWNPRMRYSCHL		Matara	LK-32	6.142734	80.539994	Pitabeddara	PS-320114	6.203675	80.475004	6.207077	80.463245	6F47+R7Q, Pitabeddara, Sri Lanka	1.35423	
Matara	Pitabeddara	Derangala Primary School	False	False	MTRPTBDDRDRNGLPRMRYSCHL		Matara	LK-32	6.142734	80.539994	Pitabeddara	PS-320114	6.203675	80.475004	6.207077	80.463245	6F47+R7Q, Pitabeddara, Sri Lanka	1.35423	
Matara	Pitabeddara	Derangala Maha Vidyalaya	False	False	MTRPTBDDRDRNGLMHVDYLY		Matara	LK-32	6.142734	80.539994	Pitabeddara	PS-320114	6.203675	80.475004	6.253488	80.446914	7C3W+9QV, Matara, Sri Lanka	6.351891	
Matara	Pitabeddara	Alapaladeniya Maha Vidyalaya	False	False	MTRPTBDDRLPLDNYMHVDYLY		Matara	LK-32	6.142734	80.539994	Pitabeddara	PS-320114	6.203675	80.475004	6.198794	80.467242	A17, Pitabeddara, Sri Lanka	1.015607	
Matara	Pitabeddara	Weliwa Buddhist Maha Vidyalaya	False	False	MTRPTBDDRWLWBDDHSTMHVDYLY		Matara	LK-32	6.142734	80.539994	Pitabeddara	PS-320114	6.203675	80.475004	6.198794	80.467242	A17, Pitabeddara, Sri Lanka	1.015607	
Matara	Pitabeddara	Dudley Senanayake Maha Vidyalaya	False	False	MTRPTBDDRDDLYSNNYKMHVDYLY		Matara	LK-32	6.142734	80.539994	Pitabeddara	PS-320114	6.203675	80.475004	6.199502	80.478204	5FXH+R74, Matara, Sri Lanka	0.583659	
Matara	Pasgoda	Urubokka National College	False	False	MTRPSGDRBKKNTNLCLLG		Matara	LK-32	6.142734	80.539994									#PoliceLocationUnknown
Matara	Hakmana	Town Hall - Hakmana	False	False	MTRHKMNTWNHLLHKMN		Matara	LK-32	6.142734	80.539994	Hakmana	PS-320106	6.084824	80.643227	6.079554	80.657662	Hakmana, Sri Lanka	1.700772	
Matara	Thihagoda	Puhulwella Central College	False	False	MTRTHHGDPHLWLLCNTRLCLLG		Matara	LK-32	6.142734	80.539994	Thihagoda	PS-320104	6.01331	80.567932	6.044135	80.626892	B275, Sri Lanka	7.368182	
Matara	Thihagoda	Thihagoda Central College	False	False	MTRTHHGDTHHGDCNTRLCLLG		Matara	LK-32	6.142734	80.539994	Thihagoda	PS-320104	6.01331	80.567932	6.014367	80.56597	Sri Lanka, Thihagoda, シハゴダ - カンバーウピティヤ＝マワララ＝コタポラ・ロード	0.246831	
Hambantota	Walasmulla	MOH Office – Walasmulla	False	False	HMBNTTWLSMLLMHFFCWLSMLL		Hambantota	LK-33	6.259779	81.098619	Walasmulla	PS-330151	6.154102	80.698256	6.150889	80.693718	Walasmulla, Sri Lanka	0.616099	
Hambantota	Walasmulla	Modarawana Maha Vidyalaya	False	False	HMBNTTWLSMLLMDRWNMHVDYLY		Hambantota	LK-33	6.259779	81.098619	Walasmulla	PS-330151	6.154102	80.698256	6.109322	80.714402	Beliatta - Walasmulla Rd, Okewela, Sri Lanka	5.291276	
Hambantota	Weeraketiya	MOH Office – Weeraketiya	False	False	HMBNTTWRKTYMHFFCWRKTY		Hambantota	LK-33	6.259779	81.098619	Weeraketiya	PS-330149	6.153899	80.76737	6.144703	80.765287	4QV8+V4M, Weeraketiya, Sri Lanka	1.048488	
Hambantota	Hambantota	MOH Office – Hambantota	False	False	HMBNTTHMBNTTMHFFCHMBNTT		Hambantota	LK-33	6.259779	81.098619	Hambantota	PS-330156	6.125872	81.12521	6.171162	81.127	54CG+FQ9, Hambantota, Sri Lanka	5.041487	
Hambantota	Katuwana	MOH Office – Katuwana	False	False	HMBNTTKTWNMHFFCKTWN		Hambantota	LK-33	6.259779	81.098619	Katuwana	PS-330153	6.269722	80.690963	6.26627	80.693035	7M8V+G63, Katuwana, Sri Lanka	0.447115	
Hambantota	Ambalantota	MOH Office – Ambalantota	False	False	HMBNTTMBLNTTMHFFCMBLNTT		Hambantota	LK-33	6.259779	81.098619	Ambalantota	PS-330157	6.12516	81.023981	6.122767	81.005973	Walawa watta Road, Malpeththawa, Ambalantota, Sri Lanka	2.009195	
Hambantota	Sooriyawewa	MOH Office – Sooriyawewa	False	False	HMBNTTSRYWWMHFFCSRYWW		Hambantota	LK-33	6.259779	81.098619	Sooriyawewa	PS-330155	6.306022	81.003873	6.304862	81.004768	8233+WWR, Sooriyawewa, Sri Lanka	0.1626	
Hambantota	Beliatta	MOH Office – Beliatta	False	False	HMBNTTBLTTMHFFCBLTT		Hambantota	LK-33	6.259779	81.098619	Beliatta	PS-330152	6.046936	80.735408	6.051828	80.741735	3P2R+PMQ, Hambantota, Sri Lanka	0.886482	
Hambantota	Tangalle	MOH Office – Tangalle	False	False	HMBNTTTNGLLMHFFCTNGLL		Hambantota	LK-33	6.259779	81.098619	Tangalle	PS-330147	6.023954	80.797255	6.02363	80.795742	2QFW+F75, Tangalle, Sri Lanka	0.171198	
Hambantota	Anuradhapura	MOH Office - Nuwaragampalatha Central	False	False	HMBNTTNRDHPRMHFFCNWRGMPLTHCNTRL		Hambantota	LK-33	6.259779	81.098619	Anuradapura	PS-710101	8.329752	80.407265	8.341215	80.374096	Unnamed Road, Anuradhapura, Sri Lanka	3.866675	
Anuradhapura	Mihintale	MOH Office – Mihintale	False	False	NRDHPRMHNTLMHFFCMHNTL		Anuradhapura	LK-71	8.39199	80.512958	Mihintale	PS-710104	8.360062	80.511889	8.357612	80.509049	Puttalam - Anuradhapura - Trincomalee Hwy, Mihintale, Sri Lanka	0.41466	
Anuradhapura	Chunnakam	MOH Office - Uduvil Mobile Vaccination	False	False	NRDHPRCHNNKMMHFFCDVLMBLVCCNTN		Anuradhapura	LK-71	8.39199	80.512958	Chunnakam	PS-410211	9.745309	80.029151					#CenterLocationUnknown
Kilinochchi	Kilinochchi	MOH Office – Karachchi	False	False	KLNCHCHKLNCHCHMHFFCKRCHCH		Kilinochchi	LK-45	9.415742	80.30358	Kilinochchi	PS-450131	9.392265	80.407846	7.683586	81.730767	MPMJ+C8J, Kattankudy, Sri Lanka	239.363691	#CenterFarFromPolice
Kilinochchi	Kilinochchi	MOH Office – Kandavalai	False	False	KLNCHCHKLNCHCHMHFFCKNDVL		Kilinochchi	LK-45	9.415742	80.30358	Kilinochchi	PS-450131	9.392265	80.407846	9.411006	80.516427	Parantan-Mullaitivu Hwy, Sri Lanka	12.096188	
Kilinochchi	Madu	Periya Pandivirichchan Vidyalaya	False	False	KLNCHCHMDPRYPNDVRCHCHNVDYLY		Kilinochchi	LK-45	9.415742	80.30358	Madu	PS-420144	6.914115	79.849048	9.380289	80.377	Kilinochchi, Sri Lanka	280.402991	#CenterFarFromPolice
Trincomalee	Muttur	MOH Office – Muttur	False	False	TRNCMLMTTRMHFFCMTTR		Trincomalee	LK-53	8.551241	81.092014	Mutur	PS-530138	8.461133	81.259371	8.453916	81.264494	1 Old Batticaloa Rd, Mutur, Sri Lanka	0.980859	
Trincomalee	Kinniya	MOH Office – Kinniya	False	False	TRNCMLKNNYMHFFCKNNY		Trincomalee	LK-53	8.551241	81.092014	Kinnia	PS-530140	6.907289	79.863819	8.498696	81.179644	F5XH+FVC, Kinniya 31100, Sri Lanka	228.840304	#CenterFarFromPolice
Trincomalee	Kinniya	Surangal Rural Health Medical Center	False	False	TRNCMLKNNYSRNGLRRLHLTHMDCLCNTR		Trincomalee	LK-53	8.551241	81.092014	Kinnia	PS-530140	6.907289	79.863819	8.47091	81.139893	F4CQ+9X6, Kinniya, Sri Lanka	223.680372	#CenterFarFromPolice
Trincomalee	Sripura	MOH Office – Sripura	False	False	TRNCMLSRPRMHFFCSRPR		Trincomalee	LK-53	8.551241	81.092014	Sripura	PS-530136	8.929617	80.81428	8.926697	80.814799	Padavi Sripura, Padaviya - Sripura Road, Welioya, Sri Lanka	0.329869	
Trincomalee	Kuchchaveli	MOH Office – Kuchchaveli	False	False	TRNCMLKCHCHVLMHFFCKCHCHVL		Trincomalee	LK-53	8.551241	81.092014	Kuchchaweli	PS-530133	8.81895	81.100438	8.740082	81.161616	P5R6+2JQ, Kumpurupiddi, Sri Lanka	11.053646	
Trincomalee	Kuchchaveli	Kuchchaveli Hospital	False	False	TRNCMLKCHCHVLKCHCHVLHSPTL		Trincomalee	LK-53	8.551241	81.092014	Kuchchaweli	PS-530133	8.81895	81.100438	8.814795	81.102358	R472+WW9, Kuchchaveli, Sri Lanka	0.508064	
Trincomalee	Kuchchaveli	Divisional Hospital – Nilaveli	False	False	TRNCMLKCHCHVLDVSNLHSPTLNLVL		Trincomalee	LK-53	8.551241	81.092014	Kuchchaweli	PS-530133	8.81895	81.100438	8.681035	81.193632	M5JV+CF6, Nilaveli, Sri Lanka	18.44695	
Trincomalee	Pulmoddai	MOH Office - Pulmoddai	False	False	TRNCMLPLMDDMHFFCPLMDD		Trincomalee	LK-53	8.551241	81.092014	Pulmudai	PS-530135	6.915266	79.87829	8.599018	81.217151	H6X8+JV2, Trincomalee, Sri Lanka	238.425888	#CenterFarFromPolice
Trincomalee	Uppuveli	MOH Office - Uppuveli	False	False	TRNCMLPPVLMHFFCPPVL		Trincomalee	LK-53	8.551241	81.092014	Uppuweli	PS-530134	8.593614	81.21743	8.607961	81.216512	Nilaveli Rd, Trincomalee, Sri Lanka	1.599005	
Trincomalee	Harbour Police	MOH Office – Trincomalee	False	False	TRNCMLHRBRPLCMHFFCTRNCML		Trincomalee	LK-53	8.551241	81.092014	Trinco Harbour Police	PS-530131	8.56705	81.231407	8.598974	81.216963	MOH Office, Farm Rd, Trincomalee, Sri Lanka	3.890062	
Trincomalee	Harbour Police	Base Hospital – Trincomalee	False	False	TRNCMLHRBRPLCBSHSPTLTRNCML		Trincomalee	LK-53	8.551241	81.092014	Trinco Harbour Police	PS-530131	8.56705	81.231407	8.56486	81.239445	Hospital Ln, Trincomalee, Sri Lanka	0.917037	
Trincomalee	Serunuwara	MOH Office – Serunuwara	False	False	TRNCMLSRNWRMHFFCSRNWR		Trincomalee	LK-53	8.551241	81.092014	Serunuwara	PS-530244	8.321863	81.299322	8.323143	81.299894	B10, Sri Lanka	0.155671	
Trincomalee	Kantale	MOH Office - Kantale	False	False	TRNCMLKNTLMHFFCKNTL		Trincomalee	LK-53	8.551241	81.092014	Kantale	PS-530241	8.356129	81.007739	8.349617	81.009107	අග්‍රබෝධි මාවත, Kantale, Sri Lanka	0.739809	
Batticaloa	Batticaloa	Mobile Vaccination	False	False	BTTCLBTTCLMBLVCCNTN		Batticaloa	LK-51	7.792772	81.486513	Batticaloa	PS-510101	7.717949	81.699294					#CenterLocationUnknown
Batticaloa	Batticaloa	MOH Office - Batticaloa	False	False	BTTCLBTTCLMHFFCBTTCL		Batticaloa	LK-51	7.792772	81.486513	Batticaloa	PS-510101	7.717949	81.699294	7.708253	81.691368	Hospital Rd, Batticaloa, Sri Lanka	1.387934	
Batticaloa	Vavunathivu	MOH Office – Vavunathivu	False	False	BTTCLVVNTHVMHFFCVVNTHV		Batticaloa	LK-51	7.792772	81.486513	Vavunathive	PS-510102	6.933075	79.857181	7.708253	81.691368	Hospital Rd, Batticaloa, Sri Lanka	219.95575	#CenterFarFromPolice
Batticaloa	Eravur	Eravur Hospital	False	False	BTTCLRVRRVRHSPTL		Batticaloa	LK-51	7.792772	81.486513	Eravur	PS-510104	7.715979	81.698757	7.783168	81.605999	QJM4+799, Eravur 30300, Sri Lanka	12.663585	
Ampara	Pottuvil	MOH Office – Pottuvil	False	False	MPRPTTVLMHFFCPTTVL		Ampara	LK-52	7.23699	81.550391	Pothuvil	PS-520128	6.878387	81.826859	6.877076	81.828969	B374, Pottuvil, Sri Lanka	0.274874	
Ampara	Chavalakade	MOH Office – Navidanveli	False	False	MPRCHVLKDMHFFCNVDNVL		Ampara	LK-52	7.23699	81.550391	Chawalakade	PS-520125	7.413559	81.776822	7.420081	81.788401	B77, Sri Lanka	1.468805	
Ampara	Sainthamarthu	MOH Office – Sainthamarthu	False	False	MPRSNTHMRTHMHFFCSNTHMRTH		Ampara	LK-52	7.23699	81.550391									#PoliceLocationUnknown
Ampara	Akkaraipattu	MOH Office – Addalachenai	False	False	MPRKKRPTTMHFFCDDLCHN		Ampara	LK-52	7.23699	81.550391	Akkaraipattu	PS-520126	7.216084	81.853254	7.260916	81.853493	7V63+999, Addalaichenai, Sri Lanka	4.986726	
Ampara	Akkaraipattu	MOH Office – Alayadiwembu	False	False	MPRKKRPTTMHFFCLYDWMB		Ampara	LK-52	7.23699	81.550391	Akkaraipattu	PS-520126	7.216084	81.853254	7.269806	80.604059	13 Colombo - Kandy Rd, Kandy 20400, Sri Lanka	137.968428	#CenterFarFromPolice
Ampara	Akkaraipattu	MOH Office – Akkaraipattu	False	False	MPRKKRPTTMHFFCKKRPTT		Ampara	LK-52	7.23699	81.550391	Akkaraipattu	PS-520126	7.216084	81.853254	7.228134	81.851123	6VH2+7C5, Akkaraipattu, Sri Lanka	1.360772	
Ampara	Sammanthurai	MOH Office – Sammanthurai	False	False	MPRSMMNTHRMHFFCSMMNTHR		Ampara	LK-52	7.23699	81.550391	Samanthurai	PS-520124	7.365785	81.810859	7.369857	81.812264	9R96+WWR, Sammanthurai, Sri Lanka	0.478712	
Ampara	Sammanthurai	MOH Office – Nintavur	False	False	MPRSMMNTHRMHFFCNNTVR		Ampara	LK-52	7.23699	81.550391	Samanthurai	PS-520124	7.365785	81.810859	7.352821	81.856939	Hospital Rd, Nintavur 32340, Sri Lanka	5.283925	
Ampara	Karaitivu	MOH Office – Karaitivu	False	False	MPRKRTVMHFFCKRTV		Ampara	LK-52	7.23699	81.550391	Karaitivu		9.744059	79.870587	7.377712	81.838796	Colombo-Ratnapura-Wellawaya-Batticaloa Highway, Karativu 32250, Sri Lanka	340.788666	#CenterFarFromPolice
Ampara	Kalmunai	MOH Office - Kalmunai South	False	False	MPRKLMNMHFFCKLMNSTH		Ampara	LK-52	7.23699	81.550391	Kalmunai	PS-520123	7.414289	81.825006	7.411712	81.838462	CR6Q+M9P, Kalmunai 32300, Sri Lanka	1.511625	
Ampara	Kalmunai	MOH Office - Kalmunai North	False	False	MPRKLMNMHFFCKLMNNRTH		Ampara	LK-52	7.23699	81.550391	Kalmunai	PS-520123	7.414289	81.825006	7.411712	81.838462	CR6Q+M9P, Kalmunai 32300, Sri Lanka	1.511625	
