district	police	center	dose1	dose2	fuzzy_key	alt_name	district_name_norm	district_id	district_lat	district_lng	ps_name_norm	ps_id	ps_lat	ps_lng	lat	lng	formatted_address	dis_center_to_police	tags
Colombo	Cinnamon Gardens	Viharamahadevi Park	False	False	CLMBCNNMNGRDNSVHRMHDVPRK		Colombo	LK-11	6.869636	80.019598	Cinnamon Garden	PS-110324	6.907289	79.863819	6.913391	79.86174	Viharamahadevi Park, Colombo, Sri Lanka	0.716497	
Colombo	Thalangama	Diyatha Uyana	False	False	CLMBTHLNGMDYTHYN		Colombo	LK-11	6.869636	80.019598	Thalangama	PS-110466	6.91089	79.929325	6.904575	79.909831	Diyatha Uyana, B240, Sri Jayawardenepura Kotte, Sri Lanka	2.264281	
Colombo	Thalangama	MOH Office - Battaramulla	False	False	CLMBTHLNGMMHFFCBTTRMLL		Colombo	LK-11	6.869636	80.019598	Thalangama	PS-110466	6.91089	79.929325	6.901538	79.919128	WW29+JM6, Battaramulla 10120, Sri Lanka	1.532936	
Colombo	Grandpass	Sugathadasa Outdoor Stadium	False	False	CLMBGRNDPSSSGTHDSTDRSTDM		Colombo	LK-11	6.869636	80.019598	Grandpass	PS-110215	6.949052	79.872983	6.94806	79.868842	Prince of Wales Ave, Colombo 01400, Sri Lanka	0.470345	
Colombo	Narahenpita	Army Hospital Narahenpita	False	False	CLMBNRHNPTRMYHSPTLNRHNPT		Colombo	LK-11	6.869636	80.019598	Narahenpita	PS-110321	6.891832	79.876715	6.900252	79.87618	08 Elvitigala Mawatha, Colombo 00800, Sri Lanka	0.938417	
Colombo	Boralesgamuwa	Kotelawala Defence Hospital	False	False	CLMBBRLSGMWKTLWLDFNCHSPTL		Colombo	LK-11	6.869636	80.019598	Boralesgamuwa	PS-110464	6.841331	79.901255	6.82518	79.907167	RWG4+3VF, Boralesgamuwa, Sri Lanka	1.911444	
Colombo	Boralesgamuwa	MOH Office - Werahera	False	False	CLMBBRLSGMWMHFFCWRHR		Colombo	LK-11	6.869636	80.019598	Boralesgamuwa	PS-110464	6.841331	79.901255	6.833094	79.905583	RWM4+66P, Boralesgamuwa, Sri Lanka	1.033386	
Colombo	Mount Lavinia	Park Road Maternity Clinic	False	False	CLMBMNTLVNPRKRDMTRNTYCLNC		Colombo	LK-11	6.869636	80.019598	Mount Lavinia	PS-110577	6.825006	79.87009	6.824371	79.872256	RVFC+PWR, Dehiwala-Mount Lavinia, Sri Lanka	0.249426	
Colombo	Maradana	National Hospital - Colombo	False	False	CLMBMRDNNTNLHSPTLCLMB		Colombo	LK-11	6.869636	80.019598	Maradana	PS-110107	6.927939	79.865471	6.918743	79.868992	Colombo 00700, Sri Lanka	1.094265	
Colombo	Wellawatta	Mobile Vaccination	False	False	CLMBWLLWTTMBLVCCNTN		Colombo	LK-11	6.869636	80.019598	Wellawatta	PS-110320	6.873107	79.86167					#CenterLocationUnknown
Colombo	Padukka	Siripiyarathana Primary School	False	False	CLMBPDKKSRPYRTHNPRMRYSCHL		Colombo	LK-11	6.869636	80.019598	Padukka	PS-110473	6.842195	80.09247					#CenterLocationUnknown
Colombo	Dehiwala	S. De. S. Jayasinghe Hall	False	False	CLMBDHWLSDSJYSNGHHLL		Colombo	LK-11	6.869636	80.019598	Dehiwala	PS-110580	6.850088	79.871696	6.861489	79.865045	B11, Dehiwala-Mount Lavinia, Sri Lanka	1.465485	
Colombo	Wellampitiya	MOH Office - Kolonnawa	False	False	CLMBWLLMPTYMHFFCKLNNW		Colombo	LK-11	6.869636	80.019598	Wellampitiya	PS-110465	6.937514	79.896298	6.938303	79.889664	25 Pansalhena 1st Ln, 10600, Sri Lanka	0.737734	
Colombo	Mulleriyawa	MOH Office - Gothatuwa	False	False	CLMBMLLRYWMHFFCGTHTW		Colombo	LK-11	6.869636	80.019598	Mulleriyawa	PS-110469	6.927187	79.929108	6.922088	79.916237	Mandavila Rd, Kotikawatta, Sri Lanka	1.530186	
Colombo	Kaduwela	MOH Office - Kaduwela	False	False	CLMBKDWLMHFFCKDWL		Colombo	LK-11	6.869636	80.019598	Kaduwela		6.936234	79.970183	6.934127	79.984398	B263, Kaduwela, Sri Lanka	1.586964	
Colombo	Kosgama	Kosgama Hospital	False	False	CLMBKSGMKSGMHSPTL		Colombo	LK-11	6.869636	80.019598	Kosgama	PS-920227	6.946597	80.137869	6.940956	80.124888	Salawa-Akarawita, 10730, Sri Lanka	1.564606	
Gampaha	Gampaha	MOH Office - Gampaha	False	False	GMPHGMPHMHFFCGMPH		Gampaha	LK-12	7.123598	80.018508	Gampaha	PS-120237	7.087765	80.01228	7.090643	80.002094	Colombo Rd, Gampaha, Sri Lanka	1.16901	
Gampaha	Minuwangoda	MOH Office - Minuwangoda	False	False	GMPHMNWNGDMHFFCMNWNGD		Gampaha	LK-12	7.123598	80.018508	Minuwangoda	PS-120238	7.174215	79.957874	7.17227	79.956823	Katunayake-Veyangoda Rd, Minuwangoda, Sri Lanka	0.245525	
Gampaha	Minuwangoda	Aluthapotha Viharaya	False	False	GMPHMNWNGDLTHPTHVHRY		Gampaha	LK-12	7.123598	80.018508	Minuwangoda	PS-120238	7.174215	79.957874	7.206081	79.962286	Sri Dhammananda Nahimi Mawatha, Aluthepola, Sri Lanka	3.577734	
Gampaha	Weliweriya	Naga Piriven Viharaya	False	False	GMPHWLWRYNGPRVNVHRY		Gampaha	LK-12	7.123598	80.018508	Weliweriya	PS-120244	7.03451	80.026114	7.019518	80.011107	2296+RC5, Gampaha, Sri Lanka	2.350609	
Gampaha	Pugoda	MOH Office – Dompe	False	False	GMPHPGDMHFFCDMP		Gampaha	LK-12	7.123598	80.018508	Pugoda	PS-120241	6.98283	80.111189	6.976767	80.117422	Dompe, Pugoda-Mandawala Rd, Pugoda, Sri Lanka	0.963513	
Gampaha	Katana	MOH Office - Katana	False	False	GMPHKTNMHFFCKTN		Gampaha	LK-12	7.123598	80.018508	Katana	PS-120360	7.224796	79.880015	7.22436	79.88271	Katana, Negombo - Mirigama Rd, Negombo, Sri Lanka	0.301313	
Gampaha	Nittambuwa	Hubutiyawa Community Hall	False	False	GMPHNTTMBWHBTYWCMMNTYHLL		Gampaha	LK-12	7.123598	80.018508	Nittambuwa	PS-120246	7.149726	80.10046	7.146918	80.097194	No. 137 Colombo - Kandy Rd, Nittambuwa 11880, Sri Lanka	0.476947	
Gampaha	Nittambuwa	Bopeththa Viveka Senasanaya	False	False	GMPHNTTMBWBPTHTHVVKSNSNY		Gampaha	LK-12	7.123598	80.018508	Nittambuwa	PS-120246	7.149726	80.10046	7.094278	80.137398	B434, Sri Lanka	7.393164	
Gampaha	Pallewela	Muddaragama Clinic	False	False	GMPHPLLWLMDDRGMCLNC		Gampaha	LK-12	7.123598	80.018508	Pallewela	PS-120249	7.197365	80.094856	7.26891	79.954982	7X93+HX9, Gampaha, Sri Lanka	17.365135	
Gampaha	Kiribathgoda	Dalugama Clinic	False	False	GMPHKRBTHGDDLGMCLNC		Gampaha	LK-12	7.123598	80.018508	Kiribathgoda	PS-120135	6.978005	79.929433	6.980847	79.929943	XWJH+8XP, Kiribathgoda, Sri Lanka	0.321091	
Gampaha	Kadawata	Gongitota Clinic	False	False	GMPHKDWTGNGTTCLNC		Gampaha	LK-12	7.123598	80.018508	Kadawatha	PS-120136	7.00152	79.95003	7.09136	80.000709	A33, Gampaha, Sri Lanka	11.452317	
Gampaha	Biyagama	MOH Office - Biyagama	False	False	GMPHBYGMMHFFCBYGM		Gampaha	LK-12	7.123598	80.018508	Biyagama	PS-120131	6.962284	80.009037	6.946824	79.994052	Hospital Rd, Sri Lanka	2.386313	
Gampaha	Negombo	Risen Christ's Church - Negombo	False	False	GMPHNGMBRSNCHRSTSCHRCHNGMB		Gampaha	LK-12	7.123598	80.018508	Negombo	PS-120351	7.224796	79.880015	7.198259	79.842073	5RXR+8R4, Negombo, Sri Lanka	5.122761	
Gampaha	Negombo	Wijerathnam National College	False	False	GMPHNGMBWJRTHNMNTNLCLLG		Gampaha	LK-12	7.123598	80.018508	Negombo	PS-120351	7.224796	79.880015	7.209396	79.852931	Angurukaramulla, Negombo, Sri Lanka	3.444761	
Gampaha	Negombo	St. Francis De Sale's Church , Kattuwa	False	False	GMPHNGMBSTFRNCSDSLSCHRCHKTTW		Gampaha	LK-12	7.123598	80.018508	Negombo	PS-120351	7.224796	79.880015	7.234667	79.849806	Negombo, Sri Lanka	3.509626	
Gampaha	Katunayaka	Dewa Mottawa Abhayaraja Viharaya	False	False	GMPHKTNYKDWMTTWBHYRJVHRY		Gampaha	LK-12	7.123598	80.018508	Katunayaka	PS-120358	7.165898	79.882607	7.179962	79.90731	Dewamottawa, Katunayake, Sri Lanka	3.143143	
Gampaha	Pamunugama	Pamunugama Hospital	False	False	GMPHPMNGMPMNGMHSPTL		Gampaha	LK-12	7.123598	80.018508	Pamunugama	PS-120353	7.078892	79.859696	7.093543	79.850191	3VV2+C38, Negombo, Sri Lanka	1.938152	
Gampaha	Divulapitiya	MOH Office - Divulapitiya	False	False	GMPHDVLPTYMHFFCDVLPTY		Gampaha	LK-12	7.123598	80.018508	Diulapitiya	PS-120355	7.174215	79.957874	7.215486	80.013606	6287+5CX, Divulapitiya, Sri Lanka	7.67456	
Gampaha	Divulapitiya	Dunagaha Maha Vidyalaya	False	False	GMPHDVLPTYDNGHMHVDYLY		Gampaha	LK-12	7.123598	80.018508	Diulapitiya	PS-120355	7.174215	79.957874	7.222053	79.978018	Dunagaha, Sri Lanka	5.766689	
Gampaha	Divulapitiya	Rayakkaramulla Walukaramaya	False	False	GMPHDVLPTYRYKKRMLLWLKRMY		Gampaha	LK-12	7.123598	80.018508	Diulapitiya	PS-120355	7.174215	79.957874	7.226332	80.020768	Divulapitiya Roundabout, Divulapitiya, Sri Lanka	9.042989	
Gampaha	Divulapitiya	Pinnakele Viharaya	False	False	GMPHDVLPTYPNNKLVHRY		Gampaha	LK-12	7.123598	80.018508	Diulapitiya	PS-120355	7.174215	79.957874	7.230314	80.016474	Divulapitiya, Sri Lanka	8.986298	
Gampaha	Divulapitiya	Udagammana Viharaya	False	False	GMPHDVLPTYDGMMNVHRY		Gampaha	LK-12	7.123598	80.018508	Diulapitiya	PS-120355	7.174215	79.957874	7.189012	79.984445	Kirindiwita - Assennawatte Rd, Gampaha, Sri Lanka	3.362629	
Kalutara	Ingiriya	Ingiriya Hospital	False	False	KLTRNGRYNGRYHSPTL		Kalutara	LK-13	6.577316	80.127363	Ingiriya	PS-130193	6.743614	80.175077	6.741133	80.162046	Panadura-Nambapana-Ratnapura Hwy, Ingiriya, Sri Lanka	1.465626	
Kalutara	Anguruwatota	MOH Office - Madurawala	False	False	KLTRNGRWTTMHFFCMDRWL		Kalutara	LK-13	6.577316	80.127363	Anguruwatota	PS-130190	6.654997	80.058183	6.654814	80.057811	M335+W4F, Keselhenawa, Sri Lanka	0.045863	
Kalutara	Horana	Base Hospital - Horana	False	False	KLTRHRNBSHSPTLHRN		Kalutara	LK-13	6.577316	80.127363	Horana	PS-130192	6.714613	80.069091	6.710644	80.066589	Hospital Ln, Horana, Sri Lanka	0.520853	
Kalutara	Baduraliya	Baduraliya Hospital	False	False	KLTRBDRLYBDRLYHSPTL		Kalutara	LK-13	6.577316	80.127363	Baduraliya	PS-1302106	6.516756	80.226716	6.514727	80.232731	Tiruwanaketiya-Agalawatte Rd, Baduraliya, Sri Lanka	0.702098	
Kalutara	Millaniya	MOH Office - Millaniya	False	False	KLTRMLLNYMHFFCMLLNY		Kalutara	LK-13	6.577316	80.127363	Millaniya	PS-130191	6.681692	80.020847	6.724224	79.907284	A2, Panadura, Sri Lanka	13.407612	
Kalutara	Panadura	Mahanama Vidyalaya	False	False	KLTRPNDRMHNMVDYLY		Kalutara	LK-13	6.577316	80.127363	Panadura North		6.756309	79.898939	6.725866	79.907901	PWG5+85R, Panadura, Sri Lanka	3.52791	
Kalutara	Meegahathenna	MOH Office - Meegahathenna	False	False	KLTRMGHTHNNMHFFCMGHTHNN		Kalutara	LK-13	6.577316	80.127363	Meegahathenna	PS-1302107	6.436941	80.1943	6.435016	80.198501	B158, Meegahathenna, Sri Lanka	0.511322	
Kalutara	Matugama	Weththewa Hospital	False	False	KLTRMTGMWTHTHWHSPTL		Kalutara	LK-13	6.577316	80.127363	Mathugama	PS-1302103	6.520881	80.117908	6.523087	80.125192	District Hospital, Hospital Road,Weththewa,., Matugama, Sri Lanka	0.841523	
Kalutara	Matugama	MOH Office - Matugama	False	False	KLTRMTGMMHFFCMTGM		Kalutara	LK-13	6.577316	80.127363	Mathugama	PS-1302103	6.520881	80.117908	6.523544	80.126443	G4FG+CH8, Matugama, Sri Lanka	0.988725	
Kalutara	Matugama	Badugama Dharamananda Vidyalaya	False	False	KLTRMTGMBDGMDHRMNNDVDYLY		Kalutara	LK-13	6.577316	80.127363	Mathugama	PS-1302103	6.520881	80.117908	6.501529	80.122822	B157, Sri Lanka	2.219967	
Kalutara	Matugama	Katugahahena Hospital	False	False	KLTRMTGMKTGHHNHSPTL		Kalutara	LK-13	6.577316	80.127363	Mathugama	PS-1302103	6.520881	80.117908	6.489328	80.08471	F3QM+PVP, Bopitiya, Sri Lanka	5.077192	
Kalutara	Agalawatta	Pimbura Hospital	False	False	KLTRGLWTTPMBRHSPTL		Kalutara	LK-13	6.577316	80.127363	Agalawatta		6.542566	80.157178	6.575949	80.158371	H5G5+98H, කළුතර, Sri Lanka	3.715525	
Kalutara	Bandragama	Maithri Hall - Bandaragama	False	False	KLTRBNDRGMMTHRHLLBNDRGM		Kalutara	LK-13	6.577316	80.127363	Bandaragama	PS-130189	6.715179	79.987674	6.713508	79.990766	PX7R+C82, Bandaragama, Sri Lanka	0.388859	
Kalutara	Bandragama	District Hospital Bandaragama	False	False	KLTRBNDRGMDSTRCTHSPTLBNDRGM		Kalutara	LK-13	6.577316	80.127363	Bandaragama	PS-130189	6.715179	79.987674	6.716162	79.991484	Horana Rd, Bandaragama, Sri Lanka	0.434849	
Kalutara	Pinwatta	Prime Minister's College - Panapitiya	False	False	KLTRPNWTTPRMMNSTRSCLLGPNPTY		Kalutara	LK-13	6.577316	80.127363									#PoliceLocationUnknown
Kalutara	Dodangoda	Dodangoda Hospital	False	False	KLTRDDNGDDDNGDHSPTL		Kalutara	LK-13	6.577316	80.127363	Dodangoda	PS-130299	6.553375	80.023569	6.540961	80.036553	Wilpatha Rd, Sri Lanka	1.991373	
Kalutara	Aluthgama	Gnanessara Vidyalaya	False	False	KLTRLTHGMGNNSSRVDYLY		Kalutara	LK-13	6.577316	80.127363	Aluthgama	PS-1302100	6.432842	79.998032	6.443399	80.010279	Fatha Hajiar Mawatha, Dharga Town, Sri Lanka	1.791986	
Kalutara	Aluthgama	Al Habbra Vidyalaya	False	False	KLTRLTHGMLHBBRVDYLY		Kalutara	LK-13	6.577316	80.127363	Aluthgama	PS-1302100	6.432842	79.998032	6.443399	80.010279	Fatha Hajiar Mawatha, Dharga Town, Sri Lanka	1.791986	
Kalutara	Thebuwana	Nebada Hospital	False	False	KLTRTHBWNNBDHSPTL		Kalutara	LK-13	6.577316	80.127363	Thebuwana	PS-1302105	6.654997	80.058183	6.563228	79.985261	Kalutara-Matugama Rd, Sri Lanka	13.004249	
Kalutara	Thebuwana	Hayleys Factory	False	False	KLTRTHBWNHYLYSFCTRY		Kalutara	LK-13	6.577316	80.127363	Thebuwana	PS-1302105	6.654997	80.058183	6.624812	80.078673	Hayleys Fabric Plc, Narthupana Estate, Neboda 12030, Sri Lanka	4.049379	
Kalutara	Kalutara South	NIHS	False	False	KLTRKLTRSTHNHS		Kalutara	LK-13	6.577316	80.127363	Kalutara South	PS-130296	6.58486	79.961043	6.55864	79.977416	HX5G+FX3, Katukurunda, Sri Lanka	3.432035	
Kalutara	Beruwala	D.S. Senanayake Vidyalaya	False	False	KLTRBRWLDSSNNYKVDYLY		Kalutara	LK-13	6.577316	80.127363	Beruwala	PS-1302102	6.480329	79.983498	6.468742	79.986711	kiranthidiya Road, Massala, Beruwala., Beruwala, Sri Lanka	1.336845	
Kurunegala	Rideegama	MOH Office – Rideegama	False	False	KRNGLRDGMMHFFCRDGM		Kurunegala	LK-61	7.66477	80.23677	Rideegama	PS-610110	7.589247	80.61027	7.547681	80.491796	GFXR+3PF, Ridigama, Sri Lanka	13.857079	
Kurunegala	Alawwa	Alpine Garment Factory	False	False	KRNGLLWWLPNGRMNTFCTRY		Kurunegala	LK-61	7.66477	80.23677	Alawwa	PS-610103	7.295909	80.24277	7.308241	80.203272	6th Mile Post, Alawwa 60280, Sri Lanka	4.568511	
Kurunegala	Kobeigane	Thelahera Vidyalaya	False	False	KRNGLKBGNTHLHRVDYLY		Kurunegala	LK-61	7.66477	80.23677	Kobeigane	PS-610321	7.656934	80.126283	7.700444	80.115879	hengamuwa ,kobeigane, Sri Lanka	4.973641	
Kurunegala	Polgahawela	MOH Office – Polgahawela	False	False	KRNGLPLGHWLMHFFCPLGHWL		Kurunegala	LK-61	7.66477	80.23677	Polgahawela	PS-610102	7.333281	80.300363	7.330938	80.29484	06 A6, Polgahawela, Sri Lanka	0.662694	
Puttalam	Wennappuwa	MOH Office - Wennappuwa	False	False	PTTLMWNNPPWMHFFCWNNPPW		Puttalam	LK-62	7.973531	79.913833	Wennappuwa	PS-620245	7.339623	79.843017	7.318737	79.845723	Unnamed Road, Nainamadama, Sri Lanka	2.342249	
Puttalam	Marawila	Mahawewa Samudradevi Reception Hall	False	False	PTTLMMRWLMHWWSMDRDVRCPTNHLL		Puttalam	LK-62	7.973531	79.913833	Marawila	PS-620243	7.415075	79.839776	7.496355	79.88911	FVWQ+GJX, Madampe, Sri Lanka	10.551779	
Puttalam	Puttalam	Base Hospital Puttalam	False	False	PTTLMPTTLMBSHSPTLPTTLM		Puttalam	LK-62	7.973531	79.913833	Puttalam	PS-620130	8.029904	79.834396	8.027902	79.83874	Katugastota-Kurunegala-Puttalam Hwy, Puttalam, Sri Lanka	0.527729	
Puttalam	Mundalama	MOH Office – Mundalama	False	False	PTTLMMNDLMMHFFCMNDLM		Puttalam	LK-62	7.973531	79.913833	Mundal	PS-620138	7.808859	79.825729	7.78892	79.82751	Puttalam - Colombo Rd, Sri Lanka	2.226479	
Puttalam	Dankotuwa	MOH Office – Dankotuwa	False	False	PTTLMDNKTWMHFFCDNKTW		Puttalam	LK-62	7.973531	79.913833	Dankotuwa	PS-620246	7.300337	79.882595	7.29759	79.888187	146 Negombo-Kurunegala Rd, Dankotuwa, Sri Lanka	0.688474	
Puttalam	Kandy	Pushpadana Girls' College	False	False	PTTLMKNDYPSHPDNGRLSCLLG		Puttalam	LK-62	7.973531	79.913833	Kandy	PS-210101	7.292948	80.642368	7.293989	80.633	16 Kandy Rd, Kandy 20000, Sri Lanka	1.040036	
Puttalam	Kothmale	MOH Office – Kothmale	False	False	PTTLMKTHMLMHFFCKTHML		Puttalam	LK-62	7.973531	79.913833	Kotmale	PS-230134	7.063602	80.685054	7.062013	80.685533	3M6P+R63, Kothmale New Town, Sri Lanka	0.184484	
Puttalam	Matale	Municipal Council Boran Hall - Matale	False	False	PTTLMMTLMNCPLCNCLBRNHLLMTL		Puttalam	LK-62	7.973531	79.913833	Matale	PS-220121	7.462789	80.626211	7.466856	80.618425	FJ89+P9V, Matale, Sri Lanka	0.970566	
Badulla	Hali Ela	MOH Office - Hali Ela	False	False	BDLLHLLMHFFCHLL		Badulla	LK-81	7.074529	81.04486	Haliela	PS-810108	6.958216	81.034447	6.962439	81.036061	Peradeniya-Badulla-Chenkaladi Hwy, Hali-ela, Sri Lanka	0.50239	
Badulla	Lunugala	MOH Office – Lunugala	False	False	BDLLLNGLMHFFCLNGL		Badulla	LK-81	7.074529	81.04486	Lunugala	PS-810104	7.047691	81.20339	7.030729	81.198808	Peradeniya-Badulla-Chenkaladi Hwy, Lunugala, Sri Lanka	1.953308	
Badulla	Badulla	Kandegedara Hospital	False	False	BDLLBDLLKNDGDRHSPTL		Badulla	LK-81	7.074529	81.04486	Badulla	PS-810101	6.991337	81.055246	7.016761	81.016368	Unnamed Rd,, Sri Lanka	5.139978	
Badulla	Badulla	MOH Office – Soranatota	False	False	BDLLBDLLMHFFCSRNTT		Badulla	LK-81	7.074529	81.04486	Badulla	PS-810101	6.991337	81.055246	7.013876	81.05556	Rideepana, Mahiyangana Rd, Sri Lanka	2.507249	
Badulla	Bandarawela	MOH Office – Bandarawela	False	False	BDLLBNDRWLMHFFCBNDRWL		Badulla	LK-81	7.074529	81.04486	Bandarawela	PS-810210	6.831526	80.986784	6.841272	80.98482	Hospital Junction Helamuduna Bus Stop, Etampitiya Rd, Bandarawela, Sri Lanka	1.105533	
Badulla	Ella	MOH Office – Ella	False	False	BDLLLLMHFFCLL		Badulla	LK-81	7.074529	81.04486	Ella	PS-810211	6.876609	81.048276	6.779645	80.964114	QXH7+WC4, Badulla, Sri Lanka	14.237912	
Badulla	Uva Paranagama	District Hospital - Uva Paranagama	False	False	BDLLVPRNGMDSTRCTHSPTLVPRNGM		Badulla	LK-81	7.074529	81.04486	Uvaparanagama	PS-810213	6.958341	80.930364	6.938076	80.890525	Rendapola-Galahagama-Ambagasdowa Rd, Himbiliyagahamadiththa, Sri Lanka	4.942648	
Monaragala	Siyambalanduwa	Kivulayaya Primary School	False	False	MNRGLSYMBLNDWKVLYYPRMRYSCHL		Moneragala	LK-82	6.787517	81.303744	Siyambalanduwa	PS-820122	6.906851	81.547598	6.909655	81.561921	WH56+VQ7, Siyambalanduwa, Sri Lanka	1.612038	
Monaragala	Siyambalanduwa	Dombagahawela Maha Vidyalaya	False	False	MNRGLSYMBLNDWDMBGHWLMHVDYLY		Moneragala	LK-82	6.787517	81.303744	Siyambalanduwa	PS-820122	6.906851	81.547598	6.844255	81.458052	RFV5+P63, Monaragala, Sri Lanka	12.093824	
Monaragala	Medagama	MOH Office – Medagama	False	False	MNRGLMDGMMHFFCMDGM		Moneragala	LK-82	6.787517	81.303744	Medagama	PS-820126	7.033608	81.276708	7.038566	81.274255	Hospital Rd, Sri Lanka	0.614374	
Monaragala	Dambagalla	MOH Office – Madulla	False	False	MNRGLDMBGLLMHFFCMDLL		Moneragala	LK-82	6.787517	81.303744	Dambagalla	PS-820123	6.978806	81.372037	6.980456	81.375777	X9JG+58J, Monaragala, Sri Lanka	0.451866	
Galle	Karandeniya	MOH Office – Karandeniya	False	False	GLLKRNDNYMHFFCKRNDNY		Galle	LK-31	6.222805	80.251977	Karandeniya	PS-310238	6.271732	80.08479	6.268939	80.099876	Elpitiya Rd, Karandeniya, Sri Lanka	1.696659	
Matara	Thihagoda	MOH Office – Thihagoda	False	False	MTRTHHGDMHFFCTHHGD		Matara	LK-32	6.142734	80.539994	Thihagoda	PS-320104	6.01331	80.567932	5.996687	80.556352	Matara - Hakmana Road, Thihagoda, Sri Lanka	2.249355	
Matara	Hakmana	MOH Office – Hakmana	False	False	MTRHKMNMHFFCHKMN		Matara	LK-32	6.142734	80.539994	Hakmana	PS-320106	6.084824	80.643227	6.081379	80.641425	3JJR+HH3, Hakmana, Sri Lanka	0.431921	
Matara	Dikwella	MOH Office – Dikwella	False	False	MTRDKWLLMHFFCDKWLL		Matara	LK-32	6.142734	80.539994	Dikwella	PS-320103	5.964296	80.693198	5.965922	80.689228	XM8Q+9M9, Batigama, Sri Lanka	0.474973	
Matara	Kekanadura	MOH Office – Kekanadura	False	False	MTRKKNDRMHFFCKKNDR		Matara	LK-32	6.142734	80.539994									#PoliceLocationUnknown
Hambantota	Ambalantota	MOH Office – Ambalantota	False	False	HMBNTTMBLNTTMHFFCMBLNTT		Hambantota	LK-33	6.259779	81.098619	Ambalantota	PS-330157	6.12516	81.023981	6.122767	81.005973	Walawa watta Road, Malpeththawa, Ambalantota, Sri Lanka	2.009195	
Hambantota	Hambantota	MOH Office – Hambantota	False	False	HMBNTTHMBNTTMHFFCHMBNTT		Hambantota	LK-33	6.259779	81.098619	Hambantota	PS-330156	6.125872	81.12521	6.171162	81.127	54CG+FQ9, Hambantota, Sri Lanka	5.041487	
Hambantota	Sooriyawewa	MOH Office – Sooriyawewa	False	False	HMBNTTSRYWWMHFFCSRYWW		Hambantota	LK-33	6.259779	81.098619	Sooriyawewa	PS-330155	6.306022	81.003873	6.304862	81.004768	8233+WWR, Sooriyawewa, Sri Lanka	0.1626	
Hambantota	Walasmulla	MOH Office – Walasmulla	False	False	HMBNTTWLSMLLMHFFCWLSMLL		Hambantota	LK-33	6.259779	81.098619	Walasmulla	PS-330151	6.154102	80.698256	6.150889	80.693718	Walasmulla, Sri Lanka	0.616099	
Hambantota	Weeraketiya	Mahanama National College	False	False	HMBNTTWRKTYMHNMNTNLCLLG		Hambantota	LK-33	6.259779	81.098619	Weeraketiya	PS-330149	6.153899	80.76737	6.135024	80.77105	Tangalle - Weeraketiya Rd, Weeraketiya, Sri Lanka	2.138545	
Hambantota	Lunugamwehera	MOH Office - Lunugamwehera	False	False	HMBNTTLNGMWHRMHFFCLNGMWHR		Hambantota	LK-33	6.259779	81.098619	Lunugamwehera	PS-330160	6.341544	81.202699	6.346093	81.196977	85WW+CQQ, Mattala, Sri Lanka	0.810032	
Hambantota	Agunukolapelessa	MOH Office - Agunukolapelessa	False	False	HMBNTTGNKLPLSSMHFFCGNKLPLSS		Hambantota	LK-33	6.259779	81.098619	Angunakolapelessa	PS-330150	6.321993	80.844883	6.164691	80.898963	Unnamed Road, Agunukolapelessa, Sri Lanka	18.490258	
Hambantota	Beliatta	MOH Office – Beliatta	False	False	HMBNTTBLTTMHFFCBLTT		Hambantota	LK-33	6.259779	81.098619	Beliatta	PS-330152	6.046936	80.735408	6.051828	80.741735	3P2R+PMQ, Hambantota, Sri Lanka	0.886482	
Hambantota	Katuwana	MOH Office – Katuwana	False	False	HMBNTTKTWNMHFFCKTWN		Hambantota	LK-33	6.259779	81.098619	Katuwana	PS-330153	6.269722	80.690963	6.26627	80.693035	7M8V+G63, Katuwana, Sri Lanka	0.447115	
Hambantota	Tangalla	MOH Office – Tangalla	False	False	HMBNTTTNGLLMHFFCTNGLL		Hambantota	LK-33	6.259779	81.098619	Tangalle	PS-330147	6.023954	80.797255	6.02363	80.795742	2QFW+F75, Tangalle, Sri Lanka	0.171198	
Rathnapura	Weligepola	Talagaskanada Community Hall	False	False	RTHNPRWLGPLTLGSKNDCMMNTYHLL		Ratnapura	LK-91	6.586826	80.566158	Weligepola	PS-910106	6.596426	80.723695	6.583202	80.711558	Galgoda - Weligepola Rd, Weligepola, Sri Lanka	1.990489	
Rathnapura	Weligepola	Gangodagama Community Hall	False	False	RTHNPRWLGPLGNGDGMCMMNTYHLL		Ratnapura	LK-91	6.586826	80.566158	Weligepola	PS-910106	6.596426	80.723695	6.702988	80.394381	P93V+5QR, Ratnapura, Sri Lanka	38.265151	#CenterFarFromPolice
Rathnapura	Weligepola	Medaganoya Vidyalaya	False	False	RTHNPRWLGPLMDGNYVDYLY		Ratnapura	LK-91	6.586826	80.566158	Weligepola	PS-910106	6.596426	80.723695	6.571806	80.704808	pollamura, Weligepola, Sri Lanka	3.44305	
Rathnapura	Weligepola	Pollamura Vidyalaya	False	False	RTHNPRWLGPLPLLMRVDYLY		Ratnapura	LK-91	6.586826	80.566158	Weligepola	PS-910106	6.596426	80.723695	6.571806	80.704808	pollamura, Weligepola, Sri Lanka	3.44305	
Rathnapura	Weligepola	Weligepola Viharaya	False	False	RTHNPRWLGPLWLGPLVHRY		Ratnapura	LK-91	6.586826	80.566158	Weligepola	PS-910106	6.596426	80.723695	6.580929	80.730893	pollamura, Sri Lanka	1.898371	
Rathnapura	Weligepola	Lendara Viharaya	False	False	RTHNPRWLGPLLNDRVHRY		Ratnapura	LK-91	6.586826	80.566158	Weligepola	PS-910106	6.596426	80.723695	6.579978	80.755399	HQH4+X5R, Mahawalathenna, Sri Lanka	3.952201	
Rathnapura	Weligepola	Hadagiriya Vidyalaya	False	False	RTHNPRWLGPLHDGRYVDYLY		Ratnapura	LK-91	6.586826	80.566158	Weligepola	PS-910106	6.596426	80.723695	6.571806	80.704808	pollamura, Weligepola, Sri Lanka	3.44305	
Rathnapura	Pinnawala	MOH Office – Imbulpe	False	False	RTHNPRPNNWLMHFFCMBLP		Ratnapura	LK-91	6.586826	80.566158	Pinnawala	PS-910115	7.299943	80.386604	6.673445	80.719412	Colombo - Ratnapura - Wellawaya - Batticaloa Rd, Sri Lanka	78.778756	#CenterFarFromPolice
Rathnapura	Opanayaka	Malmeekanda Bodhiya	False	False	RTHNPRPNYKMLMKNDBDHY		Ratnapura	LK-91	6.586826	80.566158	Opanayaka	PS-910104	6.608519	80.619285	6.62376	80.687437	Welange, Sri Lanka	7.718521	
Rathnapura	Opanayaka	Metihakka Vidyalaya	False	False	RTHNPRPNYKMTHKKVDYLY		Ratnapura	LK-91	6.586826	80.566158	Opanayaka	PS-910104	6.608519	80.619285	6.618238	80.62379	Galhira Rd, Opanayake,, Sri Lanka	1.190132	
Rathnapura	Opanayaka	Dandeniya Vidyalaya	False	False	RTHNPRPNYKDNDNYVDYLY		Ratnapura	LK-91	6.586826	80.566158	Opanayaka	PS-910104	6.608519	80.619285	6.599179	80.615271	HJX8+M4C, Ratnapura, Sri Lanka	1.129597	
Rathnapura	Opanayaka	Hunuwala Dharamaraja Vidyalaya	False	False	RTHNPRPNYKHNWLDHRMRJVDYLY		Ratnapura	LK-91	6.586826	80.566158	Opanayaka	PS-910104	6.608519	80.619285	6.611693	80.591317	JH6R+MGG, රත්නපුර, Sri Lanka	3.110298	
Rathnapura	Opanayaka	Hunuwala Tamil College	False	False	RTHNPRPNYKHNWLTMLCLLG		Ratnapura	LK-91	6.586826	80.566158	Opanayaka	PS-910104	6.608519	80.619285	6.611693	80.591317	JH6R+MGG, රත්නපුර, Sri Lanka	3.110298	
Kegalle	Yatiyantota	Dunukedeniya Primary School	False	False	KGLLYTYNTTDNKDNYPRMRYSCHL		Kegalle	LK-92	7.104216	80.342866	Yatiyantota	PS-920230	7.027207	80.290753	7.155768	80.418566	5C49+8C4, කෑගල්ල, Sri Lanka	20.087723	#CenterFarFromPolice
Kegalle	Yatiyantota	Malwatta Viharaya	False	False	KGLLYTYNTTMLWTTVHRY		Kegalle	LK-92	7.104216	80.342866	Yatiyantota	PS-920230	7.027207	80.290753	7.028882	80.295542	Yatiyanthota, Sri Lanka	0.560545	
Kegalle	Yatiyantota	Kalukohuthenna Viharaya	False	False	KGLLYTYNTTKLKHTHNNVHRY		Kegalle	LK-92	7.104216	80.342866	Yatiyantota	PS-920230	7.027207	80.290753	7.029583	80.294551	Yatiyanthota - Parussella - Punugala - Meenagala Rd, Yatiyanthota, Sri Lanka	0.495619	
Kegalle	Yatiyantota	Kalyani Maha Vidyalaya - Kithulgala	False	False	KGLLYTYNTTKLYNMHVDYLYKTHLGL		Kegalle	LK-92	7.104216	80.342866	Yatiyantota	PS-920230	7.027207	80.290753	7.004593	80.409162	Kithulgala Temple, A7, Kitulgala, Sri Lanka	13.311802	
Kegalle	Bulathkohupitiya	Lewala Primary School	False	False	KGLLBLTHKHPTYLWLPRMRYSCHL		Kegalle	LK-92	7.104216	80.342866	Bulathkohupitiya	PS-920232	7.106684	80.3347	7.147714	80.366009	Kegalle-Bulathkohupitiya-Karawanella Hwy, Undugoda, Sri Lanka	5.72442	
Kegalle	Bulathkohupitiya	Ginigoda Viharaya	False	False	KGLLBLTHKHPTYGNGDVHRY		Kegalle	LK-92	7.104216	80.342866	Bulathkohupitiya	PS-920232	7.106684	80.3347	7.123747	80.334921	48FM+FXV, Alawathura, Sri Lanka	1.898073	
Kegalle	Bulathkohupitiya	Uduwa Primary School	False	False	KGLLBLTHKHPTYDWPRMRYSCHL		Kegalle	LK-92	7.104216	80.342866	Bulathkohupitiya	PS-920232	7.106684	80.3347	7.140303	80.393152	Udabogala Rd, Ganthuna, Sri Lanka	7.456879	
Kegalle	Bulathkohupitiya	Puspane Viharaya	False	False	KGLLBLTHKHPTYPSPNVHRY		Kegalle	LK-92	7.104216	80.342866	Bulathkohupitiya	PS-920232	7.106684	80.3347	7.169325	80.364363	Hungampola-Moranthota Kegalle, Sri Lanka	7.69836	
Kegalle	Bulathkohupitiya	Rangala Primary School	False	False	KGLLBLTHKHPTYRNGLPRMRYSCHL		Kegalle	LK-92	7.104216	80.342866	Bulathkohupitiya	PS-920232	7.106684	80.3347	7.114797	80.333013	487M+W66, කෑගල්ල, Sri Lanka	0.921418	
Kegalle	Deraniyagala	Anhettigama Vidyalaya	False	False	KGLLDRNYGLNHTTGMVDYLY		Kegalle	LK-92	7.104216	80.342866	Deraniyagala	PS-920228	6.935815	80.334998	6.924254	80.377033	Noori Rd, Sri Lanka	4.816232	
Kegalle	Deraniyagala	Nilwala Primary School	False	False	KGLLDRNYGLNLWLPRMRYSCHL		Kegalle	LK-92	7.104216	80.342866	Deraniyagala	PS-920228	6.935815	80.334998	6.964268	80.395735	X97W+P75, Nilwala, Sri Lanka	7.415404	
Kegalle	Deraniyagala	Basnagala Vidyalaya	False	False	KGLLDRNYGLBSNGLVDYLY		Kegalle	LK-92	7.104216	80.342866	Deraniyagala	PS-920228	6.935815	80.334998	6.934047	80.384777	Noori Rd, Deraniyagala, Sri Lanka	5.499918	
Kegalle	Ruwanwella	Kudagama Primary School	False	False	KGLLRWNWLLKDGMPRMRYSCHL		Kegalle	LK-92	7.104216	80.342866	Ruwanwella	PS-920229	7.046189	80.254174	7.088921	80.251446	37Q2+HH8, Galamuna, Sri Lanka	4.762603	
Kegalle	Ruwanwella	Puranpoththa Primary School	False	False	KGLLRWNWLLPRNPTHTHPRMRYSCHL		Kegalle	LK-92	7.104216	80.342866	Ruwanwella	PS-920229	7.046189	80.254174	7.045873	80.253706	Ruwanwella, Sri Lanka	0.062423	
Kegalle	Ruwanwella	Gonagala Maha Vidyalaya	False	False	KGLLRWNWLLGNGLMHVDYLY		Kegalle	LK-92	7.104216	80.342866	Ruwanwella	PS-920229	7.046189	80.254174	7.012101	80.213036	Gonagala, Ruwanwella, Sri Lanka	5.916113	
Kegalle	Ruwanwella	Malitigama Viharaya	False	False	KGLLRWNWLLMLTGMVHRY		Kegalle	LK-92	7.104216	80.342866	Ruwanwella	PS-920229	7.046189	80.254174	7.046785	80.249178	Ehalamorawaththa Ruwanwella, Veyangoda Road, Ruwanwella, Sri Lanka	0.555477	
Kegalle	Ruwanwella	Amithirigala North Viharaya	False	False	KGLLRWNWLLMTHRGLNRTHVHRY		Kegalle	LK-92	7.104216	80.342866	Ruwanwella	PS-920229	7.046189	80.254174	7.029885	80.184717	Amithirigala, Sri Lanka	7.87902	
Anuradhapura	Anuradhapura	MOH Office - Nuwaragam Palatha Central	False	False	NRDHPRNRDHPRMHFFCNWRGMPLTHCNTRL		Anuradhapura	LK-71	8.39199	80.512958	Anuradapura	PS-710101	8.329752	80.407265	8.341215	80.374096	Unnamed Road, Anuradhapura, Sri Lanka	3.866675	
Anuradhapura	Anuradhapura	MOH Office - Nuwaragam Palatha East	False	False	NRDHPRNRDHPRMHFFCNWRGMPLTHST		Anuradhapura	LK-71	8.39199	80.512958	Anuradapura	PS-710101	8.329752	80.407265	8.341215	80.374096	Unnamed Road, Anuradhapura, Sri Lanka	3.866675	
Anuradhapura	Anuradhapura	Walisinghe Harischandra Ground	False	False	NRDHPRNRDHPRWLSNGHHRSCHNDRGRND		Anuradhapura	LK-71	8.39199	80.512958	Anuradapura	PS-710101	8.329752	80.407265	8.337404	80.405697	8CP4+X78, Anuradhapura, Sri Lanka	0.868448	
Anuradhapura	Horowpothana	Pradeshiya Sabha - Kahatagasdigiliya	False	False	NRDHPRHRWPTHNPRDSHYSBHKHTGSDGLY		Anuradhapura	LK-71	8.39199	80.512958	Horowpathana	PS-710117	8.553878	80.830734	8.427312	80.691227	Puttalam - Anuradhapura - Trincomalee Hwy, Kahatagasdigiliya, Sri Lanka	20.826098	#CenterFarFromPolice
Anuradhapura	Pulasthipura	Pulasthipura Rathanasara Primary School	False	False	NRDHPRPLSTHPRPLSTHPRRTHNSRPRMRYSCHL		Anuradhapura	LK-71	8.39199	80.512958	Pulasthipura	PS-720126	8.028343	81.032376	8.33183	80.402902	Anuradhapura, Sri Lanka	77.087892	#CenterFarFromPolice
Jaffna	Tellippalai	MOH Office – Tellippalai	False	False	JFFNTLLPPLMHFFCTLLPPL		Jaffna	LK-41	9.691792	80.098594	Thelippalay	PS-410104	6.933075	79.857181	9.785978	80.038383	Q2PQ+99R, Tellippalai, Sri Lanka	317.953715	#CenterFarFromPolice
Jaffna	Point Pedro	MOH Office - Point Pedro	False	False	JFFNPNTPDRMHFFCPNTPDR		Jaffna	LK-41	9.691792	80.098594	Point Pedro	PS-410106	9.827018	80.233187	9.805763	80.222952	R64F+854, Point Pedro, Sri Lanka	2.616722	
Jaffna	Nelliyady	Karaveddi Mathoni Reading Hall	False	False	JFFNNLLYDYKRVDDMTHNRDNGHLL		Jaffna	LK-41	9.691792	80.098594	Nelliadi	PS-410108	9.778397	80.113303	9.808339	80.20006	Nelliady North, Karaveddi, Sri Lanka	10.075687	
Jaffna	Nelliyady	Karaveddi Vadiri Reading Hall	False	False	JFFNNLLYDYKRVDDVDRRDNGHLL		Jaffna	LK-41	9.691792	80.098594	Nelliadi	PS-410108	9.778397	80.113303	9.808339	80.20006	Nelliady North, Karaveddi, Sri Lanka	10.075687	
Jaffna	Wadukkotte	MOH Office – Chankanai	False	False	JFFNWDKKTTMHFFCCHNKN		Jaffna	LK-41	9.691792	80.098594	Vaddukoddai		9.728886	79.947771	9.753617	79.976004	QX3G+CCR, Sri Lanka	4.140836	
Jaffna	Kayts	MOH Office – Karainagar	False	False	JFFNKYTSMHFFCKRNGR		Jaffna	LK-41	9.691792	80.098594	Kayts	PS-410212	9.728654	79.94775	9.725097	79.99772	Sri Lanka, Manipay, Sri Lanka	5.492521	
Jaffna	Kayts	MOH Office – Valanai	False	False	JFFNKYTSMHFFCVLN		Jaffna	LK-41	9.691792	80.098594	Kayts	PS-410212	9.728654	79.94775	9.636317	79.903777	Chatty vangkalvady road, Velanai, Sri Lanka	11.346015	
Jaffna	Kayts	MOH Office – Kayts	False	False	JFFNKYTSMHFFCKYTS		Jaffna	LK-41	9.691792	80.098594	Kayts	PS-410212	9.728654	79.94775	9.697759	79.866366	Sri Lanka, Kayts, Sri Lanka	9.561445	
Jaffna	Chavakachcheri	Town Hall - Chavakachcheri	False	False	JFFNCHVKCHCHRTWNHLLCHVKCHCHR		Jaffna	LK-41	9.691792	80.098594	Chawakachcheri	PS-410215	9.666459	80.132384	9.659136	80.160946	M556+M94, Chavakachcheri, Sri Lanka	3.236063	
Jaffna	Atchchuveli	Walalai Community Hall	False	False	JFFNTCHCHVLWLLCMMNTYHLL		Jaffna	LK-41	9.691792	80.098594	Achchuweli	PS-410103	6.934132	79.856305	9.664467	80.010483	AB16, Jaffna, Sri Lanka	304.168348	#CenterFarFromPolice
Kilinochchi	Kilinochchi	MOH Office - Karachchi	False	False	KLNCHCHKLNCHCHMHFFCKRCHCH		Kilinochchi	LK-45	9.415742	80.30358	Kilinochchi	PS-450131	9.392265	80.407846	9.396965	80.407782	Kandy - Jaffna Hwy, Kilinochchi, Sri Lanka	0.522827	
Kilinochchi	Kilinochchi	MOH Office – Palai	False	False	KLNCHCHKLNCHCHMHFFCPL		Kilinochchi	LK-45	9.415742	80.30358	Kilinochchi	PS-450131	9.392265	80.407846	7.330938	80.29484	06 A6, Polgahawela, Sri Lanka	229.618032	#CenterFarFromPolice
Kilinochchi	Dharmapuram	MOH Office – Kandawalai	False	False	KLNCHCHDHRMPRMMHFFCKNDWL		Kilinochchi	LK-45	9.415742	80.30358	Dharmapuram	PS-450136	6.873107	79.86167	9.417165	80.504182	CG83+VM7, Velikkandal, Sri Lanka	291.682933	#CenterFarFromPolice
Kilinochchi	Pooneryn	MOH Office – Pooneryn	False	False	KLNCHCHPNRYNMHFFCPNRYN		Kilinochchi	LK-45	9.415742	80.30358	Pooneryn		9.505717	80.21101	9.507968	80.208317	G655+58P, Pooneryn, Sri Lanka	0.387256	
Kilinochchi	Mulankavil	Mulankavil Hospital	False	False	KLNCHCHMLNKVLMLNKVLHSPTL		Kilinochchi	LK-45	9.415742	80.30358	Mulankavil	PS-450135	9.254463	80.141528	9.243423	80.143894	Base Hospital Mulankavil, A32 Road, Mulankavil, Kumulamunai, Sri Lanka	1.255148	
Mullaitivu	Mullaitivu	Kallapatu Maha Vidyalaya	False	False	MLLTVMLLTVKLLPTMHVDYLY		Mullaitivu	LK-44	9.167643	80.549091	Mullativu	PS-440148	9.212825	80.760159	9.265783	80.809789	7R85+8W7, Mullaitivu, Sri Lanka	8.024128	
Mullaitivu	Puthukudiyiruppu	MOH Office - Puthukudiyiruppu	False	False	MLLTVPTHKDYRPPMHFFCPTHKDYRPP		Mullaitivu	LK-44	9.167643	80.549091	Pudukuduiruppu	PS-440149	7.00152	79.95003	9.320965	80.683013	Parantan-Mullaitivu Hwy, Velikkandal, Sri Lanka	270.317914	#CenterFarFromPolice
Vavuniya	Vavuniya	Kaneshapuram Maha Vidyalaya	False	False	VVNYVVNYKNSHPRMMHVDYLY		Vavuniya	LK-43	8.852071	80.467404	Vavuniya	PS-430119	8.754431	80.498604	8.750324	80.497043	A9, Vavuniya 43000, Sri Lanka	0.48799	
Vavuniya	Vavuniya	Shiwaprakash Girls' College	False	False	VVNYVVNYSHWPRKSHGRLSCLLG		Vavuniya	LK-43	8.852071	80.467404	Vavuniya	PS-430119	8.754431	80.498604	8.751173	80.503888	QG23+FH6, Vavuniya, Sri Lanka	0.684662	
Vavuniya	Vavuniya	Marawankulam Maha Vidyalaya	False	False	VVNYVVNYMRWNKLMMHVDYLY		Vavuniya	LK-43	8.852071	80.467404	Vavuniya	PS-430119	8.754431	80.498604	8.750324	80.497043	A9, Vavuniya 43000, Sri Lanka	0.48799	
Vavuniya	Vavuniya	Muruganur Vidyalaya	False	False	VVNYVVNYMRGNRVDYLY		Vavuniya	LK-43	8.852071	80.467404	Vavuniya	PS-430119	8.754431	80.498604	8.750324	80.497043	A9, Vavuniya 43000, Sri Lanka	0.48799	
Vavuniya	Nedunkeni	Public Health Service Offices - Nedunkeni	False	False	VVNYNDNKNPBLCHLTHSRVCFFCSNDNKN		Vavuniya	LK-43	8.852071	80.467404	Nedumkenrni	PS-430121	7.128721	79.877371	9.060607	80.66112	Old Post Office Road, Nedunkeni, Sri Lanka	231.566681	#CenterFarFromPolice
Vavuniya	Sidambarapuram	Sidambarapuram hospital	False	False	VVNYSDMBRPRMSDMBRPRMHSPTL		Vavuniya	LK-43	8.852071	80.467404									#PoliceLocationUnknown
Vavuniya	Puvarissankulam	Puvarissankulam Hospital	False	False	VVNYPVRSSNKLMPVRSSNKLMHSPTL		Vavuniya	LK-43	8.852071	80.467404									#PoliceLocationUnknown
Vavuniya	Omanthai	Omanthai Hospital	False	False	VVNYMNTHMNTHHSPTL		Vavuniya	LK-43	8.852071	80.467404	Omantha	PS-430123	8.84719	80.497841	8.864234	80.502119	VG72+MRX, Omanthai, Sri Lanka	1.953234	
Vavuniya	Omanthai	Nauvi Hospital	False	False	VVNYMNTHNVHSPTL		Vavuniya	LK-43	8.852071	80.467404	Omantha	PS-430123	8.84719	80.497841	8.864234	80.502119	VG72+MRX, Omanthai, Sri Lanka	1.953234	
Trincomalee	Muttur	MOH Office – Muttur	False	False	TRNCMLMTTRMHFFCMTTR		Trincomalee	LK-53	8.551241	81.092014	Mutur	PS-530138	8.461133	81.259371	8.453916	81.264494	1 Old Batticaloa Rd, Mutur, Sri Lanka	0.980859	
Trincomalee	Kinniya	MOH Office - Kurungnakeni	False	False	TRNCMLKNNYMHFFCKRNGNKN		Trincomalee	LK-53	8.551241	81.092014	Kinnia	PS-530140	6.907289	79.863819	7.484932	80.353119	F9M3+X6H, Kurunegala 60000, Sri Lanka	83.927094	#CenterFarFromPolice
Trincomalee	Kinniya	MOH Office – Kinniya	False	False	TRNCMLKNNYMHFFCKNNY		Trincomalee	LK-53	8.551241	81.092014	Kinnia	PS-530140	6.907289	79.863819	8.498696	81.179644	F5XH+FVC, Kinniya 31100, Sri Lanka	228.840304	#CenterFarFromPolice
Trincomalee	Sripura	MOH Office – Sripura	False	False	TRNCMLSRPRMHFFCSRPR		Trincomalee	LK-53	8.551241	81.092014	Sripura	PS-530136	8.929617	80.81428	8.926697	80.814799	Padavi Sripura, Padaviya - Sripura Road, Welioya, Sri Lanka	0.329869	
Trincomalee	Kuchchaveli	MOH Office – Kuchchaveli	False	False	TRNCMLKCHCHVLMHFFCKCHCHVL		Trincomalee	LK-53	8.551241	81.092014	Kuchchaweli	PS-530133	8.81895	81.100438	8.740082	81.161616	P5R6+2JQ, Kumpurupiddi, Sri Lanka	11.053646	
Trincomalee	Kuchchaveli	Divisional Hospital - Kuchchaveli	False	False	TRNCMLKCHCHVLDVSNLHSPTLKCHCHVL		Trincomalee	LK-53	8.551241	81.092014	Kuchchaweli	PS-530133	8.81895	81.100438	8.814795	81.102358	R472+WW9, Kuchchaveli, Sri Lanka	0.508064	
Trincomalee	Kuchchaveli	Divisional Hospital - Nilaveli	False	False	TRNCMLKCHCHVLDVSNLHSPTLNLVL		Trincomalee	LK-53	8.551241	81.092014	Kuchchaweli	PS-530133	8.81895	81.100438	8.681035	81.193632	M5JV+CF6, Nilaveli, Sri Lanka	18.44695	
Trincomalee	Pulmoddai	Base Hospital -Pulmoddai	False	False	TRNCMLPLMDDBSHSPTLPLMDD		Trincomalee	LK-53	8.551241	81.092014	Pulmudai	PS-530135	6.915266	79.87829	8.941204	80.983139	WXRM+F7J, Pulmoddai, Sri Lanka	256.112801	#CenterFarFromPolice
Trincomalee	Serunuwara	MOH Office – Serunuwara	False	False	TRNCMLSRNWRMHFFCSRNWR		Trincomalee	LK-53	8.551241	81.092014	Serunuwara	PS-530244	8.321863	81.299322	8.323143	81.299894	B10, Sri Lanka	0.155671	
Trincomalee	Harbour Police	MOH Office – Trincomalee	False	False	TRNCMLHRBRPLCMHFFCTRNCML		Trincomalee	LK-53	8.551241	81.092014	Trinco Harbour Police	PS-530131	8.56705	81.231407	8.598974	81.216963	MOH Office, Farm Rd, Trincomalee, Sri Lanka	3.890062	
Trincomalee	Uppuveli	MOH Office - Uppuveli	False	False	TRNCMLPPVLMHFFCPPVL		Trincomalee	LK-53	8.551241	81.092014	Uppuweli	PS-530134	8.593614	81.21743	8.607961	81.216512	Nilaveli Rd, Trincomalee, Sri Lanka	1.599005	
Trincomalee	Kantale	MOH Office - Kantale	False	False	TRNCMLKNTLMHFFCKNTL		Trincomalee	LK-53	8.551241	81.092014	Kantale	PS-530241	8.356129	81.007739	8.349617	81.009107	අග්‍රබෝධි මාවත, Kantale, Sri Lanka	0.739809	
Trincomalee	Ichchalampattu	MOH Office - Ichchalampattu	False	False	TRNCMLCHCHLMPTTMHFFCCHCHLMPTT	Eachchilampattu Hospital	Trincomalee	LK-53	8.551241	81.092014	Ichchalampattu		8.289549	81.359002	8.289644	81.358983	Highway, Ichchalampattu, Trincomalee, Sri Lanka	0.010772	
Trincomalee	Thambalagamuwa	MOH Office - Thambalagamuwa	False	False	TRNCMLTHMBLGMWMHFFCTHMBLGMW		Trincomalee	LK-53	8.551241	81.092014	Thambalagamuva	PS-530243	6.907289	79.863819	8.563603	81.239584	Hospital Ln, Trincomalee, Sri Lanka	238.604889	#CenterFarFromPolice
Batticaloa	Batticaloa	MOH Office – Batticaloa	False	False	BTTCLBTTCLMHFFCBTTCL		Batticaloa	LK-51	7.792772	81.486513	Batticaloa	PS-510101	7.717949	81.699294	7.708253	81.691368	Hospital Rd, Batticaloa, Sri Lanka	1.387934	
Batticaloa	Valachchenai	Valachchenai Base Hospital	False	False	BTTCLVLCHCHNVLCHCHNBSHSPTL		Batticaloa	LK-51	7.792772	81.486513	Valachchanai	PS-510107	7.908015	81.533004	7.911315	81.533046	Valaichchenai-Nasuvantivu-Navaladi Road, Sri Lanka	0.367088	
Batticaloa	Valachchenai	MOH Office – Nawaladi	False	False	BTTCLVLCHCHNMHFFCNWLD	Primary Medical Care Unit, Navalady	Batticaloa	LK-51	7.792772	81.486513	Valachchanai	PS-510107	7.908015	81.533004	7.735244	81.709126	PPP5+3MR, Kallady, Sri Lanka	27.312365	#CenterFarFromPolice
Batticaloa	Valachchenai	Semmanodai Al Hamra Vidyalaya	False	False	BTTCLVLCHCHNSMMNDLHMRVDYLY		Batticaloa	LK-51	7.792772	81.486513	Valachchanai	PS-510107	7.908015	81.533004	7.654088	81.739037	MP3Q+JJM, Sri Lanka	36.239484	#CenterFarFromPolice
Batticaloa	Valachchenai	MOH Office – Valachchenai	False	False	BTTCLVLCHCHNMHFFCVLCHCHN		Batticaloa	LK-51	7.792772	81.486513	Valachchanai	PS-510107	7.908015	81.533004	7.912281	81.532775	WG6M+W46, Batticaloa, Sri Lanka	0.475177	
Batticaloa	Vakarai	MOH Office - Vakarai	False	False	BTTCLVKRMHFFCVKR	Divisional Hospital Vakarai	Batticaloa	LK-51	7.792772	81.486513	Wakarai	PS-510109	6.934132	79.856305	8.134552	81.435328	Trincomalee Hwy, Vakarai, Sri Lanka	219.417822	#CenterFarFromPolice
Batticaloa	Vavunathivu	MOH Office – Vavunathivu	False	False	BTTCLVVNTHVMHFFCVVNTHV		Batticaloa	LK-51	7.792772	81.486513	Vavunathive	PS-510102	6.933075	79.857181	7.708253	81.691368	Hospital Rd, Batticaloa, Sri Lanka	219.95575	#CenterFarFromPolice
Batticaloa	Vellawali	MOH Office – Vellawali	False	False	BTTCLVLLWLMHFFCVLLWL		Batticaloa	LK-51	7.792772	81.486513	Vellavali	PS-510111	6.907289	79.863819	7.290886	80.643784	No. 20000, 163 Sangaraja Mawatha, Kandy 20000, Sri Lanka	96.083396	#CenterFarFromPolice
Batticaloa	Kaluwanchikudy	Periyakallar Maha Vidyalaya	False	False	BTTCLKLWNCHKDYPRYKLLRMHVDYLY		Batticaloa	LK-51	7.792772	81.486513	Kalawanchikudy	PS-510110	7.515908	81.787051	7.579554	81.784113	Kaluwanchikudy, Sri Lanka	7.086743	
Batticaloa	Kaluwanchikudy	Base Hospital - Kaluwanchikudy	False	False	BTTCLKLWNCHKDYBSHSPTLKLWNCHKDY		Batticaloa	LK-51	7.792772	81.486513	Kalawanchikudy	PS-510110	7.515908	81.787051	7.51724	81.785184	GQ8P+V3V, Kaluwanchikudy, Sri Lanka	0.25365	
Batticaloa	Kattankudy	MOH Office – Arayampathy	False	False	BTTCLKTTNKDYMHFFCRYMPTHY		Batticaloa	LK-51	7.792772	81.486513	Kaththankudi	PS-510103	7.715979	81.698757	7.672862	81.735019	MPFP+42R, Sri Lanka	6.243191	
Batticaloa	Eravur	Sandiveli Hospital	False	False	BTTCLRVRSNDVLHSPTL		Batticaloa	LK-51	7.792772	81.486513	Eravur	PS-510104	7.715979	81.698757	7.777289	81.602853	Trincomalee Hwy, Eravur, Sri Lanka	12.578998	
Batticaloa	Eravur	MOH Office - Eravur	False	False	BTTCLRVRMHFFCRVR		Batticaloa	LK-51	7.792772	81.486513	Eravur	PS-510104	7.715979	81.698757	7.783664	81.605626	QJM4+F76, Eravur, Sri Lanka	12.729342	
Batticaloa	Eravur	MOH Office - Chenkaladi	False	False	BTTCLRVRMHFFCCHNKLD		Batticaloa	LK-51	7.792772	81.486513	Eravur	PS-510104	7.715979	81.698757	7.783599	81.593367	Trincomalee Hwy, Chenkaladi 30350, Sri Lanka	13.837876	
Batticaloa	Eravur	Eravur Hospital	False	False	BTTCLRVRRVRHSPTL		Batticaloa	LK-51	7.792772	81.486513	Eravur	PS-510104	7.715979	81.698757	7.783168	81.605999	QJM4+799, Eravur 30300, Sri Lanka	12.663585	
Batticaloa	Eravur	Mawadiwembuwa Hospital	False	False	BTTCLRVRMWDWMBWHSPTL		Batticaloa	LK-51	7.792772	81.486513	Eravur	PS-510104	7.715979	81.698757	7.708032	81.690622	Hospital Ln, Batticaloa 30000, Sri Lanka	1.259116	
Ampara	Chavalakade	MOH Office - Navidanveli	False	False	MPRCHVLKDMHFFCNVDNVL		Ampara	LK-52	7.23699	81.550391	Chawalakade	PS-520125	7.413559	81.776822	7.420081	81.788401	B77, Sri Lanka	1.468805	
Ampara	Chavalakade	5th Colony Health Centre	False	False	MPRCHVLKDTHCLNYHLTHCNTR		Ampara	LK-52	7.23699	81.550391	Chawalakade	PS-520125	7.413559	81.776822	7.418836	81.781436	Chavalakade, Sri Lanka	0.776867	
Ampara	Karaitivu	MOH Office – Karaitivu	False	False	MPRKRTVMHFFCKRTV		Ampara	LK-52	7.23699	81.550391	Karaitivu		9.744059	79.870587	7.377712	81.838796	Colombo-Ratnapura-Wellawaya-Batticaloa Highway, Karativu 32250, Sri Lanka	340.788666	#CenterFarFromPolice
Ampara	Kalmunai	Ashraff Memorial Hospital	False	False	MPRKLMNSHRFFMMRLHSPTL		Ampara	LK-52	7.23699	81.550391	Kalmunai	PS-520123	7.414289	81.825006	7.403172	81.831146	A4, Ashraff Memorial Base Hospital, A4 A4, Kalmunai 32300, Sri Lanka	1.409859	
Ampara	Kalmunai	MOH Office - Kalmunai North	False	False	MPRKLMNMHFFCKLMNNRTH		Ampara	LK-52	7.23699	81.550391	Kalmunai	PS-520123	7.414289	81.825006	7.411712	81.838462	CR6Q+M9P, Kalmunai 32300, Sri Lanka	1.511625	
Ampara	Kalmunai	MOH Office - Kalmunai South	False	False	MPRKLMNMHFFCKLMNSTH		Ampara	LK-52	7.23699	81.550391	Kalmunai	PS-520123	7.414289	81.825006	7.411712	81.838462	CR6Q+M9P, Kalmunai 32300, Sri Lanka	1.511625	
Ampara	Kalmunai	Base Hospital - Kalmunai North	False	False	MPRKLMNBSHSPTLKLMNNRTH		Ampara	LK-52	7.23699	81.550391	Kalmunai	PS-520123	7.414289	81.825006	7.420034	81.82232	hospital near, Kalmunai 32300, Sri Lanka	0.704353	
Ampara	Sainthamarthu	MOH Office – Sainthamarthu	False	False	MPRSNTHMRTHMHFFCSNTHMRTH		Ampara	LK-52	7.23699	81.550391									#PoliceLocationUnknown
Ampara	Sainthamarthu	Saindamarudu Hospital	False	False	MPRSNTHMRTHSNDMRDHSPTL		Ampara	LK-52	7.23699	81.550391									#PoliceLocationUnknown
Ampara	Sammanthurai	Sammanthurai Base Hospital	False	False	MPRSMMNTHRSMMNTHRBSHSPTL		Ampara	LK-52	7.23699	81.550391	Samanthurai	PS-520124	7.365785	81.810859	7.368355	81.813042	9R96+MWM, Hospital Rd, Sammanthurai, Sri Lanka	0.373773	
Ampara	Sammanthurai	MOH Office – Nintavur	False	False	MPRSMMNTHRMHFFCNNTVR		Ampara	LK-52	7.23699	81.550391	Samanthurai	PS-520124	7.365785	81.810859	7.352821	81.856939	Hospital Rd, Nintavur 32340, Sri Lanka	5.283925	
Ampara	Sammanthurai	MOH Office - Sammanthurai	False	False	MPRSMMNTHRMHFFCSMMNTHR		Ampara	LK-52	7.23699	81.550391	Samanthurai	PS-520124	7.365785	81.810859	7.369857	81.812264	9R96+WWR, Sammanthurai, Sri Lanka	0.478712	
Ampara	Sammanthurai	Nintavur Hospital	False	False	MPRSMMNTHRNNTVRHSPTL		Ampara	LK-52	7.23699	81.550391	Samanthurai	PS-520124	7.365785	81.810859	7.353372	81.856852	Hospital Rd, Nintavur, Sri Lanka	5.258159	
Ampara	Sammanthurai	Darususalam Maha Vidyalaya	False	False	MPRSMMNTHRDRSSLMMHVDYLY		Ampara	LK-52	7.23699	81.550391	Samanthurai	PS-520124	7.365785	81.810859	7.370617	81.808855	AB33, Sammanthurai 32200, Sri Lanka	0.58115	
Ampara	Sammanthurai	Kannahi Vidyalaya	False	False	MPRSMMNTHRKNNHVDYLY		Ampara	LK-52	7.23699	81.550391	Samanthurai	PS-520124	7.365785	81.810859	7.35018	81.80359	Kallarichchel 02, Sammanthurai, Sri Lanka	1.912014	
Ampara	Thirukkovil	MOH Office – Thirukkovil	False	False	MPRTHRKKVLMHFFCTHRKKVL		Ampara	LK-52	7.23699	81.550391	Thirukkovil	PS-520127	7.113998	81.852219	7.111635	81.852892	Central Rd, Vinayagapuram, Sri Lanka	0.273131	
Ampara	Akkaraipattu	MOH Office – Addalachenai	False	False	MPRKKRPTTMHFFCDDLCHN		Ampara	LK-52	7.23699	81.550391	Akkaraipattu	PS-520126	7.216084	81.853254	7.260916	81.853493	7V63+999, Addalaichenai, Sri Lanka	4.986726	
Ampara	Akkaraipattu	MOH Office - Akkaraipattu	False	False	MPRKKRPTTMHFFCKKRPTT		Ampara	LK-52	7.23699	81.550391	Akkaraipattu	PS-520126	7.216084	81.853254	7.228134	81.851123	6VH2+7C5, Akkaraipattu, Sri Lanka	1.360772	
Ampara	Akkaraipattu	MOH Office - Alayadivembu	False	False	MPRKKRPTTMHFFCLYDVMB		Ampara	LK-52	7.23699	81.550391	Akkaraipattu	PS-520126	7.216084	81.853254	7.228134	81.851123	6VH2+7C5, Akkaraipattu, Sri Lanka	1.360772	
Ampara	Pottuvil	MOH Office - Pottuvil	False	False	MPRPTTVLMHFFCPTTVL		Ampara	LK-52	7.23699	81.550391	Pothuvil	PS-520128	6.878387	81.826859	6.877076	81.828969	B374, Pottuvil, Sri Lanka	0.274874	
Ampara	Ampara	Ampara Hospital	False	False	MPRMPRMPRHSPTL		Ampara	LK-52	7.23699	81.550391	Ampara	PS-520113	7.296771	81.677161	7.298334	81.690841	Dharmapala Mawatha, Ampara, Sri Lanka	1.519279	
