district	police	center	dose1	dose2	fuzzy_key	alt_name	district_name_norm	district_id	district_lat	district_lng	ps_name_norm	ps_id	ps_lat	ps_lng	lat	lng	formatted_address	dis_center_to_police	tags	district_si	police_si	center_si	district_ta	police_ta	center_ta	formatted_address_si	formatted_address_ta
Colombo	Cinnamon Gardens	Viharamahadevi Park	False	False	CLMBCNNMNGRDNSVHRMHDVPRK		Colombo	LK-11	6.869636	80.019598	Cinnamon Garden	PS-110324	6.907289	79.863819	6.913391	79.86174	Viharamahadevi Park, Colombo, Sri Lanka	0.716497		කොළඹ	කුරුඳු උද්‍යාන	විහාරමහාදේවි උද්‍යානය	கொழும்பு	இலவங்கப்பட்டை தோட்டங்கள்	விஹாரமஹாதேவி பூங்கா	විහාරමහාදේවි උද්‍යානය, කොළඹ, ශ්‍රී ලංකාව	விஹாரமஹாதேவி பூங்கா, கொழும்பு, இலங்கை
Colombo	Thalangama	Diyatha Uyana	False	False	CLMBTHLNGMDYTHYN		Colombo	LK-11	6.869636	80.019598	Thalangama	PS-110466	6.91089	79.929325	6.904575	79.909831	Diyatha Uyana, B240, Sri Jayawardenepura Kotte, Sri Lanka	2.264281		කොළඹ	තලංගම	දියත උයන	கொழும்பு	தலங்கம	தியாத உயனா	දියත උයන, බී 240, ශ්‍රී ජයවර්ධනපුර කෝට්ටේ, ශ්‍රී ලංකාව	தியாத உயனா, B240, ஸ்ரீ ஜெயவர்தனபுர கோட்டே, இலங்கை
Colombo	Thalangama	MOH Office - Battaramulla	False	False	CLMBTHLNGMMHFFCBTTRMLL		Colombo	LK-11	6.869636	80.019598	Thalangama	PS-110466	6.91089	79.929325	6.901538	79.919128	WW29+JM6, Battaramulla 10120, Sri Lanka	1.532936		කොළඹ	තලංගම	MOH කාර්යාලය - බත්තරමුල්ල	கொழும்பு	தலங்கம	MOH அலுவலகம் - பத்தரமுல்ல	WW29+JM6, බත්තරමුල්ල 10120, ශ්‍රී ලංකාව	WW29+JM6, பத்தரமுல்ல 10120, இலங்கை
Colombo	Grandpass	Sugathadasa Outdoor Stadium	False	False	CLMBGRNDPSSSGTHDSTDRSTDM		Colombo	LK-11	6.869636	80.019598	Grandpass	PS-110215	6.949052	79.872983	6.94806	79.868842	Prince of Wales Ave, Colombo 01400, Sri Lanka	0.470345		කොළඹ	ග්‍රෑන්ඩ්පාස්	සුගතදාස එළිමහන් ක්‍රීඩාංගනය	கொழும்பு	கிராண்ட்பாஸ்	சுகததாச வெளிப்புற அரங்கம்	වේල්ස් කුමර මාවත, කොළඹ 01400, ශ්‍රී ලංකාව	பிரின்ஸ் ஆஃப் வேல்ஸ் அவே, கொழும்பு 01400, இலங்கை
Colombo	Narahenpita	Army Hospital Narahenpita	False	False	CLMBNRHNPTRMYHSPTLNRHNPT		Colombo	LK-11	6.869636	80.019598	Narahenpita	PS-110321	6.891832	79.876715	6.900252	79.87618	08 Elvitigala Mawatha, Colombo 00800, Sri Lanka	0.938417		කොළඹ	නාරාහේන්පිට	නාරාහේන්පිට හමුදා රෝහල	கொழும்பு	நரஹேன்பிட்ட	இராணுவ மருத்துவமனை நாரஹேன்பிட்ட	08 ඇල්විටිගල මාවත, කොළඹ 00800, ශ්‍රී ලංකාව	08 எல்விட்டிகல மாவத்தை, கொழும்பு 00800, இலங்கை
Colombo	Narahenpita	Army Headquarters Mobile Team	False	False	CLMBNRHNPTRMYHDQRTRSMBLTM		Colombo	LK-11	6.869636	80.019598	Narahenpita	PS-110321	6.891832	79.876715					#CenterLocationUnknown	කොළඹ	නාරාහේන්පිට	යුද හමුදා මූලස්ථානයේ ජංගම කණ්ඩායම	கொழும்பு	நரஹேன்பிட்ட	இராணுவ தலைமையகம் மொபைல் குழு		
Colombo	Boralesgamuwa	Kotelawala Defence Hospital	False	False	CLMBBRLSGMWKTLWLDFNCHSPTL		Colombo	LK-11	6.869636	80.019598	Boralesgamuwa	PS-110464	6.841331	79.901255	6.82518	79.907167	RWG4+3VF, Boralesgamuwa, Sri Lanka	1.911444		කොළඹ	බොරලැස්ගමුව	කොතලාවල ආරක්‍ෂක රෝහල	கொழும்பு	பொரலஸ்கமுவா	கொத்தலாவல பாதுகாப்பு மருத்துவமனை	RWG4+3VF, බොරලැස්ගමුව, ශ්‍රී ලංකාව	RWG4+3VF, பொரலஸ்கமுவா, இலங்கை
Colombo	Boralesgamuwa	MOH Office – Werahera	False	False	CLMBBRLSGMWMHFFCWRHR		Colombo	LK-11	6.869636	80.019598	Boralesgamuwa	PS-110464	6.841331	79.901255	6.833094	79.905583	RWM4+66P, Boralesgamuwa, Sri Lanka	1.033386		කොළඹ	බොරලැස්ගමුව	MOH කාර්යාලය - වේරහැර	கொழும்பு	பொரலஸ்கமுவா	MOH அலுவலகம் - வெரஹெரா	RWM4+66P, බොරලැස්ගමුව, ශ්‍රී ලංකාව	RWM4+66P, பொரலஸ்கமுவா, இலங்கை
Colombo	Homagama	Panagoda Bodhirajarama Viharaya	False	False	CLMBHMGMPNGDBDHRJRMVHRY		Colombo	LK-11	6.869636	80.019598	Homagama	PS-110470	6.836155	80.003474	6.929161	79.88265	Gnanawimala Rd, Colombo, Sri Lanka	16.883101		කොළඹ	හෝමාගම	පනාගොඩ බෝධිරාජාරාම විහාරය	கொழும்பு	ஹோமாகம	பனகொட போதிராஜாராம விஹாராயா	ඥානවිමල පාර, කොළඹ, ශ්‍රී ලංකාව	ஞானவிமல வீதி, கொழும்பு, இலங்கை
Colombo	Mirihana	MOH Office - Beddagana	False	False	CLMBMRHNMHFFCBDDGN		Colombo	LK-11	6.869636	80.019598	Mirihana	PS-110462	6.873714	79.901724	6.885731	79.908328	Baddagana Rd, Sri Jayawardenepura Kotte 10100, Sri Lanka	1.522652		කොළඹ	මිරිහාන	MOH කාර්යාලය - බැද්දගාන	கொழும்பு	மிரிஹானா	MOH அலுவலகம் - பெத்தகனா	බද්දගාන පාර, ශ්‍රී ජයවර්ධනපුර කෝට්ටේ 10100, ශ්‍රී ලංකාව	பதகனா சாலை, ஸ்ரீ ஜெயவர்தனபுரா கோட்டே 10100, இலங்கை
Colombo	Maharagama	Ranmal Deniya Viharaya - Arawwala	False	False	CLMBMHRGMRNMLDNYVHRYRWWL		Colombo	LK-11	6.869636	80.019598	Maharagama	PS-110463	6.845422	79.928928	6.818648	79.998854	Magammana Vidyalaya Bus Stop, B452, Sri Lanka	8.276948		කොළඹ	මහරගම	රන්මල් දෙනියා විහාරය - ඇරැව්වල	கொழும்பு	மஹரகம	ரன்மல் தெனியா விஹாராயா - ஆரவ்வாலா	මාගම්මන විද්‍යාලයීය බස් නැවතුම, බී 452, ශ්‍රී ලංකාව	மகம்மனா வித்யாலயா பஸ் ஸ்டாப், பி 452, இலங்கை
Colombo	Maharagama	Vajiragnana Viharaya	False	False	CLMBMHRGMVJRGNNVHRY		Colombo	LK-11	6.869636	80.019598	Maharagama	PS-110463	6.845422	79.928928	6.840573	79.919106	Siri Vajiragnana Dharmayathanaya, Sri vajiragnana mawata, Dehiwala Rd, Maharagama 10280, Sri Lanka	1.211409		කොළඹ	මහරගම	වජිරඥාන විහාරය	கொழும்பு	மஹரகம	வஜிரக்ஞான விஹாராயா	සිරි වජිරඥාන ධර්මායතනය, ශ්‍රී වජිරඥාන මාවත, දෙහිවල පාර, මහරගම 10280, ශ්‍රී ලංකාව	ஸ்ரீ வஜிரக்ஞான தர்மயாதனாயா, ஸ்ரீ வஜிரக்ஞனா மாவட, தெஹிவல சாலை, மஹரகம 10280, இலங்கை
Colombo	Mount Lavinia	Aththidiya Maternity Clinic	False	False	CLMBMNTLVNTHTHDYMTRNTYCLNC		Colombo	LK-11	6.869636	80.019598	Mount Lavinia	PS-110577	6.825006	79.87009	6.824371	79.872256	RVFC+PWR, Dehiwala-Mount Lavinia, Sri Lanka	0.249426		කොළඹ	ගල්කිස්ස	අත්තිඩිය මාතෘ සායනය	கொழும்பு	கல்கிசை	அத்திடியா மகப்பேறு மருத்துவமனை	RVFC+PWR, දෙහිවල-ගල්කිස්ස, ශ්‍රී ලංකාව	RVFC+PWR, தெஹிவளை-கல்கிசை, இலங்கை
Colombo	Dehiwala	S. De. S. Jayasinghe Hall	False	False	CLMBDHWLSDSJYSNGHHLL		Colombo	LK-11	6.869636	80.019598	Dehiwala	PS-110580	6.850088	79.871696	6.861489	79.865045	B11, Dehiwala-Mount Lavinia, Sri Lanka	1.465485		කොළඹ	දෙහිවල	එස්. ද. එස්. ජයසිංහ ශාලාව	கொழும்பு	தெஹிவளை	எஸ். டி. எஸ். ஜெயசிங்க மண்டபம்	බී 11, දෙහිවල-ගල්කිස්ස, ශ්‍රී ලංකාව	பி 11, தெஹிவளை-கல்கிசை, இலங்கை
Colombo	Maradana	National Hospital – Colombo	False	False	CLMBMRDNNTNLHSPTLCLMB		Colombo	LK-11	6.869636	80.019598	Maradana	PS-110107	6.927939	79.865471	6.918743	79.868992	Colombo 00700, Sri Lanka	1.094265		කොළඹ	මරදාන	ජාතික රෝහල - කොළඹ	கொழும்பு	மரதானா	தேசிய மருத்துவமனை - கொழும்பு	කොළඹ 00700, ශ්‍රී ලංකාව	கொழும்பு 00700, இலங்கை
Colombo	Fort	Navy Headquarters	False	False	CLMBFRTNVYHDQRTRS		Colombo	LK-11	6.869636	80.019598	Fort	PS-110105	6.9334	79.842895	6.936952	79.842104	WRPR+QRQ, Colombo, Sri Lanka	0.404627		කොළඹ	කොටුව	නාවික හමුදා මූලස්ථානය	கொழும்பு	கோட்டை	கடற்படை தலைமையகம்	WRPR+QRQ, කොළඹ, ශ්‍රී ලංකාව	WRPR+QRQ, கொழும்பு, இலங்கை
Colombo	Maligawatta	P.D. Sirisena Ground	False	False	CLMBMLGWTTPDSRSNGRND		Colombo	LK-11	6.869636	80.019598	Maligawatta	PS-110108	6.934132	79.856305	6.935206	79.868709	Pradeepa Rd, Colombo 01000, Sri Lanka	1.374802		කොළඹ	මාලිගාවත්ත	පී.ඩී. සිරිසේන පිටිය	கொழும்பு	மாளிகாவத்தை	பி.டி. சிறிசேனா மைதானம்	ප්‍රදීපා පාර, කොළඹ 01000, ශ්‍රී ලංකාව	பிரதீபா வீதி, கொழும்பு 01000, இலங்கை
Colombo	Wellawatta	Roxy Gardens Premises	False	False	CLMBWLLWTTRXYGRDNSPRMSS		Colombo	LK-11	6.869636	80.019598	Wellawatta	PS-110320	6.873107	79.86167	6.863747	79.862088	Dehiwala Canal, Colombo, Sri Lanka	1.042134		කොළඹ	වැල්ලවත්ත	රොක්සි උද්‍යාන පරිශ්‍රය	கொழும்பு	வெள்ளவத்தை	ராக்ஸி கார்டன்ஸ் வளாகம்	දෙහිවල ඇල, කොළඹ, ශ්‍රී ලංකාව	தெஹிவளை கால்வாய், கொழும்பு, இலங்கை
Colombo	Wellampitiya	MOH Office – Kolonnawa	False	False	CLMBWLLMPTYMHFFCKLNNW		Colombo	LK-11	6.869636	80.019598	Wellampitiya	PS-110465	6.937514	79.896298	6.922088	79.916237	Mandavila Rd, Kotikawatta, Sri Lanka	2.791266		කොළඹ	වැල්ලම්පිටිය	MOH කාර්යාලය - කොළොන්නාව	கொழும்பு	வெல்லம்பிட்டிய	MOH அலுவலகம் - கொலன்னாவா	මණ්ඩවිල පාර, කොටිකාවත්ත, ශ්‍රී ලංකාව	மண்டவில வீதி, கொட்டிகாவத்த, இலங்கை
Colombo	Kaduwela	MOH Office – Kaduwela	False	False	CLMBKDWLMHFFCKDWL		Colombo	LK-11	6.869636	80.019598	Kaduwela		6.936234	79.970183	6.934127	79.984398	B263, Kaduwela, Sri Lanka	1.586964		කොළඹ	කඩුවෙල	MOH කාර්යාලය - කඩුවෙල	கொழும்பு	கடுவெல	MOH அலுவலகம் - கடுவெல	බී 263, කඩුවෙල, ශ්‍රී ලංකාව	பி 263, கடுவெல, இலங்கை
Colombo	Mulleriyawa	MOH Office - Gothatuwa	False	False	CLMBMLLRYWMHFFCGTHTW		Colombo	LK-11	6.869636	80.019598	Mulleriyawa	PS-110469	6.927187	79.929108	6.922088	79.916237	Mandavila Rd, Kotikawatta, Sri Lanka	1.530186		කොළඹ	මුල්ලේරියාව	MOH කාර්යාලය - ගොතටුව	கொழும்பு	முல்லேரியாவா	MOH அலுவலகம் - கோததுவா	මණ්ඩවිල පාර, කොටිකාවත්ත, ශ්‍රී ලංකාව	மண்டவில வீதி, கொட்டிகாவத்த, இலங்கை
Colombo	Kirulapana	Sithumina Hall	False	False	CLMBKRLPNSTHMNHLL		Colombo	LK-11	6.869636	80.019598	Kirulapone	PS-110319	6.878122	79.874159	6.876704	79.879161	00600, Mugalan Rd, Colombo 00600, Sri Lanka	0.574445		කොළඹ	කිරුලන	සිතුමිණ ශාලාව	கொழும்பு	கிருலபனா	சித்துமினா மண்டபம்	00600, මුගලන් පාර, කොළඹ 00600, ශ්‍රී ලංකාව	00600, முகலான் சாலை, கொழும்பு 00600, இலங்கை
Colombo	Fore shore	MOH Office - Jinthupitiya	False	False	CLMBFRSHRMHFFCJNTHPTY		Colombo	LK-11	6.869636	80.019598	Fore shore	PS-110210	6.949589	79.857355	6.943258	79.859238	No.27 Vivekananda Hill, Colombo 01300, Sri Lanka	0.734247		කොළඹ	ඉදිරිපස වෙරළ	MOH කාර්යාලය - ජින්තුපිටිය	கொழும்பு	முன் கரை	MOH அலுவலகம் - ஜிந்துபிடியா	අංක 27 විවේකානන්ද කන්ද, කොළඹ 01300, ශ්‍රී ලංකාව	எண் .27 விவேகானந்த மலை, கொழும்பு 01300, இலங்கை
Colombo	Modara	Bonavista Ground	False	False	CLMBMDRBNVSTGRND		Colombo	LK-11	6.869636	80.019598	Modara	PS-110211	6.964846	79.868544	6.966925	79.871153	Modara, Colombo, Sri Lanka	0.369394		කොළඹ	මෝදර	බොනවිස්ටා පිටිය	கொழும்பு	மோதரா	போனவிஸ்டா மைதானம்	මෝදර, කොළඹ, ශ්‍රී ලංකාව	மோதரா, கொழும்பு, இலங்கை
Colombo	Avissawella	Avissawella Hospital	False	False	CLMBVSSWLLVSSWLLHSPTL		Colombo	LK-11	6.869636	80.019598	Awissawella	PS-920226	6.947538	80.215422	6.957085	80.207381	Avissawella Rd, Avissawella, Sri Lanka	1.384155		කොළඹ	අවිස්සාවේල්ල	අවිස්සාවේල්ල රෝහල	கொழும்பு	அவிசாவெல்லா	அவிசாவளை மருத்துவமனை	අවිස්සාවේල්ල පාර, අවිස්සාවේල්ල, ශ්‍රී ලංකාව	அவிசாவெல்லா சாலை, அவிசாவல்லா, இலங்கை
Colombo	Avissawella	Kiriwandala Tamil College	False	False	CLMBVSSWLLKRWNDLTMLCLLG		Colombo	LK-11	6.869636	80.019598	Awissawella	PS-920226	6.947538	80.215422	6.956526	80.204418	43 Kudagama Road, Avissawella, Sri Lanka	1.573413		කොළඹ	අවිස්සාවේල්ල	කිරිවන්දල දෙමළ විද්‍යාලය	கொழும்பு	அவிசாவெல்லா	கிரிவந்தலா தமிழ் கல்லூரி	43 කුඩාගම පාර, අවිස්සාවේල්ල, ශ්‍රී ලංකාව	43 குடகம சாலை, அவிசாவளை, இலங்கை
Colombo	Kosgama	Kosgama Hospital	False	False	CLMBKSGMKSGMHSPTL		Colombo	LK-11	6.869636	80.019598	Kosgama	PS-920227	6.946597	80.137869	6.940956	80.124888	Salawa-Akarawita, 10730, Sri Lanka	1.564606		කොළඹ	කොස්ගම	කොස්ගම රෝහල	கொழும்பு	கொஸ்கம	கொஸ்கம மருத்துவமனை	සාලාව-අකරවිට, 10730, ශ්‍රී ලංකාව	சலாவா-அகரவிட, 10730, இலங்கை
Gampaha	Minuwangoda	Katuwellegama Maternity Clinic	False	False	GMPHMNWNGDKTWLLGMMTRNTYCLNC		Gampaha	LK-12	7.123598	80.018508	Minuwangoda	PS-120238	7.174215	79.957874	7.172386	79.957553	Katunayake-Veyangoda Rd, Minuwangoda, Sri Lanka	0.206501		ගම්පහ	මිනුවන්ගොඩ	කටුවැල්ලේගම මාතෘ සායනය	கம்பஹா	மினுவாங்கொட	கட்டுவெல்லேகம மகப்பேறு மருத்துவமனை	කටුනායක-වේයන්ගොඩ පාර, මිනුවන්ගොඩ, ශ්‍රී ලංකාව	கட்டுநாயக்க-வெயங்கொட வீதி, மினுவாங்கொட, இலங்கை
Gampaha	Minuwangoda	MOH Office - Minuwangoda	False	False	GMPHMNWNGDMHFFCMNWNGD		Gampaha	LK-12	7.123598	80.018508	Minuwangoda	PS-120238	7.174215	79.957874	7.17227	79.956823	Katunayake-Veyangoda Rd, Minuwangoda, Sri Lanka	0.245525		ගම්පහ	මිනුවන්ගොඩ	MOH කාර්යාලය - මිනුවන්ගොඩ	கம்பஹா	மினுவாங்கொட	MOH அலுவலகம் - மினுவாங்கொட	කටුනායක-වේයන්ගොඩ පාර, මිනුවන්ගොඩ, ශ්‍රී ලංකාව	கட்டுநாயக்க-வெயங்கொட வீதி, மினுவாங்கொட, இலங்கை
Gampaha	Minuwangoda	Yatiyana Vijewardhana Pirivena	False	False	GMPHMNWNGDYTYNVJWRDHNPRVN		Gampaha	LK-12	7.123598	80.018508	Minuwangoda	PS-120238	7.174215	79.957874	7.186771	79.926055	Yatiyana, Sri Lanka	3.779006		ගම්පහ	මිනුවන්ගොඩ	යටියන විජයවර්ධන පිරිවෙන	கம்பஹா	மினுவாங்கொட	யத்தியான விஜேவர்தன பிரிவேனா	යටියන, ශ්‍රී ලංකාව	யத்தியானா, இலங்கை
Gampaha	Minuwangoda	Dewalapola Viharaya	False	False	GMPHMNWNGDDWLPLVHRY		Gampaha	LK-12	7.123598	80.018508	Minuwangoda	PS-120238	7.174215	79.957874	7.161204	79.991999	Dewalapola, Sri Lanka	4.03455		ගම්පහ	මිනුවන්ගොඩ	දේවලපොළ විහාරය	கம்பஹா	மினுவாங்கொட	தேவலபொல விஹாராயா	දේවලපොළ, ශ්‍රී ලංකාව	தேவலபொல, இலங்கை
Gampaha	Katana	MOH Office - Katana	False	False	GMPHKTNMHFFCKTN		Gampaha	LK-12	7.123598	80.018508	Katana	PS-120360	7.224796	79.880015	7.22436	79.88271	Katana, Negombo - Mirigama Rd, Negombo, Sri Lanka	0.301313		ගම්පහ	කටාන	MOH කාර්යාලය - කටාන	கம்பஹா	கட்டானா	MOH அலுவலகம் - கட்டானா	කටාන, මීගමුව - මීරිගම පාර, මීගමුව, ශ්‍රී ලංකාව	கட்டானா, நீர்கொழும்பு - மீரிகம வீதி, நீர்கொழும்பு, இலங்கை
Gampaha	Nittambuwa	Danowita Weragoda Viharaya	False	False	GMPHNTTMBWDNWTWRGDVHRY		Gampaha	LK-12	7.123598	80.018508	Nittambuwa	PS-120246	7.149726	80.10046	7.113799	80.135467	Nittambuwa - Ruwanwella Rd, Sri Lanka	5.558543		ගම්පහ	නිට්ටඹුව	දනෝවිට වේරගොඩ විහාරය	கம்பஹா	நிட்டம்புவா	தனோவிட வெரகொட விஹாராயா	නිට්ටඹුව - රුවන්වැල්ල පාර, ශ්‍රී ලංකාව	நிட்டம்புவ - ருவன்வெல்ல வீதி, இலங்கை
Gampaha	Mirigama	Mugurugampola Viharaya	False	False	GMPHMRGMMGRGMPLVHRY		Gampaha	LK-12	7.123598	80.018508	Meerigama	PS-120248	7.245169	80.128647	7.24658	80.119978	Negombo - Mirigama Rd, Mirigama, Sri Lanka	0.969341		ගම්පහ	මීරිගම	මුගුරුගම්පොල විහාරය	கம்பஹா	மீரிகம	முருகுகம்போல விஹாராயா	මීගමුව - මීරිගම පාර, මීරිගම, ශ්‍රී ලංකාව	நீர்கொழும்பு - மீரிகம வீதி, மீரிகம, இலங்கை
Gampaha	Mirigama	Weweldeniya Viharaya	False	False	GMPHMRGMWWLDNYVHRY		Gampaha	LK-12	7.123598	80.018508	Meerigama	PS-120248	7.245169	80.128647	7.110015	79.989902	4X6Q+2X2, Gampaha, Sri Lanka	21.457918	#CenterFarFromPolice	ගම්පහ	මීරිගම	වේවැල්දෙණිය විහාරය	கம்பஹா	மீரிகம	வெவெல்தெனிய விஹாராயா	4X6Q+2X2, ගම්පහ, ශ්‍රී ලංකාව	4X6Q+2X2, கம்பஹா, இலங்கை
Gampaha	Veyangoda	Raniswala Walagamba Vidyalaya	False	False	GMPHVYNGDRNSWLWLGMBVDYLY		Gampaha	LK-12	7.123598	80.018508	Weyangoda	PS-120247	7.144053	80.095511	7.119132	80.045944	429W+M94, Kalagedihena, Sri Lanka	6.132866		ගම්පහ	වේයන්ගොඩ	රනිස්වල වලගම්බා විද්‍යාලය	கம்பஹா	வேயங்கொட	ராணிஸ்வாலா வலகம்பா வித்யாலயா	429W+M94, කලගෙඩිහේන, ශ්‍රී ලංකාව	429W+M94, கலகெடிஹேனா, இலங்கை
Gampaha	Ganemulla	Galahitiyawa Central College	False	False	GMPHGNMLLGLHTYWCNTRLCLLG		Gampaha	LK-12	7.123598	80.018508	Ganemulla	PS-120242	7.066804	79.959751	7.069576	79.953719	Ganemulla-JaEla Road, Ganemulla 11020, Sri Lanka	0.733764		ගම්පහ	ගනේමුල්ල	ගලහිටියාව මධ්‍ය විද්‍යාලය	கம்பஹா	கணேமுல்லா	கலாஹிதியாவா மத்திய கல்லூரி	ගණේමුල්ල-ජාඇල පාර, ගණේමුල්ල 11020, ශ්‍රී ලංකාව	கணேமுல்லா-ஜேஎலா சாலை, கணேமுல்லா 11020, இலங்கை
Gampaha	Kadawata	Sooriyarachchi Vidyalaya	False	False	GMPHKDWTSRYRCHCHVDYLY		Gampaha	LK-12	7.123598	80.018508	Kadawatha	PS-120136	7.00152	79.95003	6.9983	79.987381	Gonahena Rd, Kadawatha 11940, Sri Lanka	4.139104		ගම්පහ	කඩවත	සූරියආරච්චි විද්‍යාලය	கம்பஹா	கடவாடா	சூரியாராச்சி வித்யாலயா	ගෝනහේන පාර, කඩවත 11940, ශ්‍රී ලංකාව	கோனாஹேனா சாலை, கடவத்த 11940, இலங்கை
Gampaha	Kadawata	Kirillawala Central College	False	False	GMPHKDWTKRLLWLCNTRLCLLG		Gampaha	LK-12	7.123598	80.018508	Kadawatha	PS-120136	7.00152	79.95003	7.015981	79.969223	2X89+9MX, Eldeniya, Sri Lanka	2.660247		ගම්පහ	කඩවත	කිරිල්ලවල මධ්‍ය මහා විද්‍යාලය	கம்பஹா	கடவாடா	கிரில்லாவாலா மத்திய கல்லூரி	2X89+9MX, ඇල්දෙනිය, ශ්‍රී ලංකාව	2X89+9MX, எல்டெனியா, இலங்கை
Gampaha	Biyagama	MOH Office – Biyagama	False	False	GMPHBYGMMHFFCBYGM		Gampaha	LK-12	7.123598	80.018508	Biyagama	PS-120131	6.962284	80.009037	6.946824	79.994052	Hospital Rd, Sri Lanka	2.386313		ගම්පහ	බියගම	MOH කාර්යාලය - බියගම	கம்பஹா	பியகம	MOH அலுவலகம் - பியாகம	රෝහල පාර, ශ්‍රී ලංකාව	மருத்துவமனை Rd, இலங்கை
Gampaha	Kiribathgoda	Hunupitiya Clinic	False	False	GMPHKRBTHGDHNPTYCLNC		Gampaha	LK-12	7.123598	80.018508	Kiribathgoda	PS-120135	6.978005	79.929433	6.980847	79.929943	XWJH+8XP, Kiribathgoda, Sri Lanka	0.321091		ගම්පහ	කිරිබත්ගොඩ	හුණුපිටිය සායනය	கம்பஹா	கிரிபத்கோடா	ஹுனுபிட்டிய கிளினிக்	XWJH+8XP, කිරිබත්ගොඩ, ශ්‍රී ලංකාව	XWJH+8XP, கிரிபத்கோடா, இலங்கை
Gampaha	Gampaha	MOH Office – Gampaha	False	False	GMPHGMPHMHFFCGMPH		Gampaha	LK-12	7.123598	80.018508	Gampaha	PS-120237	7.087765	80.01228	7.17227	79.956823	Katunayake-Veyangoda Rd, Minuwangoda, Sri Lanka	11.216745		ගම්පහ	ගම්පහ	MOH කාර්යාලය - ගම්පහ	கம்பஹா	கம்பஹா	MOH அலுவலகம் - கம்பஹா	කටුනායක-වේයන්ගොඩ පාර, මිනුවන්ගොඩ, ශ්‍රී ලංකාව	கட்டுநாயக்க-வெயங்கொட வீதி, மினுவாங்கொட, இலங்கை
Gampaha	Gampaha	Makewita Viharaya	False	False	GMPHGMPHMKWTVHRY		Gampaha	LK-12	7.123598	80.018508	Gampaha	PS-120237	7.087765	80.01228	7.110015	79.989902	4X6Q+2X2, Gampaha, Sri Lanka	3.496563		ගම්පහ	ගම්පහ	මාකෙවිට විහාරය	கம்பஹா	கம்பஹா	மேக்விதா விஹாராயா	4X6Q+2X2, ගම්පහ, ශ්‍රී ලංකාව	4X6Q+2X2, கம்பஹா, இலங்கை
Gampaha	Yakkala	Arambagolla Viharaya	False	False	GMPHYKKLRMBGLLVHRY		Gampaha	LK-12	7.123598	80.018508	Yakkala	PS-120250	7.076621	80.020655	7.092749	80.033677	32VM+3FV, Yakkala, Sri Lanka	2.298734		ගම්පහ	යක්කල	අරඹගොල්ල විහාරය	கம்பஹா	யக்கல	ஆரம்பகொல்லா விஹாராயா	32VM+3FV, යක්කල, ශ්‍රී ලංකාව	32VM+3FV, யக்கலா, இலங்கை
Gampaha	Pugoda	MOH Office – Dompe	False	False	GMPHPGDMHFFCDMP		Gampaha	LK-12	7.123598	80.018508	Pugoda	PS-120241	6.98283	80.111189	6.976767	80.117422	Dompe, Pugoda-Mandawala Rd, Pugoda, Sri Lanka	0.963513		ගම්පහ	පූගොඩ	MOH කාර්යාලය - දොම්පේ	கம்பஹா	புகோடா	MOH அலுவலகம் - Dompe	දොම්පේ, පූගොඩ-මණ්ඩාවල පාර, පූගොඩ, ශ්‍රී ලංකාව	டோம்பே, புகோடா-மண்டவாலா சாலை, புகோடா, இலங்கை
Gampaha	Pamunugama	Pamunugama Hospital	False	False	GMPHPMNGMPMNGMHSPTL		Gampaha	LK-12	7.123598	80.018508	Pamunugama	PS-120353	7.078892	79.859696	7.093543	79.850191	3VV2+C38, Negombo, Sri Lanka	1.938152		ගම්පහ	පමුණුගම	පමුණුගම රෝහල	கம்பஹா	பமுனுகம	பமுனுகம மருத்துவமனை	3VV2+C38, මීගමුව, ශ්‍රී ලංකාව	3VV2+C38, நீர்கொழும்பு, இலங்கை
Gampaha	Negombo	Town Hall - Negombo	False	False	GMPHNGMBTWNHLLNGMB		Gampaha	LK-12	7.123598	80.018508	Negombo	PS-120351	7.224796	79.880015	7.206667	79.851863	Negombo, Sri Lanka	3.703623		ගම්පහ	මීගමුව	පුරහල - මීගමුව	கம்பஹா	நீர்கொழும்பு	டவுன் ஹால் - நீர்கொழும்பு	මීගමුව, ශ්‍රී ලංකාව	நீர்கொழும்பு, இலங்கை
Gampaha	Dungalpitiya	Pitipana Maternity Clinic	False	False	GMPHDNGLPTYPTPNMTRNTYCLNC		Gampaha	LK-12	7.123598	80.018508	Dungalpitiya	PS-120361	7.139226	79.833543	7.170735	79.824995	5RCF+7XX, Negombo, Sri Lanka	3.629353		ගම්පහ	දුංගල්පිටිය	පිටිපන මාතෘ සායනය	கம்பஹா	துங்கல்பிட்டிய	பிடிபனா மகப்பேறு மருத்துவமனை	5RCF+7XX, මීගමුව, ශ්‍රී ලංකාව	5RCF+7XX, நீர்கொழும்பு, இலங்கை
Gampaha	Kochchikade	Holy Spirit Church	False	False	GMPHKCHCHKDHLYSPRTCHRCH		Gampaha	LK-12	7.123598	80.018508	Kochchikade	PS-120352	7.265049	79.857026	7.265657	79.858517	7V85+7C6, Negombo, Sri Lanka	0.17787		ගම්පහ	කොච්චිකඩේ	ශුද්ධාත්ම පල්ලිය	கம்பஹா	கொச்சிக்கடே	பரிசுத்த ஆவி தேவாலயம்	7V85+7C6, මීගමුව, ශ්‍රී ලංකාව	7V85+7C6, நீர்கொழும்பு, இலங்கை
Gampaha	Kochchikade	Ethgala Maternity Clinic	False	False	GMPHKCHCHKDTHGLMTRNTYCLNC		Gampaha	LK-12	7.123598	80.018508	Kochchikade	PS-120352	7.265049	79.857026	7.255702	79.875884	Ethgala, Sri Lanka	2.326036		ගම්පහ	කොච්චිකඩේ	ඇත්ගල මාතෘ සායනය	கம்பஹா	கொச்சிக்கடே	எத்கலா மகப்பேறு மருத்துவமனை	ඇත්ගල, ශ්‍රී ලංකාව	எத்கலா, இலங்கை
Gampaha	Seeduwa	Hinatiya Maternity Clinic	False	False	GMPHSDWHNTYMTRNTYCLNC		Gampaha	LK-12	7.123598	80.018508	Seeduwa	PS-120356	7.128721	79.877371	7.131592	79.888974	4VJQ+JHQ, Seeduwa, Sri Lanka	1.319835		ගම්පහ	සීදුව	හිනාටියියා මාතෘ සායනය	கம்பஹா	சீதுவா	ஹினாட்டியா மகப்பேறு மருத்துவமனை	4VJQ+JHQ, සීදුව, ශ්‍රී ලංකාව	4VJQ+JHQ, சீதுவா, இலங்கை
Gampaha	Kotadeniyawa	Kotadeniyawa Central Dispensary	False	False	GMPHKTDNYWKTDNYWCNTRLDSPNSRY		Gampaha	LK-12	7.123598	80.018508	Kotadeniyawa	PS-120354	7.283643	80.06649	7.284487	80.063252	B322, Kotadeniyawa, Sri Lanka	0.369384		ගම්පහ	කොටදෙනියාව	කොටදෙනියාව මධ්‍යම බෙහෙත් ශාලාව	கம்பஹா	கோடதெனியாவா	கோடதெனியாவா மத்திய மருந்தகம்	B322, කොටදෙනියාව, ශ්‍රී ලංකාව	B322, கொட்டதெனியாவா, இலங்கை
Gampaha	Divulapitiya	MOH Office – Divulapitiya	False	False	GMPHDVLPTYMHFFCDVLPTY		Gampaha	LK-12	7.123598	80.018508	Diulapitiya	PS-120355	7.174215	79.957874	7.215486	80.013606	6287+5CX, Divulapitiya, Sri Lanka	7.67456		ගම්පහ	දිවුලපිටිය	එම්ඕඑච් කාර්යාලය - දිවුලපිටිය	கம்பஹா	திவுலபிட்டிய	MOH அலுவலகம் - திவுலபிட்டிய	6287+5CX, දිවුලපිටිය, ශ්‍රී ලංකාව	6287+5CX, திவுலபிட்டிய, இலங்கை
Gampaha	Divulapitiya	Dunagaha Central Dispensary	False	False	GMPHDVLPTYDNGHCNTRLDSPNSRY		Gampaha	LK-12	7.123598	80.018508	Diulapitiya	PS-120355	7.174215	79.957874	7.230314	80.016474	Divulapitiya, Sri Lanka	8.986298		ගම්පහ	දිවුලපිටිය	දුනාගහ මධ්‍යම බෙහෙත් ශාලාව	கம்பஹா	திவுலபிட்டிய	துனகா மத்திய மருந்தகம்	දිවුලපිටිය, ශ්‍රී ලංකාව	திவுலபிட்டிய, இலங்கை
Gampaha	Divulapitiya	Gnanodaya Maha Vidyalaya	False	False	GMPHDVLPTYGNNDYMHVDYLY		Gampaha	LK-12	7.123598	80.018508	Diulapitiya	PS-120355	7.174215	79.957874	7.222331	80.019709	62C9+WVP, Divulapitiya 11250, Sri Lanka	8.672135		ගම්පහ	දිවුලපිටිය	ඥානෝදය මහා විද්‍යාලය	கம்பஹா	திவுலபிட்டிய	ஞானோதயா மகா வித்தியாலயம்	62 සී 9+ඩබ්ලිව්වීපී, දිවුලපිටිය 11250, ශ්‍රී ලංකාව	62C9+WVP, திவுலபிட்டிய 11250, இலங்கை
Gampaha	Ja Ela	MOH Office - Ja Ela	False	False	GMPHJLMHFFCJL		Gampaha	LK-12	7.123598	80.018508	Ja - Ela	PS-120133	7.081055	79.890504	7.075216	79.893879	60 Mount Kalvary Rd, Ja-Ela, Sri Lanka	0.748731		ගම්පහ	ජා ඇල	MOH කාර්යාලය - ජා ඇල	கம்பஹா	ஜா எல	MOH அலுவலகம் - ஜா எல	60 කල්වාරි පාර, ජා-ඇල, ශ්‍රී ලංකාව	60 மவுண்ட் கல்வாரி சாலை, ஜா-எல, இலங்கை
Gampaha	Wattala	MOH Office – Wattala	False	False	GMPHWTTLMHFFCWTTL		Gampaha	LK-12	7.123598	80.018508	Wattala	PS-120128	6.993713	79.894506	6.995817	79.885793	301 Hendala Rd, Wattala, Sri Lanka	0.989991		ගම්පහ	වත්තල	MOH කාර්යාලය - වත්තල	கம்பஹா	வத்தளை	MOH அலுவலகம் - வத்தளை	301 හැඳල පාර, වත්තල, ශ්‍රී ලංකාව	301 ஹெந்தலா சாலை, வத்தளை, இலங்கை
Gampaha	Ragama	MOH Office – Ragama	False	False	GMPHRGMMHFFCRGM		Gampaha	LK-12	7.123598	80.018508	Ragama	PS-120134	7.034975	79.924148	7.027386	79.920232	2WGC+X35, Ragama, Sri Lanka	0.948382		ගම්පහ	රාගම	MOH කාර්යාලය - රාගම	கம்பஹா	ராகம	MOH அலுவலகம் - ராகம	2WGC+X35, රාගම, ශ්‍රී ලංකාව	2WGC+X35, ராகம, இலங்கை
Kalutara	Wadduwa	Dharmapala Vidyalaya	False	False	KLTRWDDWDHRMPLVDYLY		Kalutara	LK-13	6.577316	80.127363	Wadduwa	PS-130188	6.664403	79.929851	6.668381	79.930516	MW9J+962, Wadduwa, Sri Lanka	0.44853		කළුතර	වාද්දුව	ධර්මපාල විද්‍යාලය	களுத்துறை	வாத்துவா	தர்மபால வித்யாலயா	MW9J+962, වාද්දුව, ශ්‍රී ලංකාව	MW9J+962, வாட்டுவா, இலங்கை
Kalutara	Millaniya	Boddelgoda Viharaya	False	False	KLTRMLLNYBDDLGDVHRY		Kalutara	LK-13	6.577316	80.127363	Millaniya	PS-130191	6.681692	80.020847	6.683006	80.021529	Morontuduwa Horana Rd, Tuttiripitiya, Sri Lanka	0.164382		කළුතර	මිල්ලනිය	බොද්දේල්ගොඩ විහාරය	களுத்துறை	மில்லனியா	போடேல்கொட விஹாராயா	මොරොන්තුඩුව හොරණ පාර, තුත්තිරිපිටිය, ශ්‍රී ලංකාව	மொரொந்துடுவ ஹொரானா வீதி, துத்திரிப்பிட்டிய, இலங்கை
Kalutara	Millaniya	Pethigamuwa Community Hall	False	False	KLTRMLLNYPTHGMWCMMNTYHLL		Kalutara	LK-13	6.577316	80.127363	Millaniya	PS-130191	6.681692	80.020847	6.715589	80.062323	10 Horana - Anguruwatota - Mathugama - Aluthgama Road, Horana, Sri Lanka	5.933732		කළුතර	මිල්ලනිය	පෙතිගමුව ප්‍රජා ශාලාව	களுத்துறை	மில்லனியா	பெத்திகமுவா சமுதாயக் கூடம்	10 හොරණ - අඟුරුවාතොට - මතුගම - අලුත්ගම පාර, හොරණ, ශ්‍රී ලංකාව	10 ஹொரணை - அங்குருவடோட்ட - மத்துகம - அளுத்கம வீதி, ஹொரணை, இலங்கை
Kalutara	Millaniya	Gangamuwa Viharaya	False	False	KLTRMLLNYGNGMWVHRY		Kalutara	LK-13	6.577316	80.127363	Millaniya	PS-130191	6.681692	80.020847	6.696055	80.030612	Lenawara Rajamaha Viharaya, Panadura - Anguruwatota Rd, Tuttiripitiya, Sri Lanka	1.927704		කළුතර	මිල්ලනිය	ගංගමුව විහාරය	களுத்துறை	மில்லனியா	கங்கமுவா விஹாராயா	ලෙනවර රජමහා විහාරය, පානදුර - අඟුරුවාතොට පාර, තුත්තිරිපිටිය, ශ්‍රී ලංකාව	லெனவரா ராஜமஹா விஹாராயா, பாணந்துரா - அங்குருவடோட்டா சாலை, துத்திரிப்பிட்டிய, இலங்கை
Kalutara	Beruwala	Hettimulla Viharaya	False	False	KLTRBRWLHTTMLLVHRY		Kalutara	LK-13	6.577316	80.127363	Beruwala	PS-1302102	6.480329	79.983498	6.449296	80.000796	Kandavihara Yati Rd, Beruwala, Sri Lanka	3.945877		කළුතර	බේරුවල	හෙට්ටිමුල්ල විහාරය	களுத்துறை	பேருவளை	ஹெட்டிமுல்லா விஹாராயா	කඳවිහාර යටි පාර, බේරුවල, ශ්‍රී ලංකාව	கந்தவிஹார யதி வீதி, பேருவளை, இலங்கை
Kalutara	Thebuwana	Divisional Hospital – Neboda	False	False	KLTRTHBWNDVSNLHSPTLNBD		Kalutara	LK-13	6.577316	80.127363	Thebuwana	PS-1302105	6.654997	80.058183	6.570354	80.073048	wellatha Neboda ., Neboda - Wellatha Rd, Sri Lanka	9.557015		කළුතර	තෙබුවන	ප්‍රාදේශීය රෝහල - නැබොඩ	களுத்துறை	தேபுவானா	பிரிவு மருத்துவமனை - நெபோடா	වෙල්ලතා නැබොඩ., නැබොඩ - වෙල්ලත පාර, ශ්‍රී ලංකාව	வெல்லதா நெபோடா., நெபோடா - வெல்லதா ஆர்ட், இலங்கை
Kalutara	Agalawatta	Pimbura Hospital	False	False	KLTRGLWTTPMBRHSPTL		Kalutara	LK-13	6.577316	80.127363	Agalawatta		6.542566	80.157178	6.575949	80.158371	H5G5+98H, කළුතර, Sri Lanka	3.715525		කළුතර	අගලවත්ත	පිඹුර රෝහල	களுத்துறை	அகலவத்தை	பிம்புரா மருத்துவமனை	H5G5+98H, කළුතර, ශ්‍රී ලංකාව	H5G5+98H, கருப்புதர, இலங்கை
Kalutara	Agalawatta	Mihindu Vidyalaya	False	False	KLTRGLWTTMHNDVDYLY		Kalutara	LK-13	6.577316	80.127363	Agalawatta		6.542566	80.157178	6.541797	80.156439	Siri Mihidu Central College, Nagoda - Kalawellawa - Bellapitiya Rd, Agalawatta, Sri Lanka	0.118259		කළුතර	අගලවත්ත	මිහිඳු විද්‍යාලය	களுத்துறை	அகலவத்தை	மிஹிந்து வித்யாலயா	සිරි මිහිදු මධ්‍ය මහා විද්‍යාලය, නාගොඩ - කලාවැල්ල - බෙල්ලපිටිය පාර, අගලවත්ත, ශ්‍රී ලංකාව	ஸ்ரீ மிஹிது மத்திய கல்லூரி, நாகொட - கலவெல்லாவ - பெல்லப்பிட்டிய வீதி, அகலவத்த, இலங்கை
Kalutara	Bulathsinhala	Ihala Welgama Viharaya	False	False	KLTRBLTHSNHLHLWLGMVHRY		Kalutara	LK-13	6.577316	80.127363	Bulathsinhala	PS-1302104	6.650425	80.17703	6.636399	80.180009	Welgama, Bulathsinhala, Bulathsinhala 12300, Sri Lanka	1.59434		කළුතර	බුලත්සිංහල	ඉහළ වෙල්ගම විහාරය	களுத்துறை	புலத்சிங்களா	இஹல வெல்கம விஹாராயா	වෙල්ගම, බුලත්සිංහල, බුලත්සිංහල 12300, ශ්‍රී ලංකාව	வெல்கம, புலத்சிங்கள, புலத்சிங்கள 12300, இலங்கை
Kalutara	Bulathsinhala	Halwatura Estate Hospital	False	False	KLTRBLTHSNHLHLWTRSTTHSPTL		Kalutara	LK-13	6.577316	80.127363	Bulathsinhala	PS-1302104	6.650425	80.17703	6.717599	80.190296	Halwatura, Sri Lanka	7.614126		කළුතර	බුලත්සිංහල	හල්වතුර වතු රෝහල	களுத்துறை	புலத்சிங்களா	ஹல்வத்துரா எஸ்டேட் மருத்துவமனை	හල්වතුර, ශ්‍රී ලංකාව	ஹல்வத்துரா, இலங்கை
Kalutara	Bulathsinhala	Millakanda Estate	False	False	KLTRBLTHSNHLMLLKNDSTT		Kalutara	LK-13	6.577316	80.127363	Bulathsinhala	PS-1302104	6.650425	80.17703	6.665079	80.156303	Bulathsinhala - Mathugama Rd, Egaloya, Sri Lanka	2.810779		කළුතර	බුලත්සිංහල	මිල්ලකන්ද වත්ත	களுத்துறை	புலத்சிங்களா	மில்லகாந்தா எஸ்டேட்	බුලත්සිංහල - මතුගම පාර, ඊගල්ඔය, ශ්‍රී ලංකාව	புலத்சிங்கள - மத்துகம வீதி, எகலோயா, இலங்கை
Kalutara	Bulathsinhala	Bulathsinhala Hospital	False	False	KLTRBLTHSNHLBLTHSNHLHSPTL		Kalutara	LK-13	6.577316	80.127363	Bulathsinhala	PS-1302104	6.650425	80.17703	6.644629	80.179311	Nagoda - Kalawellawa - Bellapitiya Rd, Bulathsinhala, Sri Lanka	0.692193		කළුතර	බුලත්සිංහල	බුලත්සිංහල රෝහල	களுத்துறை	புலத்சிங்களா	புலத்சிங்கள மருத்துவமனை	නාගොඩ - කලවැල්ලාව - බෙල්ලපිටිය පාර, බුලත්සිංහල, ශ්‍රී ලංකාව	நாகொட - கலவெல்லாவ - பெல்லபிட்டிய வீதி, புலத்சிங்கள, இலங்கை
Kalutara	Welipenan	Walagedara Maha Vidyalaya	False	False	KLTRWLPNNWLGDRMHVDYLY		Kalutara	LK-13	6.577316	80.127363									#PoliceLocationUnknown	කළුතර	වැලිපැන්නන්	වලගෙදර මහා විද්‍යාලය	களுத்துறை	வெலிபெனன்	வலகெதர மகா வித்தியாலயம்		
Kalutara	Matugama	Katuhena Hospital	False	False	KLTRMTGMKTHNHSPTL		Kalutara	LK-13	6.577316	80.127363	Mathugama	PS-1302103	6.520881	80.117908	6.946064	79.860912	WVW6+99, 213 Jampettah St, Colombo 01300, Sri Lanka	55.159144	#CenterFarFromPolice	කළුතර	මතුගම	කටුහේන රෝහල	களுத்துறை	மத்துகம	கட்டுஹேனா மருத்துவமனை	ඩබ්ලිව්වීඩබ්ලිව් 6+99, 213 ජම්පත්තාව ශාන්ත, කොළඹ 01300, ශ්‍රී ලංකාව	WVW6+99, 213 ஜம்பேட்டா செயின்ட், கொழும்பு 01300, இலங்கை
Kalutara	Matugama	Ananda Vidyalaya	False	False	KLTRMTGMNNDVDYLY		Kalutara	LK-13	6.577316	80.127363	Mathugama	PS-1302103	6.520881	80.117908	6.524298	80.116714	Ananda Sasthralaya Rd, Matugama, Sri Lanka	0.402325		කළුතර	මතුගම	ආනන්ද විද්‍යාලය	களுத்துறை	மத்துகம	ஆனந்த வித்யாலயா	ආනන්ද ශාස්ත්‍රාලය පාර, මතුගම, ශ්‍රී ලංකාව	ஆனந்த சாஸ்திராலயா சாலை, மத்துகம, இலங்கை
Kalutara	Matugama	Weththewa Hospital	False	False	KLTRMTGMWTHTHWHSPTL		Kalutara	LK-13	6.577316	80.127363	Mathugama	PS-1302103	6.520881	80.117908	6.523087	80.125192	District Hospital, Hospital Road,Weththewa,., Matugama, Sri Lanka	0.841523		කළුතර	මතුගම	වෙත්තෑව රෝහල	களுத்துறை	மத்துகம	வெத்தேவா மருத்துவமனை	දිසා රෝහල, රෝහල් පාර, වෙත්තෑව,., මතුගම, ශ්‍රී ලංකාව	மாவட்ட மருத்துவமனை, மருத்துவமனை சாலை, வெத்தேவா,., மத்துகம, இலங்கை
Kalutara	Matugama	Panthiya Vidyalaya	False	False	KLTRMTGMPNTHYVDYLY		Kalutara	LK-13	6.577316	80.127363	Mathugama	PS-1302103	6.520881	80.117908	6.527789	80.094924	Panthiya, Nagoda - Mathugama - Kalawellawa - Bellapitiya Road, Matugama, Sri Lanka	2.653629		කළුතර	මතුගම	පාන්තිය විද්‍යාලය	களுத்துறை	மத்துகம	பாந்தியா வித்யாலயா	පැන්තිය, නාගොඩ - මතුගම - කලවැල්ලාව - බෙල්ලපිටිය පාර, මතුගම, ශ්‍රී ලංකාව	பாந்தியா, நாகொட - மத்துகம - கலவெல்லாவ - பெல்லப்பிட்டிய சாலை, மத்துகம, இலங்கை
Kalutara	Payagala	Technical College – Kalamulla	False	False	KLTRPYGLTCHNCLCLLGKLMLL		Kalutara	LK-13	6.577316	80.127363	Payagala	PS-130298	6.541144	79.974855	6.551872	79.974403	ANGANGODA,PAYAGALA, Temple Rd, Katukurunda, Sri Lanka	1.194319		කළුතර	පයාගල	කාර්මික විද්‍යාලය - කලමුල්ල	களுத்துறை	பயாகலா	தொழில்நுட்பக் கல்லூரி - கலாமுல்லா	අංගංගොඩ, පයාගල, පන්සල පාර, කටුකුරුන්ද, ශ්‍රී ලංකාව	அங்கங்கோடா, பயாகலா, கோவில் வீதி, கட்டுக்குருந்தா, இலங்கை
Kalutara	Payagala	Katukurunda Roman Catholic College	False	False	KLTRPYGLKTKRNDRMNCTHLCCLLG		Kalutara	LK-13	6.577316	80.127363	Payagala	PS-130298	6.541144	79.974855	6.542146	79.971687	St.Mary's Church Kudapayagala payagala Srilanka, A2, Katukurunda, Sri Lanka	0.367395		කළුතර	පයාගල	කටුකුරුන්ද රෝමානු කතෝලික විද්‍යාලය	களுத்துறை	பயாகலா	கட்டுக்குருந்தா ரோமன் கத்தோலிக்க கல்லூரி	ශාන්ත මේරි දේවස්ථානය, කුඩාපායගල පයාගල ශ්‍රී ලංකාව, ඒ 2, කටුකුරුන්ද, ශ්‍රී ලංකාව	செயின்ட் மேரி தேவாலயம் குடபயகலா பயகலா ஸ்ரீலங்கா, ஏ 2, கட்டுக்குருந்தா, இலங்கை
Kalutara	Payagala	Pothuvila Vidyalaya	False	False	KLTRPYGLPTHVLVDYLY		Kalutara	LK-13	6.577316	80.127363	Payagala	PS-130298	6.541144	79.974855	6.519721	79.991523	Yatadola Rd, Maggona, Sri Lanka	3.01179		කළුතර	පයාගල	පොතුවිල විද්‍යාලය	களுத்துறை	பயாகலா	பொதுவிலா வித்தியாலயம்	යටදොළ පාර, මග්ගොන, ශ්‍රී ලංකාව	யடடோலா சாலை, மாகோனா, இலங்கை
Kalutara	Dodangoda	Dodangoda Hospital	False	False	KLTRDDNGDDDNGDHSPTL		Kalutara	LK-13	6.577316	80.127363	Dodangoda	PS-130299	6.553375	80.023569	6.540961	80.036553	Wilpatha Rd, Sri Lanka	1.991373		කළුතර	දොඩන්ගොඩ	දොඩන්ගොඩ රෝහල	களுத்துறை	தொடங்கொட	தொடங்கொட மருத்துவமனை	විල්පත පාර, ශ්‍රී ලංකාව	வில்பதா சாலை, இலங்கை
Kalutara	Kalutara	Nagoda District General Hospital	False	False	KLTRKLTRNGDDSTRCTGNRLHSPTL		Kalutara	LK-13	6.577316	80.127363	Kalutara South		6.584968	79.96102	6.563228	79.985261	Kalutara-Matugama Rd, Sri Lanka	3.608635		කළුතර	කළුතර	නාගොඩ දිසා මහ රෝහල	களுத்துறை	களுத்துறை	நாகோடா மாவட்ட பொது மருத்துவமனை	කළුතර මතුගම පාර, ශ්‍රී ලංකාව	களுத்துறை-மத்துகம வீதி, இலங்கை
Kalutara	Kalutara	NIHS	False	False	KLTRKLTRNHS		Kalutara	LK-13	6.577316	80.127363	Kalutara South		6.584968	79.96102	6.559269	79.973486	Janatha Ln, Kalutara, Sri Lanka	3.173081		කළුතර	කළුතර	NIHS	களுத்துறை	களுத்துறை	என்ஐஎச்எஸ்	ජනතා එන්, කළුතර, ශ්‍රී ලංකාව	ஜனதா எல்என், களுத்துறை, இலங்கை
Kalutara	Kalutara	Dediyawala Clinic	False	False	KLTRKLTRDDYWLCLNC		Kalutara	LK-13	6.577316	80.127363	Kalutara South		6.584968	79.96102	6.615904	79.955894	Unnamed Road, Kalutara, Sri Lanka	3.487308		කළුතර	කළුතර	දැදියාවල සායනය	களுத்துறை	களுத்துறை	தெதியவாலா கிளினிக்	නම් නොකළ පාර, කළුතර, ශ්‍රී ලංකාව	பெயரிடப்படாத சாலை, களுத்துறை, இலங்கை
Kalutara	Bandragama	Mahavil Primary School	False	False	KLTRBNDRGMMHVLPRMRYSCHL		Kalutara	LK-13	6.577316	80.127363	Bandaragama	PS-130189	6.715179	79.987674	6.709543	79.985581	Kalayathana Road, Bandaragama, Sri Lanka	0.668169		කළුතර	බණ්ඩාරගම	මහවිල් ප්‍රාථමික විද්‍යාලය	களுத்துறை	பந்த்ரகம	மகாவில் ஆரம்பப் பள்ளி	කලායතන පාර, බණ්ඩාරගම, ශ්‍රී ලංකාව	கலயத்தன சாலை, பண்டாரகம, இலங்கை
Kalutara	Bandragama	District Hospital - Bandaragama	False	False	KLTRBNDRGMDSTRCTHSPTLBNDRGM		Kalutara	LK-13	6.577316	80.127363	Bandaragama	PS-130189	6.715179	79.987674	6.716162	79.991484	Horana Rd, Bandaragama, Sri Lanka	0.434849		කළුතර	බණ්ඩාරගම	දිසා රෝහල - බණ්ඩාරගම	களுத்துறை	பந்த்ரகம	மாவட்ட மருத்துவமனை - பண்டாரகம	හොරණ පාර, බණ්ඩාරගම, ශ්‍රී ලංකාව	ஹொரானா வீதி, பண்டாரகம, இலங்கை
Kalutara	Bandragama	Weeragaha Viaharaya	False	False	KLTRBNDRGMWRGHVHRY		Kalutara	LK-13	6.577316	80.127363	Bandaragama	PS-130189	6.715179	79.987674	6.712917	80.00252	Southern Expy, Bandaragama, Sri Lanka	1.659181		කළුතර	බණ්ඩාරගම	වීරගහ විහාරය	களுத்துறை	பந்த்ரகம	வீரகஹ வியாஹராய	සදර්න් එක්ස්පී, බණ්ඩාරගම, ශ්‍රී ලංකාව	தெற்கு எக்ஸ்பி, பண்டாரகம, இலங்கை
Kalutara	Bandragama	Batadombathuduwa Community Hall	False	False	KLTRBNDRGMBTDMBTHDWCMMNTYHLL		Kalutara	LK-13	6.577316	80.127363	Bandaragama	PS-130189	6.715179	79.987674	6.73582	79.979262	"301/B, ""Siri, Chandana, Bandaragama 12530, Sri Lanka"	2.476812		කළුතර	බණ්ඩාරගම	බටදොඹතුඩුව ප්‍රජා ශාලාව	களுத்துறை	பந்த்ரகம	படடொம்பதுடுவ சமுதாயக் கூடம்	"301/බී, ""සිරි, චන්දන, බණ්ඩාරගම 12530, ශ්‍රී ලංකාව"	"301/B, ""ஸ்ரீ, சந்தனா, பண்டாரகம 12530, இலங்கை"
Kalutara	Bandragama	Rerukana Maternity Clinic	False	False	KLTRBNDRGMRRKNMTRNTYCLNC		Kalutara	LK-13	6.577316	80.127363	Bandaragama	PS-130189	6.715179	79.987674	6.717718	80.061849	P396+3PQ, Horana, Sri Lanka	8.198716		කළුතර	බණ්ඩාරගම	රේරුකානා මාතෘ සායනය	களுத்துறை	பந்த்ரகம	ரெருகனா மகப்பேறு மருத்துவமனை	P396+3PQ, හොරණ, ශ්‍රී ලංකාව	P396+3PQ, ஹொரணை, இலங்கை
Kalutara	Bandragama	Kolamediriya Viharaya	False	False	KLTRBNDRGMKLMDRYVHRY		Kalutara	LK-13	6.577316	80.127363	Bandaragama	PS-130189	6.715179	79.987674	6.7075	79.991389	Kalutara Rd., Bandaragama., Waskaduwa - Bandaragama Rd, Bandaragama, Sri Lanka	0.947609		කළුතර	බණ්ඩාරගම	කොළමැදිරිය විහාරය	களுத்துறை	பந்த்ரகம	கோலமெதிரியா விஹாராயா	කළුතර පාර, බණ්ඩාරගම., වස්කඩුව - බණ්ඩාරගම පාර, බණ්ඩාරගම, ශ්‍රී ලංකාව	களுத்துறை வீதி, பண்டாரகம., வாஸ்கடுவ - பண்டாரகம வீதி, பண்டாரகம, இலங்கை
Kalutara	Panadura South	Panadura Mahanama Vidyalaya	False	False	KLTRPNDRSTHPNDRMHNMVDYLY		Kalutara	LK-13	6.577316	80.127363	Panadura South	PS-130186	6.720941	79.907315	6.725866	79.907901	PWG5+85R, Panadura, Sri Lanka	0.551618		කළුතර	පානදුර දකුණ	පානදුර මහානාම විද්‍යාලය	களுத்துறை	பாணந்துறை தெற்கு	பாணாதுரா மகாநாம வித்யாலயா	PWG5+85R, පානදුර, ශ්‍රී ලංකාව	PWG5+85R, பாணந்துரா, இலங்கை
Kalutara	Panadura South	Sumangala Boy's College	False	False	KLTRPNDRSTHSMNGLBYSCLLG		Kalutara	LK-13	6.577316	80.127363	Panadura South	PS-130186	6.720941	79.907315	6.710155	79.914215	Sri Sumangala College, Panadura 12500, Sri Lanka	1.421379		කළුතර	පානදුර දකුණ	සුමංගල පිරිමි විද්‍යාලය	களுத்துறை	பாணந்துறை தெற்கு	சுமங்கல பாய்ஸ் கல்லூரி	ශ්‍රී සුමංගල විද්‍යාලය, පානදුර 12500, ශ්‍රී ලංකාව	ஸ்ரீ சுமங்கலா கல்லூரி, பாணந்துரா 12500, இலங்கை
Kurunegala	Kurunegala	Mobile Medical Team	False	False	KRNGLKRNGLMBLMDCLTM		Kurunegala	LK-61	7.66477	80.23677	Kurunegala	PS-610101	7.485852	80.364137					#CenterLocationUnknown	කුරුණෑගල	කුරුණෑගල	ජංගම වෛද්‍ය කණ්ඩායම	குருநாகல்	குருநாகல்	மொபைல் மருத்துவ குழு		
Kurunegala	Kurunegala	Maneloluwa Sri Sudarmaramaya	False	False	KRNGLKRNGLMNLLWSRSDRMRMY		Kurunegala	LK-61	7.66477	80.23677	Kurunegala	PS-610101	7.485852	80.364137	7.451406	80.395785	Maneloluwa Temple, Maneloluwa, Doratiyawa, Kurunegala, Sri Lanka	5.182881		කුරුණෑගල	කුරුණෑගල	මානෙලොළුව ශ්‍රී සුධර්මාරාමය	குருநாகல்	குருநாகல்	மனெலோலுவ ஸ்ரீ சுதர்மராமையா	මානෙලොළුව පන්සල, මානෙලොළුව, දොරටියාව, කුරුණෑගල, ශ්‍රී ලංකාව	மனெலோலுவா கோவில், மனெலோலுவா, டோரடியாவா, குருநாகல், இலங்கை
Kurunegala	Nikaweratiya	MOH Office – Nikaweratiya	False	False	KRNGLNKWRTYMHFFCNKWRTY		Kurunegala	LK-61	7.66477	80.23677	Nikaweratiya	PS-610320	7.742612	80.121177	7.748302	80.113107	MoH office, Nikaweratiya, Sri Lanka	1.091629		කුරුණෑගල	නිකවැරටිය	MOH කාර්යාලය - නිකවැරටිය	குருநாகல்	நிகவெரட்டியா	MOH அலுவலகம் - நிகவெரட்டிய	MoH කාර්යාලය, නිකවැරටිය, ශ්‍රී ලංකාව	MoH அலுவலகம், நிகவெரட்டிய, இலங்கை
Kurunegala	Gokarella	Polgolla Hospital	False	False	KRNGLGKRLLPLGLLHSPTL		Kurunegala	LK-61	7.66477	80.23677	Gokarella	PS-610108	7.59543	80.480081	7.585624	80.475057	A6, Gokarella, Sri Lanka	1.223315		කුරුණෑගල	ගොකරැල්ල	පොල්ගොල්ල රෝහල	குருநாகல்	கோகரெல்லா	பொல்கொல்லா மருத்துவமனை	ඒ 6, ගොකරැල්ල, ශ්‍රී ලංකාව	ஏ 6, கோகரெல்லா, இலங்கை
Kurunegala	Gokarella	Welagala Vidyalaya	False	False	KRNGLGKRLLWLGLVDYLY		Kurunegala	LK-61	7.66477	80.23677	Gokarella	PS-610108	7.59543	80.480081	7.608573	80.419193	wewelagama ibbagamuwa, Nikaweratiya, Sri Lanka	6.870372		කුරුණෑගල	ගොකරැල්ල	වෙලගල විද්‍යාලය	குருநாகல்	கோகரெல்லா	வெலகல வித்தியாலயம்	වේවෙලගම ඉබ්බාගමුව, නිකවැරටිය, ශ්‍රී ලංකාව	வெவெலகம இப்பகமுவ, நிகவெரட்டிய, இலங்கை
Kurunegala	Melsiripura	Walakumbura Maha Vidyalaya	False	False	KRNGLMLSRPRWLKMBRMHVDYLY		Kurunegala	LK-61	7.66477	80.23677									#PoliceLocationUnknown	කුරුණෑගල	මැල්සිරිපුර	වලකුඹුර මහා විද්‍යාලය	குருநாகல்	மேல்சிரிபுரா	வளகும்புர மகா வித்தியாலயம்		
Kurunegala	Melsiripura	Medamulla De Mel Maha Midyalaya	False	False	KRNGLMLSRPRMDMLLDMLMHMDYLY		Kurunegala	LK-61	7.66477	80.23677									#PoliceLocationUnknown	කුරුණෑගල	මැල්සිරිපුර	මැදමුල්ල ද මෙල් මහා මිද්‍යාලය	குருநாகல்	மேல்சிரிபுரா	மெதமுல்ல டி மேல் மகா மித்யாலயா		
Kurunegala	Wellawa	Gane Viharaya	False	False	KRNGLWLLWGNVHRY		Kurunegala	LK-61	7.66477	80.23677	Wellawa	PS-610107	7.554523	80.368896	7.513944	80.370859	G97C+H8H, Kurunegala, Sri Lanka	4.518783		කුරුණෑගල	වැල්ලව	ගනේ විහාරය	குருநாகல்	வெல்லவா	கணே விஹாராயா	ජී 97 සී+එච් 8 එච්, කුරුණෑගල, ශ්‍රී ලංකාව	G97C+H8H, குருநாகல், இலங்கை
Kurunegala	Inguruwatta	Meethenna Vidyalaya	False	False	KRNGLNGRWTTMTHNNVDYLY		Kurunegala	LK-61	7.66477	80.23677	Anguruwatota	PS-130190	6.654997	80.058183	7.494346	80.368997	Dambulla Rd, Kurunegala, Sri Lanka	99.464904	#CenterFarFromPolice	කුරුණෑගල	ඉඟුරුවත්ත	මීතැන්න විද්‍යාලය	குருநாகல்	இங்குருவத்த	மீதென்ன வித்யாலயா	දඹුල්ල පාර, කුරුණෑගල, ශ්‍රී ලංකාව	தம்புள்ளா சாலை, குருநாகல், இலங்கை
Kurunegala	Polgahawela	Al Irfan Vidyalaya	False	False	KRNGLPLGHWLLRFNVDYLY		Kurunegala	LK-61	7.66477	80.23677	Polgahawela	PS-610102	7.333281	80.300363	7.343407	80.30538	Ambepussa - Kurunegala - Trincomalee Hwy, Polgahawela, Sri Lanka	1.254854		කුරුණෑගල	පොල්ගහවෙල	අල් ඉර්ෆාන් විද්‍යාලය	குருநாகல்	பொல்கஹவெல	அல் இர்பான் வித்யாலயா	අඹේපුස්ස - කුරුණෑගල - ත්‍රිකුණාමලය හ්වි, පොල්ගහවෙල, ශ්‍රී ලංකාව	அம்பேபுஸ்ஸா - குருநாகல் - திருகோணமலை ஹ்வி, பொல்கஹவெல, இலங்கை
Kurunegala	Rideegama	Kelemulla Primary School	False	False	KRNGLRDGMKLMLLPRMRYSCHL		Kurunegala	LK-61	7.66477	80.23677	Rideegama	PS-610110	7.589247	80.61027	7.557805	80.473098	HF5F+46H, Kurunegala, Sri Lanka	15.523598		කුරුණෑගල	රිදීගම	කැලේමුල්ල ප්‍රාථමික විද්‍යාලය	குருநாகல்	ரிதேகம	கெலெமுல்லா ஆரம்பப் பள்ளி	එච්එෆ් 5 එෆ්+46 එච්, කුරුණෑගල, ශ්‍රී ලංකාව	HF5F+46H, குருநாகல், இலங்கை
Kurunegala	Rideegama	Dodangaslanada Maha Vidyalaya	False	False	KRNGLRDGMDDNGSLNDMHVDYLY		Kurunegala	LK-61	7.66477	80.23677	Rideegama	PS-610110	7.589247	80.61027	7.537105	80.490915	Ridee Vihara Rd, Ridigama, Sri Lanka	14.381743		කුරුණෑගල	රිදීගම	දොඩංගස්ලනාද මහා විද්‍යාලය	குருநாகல்	ரிதேகம	தோடாங்கஸ்லானடா மகா வித்தியாலயம்	රිදී විහාර පාර, රිදිගම, ශ්‍රී ලංකාව	ரைடி விஹார வீதி, ரிதிகம, இலங்கை
Kurunegala	Rideegama	Delwita Maha Vidyalaya	False	False	KRNGLRDGMDLWTMHVDYLY		Kurunegala	LK-61	7.66477	80.23677	Rideegama	PS-610110	7.589247	80.61027	7.536358	80.465316	GFP8+G4W, Kurunegala, Sri Lanka	17.031225		කුරුණෑගල	රිදීගම	දෙල්විට මහා විද්‍යාලය	குருநாகல்	ரிதேகம	தெல்விட மகா வித்தியாலயம்	GFP8+G4W, කුරුණෑගල, ශ්‍රී ලංකාව	GFP8+G4W, குருநாகல், இலங்கை
Puttalam	Pallama	Wilpatha Anura Vidyalaya	False	False	PTTLMPLLMWLPTHNRVDYLY		Puttalam	LK-62	7.973531	79.913833	Pallama	PS-620132	7.691904	79.922555	7.750387	79.891732	QV2R+5M5, Wilpotha 61008, Sri Lanka	7.338784		පුත්තලම	පල්ලම	විල්පත අනුර විද්‍යාලය	புத்தளம்	பல்லாமா	வில்பதா அனுரா வித்யாலயா	QV2R+5M5, විල්පොත 61008, ශ්‍රී ලංකාව	QV2R+5M5, வில்போதா 61008, இலங்கை
Puttalam	Pallama	Thomarkkulama Community Hall	False	False	PTTLMPLLMTHMRKKLMCMMNTYHLL		Puttalam	LK-62	7.973531	79.913833	Pallama	PS-620132	7.691904	79.922555	7.577257	79.798877	Sinhapura Rd, Chilaw, Sri Lanka	18.668791		පුත්තලම	පල්ලම	තෝමර්ක්කුලම ප්‍රජා ශාලාව	புத்தளம்	பல்லாமா	தோமார்குலமா சமுதாயக் கூடம்	සිංහපුර පාර, හලාවත, ශ්‍රී ලංකාව	சிங்களபுர வீதி, சிலாபம், இலங்கை
Puttalam	Dankotuwa	Bujjampola Vidyalaya	False	False	PTTLMDNKTWBJJMPLVDYLY		Puttalam	LK-62	7.973531	79.913833	Dankotuwa	PS-620246	7.300337	79.882595	7.321665	79.915334	Bujjampola, Dankotuwa-Hettirrippuwa Rd, Sri Lanka	4.321345		පුත්තලම	දන්කොටුව	බුජ්ජම්පොල විද්‍යාලය	புத்தளம்	டாங்கொட்டுவா	புஜ்ஜம்பொல வித்தியாலயம்	බුජ්ජම්පොල, දංකොටුව-හෙට්ටිරිප්පුව පාර, ශ්‍රී ලංකාව	புஜ்ஜம்பொல, டன்கொட்டுவ-ஹெத்திரிரிப்புவ வீதி, இலங்கை
Puttalam	Dankotuwa	Ceylon Catch	False	False	PTTLMDNKTWCYLNCTCH		Puttalam	LK-62	7.973531	79.913833	Dankotuwa	PS-620246	7.300337	79.882595	7.313127	79.916405	Aralugahawatta, Ihalamohottimulla, Bujjampola, Dankotuwa 61130, Sri Lanka	3.992222		පුත්තලම	දන්කොටුව	සිලෝන් කැච්	புத்தளம்	டாங்கொட்டுவா	சிலோன் கேட்ச்	අරළුගහවත්ත, ඉහළමොහොටිමුල්ල, බුජ්ජම්පොල, දංකොටුව 61130, ශ්‍රී ලංකාව	அரலுகஹவத்த, Ihalamohottimulla, Bujjampola, Dankotuwa 61130, Sri Lanka
Puttalam	Dankotuwa	Hemas Factory	False	False	PTTLMDNKTWHMSFCTRY		Puttalam	LK-62	7.973531	79.913833	Dankotuwa	PS-620246	7.300337	79.882595	7.315172	79.917756	P.O. Box 01, Bujjampola, Sri Lanka	4.215553		පුත්තලම	දන්කොටුව	හේමාස් කර්මාන්ත ශාලාව	புத்தளம்	டாங்கொட்டுவா	ஹேமாஸ் தொழிற்சாலை	තැ.කා.සි. කොටුව 01, බුජ්ජම්පොල, ශ්‍රී ලංකාව	P.O. பெட்டி 01, புஜ்ஜம்பொல, இலங்கை
Puttalam	Koswatta	Al Hira Maha Vidyalaya	False	False	PTTLMKSWTTLHRMHVDYLY		Puttalam	LK-62	7.973531	79.913833	Koswatta	PS-620244	7.374528	79.898302	7.381293	79.873432	Toppuwa - Madampe Rd, Ihala Kottaramulla, Sri Lanka	2.844708		පුත්තලම	කොස්වත්ත	අල් හිරා මහා විද්‍යාලය	புத்தளம்	கொஸ்வத்த	அல் ஹிரா மகா வித்தியாலயம்	තොප්පුව - මාදම්පේ පාර, ඉහළ කොට්ටාරමුල්ල, ශ්‍රී ලංකාව	தொப்புவா - மாதம்பே வீதி, உயர் கொட்டாரமுல்ல, இலங்கை
Puttalam	Koswatta	Morakele Vidyalaya	False	False	PTTLMKSWTTMRKLVDYLY		Puttalam	LK-62	7.973531	79.913833	Koswatta	PS-620244	7.374528	79.898302	6.886762	80.121921	Morakele, Pinnawala, Sri Lanka	59.604116	#CenterFarFromPolice	පුත්තලම	කොස්වත්ත	මොරකැලේ විද්‍යාලය	புத்தளம்	கொஸ்வத்த	மொரகேலே வித்யாலயா	මොරකැලේ, පින්නවල, ශ්‍රී ලංකාව	மொரகேலே, பின்வாலா, இலங்கை
Puttalam	Karuwalagaswewa	Anadarawewa Vidyalaya	False	False	PTTLMKRWLGSWWNDRWWVDYLY		Puttalam	LK-62	7.973531	79.913833	Karuwalagaswewa	PS-620135	8.055066	79.955817	8.056545	79.959532	Trincomalee Road, Karuwalagaswewa, Sri Lanka	0.440976		පුත්තලම	කරුවලගස්වැව	ආනදරවැව විද්‍යාලය	புத்தளம்	கருவலகஸ்வெவ	அனதரவெவ வித்தியாலயம்	ත්‍රිකුණාමලය පාර, කරුවලගස්වැව, ශ්‍රී ලංකාව	திருகோணமலை சாலை, கருவலகஸ்வெவ, இலங்கை
Puttalam	Karuwalagaswewa	Nawagaththegama Hospital	False	False	PTTLMKRWLGSWWNWGTHTHGMHSPTL		Puttalam	LK-62	7.973531	79.913833	Karuwalagaswewa	PS-620135	8.055066	79.955817	8.056545	79.959532	Trincomalee Road, Karuwalagaswewa, Sri Lanka	0.440976		පුත්තලම	කරුවලගස්වැව	නවගත්තේගම රෝහල	புத்தளம்	கருவலகஸ்வெவ	நவகத்தேகம மருத்துவமனை	ත්‍රිකුණාමලය පාර, කරුවලගස්වැව, ශ්‍රී ලංකාව	திருகோணமலை சாலை, கருவலகஸ்வெவ, இலங்கை
Puttalam	Karuwalagaswewa	Kele Wewa Vidyalata	False	False	PTTLMKRWLGSWWKLWWVDYLT		Puttalam	LK-62	7.973531	79.913833	Karuwalagaswewa	PS-620135	8.055066	79.955817	8.025991	79.847127	Puttalam, Sri Lanka	12.39985		පුත්තලම	කරුවලගස්වැව	කැලේ වැව විද්‍යාලය	புத்தளம்	கருவலகஸ்வெவ	கெலே வெவா வித்யாலதா	පුත්තලම, ශ්‍රී ලංකාව	புத்தளம், இலங்கை
Puttalam	Karuwalagaswewa	Konkawala Vidyalaya	False	False	PTTLMKRWLGSWWKNKWLVDYLY		Puttalam	LK-62	7.973531	79.913833	Karuwalagaswewa	PS-620135	8.055066	79.955817	8.056545	79.959532	Trincomalee Road, Karuwalagaswewa, Sri Lanka	0.440976		පුත්තලම	කරුවලගස්වැව	කොන්කවල විද්‍යාලය	புத்தளம்	கருவலகஸ்வெவ	கொங்கவாலா வித்யாலயா	ත්‍රිකුණාමලය පාර, කරුවලගස්වැව, ශ්‍රී ලංකාව	திருகோணமலை சாலை, கருவலகஸ்வெவ, இலங்கை
Kandy	Hasalaka	Ranasingha Pemadasa National College	False	False	KNDYHSLKRNSNGHPMDSNTNLCLLG		Kandy	LK-21	7.27337	80.709602	Hasalaka	PS-210362	7.353096	80.95444	7.349827	80.950564	Kandy-Mahiyangane-Padiyatalawa Hwy, Hasalaka, Sri Lanka	0.561284		මහනුවර	හසලක	රණසිංහ පේමදාස ජාතික විද්‍යාලය	கண்டி	ஹசலகா	ரணசிங்க பெமதாச தேசிய கல்லூரி	මහනුවර-මහියංගනේ-පදියතලාව හ්වි, හසලක, ශ්‍රී ලංකාව	கண்டி-மஹியங்கனே-படையடலாவா ஹ்வி, ஹசலகா, இலங்கை
Kandy	Wattegama	Wattegama Balika Vidyalaya	False	False	KNDYWTTGMWTTGMBLKVDYLY		Kandy	LK-21	7.27337	80.709602	Wattegama	PS-210357	7.350603	80.68335	7.351534	80.682953	Pitiyagedera - Wattegama - Iriyagastenne Rd, Wattegama, Sri Lanka	0.112435		මහනුවර	වත්තේගම	වත්තේගම බාලිකා විද්‍යාලය	கண்டி	வட்டேகம	வட்டேகம பாலிகா வித்தியாலயம்	පිටියගෙදර - වත්තේගම - ඊරියගස්තැන්න පාර, වත්තේගම, ශ්‍රී ලංකාව	பிட்டியகெடெரா - வட்டேகம - இரியாகஸ்டென் சாலை, வட்டேகம, இலங்கை
Kandy	Wattegama	Walala A.Rathnayake Central College	False	False	KNDYWTTGMWLLRTHNYKCNTRLCLLG		Kandy	LK-21	7.27337	80.709602	Wattegama	PS-210357	7.350603	80.68335	7.318909	80.693359	8M9V+H89, Menikhinna, Sri Lanka	3.694199		මහනුවර	වත්තේගම	වලල ඒ. රත්නායක මධ්‍ය මහා විද්‍යාලය	கண்டி	வட்டேகம	வாலாலா ஏ.ரத்நாயக்க மத்திய கல்லூரி	8 එම් 9 වී+එච් 89, මැණික්හින්න, ශ්‍රී ලංකාව	8M9V+H89, மெனிகின்னா, இலங்கை
Kandy	Nawalapitiya	Al Noor Vidyalaya	False	False	KNDYNWLPTYLNRVDYLY		Kandy	LK-21	7.27337	80.709602	Nawalapitiya	PS-210219	7.057355	80.536075	7.055504	80.572411	Nawalapitiya - Harangala Rd, Hapugastalawa, Sri Lanka	4.016315		මහනුවර	නාවලපිටිය	අල් නූර් විද්‍යාලය	கண்டி	நாவலப்பிட்டி	அல் நூர் வித்யாலயா	නාවලපිටිය - හරංගල පාර, හපුගස්තලාව, ශ්‍රී ලංකාව	நாவலப்பிட்டிய - ஹரங்கல வீதி, ஹபுகஸ்தலாவா, இலங்கை
Kandy	Nawa Kuruduwatta	Kurunduwaththa Royal College	False	False	KNDYNWKRDWTTKRNDWTHTHRYLCLLG		Kandy	LK-21	7.27337	80.709602	Nawa Kurunduwatta	PS-210218	7.126357	80.530286	7.130783	80.533673	Gampola, Kurunduwaththa Rd, kurunduwaththa 20509, Sri Lanka	0.618148		මහනුවර	නව කුරුදුවත්ත	කුරුඳුවත්ත රාජකීය විද්‍යාලය	கண்டி	நவ குருடுவத்த	குருந்துவத்த ராயல் கல்லூரி	ගම්පොල, කුරුඳුවත්ත පාර, කුරුඳුවත්ත 20509, ශ්‍රී ලංකාව	கம்போலா, குருந்துவத்த வீதி, குருந்துவத்த 20509, இலங்கை
Kandy	Gampola	Udagama Saranapala Vidyalaya	False	False	KNDYGMPLDGMSRNPLVDYLY		Kandy	LK-21	7.27337	80.709602	Gampola	PS-210216	7.132941	80.56799	7.122536	80.566502	Udagama, Ulapane, Kandy Rd, Sri Lanka	1.168941		මහනුවර	ගම්පොල	උඩගම සරණපාල විද්‍යාලය	கண்டி	கம்போலா	உடகம சரணபால வித்தியாலயம்	උඩගම, උලපනේ, මහනුවර පාර, ශ්‍රී ලංකාව	உதகம, உலபனே, கண்டி வீதி, இலங்கை
Kandy	Gampola	Wickramabahu National College	False	False	KNDYGMPLWCKRMBHNTNLCLLG		Kandy	LK-21	7.27337	80.709602	Gampola	PS-210216	7.132941	80.56799	7.153925	80.563839	Nawalapitiya Road, Gampola 20500, Sri Lanka, Sri Lanka	2.378605		මහනුවර	ගම්පොල	වික්‍රමබාහු ජාතික විද්‍යාලය	கண்டி	கம்போலா	விக்கிரமபாகு தேசிய கல்லூரி	නාවලපිටිය පාර, ගම්පොල 20500, ශ්‍රී ලංකාව, ශ්‍රී ලංකාව	நாவலப்பிட்டி சாலை, கம்போலா 20500, இலங்கை, இலங்கை
Kandy	Hatharaliyadda	Hatharaliyadda Maha Vidyalaya	False	False	KNDYHTHRLYDDHTHRLYDDMHVDYLY		Kandy	LK-21	7.27337	80.709602	Hatharaliyadda	PS-210106	7.336886	80.471814	7.33578	80.471154	Hatharaliyadda, Sri Lanka	0.142952		මහනුවර	හතරලියද්ද	හතරලියද්ද මහා විද්‍යාලය	கண்டி	ஹதரலியத்த	ஹதரலியத்த மகா வித்தியாலயம்	හතරලියද්ද, ශ්‍රී ලංකාව	ஹதரலியத்த, இலங்கை
Kandy	Galagedara	Galagedara Primary School	False	False	KNDYGLGDRGLGDRPRMRYSCHL		Kandy	LK-21	7.27337	80.709602	Galagedara	PS-210105	7.373683	80.526154	7.372282	80.519196	B122, Galagedara, Sri Lanka	0.783198		මහනුවර	ගලගෙදර	ගලගෙදර ප්‍රාථමික විද්‍යාලය	கண்டி	கலகெதரா	கலகெதரா ஆரம்பப் பள்ளி	බී 122, ගලගෙදර, ශ්‍රී ලංකාව	பி 122, கலகெதரா, இலங்கை
Kandy	Galagedara	Galagedara Sujatha Balika Vidyalaya	False	False	KNDYGLGDRGLGDRSJTHBLKVDYLY		Kandy	LK-21	7.27337	80.709602	Galagedara	PS-210105	7.373683	80.526154	7.372389	80.518839	B122, Galagedara, Sri Lanka	0.819655		මහනුවර	ගලගෙදර	ගලගෙදර සුජාතා බාලිකා විද්‍යාලය	கண்டி	கலகெதரா	கலகெதர சுஜாதா பாலிகா வித்யாலயா	බී 122, ගලගෙදර, ශ්‍රී ලංකාව	பி 122, கலகெதரா, இலங்கை
Kandy	Rattota	Hunugala Clinic	False	False	KNDYRTTTHNGLCLNC		Kandy	LK-21	7.27337	80.709602	Rattota	PS-220122	7.520684	80.678809	7.274443	80.611134	907 Peradeniya Rd, Kandy 20000, Sri Lanka	28.388374	#CenterFarFromPolice	මහනුවර	රත්තොට	හුණුගල සායනය	கண்டி	ரத்தோட்டா	ஹுனுகலா கிளினிக்	907 පේරාදෙණිය පාර, මහනුවර 20000, ශ්‍රී ලංකාව	907 பேராதெனிய சாலை, கண்டி 20000, இலங்கை
Kandy	Rattota	Rattota Hospital	False	False	KNDYRTTTRTTTHSPTL		Kandy	LK-21	7.27337	80.709602	Rattota	PS-220122	7.520684	80.678809	7.518413	80.676557	GM9G+9J7, Rattota, Sri Lanka	0.35423		මහනුවර	රත්තොට	රත්තොට රෝහල	கண்டி	ரத்தோட்டா	ரத்தோட்டா மருத்துவமனை	GM9G+9J7, රත්තොට, ශ්‍රී ලංකාව	GM9G+9J7, ரத்தோட்டா, இலங்கை
Matale	Mahawela	Pallepola Hospital	False	False	MTLMHWLPLLPLHSPTL		Matale	LK-22	7.667587	80.731008	Mahawela	PS-220123	7.589247	80.61027	7.627907	80.606017	Pallepola 21000, Sri Lanka	4.325634		මාතලේ	මහවෙල	පල්ලෙපොල රෝහල	மாத்தளை	மகாவெல	பல்லெபோலா மருத்துவமனை	පල්ලේපොල 21000, ශ්‍රී ලංකාව	பல்லெபோலா 21000, இலங்கை
Badulla	Passara	Passara National College	False	False	BDLLPSSRPSSRNTNLCLLG		Badulla	LK-81	7.074529	81.04486	Passara	PS-810102	6.934481	81.154796	6.940355	81.167392	Peradeniya-Badulla-Chenkaladi Hwy, Passara, Sri Lanka	1.536617		බදුල්ල	පස්සර	පස්සර ජාතික විද්‍යාලය	பதுளை	பசர	பசாரா தேசிய கல்லூரி	පේරාදෙණිය-බදුල්ල-චෙන්කලාඩි හ්වි, පස්සර, ශ්‍රී ලංකාව	பேராதனை-பதுளை-செங்கலடி ஹ்வி, பசர, இலங்கை
Badulla	Mahiyanganaya	Dehigolla Vidyalaya	False	False	BDLLMHYNGNYDHGLLVDYLY		Badulla	LK-81	7.074529	81.04486	Mahiyangane	PS-810105	7.334975	80.993108	7.333521	81.02095	A26, Dehigolla, Sri Lanka	3.075778		බදුල්ල	මහියංගනය	දෙහිගොල්ල විද්‍යාලය	பதுளை	மஹியங்கனாய	தெஹிகொல்லா வித்தியாலயம்	ඒ 26, දෙහිගොල්ල, ශ්‍රී ලංකාව	ஏ 26, தெஹிகொல்லா, இலங்கை
Badulla	Rideemaliyadda	MOH Office – Rideemaliyadda	False	False	BDLLRDMLYDDMHFFCRDMLYDD		Badulla	LK-81	7.074529	81.04486	Rideemaliyadda		7.214807	81.124613	7.236705	81.107802	B57, Uraniya, Sri Lanka	3.061673		බදුල්ල	රිදීමාලියද්ද	MOH කාර්යාලය - රිදීමාලියද්ද	பதுளை	ரிடிமாலியத்த	MOH அலுவலகம் - Rideemaliyadda	බී 57, යුරේනිය, ශ්‍රී ලංකාව	பி 57, யுரேனியா, இலங்கை
Badulla	Kahataruppa	Kahataruppa Hospital	False	False	BDLLKHTRPPKHTRPPHSPTL		Badulla	LK-81	7.074529	81.04486									#PoliceLocationUnknown	බදුල්ල	කහටරුප්ප	කහටරුප්ප රෝහල	பதுளை	கஹடருப்பா	கஹடருப்பா மருத்துவமனை		
Badulla	Badulla	Base Hospital - Badulla	False	False	BDLLBDLLBSHSPTLBDLL		Badulla	LK-81	7.074529	81.04486	Badulla	PS-810101	6.991337	81.055246	6.991808	81.05235	Daya Gunasekara Mawatha, Badulla, Sri Lanka	0.32399		බදුල්ල	බදුල්ල	මූලික රෝහල - බදුල්ල	பதுளை	பதுளை	அடிப்படை மருத்துவமனை - பதுளை	දයා ගුණසේකර මාවත, බදුල්ල, ශ්‍රී ලංකාව	தயா குணசேகர மாவத்தை, பதுளை, இலங்கை
Badulla	Haputale	Haputale Hospital	False	False	BDLLHPTLHPTLHSPTL		Badulla	LK-81	7.074529	81.04486	Haputale	PS-810215	6.767653	80.957218	6.772723	80.956317	Haputale -Bandarawela, Diyatalawa, Sri Lanka	0.57263		බදුල්ල	හපුතලේ	හපුතලේ රෝහල	பதுளை	ஹப்புதலே	ஹப்புத்தளை மருத்துவமனை	හපුතලේ -බණ්ඩාරවෙල, දියතලාව, ශ්‍රී ලංකාව	ஹப்புதலே -பண்டாரவளை, தியத்தலாவ, இலங்கை
Badulla	Haputale	Base Hospital Diyatalawa	False	False	BDLLHPTLBSHSPTLDYTLW		Badulla	LK-81	7.074529	81.04486	Haputale	PS-810215	6.767653	80.957218	6.80555	80.956366	12 Fair Rd, Diyatalawa, Sri Lanka	4.216327		බදුල්ල	හපුතලේ	දියතලාව මූලික රෝහල	பதுளை	ஹப்புதலே	தியத்தலாவ அடிப்படை மருத்துவமனை	12 සාධාරණ පාර, දියතලාව, ශ්‍රී ලංකාව	12 சிகப்பு சாலை, தியத்தலாவா, இலங்கை
Badulla	Ella	MOH Office – Ella	False	False	BDLLLLMHFFCLL		Badulla	LK-81	7.074529	81.04486	Ella	PS-810211	6.876609	81.048276	6.779645	80.964114	QXH7+WC4, Badulla, Sri Lanka	14.237912		බදුල්ල	ඇලා	MOH කාර්යාලය - ඇල්ල	பதுளை	எல்ல	MOH அலுவலகம் - எல்ல	QXH7+WC4, බදුල්ල, ශ්‍රී ලංකාව	QXH7+WC4, பதுளை, இலங்கை
Badulla	Ella	Demodara Hospital	False	False	BDLLLLDMDRHSPTL		Badulla	LK-81	7.074529	81.04486	Ella	PS-810211	6.876609	81.048276	6.900561	81.057232	W324+6VH, Demodara, Sri Lanka	2.841818		බදුල්ල	ඇලා	දෙමෝදර රෝහල	பதுளை	எல்ல	தெமோதரா மருத்துவமனை	ඩබ්ලිව් 324+6 වීඑච්, දෙමෝදර, ශ්‍රී ලංකාව	W324+6VH, தெமோதரா, இலங்கை
Badulla	Haliela	Etampitiaya Hospital	False	False	BDLLHLLTMPTYHSPTL		Badulla	LK-81	7.074529	81.04486	Haliela	PS-810108	6.958216	81.034447	6.934746	80.989784	Etampitiya Rd, Sri Lanka	5.579755		බදුල්ල	හාලිලා	ඇටම්පිටිය රෝහල	பதுளை	ஹாலீலா	எடம்பிட்டிய மருத்துவமனை	ඇටම්පිටිය පාර, ශ්‍රී ලංකාව	இடம்பிட்டிய சாலை, இலங்கை
Badulla	Haliela	Bogoda Maha Vidyalaya	False	False	BDLLHLLBGDMHVDYLY		Badulla	LK-81	7.074529	81.04486	Haliela	PS-810108	6.958216	81.034447	7.003423	81.004783	2233+9W7, Ketawala, Sri Lanka	6.000782		බදුල්ල	හාලිලා	බෝගොඩ මහා විද්‍යාලය	பதுளை	ஹாலீலா	போகோடா மகா வித்தியாலயம்	2233+9W7, කැටවල, ශ්‍රී ලංකාව	2233+9W7, கெட்டவாலா, இலங்கை
Badulla	Haliela	Wepaswela Maha Vidyalaya	False	False	BDLLHLLWPSWLMHVDYLY		Badulla	LK-81	7.074529	81.04486	Haliela	PS-810108	6.958216	81.034447	6.951162	81.03182	Bandarawela - Badulla Rd, Hali-ela, Sri Lanka	0.836511		බදුල්ල	හාලිලා	වේපස්වෙල මහා විද්‍යාලය	பதுளை	ஹாலீலா	வெபஸ்வெல மகா வித்தியாலயம்	බණ්ඩාරවෙල - බදුල්ල පාර, හාලි ඇල, ශ්‍රී ලංකාව	பண்டாரவளை - பதுல்லா சாலை, ஹாலி -எல, இலங்கை
Badulla	Haliela	Spring Valley Hospital	False	False	BDLLHLLSPRNGVLLYHSPTL		Badulla	LK-81	7.074529	81.04486	Haliela	PS-810108	6.958216	81.034447					#CenterLocationUnknown	බදුල්ල	හාලිලා	ස්ප්‍රිං වැලී රෝහල	பதுளை	ஹாலீலா	வசந்த பள்ளத்தாக்கு மருத்துவமனை		
Badulla	Haliela	Haliela Sariputta Vidyalaya	False	False	BDLLHLLHLLSRPTTVDYLY		Badulla	LK-81	7.074529	81.04486	Haliela	PS-810108	6.958216	81.034447	6.947643	81.027144	Sri Lanka, Hali-ela, Sri Lanka	1.425915		බදුල්ල	හාලිලා	හාලිඇල සාරිපුත්ත විද්‍යාලය	பதுளை	ஹாலீலா	ஹாலீலா சரிபுத்த வித்யாலயா	ශ්‍රී ලංකාව, හාලි ඇල, ශ්‍රී ලංකාව	இலங்கை, ஹாலி-எல, இலங்கை
Badulla	Haldummulla	Haldummulla Hospital	False	False	BDLLHLDMMLLHLDMMLLHSPTL		Badulla	LK-81	7.074529	81.04486	Haldummulla		6.762216	80.885856	6.758168	80.879938	Colombo - Ratnapura - Wellawaya - Batticaloa Rd, Sri Lanka	0.793746		බදුල්ල	හල්දුම්මුල්ල	හල්දුම්මුල්ල රෝහල	பதுளை	ஹல்தும்முல்லா	ஹல்துமுல்லா மருத்துவமனை	කොළඹ - රත්නපුර - වැල්ලවාය - මඩකලපුව පාර, ශ්‍රී ලංකාව	கொழும்பு - இரத்தினபுரி - வெள்ளவாய - மட்டக்களப்பு வீதி, இலங்கை
Badulla	Haldummulla	District Hospital Koslanada	False	False	BDLLHLDMMLLDSTRCTHSPTLKSLND		Badulla	LK-81	7.074529	81.04486	Haldummulla		6.762216	80.885856	6.772723	80.956317	Haputale -Bandarawela, Diyatalawa, Sri Lanka	7.870127		බදුල්ල	හල්දුම්මුල්ල	කොස්ලනාද දිස්ත්‍රික් රෝහල	பதுளை	ஹல்தும்முல்லா	கோஸ்லானடா மாவட்ட மருத்துவமனை	හපුතලේ -බණ්ඩාරවෙල, දියතලාව, ශ්‍රී ලංකාව	ஹப்புதலே -பண்டாரவளை, தியத்தலாவ, இலங்கை
Badulla	Welimada	MOH Office - Welimada	False	False	BDLLWLMDMHFFCWLMD		Badulla	LK-81	7.074529	81.04486	Welimada	PS-810212	6.900481	80.905809	6.927934	80.896475	Udapussellawa-Welimada Road, Ambagasdowa, Sri Lanka	3.222841		බදුල්ල	වැලිමඞ	MOH කාර්යාලය - වැලිමඩ	பதுளை	வெலிமடா	MOH அலுவலகம் - வெலிமடை	උඩපුස්සැල්ලාව-වැලිමඩ පාර, අඹගස්දෝව, ශ්‍රී ලංකාව	உடபுசெல்லவா-வெலிமட சாலை, அம்பகஸ்தோவா, இலங்கை
Badulla	Welimada	Bogahakumbura Hospital	False	False	BDLLWLMDBGHKMBRHSPTL		Badulla	LK-81	7.074529	81.04486	Welimada	PS-810212	6.900481	80.905809	6.862306	80.875527	B48, Sri Lanka	5.404861		බදුල්ල	වැලිමඞ	බෝගහකුඹුර රෝහල	பதுளை	வெலிமடா	போகஹகும்புரா மருத்துவமனை	බී 48, ශ්‍රී ලංකාව	பி 48, இலங்கை
Badulla	Bandarawela	MOH Office - Bandarawela	False	False	BDLLBNDRWLMHFFCBNDRWL		Badulla	LK-81	7.074529	81.04486	Bandarawela	PS-810210	6.831526	80.986784	6.841272	80.98482	Hospital Junction Helamuduna Bus Stop, Etampitiya Rd, Bandarawela, Sri Lanka	1.105533		බදුල්ල	බණ්ඩාරවෙල	MOH කාර්යාලය - බණ්ඩාරවෙල	பதுளை	பண்டாரவளை	MOH அலுவலகம் - பண்டாரவளை	රෝහල් හන්දිය හෙළමුදුන බස් නැවතුම, ඇටම්පිටිය පාර, බණ්ඩාරවෙල, ශ්‍රී ලංකාව	மருத்துவமனை சந்திப்பு ஹெலமுதுனா பேருந்து நிறுத்தம், இடம்பிட்டிய சாலை, பண்டாரவளை, இலங்கை
Badulla	Bandarawela	Municipal Council - Bandarawela	False	False	BDLLBNDRWLMNCPLCNCLBNDRWL		Badulla	LK-81	7.074529	81.04486	Bandarawela	PS-810210	6.831526	80.986784	6.832052	80.987194	Esplanade Road Beragala-Hali Ela Highway, Bandarawela 90100, Sri Lanka	0.073982		බදුල්ල	බණ්ඩාරවෙල	නගර සභාව - බණ්ඩාරවෙල	பதுளை	பண்டாரவளை	மாநகர சபை - பண்டாரவளை	එස්ප්ලනාඩ් පාර බෙරගල-හාලි ඇල අධිවේගී මාර්ගය, බණ්ඩාරවෙල 90100, ශ්‍රී ලංකාව	எஸ்ப்ளனேட் சாலை பெரகலா-ஹாலி எல நெடுஞ்சாலை, பண்டாரவளை 90100, இலங்கை
Badulla	Uva Paranagama	Uva Paranagama Hospital	False	False	BDLLVPRNGMVPRNGMHSPTL	Divisional Hospital - Uva Paranagama	Badulla	LK-81	7.074529	81.04486	Uvaparanagama	PS-810213	6.958341	80.930364	6.938076	80.890525	Rendapola-Galahagama-Ambagasdowa Rd, Himbiliyagahamadiththa, Sri Lanka	4.942648		බදුල්ල	Vaව පරණගම	ප්‍රාදේශීය රෝහල - vaව පරණගම	பதுளை	ஊவ பரணகம	பிரதேச மருத்துவமனை - ஊவா பரணகம	රෙන්ඳපොල-ගලහගම-අඹගස්දෝව පාර, හිම්බිලියගහමදිත්ත, ශ්‍රී ලංකාව	ரெண்டபொல-கலஹகம-அம்பகஸ்தோவ வீதி, ஹிம்பிலியகஹமாதித்த, இலங்கை
Moneragala	Bibila	Bibila Cultural Centre	False	False	MNRGLBBLBBLCLTRLCNTR		Moneragala	LK-82	6.787517	81.303744	Bibila	PS-820125	7.165232	81.225463	7.162409	81.22159	Bibile, Sri Lanka	0.530371		මොණරාගල	බිබිල	බිබිල සංස්කෘතික මධ්‍යස්ථානය	மொனராகலை	பிபிலா	பிபிலா கலாச்சார மையம்	බිබිලේ, ශ්‍රී ලංකාව	பிபிலே, இலங்கை
Moneragala	Govidupura	Pallewela Maha Vidyalaya	False	False	MNRGLGVDPRPLLWLMHVDYLY		Moneragala	LK-82	6.787517	81.303744									#PoliceLocationUnknown	මොණරාගල	ගොවිදුපුර	පල්ලෙවෙල මහා විද්‍යාලය	மொனராகலை	கோவிடுபுரா	பல்லேவெல மகா வித்தியாலயம்		
Moneragala	Ethimale	Vilaoya Maha Vidyalaya	False	False	MNRGLTHMLVLYMHVDYLY		Moneragala	LK-82	6.787517	81.303744	Athimale	PS-820124	6.907289	79.863819	6.823721	81.535717	Ethimale, Sri Lanka	184.865198	#CenterFarFromPolice	මොණරාගල	ඇතිමලේ	විලඔය මහා විද්‍යාලය	மொனராகலை	எதிமலை	விளோயா மகா வித்தியாலயம்	ඇතිමලේ, ශ්‍රී ලංකාව	எதிமலை, இலங்கை
Moneragala	Dambagalla	Obbegoda Maha Vidyalaya	False	False	MNRGLDMBGLLBBGDMHVDYLY		Moneragala	LK-82	6.787517	81.303744	Dambagalla	PS-820123	6.978806	81.372037	6.925916	81.351185	W9G2+9F7, Monaragala, Sri Lanka	6.317411		මොණරාගල	දඹගල්ල	ඔබෙගොඩ මහා විද්‍යාලය	மொனராகலை	தம்பகல்லா	ஒபேகொட மகா வித்தியாலயம்	W9G2+9F7, මොනරාගල, ශ්‍රී ලංකාව	W9G2+9F7, மொனராகலை, இலங்கை
Moneragala	Dambagalla	Aralawinna Community Hall	False	False	MNRGLDMBGLLRLWNNCMMNTYHLL		Moneragala	LK-82	6.787517	81.303744	Dambagalla	PS-820123	6.978806	81.372037	6.974657	81.371953	Madulla,Monaragala, Sri Lanka	0.461586		මොණරාගල	දඹගල්ල	අරලවින්න ප්‍රජා ශාලාව	மொனராகலை	தம்பகல்லா	அரலவின்னா சமுதாயக் கூடம்	මඩුල්ල, මොනරාගල, ශ්‍රී ලංකාව	மடுல்லா, மொனராகலை, இலங்கை
Moneragala	Dambagalla	Madulla Maha Vidyalaya	False	False	MNRGLDMBGLLMDLLMHVDYLY		Moneragala	LK-82	6.787517	81.303744	Dambagalla	PS-820123	6.978806	81.372037	6.961757	81.371229	X96C+PF5, Dambagalla, Sri Lanka	1.898455		මොණරාගල	දඹගල්ල	මඩුල්ල මහා විද්‍යාලය	மொனராகலை	தம்பகல்லா	மடுல்லா மகா வித்தியாலயம்	X96C+PF5, දඹගල්ල, ශ්‍රී ලංකාව	X96C+PF5, தம்பகல்லா, இலங்கை
Galle	Yakkalamulla	Newungala Primary School	False	False	GLLYKKLMLLNWNGLPRMRYSCHL		Galle	LK-31	6.222805	80.251977	Yakkalamulla	PS-310125	6.106186	80.348152					#CenterLocationUnknown	ගාල්ල	යක්කලමුල්ල	නවුංගල ප්‍රාථමික විද්‍යාලය	காலி	யக்கலாமுல்லா	நியூங்கலா ஆரம்பப் பள்ளி		
Galle	Pitigala	Amugoda Maha Vidyalaya	False	False	GLLPTGLMGDMHVDYLY		Galle	LK-31	6.222805	80.251977	Pitigala	PS-310237	6.335202	80.221149	6.321661	80.218624	B14, Amugoda, Sri Lanka	1.531812		ගාල්ල	පිටිගල	අමුගොඩ මහා විද්යාලය	காலி	பிடிகலா	அமுகொட மகா வித்தியாலயம்	බී 14, අමුගොඩ, ශ්‍රී ලංකාව	பி 14, அமுகொட, இலங்கை
Galle	Elpitiya	Aviththawa Nalanda Vidyalaya	False	False	GLLLPTYVTHTHWNLNDVDYLY		Galle	LK-31	6.222805	80.251977	Elpitiya	PS-310235	6.279163	80.142917	6.349446	80.151126	Avittava - Elpitiya Rd, Sri Lanka	7.870069		ගාල්ල	ඇල්පිටිය	අවිත්තව නාලන්දා විද්‍යාලය	காலி	எல்பிட்டிய	அவித்வா நாலந்தா வித்யாலயா	අවිත්තාව - ඇල්පිටිය පාර, ශ්‍රී ලංකාව	அவிட்டவா - எல்பிட்டிய சாலை, இலங்கை
Galle	Habaraduwa	Katukurunda Dharamika Maha Vidyalaya	False	False	GLLHBRDWKTKRNDDHRMKMHVDYLY		Galle	LK-31	6.222805	80.251977	Habaraduwa	PS-310127	5.9871	80.327098	6.002705	80.309994	Habaraduwa, Sri Lanka	2.567631		ගාල්ල	හබරාදුව	කටුකුරුන්ද ධරමික මහා විද්‍යාලය	காலி	ஹபராடுவா	கட்டுக்குருந்த தருமிகா மகா வித்தியாலயம்	හබරාදූව, ශ්‍රී ලංකාව	ஹபரதுவா, இலங்கை
Galle	Rathgama	Rathgama Sirisumana Vidyalaya	False	False	GLLRTHGMRTHGMSRSMNVDYLY		Galle	LK-31	6.222805	80.251977	Ratgama	PS-310121	6.145115	80.099693	6.091926	80.140349	A2, Rathgama, Sri Lanka	7.430887		ගාල්ල	රත්ගම	රත්ගම සිරිසුමන විද්‍යාලය	காலி	ரத்கம	ரத்கம சிறிசுமண வித்தியாலயம்	ඒ 2, රත්ගම, ශ්‍රී ලංකාව	ஏ 2, ரத்கம, இலங்கை
Galle	Galle	Piyadigama Sudarshanaramaya	False	False	GLLGLLPYDGMSDRSHNRMY		Galle	LK-31	6.222805	80.251977	Galle	PS-310120	6.032983	80.21714	6.05366	80.190853	Piyadigama, Kalegana Road, Galle, Sri Lanka	3.707285		ගාල්ල	ගාල්ල	පියදිගම සුදර්ශනාරාමය	காலி	காலி	பியதிகம சுதர்சனராமையா	පියදිගම, කලෙගන පාර, ගාල්ල, ශ්‍රී ලංකාව	பியதிகம, கலேகன சாலை, காலி, இலங்கை
Galle	Ahangama	Siddhartha Maha Vidyalaya -Dikkumbura	False	False	GLLHNGMSDDHRTHMHVDYLYDKKMBR		Galle	LK-31	6.222805	80.251977	Ahangama	PS-310128	5.972267	80.365256	5.973975	80.362159	Ahangama, Sri Lanka	0.391757		ගාල්ල	අහංගම	සිද්ධාර්ථ මහා විද්‍යාලය -දික්කුඹුර	காலி	அஹங்கமா	சித்தார்த்த மகா வித்யாலயா -திக்கும்புரா	අහංගම, ශ්‍රී ලංකාව	அஹங்கமா, இலங்கை
Galle	Ambalangoda	Hinatiya Rahula Vidyalaya	False	False	GLLMBLNGDHNTYRHLVDYLY		Galle	LK-31	6.222805	80.251977	Ambalangoda	PS-310243	6.244958	80.047598	6.24063	80.054715	A2, Ambalangoda, Sri Lanka	0.922499		ගාල්ල	අම්බලන්ගොඩ	හිනටිය රාහුල විද්‍යාලය	காலி	அம்பலங்கொட	ஹினாதியா ராகுலா வித்யாலயா	ඒ 2, අම්බලන්ගොඩ, ශ්‍රී ලංකාව	ஏ 2, அம்பலங்கொட, இலங்கை
Galle	Bentota	Bentota Gamini National College	False	False	GLLBNTTBNTTGMNNTNLCLLG		Galle	LK-31	6.222805	80.251977	Bentota	PS-310246	6.422233	79.996897	6.420401	80.003591	Gamini Vidyala Mawatha, Bentota, Sri Lanka	0.767449		ගාල්ල	බෙන්තොට	බෙන්තොට ගාමිණී ජාතික විද්‍යාලය	காலி	பெண்டோட்டா	பெந்தோட்டை காமினி தேசிய கல்லூரி	ගාමිණී විද්‍යාල මාවත, බෙන්තොට, ශ්‍රී ලංකාව	காமினி வித்யால மாவத்தை, பெந்தோட்டா, இலங்கை
Galle	Opatha	Opatha Maha Vidyalaya	False	False	GLLPTHPTHMHVDYLY		Galle	LK-31	6.222805	80.251977									#PoliceLocationUnknown	ගාල්ල	ඕපාත	ඕපාත මහා විද්‍යාලය	காலி	ஓபாதா	ஓபாதா மகா வித்தியாலயம்		
Galle	Hiniduma	Dammala Rewatha Viharaya	False	False	GLLHNDMDMMLRWTHVHRY		Galle	LK-31	6.222805	80.251977	Hiniduma	PS-310131	6.329517	80.322442	6.30799	80.358746	Hiniduma - Opatha - Pitabeddera Rd, Thalangalla, Sri Lanka	4.673543		ගාල්ල	හිනිදුම	දම්මල රේවත විහාරය	காலி	ஹினிடுமா	தம்மாலா ரேவதா விஹாராயா	හිනිදුම - ඕපාත - පිටබැද්දර පාර, තලංගල්ල, ශ්‍රී ලංකාව	ஹினிடுமா - ஓபாதா - பிடபெத்தெரா சாலை, தலங்கல்லா, இலங்கை
Galle	Waduramba	Waduramba National College	False	False	GLLWDRMBWDRMBNTNLCLLG		Galle	LK-31	6.222805	80.251977	Wanduramba	PS-310124	6.1257	80.252985	6.133267	80.252075	Wanduramba - Mapalagama Rd, Wanduramba, Sri Lanka	0.847672		ගාල්ල	වදුරඹ	වදුරඹ ජාතික විද්‍යාලය	காலி	வடுரம்பா	வடுரம்பா தேசிய கல்லூரி	වඳුරඹ - මාපලගම පාර, වඳුරඹ, ශ්‍රී ලංකාව	வந்துரம்பா - மாபலகம வீதி, வந்துரம்பா, இலங்கை
Galle	Nagoda	Unanwitiya Rewatha Vidyalaya	False	False	GLLNGDNNWTYRWTHVDYLY		Galle	LK-31	6.222805	80.251977	Nagoda	PS-310130	6.197616	80.274707	6.162235	80.251505	Nayapamulla - Unanwitiya - Nagoda Rd, Sri Lanka	4.697942		ගාල්ල	නාගොඩ	උණන්විටිය රේවත විද්‍යාලය	காலி	நாகோடா	உனன்வித்திய ரேவத்த வித்யாலயா	නායපමුල්ල - උණන්වටිය - නාගොඩ පාර, ශ්‍රී ලංකාව	நயபாமுல்லா - உனன்விட்டியா - நாகோடா சாலை, இலங்கை
Galle	Nagoda	Nagoda Royal College	False	False	GLLNGDNGDRYLCLLG		Galle	LK-31	6.222805	80.251977	Nagoda	PS-310130	6.197616	80.274707	6.193905	80.276953	B454, Nagoda, Sri Lanka	0.481733		ගාල්ල	නාගොඩ	නාගොඩ රාජකීය විද්‍යාලය	காலி	நாகோடா	நாகொட ராயல் கல்லூரி	බී 454, නාගොඩ, ශ්‍රී ලංකාව	பி 454, நாகோடா, இலங்கை
Matara	Dickwella	Walasgala Muchalindarama Viharaya	False	False	MTRDCKWLLWLSGLMCHLNDRMVHRY		Matara	LK-32	6.142734	80.539994	Dikwella	PS-320103	5.964296	80.693198	5.976726	80.699104	Beliatta Rd, Dikwella 81200, Sri Lanka	1.529191		මාතර	දික්වැල්ල	වලස්ගල මුචලින්දාරාම විහාරය	மாத்தறை	டிக்வெல்லா	வலஸ்கல முசலிந்தராம விஹாராயா	බෙලිඅත්ත පාර, දික්වැල්ල 81200, ශ්‍රී ලංකාව	பெலியாட்டா சாலை, திக்வெல்லா 81200, இலங்கை
Matara	Malimbada	Akurugoda Senani Vidyalaya	False	False	MTRMLMBDKRGDSNNVDYLY		Matara	LK-32	6.142734	80.539994	Malimbada	PS-320117	6.010503	80.517438	6.011938	80.487855	2F6Q+Q4H, Palatuwa, Sri Lanka	3.276309		මාතර	මාලිම්බඩ	අකුරුගොඩ සේනානි විද්‍යාලය	மாத்தறை	மாலிம்படா	அக்குருகொட சேனானி வித்யாலயா	2F6Q+Q4H, පලටුව, ශ්‍රී ලංකාව	2F6Q+Q4H, பலதுவா, இலங்கை
Matara	Deniyaya	Sumeda Maha Vidyalaya	False	False	MTRDNYYSMDMHVDYLY		Matara	LK-32	6.142734	80.539994	Deniyaya	PS-320110	6.341435	80.558719	6.342802	80.560955	Deniyaya - Wiharahena Rd, Deniyaya, Sri Lanka	0.290209		මාතර	දෙනියාය	සුමේධා මහා විද්‍යාලය	மாத்தறை	தெனியாய	சுமேதா மகா வித்யாலயா	දෙනියාය - විහාරහේන පාර, දෙනියාය, ශ්‍රී ලංකාව	தெனியாயா - விஹாரஹேனா சாலை, தெனியாயா, இலங்கை
Matara	Matara	Navimana Girikanda Purana Viharaya	False	False	MTRMTRNVMNGRKNDPRNVHRY		Matara	LK-32	6.142734	80.539994	Matara	PS-320101	5.94904	80.533659	5.963463	80.565943	XH78+99P, Matara, Sri Lanka	3.915316		මාතර	මාතර	නාවිමන ගිරිකන්ද පුරාණ විහාරය	மாத்தறை	மாத்தறை	நவிமன கிரிகண்ட புராண விகாரை	XH78+99P, මාතර, ශ්‍රී ලංකාව	XH78+99P, மாத்தறை, இலங்கை
Matara	Mawarala	Makandura National College	False	False	MTRMWRLMKNDRNTNLCLLG		Matara	LK-32	6.142734	80.539994	Mawarala	PS-320109	6.198061	80.587045	6.154714	80.603723	National School, Deiyandara, Sri Lanka	5.162189		මාතර	මාවරල	මාකඳුර ජාතික විද්‍යාලය	மாத்தறை	மவரல	மகந்துரா தேசிய கல்லூரி	ජාතික පාසල, දෙයියන්දර, ශ්‍රී ලංකාව	தேசிய பள்ளி, தேயந்தரா, இலங்கை
Matara	Hakmana	Gunasekara Maha Vidyalaya	False	False	MTRHKMNGNSKRMHVDYLY		Matara	LK-32	6.142734	80.539994	Hakmana	PS-320106	6.084824	80.643227	5.987584	80.422596	XCQF+22Q, Weligama, Sri Lanka	26.694085	#CenterFarFromPolice	මාතර	හක්මන	ගුණසේකර මහා විද්‍යාලය	மாத்தறை	ஹக்மனா	குணசேகர மகா வித்தியாலயம்	XCQF+22Q, වැලිගම, ශ්‍රී ලංකාව	XCQF+22Q, வெலிகம, இலங்கை
Matara	Hakmana	Methodist College	False	False	MTRHKMNMTHDSTCLLG		Matara	LK-32	6.142734	80.539994	Hakmana	PS-320106	6.084824	80.643227	6.081853	80.651909	Hakmana, Sri Lanka	1.015532		මාතර	හක්මන	මෙතෝදිස්ත විද්‍යාලය	மாத்தறை	ஹக்மனா	மெதடிஸ்ட் கல்லூரி	හක්මන, ශ්‍රී ලංකාව	ஹக்மனா, இலங்கை
Matara	Thihagoda	Puhulwella Maha Vidyalaya	False	False	MTRTHHGDPHLWLLMHVDYLY		Matara	LK-32	6.142734	80.539994	Thihagoda	PS-320104	6.01331	80.567932	6.014342	80.565771	Sri Lanka, Thihagoda, シハゴダ - カンバーウピティヤ＝マワララ＝コタポラ・ロード	0.265177		මාතර	තිහගොඩ	පුහුල්වැල්ල මහා විද්‍යාලය	மாத்தறை	திஹாகொட	புஹுல்வெல்ல மகா வித்தியாலயம்	ලංකාව, තිහගොඩ, シ ハ ゴ ダ - カ ン バ ー ウ ピ テ ィ ヤ ＝ マ ラ ラ ＝ ＝ タ タ タ ラ ラ ・	இலங்கை, திஹாகொட, シ ハ ゴ ダ - カ ン バ ウ ピ ピ テ ヤ ＝ ＝ マ ラ ラ ＝
Matara	Thihagoda	Thihagoda Central College	False	False	MTRTHHGDTHHGDCNTRLCLLG		Matara	LK-32	6.142734	80.539994	Thihagoda	PS-320104	6.01331	80.567932	6.014367	80.56597	Sri Lanka, Thihagoda, シハゴダ - カンバーウピティヤ＝マワララ＝コタポラ・ロード	0.246831		මාතර	තිහගොඩ	තිහගොඩ මධ්‍ය මහා විද්‍යාලය	மாத்தறை	திஹாகொட	திஹாகொட மத்திய கல்லூரி	ලංකාව, තිහගොඩ, シ ハ ゴ ダ - カ ン バ ー ウ ピ テ ィ ヤ ＝ マ ラ ラ ＝ ＝ タ タ タ ラ ラ ・	இலங்கை, திஹாகொட, シ ハ ゴ ダ - カ ン バ ウ ピ ピ テ ヤ ＝ ＝ マ ラ ラ ＝
Matara	Kamburupitiya	Mobile Vaccination	False	False	MTRKMBRPTYMBLVCCNTN		Matara	LK-32	6.142734	80.539994	Kamburupitiya	PS-320105	6.073875	80.564579					#CenterLocationUnknown	මාතර	කඹුරුපිටිය	ජංගම එන්නත	மாத்தறை	கம்புருபிட்டிய	மொபைல் தடுப்பூசி		
Matara	Urubokka	Urubokka National College	False	False	MTRRBKKRBKKNTNLCLLG		Matara	LK-32	6.142734	80.539994	Urubokka	PS-320108	6.310257	80.629013	6.30653	80.63061	Urubokka, Sri Lanka	0.450586		මාතර	Ruරුබොක්ක	Ruරුබොක්ක ජාතික විද්‍යාලය	மாத்தறை	உரூபோக்கா	உருபொக்க தேசிய கல்லூரி	Ruරුබොක්ක, ශ්‍රී ලංකාව	உருபொக்கா, இலங்கை
Matara	Gandara	Dapulsen Vidyalaya	False	False	MTRGNDRDPLSNVDYLY		Matara	LK-32	6.142734	80.539994	Gandara	PS-320102	5.941629	80.614037	5.953041	80.535295	Akuressa Rd, Matara 81000, Sri Lanka	8.803313		මාතර	ගන්දර	දපුල්සන් විද්‍යාලය	மாத்தறை	கந்தரா	டபுல்சன் வித்யாலயா	අකුරැස්ස පාර, මාතර 81000, ශ්‍රී ලංකාව	அக்குரஸ்ஸா சாலை, மாத்தறை 81000, இலங்கை
Matara	Kosmodara	Pradeshiya Shabha – Kotapola	False	False	MTRKSMDRPRDSHYSHBHKTPL		Matara	LK-32	6.142734	80.539994	Kosmodara	PS-320116	6.290019	80.560337	6.340422	80.5593	Deniyaya - Wiharahena Rd, Deniyaya, Sri Lanka	5.607489		මාතර	කොස්මෝදර	ප්‍රාදේශීය සභාව - කොටපොළ	மாத்தறை	கோஸ்மோதரா	பிரதேச சபா - கொட்டபொல	දෙනියාය - විහාරහේන පාර, දෙනියාය, ශ්‍රී ලංකාව	தெனியாயா - விஹாரஹேனா சாலை, தெனியாயா, இலங்கை
Matara	Akuressa	Bodhiraja Viharaya	False	False	MTRKRSSBDHRJVHRY		Matara	LK-32	6.142734	80.539994	Akuressa	PS-320112	6.099044	80.4776	6.050673	80.458957	Thepudeniya, Kananke, Sri Lanka	5.761901		මාතර	අකුරැස්ස	බෝධිරාජ විහාරය	மாத்தறை	அக்குரஸ்ஸா	போதிராஜா விஹாராயா	තෙපුදෙනිය, කනංකේ, ශ්‍රී ලංකාව	தெபுதெனியா, கனங்கே, இலங்கை
Hambantota	Hambantota	Mobile Medical Team	False	False	HMBNTTHMBNTTMBLMDCLTM		Hambantota	LK-33	6.259779	81.098619	Hambantota	PS-330156	6.125872	81.12521					#CenterLocationUnknown	හම්බන්තොට	හම්බන්තොට	ජංගම වෛද්‍ය කණ්ඩායම	அம்பாந்தோட்டை	அம்பாந்தோட்டை	மொபைல் மருத்துவ குழு		
Hambantota	Walasmulla	Hadugala Viharaya	False	False	HMBNTTWLSMLLHDGLVHRY		Hambantota	LK-33	6.259779	81.098619	Walasmulla	PS-330151	6.154102	80.698256	6.146326	80.656854	Kitulagoda Pitadeniya Palle Kanda Road, Walasmulla 82450, Sri Lanka	4.65961		හම්බන්තොට	වලස්මුල්ල	හඩුගල විහාරය	அம்பாந்தோட்டை	வலஸ்முல்லா	ஹடுகல விஹாராயா	කිතුලගොඩ පිටදෙණිය පල්ලේ කන්ද පාර, වලස්මුල්ල 82450, ශ්‍රී ලංකාව	கிதுலகொட பிடதெனிய பல்லே கந்தா சாலை, வலஸ்முல்லா 82450, இலங்கை
Hambantota	Walasmulla	Egodabedda Viharaya	False	False	HMBNTTWLSMLLGDBDDVHRY		Hambantota	LK-33	6.259779	81.098619	Walasmulla	PS-330151	6.154102	80.698256	6.194762	80.94959	5WVX+WR4, Hambantota, Sri Lanka	28.159225	#CenterFarFromPolice	හම්බන්තොට	වලස්මුල්ල	එගොඩබැද්ද විහාරය	அம்பாந்தோட்டை	வலஸ்முல்லா	எகோடாபெத்த விஹாராயா	5WVX+WR4, හම්බන්තොට, ශ්‍රී ලංකාව	5WVX+WR4, ஹம்பாந்தோட்டை, இலங்கை
Hambantota	Walasmulla	MOH Office – Okewela	False	False	HMBNTTWLSMLLMHFFCKWL		Hambantota	LK-33	6.259779	81.098619	Walasmulla	PS-330151	6.154102	80.698256	6.098886	80.715898	Okewela, Sri Lanka	6.444136		හම්බන්තොට	වලස්මුල්ල	MOH කාර්යාලය - ඕකේවෙල	அம்பாந்தோட்டை	வலஸ்முல்லா	MOH அலுவலகம் - ஒகேவெலா	ඕකේවෙල, ශ්‍රී ලංකාව	ஒகேவெலா, இலங்கை
Hambantota	Weeraketiya	MOH Office – Weeraketiya	False	False	HMBNTTWRKTYMHFFCWRKTY		Hambantota	LK-33	6.259779	81.098619	Weeraketiya	PS-330149	6.153899	80.76737	6.144703	80.765287	4QV8+V4M, Weeraketiya, Sri Lanka	1.048488		හම්බන්තොට	වීරකැටිය	MOH කාර්යාලය - වීරකැටිය	அம்பாந்தோட்டை	வீரகெட்டிய	MOH அலுவலகம் - வீரகெட்டிய	4QV8+V4M, වීරකැටිය, ශ්‍රී ලංකාව	4QV8+V4M, வீரகெட்டிய, இலங்கை
Hambantota	Weeraketiya	D. A. Rajapaksha Vidyalaya	False	False	HMBNTTWRKTYDRJPKSHVDYLY		Hambantota	LK-33	6.259779	81.098619	Weeraketiya	PS-330149	6.153899	80.76737	6.135024	80.77105	Tangalle - Weeraketiya Rd, Weeraketiya, Sri Lanka	2.138545		හම්බන්තොට	වීරකැටිය	ඩීඒ රාජපක්ෂ විද්‍යාලය	அம்பாந்தோட்டை	வீரகெட்டிய	டி.ஏ. ராஜபக்ச வித்யாலயா	තංගල්ල - වීරකැටිය පාර, වීරකැටිය, ශ්‍රී ලංකාව	தங்காலை - வீரகெட்டிய வீதி, வீரகெட்டிய, இலங்கை
Hambantota	Angunukolapelessa	MOH Office - Angunukolapelessa	False	False	HMBNTTNGNKLPLSSMHFFCNGNKLPLSS		Hambantota	LK-33	6.259779	81.098619	Angunakolapelessa	PS-330150	6.321993	80.844883	6.164691	80.898963	Unnamed Road, Agunukolapelessa, Sri Lanka	18.490258		හම්බන්තොට	අඟුණුකොළපැලැස්ස	MOH කාර්යාලය - අඟුණුකොලපැලැස්ස	அம்பாந்தோட்டை	அங்குனுகோலபெலெஸ்ஸா	MOH அலுவலகம் - அங்குனுகோலபெலஸ்ஸா	නම් නොකළ පාර, අගුණුකොලපැලැස්ස, ශ්‍රී ලංකාව	பெயரிடப்படாத சாலை, அகுனுகோலபெலஸ்ஸா, இலங்கை
Hambantota	Tissamaharama	Menik Rajamaha Viharaya	False	False	HMBNTTTSSMHRMMNKRJMHVHRY		Hambantota	LK-33	6.259779	81.098619	Tissamaharamaya	PS-330158	6.26109	81.236724	6.28018	81.290077	Rubberwatte Rd, Tissamaharama, Sri Lanka	6.269468		හම්බන්තොට	තිස්සමහාරාම	මැණික් රජමහා විහාරය	அம்பாந்தோட்டை	திஸ்ஸமஹாராம	மெனிக் ராஜமஹா விஹாராயா	රබර්වත්ත පාර, තිස්සමහාරාම, ශ්‍රී ලංකාව	ரப்பர்வாட் சாலை, திஸ்ஸமஹாராமா, இலங்கை
Hambantota	Beliatta	MOH Office – Beliatta	False	False	HMBNTTBLTTMHFFCBLTT		Hambantota	LK-33	6.259779	81.098619	Beliatta	PS-330152	6.046936	80.735408	6.051828	80.741735	3P2R+PMQ, Hambantota, Sri Lanka	0.886482		හම්බන්තොට	බෙලිඅත්ත	MOH කාර්යාලය - බෙලිඅත්ත	அம்பாந்தோட்டை	பெலியாட்டா	MOH அலுவலகம் - பெலியாட்ட	3P2R+PMQ, හම්බන්තොට, ශ්‍රී ලංකාව	3P2R+PMQ, ஹம்பாந்தோட்டை, இலங்கை
Hambantota	Beliatta	Siri Sunandarama Viharaya	False	False	HMBNTTBLTTSRSNNDRMVHRY		Hambantota	LK-33	6.259779	81.098619	Beliatta	PS-330152	6.046936	80.735408	6.060624	80.488242	3F6Q+67X, Algiriya, Sri Lanka	27.38128	#CenterFarFromPolice	හම්බන්තොට	බෙලිඅත්ත	සිරි සුනන්දාරාම විහාරය	அம்பாந்தோட்டை	பெலியாட்டா	ஸ்ரீ சுனந்தராம விஹாராயா	3F6Q+67X, ඇල්ගිරිය, ශ්‍රී ලංකාව	3F6Q+67X, அல்கிரியா, இலங்கை
Hambantota	Tangalla	MOH Office – Tangalla	False	False	HMBNTTTNGLLMHFFCTNGLL		Hambantota	LK-33	6.259779	81.098619	Tangalle	PS-330147	6.023954	80.797255	6.02363	80.795742	2QFW+F75, Tangalle, Sri Lanka	0.171198		හම්බන්තොට	තංගල්ල	MOH කාර්යාලය - තංගල්ල	அம்பாந்தோட்டை	தங்கல்லா	MOH அலுவலகம் - தங்கல்லா	2QFW+F75, තංගල්ල, ශ්‍රී ලංකාව	2QFW+F75, தங்காலை, இலங்கை
Hambantota	Sooriyawewa	MOH Office – Sooriyawewa	False	False	HMBNTTSRYWWMHFFCSRYWW		Hambantota	LK-33	6.259779	81.098619	Sooriyawewa	PS-330155	6.306022	81.003873	6.304862	81.004768	8233+WWR, Sooriyawewa, Sri Lanka	0.1626		හම්බන්තොට	සූරියවැව	MOH කාර්යාලය - සූරියවැව	அம்பாந்தோட்டை	சூரியவெவ	MOH அலுவலகம் - சூரியவெவ	8233+ඩබ්ලිව්ඩබ්ලිව්ආර්, සූරියවැව, ශ්‍රී ලංකාව	8233+WWR, சூரியவெவ, இலங்கை
Hambantota	Katuwana	MOH Office – Katuwana	False	False	HMBNTTKTWNMHFFCKTWN		Hambantota	LK-33	6.259779	81.098619	Katuwana	PS-330153	6.269722	80.690963	6.26627	80.693035	7M8V+G63, Katuwana, Sri Lanka	0.447115		හම්බන්තොට	කටුවන	MOH කාර්යාලය - කටුවන	அம்பாந்தோட்டை	கட்டுவானா	MOH அலுவலகம் - கட்டுவானா	7 එම් 8 වී+ජී 63, කටුවන, ශ්‍රී ලංකාව	7M8V+G63, கட்டுவானா, இலங்கை
Rathnapura	Eheliyagoda	Kiriporuwa Hospital	False	False	RTHNPRHLYGDKRPRWHSPTL		Ratnapura	LK-91	6.586826	80.566158	Ehaliyagoda	PS-910113	6.854603	80.260446	7.087946	80.29275	kurugahavita Rd, Aguruwella, Sri Lanka	26.198612	#CenterFarFromPolice	රත්නපුර	ඇහැලියගොඩ	කිරිපොරුව රෝහල	இரத்தினபுரி	எஹெலியகொட	கிரிபொருவ மருத்துவமனை	කුරුගහවිට පාර, අගුරුවැල්ල, ශ්‍රී ලංකාව	குருகஹவிட வீதி, அகுருவெல்ல, இலங்கை
Rathnapura	Eheliyagoda	Sirisamanpura Viharaya	False	False	RTHNPRHLYGDSRSMNPRVHRY		Ratnapura	LK-91	6.586826	80.566158	Ehaliyagoda	PS-910113	6.854603	80.260446	6.854023	80.255884	Unnamed Road, Eheliyagoda, Sri Lanka	0.507918		රත්නපුර	ඇහැලියගොඩ	සිරිසමන්පුර විහාරය	இரத்தினபுரி	எஹெலியகொட	சிறிசாமன்புரா விஹாராயா	නම් නොකළ පාර, ඇහැලියගොඩ, ශ්‍රී ලංකාව	பெயரிடப்படாத சாலை, எஹெலியகொட, இலங்கை
Rathnapura	Pelmadulla	Mahinda Vidyalaya	False	False	RTHNPRPLMDLLMHNDVDYLY		Ratnapura	LK-91	6.586826	80.566158	Pelmadulla	PS-910117	6.632692	80.521315	6.630199	80.53881	Colombo - Batticaloa Hwy, Pelmadulla, Sri Lanka	1.952735		රත්නපුර	පැල්මඩුල්ල	මහින්ද විද්‍යාලය	இரத்தினபுரி	பெல்மடுல்லா	மஹிந்த வித்யாலயா	කොළඹ - මඩකලපුව හ්වි, පැල්මඩුල්ල, ශ්‍රී ලංකාව	கொழும்பு - மட்டக்களப்பு Hwy, Pelmadulla, Sri Lanka
Rathnapura	Pinnawala	Morahela Regional Health Centre	False	False	RTHNPRPNNWLMRHLRGNLHLTHCNTR		Ratnapura	LK-91	6.586826	80.566158	Pinnawala	PS-910115	7.299943	80.386604	6.705628	80.381296	P94J+7G3, Ratnapura, Sri Lanka	66.108156	#CenterFarFromPolice	රත්නපුර	පින්නවල	මොරහෙල ප්‍රාදේශීය සෞඛ්‍ය මධ්‍යස්ථානය	இரத்தினபுரி	பின்னாவாலா	மொரஹெலா பிராந்திய சுகாதார மையம்	පී 94 ජේ+7 ජී 3, රත්නපුර, ශ්‍රී ලංකාව	P94J+7G3, இரத்தினபுரி, இலங்கை
Rathnapura	Pinnawala	Thorawela Kanada Vidyalaya	False	False	RTHNPRPNNWLTHRWLKNDVDYLY		Ratnapura	LK-91	6.586826	80.566158	Pinnawala	PS-910115	7.299943	80.386604	6.602628	80.734181	JP3M+3M3, Ratnapura, Sri Lanka	86.537019	#CenterFarFromPolice	රත්නපුර	පින්නවල	තෝරවෙල කනාද විද්‍යාලය	இரத்தினபுரி	பின்னாவாலா	தொரவெல கனடா வித்தியாலயம்	JP3M+3M3, රත්නපුර, ශ්‍රී ලංකාව	JP3M+3M3, இரத்தினபுரி, இலங்கை
Rathnapura	Pinnawala	Sisilton Estate Regional Health Centre	False	False	RTHNPRPNNWLSSLTNSTTRGNLHLTHCNTR		Ratnapura	LK-91	6.586826	80.566158	Pinnawala	PS-910115	7.299943	80.386604	6.686964	80.392318	M9PR+QWP, Ratnapura, Sri Lanka	68.18447	#CenterFarFromPolice	රත්නපුර	පින්නවල	සිසිල්ටන් වතු ප්‍රාදේශීය සෞඛ්‍ය මධ්‍යස්ථානය	இரத்தினபுரி	பின்னாவாலா	சிசில்டன் எஸ்டேட் பிராந்திய சுகாதார மையம்	M9PR+QWP, රත්නපුර, ශ්‍රී ලංකාව	M9PR+QWP, இரத்தினபுரி, இலங்கை
Rathnapura	Balangoda	Ampitiyawatta Community Hall	False	False	RTHNPRBLNGDMPTYWTTCMMNTYHLL		Ratnapura	LK-91	6.586826	80.566158	Balangoda	PS-910103	6.649474	80.700276	6.631371	80.724065	Kirimatithanna, Balangoda, Sri Lanka	3.310966		රත්නපුර	බලන්ගොඩ	අම්පිටියවත්ත ප්‍රජා ශාලාව	இரத்தினபுரி	பலாங்கொடை	அம்பிட்டியவத்த சமுதாயக் கூடம்	කිරිමාතිතන්න, බලංගොඩ, ශ්‍රී ලංකාව	கிரிமதிதன்ன, பலாங்கொடை, இலங்கை
Rathnapura	Balangoda	Mawela Community Hall	False	False	RTHNPRBLNGDMWLCMMNTYHLL		Ratnapura	LK-91	6.586826	80.566158	Balangoda	PS-910103	6.649474	80.700276	6.616174	80.705008	Mawela-Ellepola Rd, Balangoda, Sri Lanka	3.74067		රත්නපුර	බලන්ගොඩ	මාවෙල ප්‍රජා ශාලාව	இரத்தினபுரி	பலாங்கொடை	மாவெல சமுதாயக் கூடம்	මාවෙල-ඇල්ලේපොළ පාර, බලංගොඩ, ශ්‍රී ලංකාව	மாவெல-எல்லெபோல வீதி, பலாங்கொடை, இலங்கை
Rathnapura	Balangoda	Wawelage Viharaya	False	False	RTHNPRBLNGDWWLGVHRY		Ratnapura	LK-91	6.586826	80.566158	Balangoda	PS-910103	6.649474	80.700276	6.611237	80.594059	A4, Sri Lanka	12.4824		රත්නපුර	බලන්ගොඩ	වේවේලගේ විහාරය	இரத்தினபுரி	பலாங்கொடை	வாவேலாகே விஹாராயா	ඒ 4, ශ්‍රී ලංකාව	ஏ 4, இலங்கை
Rathnapura	Balangoda	Massenna Community Hall	False	False	RTHNPRBLNGDMSSNNCMMNTYHLL		Ratnapura	LK-91	6.586826	80.566158	Balangoda	PS-910103	6.649474	80.700276	6.666861	80.704808	Balangoda, Sri Lanka	1.997716		රත්නපුර	බලන්ගොඩ	මැසෙනා ප්‍රජා ශාලාව	இரத்தினபுரி	பலாங்கொடை	மஸ்ஸென்னா சமுதாயக் கூடம்	බලංගොඩ, ශ්‍රී ලංකාව	பலாங்கொடை, இலங்கை
Rathnapura	Balangoda	Ellawatta Viharaya	False	False	RTHNPRBLNGDLLWTTVHRY		Ratnapura	LK-91	6.586826	80.566158	Balangoda	PS-910103	6.649474	80.700276	6.65499	80.698265	Colombo - Batticaloa Hwy, Balangoda, Sri Lanka	0.652533		රත්නපුර	බලන්ගොඩ	එල්ලවත්ත විහාරය	இரத்தினபுரி	பலாங்கொடை	எல்லவத்த விஹாராயா	කොළඹ - මඩකලපුව හ්වි, බලංගොඩ, ශ්‍රී ලංකාව	கொழும்பு - மட்டக்களப்பு Hwy, பலாங்கொடை, இலங்கை
Rathnapura	Balangoda	Welage Viharaya	False	False	RTHNPRBLNGDWLGVHRY		Ratnapura	LK-91	6.586826	80.566158	Balangoda	PS-910103	6.649474	80.700276	6.666861	80.704808	Balangoda, Sri Lanka	1.997716		රත්නපුර	බලන්ගොඩ	වෙලගේ විහාරය	இரத்தினபுரி	பலாங்கொடை	வெலகே விஹாராயா	බලංගොඩ, ශ්‍රී ලංකාව	பலாங்கொடை, இலங்கை
Rathnapura	Samanalawewa	Pambahina Hospital	False	False	RTHNPRSMNLWWPMBHNHSPTL		Ratnapura	LK-91	6.586826	80.566158									#PoliceLocationUnknown	රත්නපුර	සමනලවැව	පඹහින රෝහල	இரத்தினபுரி	சமனலவெவ	பம்பஹினா மருத்துவமனை		
Rathnapura	Panamura	Mulediyawala Vidyalaya	False	False	RTHNPRPNMRMLDYWLVDYLY		Ratnapura	LK-91	6.586826	80.566158	Panamure	PS-910236	6.40194	80.687615	6.681597	80.40321	St.Aloysius' College , Church Road , Ratnapura , Srilanka, Cathedral Road, Ratnapura 70000, Sri Lanka	44.21917	#CenterFarFromPolice	රත්නපුර	පනාමුර	මුලේදියාවල විද්‍යාලය	இரத்தினபுரி	பனமுரா	முலேதியவாலா வித்யாலயா	ශාන්ත ඇලෝසියස් විද්‍යාලය, පල්ලිය පාර, රත්නපුර, ශ්‍රී ලංකාව, ආසන දෙව්මැදුර පාර, රත්නපුර 70000, ශ්‍රී ලංකාව	செயின்ட் அலோசியஸ் கல்லூரி, சர்ச் சாலை, இரத்தினபுரா, இலங்கை, கதீட்ரல் சாலை, இரத்தினபுரா 70000, இலங்கை
Rathnapura	Panamura	Walalgoda Vidyalaya	False	False	RTHNPRPNMRWLLGDVDYLY		Ratnapura	LK-91	6.586826	80.566158	Panamure	PS-910236	6.40194	80.687615	6.32955	80.757703	Embilipitiya-Panamure-Urubokka Rd, Sri Lanka	11.174171		රත්නපුර	පනාමුර	වලල්ගොඩ විද්‍යාලය	இரத்தினபுரி	பனமுரா	வலல்கொட வித்யாலயா	ඇඹිලිපිටිය-පනාමුරේ-ruරුබොක්ක පාර, ශ්‍රී ලංකාව	எம்பிலிபிட்டிய-பனமுரே-ஊருபொக்க வீதி, இலங்கை
Rathnapura	Panamura	Panamura Vidyalaya	False	False	RTHNPRPNMRPNMRVDYLY		Ratnapura	LK-91	6.586826	80.566158	Panamure	PS-910236	6.40194	80.687615	6.342085	80.776645	B115, Panamure, Sri Lanka	11.881996		රත්නපුර	පනාමුර	පනාමුර විද්‍යාලය	இரத்தினபுரி	பனமுரா	பனமுரா வித்யாலயா	බී 115, පනාමුරේ, ශ්‍රී ලංකාව	B115, பனமுரே, இலங்கை
Rathnapura	Rathnapura	Bodhigiriya Viharaya	False	False	RTHNPRRTHNPRBDHGRYVHRY		Ratnapura	LK-91	6.586826	80.566158	Ratnapura	PS-910101	6.679456	80.40223	6.672074	80.419173	MCC9+RMF, Ratnapura, Sri Lanka	2.043966		රත්නපුර	රත්නපුර	බෝධිගිරිය විහාරය	இரத்தினபுரி	இரத்தினபுரி	போதிகிரிய விகாரை	MCC9+RMF, රත්නපුර, ශ්‍රී ලංකාව	MCC9+RMF, இரத்தினபுரா, இலங்கை
Rathnapura	Kiriella	Jinarathana Vidyalaya	False	False	RTHNPRKRLLJNRTHNVDYLY		Ratnapura	LK-91	6.586826	80.566158	Kiriella	PS-910114	6.735338	80.276481	6.763791	80.220493	Q67C+G59, Ratnapura, Sri Lanka	6.947129		රත්නපුර	කිරිඇල්ල	ජිනරතන විද්‍යාලය	இரத்தினபுரி	கிரியெல்லா	ஜினரத்தன வித்யாலயா	Q67C+ජී 59, රත්නපුර, ශ්‍රී ලංකාව	Q67C+G59, இரத்தினபுரி, இலங்கை
Rathnapura	Kolonna	Kaburugamuwa Vidyalaya	False	False	RTHNPRKLNNKBRGMWVDYLY		Ratnapura	LK-91	6.586826	80.566158	Kolonna	PS-910235	6.40194	80.687615	6.440955	80.759711	Pelmadulla - Embilipitiya Hwy, Ratnapura, Sri Lanka	9.074016		රත්නපුර	කොළොන්න	කඹුරුගමුව විද්‍යාලය	இரத்தினபுரி	கொலோன்னா	கபுருகமுவ வித்யாலயா	පැල්මඩුල්ල - ඇඹිලිපිටිය හ්වි, රත්නපුර, ශ්‍රී ලංකාව	பெல்மதுல்லா - எம்பிலிப்பிட்டிய ஹ்வி, இரத்தினபுரி, இலங்கை
Rathnapura	Kolonna	Thalagahawatta Vidyalaya	False	False	RTHNPRKLNNTHLGHWTTVDYLY		Ratnapura	LK-91	6.586826	80.566158	Kolonna	PS-910235	6.40194	80.687615	6.446144	80.658746	CMW5+FF5, Suriyakanda, Sri Lanka	5.861485		රත්නපුර	කොළොන්න	තලගහවත්ත විද්‍යාලය	இரத்தினபுரி	கொலோன்னா	தலகஹவத்த வித்தியாலயம்	CMW5+FF5, සූරියකන්ද, ශ්‍රී ලංකාව	CMW5+FF5, சூரியகந்தா, இலங்கை
Rathnapura	Ayagama	MOH Office – Ayagama	False	False	RTHNPRYGMMHFFCYGM		Ratnapura	LK-91	6.586826	80.566158	Ayagama	PS-910109	6.637727	80.312554	6.634742	80.314759	J8M7+VWR, Ayagama, Sri Lanka	0.411811		රත්නපුර	අයගම	MOH කාර්යාලය - අයගම	இரத்தினபுரி	அயகம	MOH அலுவலகம் - அயகம	J8M7+VWR, අයගම, ශ්‍රී ලංකාව	J8M7+VWR, அயகாமா, இலங்கை
Rathnapura	Godakawela	Demuwawatha Vidyalaya	False	False	RTHNPRGDKWLDMWWTHVDYLY		Ratnapura	LK-91	6.586826	80.566158	Godakawela	PS-910233	6.50224	80.655642	6.505873	80.640843	GJ4R+88W, Ratnapura, Sri Lanka	1.684679		රත්නපුර	ගොඩකවෙල	දෙමුවාවත විද්යාලය	இரத்தினபுரி	கோடகவேலா	தேமுவவத வித்யாலயா	ජීජේ 4 ආර්+88 ඩබ්, රත්නපුර, ශ්‍රී ලංකාව	GJ4R+88W, இரத்தினபுரி, இலங்கை
Rathnapura	Godakawela	Siddhartha Vidyalaya – Elpitiya	False	False	RTHNPRGDKWLSDDHRTHVDYLYLPTY		Ratnapura	LK-91	6.586826	80.566158	Godakawela	PS-910233	6.50224	80.655642	6.505195	80.645721	Godakawela, Sri Lanka	1.144617		රත්නපුර	ගොඩකවෙල	සිද්ධාර්ථ විද්‍යාලය - ඇල්පිටිය	இரத்தினபுரி	கோடகவேலா	சித்தார்த்த வித்தியாலயம் - எல்பிட்டிய	ගොඩකවෙල, ශ්‍රී ලංකාව	கோடகவேலா, இலங்கை
Rathnapura	Godakawela	Hiramadagama Vidyalaya	False	False	RTHNPRGDKWLHRMDGMVDYLY		Ratnapura	LK-91	6.586826	80.566158	Godakawela	PS-910233	6.50224	80.655642	6.53071	80.615995	GJJ8+79Q, Ratnapura, Sri Lanka	5.406022		රත්නපුර	ගොඩකවෙල	හිරමඩගම විද්‍යාලය	இரத்தினபுரி	கோடகவேலா	ஹிரமடகம வித்யாலயா	GJJ8+79Q, රත්නපුර, ශ්‍රී ලංකාව	GJJ8+79Q, இரத்தினபுரி, இலங்கை
Rathnapura	Kuruwita	Bopath Asapuwa	False	False	RTHNPRKRWTBPTHSPW		Ratnapura	LK-91	6.586826	80.566158	Kuruwita	PS-910112	6.778839	80.364712	6.801762	80.369422	Agalawatta, Kuruwita, HiggasHena - Devipahala Road, Kuruwita, Sri Lanka	2.60225		රත්නපුර	කුරුවිට	බෝපත් අසපුව	இரத்தினபுரி	குருவிடா	போபாத் அசப்புவா	අගලවත්ත, කුරුවිට, හිග්ගස්හේන - දෙවිපහල පාර, කුරුවිට, ශ්‍රී ලංකාව	அகலவத்த, குருவிட, ஹிக்காஸ்ஹேனா - தேவிபஹலா சாலை, குருவிட, இலங்கை
Rathnapura	Kuruwita	Kosgoda Community Hall	False	False	RTHNPRKRWTKSGDCMMNTYHLL		Ratnapura	LK-91	6.586826	80.566158	Kuruwita	PS-910112	6.778839	80.364712	6.335782	80.030182	Galle Rd, Kosgoda, Sri Lanka	61.604644	#CenterFarFromPolice	රත්නපුර	කුරුවිට	කොස්ගොඩ ප්‍රජා ශාලාව	இரத்தினபுரி	குருவிடா	கொஸ்கொட சமூக மண்டபம்	ගාල්ල පාර, කොස්ගොඩ, ශ්‍රී ලංකාව	காலி வீதி, கொஸ்கொட, இலங்கை
Rathnapura	Kuruwita	Lassakanada Viharaya	False	False	RTHNPRKRWTLSSKNDVHRY		Ratnapura	LK-91	6.586826	80.566158	Kuruwita	PS-910112	6.778839	80.364712	6.77558	80.35651	Q9G4+6JJ, Kuruwita, Sri Lanka	0.975765		රත්නපුර	කුරුවිට	ලස්සනකනද විහාරය	இரத்தினபுரி	குருவிடா	லசகனடா விஹாராயா	Q9G4+6JJ, කුරුවිට, ශ්‍රී ලංකාව	Q9G4+6JJ, குருவிட, இலங்கை
Rathnapura	Kahawatta	Borala Vidyalaya	False	False	RTHNPRKHWTTBRLVDYLY		Ratnapura	LK-91	6.586826	80.566158	Kahawatta	PS-910107	6.591434	80.56893	6.5771	80.574524	School Rd, Kahawatta, Sri Lanka	1.709993		රත්නපුර	කහවත්ත	බොරල විද්‍යාලය	இரத்தினபுரி	கஹவத்த	போராலா வித்யாலயா	පාසල පාර, කහවත්ත, ශ්‍රී ලංකාව	பள்ளி வீதி, கஹவத்த, இலங்கை
Rathnapura	Kahawatta	Poronuwa Vidyalaya	False	False	RTHNPRKHWTTPRNWVDYLY		Ratnapura	LK-91	6.586826	80.566158	Kahawatta	PS-910107	6.591434	80.56893	6.578537	80.540556	HGHR+C67, Ratnapura, Sri Lanka	3.447818		රත්නපුර	කහවත්ත	පොරෝනාව විද්‍යාලය	இரத்தினபுரி	கஹவத்த	பொரோனுவா வித்யாலயா	එච්ජීඑච්ආර්+සී 67, රත්නපුර, ශ්‍රී ලංකාව	HGHR+C67, இரத்தினபுரா, இலங்கை
Rathnapura	Kahawatta	Kattange Vidyalaya	False	False	RTHNPRKHWTTKTTNGVDYLY		Ratnapura	LK-91	6.586826	80.566158	Kahawatta	PS-910107	6.591434	80.56893	6.58556	80.598726	Kahawatta Opanayake Rd, Kattange, Sri Lanka	3.356521		රත්නපුර	කහවත්ත	කට්ටංගේ විද්‍යාලය	இரத்தினபுரி	கஹவத்த	கட்டாங்கே வித்யாலயா	කහවත්ත ඕපනායක පාර, කට්ටංගේ, ශ්‍රී ලංකාව	கஹவத்த ஓபநாயக்க வீதி, கட்டங்கே, இலங்கை
Kegalle	Bulathkohupitiya	MOH Office – Bulathkohupitiya	False	False	KGLLBLTHKHPTYMHFFCBLTHKHPTY		Kegalle	LK-92	7.104216	80.342866	Bulathkohupitiya	PS-920232	7.106684	80.3347	7.109127	80.334565	485M+MR4, Bulathkohupitiya, Sri Lanka	0.272143		කෑගල්ල	බුලත්කොහුපිටිය	MOH කාර්යාලය - බුලත්කොහුපිටිය	கேகாலை	புலத்கோஹுபிடியா	MOH அலுவலகம் - புலத்கோஹுபிட்டிய	485 එම්+එම්ආර් 4, බුලත්කොහුපිටිය, ශ්‍රී ලංකාව	485M+MR4, புலத்கோஹுபிட்டிய, இலங்கை
Kegalle	Kegalle	MOH Office - Galigamuwa	False	False	KGLLKGLLMHFFCGLGMW		Kegalle	LK-92	7.104216	80.342866	Kegalle	PS-920118	7.255928	80.353156	7.240448	80.300505	ballapana, galigamuwa town, Sri Lanka	6.059352		කෑගල්ල	කෑගල්ල	MOH කාර්යාලය - ගලිගමුව	கேகாலை	கேகாலை	MOH அலுவலகம் - கலிகமுவா	බැල්ලපන, ගලිගමුව නගරය, ශ්‍රී ලංකාව	பலபனா, கலிகமுவா நகரம், இலங்கை
Kegalle	Kegalle	MOH Office – Kegalle	False	False	KGLLKGLLMHFFCKGLL		Kegalle	LK-92	7.104216	80.342866	Kegalle	PS-920118	7.255928	80.353156	7.24797	80.343583	Kegalle-Bulathkohupitiya-Karawanella Hwy, Kegalle, Sri Lanka	1.378052		කෑගල්ල	කෑගල්ල	MOH කාර්යාලය - කෑගල්ල	கேகாலை	கேகாலை	MOH அலுவலகம் - கேகாலை	කෑගල්ල-බුලත්කොහුපිටිය-කරවනැල්ල හ්වි, කෑගල්ල, ශ්‍රී ලංකාව	கேகாலை-புலத்கோஹுபிட்டிய-கரவனெல்லா ஹ்வி, கேகாலை, இலங்கை
Kegalle	Deraniyagala	Multi Task Centre - Deraniyagala	False	False	KGLLDRNYGLMLTTSKCNTRDRNYGL		Kegalle	LK-92	7.104216	80.342866	Deraniyagala	PS-920228	6.935815	80.334998	6.934076	80.336205	Deraniyagala Road, Deraniyagala, Sri Lanka	0.234896		කෑගල්ල	දැරණියගල	බහුකාර්ය මධ්‍යස්ථානය - දැරණියගල	கேகாலை	தரனியகலா	பல்பணி மையம் - தெரணியகலா	දැරණියගල පාර, දැරණියගල, ශ්‍රී ලංකාව	தரனியகலா சாலை, தெரணியகலா, இலங்கை
Kegalle	Mawanella	MOH Office – Mawanella	False	False	KGLLMWNLLMHFFCMWNLL		Kegalle	LK-92	7.104216	80.342866	Mawanella	PS-920122	7.256966	80.445912	7.253248	80.44561	Rambukkana-Mawanella Rd, Mawanella, Sri Lanka	0.414893		කෑගල්ල	මාවනැල්ල	MOH කාර්යාලය - මාවනැල්ල	கேகாலை	மாவனெல்லா	MOH அலுவலகம் - மாவனெல்லா	රඹුක්කන-මාවනැල්ල පාර, මාවනැල්ල, ශ්‍රී ලංකාව	ரம்புக்கான-மாவனெல்லா சாலை, மாவனெல்லா, இலங்கை
Anuradhapura	Anuradhapura	Army Hospital Anuradhapura	False	False	NRDHPRNRDHPRRMYHSPTLNRDHPR		Anuradhapura	LK-71	8.39199	80.512958	Anuradapura	PS-710101	8.329752	80.407265	8.338302	80.407646	AB02, Anuradhapura, Sri Lanka	0.951939		අනුරාධපුර	අනුරාධපුර	අනුරාධපුර හමුදා රෝහල	அனுராதபுரம்	அனுராதபுரம்	அனுராதபுரம் இராணுவ மருத்துவமனை	ඒබී 02, අනුරාධපුර, ශ්‍රී ලංකාව	ஏபி 02, அனுராதபுரம், இலங்கை
Anuradhapura	Hidogama	Aluthwewa Vidyalaya	False	False	NRDHPRHDGMLTHWWVDYLY		Anuradhapura	LK-71	8.39199	80.512958	Hidogama	PS-710102	8.31575	80.420358	8.285253	80.368805	Aluthwewa, Srawasthipura, A28, Anuradhapura, Sri Lanka	6.61088		අනුරාධපුර	හිදෝගම	අළුත්වැව විද්‍යාලය	அனுராதபுரம்	ஹிடோகாமா	அளுத்வெவா வித்தியாலயம்	අළුත්වැව, ශ්‍රාවස්තිපුර, ඒ 28, අනුරාධපුර, ශ්‍රී ලංකාව	அளுத்வெவா, ஸ்ரவஸ்திபுரா, ஏ 28, அனுராதபுரம், இலங்கை
Anuradhapura	Hidogama	Kumara Vidyalaya	False	False	NRDHPRHDGMKMRVDYLY		Anuradhapura	LK-71	8.39199	80.512958	Hidogama	PS-710102	8.31575	80.420358	8.285253	80.368805	Aluthwewa, Srawasthipura, A28, Anuradhapura, Sri Lanka	6.61088		අනුරාධපුර	හිදෝගම	කුමාර විද්‍යාලය	அனுராதபுரம்	ஹிடோகாமா	குமார வித்யாலயா	අළුත්වැව, ශ්‍රාවස්තිපුර, ඒ 28, අනුරාධපුර, ශ්‍රී ලංකාව	அளுத்வெவா, ஸ்ரவஸ்திபுரா, ஏ 28, அனுராதபுரம், இலங்கை
Anuradhapura	Galenbindunuwewa	Thakshila Maha Vidyalaya	False	False	NRDHPRGLNBNDNWWTHKSHLMHVDYLY		Anuradhapura	LK-71	8.39199	80.512958	Galenbidunuwewa	PS-710121	8.29037	80.71501	8.305816	80.720368	Ganewelpola - Dachchahalmillewa Rd, Sri Lanka	1.816452		අනුරාධපුර	ගලෙන්බිඳුණුවැව	තක්ෂිලා මහා විද්‍යාලය	அனுராதபுரம்	கலென்பிந்துனுவேவா	தக்ஷிலா மகா வித்தியாலயம்	ගනේවැල්පොල - දච්චහල්මිල්ලෑව පාර, ශ්‍රී ලංකාව	கேன்வெல்பொல - டச்சஹால்மில்லேவா சாலை, இலங்கை
Anuradhapura	Galenbindunuwewa	Getalawa Karuwalagaswewa Vidyalaya	False	False	NRDHPRGLNBNDNWWGTLWKRWLGSWWVDYLY		Anuradhapura	LK-71	8.39199	80.512958	Galenbidunuwewa	PS-710121	8.29037	80.71501	8.318262	80.774061	Getalawa, Sri Lanka	7.201858		අනුරාධපුර	ගලෙන්බිඳුණුවැව	ගැටලාව කරුවලගස්වැව විද්‍යාලය	அனுராதபுரம்	கலென்பிந்துனுவேவா	கெடலாவ கருவலகஸ்வெவ வித்தியாலயம்	ගැටලාව, ශ්‍රී ලංකාව	கெடலாவா, இலங்கை
Anuradhapura	Galenbindunuwewa	MOH Office - Galenbindunuwewa	False	False	NRDHPRGLNBNDNWWMHFFCGLNBNDNWW		Anuradhapura	LK-71	8.39199	80.512958	Galenbidunuwewa	PS-710121	8.29037	80.71501	8.292134	80.717284	7PR8+VW3, Galenbindunuwewa, Sri Lanka	0.318033		අනුරාධපුර	ගලෙන්බිඳුණුවැව	MOH කාර්යාලය - ගලෙන්බිඳුණුවැව	அனுராதபுரம்	கலென்பிந்துனுவேவா	MOH அலுவலகம் - கலென்பிந்துனுவேவா	7PR8+VW3, ගලෙන්බිඳුණුවැව, ශ්‍රී ලංකාව	7PR8+VW3, கலென்பிந்துனுவேவா, இலங்கை
Anuradhapura	Horowpothana	Nebadawewa Community Hall	False	False	NRDHPRHRWPTHNNBDWWCMMNTYHLL		Anuradhapura	LK-71	8.39199	80.512958	Horowpathana	PS-710117	8.553878	80.830734	8.556976	80.831291	HR4J+QGV, Horowupotana, Sri Lanka	0.349994		අනුරාධපුර	හොරොව්පොතාන	නැබඩවැව ප්‍රජා ශාලාව	அனுராதபுரம்	ஹோரோபோதனா	நெபடவெவ சமூக மண்டபம்	HR4J+QGV, හොරොවුපොතාන, ශ්‍රී ලංකාව	HR4J+QGV, ஹோரவுபோதனா, இலங்கை
Anuradhapura	Horowpothana	Diyathittawewa Community Hall	False	False	NRDHPRHRWPTHNDYTHTTWWCMMNTYHLL		Anuradhapura	LK-71	8.39199	80.512958	Horowpathana	PS-710117	8.553878	80.830734	8.556976	80.831291	HR4J+QGV, Horowupotana, Sri Lanka	0.349994		අනුරාධපුර	හොරොව්පොතාන	දියතිත්තවැව ප්‍රජා ශාලාව	அனுராதபுரம்	ஹோரோபோதனா	தியதித்தவெவ சமூக மண்டபம்	HR4J+QGV, හොරොවුපොතාන, ශ්‍රී ලංකාව	HR4J+QGV, ஹோரவுபோதனா, இலங்கை
Anuradhapura	Mihintale	Mihintale Hospital	False	False	NRDHPRMHNTLMHNTLHSPTL		Anuradhapura	LK-71	8.39199	80.512958	Mihintale	PS-710104	8.360062	80.511889	8.35505	80.509287	Kandy Rd, Mihintale, Sri Lanka	0.626724		අනුරාධපුර	මිහින්තලය	මිහින්තලේ රෝහල	அனுராதபுரம்	மிஹிந்தலை	மிஹிந்தலை மருத்துவமனை	මහනුවර පාර, මිහින්තලය, ශ්‍රී ලංකාව	கண்டி வீதி, மிஹிந்தலை, இலங்கை
Anuradhapura	Mihintale	MOH Office – Rambewa	False	False	NRDHPRMHNTLMHFFCRMBW		Anuradhapura	LK-71	8.39199	80.512958	Mihintale	PS-710104	8.360062	80.511889	8.438263	80.504725	CGQ3+8V5, Rambewa, Sri Lanka	8.733932		අනුරාධපුර	මිහින්තලය	MOH කාර්යාලය - රඹෑව	அனுராதபுரம்	மிஹிந்தலை	MOH அலுவலகம் - ரம்பேவா	CGQ3+8V5, රම්බෑව, ශ්‍රී ලංකාව	CGQ3+8V5, ரம்பேவா, இலங்கை
Anuradhapura	Polonnaruwa	Thopawewa Maha Vidyalaya	False	False	NRDHPRPLNNRWTHPWWMHVDYLY		Anuradhapura	LK-71	8.39199	80.512958	Polonnaruwa	PS-720125	7.924307	81.036895	8.350062	80.414372	9C27+2PH, Anuradhapura, Sri Lanka	83.313756	#CenterFarFromPolice	අනුරාධපුර	පොළොන්නරුව	තොපාවැව මහා විද්‍යාලය	அனுராதபுரம்	பொலன்னறுவை	தோபாவெவ மகா வித்தியாலயம்	9C27+2PH, අනුරාධපුර, ශ්‍රී ලංකාව	9C27+2PH, அனுராதபுரம், இலங்கை
Anuradhapura	Jaffna	Mobile Medical Team	False	False	NRDHPRJFFNMBLMDCLTM		Anuradhapura	LK-71	8.39199	80.512958	Jaffna	PS-410209	9.659919	80.010965					#CenterLocationUnknown	අනුරාධපුර	යාපනය	ජංගම වෛද්‍ය කණ්ඩායම	அனுராதபுரம்	யாழ்	மொபைல் மருத்துவ குழு		
Jaffna	Jaffna	Perumal Kovil Hall  - Jaffna	False	False	JFFNJFFNPRMLKVLHLLJFFN		Jaffna	LK-41	9.691792	80.098594	Jaffna	PS-410209	9.659919	80.010965	9.670977	80.015856	Clock Tower Rd, Jaffna, Sri Lanka	1.341816		යාපනය	යාපනය	පෙරුමාල් කෝවිල ශාලාව - යාපනය	யாழ்	யாழ்	பெருமாள் கோவில் மண்டபம் - யாழ்	ඔරලෝසු කණුව පාර, යාපනය, ශ්‍රී ලංකාව	கடிகார கோபுரம் சாலை, யாழ்ப்பாணம், இலங்கை
Jaffna	Kopay	MOH Office - Kopay	False	False	JFFNKPYMHFFCKPY		Jaffna	LK-41	9.691792	80.098594	Kopai	PS-410216	9.686887	80.03856	9.706729	80.065433	B268, Jaffna, Sri Lanka	3.681313		යාපනය	කෝපායි	MOH කාර්යාලය - කෝපායි	யாழ்	கோப்பாய்	MOH அலுவலகம் - கோப்பாய்	බී 268, යාපනය, ශ්‍රී ලංකාව	பி 268, யாழ்ப்பாணம், இலங்கை
Jaffna	Chunnagam	MOH Office - Uduvil	False	False	JFFNCHNNGMMHFFCDVL		Jaffna	LK-41	9.691792	80.098594	Chunnakam	PS-410211	9.745309	80.029151	9.742938	80.035132	P2VP+53C, Chunnakam, Sri Lanka	0.706719		යාපනය	චුන්නාගම්	MOH කාර්යාලය - උඩුවිල්	யாழ்	சுன்னாகம்	MOH அலுவலகம் - உடுவில்	පී 2 වීපී+53 සී, චුන්නාකම්, ශ්‍රී ලංකාව	P2VP+53C, சுன்னாகம், இலங்கை
Jaffna	Thelippalai	MOH Office – Thelippalai	False	False	JFFNTHLPPLMHFFCTHLPPL		Jaffna	LK-41	9.691792	80.098594	Thelippalay	PS-410104	6.933075	79.857181	9.785272	80.032899	Q2PM+452, Tellippalai, Sri Lanka	317.838063	#CenterFarFromPolice	යාපනය	තෙලිප්පලෙයි	MOH කාර්යාලය - තෙලිප්පලෙයි	யாழ்	தெளிப்பளை	MOH அலுவலகம் - தெல்லிப்பழை	Q2PM+452, තෙලිප්පලෙයි, ශ්‍රී ලංකාව	Q2PM+452, தெல்லிப்பழை, இலங்கை
Jaffna	Pallai	Kudaththanai AMTM School	False	False	JFFNPLLKDTHTHNMTMSCHL		Jaffna	LK-41	9.691792	80.098594	Palali	PS-410105	9.789552	80.06488	9.746573	80.27285	Kudaththanai Road, Pointpedro, Point Pedro, Sri Lanka	23.292955	#CenterFarFromPolice	යාපනය	පලෙයි	කුඩාත්තනෙයි ඒඑම්ටීඑම් පාසල	யாழ்	பளை	குடத்தனை ஏஎம்டிஎம் பள்ளி	කුඩත්තනෙයි පාර, පේදුරුතුඩුව, පේදුරුතුඩුව, ශ්‍රී ලංකාව	குடத்தனாய் சாலை, பாயிண்ட்பெட்ரோ, பருத்தித்துறை, இலங்கை
Jaffna	Wadukkotte	MOH Office – Chankanai	False	False	JFFNWDKKTTMHFFCCHNKN		Jaffna	LK-41	9.691792	80.098594	Vaddukoddai		9.728886	79.947771	9.753617	79.976004	QX3G+CCR, Sri Lanka	4.140836		යාපනය	වඩුක්කෝට්ටේ	MOH කාර්යාලය - චංකනායි	யாழ்	வட்டுக்கோட்டை	MOH அலுவலகம் - சங்கனை	QX3G+CCR, ශ්‍රී ලංකාව	QX3G+CCR, இலங்கை
Jaffna	Manipay	DH Manippai	False	False	JFFNMNPYDHMNPP		Jaffna	LK-41	9.691792	80.098594	Manippai	PS-410210	9.727151	79.996905	9.725097	79.99772	Sri Lanka, Manipay, Sri Lanka	0.245316		යාපනය	මනිපායි	ඩීඑච් මනිප්පායි	யாழ்	மானிப்பாய்	டிஎச் மணிப்பை	ශ්‍රී ලංකාව, මනිපායි, ශ්‍රී ලංකාව	இலங்கை, மானிப்பாய், இலங்கை
Jaffna	Achchuveli	Achchuveli Hospital	False	False	JFFNCHCHVLCHCHVLHSPTL		Jaffna	LK-41	9.691792	80.098594	Achchuweli	PS-410103	6.934132	79.856305	9.772721	80.115501	Avarankal-Tondaimanar Rd, Sri Lanka	317.021383	#CenterFarFromPolice	යාපනය	අච්චුවේලි	අච්චුවේලි රෝහල	யாழ்	அச்சுவேலி	அச்சுவேலி மருத்துவமனை	අවරන්කල්-තොණ්ඩයිමානර් පාර, ශ්‍රී ලංකාව	அவரங்கால்-தொண்டைமானார் சாலை, இலங்கை
Jaffna	Achchuveli	Kalaimahai Pre School – Puttur	False	False	JFFNCHCHVLKLMHPRSCHLPTTR		Jaffna	LK-41	9.691792	80.098594	Achchuweli	PS-410103	6.934132	79.856305	9.745655	80.104632	AB20 - Point Pedro Road Puttur west, Jaffna 40000, Sri Lanka	313.916871	#CenterFarFromPolice	යාපනය	අච්චුවේලි	කලාමහායි පෙර පාසල - පුත්තූර්	யாழ்	அச்சுவேலி	கலைமஹாய் முன்பள்ளி - புத்தூர்	ඒබී 20 - පේදුරුතුඩුව පාර, පුත්තූර් බටහිර, යාපනය 40000, ශ්‍රී ලංකාව	AB20 - பருத்தித்துறை சாலை புத்தூர் மேற்கு, யாழ்ப்பாணம் 40000, இலங்கை
Jaffna	Kayts	MOH Office – Karainagar	False	False	JFFNKYTSMHFFCKRNGR		Jaffna	LK-41	9.691792	80.098594	Kayts	PS-410212	9.728654	79.94775	9.725097	79.99772	Sri Lanka, Manipay, Sri Lanka	5.492521		යාපනය	කයිට්ස්	MOH කාර්යාලය - කරෙයිනගර්	யாழ்	ஊர்காவற்துறையினர்	MOH அலுவலகம் - காரைநகர்	ශ්‍රී ලංකාව, මනිපායි, ශ්‍රී ලංකාව	இலங்கை, மானிப்பாய், இலங்கை
Jaffna	Kayts	MOH Office – Valanai	False	False	JFFNKYTSMHFFCVLN		Jaffna	LK-41	9.691792	80.098594	Kayts	PS-410212	9.728654	79.94775	9.636317	79.903777	Chatty vangkalvady road, Velanai, Sri Lanka	11.346015		යාපනය	කයිට්ස්	MOH කාර්යාලය - වලනායි	யாழ்	ஊர்காவற்துறையினர்	MOH அலுவலகம் - வளணை	චැටි වංගල්වඩි පාර, වෙලනායි, ශ්‍රී ලංකාව	சட்டி வாங்கல்வாடி சாலை, வேலணை, இலங்கை
Jaffna	Kayts	DH Pandathirippu	False	False	JFFNKYTSDHPNDTHRPP		Jaffna	LK-41	9.691792	80.098594	Kayts	PS-410212	9.728654	79.94775	9.693036	79.868685	AB19, Kayts, Sri Lanka	9.530818		යාපනය	කයිට්ස්	ඩී එච් පණ්ඩතිරිප්පු	யாழ்	ஊர்காவற்துறையினர்	டிஎச் பண்டாதிரிப்பு	ඒබී 19, කයිට්ස්, ශ්‍රී ලංකාව	ஏபி 19, ஊர்காவற்துறை, இலங்கை
Jaffna	Kayts	MOH Office – Kayts	False	False	JFFNKYTSMHFFCKYTS		Jaffna	LK-41	9.691792	80.098594	Kayts	PS-410212	9.728654	79.94775	9.697759	79.866366	Sri Lanka, Kayts, Sri Lanka	9.561445		යාපනය	කයිට්ස්	MOH කාර්යාලය - කයිට්ස්	யாழ்	ஊர்காவற்துறையினர்	MOH அலுவலகம் - ஊர்காவற்துறை	ශ්‍රී ලංකාව, කයිට්ස්, ශ්‍රී ලංකාව	இலங்கை, ஊர்காவற்துறை, இலங்கை
Jaffna	Chavakachcheri	Saraswathy Vidyalayam Velanai	False	False	JFFNCHVKCHCHRSRSWTHYVDYLYMVLN		Jaffna	LK-41	9.691792	80.098594	Chawakachcheri	PS-410215	9.666459	80.132384	9.63724	79.901078	JWP2+VCW, Velanai, Sri Lanka	25.571312	#CenterFarFromPolice	යාපනය	චාවකච්චේරි	වෙලනායි සරස්වතී විද්‍යාලය	யாழ்	சாவகச்சேரி	சரஸ்வதி வித்யாலயம் வேலணை	JWP2+VCW, වේලනායි, ශ්‍රී ලංකාව	JWP2+VCW, வேலணை, இலங்கை
Kilinochchi	Kilinochchi	MOH Office – Kanadawala	False	False	KLNCHCHKLNCHCHMHFFCKNDWL		Kilinochchi	LK-45	9.415742	80.30358	Kilinochchi	PS-450131	9.392265	80.407846	9.396965	80.407782	Kandy - Jaffna Hwy, Kilinochchi, Sri Lanka	0.522827		කිලිනොච්චි	කිලිනොච්චි	MOH කාර්යාලය - කැනඩවල	கிளிநொச்சி	கிளிநொச்சி	MOH அலுவலகம் - கனடாவாலா	මහනුවර - යාපනය හ්වි, කිලිනොච්චි, ශ්‍රී ලංකාව	கண்டி - யாழ்ப்பாணம், கிளிநொச்சி, இலங்கை
Kilinochchi	Kilinochchi	MOH Office - Karachchi	False	False	KLNCHCHKLNCHCHMHFFCKRCHCH		Kilinochchi	LK-45	9.415742	80.30358	Kilinochchi	PS-450131	9.392265	80.407846	9.396965	80.407782	Kandy - Jaffna Hwy, Kilinochchi, Sri Lanka	0.522827		කිලිනොච්චි	කිලිනොච්චි	MOH කාර්යාලය - කරච්චි	கிளிநொச்சி	கிளிநொச்சி	MOH அலுவலகம் - கராச்சி	මහනුවර - යාපනය හ්වි, කිලිනොච්චි, ශ්‍රී ලංකාව	கண்டி - யாழ்ப்பாணம், கிளிநொச்சி, இலங்கை
Kilinochchi	Kilinochchi	MOH Office - Punakar	False	False	KLNCHCHKLNCHCHMHFFCPNKR		Kilinochchi	LK-45	9.415742	80.30358	Kilinochchi	PS-450131	9.392265	80.407846	9.396965	80.407782	Kandy - Jaffna Hwy, Kilinochchi, Sri Lanka	0.522827		කිලිනොච්චි	කිලිනොච්චි	MOH කාර්යාලය - පුනාකාර්	கிளிநொச்சி	கிளிநொச்சி	MOH அலுவலகம் - புனகர்	මහනුවර - යාපනය හ්වි, කිලිනොච්චි, ශ්‍රී ලංකාව	கண்டி - யாழ்ப்பாணம், கிளிநொச்சி, இலங்கை
Kilinochchi	Kilinochchi	MOH Office – Palai	False	False	KLNCHCHKLNCHCHMHFFCPL		Kilinochchi	LK-45	9.415742	80.30358	Kilinochchi	PS-450131	9.392265	80.407846	7.330938	80.29484	06 A6, Polgahawela, Sri Lanka	229.618032	#CenterFarFromPolice	කිලිනොච්චි	කිලිනොච්චි	MOH කාර්යාලය - පලෙයි	கிளிநொச்சி	கிளிநொச்சி	MOH அலுவலகம் - பாளை	06 ඒ 6, පොල්ගහවෙල, ශ්‍රී ලංකාව	06 A6, பொல்கஹவெல, இலங்கை
Kilinochchi	Pooneryn	MOH Office – Pooneryn	False	False	KLNCHCHPNRYNMHFFCPNRYN		Kilinochchi	LK-45	9.415742	80.30358	Pooneryn		9.505717	80.21101	9.507968	80.208317	G655+58P, Pooneryn, Sri Lanka	0.387256		කිලිනොච්චි	පුනරීන්	MOH කාර්යාලය - පුනරීන්	கிளிநொச்சி	பூனெரின்	MOH அலுவலகம் - பூனெரின்	ජී 655+58 පී, පූනරීන්, ශ්‍රී ලංකාව	G655+58P, பூனெரின், இலங்கை
Kilinochchi	Jayapuram	Jayapuram Hospital	False	False	KLNCHCHJYPRMJYPRMHSPTL		Kilinochchi	LK-45	9.415742	80.30358	Jayapuram		9.312838	80.159865	9.372728	80.411786	Ananthapuram, A9, Kilinochchi, Sri Lanka	28.440585	#CenterFarFromPolice	කිලිනොච්චි	ජයපුරම්	ජයපුරම් රෝහල	கிளிநொச்சி	ஜெயபுரம்	ஜெயபுரம் மருத்துவமனை	අනන්තරපුරම්, ඒ 9, කිලිනොච්චිය, ශ්‍රී ලංකාව	அனந்தபுரம், ஏ 9, கிளிநொச்சி, இலங்கை
Kilinochchi	Mulankavil	Mulankavil Hospital	False	False	KLNCHCHMLNKVLMLNKVLHSPTL		Kilinochchi	LK-45	9.415742	80.30358	Mulankavil	PS-450135	9.254463	80.141528	9.243423	80.143894	Base Hospital Mulankavil, A32 Road, Mulankavil, Kumulamunai, Sri Lanka	1.255148		කිලිනොච්චි	මුලංකාවිල්	මුලංකාවිල් රෝහල	கிளிநொச்சி	முழங்காவில்	முழங்காவில் மருத்துவமனை	මුලික රෝහල මුලංකාවිල්, ඒ 32 පාර, මුලංකාවිල්, කුමුලමුනෙයි, ශ්‍රී ලංකාව	அடிப்படை மருத்துவமனை முழங்காவில், A32 சாலை, முழங்காவில், குமுலமுனை, இலங்கை
Mullaitivu	Mankulam	Nattankandal Hospital	False	False	MLLTVMNKLMNTTNKNDLHSPTL		Mullaitivu	LK-44	9.167643	80.549091	Mankulam	PS-440147	9.124606	80.448404	9.12782	80.447093	A9, Mankulam, Sri Lanka	0.385396		මුලතිව්	මාන්කුලම්	නාත්තන්කන්දල් රෝහල	முல்லைத்தீவு	மாங்குளம்	நாட்டங்கண்டல் மருத்துவமனை	ඒ 9, මාන්කුලම්, ශ්‍රී ලංකාව	ஏ 9, மாங்குளம், இலங்கை
Mullaitivu	Mankulam	Mankulam Hospital	False	False	MLLTVMNKLMMNKLMHSPTL		Mullaitivu	LK-44	9.167643	80.549091	Mankulam	PS-440147	9.124606	80.448404	9.12782	80.447093	A9, Mankulam, Sri Lanka	0.385396		මුලතිව්	මාන්කුලම්	මාන්කුලම් රෝහල	முல்லைத்தீவு	மாங்குளம்	மாங்குளம் மருத்துவமனை	ඒ 9, මාන්කුලම්, ශ්‍රී ලංකාව	ஏ 9, மாங்குளம், இலங்கை
Mullaitivu	Puthukudiyiruppu	Puthukudiyiruppu Bharathi Vidyalaya	False	False	MLLTVPTHKDYRPPPTHKDYRPPBHRTHVDYLY		Mullaitivu	LK-44	9.167643	80.549091	Pudukuduiruppu	PS-440149	7.00152	79.95003	9.31067	80.699589	8M6X+7R8, Puthukkudiyiruppu, Sri Lanka	269.778207	#CenterFarFromPolice	මුලතිව්	පුදුකුඩියිරුප්පු	පුදුකුඩියිරුප්පු භාරතී විද්‍යාලය	முல்லைத்தீவு	புதுக்குடியிருப்பு	புதுக்குடியிருப்பு பாரதி வித்தியாலயம்	8M6X+7R8, පුදුක්කුඩියිරුප්පු, ශ්‍රී ලංකාව	8M6X+7R8, புதுக்குடியிருப்பு, இலங்கை
Mullaitivu	Puthukudiyiruppu	Mungilaru Primary School	False	False	MLLTVPTHKDYRPPMNGLRPRMRYSCHL		Mullaitivu	LK-44	9.167643	80.549091	Pudukuduiruppu	PS-440149	7.00152	79.95003	9.322944	80.702342	Puthukkudiyiruppu-Mathalan Rd, Puthukkudiyiruppu, Sri Lanka	271.170338	#CenterFarFromPolice	මුලතිව්	පුදුකුඩියිරුප්පු	මුංගිලාරු ප්‍රාථමික විද්‍යාලය	முல்லைத்தீவு	புதுக்குடியிருப்பு	முங்கிலாறு தொடக்கப்பள்ளி	පුදුක්කුඩියිරුප්පු-මාතලන් පාර, පුදුක්කුඩියිරුප්පු, ශ්‍රී ලංකාව	புதுக்குடியிருப்பு-மாத்தலன் சாலை, புதுக்குடியிருப்பு, இலங்கை
Mullaitivu	Puthukudiyiruppu	Devipuram Treatment Centre	False	False	MLLTVPTHKDYRPPDVPRMTRTMNTCNTR		Mullaitivu	LK-44	9.167643	80.549091	Pudukuduiruppu	PS-440149	7.00152	79.95003	9.313637	80.696168	Puthukudiyiruppu, Sri Lanka	269.977487	#CenterFarFromPolice	මුලතිව්	පුදුකුඩියිරුප්පු	දෙවිපුරම් ප්‍රතිකාර මධ්‍යස්ථානය	முல்லைத்தீவு	புதுக்குடியிருப்பு	தேவிபுரம் சிகிச்சை மையம்	පුදුකුඩියිරුප්පු, ශ්‍රී ලංකාව	புதுக்குடியிருப்பு, இலங்கை
Mullaitivu	Puthukudiyiruppu	Sri Subramaniyam Vidyalaya	False	False	MLLTVPTHKDYRPPSRSBRMNYMVDYLY		Mullaitivu	LK-44	9.167643	80.549091	Pudukuduiruppu	PS-440149	7.00152	79.95003	9.314562	80.696594	8M7W+RJG, Puthukkudiyiruppu, Sri Lanka	270.089737	#CenterFarFromPolice	මුලතිව්	පුදුකුඩියිරුප්පු	ශ්‍රී සුබ්‍රමනියම් විද්‍යාලය	முல்லைத்தீவு	புதுக்குடியிருப்பு	ஸ்ரீ சுப்பிரமணியம் வித்யாலயா	8M7W+ආර්ජේජී, පුදුක්කුඩියිරුප්පු, ශ්‍රී ලංකාව	8M7W+RJG, புதுக்குடியிருப்பு, இலங்கை
Mullaitivu	Mulliyawalai	Mulliyawalai Vattarapale Vidyalaya	False	False	MLLTVMLLYWLMLLYWLVTTRPLVDYLY		Mullaitivu	LK-44	9.167643	80.549091	Muliyaweli	PS-440150	6.915266	79.87829	9.216635	80.768422	6Q89+M93, Mulliyawalai, Sri Lanka	274.107051	#CenterFarFromPolice	මුලතිව්	මුල්ලියාවලෙයි	මුල්ලියවලෙයි වට්ටරපාලේ විද්‍යාලය	முல்லைத்தீவு	முள்ளியவளை	முள்ளியவளை வட்டாரபாலே வித்தியாலயம்	6Q89+M93, මුල්ලියවලෙයි, ශ්‍රී ලංකාව	6Q89+M93, முள்ளியவளை, இலங்கை
Mullaitivu	Oddusuddan	MOH Office – Oddusuddan	False	False	MLLTVDDSDDNMHFFCDDSDDN		Mullaitivu	LK-44	9.167643	80.549091	Oddusudan	PS-440151	9.160983	80.652821	9.162816	80.661584	5M76+4JG, Oddusuddan, Sri Lanka	0.983634		මුලතිව්	ඔඩ්ඩුසුඩාන්	MOH කාර්යාලය - ඔඩ්ඩුසුඩාන්	முல்லைத்தீவு	ஒட்டுசுட்டான்	MOH அலுவலகம் - ஒட்டுசுட்டான்	5 එම් 76+4 ජේජී, ඔඩ්ඩුසුඩාන්, ශ්‍රී ලංකාව	5M76+4JG, ஒட்டுசுட்டான், இலங்கை
Mullaitivu	Mallavi	Anichchankulam Tamil Maha Vidyalaya	False	False	MLLTVMLLVNCHCHNKLMTMLMHVDYLY		Mullaitivu	LK-44	9.167643	80.549091	Mallavi	PS-440153	9.137878	80.307257	9.130417	80.307209	Hospital road mallavi mullaitivu, 42000, Sri Lanka	0.829903		මුලතිව්	මල්ලාවි	අනිච්චන්කුලම් දෙමළ මහා විද්‍යාලය	முல்லைத்தீவு	மல்லவி	அனிச்சங்குளம் தமிழ் மகா வித்தியாலயம்	රෝහල් පාර මල්ලාවි මුලතිව්, 42000, ශ්‍රී ලංකාව	மருத்துவமனை சாலை மல்லாவி முல்லைத்தீவு, 42000, இலங்கை
Mannar	Adampan	MOH Office – Adampan	False	False	MNNRDMPNMHFFCDMPN		Mannar	LK-42	8.877429	80.088628	Adampan		8.939451	80.002055	8.944842	79.996862	WXVW+WPQ, Adampan, Sri Lanka	0.827737		මන්නාරම	අඩම්පන්	එම්ඕඑච් කාර්යාලය - අඩම්පන්	மன்னார்	அடம்பன்	MOH அலுவலகம் - அடம்பன்	WXVW+WPQ, අඩම්පන්, ශ්‍රී ලංකාව	WXVW+WPQ, அடம்பன், இலங்கை
Mannar	Mannar	St. Lawrence Church, Talaimannar	False	False	MNNRMNNRSTLWRNCCHRCHTLMNNR		Mannar	LK-42	8.877429	80.088628	Mannar	PS-420138	8.978123	79.911642	9.099467	79.705188	Talaimannar, Sri Lanka	26.391162	#CenterFarFromPolice	මන්නාරම	මන්නාරම	තලෙයිමන්නාරම ශාන්ත ලෝරන්ස් පල්ලිය	மன்னார்	மன்னார்	செயின்ட் லாரன்ஸ் சர்ச், தலைமன்னார்	තලෙයිමන්නාරම, ශ්‍රී ලංකාව	தலைமன்னார், இலங்கை
Mannar	Mannar	RCTM School	False	False	MNNRMNNRRCTMSCHL		Mannar	LK-42	8.877429	80.088628	Mannar	PS-420138	8.978123	79.911642	8.97968	79.919795	Pallimunai Rd, Mannar, Sri Lanka	0.912332		මන්නාරම	මන්නාරම	ආර්සීටීඑම් පාසල	மன்னார்	மன்னார்	ஆர்சிடிஎம் பள்ளி	පල්ලිමුනෙයි පාර, මන්නාරම, ශ්‍රී ලංකාව	பள்ளிமுனை வீதி, மன்னார், இலங்கை
Mannar	Madu	Pandivirichachan Maha Vidyalaya	False	False	MNNRMDPNDVRCHCHNMHVDYLY		Mannar	LK-42	8.877429	80.088628	Madu	PS-420144	6.914115	79.849048	8.85502	80.202842	Puliyadi Irakkamam, Madhu Road, Madu, Sri Lanka	219.377113	#CenterFarFromPolice	මන්නාරම	මඩු	පණ්ඩිවිරිච්චාචන් මහා විද්‍යාලය	மன்னார்	மது	பாண்டிவிரிச்சச்சான் மகா வித்தியாலயம்	පුලියඩි ඉරක්කමම්, මඩු පාර, මඩු, ශ්‍රී ලංකාව	புளியடி இறக்காமம், மது சாலை, மடு, இலங்கை
Mannar	Murunkan	St Anne’s Church	False	False	MNNRMRNKNSTNNSCHRCH		Mannar	LK-42	8.877429	80.088628	Murunkan	PS-420143	8.838186	80.038298	8.892308	79.932955	St.Anne's Church, South-Coast Rd, Vankalai 41000, Sri Lanka	13.048913		මන්නාරම	මුරුන්කන්	ශාන්ත ආනා දේවස්ථානය	மன்னார்	முருங்கன்	செயின்ட் அன்னே தேவாலயம்	ශාන්ත ආනා දේවස්ථානය, දකුණු-වෙරළ පාර, වංකලෙයි 41000, ශ්‍රී ලංකාව	St.Anne's Church, South-Coast Rd, Vankalai 41000, இலங்கை
Trincomalee	Muttur	MOH Office – Muttur	False	False	TRNCMLMTTRMHFFCMTTR		Trincomalee	LK-53	8.551241	81.092014	Mutur	PS-530138	8.461133	81.259371	8.453916	81.264494	1 Old Batticaloa Rd, Mutur, Sri Lanka	0.980859		ත්රිකුණාමලය	මුතූර්	MOH කාර්යාලය - මුතූර්	திருகோணமலை	மூதூர்	MOH அலுவலகம் - மூதூர்	1 පරණ මඩකලපුව පාර, මුතූර්, ශ්‍රී ලංකාව	1 பழைய மட்டக்களப்பு வீதி, மூதூர், இலங்கை
Trincomalee	Kinniya	MOH Office – Kurungnakeni	False	False	TRNCMLKNNYMHFFCKRNGNKN		Trincomalee	LK-53	8.551241	81.092014	Kinnia	PS-530140	6.907289	79.863819	7.484932	80.353119	F9M3+X6H, Kurunegala 60000, Sri Lanka	83.927094	#CenterFarFromPolice	ත්රිකුණාමලය	කින්නියා	එම්ඕඑච් කාර්යාලය - කුරුංග්ණකේනි	திருகோணமலை	கிண்ணியா	MOH அலுவலகம் - குருங்நகேணி	F9M3+X6H, කුරුණෑගල 60000, ශ්‍රී ලංකාව	F9M3+X6H, குருநாகல் 60000, இலங்கை
Trincomalee	Kinniya	MOH Office – Kinniya	False	False	TRNCMLKNNYMHFFCKNNY		Trincomalee	LK-53	8.551241	81.092014	Kinnia	PS-530140	6.907289	79.863819	8.498696	81.179644	F5XH+FVC, Kinniya 31100, Sri Lanka	228.840304	#CenterFarFromPolice	ත්රිකුණාමලය	කින්නියා	MOH කාර්යාලය - කින්නියා	திருகோணமலை	கிண்ணியா	MOH அலுவலகம் - கிண்ணியா	F5XH+FVC, කින්නියා 31100, ශ්‍රී ලංකාව	F5XH+FVC, கிண்ணியா 31100, இலங்கை
Trincomalee	Sripura	MOH Office – Sripura	False	False	TRNCMLSRPRMHFFCSRPR		Trincomalee	LK-53	8.551241	81.092014	Sripura	PS-530136	8.929617	80.81428	8.926697	80.814799	Padavi Sripura, Padaviya - Sripura Road, Welioya, Sri Lanka	0.329869		ත්රිකුණාමලය	ශ්‍රීපුර	MOH කාර්යාලය - ශ්‍රීපුර	திருகோணமலை	ஸ்ரீபுரா	MOH அலுவலகம் - ஸ்ரீபுரா	පදවි ශ්‍රීපුර, පදවිය - ශ්‍රීපුර පාර, වැලිඔය, ශ්‍රී ලංකාව	படவி ஸ்ரீபுரா, படாவியா - ஸ்ரீபுரா சாலை, வெலிஓயா, இலங்கை
Trincomalee	Kuchchaveli	MOH Office – Kuchchaveli	False	False	TRNCMLKCHCHVLMHFFCKCHCHVL		Trincomalee	LK-53	8.551241	81.092014	Kuchchaweli	PS-530133	8.81895	81.100438	8.740082	81.161616	P5R6+2JQ, Kumpurupiddi, Sri Lanka	11.053646		ත්රිකුණාමලය	කුච්චවේලි	MOH කාර්යාලය - කුච්චවේලි	திருகோணமலை	குச்சவெளி	MOH அலுவலகம் - குச்சவெளி	P5R6+2JQ, කුඹුරුපිඩි, ශ්‍රී ලංකාව	P5R6+2JQ, கும்புறுப்பிடி, இலங்கை
Trincomalee	Kuchchaveli	Divisional Hospital - Kuchchaveli	False	False	TRNCMLKCHCHVLDVSNLHSPTLKCHCHVL		Trincomalee	LK-53	8.551241	81.092014	Kuchchaweli	PS-530133	8.81895	81.100438	8.814795	81.102358	R472+WW9, Kuchchaveli, Sri Lanka	0.508064		ත්රිකුණාමලය	කුච්චවේලි	ප්‍රාදේශීය රෝහල - කුච්චවේලි	திருகோணமலை	குச்சவெளி	பிரதேச மருத்துவமனை - குச்சவெளி	ආර් 472+WW9, කුච්චවේලි, ශ්‍රී ලංකාව	R472+WW9, குச்சவெளி, இலங்கை
Trincomalee	Kuchchaveli	Divisional Hospital – Nilaveli	False	False	TRNCMLKCHCHVLDVSNLHSPTLNLVL		Trincomalee	LK-53	8.551241	81.092014	Kuchchaweli	PS-530133	8.81895	81.100438	8.681035	81.193632	M5JV+CF6, Nilaveli, Sri Lanka	18.44695		ත්රිකුණාමලය	කුච්චවේලි	ප්‍රාදේශීය රෝහල - නිලාවේලි	திருகோணமலை	குச்சவெளி	பிரதேச மருத்துவமனை - நிலாவெளி	M5JV+CF6, නිලාවේලි, ශ්‍රී ලංකාව	M5JV+CF6, நிலவேலி, இலங்கை
Trincomalee	Pulmoddai	Base Hospital - Pulmoddai	False	False	TRNCMLPLMDDBSHSPTLPLMDD		Trincomalee	LK-53	8.551241	81.092014	Pulmudai	PS-530135	6.915266	79.87829	8.941204	80.983139	WXRM+F7J, Pulmoddai, Sri Lanka	256.112801	#CenterFarFromPolice	ත්රිකුණාමලය	පුල්මොඩෙයි	මූලික රෝහල - පුල්මොඩෙයි	திருகோணமலை	புல்மோட்டை	அடிப்படை மருத்துவமனை - புல்மோட்டை	ඩබ්ලිව්එක්ස්ආර්එම්+එෆ් 7 ජේ, පුල්මොඩෙයි, ශ්‍රී ලංකාව	WXRM+F7J, புல்மோடை, இலங்கை
Trincomalee	Serunuwara	MOH Office – Serunuwara	False	False	TRNCMLSRNWRMHFFCSRNWR		Trincomalee	LK-53	8.551241	81.092014	Serunuwara	PS-530244	8.321863	81.299322	8.323143	81.299894	B10, Sri Lanka	0.155671		ත්රිකුණාමලය	සේරුනුවර	MOH කාර්යාලය - සේරුනුවර	திருகோணமலை	சேருநுவரா	MOH அலுவலகம் - சேருநுவரா	බී 10, ශ්‍රී ලංකාව	பி 10, இலங்கை
Trincomalee	Sampur	Patalipuram Health Centre	False	False	TRNCMLSMPRPTLPRMHLTHCNTR		Trincomalee	LK-53	8.551241	81.092014									#PoliceLocationUnknown	ත්රිකුණාමලය	සාම්පූර්	පාඨලීපුරම් සෞඛ්‍ය මධ්‍යස්ථානය	திருகோணமலை	சம்பூர்	பாடலிபுரம் சுகாதார மையம்		
Trincomalee	Harbour Police	MOH Office – Trincomalee	False	False	TRNCMLHRBRPLCMHFFCTRNCML		Trincomalee	LK-53	8.551241	81.092014	Trinco Harbour Police	PS-530131	8.56705	81.231407	8.598974	81.216963	MOH Office, Farm Rd, Trincomalee, Sri Lanka	3.890062		ත්රිකුණාමලය	වරාය පොලිසිය	එම්ඕඑච් කාර්යාලය - ත්‍රිකුණාමලය	திருகோணமலை	துறைமுக காவல்துறை	MOH அலுவலகம் - திருகோணமலை	එම්ඕඑච් කාර්යාලය, ගොවිපල පාර, ත්‍රිකුණාමලය, ශ්‍රී ලංකාව	MOH அலுவலகம், பண்ணை சாலை, திருகோணமலை, இலங்கை
Trincomalee	Harbour Police	Base Hospital – Trincomalee	False	False	TRNCMLHRBRPLCBSHSPTLTRNCML		Trincomalee	LK-53	8.551241	81.092014	Trinco Harbour Police	PS-530131	8.56705	81.231407	8.56486	81.239445	Hospital Ln, Trincomalee, Sri Lanka	0.917037		ත්රිකුණාමලය	වරාය පොලිසිය	මූලික රෝහල - ත්‍රිකුණාමලය	திருகோணமலை	துறைமுக காவல்துறை	அடிப்படை மருத்துவமனை - திருகோணமலை	රෝහල, ත්‍රිකුණාමලය, ශ්‍රී ලංකාව	மருத்துவமனை Ln, திருகோணமலை, இலங்கை
Trincomalee	Uppuveli	MOH Office - Uppuveli	False	False	TRNCMLPPVLMHFFCPPVL		Trincomalee	LK-53	8.551241	81.092014	Uppuweli	PS-530134	8.593614	81.21743	8.607961	81.216512	Nilaveli Rd, Trincomalee, Sri Lanka	1.599005		ත්රිකුණාමලය	උප්පුවේලි	MOH කාර්යාලය - උප්පුවේලි	திருகோணமலை	உப்புவேலி	MOH அலுவலகம் - உப்புவேலி	නිලාවේලි පාර, ත්‍රිකුණාමලය, ශ්‍රී ලංකාව	நிலவேலி வீதி, திருகோணமலை, இலங்கை
Trincomalee	Kantale	MOH Office - Kantale	False	False	TRNCMLKNTLMHFFCKNTL		Trincomalee	LK-53	8.551241	81.092014	Kantale	PS-530241	8.356129	81.007739	8.349617	81.009107	අග්‍රබෝධි මාවත, Kantale, Sri Lanka	0.739809		ත්රිකුණාමලය	කන්තලේ	MOH කාර්යාලය - කන්තලේ	திருகோணமலை	கந்தலே	MOH அலுவலகம் - கந்தலே	වැඩි දියුණු කිරීම මාවත, කන්තලේ, ශ්‍රී ලංකාව	தீவிரப்படுத்தி மாவத்த, கந்தலே, இலங்கை
Trincomalee	Ichchalampattu	MOH Office – Ichchalampattu	False	False	TRNCMLCHCHLMPTTMHFFCCHCHLMPTT	Eachchilampattu Hospital	Trincomalee	LK-53	8.551241	81.092014	Ichchalampattu		8.289549	81.359002	8.289644	81.358983	Highway, Ichchalampattu, Trincomalee, Sri Lanka	0.010772		ත්රිකුණාමලය	ඉච්චලම්පත්තු	එක්ර්චිලම්පත්තු රෝහල	திருகோணமலை	இச்சலம்பட்டு	ஒவ்வொருசிலம்பட்டு மருத்துவமனை	අධිවේගී මාර්ගය, ඉච්චලම්පත්තු, ත්‍රිකුණාමලය, ශ්‍රී ලංකාව	நெடுஞ்சாலை, ஈச்சலாம்பட்டு, திருகோணமலை, இலங்கை
Trincomalee	Ichchalampattu	Sanpaha Vidyalaya	False	False	TRNCMLCHCHLMPTTSNPHVDYLY		Trincomalee	LK-53	8.551241	81.092014	Ichchalampattu		8.289549	81.359002	8.653949	81.21274	M637+H3H, Trincomalee, Sri Lanka	43.609409	#CenterFarFromPolice	ත්රිකුණාමලය	ඉච්චලම්පත්තු	සන්පහා විද්‍යාලය	திருகோணமலை	இச்சலம்பட்டு	சன்பஹா வித்யாலயா	M637+H3H, ත්‍රිකුණාමලය, ශ්‍රී ලංකාව	M637+H3H, திருகோணமலை, இலங்கை
Trincomalee	Thambalagamuwa	MOH Office - Thambalagamuwa	False	False	TRNCMLTHMBLGMWMHFFCTHMBLGMW		Trincomalee	LK-53	8.551241	81.092014	Thambalagamuva	PS-530243	6.907289	79.863819	8.563603	81.239584	Hospital Ln, Trincomalee, Sri Lanka	238.604889	#CenterFarFromPolice	ත්රිකුණාමලය	තඹලගමුව	MOH කාර්යාලය - තඹලගමුව	திருகோணமலை	தம்பலகாமுவா	MOH அலுவலகம் - தம்பலகமுவ	රෝහල, ත්‍රිකුණාමලය, ශ්‍රී ලංකාව	மருத்துவமனை Ln, திருகோணமலை, இலங்கை
Trincomalee	Gomarankadawala	MOH Office - Gomarankadawala	False	False	TRNCMLGMRNKDWLMHFFCGMRNKDWL		Trincomalee	LK-53	8.551241	81.092014	Gomarankadawala	PS-530248	8.674487	80.967555	8.674726	80.955691	Unnamed Road, Gomarankadawala, Sri Lanka	1.304806		ත්රිකුණාමලය	ගෝමරන්කඩවල	එම්ඕඑච් කාර්යාලය - ගෝමරන්කඩවල	திருகோணமலை	கோமரன்கடவாலா	MOH அலுவலகம் - கோமரன்கடவாலா	නම් නොකළ පාර, ගෝමරන්කඩවල, ශ්‍රී ලංකාව	பெயரிடப்படாத சாலை, கோமரன்கடவாலா, இலங்கை
Batticaloa	Batticaloa	Mobile Medical Team	False	False	BTTCLBTTCLMBLMDCLTM		Batticaloa	LK-51	7.792772	81.486513	Batticaloa	PS-510101	7.717949	81.699294					#CenterLocationUnknown	මඩකලපුව	මඩකලපුව	ජංගම වෛද්‍ය කණ්ඩායම	மட்டக்களப்பு	மட்டக்களப்பு	மொபைல் மருத்துவ குழு		
Batticaloa	Batticaloa	MOH Office – Batticaloa	False	False	BTTCLBTTCLMHFFCBTTCL		Batticaloa	LK-51	7.792772	81.486513	Batticaloa	PS-510101	7.717949	81.699294	7.708253	81.691368	Hospital Rd, Batticaloa, Sri Lanka	1.387934		මඩකලපුව	මඩකලපුව	MOH කාර්යාලය - මඩකලපුව	மட்டக்களப்பு	மட்டக்களப்பு	MOH அலுவலகம் - மட்டக்களப்பு	රෝහල පාර, මඩකලපුව, ශ්‍රී ලංකාව	மருத்துவமனை சாலை, மட்டக்களப்பு, இலங்கை
Batticaloa	Kokkadicholai	MOH Office – Kokkadicholai	False	False	BTTCLKKKDCHLMHFFCKKKDCHL		Batticaloa	LK-51	7.792772	81.486513	Kokkadicholai	PS-510112	7.715979	81.698757	7.607311	81.712525	Kokkaddicholai, Batticaloa, Sri Lanka	12.18204		මඩකලපුව	කොක්කඩිචෝලේ	MOH කාර්යාලය - කොක්කඩිචෝලේ	மட்டக்களப்பு	கொக்கடிச்சோலை	MOH அலுவலகம் - கொக்கட்டிச்சோலை	කොක්කඩිචෝලේ, මඩකලපුව, ශ්‍රී ලංකාව	கொக்கட்டிச்சோலை, மட்டக்களப்பு, இலங்கை
Batticaloa	Vellawali	Kalaimagal Vidyalaya	False	False	BTTCLVLLWLKLMGLVDYLY		Batticaloa	LK-51	7.792772	81.486513	Vellavali	PS-510111	6.907289	79.863819	7.503251	81.730235	Ampilanturai-Veeramunai Rd, Sri Lanka	216.365388	#CenterFarFromPolice	මඩකලපුව	වෙල්ලවාලි	කලෙයිමාගල් විද්‍යාලය	மட்டக்களப்பு	வெல்லவாலி	கலைமகள் வித்யாலயா	අම්පිලතුරෙයි-වීරමුණේ පාර, ශ්‍රී ලංකාව	அம்பிலந்துறை-வீரமுனை சாலை, இலங்கை
Batticaloa	Valachchenai	Valachchenai Base Hospital	False	False	BTTCLVLCHCHNVLCHCHNBSHSPTL		Batticaloa	LK-51	7.792772	81.486513	Valachchanai	PS-510107	7.908015	81.533004	7.911315	81.533046	Valaichchenai-Nasuvantivu-Navaladi Road, Sri Lanka	0.367088		මඩකලපුව	වාලච්චේන	වාලච්චේන මූලික රෝහල	மட்டக்களப்பு	வாலாச்சேனை	வாலாச்சேனை ஆதார மருத்துவமனை	වාලච්චේනයි-නසුවන්ටිව්-නවාලාඩි පාර, ශ්‍රී ලංකාව	வாழைச்சேனை-நசுவந்திவு-நாவலடி சாலை, இலங்கை
Batticaloa	Valachchenai	MOH Office – Oddamavadi	False	False	BTTCLVLCHCHNMHFFCDDMVD		Batticaloa	LK-51	7.792772	81.486513	Valachchanai	PS-510107	7.908015	81.533004	7.912281	81.532775	WG6M+W46, Batticaloa, Sri Lanka	0.475177		මඩකලපුව	වාලච්චේන	එම්ඕඑච් කාර්යාලය - ඔද්දමවඩි	மட்டக்களப்பு	வாலாச்சேனை	MOH அலுவலகம் - ஓட்டமாவடி	WG6M+W46, මඩකලපුව, ශ්‍රී ලංකාව	WG6M+W46, மட்டக்களப்பு, இலங்கை
Batticaloa	Valachchenai	MOH Office - Koralepattu Central	False	False	BTTCLVLCHCHNMHFFCKRLPTTCNTRL		Batticaloa	LK-51	7.792772	81.486513	Valachchanai	PS-510107	7.908015	81.533004	7.922593	81.530022	Batticaloa, Sri Lanka	1.654455		මඩකලපුව	වාලච්චේන	MOH කාර්යාලය - කෝරළේපත්තු මධ්‍යම	மட்டக்களப்பு	வாலாச்சேனை	MOH அலுவலகம் - கோரலேப்பட்டு மத்திய	මඩකලපුව, ශ්‍රී ලංකාව	மட்டக்களப்பு, இலங்கை
Batticaloa	Valachchenai	MOH Office - Koralepattu	False	False	BTTCLVLCHCHNMHFFCKRLPTT		Batticaloa	LK-51	7.792772	81.486513	Valachchanai	PS-510107	7.908015	81.533004	7.922593	81.530022	WGFJ+22J, Sri Lanka	1.654455		මඩකලපුව	වාලච්චේන	MOH කාර්යාලය - කෝරළේපත්තු	மட்டக்களப்பு	வாலாச்சேனை	MOH அலுவலகம் - கோரலேபட்டு	WGFJ+22J, ශ්‍රී ලංකාව	WGFJ+22J, இலங்கை
Batticaloa	Valachchenai	Wakaneri Clinic	False	False	BTTCLVLCHCHNWKNRCLNC		Batticaloa	LK-51	7.792772	81.486513	Valachchanai	PS-510107	7.908015	81.533004	7.920433	81.531079	Valaichchenai, Nasuvantivu-Navaladi, Road, Sri Lanka	1.397439		මඩකලපුව	වාලච්චේන	වකානේරි සායනය	மட்டக்களப்பு	வாலாச்சேனை	வாகனேரி கிளினிக்	වාලච්චේනයි, නසුවන්තිව්-නවාලඩි, පාර, ශ්‍රී ලංකාව	வாழைச்சேனை, நசுவந்திவு-நாவலடி, சாலை, இலங்கை
Batticaloa	Valachchenai	Wadamuna Uththuchenai Clinic	False	False	BTTCLVLCHCHNWDMNTHTHCHNCLNC		Batticaloa	LK-51	7.792772	81.486513	Valachchanai	PS-510107	7.908015	81.533004	7.920433	81.531079	Valaichchenai, Nasuvantivu-Navaladi, Road, Sri Lanka	1.397439		මඩකලපුව	වාලච්චේන	වදමුනා උතුචේනායි සායනය	மட்டக்களப்பு	வாலாச்சேனை	வடமுனா ஊத்துச்சேனை மருத்துவமனை	වාලච්චේනයි, නසුවන්තිව්-නවාලඩි, පාර, ශ්‍රී ලංකාව	வாழைச்சேனை, நசுவந்திவு-நாவலடி, சாலை, இலங்கை
Batticaloa	Valachchenai	MOH Office – Kiran	False	False	BTTCLVLCHCHNMHFFCKRN		Batticaloa	LK-51	7.792772	81.486513	Valachchanai	PS-510107	7.908015	81.533004	7.623441	81.717877	Muthalaikudah Kanchirankudah Rd, Sri Lanka	37.64378	#CenterFarFromPolice	මඩකලපුව	වාලච්චේන	MOH කාර්යාලය - කිරාන්	மட்டக்களப்பு	வாலாச்சேனை	MOH அலுவலகம் - கிரண்	මුතලෙයිකුඩා කාංචිරන්කුඩා පාර, ශ්‍රී ලංකාව	முத்தலைக்கூடா காஞ்சிரங்குடா சாலை, இலங்கை
Batticaloa	Vakarai	MOH Office - Vakarai	False	False	BTTCLVKRMHFFCVKR	Divisional Hospital Vakarai	Batticaloa	LK-51	7.792772	81.486513	Wakarai	PS-510109	6.934132	79.856305	8.134552	81.435328	Trincomalee Hwy, Vakarai, Sri Lanka	219.417822	#CenterFarFromPolice	මඩකලපුව	වාකරේ	වාකරේ ප්‍රාදේශීය රෝහල	மட்டக்களப்பு	வாகரை	வாகரை பிரதேச மருத்துவமனை	ත්‍රිකුණාමලය හ්වි, වාකරේ, ශ්‍රී ලංකාව	திருகோணமலை Hwy, வாகரை, இலங்கை
Batticaloa	Vakarai	Sallativu Rural Development Society	False	False	BTTCLVKRSLLTVRRLDVLPMNTSCTY		Batticaloa	LK-51	7.792772	81.486513	Wakarai	PS-510109	6.934132	79.856305	8.597593	81.197232	Mihindapura, Trincomalee, Sri Lanka	236.797432	#CenterFarFromPolice	මඩකලපුව	වාකරේ	සල්ලතිව් ග්‍රාම සංවර්ධන සමිතිය	மட்டக்களப்பு	வாகரை	சல்லடிவு கிராம வளர்ச்சி சங்கம்	මිහින්දපුර, ත්‍රිකුණාමලය, ශ්‍රී ලංකාව	மிஹிந்தபுரா, திருகோணமலை, இலங்கை
Batticaloa	Vakarai	Panichchankeni Vidyalaya	False	False	BTTCLVKRPNCHCHNKNVDYLY		Batticaloa	LK-51	7.792772	81.486513	Wakarai	PS-510109	6.934132	79.856305	8.066667	81.366667	Panichchankerni, Sri Lanka	208.830298	#CenterFarFromPolice	මඩකලපුව	වාකරේ	පනිච්චන්කේනි විද්‍යාලය	மட்டக்களப்பு	வாகரை	பனிச்சங்கேணி வித்யாலயா	පනිච්චන්කර්නි, ශ්‍රී ලංකාව	பனிச்சங்கர்னி, இலங்கை
Batticaloa	Vakarai	Madurankarnikulam Vidyalaya	False	False	BTTCLVKRMDRNKRNKLMVDYLY		Batticaloa	LK-51	7.792772	81.486513	Wakarai	PS-510109	6.934132	79.856305	7.720143	81.700516	PPC2+362, Batticaloa, Sri Lanka	221.443724	#CenterFarFromPolice	මඩකලපුව	වාකරේ	මදුරන්කර්ණිකුලම් විද්‍යාලය	மட்டக்களப்பு	வாகரை	மதுரன்கர்ணிகுளம் வித்யாலயா	පීපීසී 2+362, මඩකලපුව, ශ්‍රී ලංකාව	PPC2+362, மட்டக்களப்பு, இலங்கை
Batticaloa	Vakarai	Kokuvil Rural Development Society	False	False	BTTCLVKRKKVLRRLDVLPMNTSCTY		Batticaloa	LK-51	7.792772	81.486513	Wakarai	PS-510109	6.934132	79.856305	9.690824	80.021143	Kokkuvil, Sri Lanka	307.162528	#CenterFarFromPolice	මඩකලපුව	වාකරේ	කොකුවිල් ග්‍රාමීය සංවර්ධන සමිතිය	மட்டக்களப்பு	வாகரை	கொக்குவில் கிராம வளர்ச்சி சங்கம்	කොක්කුවිල්, ශ්‍රී ලංකාව	கொக்குவில், இலங்கை
Batticaloa	Kaluwanchikudy	MOH Office – Kaluwanchikudy	False	False	BTTCLKLWNCHKDYMHFFCKLWNCHKDY	Medical Officer of Health Kaluwanchikudy	Batticaloa	LK-51	7.792772	81.486513	Kalawanchikudy	PS-510110	7.515908	81.787051	7.509333	81.79204	Colombo - Batticaloa Hwy, Kaluwanchikudy, Sri Lanka	0.915167		මඩකලපුව	කළුවන්චිකුඩි	කළුවන්චිකුඩි සෞඛ්‍ය වෛද්‍ය නිලධාරී	மட்டக்களப்பு	களுவாஞ்சிக்குடி	சுகாதார மருத்துவ அதிகாரி களுவாஞ்சிக்குடி	කොළඹ - මඩකලපුව හ්වි, කලුවාංචිකුඩි, ශ්‍රී ලංකාව	கொழும்பு - மட்டக்களப்பு Hwy, களுவாஞ்சிக்குடி, இலங்கை
Batticaloa	Kaluwanchikudy	Kaluwanchikudy Hospital	False	False	BTTCLKLWNCHKDYKLWNCHKDYHSPTL	Base Hospital - Kaluwanchikudy	Batticaloa	LK-51	7.792772	81.486513	Kalawanchikudy	PS-510110	7.515908	81.787051	7.51724	81.785184	GQ8P+V3V, Kaluwanchikudy, Sri Lanka	0.25365		මඩකලපුව	කළුවන්චිකුඩි	මූලික රෝහල - කළුවන්චිකුඩි	மட்டக்களப்பு	களுவாஞ்சிக்குடி	அடிப்படை மருத்துவமனை - களுவாஞ்சிக்குடி	GQ8P+V3V, කළුවාංචිකුඩි, ශ්‍රී ලංකාව	GQ8P+V3V, களுவாஞ்சிக்குடி, இலங்கை
Batticaloa	Kaluwanchikudy	Kottakallar Maha Vidyalaya	False	False	BTTCLKLWNCHKDYKTTKLLRMHVDYLY		Batticaloa	LK-51	7.792772	81.486513	Kalawanchikudy	PS-510110	7.515908	81.787051	7.487461	81.807055	FRP4+XRM, Kaluwanchikudy, Sri Lanka	3.85724		මඩකලපුව	කළුවන්චිකුඩි	කොට්ටකල්ලර් මහා විද්‍යාලය	மட்டக்களப்பு	களுவாஞ்சிக்குடி	கோட்டக்கல்லர் மகா வித்தியாலயம்	FRP4+XRM, කළුවාංචිකුඩි, ශ්‍රී ලංකාව	FRP4+XRM, களுவாஞ்சிக்குடி, இலங்கை
Batticaloa	Vavunathivu	MOH Office - Vavunathivu	False	False	BTTCLVVNTHVMHFFCVVNTHV		Batticaloa	LK-51	7.792772	81.486513	Vavunathive	PS-510102	6.933075	79.857181	7.708253	81.691368	Hospital Rd, Batticaloa, Sri Lanka	219.95575	#CenterFarFromPolice	මඩකලපුව	වවුනතිව්	MOH කාර්යාලය - වවුනතිව්	மட்டக்களப்பு	வவுணதீவு	MOH அலுவலகம் - வவுணதீவு	රෝහල පාර, මඩකලපුව, ශ්‍රී ලංකාව	மருத்துவமனை சாலை, மட்டக்களப்பு, இலங்கை
Batticaloa	Kattankudy	MOH Office – Kattankudy	False	False	BTTCLKTTNKDYMHFFCKTTNKDY		Batticaloa	LK-51	7.792772	81.486513	Kaththankudi	PS-510103	7.715979	81.698757	7.683586	81.730767	MPMJ+C8J, Kattankudy, Sri Lanka	5.042961		මඩකලපුව	කාත්තන්කුඩි	MOH කාර්යාලය - කාත්තන්කුඩි	மட்டக்களப்பு	காத்தான்குடி	MOH அலுவலகம் - காத்தான்குடி	එම්පීඑම්ජේ+සී 8 ජේ, කාත්තන්කුඩි, ශ්‍රී ලංකාව	MPMJ+C8J, காத்தான்குடி, இலங்கை
Batticaloa	Eravur	Sandiveli Hospital	False	False	BTTCLRVRSNDVLHSPTL		Batticaloa	LK-51	7.792772	81.486513	Eravur	PS-510104	7.715979	81.698757	7.777289	81.602853	Trincomalee Hwy, Eravur, Sri Lanka	12.578998		මඩකලපුව	එරාවුර්	සඳිවේලි රෝහල	மட்டக்களப்பு	ஏறாவூர்	சண்டிவேலி மருத்துவமனை	ත්‍රිකුණාමලය හ්වි, එරාවුර්, ශ්‍රී ලංකාව	திருகோணமலை Hwy, ஏறாவூர், இலங்கை
Batticaloa	Eravur	MOH Office – Eravur	False	False	BTTCLRVRMHFFCRVR		Batticaloa	LK-51	7.792772	81.486513	Eravur	PS-510104	7.715979	81.698757	7.783664	81.605626	QJM4+F76, Eravur, Sri Lanka	12.729342		මඩකලපුව	එරාවුර්	MOH කාර්යාලය - එරාවුර්	மட்டக்களப்பு	ஏறாவூர்	MOH அலுவலகம் - ஏறாவூர்	QJM4+F76, එරාවුර්, ශ්‍රී ලංකාව	QJM4+F76, ஏறாவூர், இலங்கை
Batticaloa	Eravur	MOH Office - Eravur	False	False	BTTCLRVRMHFFCRVR		Batticaloa	LK-51	7.792772	81.486513	Eravur	PS-510104	7.715979	81.698757	7.783664	81.605626	QJM4+F76, Eravur, Sri Lanka	12.729342		මඩකලපුව	එරාවුර්	MOH කාර්යාලය - එරාවුර්	மட்டக்களப்பு	ஏறாவூர்	MOH அலுவலகம் - ஏறாவூர்	QJM4+F76, එරාවුර්, ශ්‍රී ලංකාව	QJM4+F76, ஏறாவூர், இலங்கை
Batticaloa	Eravur	Suhada Church	False	False	BTTCLRVRSHDCHRCH		Batticaloa	LK-51	7.792772	81.486513	Eravur	PS-510104	7.715979	81.698757	7.709935	81.6955	No 34A Central Road, Batticaloa 30000, Sri Lanka	0.762123		මඩකලපුව	එරාවුර්	සුහද පල්ලිය	மட்டக்களப்பு	ஏறாவூர்	சுஹதா தேவாலயம்	අංක 34 ඒ මධ්‍යම පාර, මඩකලපුව 30000, ශ්‍රී ලංකාව	எண் 34A மத்திய சாலை, மட்டக்களப்பு 30000, இலங்கை
Batticaloa	Eravur	Eravur Hospital	False	False	BTTCLRVRRVRHSPTL		Batticaloa	LK-51	7.792772	81.486513	Eravur	PS-510104	7.715979	81.698757	7.783168	81.605999	QJM4+799, Eravur 30300, Sri Lanka	12.663585		මඩකලපුව	එරාවුර්	එරාවුර් රෝහල	மட்டக்களப்பு	ஏறாவூர்	ஏறாவூர் மருத்துவமனை	QJM4+799, එරාවුර් 30300, ශ්‍රී ලංකාව	QJM4+799, ஏறாவூர் 30300, இலங்கை
Batticaloa	Eravur	Mawadiwembu Hospital	False	False	BTTCLRVRMWDWMBHSPTL		Batticaloa	LK-51	7.792772	81.486513	Eravur	PS-510104	7.715979	81.698757	7.808545	81.566328	Mawadiwembu Hospital, Sri Lanka	17.861302		මඩකලපුව	එරාවුර්	මාවඩිවේඹු රෝහල	மட்டக்களப்பு	ஏறாவூர்	மாவடிவெம்பு மருத்துவமனை	මාවඩිවේඹු රෝහල, ශ්‍රී ලංකාව	மாவடிவெம்பு மருத்துவமனை, இலங்கை
Batticaloa	Eravur	MOH Office – Chenkaladi	False	False	BTTCLRVRMHFFCCHNKLD		Batticaloa	LK-51	7.792772	81.486513	Eravur	PS-510104	7.715979	81.698757	7.783599	81.593367	Trincomalee Hwy, Chenkaladi 30350, Sri Lanka	13.837876		මඩකලපුව	එරාවුර්	MOH කාර්යාලය - චෙන්කලාඩි	மட்டக்களப்பு	ஏறாவூர்	MOH அலுவலகம் - செங்கலடி	ත්‍රිකුණාමලය හ්වි, චෙන්කලාඩි 30350, ශ්‍රී ලංකාව	திருகோணமலை Hwy, செங்கலடி 30350, இலங்கை
Batticaloa	Eravur	Chenkaladi Hospital	False	False	BTTCLRVRCHNKLDHSPTL		Batticaloa	LK-51	7.792772	81.486513	Eravur	PS-510104	7.715979	81.698757	7.783546	81.589961	Batticaloa Rd, Chenkaladi, Sri Lanka	14.151406		මඩකලපුව	එරාවුර්	චෙන්කලාඩි රෝහල	மட்டக்களப்பு	ஏறாவூர்	செங்கலடி மருத்துவமனை	මඩකලපුව පාර, චෙන්කලාඩි, ශ්‍රී ලංකාව	மட்டக்களப்பு வீதி, செங்கலடி, இலங்கை
Batticaloa	Karadiyanaru	Karadiyanaru Hospital	False	False	BTTCLKRDYNRKRDYNRHSPTL		Batticaloa	LK-51	7.792772	81.486513	Karadiyanaru	PS-510105	7.701992	81.537252	7.700216	81.539779	PG2Q+3WJ, Karadiyanaru, Sri Lanka	0.341482		මඩකලපුව	කරදියනාරු	කරදියනාරු රෝහල	மட்டக்களப்பு	கரடியனாறு	கரடியனாறு மருத்துவமனை	PG2Q+3WJ, කරදියනාරු, ශ්‍රී ලංකාව	PG2Q+3WJ, கரடியனாறு, இலங்கை
Ampara	Ampara	Ds Senanayaka Vidyalaya	False	False	MPRMPRDSSNNYKVDYLY		Ampara	LK-52	7.23699	81.550391	Ampara	PS-520113	7.296771	81.677161	7.303531	81.671966	Dharmapala Mawatha, Ampara, Sri Lanka	0.945453		අම්පාර	අම්පාර	ඩී එස් සේනානායක විද්‍යාලය	அம்பாறை	அம்பாறை	டிஎஸ் சேனாநாயக்க வித்யாலயா	ධර්මපාල මාවත, අම්පාර, ශ්‍රී ලංකාව	தர்மபால மாவத்தை, அம்பாறை, இலங்கை
Ampara	Ampara	Uhana Maha Vidyalaya	False	False	MPRMPRHNMHVDYLY		Ampara	LK-52	7.23699	81.550391	Ampara	PS-520113	7.296771	81.677161	7.36768	81.640838	Central Camp Rd, Sri Lanka	8.846763		අම්පාර	අම්පාර	උහන මහා විද්‍යාලය	அம்பாறை	அம்பாறை	உஹன மகா வித்தியாலயம்	මධ්‍යම කඳවුර පාර, ශ්‍රී ලංකාව	மத்திய முகாம் சாலை, இலங்கை
Ampara	Ampara	MOH Office – Eragama	False	False	MPRMPRMHFFCRGM		Ampara	LK-52	7.23699	81.550391	Ampara	PS-520113	7.296771	81.677161	7.027386	79.920232	2WGC+X35, Ragama, Sri Lanka	196.199345	#CenterFarFromPolice	අම්පාර	අම්පාර	එම්ඕඑච් කාර්යාලය - එරගම	அம்பாறை	அம்பாறை	MOH அலுவலகம் - எரகம	2WGC+X35, රාගම, ශ්‍රී ලංකාව	2WGC+X35, ராகம, இலங்கை
Ampara	Ampara	MOH Office - Damana	False	False	MPRMPRMHFFCDMN		Ampara	LK-52	7.23699	81.550391	Ampara	PS-520113	7.296771	81.677161	7.197982	81.65538	5MX4+55R, Damana, Sri Lanka	11.248041		අම්පාර	අම්පාර	MOH කාර්යාලය - දමන	அம்பாறை	அம்பாறை	MOH அலுவலகம் - தமனா	5MX4+55R, දමන, ශ්‍රී ලංකාව	5MX4+55R, டாமனா, இலங்கை
Ampara	Chavalakade	MOH Office – Navidanveli	False	False	MPRCHVLKDMHFFCNVDNVL		Ampara	LK-52	7.23699	81.550391	Chawalakade	PS-520125	7.413559	81.776822	7.420081	81.788401	B77, Sri Lanka	1.468805		අම්පාර	චවලකඩේ	MOH කාර්යාලය - නාවිදන්වේලි	அம்பாறை	சவளகடே	MOH அலுவலகம் - நாவிதன்வெளி	බී 77, ශ්‍රී ලංකාව	பி 77, இலங்கை
Ampara	Chavalakade	5th Colony Health Centre	False	False	MPRCHVLKDTHCLNYHLTHCNTR		Ampara	LK-52	7.23699	81.550391	Chawalakade	PS-520125	7.413559	81.776822	7.418836	81.781436	Chavalakade, Sri Lanka	0.776867		අම්පාර	චවලකඩේ	5 වන ජනපද සෞඛ්‍ය මධ්‍යස්ථානය	அம்பாறை	சவளகடே	5 வது காலனி சுகாதார மையம்	චවලකඩේ, ශ්‍රී ලංකාව	சவளகடே, இலங்கை
Ampara	Karaitivu	MOH Office – Karaitivu	False	False	MPRKRTVMHFFCKRTV		Ampara	LK-52	7.23699	81.550391	Karaitivu		9.744059	79.870587	7.377712	81.838796	Colombo-Ratnapura-Wellawaya-Batticaloa Highway, Karativu 32250, Sri Lanka	340.788666	#CenterFarFromPolice	අම්පාර	කාරතිව්	MOH කාර්යාලය - කරෙයිතිව්	அம்பாறை	காரைதீவு	MOH அலுவலகம் - காரைதீவு	කොළඹ-රත්නපුර-වැල්ලවාය-මඩකලපුව අධිවේගී මාර්ගය, කරතිවු 32250, ශ්‍රී ලංකාව	கொழும்பு-இரத்தினபுரி-வெள்ளவாயா-மட்டக்களப்பு நெடுஞ்சாலை, காரடிவு 32250, இலங்கை
Ampara	Karaitivu	Al Husen Vidyalaya	False	False	MPRKRTVLHSNVDYLY		Ampara	LK-52	7.23699	81.550391	Karaitivu		9.744059	79.870587	7.388044	81.841647	Maligaroad, Karaitivu, Kalmunai 32250, Sri Lanka	340.099835	#CenterFarFromPolice	අම්පාර	කාරතිව්	අල් හුසෙන් විද්‍යාලය	அம்பாறை	காரைதீவு	அல் ஹூசன் வித்யாலயா	මාලිගාආඩ්, කාරතිව්, කල්මුණේ 32250, ශ්‍රී ලංකාව	மாளிகரோட், காரைதீவு, கல்முனை 32250, இலங்கை
Ampara	Kalmunai	Ashraff Memorial Hospital	False	False	MPRKLMNSHRFFMMRLHSPTL		Ampara	LK-52	7.23699	81.550391	Kalmunai	PS-520123	7.414289	81.825006	7.403172	81.831146	A4, Ashraff Memorial Base Hospital, A4 A4, Kalmunai 32300, Sri Lanka	1.409859		අම්පාර	කල්මුණේ	අෂ්රොෆ් අනුස්මරණ රෝහල	அம்பாறை	கல்முனை	அஷ்ரஃப் நினைவு மருத்துவமனை	ඒ 4, අෂ්රොෆ් අනුස්මරණ මූලික රෝහල, ඒ 4 ඒ 4, කල්මුණේ 32300, ශ්‍රී ලංකාව	A4, அஷ்ரஃப் மெமோரியல் பேஸ் ஹாஸ்பிடல், A4 A4, கல்முனை 32300, இலங்கை
Ampara	Kalmunai	MOH Office - Kalmunai North	False	False	MPRKLMNMHFFCKLMNNRTH		Ampara	LK-52	7.23699	81.550391	Kalmunai	PS-520123	7.414289	81.825006	7.411712	81.838462	CR6Q+M9P, Kalmunai 32300, Sri Lanka	1.511625		අම්පාර	කල්මුණේ	MOH කාර්යාලය - කල්මුණේ උතුර	அம்பாறை	கல்முனை	MOH அலுவலகம் - கல்முனை வடக்கு	CR6Q+M9P, කල්මුණේ 32300, ශ්‍රී ලංකාව	CR6Q+M9P, கல்முனை 32300, இலங்கை
Ampara	Kalmunai	Base Hospital - Kalmunai North	False	False	MPRKLMNBSHSPTLKLMNNRTH		Ampara	LK-52	7.23699	81.550391	Kalmunai	PS-520123	7.414289	81.825006	7.420034	81.82232	hospital near, Kalmunai 32300, Sri Lanka	0.704353		අම්පාර	කල්මුණේ	මූලික රෝහල - කල්මුණේ උතුර	அம்பாறை	கல்முனை	அடிப்படை மருத்துவமனை - கல்முனை வடக்கு	රෝහල අසල, කල්මුණේ 32300, ශ්‍රී ලංකාව	மருத்துவமனை அருகில், கல்முனை 32300, இலங்கை
Ampara	Kalmunai	MOH Office - Kalmunai South	False	False	MPRKLMNMHFFCKLMNSTH		Ampara	LK-52	7.23699	81.550391	Kalmunai	PS-520123	7.414289	81.825006	7.411712	81.838462	CR6Q+M9P, Kalmunai 32300, Sri Lanka	1.511625		අම්පාර	කල්මුණේ	MOH කාර්යාලය - කල්මුණේ දකුණ	அம்பாறை	கல்முனை	MOH அலுவலகம் - கல்முனை தெற்கு	CR6Q+M9P, කල්මුණේ 32300, ශ්‍රී ලංකාව	CR6Q+M9P, கல்முனை 32300, இலங்கை
Ampara	Kalmunai	Al Bahariya National College	False	False	MPRKLMNLBHRYNTNLCLLG		Ampara	LK-52	7.23699	81.550391	Kalmunai	PS-520123	7.414289	81.825006	7.399481	81.839854	Zahira College Rd, Sainthamaruthu 32280, Sri Lanka	2.32275		අම්පාර	කල්මුණේ	අල් බහාරියා ජාතික විද්‍යාලය	அம்பாறை	கல்முனை	அல் பஹாரியா தேசிய கல்லூரி	සහිරා විද්‍යාලය පාර, සාන්තමරුතු 32280, ශ්‍රී ලංකාව	ஸாஹிரா கல்லூரி வீதி, சாய்ந்தமருது 32280, இலங்கை
Ampara	Kalmunai	Al Manar Central College	False	False	MPRKLMNLMNRCNTRLCLLG		Ampara	LK-52	7.23699	81.550391	Kalmunai	PS-520123	7.414289	81.825006	7.436331	81.812701	Maruthamunai, Sri Lanka	2.802316		අම්පාර	කල්මුණේ	අල් මනාර් මධ්‍ය විද්‍යාලය	அம்பாறை	கல்முனை	அல் மனார் மத்திய கல்லூரி	මරුතාමුණේ, ශ්‍රී ලංකාව	மருதமுனை, இலங்கை
Ampara	Kalmunai	Al Madina Vidyalaya	False	False	MPRKLMNLMDNVDYLY		Ampara	LK-52	7.23699	81.550391	Kalmunai	PS-520123	7.414289	81.825006	7.434363	81.817655	03 Mashoor Moulana Rd, Maruthamunai 32314, Sri Lanka	2.375481		අම්පාර	කල්මුණේ	අල් මදීනා විද්‍යාලය	அம்பாறை	கல்முனை	அல் மதீனா வித்யாலயா	03 මාෂූර් මවුලානා පාර, මරුතාමුණේ 32314, ශ්‍රී ලංකාව	03 மஷூர் மouலானா சாலை, மருதமுனை 32314, இலங்கை
Ampara	Sainthamarthu	MOH Office – Sainthamarthu	False	False	MPRSNTHMRTHMHFFCSNTHMRTH		Ampara	LK-52	7.23699	81.550391									#PoliceLocationUnknown	අම්පාර	සයින්දමර්තු	MOH කාර්යාලය - සයින්දමර්තු	அம்பாறை	சாய்ந்தமருது	MOH அலுவலகம் - சாய்ந்தமருது		
Ampara	Sainthamarthu	Saindamarudu Hospital	False	False	MPRSNTHMRTHSNDMRDHSPTL		Ampara	LK-52	7.23699	81.550391									#PoliceLocationUnknown	අම්පාර	සයින්දමර්තු	සයින්දමරුදු රෝහල	அம்பாறை	சாய்ந்தமருது	சைந்தமருது மருத்துவமனை		
Ampara	Sammanthurai	Sammanthurai Base Hospital	False	False	MPRSMMNTHRSMMNTHRBSHSPTL		Ampara	LK-52	7.23699	81.550391	Samanthurai	PS-520124	7.365785	81.810859	7.368355	81.813042	9R96+MWM, Hospital Rd, Sammanthurai, Sri Lanka	0.373773		අම්පාර	සමන්තුරේ	සමන්තුරේ මූලික රෝහල	அம்பாறை	சம்மாந்துறை	சம்மாந்துறை அடிப்படை மருத்துவமனை	9R96+MWM, රෝහල් පාර, සමන්තුරේ, ශ්‍රී ලංකාව	9R96+MWM, மருத்துவமனை சாலை, சம்மாந்துறை, இலங்கை
Ampara	Sammanthurai	MOH Office – Nintavur	False	False	MPRSMMNTHRMHFFCNNTVR		Ampara	LK-52	7.23699	81.550391	Samanthurai	PS-520124	7.365785	81.810859	7.352821	81.856939	Hospital Rd, Nintavur 32340, Sri Lanka	5.283925		අම්පාර	සමන්තුරේ	එම්ඕඑච් කාර්යාලය - නින්දවූර්	அம்பாறை	சம்மாந்துறை	MOH அலுவலகம் - நிந்தவூர்	රෝහල පාර, නින්දවූර් 32340, ශ්‍රී ලංකාව	மருத்துவமனை Rd, நிந்தவூர் 32340, இலங்கை
Ampara	Sammanthurai	Nintavur Hospital	False	False	MPRSMMNTHRNNTVRHSPTL		Ampara	LK-52	7.23699	81.550391	Samanthurai	PS-520124	7.365785	81.810859	7.353372	81.856852	Hospital Rd, Nintavur, Sri Lanka	5.258159		අම්පාර	සමන්තුරේ	නින්දවූර් රෝහල	அம்பாறை	சம்மாந்துறை	நிந்தவூர் மருத்துவமனை	රෝහල පාර, නින්දවූර්, ශ්‍රී ලංකාව	மருத்துவமனை Rd, நிந்தவூர், இலங்கை
Ampara	Sammanthurai	Darussalam Vidyalaya	False	False	MPRSMMNTHRDRSSLMVDYLY		Ampara	LK-52	7.23699	81.550391	Samanthurai	PS-520124	7.365785	81.810859	7.357562	81.802725	9R53+23H, Sammanthurai, Sri Lanka	1.281286		අම්පාර	සමන්තුරේ	දරුස්සලාම් විද්‍යාලය	அம்பாறை	சம்மாந்துறை	தாருஸ்ஸலாம் வித்யாலயா	9 ආර් 53+23 එච්, සමන්තුරේ, ශ්‍රී ලංකාව	9R53+23H, சம்மாந்துறை, இலங்கை
Ampara	Sammanthurai	Kannahi Vidyalaya	False	False	MPRSMMNTHRKNNHVDYLY		Ampara	LK-52	7.23699	81.550391	Samanthurai	PS-520124	7.365785	81.810859	7.35018	81.80359	Kallarichchel 02, Sammanthurai, Sri Lanka	1.912014		අම්පාර	සමන්තුරේ	කන්නහි විද්‍යාලය	அம்பாறை	சம்மாந்துறை	கண்ணாஹி வித்யாலயா	කල්ලරිචෙල් 02, සම්මන්තුරේ, ශ්‍රී ලංකාව	கல்லறிச்செல் 02, சம்மாந்துறை, இலங்கை
Ampara	Sammanthurai	Al Marjan Vidyalaya	False	False	MPRSMMNTHRLMRJNVDYLY		Ampara	LK-52	7.23699	81.550391	Samanthurai	PS-520124	7.365785	81.810859	7.363356	81.799869	9Q7X+8WX, Sammanthurai, Sri Lanka	1.242072		අම්පාර	සමන්තුරේ	අල් මර්ජාන් විද්‍යාලය	அம்பாறை	சம்மாந்துறை	அல் மர்ஜன் வித்யாலயா	9Q7X+8WX, සම්මන්තුරේ, ශ්‍රී ලංකාව	9Q7X+8WX, சம்மாந்துறை, இலங்கை
Ampara	Thirukkovil	MOH Office – Thirukkovil	False	False	MPRTHRKKVLMHFFCTHRKKVL		Ampara	LK-52	7.23699	81.550391	Thirukkovil	PS-520127	7.113998	81.852219	7.111635	81.852892	Central Rd, Vinayagapuram, Sri Lanka	0.273131		අම්පාර	තිරුක්කෝවිල්	MOH කාර්යාලය - තිරුක්කෝවිල්	அம்பாறை	திருக்கோவில்	MOH அலுவலகம் - திருக்கோவில்	මධ්‍යම පාර, විනයාගපුරම්, ශ්‍රී ලංකාව	மத்திய வீதி, விநாயகபுரம், இலங்கை
Ampara	Akkaraipattu	Akkaraipattu Nuraniya Church	False	False	MPRKKRPTTKKRPTTNRNYCHRCH		Ampara	LK-52	7.23699	81.550391	Akkaraipattu	PS-520126	7.216084	81.853254	7.217154	81.849717	Sagama Rd, Akkaraipattu, Sri Lanka	0.408046		අම්පාර	අක්කරපත්තුව	අක්කරෙයිපත්තු නුරානිය පල්ලිය	அம்பாறை	அக்கரைப்பற்று	அக்கரைப்பற்று நூரானிய தேவாலயம்	සගම පාර, අක්කරපත්තුව, ශ්‍රී ලංකාව	சாகம வீதி, அக்கரைப்பற்று, இலங்கை
Ampara	Akkaraipattu	MOH Office – Akkaraipattu	False	False	MPRKKRPTTMHFFCKKRPTT		Ampara	LK-52	7.23699	81.550391	Akkaraipattu	PS-520126	7.216084	81.853254	7.228134	81.851123	6VH2+7C5, Akkaraipattu, Sri Lanka	1.360772		අම්පාර	අක්කරපත්තුව	MOH කාර්යාලය - අක්කරපත්තුව	அம்பாறை	அக்கரைப்பற்று	MOH அலுவலகம் - அக்கரைப்பற்று	6VH2+7C5, අක්කරපත්තුව, ශ්‍රී ලංකාව	6VH2+7C5, அக்கரைப்பற்று, இலங்கை
Ampara	Akkaraipattu	MOH Office - Alayadivembu	False	False	MPRKKRPTTMHFFCLYDVMB		Ampara	LK-52	7.23699	81.550391	Akkaraipattu	PS-520126	7.216084	81.853254	7.228134	81.851123	6VH2+7C5, Akkaraipattu, Sri Lanka	1.360772		අම්පාර	අක්කරපත්තුව	එම්ඕඑච් කාර්යාලය - අලයාදිවෙම්බු	அம்பாறை	அக்கரைப்பற்று	MOH அலுவலகம் - ஆலையடிவேம்பு	6VH2+7C5, අක්කරපත්තුව, ශ්‍රී ලංකාව	6VH2+7C5, அக்கரைப்பற்று, இலங்கை
Ampara	Akkaraipattu	MOH Office – Addalachenai	False	False	MPRKKRPTTMHFFCDDLCHN		Ampara	LK-52	7.23699	81.550391	Akkaraipattu	PS-520126	7.216084	81.853254	7.260916	81.853493	7V63+999, Addalaichenai, Sri Lanka	4.986726		අම්පාර	අක්කරපත්තුව	MOH කාර්යාලය - අද්දලචේනයි	அம்பாறை	அக்கரைப்பற்று	MOH அலுவலகம் - ஆடலச்சேனை	7V63+999, අද්දලෙයිචේනෙයි, ශ්‍රී ලංකාව	7V63+999, அடிலைச்சேனை, இலங்கை
Ampara	Akkaraipattu	Badur Mosque	False	False	MPRKKRPTTBDRMSQ		Ampara	LK-52	7.23699	81.550391	Akkaraipattu	PS-520126	7.216084	81.853254	7.21798	81.859573	Deens Road, Akkaraipattu, Sri Lanka	0.728487		අම්පාර	අක්කරපත්තුව	බදුර් පල්ලිය	அம்பாறை	அக்கரைப்பற்று	படூர் மசூதி	ඩීන්ස් පාර, අක්කරපත්තුව, ශ්‍රී ලංකාව	டீன்ஸ் சாலை, அக்கரைப்பற்று, இலங்கை
Ampara	Pottuvil	Al Sadick Vidyalaya	False	False	MPRPTTVLLSDCKVDYLY		Ampara	LK-52	7.23699	81.550391	Pothuvil	PS-520128	6.878387	81.826859	6.875271	81.830633	Pottuvil, Sri Lanka	0.542048		අම්පාර	පොතුවිල්	අල් සාදික් විද්‍යාලය	அம்பாறை	பொட்டுவில்	அல் சதிக் வித்யாலயா	පොතුවිල්, ශ්‍රී ලංකාව	பொத்துவில், இலங்கை
Ampara	Pottuvil	Inpektar Eththama Tamil College	False	False	MPRPTTVLNPKTRTHTHMTMLCLLG		Ampara	LK-52	7.23699	81.550391	Pothuvil	PS-520128	6.878387	81.826859	6.87931	81.834855	College Rd, Pottuvil, Sri Lanka	0.88894		අම්පාර	පොතුවිල්	ඉන්පෙක්තාර් එතමා දෙමළ විද්‍යාලය	அம்பாறை	பொட்டுவில்	இன்பெக்டர் எத்தமா தமிழ் கல்லூரி	විද්‍යාලය පාර, පොතුවිල්, ශ්‍රී ලංකාව	கல்லூரி வீதி, பொத்துவில், இலங்கை
Ampara	Pottuvil	Pottuvil Hospital	False	False	MPRPTTVLPTTVLHSPTL		Ampara	LK-52	7.23699	81.550391	Pothuvil	PS-520128	6.878387	81.826859	6.876098	81.830463	Main Street Colombo - Batticaloa Hwy, Pottuvil 32500, Sri Lanka	0.47246		අම්පාර	පොතුවිල්	පොතුවිල් රෝහල	அம்பாறை	பொட்டுவில்	பொத்துவில் மருத்துவமனை	කොළඹ ප්‍රධාන වීදිය - මඩකලපුව හ්වි, පොතුවිල් 32500, ශ්‍රී ලංකාව	பிரதான வீதி கொழும்பு - மட்டக்களப்பு Hwy, பொத்துவில் 32500, இலங்கை
