district	police	center	dose1	dose2	fuzzy_key	alt_name	district_name_norm	district_id	district_lat	district_lng	ps_name_norm	ps_id	ps_lat	ps_lng	lat	lng	formatted_address	dis_center_to_police	tags	district_si	police_si	center_si	district_ta	police_ta	center_ta	formatted_address_si	formatted_address_ta
Colombo	Cinnamon Gardens	Viharamahadevi Park	True	True	CLMBCNNMNGRDNSVHRMHDVPRK		Colombo	LK-11	6.869636	80.019598	Cinnamon Garden	PS-110324	6.907289	79.863819	6.913391	79.86174	Viharamahadevi Park, Colombo, Sri Lanka	0.716497		කොළඹ	කුරුඳු උද්‍යාන	විහාරමහාදේවි උද්‍යානය	கொழும்பு	இலவங்கப்பட்டை தோட்டங்கள்	விஹாரமஹாதேவி பூங்கா	විහාරමහාදේවි උද්‍යානය, කොළඹ, ශ්‍රී ලංකාව	விஹாரமஹாதேவி பூங்கா, கொழும்பு, இலங்கை
Colombo	Narahenpita	Army Hospital Narahenpita	False	False	CLMBNRHNPTRMYHSPTLNRHNPT		Colombo	LK-11	6.869636	80.019598	Narahenpita	PS-110321	6.891832	79.876715	6.900252	79.87618	08 Elvitigala Mawatha, Colombo 00800, Sri Lanka	0.938417		කොළඹ	නාරාහේන්පිට	නාරාහේන්පිට හමුදා රෝහල	கொழும்பு	நரஹேன்பிட்ட	இராணுவ மருத்துவமனை நாரஹேன்பிட்ட	08 ඇල්විටිගල මාවත, කොළඹ 00800, ශ්‍රී ලංකාව	08 எல்விட்டிகல மாவத்தை, கொழும்பு 00800, இலங்கை
Colombo	Narahenpita	Army Headquarters Mobile Team	False	False	CLMBNRHNPTRMYHDQRTRSMBLTM		Colombo	LK-11	6.869636	80.019598	Narahenpita	PS-110321	6.891832	79.876715					#CenterLocationUnknown	කොළඹ	නාරාහේන්පිට	යුද හමුදා මූලස්ථානයේ ජංගම කණ්ඩායම	கொழும்பு	நரஹேன்பிட்ட	இராணுவ தலைமையகம் மொபைல் குழு		
Colombo	Maradana	Mobile Medical Team	False	False	CLMBMRDNMBLMDCLTM		Colombo	LK-11	6.869636	80.019598	Maradana	PS-110107	6.927939	79.865471					#CenterLocationUnknown	කොළඹ	මරදාන	ජංගම වෛද්‍ය කණ්ඩායම	கொழும்பு	மரதானா	மொபைல் மருத்துவ குழு		
Colombo	Boralesgamuwa	Kotelawala Defence Hospital	False	True	CLMBBRLSGMWKTLWLDFNCHSPTL		Colombo	LK-11	6.869636	80.019598	Boralesgamuwa	PS-110464	6.841331	79.901255	6.82518	79.907167	RWG4+3VF, Boralesgamuwa, Sri Lanka	1.911444		කොළඹ	බොරලැස්ගමුව	කොතලාවල ආරක්‍ෂක රෝහල	கொழும்பு	பொரலஸ்கமுவா	கொத்தலாவல பாதுகாப்பு மருத்துவமனை	RWG4+3VF, බොරලැස්ගමුව, ශ්‍රී ලංකාව	RWG4+3VF, பொரலஸ்கமுவா, இலங்கை
Colombo	Thalangama	Diyatha Uyana	True	True	CLMBTHLNGMDYTHYN		Colombo	LK-11	6.869636	80.019598	Thalangama	PS-110466	6.91089	79.929325	6.904575	79.909831	Diyatha Uyana, B240, Sri Jayawardenepura Kotte, Sri Lanka	2.264281		කොළඹ	තලංගම	දියත උයන	கொழும்பு	தலங்கம	தியாத உயனா	දියත උයන, බී 240, ශ්‍රී ජයවර්ධනපුර කෝට්ටේ, ශ්‍රී ලංකාව	தியாத உயனா, B240, ஸ்ரீ ஜெயவர்தனபுர கோட்டே, இலங்கை
Colombo	Grandpass	Sugathadasa Outdoor Stadium	False	False	CLMBGRNDPSSSGTHDSTDRSTDM		Colombo	LK-11	6.869636	80.019598	Grandpass	PS-110215	6.949052	79.872983	6.94806	79.868842	Prince of Wales Ave, Colombo 01400, Sri Lanka	0.470345		කොළඹ	ග්‍රෑන්ඩ්පාස්	සුගතදාස එළිමහන් ක්‍රීඩාංගනය	கொழும்பு	கிராண்ட்பாஸ்	சுகததாச வெளிப்புற அரங்கம்	වේල්ස් කුමර මාවත, කොළඹ 01400, ශ්‍රී ලංකාව	பிரின்ஸ் ஆஃப் வேல்ஸ் அவே, கொழும்பு 01400, இலங்கை
Colombo	Borella	St. Luke's Church – Borella	False	False	CLMBBRLLSTLKSCHRCHBRLL		Colombo	LK-11	6.869636	80.019598	Borella	PS-110323	6.915266	79.87829	6.918035	79.874548	1091 Gnanartha Pradeepa Mawatha, Colombo 00800, Sri Lanka	0.515354		කොළඹ	බොරැල්ල	ශාන්ත ලූක් දේවස්ථානය - බොරැල්ල	கொழும்பு	பொரெல்லா	செயின்ட் லூக்கா தேவாலயம் - பொரெல்லா	1091 ඥානාර්ථ ප්‍රදීපා මාවත, කොළඹ 00800, ශ්‍රී ලංකාව	1091 ஞானார்த்த பிரதீப மாவத்தை, கொழும்பு 00800, இலங்கை
Colombo	Fore shore	MOH Office - Jinthupitiya	False	False	CLMBFRSHRMHFFCJNTHPTY		Colombo	LK-11	6.869636	80.019598	Fore shore	PS-110210	6.949589	79.857355	6.943258	79.859238	No.27 Vivekananda Hill, Colombo 01300, Sri Lanka	0.734247		කොළඹ	ඉදිරිපස වෙරළ	MOH කාර්යාලය - ජින්තුපිටිය	கொழும்பு	முன் கரை	MOH அலுவலகம் - ஜிந்துபிடியா	අංක 27 විවේකානන්ද කන්ද, කොළඹ 01300, ශ්‍රී ලංකාව	எண் .27 விவேகானந்த மலை, கொழும்பு 01300, இலங்கை
Gampaha	Gampaha Katunayaka	Mobile Medical Team	True	True	GMPHGMPHKTNYKMBLMDCLTM		Gampaha	LK-12	7.123598	80.018508									#CenterLocationUnknown	ගම්පහ	ගම්පහ කටුනායක	ජංගම වෛද්‍ය කණ්ඩායම	கம்பஹா	கம்பஹ கட்டுநாயக்க	மொபைல் மருத்துவ குழு		
Gampaha	Gampaha Katunayaka	BOI - Katunayaka - CCL	False	False	GMPHGMPHKTNYKBKTNYKCCL		Gampaha	LK-12	7.123598	80.018508									#PoliceLocationUnknown	ගම්පහ	ගම්පහ කටුනායක	ආයෝජන මණ්ඩලය - කටුනායක - සීසීඑල්	கம்பஹா	கம்பஹ கட்டுநாயக்க	BOI - கட்டுநாயக்க - CCL		
Gampaha	Kadawata	Pinnameda Clinic	False	False	GMPHKDWTPNNMDCLNC		Gampaha	LK-12	7.123598	80.018508	Kadawatha	PS-120136	7.00152	79.95003	7.001164	79.950362	2X22+F49, Kadawatha, Sri Lanka	0.053958		ගම්පහ	කඩවත	පින්නමෙඩා සායනය	கம்பஹா	கடவாடா	பின்னமேடா கிளினிக்	2X22+F49, කඩවත, ශ්‍රී ලංකාව	2X22+F49, கடவத்தை, இலங்கை
Gampaha	Kadawata	MOH Office – Mahara	False	False	GMPHKDWTMHFFCMHR		Gampaha	LK-12	7.123598	80.018508	Kadawatha	PS-120136	7.00152	79.95003	7.020757	79.973481	Mahara, Eldeniya, Sri Lanka	3.358732		ගම්පහ	කඩවත	MOH කාර්යාලය - මහර	கம்பஹா	கடவாடா	MOH அலுவலகம் - மஹாரா	මහර, ඇල්දෙනිය, ශ්‍රී ලංකාව	மஹாரா, எல்டெனியா, இலங்கை
Gampaha	Kadawata	Eldeniya Clinic	False	False	GMPHKDWTLDNYCLNC		Gampaha	LK-12	7.123598	80.018508	Kadawatha	PS-120136	7.00152	79.95003	7.012321	79.967061	2X68+WRF, Eldeniya, Sri Lanka	2.231261		ගම්පහ	කඩවත	එල්දෙණිය සායනය	கம்பஹா	கடவாடா	எல்டெனியா கிளினிக்	2X68+ඩබ්ලිව්ආර්එෆ්, ඇල්දෙනිය, ශ්‍රී ලංකාව	2X68+WRF, எல்டெனியா, இலங்கை
Gampaha	Divulapitiya	MOH Office - Divulapitiya	False	False	GMPHDVLPTYMHFFCDVLPTY		Gampaha	LK-12	7.123598	80.018508	Diulapitiya	PS-120355	7.174215	79.957874	7.215486	80.013606	6287+5CX, Divulapitiya, Sri Lanka	7.67456		ගම්පහ	දිවුලපිටිය	එම්ඕඑච් කාර්යාලය - දිවුලපිටිය	கம்பஹா	திவுலபிட்டிய	MOH அலுவலகம் - திவுலபிட்டிய	6287+5CX, දිවුලපිටිය, ශ්‍රී ලංකාව	6287+5CX, திவுலபிட்டிய, இலங்கை
Gampaha	Mirigama	NOH Office - Mirigama	False	False	GMPHMRGMNHFFCMRGM		Gampaha	LK-12	7.123598	80.018508	Meerigama	PS-120248	7.245169	80.128647	7.256795	80.135158	744P+P37, Mirigama, Sri Lanka	1.479322		ගම්පහ	මීරිගම	NOH කාර්යාලය - මීරිගම	கம்பஹா	மீரிகம	NOH அலுவலகம் - மீரிகம	744 පී+පී 37, මීරිගම, ශ්‍රී ලංකාව	744P+P37, மீரிகம, இலங்கை
Gampaha	Biyagama	MOH Office - Biyagama	False	False	GMPHBYGMMHFFCBYGM		Gampaha	LK-12	7.123598	80.018508	Biyagama	PS-120131	6.962284	80.009037	6.946824	79.994052	Hospital Rd, Sri Lanka	2.386313		ගම්පහ	බියගම	MOH කාර්යාලය - බියගම	கம்பஹா	பியகம	MOH அலுவலகம் - பியாகம	රෝහල පාර, ශ්‍රී ලංකාව	மருத்துவமனை Rd, இலங்கை
Gampaha	Ja Ela	MOH Office - Ja Ela	False	False	GMPHJLMHFFCJL		Gampaha	LK-12	7.123598	80.018508	Ja - Ela	PS-120133	7.081055	79.890504	7.075216	79.893879	60 Mount Kalvary Rd, Ja-Ela, Sri Lanka	0.748731		ගම්පහ	ජා ඇල	MOH කාර්යාලය - ජා ඇල	கம்பஹா	ஜா எல	MOH அலுவலகம் - ஜா எல	60 කල්වාරි පාර, ජා-ඇල, ශ්‍රී ලංකාව	60 மவுண்ட் கல்வாரி சாலை, ஜா-எல, இலங்கை
Gampaha	Wattala	MOH Office - Wattala	False	False	GMPHWTTLMHFFCWTTL		Gampaha	LK-12	7.123598	80.018508	Wattala	PS-120128	6.993713	79.894506	6.995817	79.885793	301 Hendala Rd, Wattala, Sri Lanka	0.989991		ගම්පහ	වත්තල	MOH කාර්යාලය - වත්තල	கம்பஹா	வத்தளை	MOH அலுவலகம் - வத்தளை	301 හැඳල පාර, වත්තල, ශ්‍රී ලංකාව	301 ஹெந்தலா சாலை, வத்தளை, இலங்கை
Gampaha	Ragama	MOH Office - Ragama	False	False	GMPHRGMMHFFCRGM		Gampaha	LK-12	7.123598	80.018508	Ragama	PS-120134	7.034975	79.924148	7.027386	79.920232	2WGC+X35, Ragama, Sri Lanka	0.948382		ගම්පහ	රාගම	MOH කාර්යාලය - රාගම	கம்பஹா	ராகம	MOH அலுவலகம் - ராகம	2WGC+X35, රාගම, ශ්‍රී ලංකාව	2WGC+X35, ராகம, இலங்கை
Kalutara	Kalutara South	Mobile Medical Team	True	True	KLTRKLTRSTHMBLMDCLTM		Kalutara	LK-13	6.577316	80.127363	Kalutara South	PS-130296	6.58486	79.961043					#CenterLocationUnknown	කළුතර	කළුතර දකුණ	ජංගම වෛද්‍ය කණ්ඩායම	களுத்துறை	களுத்துறை தெற்கு	மொபைல் மருத்துவ குழு		
Kalutara	Kalutara South	NIHS	False	False	KLTRKLTRSTHNHS		Kalutara	LK-13	6.577316	80.127363	Kalutara South	PS-130296	6.58486	79.961043	6.55864	79.977416	HX5G+FX3, Katukurunda, Sri Lanka	3.432035		කළුතර	කළුතර දකුණ	NIHS	களுத்துறை	களுத்துறை தெற்கு	என்ஐஎச்எஸ்	HX5G+FX3, කටුකුරුන්ද, ශ්‍රී ලංකාව	HX5G+FX3, கட்டுக்குருந்தா, இலங்கை
Kalutara	Wadduwa	Diyabedda Gunawardhana Primary School	False	False	KLTRWDDWDYBDDGNWRDHNPRMRYSCHL		Kalutara	LK-13	6.577316	80.127363	Wadduwa	PS-130188	6.664403	79.929851	6.699146	79.923055	48 Dibbadda - Mahawila Road, Panadura, Sri Lanka	3.936713		කළුතර	වාද්දුව	දියබැද්ද ගුණවර්ධන ප්‍රාථමික විද්‍යාලය	களுத்துறை	வாத்துவா	தியபெத்த குணவர்த்தன தொடக்கப்பள்ளி	48 දිබද්ද - මහවිල පාර, පානදුර, ශ්‍රී ලංකාව	48 திபாடா - மகாவில சாலை, பாணந்துறை, இலங்கை
Kalutara	Beruwala	MOH Office - Beruwala	False	False	KLTRBRWLMHFFCBRWL		Kalutara	LK-13	6.577316	80.127363	Beruwala	PS-1302102	6.480329	79.983498	6.437559	79.999356	CXQX+2PH, Aluthgama, Sri Lanka	5.069893		කළුතර	බේරුවල	MOH කාර්යාලය - බේරුවල	களுத்துறை	பேருவளை	MOH அலுவலகம் - பேருவளை	CXQX+2PH, අළුත්ගම, ශ්‍රී ලංකාව	CXQX+2PH, அளுத்கம, இலங்கை
Kalutara	Agalawatta	Pimbura Hospital	False	False	KLTRGLWTTPMBRHSPTL		Kalutara	LK-13	6.577316	80.127363	Agalawatta		6.542566	80.157178	6.575949	80.158371	H5G5+98H, කළුතර, Sri Lanka	3.715525		කළුතර	අගලවත්ත	පිඹුර රෝහල	களுத்துறை	அகலவத்தை	பிம்புரா மருத்துவமனை	H5G5+98H, කළුතර, ශ්‍රී ලංකාව	H5G5+98H, கருப்புதர, இலங்கை
Kurunegala	Kurunegala	Mobile Medical Team	False	False	KRNGLKRNGLMBLMDCLTM		Kurunegala	LK-61	7.66477	80.23677	Kurunegala	PS-610101	7.485852	80.364137					#CenterLocationUnknown	කුරුණෑගල	කුරුණෑගල	ජංගම වෛද්‍ය කණ්ඩායම	குருநாகல்	குருநாகல்	மொபைல் மருத்துவ குழு		
Kurunegala	Kotawehera	Thimbiriyawa Clinic	False	False	KRNGLKTWHRTHMBRYWCLNC		Kurunegala	LK-61	7.66477	80.23677	Kotawehera	PS-610322	7.809001	80.077977	7.809001	80.077977	Kotawehera, Kurunegala, Sri Lanka	0.0		කුරුණෑගල	කොටවෙහෙර	තිඹිරියාව සායනය	குருநாகல்	கொட்டவெஹெரா	திம்பிரியவா கிளினிக்	කොටවෙහෙර, කුරුණෑගල, ශ්‍රී ලංකාව	கொட்டவெஹெரா, குருநாகல், இலங்கை
Kurunegala	Kotawehera	Halambagala Vidyalaya	False	False	KRNGLKTWHRHLMBGLVDYLY		Kurunegala	LK-61	7.66477	80.23677	Kotawehera	PS-610322	7.809001	80.077977	7.809001	80.077977	Kotawehera, Kurunegala, Sri Lanka	0.0		කුරුණෑගල	කොටවෙහෙර	හැලඹගල විද්‍යාලය	குருநாகல்	கொட்டவெஹெரா	ஹலம்பகலா வித்தியாலயம்	කොටවෙහෙර, කුරුණෑගල, ශ්‍රී ලංකාව	கொட்டவெஹெரா, குருநாகல், இலங்கை
Kurunegala	Mawathagama	Yatiwilla Viharaya	False	False	KRNGLMWTHGMYTWLLVHRY		Kurunegala	LK-61	7.66477	80.23677	Mawathagama	PS-610109	7.432976	80.449904	7.537105	80.490915	Ridee Vihara Rd, Ridigama, Sri Lanka	12.433947		කුරුණෑගල	මාවතගම	යටිවිල්ල විහාරය	குருநாகல்	மாவத்தகம	யதிவில்லா விஹாராயா	රිදී විහාර පාර, රිදිගම, ශ්‍රී ලංකාව	ரைடி விஹார வீதி, ரிதிகம, இலங்கை
Kurunegala	Mawathagama	Pothubowa Vidyalaya	False	False	KRNGLMWTHGMPTHBWVDYLY		Kurunegala	LK-61	7.66477	80.23677	Mawathagama	PS-610109	7.432976	80.449904	7.463828	80.446001	FC7W+GCJ, Kurunegala, Sri Lanka	3.458556		කුරුණෑගල	මාවතගම	පොතුබෝව විද්‍යාලය	குருநாகல்	மாவத்தகம	பொதுபோவா வித்யாலயா	FC7W+GCJ, කුරුණෑගල, ශ්‍රී ලංකාව	FC7W+GCJ, குருநாகல், இலங்கை
Kurunegala	Nikaweratiya	Kaluwennawa Viharaya	False	False	KRNGLNKWRTYKLWNNWVHRY		Kurunegala	LK-61	7.66477	80.23677	Nikaweratiya	PS-610320	7.742612	80.121177	7.762989	80.093623	Q37V+5CX, Nikaweratiya, Sri Lanka	3.789378		කුරුණෑගල	නිකවැරටිය	කළුවැන්නාව විහාරය	குருநாகல்	நிகவெரட்டியா	களுவென்னவா விஹாராயா	Q37V+5CX, නිකවැරටිය, ශ්‍රී ලංකාව	Q37V+5CX, நிகவெரட்டியா, இலங்கை
Kurunegala	Nikaweratiya	Magallegama Vidyalaya	False	False	KRNGLNKWRTYMGLLGMVDYLY		Kurunegala	LK-61	7.66477	80.23677	Nikaweratiya	PS-610320	7.742612	80.121177	7.733244	80.131075	Katugastota-Kurunegala-Puttalam Hwy, Nikaweratiya, Sri Lanka	1.508605		කුරුණෑගල	නිකවැරටිය	මාගල්ලේගම විද්‍යාලය	குருநாகல்	நிகவெரட்டியா	மாகல்லேகம வித்தியாலயம்	කටුගස්තොට-කුරුණෑගල-පුත්තලම හ්වි, නිකවැරටිය, ශ්‍රී ලංකාව	கட்டுகஸ்தோட்டா-குருநாகல்-புத்தளம் Hwy, நிகவெரட்டியா, இலங்கை
Kurunegala	Nikaweratiya	Millagoda Vidyalaya	False	False	KRNGLNKWRTYMLLGDVDYLY		Kurunegala	LK-61	7.66477	80.23677	Nikaweratiya	PS-610320	7.742612	80.121177	7.730681	80.116811	P4J8+7PF, Nikaweratiya, Sri Lanka	1.411634		කුරුණෑගල	නිකවැරටිය	මිල්ලගොඩ විද්‍යාලය	குருநாகல்	நிகவெரட்டியா	மில்லகொட வித்யாலயா	පී 4 ජේ 8+7 පීඑෆ්, නිකවැරටිය, ශ්‍රී ලංකාව	P4J8+7PF, நிகவெரட்டியா, இலங்கை
Kurunegala	Nikaweratiya	Talagodahena Viharaya	False	False	KRNGLNKWRTYTLGDHNVHRY		Kurunegala	LK-61	7.66477	80.23677	Nikaweratiya	PS-610320	7.742612	80.121177	7.762989	80.093623	Q37V+5CX, Nikaweratiya, Sri Lanka	3.789378		කුරුණෑගල	නිකවැරටිය	තලගොඩහේන විහාරය	குருநாகல்	நிகவெரட்டியா	தலகோடஹேன விஹாராயா	Q37V+5CX, නිකවැරටිය, ශ්‍රී ලංකාව	Q37V+5CX, நிகவெரட்டியா, இலங்கை
Kurunegala	Nikaweratiya	Hulogedara Vidyalaya	False	False	KRNGLNKWRTYHLGDRVDYLY		Kurunegala	LK-61	7.66477	80.23677	Nikaweratiya	PS-610320	7.742612	80.121177	7.790582	80.190743	Nikaweratiya-Maho Rd, Hulogedara, Sri Lanka	9.34077		කුරුණෑගල	නිකවැරටිය	හුලෝගේදර විද්‍යාලය	குருநாகல்	நிகவெரட்டியா	ஹுலோகெதாரா வித்யாலயா	නිකවැරටිය-මහෝ පාර, හුලෝගෙදර, ශ්‍රී ලංකාව	நிகவெரட்டிய-மஹோ சாலை, ஹுலோகெதரா, இலங்கை
Kurunegala	Marawila	St. Xavier's Central College	False	False	KRNGLMRWLSTXVRSCNTRLCLLG		Kurunegala	LK-61	7.66477	80.23677	Marawila	PS-620243	7.415075	79.839776	7.415554	79.830995	A3, Marawila, Sri Lanka	0.970005		කුරුණෑගල	මාරවිල	ශාන්ත සේවියර් මධ්‍ය විද්‍යාලය	குருநாகல்	மாரவில	செயின்ட் சேவியர் மத்திய கல்லூரி	ඒ 3, මාරවිල, ශ්‍රී ලංකාව	A3, மாரவில, இலங்கை
Kurunegala	Marawila	Thalawila Primary School	False	False	KRNGLMRWLTHLWLPRMRYSCHL		Kurunegala	LK-61	7.66477	80.23677	Marawila	PS-620243	7.415075	79.839776	7.60632	80.079752	J34H+GWC, Kurunegala, Sri Lanka	33.953196	#CenterFarFromPolice	කුරුණෑගල	මාරවිල	තලවිල ප්‍රාථමික විද්‍යාලය	குருநாகல்	மாரவில	தலவில ஆரம்பப் பள்ளி	J34H+GWC, කුරුණෑගල, ශ්‍රී ලංකාව	J34H+GWC, குருநாகல், இலங்கை
Kurunegala	Marawila	Walahapitiya Maha Vidyalaya	False	False	KRNGLMRWLWLHPTYMHVDYLY		Kurunegala	LK-61	7.66477	80.23677	Marawila	PS-620243	7.415075	79.839776	7.45141	79.866063	FV28+HC8, Madampe, Sri Lanka	4.973943		කුරුණෑගල	මාරවිල	වලහාපිටිය මහා විද්‍යාලය	குருநாகல்	மாரவில	வலஹாபிட்டிய மகா வித்தியாலயம்	FV28+HC8, මාදම්පේ, ශ්‍රී ලංකාව	FV28+HC8, மாதம்பே, இலங்கை
Kandy	Kandy	Mobile Medical Team	False	False	KNDYKNDYMBLMDCLTM		Kandy	LK-21	7.27337	80.709602	Kandy	PS-210101	7.292948	80.642368					#CenterLocationUnknown	මහනුවර	මහනුවර	ජංගම වෛද්‍ය කණ්ඩායම	கண்டி	கண்டி	மொபைல் மருத்துவ குழு		
Kandy	Kandy	Pushpadhana Balika Vidyalaya	False	False	KNDYKNDYPSHPDHNBLKVDYLY		Kandy	LK-21	7.27337	80.709602	Kandy	PS-210101	7.292948	80.642368	7.293989	80.633	16 Kandy Rd, Kandy 20000, Sri Lanka	1.040036		මහනුවර	මහනුවර	පුෂ්පධාන බාලිකා විද්‍යාලය	கண்டி	கண்டி	புஷ்பதான பாலிகா வித்யாலயா	16 මහනුවර පාර, මහනුවර 20000, ශ්‍රී ලංකාව	16 கண்டி வீதி, கண்டி 20000, இலங்கை
Kandy	Panvila	Hulugaga Cosma Maha Vidyalaya	False	False	KNDYPNVLHLGGCSMMHVDYLY		Kandy	LK-21	7.27337	80.709602	Panwila	PS-210361	7.362355	80.713731	7.401187	80.742098	Katugastota - Madawala - Bambarella Rd, Huluganga, Sri Lanka	5.333616		මහනුවර	පන්විල	හුළුගග කොස්මා මහා විද්‍යාලය	கண்டி	பன்விலா	ஹுலுகாகா காஸ்மா மகா வித்தியாலயம்	කටුගස්තොට - මඩවල - බඹරැල්ල පාර, හුළුගඟ, ශ්‍රී ලංකාව	கட்டுகஸ்தோட்டா - மடவாலா - பம்பரெல்லா சாலை, ஹுலுகங்கா, இலங்கை
Kandy	Kadugannawa	Pilimathalawa Central College	False	False	KNDYKDGNNWPLMTHLWCNTRLCLLG		Kandy	LK-21	7.27337	80.709602	Kadugannawa	PS-210112	7.256285	80.516908	7.265915	80.550553	Colombo - Kandy Rd, Pilimathalawa 20450, Sri Lanka	3.86376		මහනුවර	කඩුගන්නාව	පිළිමතලාව මධ්‍ය මහා විද්‍යාලය	கண்டி	கடுகன்னாவா	பிலிமத்தலாவா மத்திய கல்லூரி	කොළඹ - නුවර පාර, පිළිමතලාව 20450, ශ්‍රී ලංකාව	கொழும்பு - கண்டி வீதி, பிலிமத்தலாவ 20450, இலங்கை
Kandy	Peththapitiya	Menikdiwela Maha Vidyalaya	False	False	KNDYPTHTHPTYMNKDWLMHVDYLY		Kandy	LK-21	7.27337	80.709602	Peththapitiya		7.287977	80.493449	7.293262	80.490241	5 Poththapitiya - Hatharaliyadda Rd, Kandy 20000, Sri Lanka	0.686179		මහනුවර	පෙත්තපිටිය	මැණික්දිවෙල මහා විද්‍යාලය	கண்டி	பெத்தாபிட்டிய	மெனிக்டிவெல மகா வித்தியாலயம்	5 පොත්තපිටිය - හතරලියද්ද පාර, මහනුවර 20000, ශ්‍රී ලංකාව	5 பொத்தாபிட்டிய - ஹதரலியத்த சாலை, கண்டி 20000, இலங்கை
Kandy	Peththapitiya	Dodamwala Maha Vidyalaya	False	False	KNDYPTHTHPTYDDMWLMHVDYLY		Kandy	LK-21	7.27337	80.709602	Peththapitiya		7.287977	80.493449	7.28447	80.550963	Dodanwala Natha Dewale Rd, Dodamwala, Sri Lanka	6.357593		මහනුවර	පෙත්තපිටිය	දොඩම්වල මහා විද්‍යාලය	கண்டி	பெத்தாபிட்டிய	தோடம்வாலா மகா வித்தியாலயம்	දොඩන්වල නාථ දේවාලේ පාර, දොඩම්වල, ශ්‍රී ලංකාව	டோடான்வாலா நாதா தேவாலே சாலை, தோடம்வாலா, இலங்கை
Kandy	Galewela	Galewela Hospital	False	False	KNDYGLWLGLWLHSPTL		Kandy	LK-21	7.27337	80.709602	Galewela	PS-220129	7.763244	80.574149	7.760542	80.571552	QH6C+6J7, Galewela, Sri Lanka	0.415026		මහනුවර	ගලේවෙල	ගලේවෙල රෝහල	கண்டி	கலேவெல	கலேவெல மருத்துவமனை	QH6C+6J7, ගලේවෙල, ශ්‍රී ලංකාව	QH6C+6J7, கலேவெல, இலங்கை
Kandy	Dambulla	Rangiri Dambulla Central College	False	False	KNDYDMBLLRNGRDMBLLCNTRLCLLG		Kandy	LK-21	7.27337	80.709602	Dambulla	PS-220128	7.86208	80.649166	7.855404	80.651345	Kandy - Jaffna Hwy, Dambulla, Sri Lanka	0.78042		මහනුවර	දඹුල්ල	රංගිරි දඹුලු මධ්‍ය මහා විද්‍යාලය	கண்டி	தம்புள்ளை	ரங்கிரி தம்புள்ள மத்திய கல்லூரி	මහනුවර - යාපනය හ්වි, දඹුල්ල, ශ්‍රී ලංකාව	கண்டி - யாழ்ப்பாணம், தம்புள்ளை, இலங்கை
Kandy	Sigiriya	Inamaluwa Vidyalaya	False	False	KNDYSGRYNMLWVDYLY		Kandy	LK-21	7.27337	80.709602	Sigiriya	PS-220130	7.94243	80.732502	7.293976	80.636139	Yatinuwara St, Kandy, Sri Lanka	72.905645	#CenterFarFromPolice	මහනුවර	සීගිරිය	ඉනාමළුව විද්‍යාලය	கண்டி	சிகிரியா	இனமாலுவ வித்யாலயா	යටිනුවර ශාන්ත, මහනුවර, ශ්‍රී ලංකාව	யடினுவாரா செயின்ட், கண்டி, இலங்கை
Badulla	Badulla	Mobile Medical Team	False	False	BDLLBDLLMBLMDCLTM		Badulla	LK-81	7.074529	81.04486	Badulla	PS-810101	6.991337	81.055246					#CenterLocationUnknown	බදුල්ල	බදුල්ල	ජංගම වෛද්‍ය කණ්ඩායම	பதுளை	பதுளை	மொபைல் மருத்துவ குழு		
Moneragala	Monaragala	Mobile Medical Team	False	False	MNRGLMNRGLMBLMDCLTM		Moneragala	LK-82	6.787517	81.303744	Monaragala	PS-820121	6.869866	81.348106					#CenterLocationUnknown	මොණරාගල	මොනරාගල	ජංගම වෛද්‍ය කණ්ඩායම	மொனராகலை	மொனராகலை	மொபைல் மருத்துவ குழு		
Moneragala	Sewanagala	Somadevi Vidyalaya	False	False	MNRGLSWNGLSMDVVDYLY		Moneragala	LK-82	6.787517	81.303744	Sewanagala	PS-910239	6.360663	80.918555	6.308406	80.940472	Sewanagala, Sri Lanka	6.297319		මොණරාගල	සෙවනගල	සෝමදේවි විද්‍යාලය	மொனராகலை	செவனகலா	சோமாதேவி வித்யாலயா	සෙවනගල, ශ්‍රී ලංකාව	செவனகலா, இலங்கை
Moneragala	Thanamalwila	Kahakurullanpelessa Vidyalaya	False	False	MNRGLTHNMLWLKHKRLLNPLSSVDYLY		Moneragala	LK-82	6.787517	81.303744	Thanamalwila	PS-820131	6.437696	81.131051	6.51246	81.007289	Bodagama-Hambegamuwa-Kaltota Rd, Sri Lanka	16.007783		මොණරාගල	තණමල්විල	කහකුරුල්ලෙන්පැලැස්ස විද්‍යාලය	மொனராகலை	தனமல்வில	கஹாகுருல்லன்பெலஸ்ஸா வித்யாலயா	බෝදාගම-හම්බෙගමුව-කල්තොට පාර, ශ්‍රී ලංකාව	போடகம-ஹம்பேகமுவா-கல்தோடா சாலை, இலங்கை
Moneragala	Badalkumbura	Lunugala Yodawewa Maha Vidyalaya	False	False	MNRGLBDLKMBRLNGLYDWWMHVDYLY		Moneragala	LK-82	6.787517	81.303744	Badalkumbura	PS-820128	6.889017	81.235441	6.89796	81.24123	Passara-Moneragala, Highway, Badalkumbura, Sri Lanka	1.182426		මොණරාගල	බඩල්කුඹුර	ලුණුගල යෝධවැව මහා විද්‍යාලය	மொனராகலை	படல்கும்புரா	லுனுகல யோதவெவ மகா வித்தியாலயம்	පස්සර-මොණරාගල, අධිවේගී මාර්ගය, බඩල්කුඹුර, ශ්‍රී ලංකාව	பசர-மொனராகலை, நெடுஞ்சாலை, படல்கும்புரா, இலங்கை
Moneragala	Badalkumbura	Pallampara Viharaya	False	False	MNRGLBDLKMBRPLLMPRVHRY		Moneragala	LK-82	6.787517	81.303744	Badalkumbura	PS-820128	6.889017	81.235441	6.894987	81.239959	මොණරාගල පාර. බඩල්කුඹුර ,Monaragala Road, Passara-Moneragala Hwy, Badalkumbura 91070, Sri Lanka	0.830511		මොණරාගල	බඩල්කුඹුර	පල්ලම්පර විහාරය	மொனராகலை	படல்கும்புரா	பள்ளம்பாறை விகாரை	මොණරාගල පාර. බඩල්කුඹුර, මොනරාගල පාර, පස්සර-මොනරාගල හ්වි, බඩල්කුඹුර 91070, ශ්‍රී ලංකාව	மோனராலக சாலை. வயிற்றுக்குளம், மோனராகல சாலை, பாசரா-மொனராகல Hwy, Badalkumbura 91070, இலங்கை
Moneragala	Dambagalla	Elpitiya Maha Vidyalaya	False	False	MNRGLDMBGLLLPTYMHVDYLY		Moneragala	LK-82	6.787517	81.303744	Dambagalla	PS-820123	6.978806	81.372037	7.08556	81.433739	3CPM+6FH, Monaragala, Sri Lanka	13.689175		මොණරාගල	දඹගල්ල	ඇල්පිටිය මහා විද්‍යාලය	மொனராகலை	தம்பகல்லா	எல்பிட்டிய மகா வித்தியாலயம்	3CPM+6FH, මොනරාගල, ශ්‍රී ලංකාව	3CPM+6FH, மொனராகலை, இலங்கை
Moneragala	Dambagalla	Dambagalla Maha Vidyalaya	False	False	MNRGLDMBGLLDMBGLLMHVDYLY		Moneragala	LK-82	6.787517	81.303744	Dambagalla	PS-820123	6.978806	81.372037	6.961757	81.371229	X96C+PF5, Dambagalla, Sri Lanka	1.898455		මොණරාගල	දඹගල්ල	දඹගල්ල මහා විද්‍යාලය	மொனராகலை	தம்பகல்லா	தம்பகல்ல மகா வித்தியாலயம்	X96C+PF5, දඹගල්ල, ශ්‍රී ලංකාව	X96C+PF5, தம்பகல்லா, இலங்கை
Moneragala	Bibila	Samadhi Resort	False	False	MNRGLBBLSMDHRSRT		Moneragala	LK-82	6.787517	81.303744	Bibila	PS-820125	7.165232	81.225463	7.158847	81.19934	No.96A, Bibile 91500, Sri Lanka	2.969174		මොණරාගල	බිබිල	සමාධි නිවාඩු නිකේතනය	மொனராகலை	பிபிலா	சமாதி ரிசார்ட்	අංක 96 ඒ, බිබිලේ 91500, ශ්‍රී ලංකාව	எண் .96 ஏ, பிபில் 91500, இலங்கை
Moneragala	Bibila	Wegama Vidyalaya	False	False	MNRGLBBLWGMVDYLY		Moneragala	LK-82	6.787517	81.303744	Bibila	PS-820125	7.165232	81.225463	7.031205	81.276445	Moneragala Road,Medagama, B56, Monaragala 91550, Sri Lanka	15.934508		මොණරාගල	බිබිල	වෑගම විද්‍යාලය	மொனராகலை	பிபிலா	வேகமா வித்யாலயா	මොනරාගල පාර, මැදගම, බී 56, මොනරාගල 91550, ශ්‍රී ලංකාව	மொனராகல சாலை, மேடகம, பி 56, மொனராகலை 91550, இலங்கை
Moneragala	Bibila	Pitakumbura Vidyalaya	False	False	MNRGLBBLPTKMBRVDYLY		Moneragala	LK-82	6.787517	81.303744	Bibila	PS-820125	7.165232	81.225463	7.178052	81.291569	57HR+6JG, Pitakumbura, Sri Lanka	7.433488		මොණරාගල	බිබිල	පිටකුඹුර විද්‍යාලය	மொனராகலை	பிபிலா	பிடகும்புரா வித்யாலயா	57HR+6JG, පිටකුඹුර, ශ්‍රී ලංකාව	57HR+6JG, பிடகும்பூரா, இலங்கை
Moneragala	Medagama	Bakinigahawela Muslim College	False	False	MNRGLMDGMBKNGHWLMSLMCLLG		Moneragala	LK-82	6.787517	81.303744	Medagama	PS-820126	7.033608	81.276708	6.997455	81.284793	X7WM+XWM, Sri Lanka	4.119157		මොණරාගල	මැදගම	බකිණිගහවෙල මුස්ලිම් විද්‍යාලය	மொனராகலை	மேடகம	பகினிகஹவெல முஸ்லிம் கல்லூரி	X7WM+XWM, ශ්‍රී ලංකාව	X7WM+XWM, இலங்கை
Moneragala	Medagama	Amunekumbura Vidyalaya	False	False	MNRGLMDGMMNKMBRVDYLY		Moneragala	LK-82	6.787517	81.303744	Medagama	PS-820126	7.033608	81.276708	7.031205	81.276445	Moneragala Road,Medagama, B56, Monaragala 91550, Sri Lanka	0.268858		මොණරාගල	මැදගම	අමුණුකුඹුර විද්‍යාලය	மொனராகலை	மேடகம	அமுனேகும்புரா வித்யாலயா	මොනරාගල පාර, මැදගම, බී 56, මොනරාගල 91550, ශ්‍රී ලංකාව	மொனராகல சாலை, மேடகம, பி 56, மொனராகலை 91550, இலங்கை
Moneragala	Siyambalanduwa	Siyambalanduwa Maha Vidyalaya	False	False	MNRGLSYMBLNDWSYMBLNDWMHVDYLY		Moneragala	LK-82	6.787517	81.303744	Siyambalanduwa	PS-820122	6.906851	81.547598	6.906464	81.561014	Siyambalanduwa, Sri Lanka	1.482056		මොණරාගල	සියඹලාණ්ඩුව	සියඹලාණ්ඩුව මහා විද්‍යාලය	மொனராகலை	சியம்பலாண்டுவா	சியம்பலாண்டுவா மகா வித்தியாலயம்	සියඹලාණ්ඩුව, ශ්‍රී ලංකාව	சியம்பலாண்டுவா, இலங்கை
Moneragala	Siyambalanduwa	03th Mile Post,  Primary School	False	False	MNRGLSYMBLNDWTHMLPSTPRMRYSCHL		Moneragala	LK-82	6.787517	81.303744	Siyambalanduwa	PS-820122	6.906851	81.547598	6.906464	81.561014	Siyambalanduwa, Sri Lanka	1.482056		මොණරාගල	සියඹලාණ්ඩුව	03 වන සැතපුම් කණුව, ප්‍රාථමික පාසල	மொனராகலை	சியம்பலாண்டுவா	03 வது மைல் போஸ்ட், ஆரம்ப பள்ளி	සියඹලාණ්ඩුව, ශ්‍රී ලංකාව	சியம்பலாண்டுவா, இலங்கை
Moneragala	Ethimale	Ethimale Maha Vidyalaya	False	False	MNRGLTHMLTHMLMHVDYLY		Moneragala	LK-82	6.787517	81.303744	Athimale	PS-820124	6.907289	79.863819	6.824897	81.453991	Ethimale Tank, Sri Lanka	175.844945	#CenterFarFromPolice	මොණරාගල	ඇතිමලේ	ඇතිමලේ මහා විද්‍යාලය	மொனராகலை	எதிமலை	எதிமலை மகா வித்தியாலயம்	ඇතිමලේ වැව, ශ්‍රී ලංකාව	எதிமலை தொட்டி, இலங்கை
Moneragala	Ethimale	Wijepura Primary School	False	False	MNRGLTHMLWJPRPRMRYSCHL		Moneragala	LK-82	6.787517	81.303744	Athimale	PS-820124	6.907289	79.863819	6.429588	81.012337	B427, Sri Lanka	137.561035	#CenterFarFromPolice	මොණරාගල	ඇතිමලේ	විජේපුර ප්‍රාථමික විද්‍යාලය	மொனராகலை	எதிமலை	விஜேபுரா ஆரம்பப் பள்ளி	බී 427, ශ්‍රී ලංකාව	பி 427, இலங்கை
Galle	Galle	Mobile Medical Team	False	False	GLLGLLMBLMDCLTM		Galle	LK-31	6.222805	80.251977	Galle	PS-310120	6.032983	80.21714					#CenterLocationUnknown	ගාල්ල	ගාල්ල	ජංගම වෛද්‍ය කණ්ඩායම	காலி	காலி	மொபைல் மருத்துவ குழு		
Galle	Rathgama	Mahegoda Sri Nigrodharamaya	False	False	GLLRTHGMMHGDSRNGRDHRMY		Galle	LK-31	6.222805	80.251977	Ratgama	PS-310121	6.145115	80.099693	6.093003	80.167915	35V9+653, Boossa, Sri Lanka	9.514552		ගාල්ල	රත්ගම	මහේගොඩ ශ්‍රී නිග්‍රෝධාරාමය	காலி	ரத்கம	மஹேகொட ஸ்ரீ நிக்ரோதராமையா	35V9+653, බූස්ස, ශ්‍රී ලංකාව	35V9+653, பூசா, இலங்கை
Galle	Matara	Mobile Medical Team	False	False	GLLMTRMBLMDCLTM		Galle	LK-31	6.222805	80.251977	Matara	PS-320101	5.94904	80.533659					#CenterLocationUnknown	ගාල්ල	මාතර	ජංගම වෛද්‍ය කණ්ඩායම	காலி	மாத்தறை	மொபைல் மருத்துவ குழு		
Matara	Hakmana	Denagama Maha Vidyalaya	False	False	MTRHKMNDNGMMHVDYLY		Matara	LK-32	6.142734	80.539994	Hakmana	PS-320106	6.084824	80.643227	6.107686	80.647779	Hakmana - Mulatiyana Rd, Sri Lanka	2.592295		මාතර	හක්මන	දෙනගම මහා විද්‍යාලය	மாத்தறை	ஹக்மனா	தெனகம மகா வித்தியாலயம்	හක්මන - මුලටියන පාර, ශ්‍රී ලංකාව	ஹக்மனா - முலாட்டியானா சாலை, இலங்கை
Hambantota	Hambanthota	Mobile Medical Team	False	False	HMBNTTHMBNTHTMBLMDCLTM		Hambantota	LK-33	6.259779	81.098619	Hambantota	PS-330156	6.125872	81.12521					#CenterLocationUnknown	හම්බන්තොට	හම්බන්තොට	ජංගම වෛද්‍ය කණ්ඩායම	அம்பாந்தோட்டை	ஹம்பாந்தோட்டை	மொபைல் மருத்துவ குழு		
Hambantota	Beliatta	MOH Office - Beliatta	False	False	HMBNTTBLTTMHFFCBLTT		Hambantota	LK-33	6.259779	81.098619	Beliatta	PS-330152	6.046936	80.735408	6.051828	80.741735	3P2R+PMQ, Hambantota, Sri Lanka	0.886482		හම්බන්තොට	බෙලිඅත්ත	MOH කාර්යාලය - බෙලිඅත්ත	அம்பாந்தோட்டை	பெலியாட்டா	MOH அலுவலகம் - பெலியாட்ட	3P2R+PMQ, හම්බන්තොට, ශ්‍රී ලංකාව	3P2R+PMQ, ஹம்பாந்தோட்டை, இலங்கை
Hambantota	Katuwana	MOH Office - Katuwana	False	False	HMBNTTKTWNMHFFCKTWN		Hambantota	LK-33	6.259779	81.098619	Katuwana	PS-330153	6.269722	80.690963	6.26627	80.693035	7M8V+G63, Katuwana, Sri Lanka	0.447115		හම්බන්තොට	කටුවන	MOH කාර්යාලය - කටුවන	அம்பாந்தோட்டை	கட்டுவானா	MOH அலுவலகம் - கட்டுவானா	7 එම් 8 වී+ජී 63, කටුවන, ශ්‍රී ලංකාව	7M8V+G63, கட்டுவானா, இலங்கை
Hambantota	Tangalle	MOH Office - Tangalle	False	False	HMBNTTTNGLLMHFFCTNGLL		Hambantota	LK-33	6.259779	81.098619	Tangalle	PS-330147	6.023954	80.797255	6.02363	80.795742	2QFW+F75, Tangalle, Sri Lanka	0.171198		හම්බන්තොට	තංගල්ල	MOH කාර්යාලය - තංගල්ල	அம்பாந்தோட்டை	தங்காலை	MOH அலுவலகம் - தங்காலை	2QFW+F75, තංගල්ල, ශ්‍රී ලංකාව	2QFW+F75, தங்காலை, இலங்கை
Hambantota	Walasmulla	Modarawana Maha Vidyalaya	False	False	HMBNTTWLSMLLMDRWNMHVDYLY		Hambantota	LK-33	6.259779	81.098619	Walasmulla	PS-330151	6.154102	80.698256	6.109322	80.714402	Beliatta - Walasmulla Rd, Okewela, Sri Lanka	5.291276		හම්බන්තොට	වලස්මුල්ල	මෝදරවාන මහා විද්‍යාලය	அம்பாந்தோட்டை	வலஸ்முல்லா	மோதரவன மகா வித்தியாலயம்	බෙලිඅත්ත - වලස්මුල්ල පාර, ඕකේවෙල, ශ්‍රී ලංකාව	பெலியாட்ட - வலஸ்முல்லா சாலை, ஒகேவெலா, இலங்கை
Rathnapura	Pinnawala	Ihala Galagama Vidyalaya	False	False	RTHNPRPNNWLHLGLGMVDYLY		Ratnapura	LK-91	6.586826	80.566158	Pinnawala	PS-910115	7.299943	80.386604	6.720736	80.769491	PQC9+7QX, Belihuloya, Sri Lanka	77.054112	#CenterFarFromPolice	රත්නපුර	පින්නවල	ඉහළ ගලගම විද්‍යාලය	இரத்தினபுரி	பின்னாவாலா	இஹல கலகம வித்யாலயா	PQC9+7QX, බෙලිහුල්ඔය, ශ්‍රී ලංකාව	PQC9+7QX, பெலிஹுலோயா, இலங்கை
Rathnapura	Udawalawa	Kolamba gdeara Vidyalaya	False	False	RTHNPRDWLWKLMBGDRVDYLY		Ratnapura	LK-91	6.586826	80.566158	Udawalawa	PS-910234	6.422661	80.814293	6.418483	80.823938	Udawalawa, Sri Lanka	1.162969		රත්නපුර	උඩවලව	කොලඹ ගේදාරා විද්‍යාලය	இரத்தினபுரி	உடவலவா	கொலம்பா க்டேரா வித்யாலயா	උඩවලව, ශ්‍රී ලංකාව	உடவலவா, இலங்கை
Rathnapura	Udawalawa	Bodhimaluwa Vidyalaya	False	False	RTHNPRDWLWBDHMLWVDYLY		Ratnapura	LK-91	6.586826	80.566158	Udawalawa	PS-910234	6.422661	80.814293	6.387546	80.813102	Ratnapura Road, kolabageAra, Sri Lanka	3.908054		රත්නපුර	උඩවලව	බෝධිමළුව විද්‍යාලය	இரத்தினபுரி	உடவலவா	போதிமாலுவ வித்யாலயா	රත්නපුර පාර, කොලබාගේ, ශ්‍රී ලංකාව	இரத்தினபுரி சாலை, கொலகேஜேரா, இலங்கை
Rathnapura	Udawalawa	Panahaduwa Vidyalaya	False	False	RTHNPRDWLWPNHDWVDYLY		Ratnapura	LK-91	6.586826	80.566158	Udawalawa	PS-910234	6.422661	80.814293	6.467973	80.79348	Panahaduwa, Sri Lanka	5.540206		රත්නපුර	උඩවලව	පනහදුව විද්‍යාලය	இரத்தினபுரி	உடவலவா	பனஹடுவா வித்யாலயா	පනාහඩුව, ශ්‍රී ලංකාව	பனஹடுவா, இலங்கை
Rathnapura	Ayagama	Sinhalagoda Vidyalaya	False	False	RTHNPRYGMSNHLGDVDYLY		Ratnapura	LK-91	6.586826	80.566158	Ayagama	PS-910109	6.637727	80.312554	6.684109	80.29352	M7MV+JCR, Ratnapura, Sri Lanka	5.57117		රත්නපුර	අයගම	සිංහලගොඩ විද්‍යාලය	இரத்தினபுரி	அயகம	சிங்களகொட வித்தியாலயம்	M7MV+JCR, රත්නපුර, ශ්‍රී ලංකාව	M7MV+JCR, இரத்தினபுரி, இலங்கை
Rathnapura	Ayagama	Vithanagama Vidyalaya	False	False	RTHNPRYGMVTHNGMVDYLY		Ratnapura	LK-91	6.586826	80.566158	Ayagama	PS-910109	6.637727	80.312554	6.658231	80.313703	M857+7FW, Ayagama, Sri Lanka	2.284187		රත්නපුර	අයගම	විතානගම විද්‍යාලය	இரத்தினபுரி	அயகம	விதானகம வித்யாலயா	M857+7FW, අයගම, ශ්‍රී ලංකාව	M857+7FW, அயகாமா, இலங்கை
Anuradhapura	Anuradhapura Kekirawa	Army Hospital Anuradhapura	False	False	NRDHPRNRDHPRKKRWRMYHSPTLNRDHPR		Anuradhapura	LK-71	8.39199	80.512958									#PoliceLocationUnknown	අනුරාධපුර	අනුරාධපුර කැකිරාව	අනුරාධපුර හමුදා රෝහල	அனுராதபுரம்	அனுராதபுரம் கெக்கிராவ	அனுராதபுரம் இராணுவ மருத்துவமனை		
Anuradhapura	Anuradhapura Kekirawa	62 DIV	False	False	NRDHPRNRDHPRKKRWDV		Anuradhapura	LK-71	8.39199	80.512958									#PoliceLocationUnknown	අනුරාධපුර	අනුරාධපුර කැකිරාව	62 DIV	அனுராதபுரம்	அனுராதபுரம் கெக்கிராவ	62 DIV		
Anuradhapura	Anuradhapura Kekirawa	Army Hospital Anuradhapura	False	False	NRDHPRNRDHPRKKRWRMYHSPTLNRDHPR		Anuradhapura	LK-71	8.39199	80.512958									#PoliceLocationUnknown	අනුරාධපුර	අනුරාධපුර කැකිරාව	අනුරාධපුර හමුදා රෝහල	அனுராதபுரம்	அனுராதபுரம் கெக்கிராவ	அனுராதபுரம் இராணுவ மருத்துவமனை		
Anuradhapura	Anuradhapura Kekirawa	Maradankadawala Hospital	False	False	NRDHPRNRDHPRKKRWMRDNKDWLHSPTL		Anuradhapura	LK-71	8.39199	80.512958									#PoliceLocationUnknown	අනුරාධපුර	අනුරාධපුර කැකිරාව	මරදන්කඩවල රෝහල	அனுராதபுரம்	அனுராதபுரம் கெக்கிராவ	மரதங்கடவாலா மருத்துவமனை		
Anuradhapura	Anuradhapura Kekirawa	kekirawa Hospital	False	False	NRDHPRNRDHPRKKRWKKRWHSPTL		Anuradhapura	LK-71	8.39199	80.512958									#PoliceLocationUnknown	අනුරාධපුර	අනුරාධපුර කැකිරාව	කැකිරාව රෝහල	அனுராதபுரம்	அனுராதபுரம் கெக்கிராவ	கெக்கிராவா மருத்துவமனை		
Polonnaruwa	Polonnaruwa	Mobile Medical Team	False	False	PLNNRWPLNNRWMBLMDCLTM		Polonnaruwa	LK-72	7.993659	81.026061	Polonnaruwa	PS-720125	7.924307	81.036895					#CenterLocationUnknown	පොළොන්නරුව	පොළොන්නරුව	ජංගම වෛද්‍ය කණ්ඩායම	பொலன்னறுவை	பொலன்னறுவை	மொபைல் மருத்துவ குழு		
Polonnaruwa	Polonnaruwa	Thopawewa Vidyalaya	False	False	PLNNRWPLNNRWTHPWWVDYLY		Polonnaruwa	LK-72	7.993659	81.026061	Polonnaruwa	PS-720125	7.924307	81.036895	7.938857	81.003164	Thopawewa Maha Vidyalaya, Polonnaruwa, Sri Lanka	4.05313		පොළොන්නරුව	පොළොන්නරුව	තොපාවැව විද්‍යාලය	பொலன்னறுவை	பொலன்னறுவை	தோபாவெவ வித்யாலயா	තෝපාවැව මහා විද්‍යාලය, පොළොන්නරුව, ශ්‍රී ලංකාව	தோபவெவ மகா வித்தியாலயம், பொலன்னறுவை, இலங்கை
Polonnaruwa	Welikanda	Welikanda Central College	False	False	PLNNRWWLKNDWLKNDCNTRLCLLG		Polonnaruwa	LK-72	7.993659	81.026061	Welikanda	PS-720127	7.946441	81.245381	7.948861	81.248377	Maradankadawala-Habarana-Thirukkondaiadimadu Hwy, Welikanda, Sri Lanka	0.425893		පොළොන්නරුව	වැලිකන්ද	වැලිකන්ද මධ්‍ය මහා විද්‍යාලය	பொலன்னறுவை	வெலிகந்தா	வெலிகந்த மத்திய கல்லூரி	මරදන්කඩවල-හබරණ-තිරුක්කොණ්ඩයියාමඩු හ්වි, වැලිකන්ද, ශ්‍රී ලංකාව	மரதங்கடவாலா-ஹபரண-திருக்கொண்டையடிமடு ஹ்வை, வெலிகந்தா, இலங்கை
Polonnaruwa	Welikanda	MOH Office - Siripura	False	False	PLNNRWWLKNDMHFFCSRPR		Polonnaruwa	LK-72	7.993659	81.026061	Welikanda	PS-720127	7.946441	81.245381	7.67421	81.045286	Office of the Medical Officer of Health, Dehiattakandiya, Sri Lanka	37.457917	#CenterFarFromPolice	පොළොන්නරුව	වැලිකන්ද	MOH කාර්යාලය - සිරිපුර	பொலன்னறுவை	வெலிகந்தா	MOH அலுவலகம் - சிரிபுரா	දෙහිඅත්තකණ්ඩිය, සෞඛ්‍ය වෛද්‍ය නිලධාරි කාර්යාලය, ශ්‍රී ලංකාව	சுகாதார மருத்துவ அதிகாரி அலுவலகம், தெஹியத்தகண்டியா, இலங்கை
Polonnaruwa	Hingurakgoda Medirigiriya Bakamuna	Tharuka Pavilion	False	False	PLNNRWHNGRKGDMDRGRYBKMNTHRKPVLN		Polonnaruwa	LK-72	7.993659	81.026061									#PoliceLocationUnknown	පොළොන්නරුව	හිඟුරක්ගොඩ මැදිරිගිරිය බකමූණ	තාරුක මණ්ඩපය	பொலன்னறுவை	ஹிங்குரகொட மெதிரிகிரியா பகமுனா	தாருகா பெவிலியன்		
Polonnaruwa	Hingurakgoda Medirigiriya Bakamuna	Medirigiriya Vidyalaya	False	False	PLNNRWHNGRKGDMDRGRYBKMNMDRGRYVDYLY		Polonnaruwa	LK-72	7.993659	81.026061									#PoliceLocationUnknown	පොළොන්නරුව	හිඟුරක්ගොඩ මැදිරිගිරිය බකමූණ	මැදිරිගිරිය විද්‍යාලය	பொலன்னறுவை	ஹிங்குரகொட மெதிரிகிரியா பகமுனா	மெதிரிகிரிய வித்யாலயா		
Polonnaruwa	Hingurakgoda Medirigiriya Bakamuna	Segala Vidyalaya	False	False	PLNNRWHNGRKGDMDRGRYBKMNSGLVDYLY		Polonnaruwa	LK-72	7.993659	81.026061									#PoliceLocationUnknown	පොළොන්නරුව	හිඟුරක්ගොඩ මැදිරිගිරිය බකමූණ	සේගල විද්‍යාලය	பொலன்னறுவை	ஹிங்குரகொட மெதிரிகிரியா பகமுனா	செகலா வித்யாலயா		
Polonnaruwa	Hingurakgoda Medirigiriya Bakamuna	Sirikadu yaya Viharaya	False	False	PLNNRWHNGRKGDMDRGRYBKMNSRKDYYVHRY		Polonnaruwa	LK-72	7.993659	81.026061									#PoliceLocationUnknown	පොළොන්නරුව	හිඟුරක්ගොඩ මැදිරිගිරිය බකමූණ	සිරිකඩු යාය විහාරය	பொலன்னறுவை	ஹிங்குரகொட மெதிரிகிரியா பகமுனா	சிறிகாடு யாய விஹாராயா		
Polonnaruwa	Jaffna	Mobile Medical Team	False	False	PLNNRWJFFNMBLMDCLTM		Polonnaruwa	LK-72	7.993659	81.026061	Jaffna	PS-410209	9.659919	80.010965					#CenterLocationUnknown	පොළොන්නරුව	යාපනය	ජංගම වෛද්‍ය කණ්ඩායම	பொலன்னறுவை	யாழ்	மொபைல் மருத்துவ குழு		
Jaffna	Jaffna	Mobile Medical Team	False	False	JFFNJFFNMBLMDCLTM		Jaffna	LK-41	9.691792	80.098594	Jaffna	PS-410209	9.659919	80.010965					#CenterLocationUnknown	යාපනය	යාපනය	ජංගම වෛද්‍ය කණ්ඩායම	யாழ்	யாழ்	மொபைல் மருத்துவ குழு		
Kilinochchi	Kilinochchi	Mobile Medical Team	False	False	KLNCHCHKLNCHCHMBLMDCLTM		Kilinochchi	LK-45	9.415742	80.30358	Kilinochchi	PS-450131	9.392265	80.407846					#CenterLocationUnknown	කිලිනොච්චි	කිලිනොච්චි	ජංගම වෛද්‍ය කණ්ඩායම	கிளிநொச்சி	கிளிநொச்சி	மொபைல் மருத்துவ குழு		
Mannar	Mannar	Mobile Medical Team	False	False	MNNRMNNRMBLMDCLTM		Mannar	LK-42	8.877429	80.088628	Mannar	PS-420138	8.978123	79.911642					#CenterLocationUnknown	මන්නාරම	මන්නාරම	ජංගම වෛද්‍ය කණ්ඩායම	மன்னார்	மன்னார்	மொபைல் மருத்துவ குழு		
Vavuniya	Vavuniya	Mobile Medical Team	False	False	VVNYVVNYMBLMDCLTM		Vavuniya	LK-43	8.852071	80.467404	Vavuniya	PS-430119	8.754431	80.498604					#CenterLocationUnknown	වවුනියාව	වවුනියාව	ජංගම වෛද්‍ය කණ්ඩායම	வவுனியா	வவுனியா	மொபைல் மருத்துவ குழு		
Trincomalee	Trincomalee	Mobile Medical Team	False	False	TRNCMLTRNCMLMBLMDCLTM		Trincomalee	LK-53	8.551241	81.092014	Trincomalee	PS-530130	8.563946	81.234023					#CenterLocationUnknown	ත්රිකුණාමලය	ත්රිකුණාමලය	ජංගම වෛද්‍ය කණ්ඩායම	திருகோணமலை	திருகோணமலை	மொபைல் மருத்துவ குழு		
Trincomalee	Mutur	MOH Office – Mutur	False	False	TRNCMLMTRMHFFCMTR		Trincomalee	LK-53	8.551241	81.092014	Mutur	PS-530138	8.461133	81.259371	8.453916	81.264494	1 Old Batticaloa Rd, Mutur, Sri Lanka	0.980859		ත්රිකුණාමලය	මුතූර්	MOH කාර්යාලය - මුතූර්	திருகோணமலை	மூதூர்	MOH அலுவலகம் - மூதூர்	1 පරණ මඩකලපුව පාර, මුතූර්, ශ්‍රී ලංකාව	1 பழைய மட்டக்களப்பு வீதி, மூதூர், இலங்கை
Trincomalee	Kinniya	MOH Office - Kuruggankeni	False	False	TRNCMLKNNYMHFFCKRGGNKN		Trincomalee	LK-53	8.551241	81.092014	Kinnia	PS-530140	6.907289	79.863819	8.498696	81.179644	F5XH+FVC, Kinniya 31100, Sri Lanka	228.840304	#CenterFarFromPolice	ත්රිකුණාමලය	කින්නියා	MOH කාර්යාලය - කුරුගන්කේනි	திருகோணமலை	கிண்ணியா	MOH அலுவலகம் - குருக்கன்கேணி	F5XH+FVC, කින්නියා 31100, ශ්‍රී ලංකාව	F5XH+FVC, கிண்ணியா 31100, இலங்கை
Trincomalee	Kinniya	MOH Office – Kinniya	False	False	TRNCMLKNNYMHFFCKNNY		Trincomalee	LK-53	8.551241	81.092014	Kinnia	PS-530140	6.907289	79.863819	8.498696	81.179644	F5XH+FVC, Kinniya 31100, Sri Lanka	228.840304	#CenterFarFromPolice	ත්රිකුණාමලය	කින්නියා	MOH කාර්යාලය - කින්නියා	திருகோணமலை	கிண்ணியா	MOH அலுவலகம் - கிண்ணியா	F5XH+FVC, කින්නියා 31100, ශ්‍රී ලංකාව	F5XH+FVC, கிண்ணியா 31100, இலங்கை
Trincomalee	Sripura	MOH Office – Sripura	False	False	TRNCMLSRPRMHFFCSRPR		Trincomalee	LK-53	8.551241	81.092014	Sripura	PS-530136	8.929617	80.81428	8.926697	80.814799	Padavi Sripura, Padaviya - Sripura Road, Welioya, Sri Lanka	0.329869		ත්රිකුණාමලය	ශ්‍රීපුර	MOH කාර්යාලය - ශ්‍රීපුර	திருகோணமலை	ஸ்ரீபுரா	MOH அலுவலகம் - ஸ்ரீபுரா	පදවි ශ්‍රීපුර, පදවිය - ශ්‍රීපුර පාර, වැලිඔය, ශ්‍රී ලංකාව	படவி ஸ்ரீபுரா, படாவியா - ஸ்ரீபுரா சாலை, வெலிஓயா, இலங்கை
Trincomalee	Kuchchaveli	MOH Office - Kuchchaveli	False	False	TRNCMLKCHCHVLMHFFCKCHCHVL		Trincomalee	LK-53	8.551241	81.092014	Kuchchaweli	PS-530133	8.81895	81.100438	8.740082	81.161616	P5R6+2JQ, Kumpurupiddi, Sri Lanka	11.053646		ත්රිකුණාමලය	කුච්චවේලි	MOH කාර්යාලය - කුච්චවේලි	திருகோணமலை	குச்சவெளி	MOH அலுவலகம் - குச்சவெளி	P5R6+2JQ, කුඹුරුපිඩි, ශ්‍රී ලංකාව	P5R6+2JQ, கும்புறுப்பிடி, இலங்கை
Trincomalee	Kuchchaveli	Divisional Hospital - Kuchchaveli	False	False	TRNCMLKCHCHVLDVSNLHSPTLKCHCHVL		Trincomalee	LK-53	8.551241	81.092014	Kuchchaweli	PS-530133	8.81895	81.100438	8.814795	81.102358	R472+WW9, Kuchchaveli, Sri Lanka	0.508064		ත්රිකුණාමලය	කුච්චවේලි	ප්‍රාදේශීය රෝහල - කුච්චවේලි	திருகோணமலை	குச்சவெளி	பிரதேச மருத்துவமனை - குச்சவெளி	ආර් 472+WW9, කුච්චවේලි, ශ්‍රී ලංකාව	R472+WW9, குச்சவெளி, இலங்கை
Trincomalee	Kuchchaveli	Divisional Hospital - Nilaveli	False	False	TRNCMLKCHCHVLDVSNLHSPTLNLVL		Trincomalee	LK-53	8.551241	81.092014	Kuchchaweli	PS-530133	8.81895	81.100438	8.681035	81.193632	M5JV+CF6, Nilaveli, Sri Lanka	18.44695		ත්රිකුණාමලය	කුච්චවේලි	ප්‍රාදේශීය රෝහල - නිලාවේලි	திருகோணமலை	குச்சவெளி	பிரதேச மருத்துவமனை - நிலாவெளி	M5JV+CF6, නිලාවේලි, ශ්‍රී ලංකාව	M5JV+CF6, நிலவேலி, இலங்கை
Trincomalee	Kantale	MOH Office – Kantale	False	False	TRNCMLKNTLMHFFCKNTL		Trincomalee	LK-53	8.551241	81.092014	Kantale	PS-530241	8.356129	81.007739	8.349617	81.009107	අග්‍රබෝධි මාවත, Kantale, Sri Lanka	0.739809		ත්රිකුණාමලය	කන්තලේ	MOH කාර්යාලය - කන්තලේ	திருகோணமலை	கந்தலே	MOH அலுவலகம் - கந்தலே	වැඩි දියුණු කිරීම මාවත, කන්තලේ, ශ්‍රී ලංකාව	தீவிரப்படுத்தி மாவத்த, கந்தலே, இலங்கை
Trincomalee	Pulmoddai	Pulmoddai Base Hospital	False	False	TRNCMLPLMDDPLMDDBSHSPTL	Base Hospital - Pulmoddai	Trincomalee	LK-53	8.551241	81.092014	Pulmudai	PS-530135	6.915266	79.87829	8.941204	80.983139	WXRM+F7J, Pulmoddai, Sri Lanka	256.112801	#CenterFarFromPolice	ත්රිකුණාමලය	පුල්මොඩෙයි	මූලික රෝහල - පුල්මොඩෙයි	திருகோணமலை	புல்மோட்டை	அடிப்படை மருத்துவமனை - புல்மோட்டை	ඩබ්ලිව්එක්ස්ආර්එම්+එෆ් 7 ජේ, පුල්මොඩෙයි, ශ්‍රී ලංකාව	WXRM+F7J, புல்மோடை, இலங்கை
Trincomalee	Serunuwara	MOH Office - Serunuwara	False	False	TRNCMLSRNWRMHFFCSRNWR		Trincomalee	LK-53	8.551241	81.092014	Serunuwara	PS-530244	8.321863	81.299322	8.323143	81.299894	B10, Sri Lanka	0.155671		ත්රිකුණාමලය	සේරුනුවර	MOH කාර්යාලය - සේරුනුවර	திருகோணமலை	சேருநுவரா	MOH அலுவலகம் - சேருநுவரா	බී 10, ශ්‍රී ලංකාව	பி 10, இலங்கை
Trincomalee	Harbour Police	MOH Office - Trincomalee	False	False	TRNCMLHRBRPLCMHFFCTRNCML		Trincomalee	LK-53	8.551241	81.092014	Trinco Harbour Police	PS-530131	8.56705	81.231407	8.598974	81.216963	MOH Office, Farm Rd, Trincomalee, Sri Lanka	3.890062		ත්රිකුණාමලය	වරාය පොලිසිය	එම්ඕඑච් කාර්යාලය - ත්‍රිකුණාමලය	திருகோணமலை	துறைமுக காவல்துறை	MOH அலுவலகம் - திருகோணமலை	එම්ඕඑච් කාර්යාලය, ගොවිපල පාර, ත්‍රිකුණාමලය, ශ්‍රී ලංකාව	MOH அலுவலகம், பண்ணை சாலை, திருகோணமலை, இலங்கை
Trincomalee	Uppuveli	MOH Office - Uppuveli	False	False	TRNCMLPPVLMHFFCPPVL		Trincomalee	LK-53	8.551241	81.092014	Uppuweli	PS-530134	8.593614	81.21743	8.607961	81.216512	Nilaveli Rd, Trincomalee, Sri Lanka	1.599005		ත්රිකුණාමලය	උප්පුවේලි	MOH කාර්යාලය - උප්පුවේලි	திருகோணமலை	உப்புவேலி	MOH அலுவலகம் - உப்புவேலி	නිලාවේලි පාර, ත්‍රිකුණාමලය, ශ්‍රී ලංකාව	நிலவேலி வீதி, திருகோணமலை, இலங்கை
Trincomalee	Ichchalampattu	MOH Office - Ichchalampattu	False	False	TRNCMLCHCHLMPTTMHFFCCHCHLMPTT	Eachchilampattu Hospital	Trincomalee	LK-53	8.551241	81.092014	Ichchalampattu		8.289549	81.359002	8.289644	81.358983	Highway, Ichchalampattu, Trincomalee, Sri Lanka	0.010772		ත්රිකුණාමලය	ඉච්චලම්පත්තු	එක්ර්චිලම්පත්තු රෝහල	திருகோணமலை	இச்சலம்பட்டு	ஒவ்வொருசிலம்பட்டு மருத்துவமனை	අධිවේගී මාර්ගය, ඉච්චලම්පත්තු, ත්‍රිකුණාමලය, ශ්‍රී ලංකාව	நெடுஞ்சாலை, ஈச்சலாம்பட்டு, திருகோணமலை, இலங்கை
Trincomalee	Thambalagamuwa	Thambalagamuwa Kulakoddan Vidyalaya	False	False	TRNCMLTHMBLGMWTHMBLGMWKLKDDNVDYLY		Trincomalee	LK-53	8.551241	81.092014	Thambalagamuva	PS-530243	6.907289	79.863819	8.499625	81.094502	Kandy Road, Sri Lanka	223.092723	#CenterFarFromPolice	ත්රිකුණාමලය	තඹලගමුව	තඹලගමුව කුලකොද්දන් විද්‍යාලය	திருகோணமலை	தம்பலகாமுவா	தம்பலகாமுவ குலகொத்தன் வித்தியாலயம்	නුවර පාර, ශ්‍රී ලංකාව	கண்டி சாலை, இலங்கை
Trincomalee	Thambalagamuwa	No 96 Sinhala Maha Vidyalaya	False	False	TRNCMLTHMBLGMWNSNHLMHVDYLY		Trincomalee	LK-53	8.551241	81.092014	Thambalagamuva	PS-530243	6.907289	79.863819	8.446541	81.06047	Mollipothana - Soorangal Rd, Mullipotana, Sri Lanka	216.130357	#CenterFarFromPolice	ත්රිකුණාමලය	තඹලගමුව	අංක 96 සිංහල මහා විද්‍යාලය	திருகோணமலை	தம்பலகாமுவா	எண் 96 சிங்கள மகா வித்தியாலயம்	මොල්ලිපොතාන - සූරංගල් පාර, මුලිපොතාන, ශ්‍රී ලංකාව	மொல்லிபோதனா - சூரங்கால் சாலை, முள்ளிபோதனை, இலங்கை
Trincomalee	Thambalagamuwa	Mollipathana Medical Centre	False	False	TRNCMLTHMBLGMWMLLPTHNMDCLCNTR		Trincomalee	LK-53	8.551241	81.092014	Thambalagamuva	PS-530243	6.907289	79.863819	8.366638	81.004746	Ambepussa - Kurunegala - Trincomalee Hwy, Kantale, Sri Lanka	205.349382	#CenterFarFromPolice	ත්රිකුණාමලය	තඹලගමුව	මොල්ලිපතන වෛද්‍ය මධ්‍යස්ථානය	திருகோணமலை	தம்பலகாமுவா	மொல்லிபதான மருத்துவ மையம்	අඹේපුස්ස - කුරුණෑගල - ත්‍රිකුණාමලය හ්වි, කන්තලේ, ශ්‍රී ලංකාව	அம்பேபுஸ்ஸா - குருநாகல் - திருகோணமலை ஹ்வி, கந்தலே, இலங்கை
Trincomalee	Thambalagamuwa	Siraj Nagar Muslim College	False	False	TRNCMLTHMBLGMWSRJNGRMSLMCLLG		Trincomalee	LK-53	8.551241	81.092014	Thambalagamuva	PS-530243	6.907289	79.863819	8.465601	81.082906	Siraj Nagar,, Trincomalee, Sri Lanka	219.318228	#CenterFarFromPolice	ත්රිකුණාමලය	තඹලගමුව	සිරාජ් නගර් මුස්ලිම් විද්‍යාලය	திருகோணமலை	தம்பலகாமுவா	சிராஜ் நகர் முஸ்லிம் கல்லூரி	සිරාජ් නගර් ,, ත්‍රිකුණාමලය, ශ්‍රී ලංකාව	சிராஜ் நகர் ,, திருகோணமலை, இலங்கை
Trincomalee	Thambalagamuwa	Gantalawa Medical Centre	False	False	TRNCMLTHMBLGMWGNTLWMDCLCNTR		Trincomalee	LK-53	8.551241	81.092014	Thambalagamuva	PS-530243	6.907289	79.863819	8.366638	81.004746	Ambepussa - Kurunegala - Trincomalee Hwy, Kantale, Sri Lanka	205.349382	#CenterFarFromPolice	ත්රිකුණාමලය	තඹලගමුව	ගන්තලාව වෛද්‍ය මධ්‍යස්ථානය	திருகோணமலை	தம்பலகாமுவா	கந்தலாவ மருத்துவ மையம்	අඹේපුස්ස - කුරුණෑගල - ත්‍රිකුණාමලය හ්වි, කන්තලේ, ශ්‍රී ලංකාව	அம்பேபுஸ்ஸா - குருநாகல் - திருகோணமலை ஹ்வி, கந்தலே, இலங்கை
Trincomalee	Gomarankadawala	GH - Mahadivulwewa	False	False	TRNCMLGMRNKDWLGHMHDVLWW		Trincomalee	LK-53	8.551241	81.092014	Gomarankadawala	PS-530248	8.674487	80.967555	8.617386	80.964277	JX87+XP2, Mahadivul Wewa, Sri Lanka	6.361556		ත්රිකුණාමලය	ගෝමරන්කඩවල	ජීඑච් - මහදිවුල්වැව	திருகோணமலை	கோமரன்கடவாலா	GH - மஹாதிவுல்வெவா	JX87+XP2, මහදිවුල් වැව, ශ්‍රී ලංකාව	JX87+XP2, மகாதிவுல் வெவா, இலங்கை
Trincomalee	Gomarankadawala	MOH Office - Gomarankadawala	False	False	TRNCMLGMRNKDWLMHFFCGMRNKDWL		Trincomalee	LK-53	8.551241	81.092014	Gomarankadawala	PS-530248	8.674487	80.967555	8.674726	80.955691	Unnamed Road, Gomarankadawala, Sri Lanka	1.304806		ත්රිකුණාමලය	ගෝමරන්කඩවල	එම්ඕඑච් කාර්යාලය - ගෝමරන්කඩවල	திருகோணமலை	கோமரன்கடவாலா	MOH அலுவலகம் - கோமரன்கடவாலா	නම් නොකළ පාර, ගෝමරන්කඩවල, ශ්‍රී ලංකාව	பெயரிடப்படாத சாலை, கோமரன்கடவாலா, இலங்கை
Trincomalee	Batticaloa	Mobile Medical Team	False	False	TRNCMLBTTCLMBLMDCLTM		Trincomalee	LK-53	8.551241	81.092014	Batticaloa	PS-510101	7.717949	81.699294					#CenterLocationUnknown	ත්රිකුණාමලය	මඩකලපුව	ජංගම වෛද්‍ය කණ්ඩායම	திருகோணமலை	மட்டக்களப்பு	மொபைல் மருத்துவ குழு		
Trincomalee	Batticaloa	MOH Office - Batticaloa	False	False	TRNCMLBTTCLMHFFCBTTCL		Trincomalee	LK-53	8.551241	81.092014	Batticaloa	PS-510101	7.717949	81.699294	7.708253	81.691368	Hospital Rd, Batticaloa, Sri Lanka	1.387934		ත්රිකුණාමලය	මඩකලපුව	MOH කාර්යාලය - මඩකලපුව	திருகோணமலை	மட்டக்களப்பு	MOH அலுவலகம் - மட்டக்களப்பு	රෝහල පාර, මඩකලපුව, ශ්‍රී ලංකාව	மருத்துவமனை சாலை, மட்டக்களப்பு, இலங்கை
Trincomalee	Vavunathivu	MOH Office - Vavunathivu	False	False	TRNCMLVVNTHVMHFFCVVNTHV		Trincomalee	LK-53	8.551241	81.092014	Vavunathive	PS-510102	6.933075	79.857181	7.708253	81.691368	Hospital Rd, Batticaloa, Sri Lanka	219.95575	#CenterFarFromPolice	ත්රිකුණාමලය	වවුනතිව්	MOH කාර්යාලය - වවුනතිව්	திருகோணமலை	வவுணதீவு	MOH அலுவலகம் - வவுணதீவு	රෝහල පාර, මඩකලපුව, ශ්‍රී ලංකාව	மருத்துவமனை சாலை, மட்டக்களப்பு, இலங்கை
Ampara	Chavalakade	5th Colony Health Centre	False	False	MPRCHVLKDTHCLNYHLTHCNTR		Ampara	LK-52	7.23699	81.550391	Chawalakade	PS-520125	7.413559	81.776822	7.418836	81.781436	Chavalakade, Sri Lanka	0.776867		අම්පාර	චවලකඩේ	5 වන ජනපද සෞඛ්‍ය මධ්‍යස්ථානය	அம்பாறை	சவளகடே	5 வது காலனி சுகாதார மையம்	චවලකඩේ, ශ්‍රී ලංකාව	சவளகடே, இலங்கை
Ampara	Karaitivu	MOH Office – Karaitivu	False	False	MPRKRTVMHFFCKRTV		Ampara	LK-52	7.23699	81.550391	Karaitivu		9.744059	79.870587	7.377712	81.838796	Colombo-Ratnapura-Wellawaya-Batticaloa Highway, Karativu 32250, Sri Lanka	340.788666	#CenterFarFromPolice	අම්පාර	කාරතිව්	MOH කාර්යාලය - කරෙයිතිව්	அம்பாறை	காரைதீவு	MOH அலுவலகம் - காரைதீவு	කොළඹ-රත්නපුර-වැල්ලවාය-මඩකලපුව අධිවේගී මාර්ගය, කරතිවු 32250, ශ්‍රී ලංකාව	கொழும்பு-இரத்தினபுரி-வெள்ளவாயா-மட்டக்களப்பு நெடுஞ்சாலை, காரடிவு 32250, இலங்கை
Ampara	Karaitivu	Mavadipalli Health Centre	False	False	MPRKRTVMVDPLLHLTHCNTR		Ampara	LK-52	7.23699	81.550391	Karaitivu		9.744059	79.870587	7.372549	81.824772	Karativu-Ampara Hwy, Karaitivu, Sri Lanka	340.256929	#CenterFarFromPolice	අම්පාර	කාරතිව්	මාවඩිපල්ලි සෞඛ්‍ය මධ්‍යස්ථානය	அம்பாறை	காரைதீவு	மாவடிப்பள்ளி சுகாதார மையம்	කරතිව්-අම්පාර හ්වි, කාරතිව්, ශ්‍රී ලංකාව	காரடிவு-அம்பாறை ஹ்வை, காரைதீவு, இலங்கை
Ampara	Thirukkovil	MOH Office - Thirukkovil	False	False	MPRTHRKKVLMHFFCTHRKKVL		Ampara	LK-52	7.23699	81.550391	Thirukkovil	PS-520127	7.113998	81.852219	7.111635	81.852892	Central Rd, Vinayagapuram, Sri Lanka	0.273131		අම්පාර	තිරුක්කෝවිල්	MOH කාර්යාලය - තිරුක්කෝවිල්	அம்பாறை	திருக்கோவில்	MOH அலுவலகம் - திருக்கோவில்	මධ්‍යම පාර, විනයාගපුරම්, ශ්‍රී ලංකාව	மத்திய வீதி, விநாயகபுரம், இலங்கை
Ampara	Thirukkovil	MOH Office - Alayadiwembu	False	False	MPRTHRKKVLMHFFCLYDWMB		Ampara	LK-52	7.23699	81.550391	Thirukkovil	PS-520127	7.113998	81.852219	7.413484	81.826588	Colombo - Batticaloa Hwy, Kalmunai 32300, Sri Lanka	33.431608	#CenterFarFromPolice	අම්පාර	තිරුක්කෝවිල්	එම්ඕඑච් කාර්යාලය - අලයඩිවෙම්බු	அம்பாறை	திருக்கோவில்	MOH அலுவலகம் - ஆலையடிவேம்பு	කොළඹ - මඩකලපුව හ්වි, කල්මුණේ 32300, ශ්‍රී ලංකාව	கொழும்பு - மட்டக்களப்பு Hwy, கல்முனை 32300, இலங்கை
Ampara	Eragama	MOH Office - Eragama	False	False	MPRRGMMHFFCRGM		Ampara	LK-52	7.23699	81.550391									#PoliceLocationUnknown	අම්පාර	එරගම	එම්ඕඑච් කාර්යාලය - එරගම	அம்பாறை	எரகம	MOH அலுவலகம் - எரகம		
Ampara	Damana	MOH Office - Damana	False	False	MPRDMNMHFFCDMN		Ampara	LK-52	7.23699	81.550391	Damana	PS-520114	7.200465	81.654653	7.197982	81.65538	5MX4+55R, Damana, Sri Lanka	0.2876		අම්පාර	දමන	MOH කාර්යාලය - දමන	அம்பாறை	தமனா	MOH அலுவலகம் - தமனா	5MX4+55R, දමන, ශ්‍රී ලංකාව	5MX4+55R, டாமனா, இலங்கை
Ampara	Pottuvil	MOH Office - Pottuvil	False	False	MPRPTTVLMHFFCPTTVL		Ampara	LK-52	7.23699	81.550391	Pothuvil	PS-520128	6.878387	81.826859	6.877076	81.828969	B374, Pottuvil, Sri Lanka	0.274874		අම්පාර	පොතුවිල්	එම්ඕඑච් කාර්යාලය - පොතුවිල්	அம்பாறை	பொட்டுவில்	MOH அலுவலகம் - பொத்துவில்	බී 374, පොතුවිල්, ශ්‍රී ලංකාව	B374, பொத்துவில், இலங்கை
Ampara	Akkaraipattu	MOH Office - Alayadiwembu	False	False	MPRKKRPTTMHFFCLYDWMB		Ampara	LK-52	7.23699	81.550391	Akkaraipattu	PS-520126	7.216084	81.853254	7.413484	81.826588	Colombo - Batticaloa Hwy, Kalmunai 32300, Sri Lanka	22.152981	#CenterFarFromPolice	අම්පාර	අක්කරපත්තුව	එම්ඕඑච් කාර්යාලය - අලයඩිවෙම්බු	அம்பாறை	அக்கரைப்பற்று	MOH அலுவலகம் - ஆலையடிவேம்பு	කොළඹ - මඩකලපුව හ්වි, කල්මුණේ 32300, ශ්‍රී ලංකාව	கொழும்பு - மட்டக்களப்பு Hwy, கல்முனை 32300, இலங்கை
Ampara	Kalmunai	MOH Office - Kalmunai North	False	False	MPRKLMNMHFFCKLMNNRTH		Ampara	LK-52	7.23699	81.550391	Kalmunai	PS-520123	7.414289	81.825006	7.411712	81.838462	CR6Q+M9P, Kalmunai 32300, Sri Lanka	1.511625		අම්පාර	කල්මුණේ	MOH කාර්යාලය - කල්මුණේ උතුර	அம்பாறை	கல்முனை	MOH அலுவலகம் - கல்முனை வடக்கு	CR6Q+M9P, කල්මුණේ 32300, ශ්‍රී ලංකාව	CR6Q+M9P, கல்முனை 32300, இலங்கை
Ampara	Kalmunai	Mobile Vaccination	False	False	MPRKLMNMBLVCCNTN		Ampara	LK-52	7.23699	81.550391	Kalmunai	PS-520123	7.414289	81.825006					#CenterLocationUnknown	අම්පාර	කල්මුණේ	ජංගම එන්නත	அம்பாறை	கல்முனை	மொபைல் தடுப்பூசி		
Ampara	Kalmunai	Periyani Lawana Clinic	False	False	MPRKLMNPRYNLWNCLNC		Ampara	LK-52	7.23699	81.550391	Kalmunai	PS-520123	7.414289	81.825006	7.420034	81.82232	hospital near, Kalmunai 32300, Sri Lanka	0.704353		අම්පාර	කල්මුණේ	පෙරියානි ලෝවානා සායනය	அம்பாறை	கல்முனை	பெரியானி லாவனா கிளினிக்	රෝහල අසල, කල්මුණේ 32300, ශ්‍රී ලංකාව	மருத்துவமனை அருகில், கல்முனை 32300, இலங்கை
Ampara	Kalmunai	Maruthamunai Almanar Central College	False	False	MPRKLMNMRTHMNLMNRCNTRLCLLG		Ampara	LK-52	7.23699	81.550391	Kalmunai	PS-520123	7.414289	81.825006	7.436331	81.812701	Maruthamunai, Sri Lanka	2.802316		අම්පාර	කල්මුණේ	මරුතමුනෙයි අල්මනාර් මධ්‍ය විද්‍යාලය	அம்பாறை	கல்முனை	மருதமுனை அல்மனார் மத்திய கல்லூரி	මරුතාමුණේ, ශ්‍රී ලංකාව	மருதமுனை, இலங்கை
Ampara	Kalmunai	Kalmunai Al Misbah Maha Vidyalaya	False	False	MPRKLMNKLMNLMSBHMHVDYLY		Ampara	LK-52	7.23699	81.550391	Kalmunai	PS-520123	7.414289	81.825006	7.401673	81.840708	Kalmunai 32300, Sri Lanka	2.22909		අම්පාර	කල්මුණේ	කල්මුණේ අල් මිස්බා මහා විද්‍යාලය	அம்பாறை	கல்முனை	கல்முனை அல் மிஸ்பா மகா வித்தியாலயம்	කල්මුණේ 32300, ශ්‍රී ලංකාව	கல்முனை 32300, இலங்கை
Ampara	Kalmunai	Narappattimunai Al Ashka Maha Vidyalaya	False	False	MPRKLMNNRPPTTMNLSHKMHVDYLY		Ampara	LK-52	7.23699	81.550391	Kalmunai	PS-520123	7.414289	81.825006	7.414638	81.81151	CR76+VJ2, Kalmunai, Sri Lanka	1.489112		අම්පාර	කල්මුණේ	නාරපට්ටිමුනෙයි අල් අෂ්කා මහා විද්‍යාලය	அம்பாறை	கல்முனை	நரப்பட்டிமுனை அல் அஷ்கா மகா வித்தியாலயம்	CR76+VJ2, කල්මුණේ, ශ්‍රී ලංකාව	CR76+VJ2, கல்முனை, இலங்கை
Ampara	Sainthamaruthu	APC Clinic	False	False	MPRSNTHMRTHPCCLNC		Ampara	LK-52	7.23699	81.550391									#PoliceLocationUnknown	අම්පාර	සයින්දමරුදු	ඒපීසී සායනය	அம்பாறை	சாய்ந்தமருது	ஏபிசி கிளினிக்		
Ampara	Sainthamaruthu	Sainthamaruthu Hospital	False	False	MPRSNTHMRTHSNTHMRTHHSPTL		Ampara	LK-52	7.23699	81.550391									#PoliceLocationUnknown	අම්පාර	සයින්දමරුදු	සයින්දමරුදු රෝහල	அம்பாறை	சாய்ந்தமருது	சாய்ந்தமருது மருத்துவமனை		
Ampara	Sainthamaruthu	MOH Office - Sainthamaruthu	False	False	MPRSNTHMRTHMHFFCSNTHMRTH		Ampara	LK-52	7.23699	81.550391									#PoliceLocationUnknown	අම්පාර	සයින්දමරුදු	MOH කාර්යාලය - සයින්දමරුදු	அம்பாறை	சாய்ந்தமருது	MOH அலுவலகம் - சாய்ந்தமருது		
Ampara	Sammanthurai	Miranagar Health Centre	False	False	MPRSMMNTHRMRNGRHLTHCNTR		Ampara	LK-52	7.23699	81.550391	Samanthurai	PS-520124	7.365785	81.810859	7.359802	81.793874	Vilinaiyadi Rd, Sammanthurai, Sri Lanka	1.988336		අම්පාර	සමන්තුරේ	මිරානගර් සෞඛ්‍ය මධ්‍යස්ථානය	அம்பாறை	சம்மாந்துறை	மீராநகர் சுகாதார மையம்	විලිනියාඩි පාර, සම්මන්තුරේ, ශ්‍රී ලංකාව	விலினையாடி சாலை, சம்மாந்துறை, இலங்கை
Ampara	Sammanthurai	Vavalodai Health Centre	False	False	MPRSMMNTHRVVLDHLTHCNTR		Ampara	LK-52	7.23699	81.550391	Samanthurai	PS-520124	7.365785	81.810859	7.359802	81.793874	Vilinaiyadi Rd, Sammanthurai, Sri Lanka	1.988336		අම්පාර	සමන්තුරේ	වවලෝදායි සෞඛ්‍ය මධ්‍යස්ථානය	அம்பாறை	சம்மாந்துறை	வவளோடை சுகாதார மையம்	විලිනියාඩි පාර, සම්මන්තුරේ, ශ්‍රී ලංකාව	விலினையாடி சாலை, சம்மாந்துறை, இலங்கை
Ampara	Sammanthurai	Arasady Health Centre	False	False	MPRSMMNTHRRSDYHLTHCNTR		Ampara	LK-52	7.23699	81.550391	Samanthurai	PS-520124	7.365785	81.810859	7.368169	81.812056	Hospital Rd, Sammanthurai, Sri Lanka	0.296229		අම්පාර	සමන්තුරේ	අරසාඩි සෞඛ්‍ය මධ්‍යස්ථානය	அம்பாறை	சம்மாந்துறை	அரசடி சுகாதார மையம்	රෝහල් පාර, සම්මන්තුරේ, ශ්‍රී ලංකාව	மருத்துவமனை சாலை, சம்மாந்துறை, இலங்கை
Ampara	Sammanthurai	Attapalam Health Centre	False	False	MPRSMMNTHRTTPLMHLTHCNTR		Ampara	LK-52	7.23699	81.550391	Samanthurai	PS-520124	7.365785	81.810859	7.359802	81.793874	Vilinaiyadi Rd, Sammanthurai, Sri Lanka	1.988336		අම්පාර	සමන්තුරේ	අත්තපාලම් සෞඛ්‍ය මධ්‍යස්ථානය	அம்பாறை	சம்மாந்துறை	அட்டபாலம் சுகாதார மையம்	විලිනියාඩි පාර, සම්මන්තුරේ, ශ්‍රී ලංකාව	விலினையாடி சாலை, சம்மாந்துறை, இலங்கை
Ampara	Sammanthurai	Sammanthurai Base Hospital	False	False	MPRSMMNTHRSMMNTHRBSHSPTL		Ampara	LK-52	7.23699	81.550391	Samanthurai	PS-520124	7.365785	81.810859	7.368355	81.813042	9R96+MWM, Hospital Rd, Sammanthurai, Sri Lanka	0.373773		අම්පාර	සමන්තුරේ	සමන්තුරේ මූලික රෝහල	அம்பாறை	சம்மாந்துறை	சம்மாந்துறை அடிப்படை மருத்துவமனை	9R96+MWM, රෝහල් පාර, සමන්තුරේ, ශ්‍රී ලංකාව	9R96+MWM, மருத்துவமனை சாலை, சம்மாந்துறை, இலங்கை
Ampara	Sammanthurai	Town Hall - Sammanthurai	False	False	MPRSMMNTHRTWNHLLSMMNTHR		Ampara	LK-52	7.23699	81.550391	Samanthurai	PS-520124	7.365785	81.810859	7.363356	81.804123	9R73+8JX, Sammanthurai, Sri Lanka	0.790657		අම්පාර	සමන්තුරේ	පුරහල - සමන්තුරේ	அம்பாறை	சம்மாந்துறை	டவுன் ஹால் - சம்மாந்துறை	9R73+8JX, සම්මන්තුරේ, ශ්‍රී ලංකාව	9R73+8JX, சம்மாந்துறை, இலங்கை
Ampara	Sammanthurai	Malwatta Hospital	False	False	MPRSMMNTHRMLWTTHSPTL		Ampara	LK-52	7.23699	81.550391	Samanthurai	PS-520124	7.365785	81.810859	7.368355	81.813042	9R96+MWM, Hospital Rd, Sammanthurai, Sri Lanka	0.373773		අම්පාර	සමන්තුරේ	මල්වත්ත රෝහල	அம்பாறை	சம்மாந்துறை	மல்வத்த மருத்துவமனை	9R96+MWM, රෝහල් පාර, සමන්තුරේ, ශ්‍රී ලංකාව	9R96+MWM, மருத்துவமனை சாலை, சம்மாந்துறை, இலங்கை
Ampara	Sammanthurai	Al -Arshath College - Sammanthurai	False	False	MPRSMMNTHRLRSHTHCLLGSMMNTHR		Ampara	LK-52	7.23699	81.550391	Samanthurai	PS-520124	7.365785	81.810859	7.35018	81.80359	Kallarichchel 02, Sammanthurai, Sri Lanka	1.912014		අම්පාර	සමන්තුරේ	අල් -අර්ෂාත් විද්‍යාලය - සම්මන්තුරේ	அம்பாறை	சம்மாந்துறை	அல் -அர்ஷாத் கல்லூரி - சம்மாந்துறை	කල්ලරිචෙල් 02, සම්මන්තුරේ, ශ්‍රී ලංකාව	கல்லறிச்செல் 02, சம்மாந்துறை, இலங்கை
Ampara	Sammanthurai	Al-Azhar Maha Vidyalaya - Sammanthurai	False	False	MPRSMMNTHRLZHRMHVDYLYSMMNTHR		Ampara	LK-52	7.23699	81.550391	Samanthurai	PS-520124	7.365785	81.810859	7.35018	81.80359	Kallarichchel 02, Sammanthurai, Sri Lanka	1.912014		අම්පාර	සමන්තුරේ	අල් -අසාර් මහා විද්‍යාලය - සම්මන්තුරේ	அம்பாறை	சம்மாந்துறை	அல் அசார் மகா வித்தியாலயம் - சம்மாந்துறை	කල්ලරිචෙල් 02, සම්මන්තුරේ, ශ්‍රී ලංකාව	கல்லறிச்செல் 02, சம்மாந்துறை, இலங்கை
