district	police	center	dose1	dose2	fuzzy_key	alt_name	district_name_norm	district_id	district_lat	district_lng	ps_name_norm	ps_id	ps_lat	ps_lng	lat	lng	formatted_address	dis_center_to_police	tags
Colombo	Cinnamon Gardens	Viharamahadevi Park	False	False	CLMBCNNMNGRDNSVHRMHDVPRK		Colombo	LK-11	6.869636	80.019598	Cinnamon Garden	PS-110324	6.907289	79.863819	6.913391	79.86174	Viharamahadevi Park, Colombo, Sri Lanka	0.716497	
Colombo	Narahenpita	Army Hospital Narahenpita	False	False	CLMBNRHNPTRMYHSPTLNRHNPT		Colombo	LK-11	6.869636	80.019598	Narahenpita	PS-110321	6.891832	79.876715	6.900252	79.87618	08 Elvitigala Mawatha, Colombo 00800, Sri Lanka	0.938417	
Colombo	Boralesgamuwa	Kotelawala Defence Hospital	False	False	CLMBBRLSGMWKTLWLDFNCHSPTL		Colombo	LK-11	6.869636	80.019598	Boralesgamuwa	PS-110464	6.841331	79.901255	6.82518	79.907167	RWG4+3VF, Boralesgamuwa, Sri Lanka	1.911444	
Colombo	Fort	Navy Headquarters	False	False	CLMBFRTNVYHDQRTRS		Colombo	LK-11	6.869636	80.019598	Fort	PS-110105	6.9334	79.842895	6.936952	79.842104	WRPR+QRQ, Colombo, Sri Lanka	0.404627	
Colombo	Wellampitiya	MOH Office - Kolonnawa	False	False	CLMBWLLMPTYMHFFCKLNNW		Colombo	LK-11	6.869636	80.019598	Wellampitiya	PS-110465	6.937514	79.896298	6.938303	79.889664	25 Pansalhena 1st Ln, 10600, Sri Lanka	0.737734	
Colombo	Mulleriyawa	MOH Office - Gothatuwa	False	False	CLMBMLLRYWMHFFCGTHTW		Colombo	LK-11	6.869636	80.019598	Mulleriyawa	PS-110469	6.927187	79.929108	6.922088	79.916237	Mandavila Rd, Kotikawatta, Sri Lanka	1.530186	
Colombo	Kaduwela	MOH Office - Kaduwela	False	False	CLMBKDWLMHFFCKDWL		Colombo	LK-11	6.869636	80.019598	Kaduwela		6.936234	79.970183	6.934127	79.984398	B263, Kaduwela, Sri Lanka	1.586964	
Colombo	Kosgama	Kosgama Hospital	False	False	CLMBKSGMKSGMHSPTL		Colombo	LK-11	6.869636	80.019598	Kosgama	PS-920227	6.946597	80.137869	6.940956	80.124888	Salawa-Akarawita, 10730, Sri Lanka	1.564606	
Colombo	Mt Lavinia	Attidiya Maternity Clinic	False	False	CLMBMTLVNTTDYMTRNTYCLNC		Colombo	LK-11	6.869636	80.019598	Mount Lavinia	PS-110577	6.825006	79.87009	6.838329	79.884674	243 Attidiya Rd, Dehiwala-Mount Lavinia, Sri Lanka	2.188674	
Gampaha	Gampaha	MOH Office - Gampaha	False	False	GMPHGMPHMHFFCGMPH		Gampaha	LK-12	7.123598	80.018508	Gampaha	PS-120237	7.087765	80.01228	7.090643	80.002094	Colombo Rd, Gampaha, Sri Lanka	1.16901	
Gampaha	Gampaha	Municipal Council, Gampaha	False	False	GMPHGMPHMNCPLCNCLGMPH		Gampaha	LK-12	7.123598	80.018508	Gampaha	PS-120237	7.087765	80.01228	7.093995	79.997019	3XVW+HRR, Gampaha, Sri Lanka	1.821461	
Gampaha	Kadawata	MOH Office - Mahara	False	False	GMPHKDWTMHFFCMHR		Gampaha	LK-12	7.123598	80.018508	Kadawatha	PS-120136	7.00152	79.95003	7.020757	79.973481	Mahara, Eldeniya, Sri Lanka	3.358732	
Gampaha	Kadawata	Akbar Town Rahula College	False	False	GMPHKDWTKBRTWNRHLCLLG		Gampaha	LK-12	7.123598	80.018508	Kadawatha	PS-120136	7.00152	79.95003	6.991591	79.911574	Akbar Town, Sri Lanka	4.386894	
Gampaha	Kadawata	Bodhiloka Vidyalaya	False	False	GMPHKDWTBDHLKVDYLY		Gampaha	LK-12	7.123598	80.018508	Kadawatha	PS-120136	7.00152	79.95003	7.012507	79.953464	Kadawatha - Ganemulla Rd, Kadawatha, Sri Lanka	1.279535	
Gampaha	Kadawata	Sooriyarachchi Vidyalaya	False	False	GMPHKDWTSRYRCHCHVDYLY		Gampaha	LK-12	7.123598	80.018508	Kadawatha	PS-120136	7.00152	79.95003	6.9983	79.987381	Gonahena Rd, Kadawatha 11940, Sri Lanka	4.139104	
Gampaha	Kelaniya	Makulugahawatta Vidyalaya	False	False	GMPHKLNYMKLGHWTTVDYLY		Gampaha	LK-12	7.123598	80.018508	Kelaniya	PS-120126	6.950251	79.917459	6.961405	79.901248	Waragoda Road , Kelaniya, Peliyagoda, Sri Lanka	2.177817	
Gampaha	Meegahawatta	Delgoda Kalyani Pradeepa Pirivena	False	False	GMPHMGHWTTDLGDKLYNPRDPPRVN		Gampaha	LK-12	7.123598	80.018508	Meegahawatta	PS-120132	6.988968	80.000356	6.989781	80.016017	No: 333, Delgoda, Delgoda 11700, Sri Lanka	1.731389	
Gampaha	Kiribathgoda	Eriyawetiya Sumanarama Viharaya	False	False	GMPHKRBTHGDRYWTYSMNRMVHRY		Gampaha	LK-12	7.123598	80.018508	Kiribathgoda	PS-120135	6.978005	79.929433	6.98594	79.918396	XWP9+99C, 11300, Sri Lanka	1.504606	
Gampaha	Biyagama	MOH Office - Biyagama	False	False	GMPHBYGMMHFFCBYGM		Gampaha	LK-12	7.123598	80.018508	Biyagama	PS-120131	6.962284	80.009037	6.946824	79.994052	Hospital Rd, Sri Lanka	2.386313	
Gampaha	Minuwangoda	Galahitiyawa Central College	False	False	GMPHMNWNGDGLHTYWCNTRLCLLG		Gampaha	LK-12	7.123598	80.018508	Minuwangoda	PS-120238	7.174215	79.957874	7.069576	79.953719	Ganemulla-JaEla Road, Ganemulla 11020, Sri Lanka	11.64801	
Gampaha	Minuwangoda	Dewalapola Viharaya	False	False	GMPHMNWNGDDWLPLVHRY		Gampaha	LK-12	7.123598	80.018508	Minuwangoda	PS-120238	7.174215	79.957874	7.161204	79.991999	Dewalapola, Sri Lanka	4.03455	
Gampaha	Minuwangoda	Medagamuwa Maha Vidyalaya	False	False	GMPHMNWNGDMDGMWMHVDYLY		Gampaha	LK-12	7.123598	80.018508	Minuwangoda	PS-120238	7.174215	79.957874	7.169788	79.951621	11550, Katunayake-Veyangoda Rd, Minuwangoda, Sri Lanka	0.84775	
Gampaha	Pugoda	MOH Office - Dompe	False	False	GMPHPGDMHFFCDMP		Gampaha	LK-12	7.123598	80.018508	Pugoda	PS-120241	6.98283	80.111189	6.976767	80.117422	Dompe, Pugoda-Mandawala Rd, Pugoda, Sri Lanka	0.963513	
Gampaha	Ja Ela	MOH Office - Ja Ela	False	False	GMPHJLMHFFCJL		Gampaha	LK-12	7.123598	80.018508	Ja - Ela	PS-120133	7.081055	79.890504	7.075216	79.893879	60 Mount Kalvary Rd, Ja-Ela, Sri Lanka	0.748731	
Gampaha	Wattala	MOH Office - Wattala	False	False	GMPHWTTLMHFFCWTTL		Gampaha	LK-12	7.123598	80.018508	Wattala	PS-120128	6.993713	79.894506	6.995817	79.885793	301 Hendala Rd, Wattala, Sri Lanka	0.989991	
Gampaha	Ragama	MOH Office - Ragama	False	False	GMPHRGMMHFFCRGM		Gampaha	LK-12	7.123598	80.018508	Ragama	PS-120134	7.034975	79.924148	7.027386	79.920232	2WGC+X35, Ragama, Sri Lanka	0.948382	
Gampaha	Divulapitiya	MOH Office - Divulapitiya	False	False	GMPHDVLPTYMHFFCDVLPTY		Gampaha	LK-12	7.123598	80.018508	Diulapitiya	PS-120355	7.174215	79.957874	7.215486	80.013606	6287+5CX, Divulapitiya, Sri Lanka	7.67456	
Gampaha	Seeduwa	MOH Office - Seeduwa	False	False	GMPHSDWMHFFCSDW		Gampaha	LK-12	7.123598	80.018508	Seeduwa	PS-120356	7.128721	79.877371	7.131527	79.879964	24 Kotugoda Rd, Katunayake 11410, Sri Lanka	0.423459	
Gampaha	Mirigama	Mugurugampola Viharaya	False	False	GMPHMRGMMGRGMPLVHRY		Gampaha	LK-12	7.123598	80.018508	Meerigama	PS-120248	7.245169	80.128647	7.24658	80.119978	Negombo - Mirigama Rd, Mirigama, Sri Lanka	0.969341	
Gampaha	Pallewela	Pallewela Government Dispensary	False	False	GMPHPLLWLPLLWLGVRNMNTDSPNSRY		Gampaha	LK-12	7.123598	80.018508	Pallewela	PS-120249	7.197365	80.094856	7.197393	80.094227	Kaleliya - Medagampitiya Rd, Pallewela, Sri Lanka	0.069482	
Gampaha	Nittambuwa	Al-Azhar College	False	False	GMPHNTTMBWLZHRCLLG		Gampaha	LK-12	7.123598	80.018508	Nittambuwa	PS-120246	7.149726	80.10046	7.121335	80.072386	43CC+GXJ, Kalagedihena, Sri Lanka	4.424148	
Gampaha	Bemmulla	Pitiyegedara Maha Vidyalaya	False	False	GMPHBMMLLPTYGDRMHVDYLY		Gampaha	LK-12	7.123598	80.018508	Bemmulla		7.120846	80.026097	7.119759	80.024581	429F+WR4, Bemmulla, Sri Lanka	0.206371	
Kalutara	Kalutara South	NIHS	False	False	KLTRKLTRSTHNHS		Kalutara	LK-13	6.577316	80.127363	Kalutara South	PS-130296	6.58486	79.961043	6.55864	79.977416	HX5G+FX3, Katukurunda, Sri Lanka	3.432035	
Kalutara	Beruwala	MOH Office - Beruwala	False	False	KLTRBRWLMHFFCBRWL		Kalutara	LK-13	6.577316	80.127363	Beruwala	PS-1302102	6.480329	79.983498	6.437559	79.999356	CXQX+2PH, Aluthgama, Sri Lanka	5.069893	
Kalutara	Agalawatta	Pimbura Hospital	False	False	KLTRGLWTTPMBRHSPTL		Kalutara	LK-13	6.577316	80.127363	Agalawatta		6.542566	80.157178	6.575949	80.158371	H5G5+98H, කළුතර, Sri Lanka	3.715525	
Kalutara	Agalawatta	MOH Office - Agalawatta	False	False	KLTRGLWTTMHFFCGLWTT		Kalutara	LK-13	6.577316	80.127363	Agalawatta		6.542566	80.157178	6.523544	80.126443	G4FG+CH8, Matugama, Sri Lanka	4.001473	
Kalutara	Bulathsinhala	Bothalegama Maha Vidyalaya	False	False	KLTRBLTHSNHLBTHLGMMHVDYLY		Kalutara	LK-13	6.577316	80.127363	Bulathsinhala	PS-1302104	6.650425	80.17703	6.704892	80.169849	P539+XW5, Bulathsinhala, Sri Lanka	6.11009	
Kalutara	Welipenna	Walagedara Health Centre	False	False	KLTRWLPNNWLGDRHLTHCNTR		Kalutara	LK-13	6.577316	80.127363	Welipanna	PS-1302101	6.467428	80.108313	6.449918	80.079334	Walagedara, Sri Lanka	3.748555	
Kalutara	Welipenna	Horawala Health Centre	False	False	KLTRWLPNNHRWLHLTHCNTR		Kalutara	LK-13	6.577316	80.127363	Welipanna	PS-1302101	6.467428	80.108313	6.483632	80.126611	Aluthgama - Mathugama Rd, Horawala, Sri Lanka	2.708915	
Kalutara	Wadduwa	Pothupitiya Walukarama Viharaya	False	False	KLTRWDDWPTHPTYWLKRMVHRY		Kalutara	LK-13	6.577316	80.127363	Wadduwa	PS-130188	6.664403	79.929851	6.641789	79.940081	Galle Road A2, Wadduwa, Sri Lanka	2.757605	
Kalutara	Millaniya	MOH Office - Millaniya	False	False	KLTRMLLNYMHFFCMLLNY		Kalutara	LK-13	6.577316	80.127363	Millaniya	PS-130191	6.681692	80.020847	6.724224	79.907284	A2, Panadura, Sri Lanka	13.407612	
Kalutara	Matugama	MOH Office - Matugama	False	False	KLTRMTGMMHFFCMTGM		Kalutara	LK-13	6.577316	80.127363	Mathugama	PS-1302103	6.520881	80.117908	6.523544	80.126443	G4FG+CH8, Matugama, Sri Lanka	0.988725	
Kalutara	Matugama	MOH Office - Matugama	False	False	KLTRMTGMMHFFCMTGM		Kalutara	LK-13	6.577316	80.127363	Mathugama	PS-1302103	6.520881	80.117908	6.523544	80.126443	G4FG+CH8, Matugama, Sri Lanka	0.988725	
Kalutara	Matugama	Weththewa Hospital	False	False	KLTRMTGMWTHTHWHSPTL		Kalutara	LK-13	6.577316	80.127363	Mathugama	PS-1302103	6.520881	80.117908	6.523087	80.125192	District Hospital, Hospital Road,Weththewa,., Matugama, Sri Lanka	0.841523	
Kalutara	Baduraliya	Baduraliya Hospital	False	False	KLTRBDRLYBDRLYHSPTL		Kalutara	LK-13	6.577316	80.127363	Baduraliya	PS-1302106	6.516756	80.226716	6.514727	80.232731	Tiruwanaketiya-Agalawatte Rd, Baduraliya, Sri Lanka	0.702098	
Kurunegala	Giriulla	Weththewa Vidyalaya	False	False	KRNGLGRLLWTHTHWVDYLY		Kurunegala	LK-61	7.66477	80.23677	Giriulla	PS-610215	7.334527	80.125021	7.338625	80.117546	Meddepola Road, Giriulla, Sri Lanka	0.942229	
Kurunegala	Giriulla	Kaudumunna Vidyalaya	False	False	KRNGLGRLLKDMNNVDYLY		Kurunegala	LK-61	7.66477	80.23677	Giriulla	PS-610215	7.334527	80.125021	7.393812	80.117739	Kaudumunna Rd, Sri Lanka	6.643021	
Kurunegala	Giriulla	Wikramashila National College	False	False	KRNGLGRLLWKRMSHLNTNLCLLG		Kurunegala	LK-61	7.66477	80.23677	Giriulla	PS-610215	7.334527	80.125021	7.326725	80.118281	Wickramashila National school, Giriulla, Negombo-Kurunegala Rd, Giriulla, Sri Lanka	1.142798	
Kurunegala	Giriulla	Bopitiya Maha Vidyalaya	False	False	KRNGLGRLLBPTYMHVDYLY		Kurunegala	LK-61	7.66477	80.23677	Giriulla	PS-610215	7.334527	80.125021	7.319921	80.083958	839M+XH8, Bopitiya, Sri Lanka	4.81264	
Kurunegala	Pannala	Rural Secretariat - Irabadagama	False	False	KRNGLPNNLRRLSCRTRTRBDGM		Kurunegala	LK-61	7.66477	80.23677	Pannala	PS-610214	7.327738	80.021761	7.3269	80.02185	Pannala-Mallawagedara Rd, Pannala, Sri Lanka	0.093726	
Kurunegala	Pannala	Sandalankawa National College	False	False	KRNGLPNNLSNDLNKWNTNLCLLG		Kurunegala	LK-61	7.66477	80.23677	Pannala	PS-610214	7.327738	80.021761	7.321638	79.963716	Negombo-Kurunegala Rd, 60176, Sri Lanka	6.439495	
Kurunegala	Pannala	Makandura Vidyananda Vidyalaya	False	False	KRNGLPNNLMKNDRVDYNNDVDYLY		Kurunegala	LK-61	7.66477	80.23677	Pannala	PS-610214	7.327738	80.021761	7.323921	79.989057	8XFQ+HJ7, Makandura, Sri Lanka	3.632861	
Kurunegala	Pannala	Hettirippuwa Vidyalaya	False	False	KRNGLPNNLHTTRPPWVDYLY		Kurunegala	LK-61	7.66477	80.23677	Pannala	PS-610214	7.327738	80.021761	7.346492	79.947604	Hettirippuwa Church Rd, Sri Lanka	8.442692	
Kurunegala	Giribawa	Wannikudawewa Vidyalaya	False	False	KRNGLGRBWWNNKDWWVDYLY		Kurunegala	LK-61	7.66477	80.23677	Giribawa	PS-610329	8.117314	80.189061	8.074825	80.218675	36F9+WFM, Kurunegala, Sri Lanka	5.741992	
Kurunegala	Giribawa	Thambutta Vidyalaya	False	False	KRNGLGRBWTHMBTTVDYLY		Kurunegala	LK-61	7.66477	80.23677	Giribawa	PS-610329	8.117314	80.189061	8.116653	80.192352	Mahagalkadawala - Warawewa, Pahala Giribawa, Sri Lanka	0.369773	
Kurunegala	Giribawa	Gribawa Maha Vidyalaya	False	False	KRNGLGRBWGRBWMHVDYLY		Kurunegala	LK-61	7.66477	80.23677	Giribawa	PS-610329	8.117314	80.189061	8.116653	80.192352	Mahagalkadawala - Warawewa, Pahala Giribawa, Sri Lanka	0.369773	
Kurunegala	Giribawa	Damsopura Community Hall	False	False	KRNGLGRBWDMSPRCMMNTYHLL		Kurunegala	LK-61	7.66477	80.23677	Giribawa	PS-610329	8.117314	80.189061	7.481465	80.35357	F9J3+HCP, Kurunegala, Sri Lanka	73.0119	#CenterFarFromPolice
Kurunegala	Nikaweratiya	MOH Office - Nikaweratiya	False	False	KRNGLNKWRTYMHFFCNKWRTY		Kurunegala	LK-61	7.66477	80.23677	Nikaweratiya	PS-610320	7.742612	80.121177	7.7475	80.115183	Nikaweratiya-Heelogama Rd, Nikaweratiya, Sri Lanka	0.855589	
Kurunegala	Kobaigane	Hathalawa Clinic	False	False	KRNGLKBGNHTHLWCLNC		Kurunegala	LK-61	7.66477	80.23677	Kobeigane	PS-610321	7.656934	80.126283	7.655135	80.126109	Kobeigane, Sri Lanka	0.20102	
Kurunegala	Kobaigane	Hengamuwa Vidyalaya	False	False	KRNGLKBGNHNGMWVDYLY		Kurunegala	LK-61	7.66477	80.23677	Kobeigane	PS-610321	7.656934	80.126283	7.700444	80.115879	hengamuwa ,kobeigane, Sri Lanka	4.973641	
Kurunegala	Kurunegala	Hettigedara Viharaya	False	False	KRNGLKRNGLHTTGDRVHRY		Kurunegala	LK-61	7.66477	80.23677	Kurunegala	PS-610101	7.485852	80.364137	7.48751	80.370935	F9QC+293, Kurunegala, Sri Lanka	0.772044	
Kurunegala	Kurunegala	Sir John Kothelawala Vidyalaya	False	False	KRNGLKRNGLSRJHNKTHLWLVDYLY		Kurunegala	LK-61	7.66477	80.23677	Kurunegala	PS-610101	7.485852	80.364137	7.494346	80.368997	Dambulla Rd, Kurunegala, Sri Lanka	1.086222	
Kurunegala	Wellawa	Ganewatta National School	False	False	KRNGLWLLWGNWTTNTNLSCHL		Kurunegala	LK-61	7.66477	80.23677	Wellawa	PS-610107	7.554523	80.368896	7.655338	80.346048	Wariyapola-Ganewatta-Kumbukgete Rd, Sri Lanka	11.49309	
Kurunegala	Weerambugedara	Gallehera Vidyalaya	False	False	KRNGLWRMBGDRGLLHRVDYLY		Kurunegala	LK-61	7.66477	80.23677	Weerambugedara	PS-610106	7.476107	80.242797	7.493437	80.242384	F6VR+9XC, Weerambugedara, Sri Lanka	1.928151	
Kurunegala	Weerambugedara	Sandagala Vidyaloka Vidyalaya	False	False	KRNGLWRMBGDRSNDGLVDYLKVDYLY		Kurunegala	LK-61	7.66477	80.23677	Weerambugedara	PS-610106	7.476107	80.242797	7.485481	80.361833	F9P6+5PW, Kurunegala, Sri Lanka	13.169002	
Kurunegala	Alawwa	Walakumbura Maha Vidyalaya	False	False	KRNGLLWWWLKMBRMHVDYLY		Kurunegala	LK-61	7.66477	80.23677	Alawwa	PS-610103	7.295909	80.24277	7.316048	80.26541	Sri Lanka	3.355124	
Kurunegala	Alawwa	Nungamuwa Maha Vidyalaya	False	False	KRNGLLWWNNGMWMHVDYLY		Kurunegala	LK-61	7.66477	80.23677	Alawwa	PS-610103	7.295909	80.24277	7.29543	80.236626	Alawwa, Sri Lanka	0.679954	
Kurunegala	Wariyapola	Padeniya Sunanda Maha Vidyalaya	False	False	KRNGLWRYPLPDNYSNNDMHVDYLY		Kurunegala	LK-61	7.66477	80.23677	Wariyapola	PS-610105	7.628129	80.241019	7.656628	80.219614	Katugastota-Kurunegala-Puttalam Hwy, Padeniya, Sri Lanka	3.951812	
Kurunegala	Wariyapola	Narammala Vidyalaya	False	False	KRNGLWRYPLNRMMLVDYLY		Kurunegala	LK-61	7.66477	80.23677	Wariyapola	PS-610105	7.628129	80.241019	7.440633	80.225551	C6RG+763, Narammala, Sri Lanka	20.924781	#CenterFarFromPolice
Kurunegala	Rideegama	Koswatta Maha Vidyalaya	False	False	KRNGLRDGMKSWTTMHVDYLY		Kurunegala	LK-61	7.66477	80.23677	Rideegama	PS-610110	7.589247	80.61027	7.506694	80.509861	Ridigama Keppitigala, Road, Kurunegala, Sri Lanka	14.383959	
Kurunegala	Kalpitiya	MOH Office Kalpitiya	False	False	KRNGLKLPTYMHFFCKLPTY		Kurunegala	LK-61	7.66477	80.23677	Kalpitiya	PS-620137	8.235145	79.764567	8.228618	79.761271	6QH6+CGR, Kalpitiya, Sri Lanka	0.811617	
Kurunegala	Mundalama	MOH Office - Mundalama	False	False	KRNGLMNDLMMHFFCMNDLM		Kurunegala	LK-61	7.66477	80.23677	Mundal	PS-620138	7.808859	79.825729	7.78892	79.82751	Puttalam - Colombo Rd, Sri Lanka	2.226479	
Kurunegala	Marawila	MOH Office - Mahawewa	False	False	KRNGLMRWLMHFFCMHWW		Kurunegala	LK-61	7.66477	80.23677	Marawila	PS-620243	7.415075	79.839776	7.433164	79.83442	Meda Hattiniya, Marawila, Sri Lanka	2.096969	
Kurunegala	Hasalaka	Ranasingha Premadasa National School	False	False	KRNGLHSLKRNSNGHPRMDSNTNLSCHL		Kurunegala	LK-61	7.66477	80.23677	Hasalaka	PS-210362	7.353096	80.95444	7.349827	80.950564	Kandy-Mahiyangane-Padiyatalawa Hwy, Hasalaka, Sri Lanka	0.561284	
Kurunegala	Kadugannawa	Menikdiwela Maha Vidyalaya	False	False	KRNGLKDGNNWMNKDWLMHVDYLY		Kurunegala	LK-61	7.66477	80.23677	Kadugannawa	PS-210112	7.256285	80.516908	7.496145	80.155147	F5W4+F32, Kurunegala, Sri Lanka	48.002673	#CenterFarFromPolice
Kurunegala	Kadugannawa	Balana Primary College	False	False	KRNGLKDGNNWBLNPRMRYCLLG		Kurunegala	LK-61	7.66477	80.23677	Kadugannawa	PS-210112	7.256285	80.516908	7.260172	80.531059	7G6J+3C7, Henawala, Sri Lanka	1.620154	
Kurunegala	Peradeniya	Dodamwala Maha Vidyalaya	False	False	KRNGLPRDNYDDMWLMHVDYLY		Kurunegala	LK-61	7.66477	80.23677	Peradeniya	PS-210110	7.267283	80.601901	7.28447	80.550963	Dodanwala Natha Dewale Rd, Dodamwala, Sri Lanka	5.936439	
Kurunegala	Ragala	TBM Herath Maha Vidyalaya	False	False	KRNGLRGLTBMHRTHMHVDYLY		Kurunegala	LK-61	7.66477	80.23677	Ragala	PS-230142	7.012347	80.858498	7.009792	80.856891	Nuwara Eliya - Uda Pussellawa Road, Ragala, Sri Lanka	0.335022	
Kurunegala	Nanu Oya	Pradeshiya Shabaha Hall	False	False	KRNGLNNYPRDSHYSHBHHLL		Kurunegala	LK-61	7.66477	80.23677	Nanuoya	PS-230133	6.939692	80.744185	7.445647	80.344351	C8WV+7P5, Kurunegala, Sri Lanka	71.512257	#CenterFarFromPolice
Kurunegala	Pattipola	Meepilimana Senananda Vidyalaya	False	False	KRNGLPTTPLMPLMNSNNNDVDYLY		Kurunegala	LK-61	7.66477	80.23677	Pattipola	PS-230147	6.85662	80.831385	6.927777	80.7892	Meepilimana, Blackpool-Ambewela-Pattipola-Horton Plain Rd, Nuwara Eliya, Sri Lanka	9.183884	
Matale	Mathale	Nagolla Vidyalaya	False	False	MTLMTHLNGLLVDYLY		Matale	LK-22	7.667587	80.731008	Matale	PS-220121	7.462789	80.626211	7.465092	80.623609	Kandy-Jaffna Highway, Matale, Sri Lanka	0.384668	
Matale	Mathale	Kuriwela Ajmer Vidyalaya	False	False	MTLMTHLKRWLJMRVDYLY		Matale	LK-22	7.667587	80.731008	Matale	PS-220121	7.462789	80.626211	7.4096	80.648257	Mahinda Rajapaksha Navodya Vidyalaya, Kuriwela, Ukuwela, Sri Lanka	6.396397	
Matale	Mathale	Thenna Maha Vidyalaya	False	False	MTLMTHLTHNNMHVDYLY		Matale	LK-22	7.667587	80.731008	Matale	PS-220121	7.462789	80.626211	7.496622	80.625797	FJWG+J8V, Matale, Sri Lanka	3.763516	
Matale	Mathale	Laliambe Vidyalaya	False	False	MTLMTHLLLMBVDYLY		Matale	LK-22	7.667587	80.731008	Matale	PS-220121	7.462789	80.626211	7.509599	80.647679	GJ5X+R3M, Matale, Sri Lanka	5.719667	
Matale	Mathale	Buddhagosa Vidyalaya	False	False	MTLMTHLBDDHGSVDYLY		Matale	LK-22	7.667587	80.731008	Matale	PS-220121	7.462789	80.626211	7.509599	80.647679	GJ5X+R3M, Matale, Sri Lanka	5.719667	
Matale	Mathale	St. Thomas College	False	False	MTLMTHLSTTHMSCLLG		Matale	LK-22	7.667587	80.731008	Matale	PS-220121	7.462789	80.626211	7.470517	80.621246	Kings St, Matale, Sri Lanka	1.019177	
Matale	Rattota	Pussella Maha Vidyalaya	False	False	MTLRTTTPSSLLMHVDYLY		Matale	LK-22	7.667587	80.731008	Rattota	PS-220122	7.520684	80.678809	7.509599	80.647679	GJ5X+R3M, Matale, Sri Lanka	3.647554	
Matale	Rattota	Metihakka Multi Task Centre	False	False	MTLRTTTMTHKKMLTTSKCNTR		Matale	LK-22	7.667587	80.731008	Rattota	PS-220122	7.520684	80.678809	7.540097	80.65322	Metihakka, Sri Lanka	3.55312	
Matale	Rattota	Pallepola Hospital	False	False	MTLRTTTPLLPLHSPTL		Matale	LK-22	7.667587	80.731008	Rattota	PS-220122	7.520684	80.678809	7.627907	80.606017	Pallepola 21000, Sri Lanka	14.375519	
Matale	Galewela	Thalkiriyagama Viharaya	False	False	MTLGLWLTHLKRYGMVHRY		Matale	LK-22	7.667587	80.731008	Galewela	PS-220129	7.763244	80.574149	7.855404	80.651345	Kandy - Jaffna Hwy, Dambulla, Sri Lanka	13.320981	
Matale	Galewela	Madipola Hospital	False	False	MTLGLWLMDPLHSPTL		Matale	LK-22	7.667587	80.731008	Galewela	PS-220129	7.763244	80.574149	7.685835	80.576848	MHPG+8PQ, Madipola, Sri Lanka	8.615328	
Matale	Galewela	Galewela Hospital	False	False	MTLGLWLGLWLHSPTL		Matale	LK-22	7.667587	80.731008	Galewela	PS-220129	7.763244	80.574149	7.760542	80.571552	QH6C+6J7, Galewela, Sri Lanka	0.415026	
Matale	Dambulla	Rangiri Dambulla Central College	False	False	MTLDMBLLRNGRDMBLLCNTRLCLLG		Matale	LK-22	7.667587	80.731008	Dambulla	PS-220128	7.86208	80.649166	7.855404	80.651345	Kandy - Jaffna Hwy, Dambulla, Sri Lanka	0.78042	
Matale	Sigiriya	Inamaluwa Vidyalaya	False	False	MTLSGRYNMLWVDYLY		Matale	LK-22	7.667587	80.731008	Sigiriya	PS-220130	7.94243	80.732502	7.92425	80.684012	Inamaluwa, Sri Lanka	5.711845	
Matale	Makulugaswewa	Makulugaswewa Maha Vidyalaya	False	False	MTLMKLGSWWMKLGSWWMHVDYLY		Matale	LK-22	7.667587	80.731008									#PoliceLocationUnknown
Badulla	Badulla	Badulla Hospital	False	False	BDLLBDLLBDLLHSPTL		Badulla	LK-81	7.074529	81.04486	Badulla	PS-810101	6.991337	81.055246	6.991808	81.05235	Daya Gunasekara Mawatha, Badulla, Sri Lanka	0.32399	
Badulla	Badulla	Sprinvelly Hospital	False	False	BDLLBDLLSPRNVLLYHSPTL		Badulla	LK-81	7.074529	81.04486	Badulla	PS-810101	6.991337	81.055246	6.991808	81.05235	Daya Gunasekara Mawatha, Badulla, Sri Lanka	0.32399	
Badulla	Hale Ela	Wepassawela Maha Vidyalaya	False	False	BDLLHLLWPSSWLMHVDYLY		Badulla	LK-81	7.074529	81.04486	Haliela	PS-810108	6.958216	81.034447	6.947643	81.027144	Sri Lanka, Hali-ela, Sri Lanka	1.425915	
Badulla	Hale Ela	Hali Ela Central College	False	False	BDLLHLLHLLCNTRLCLLG		Badulla	LK-81	7.074529	81.04486	Haliela	PS-810108	6.958216	81.034447	6.96042	81.034923	Peradeniya-Badulla-Chenkaladi Hwy, Hali-ela, Sri Lanka	0.250721	
Badulla	Hale Ela	Uduwara Purana Viharaya	False	False	BDLLHLLDWRPRNVHRY		Badulla	LK-81	7.074529	81.04486	Haliela	PS-810108	6.958216	81.034447	6.931734	81.044042	Uduwara, Sri Lanka	3.130313	
Badulla	Hale Ela	Dencil Kobbekaduwa Maha Vidyalaya	False	False	BDLLHLLDNCLKBBKDWMHVDYLY		Badulla	LK-81	7.074529	81.04486	Haliela	PS-810108	6.958216	81.034447	6.963435	81.037403	Peradeniya-Badulla-Chenkaladi Hwy, Hali-ela, Sri Lanka	0.666019	
Badulla	Passara	Passara Central College	False	False	BDLLPSSRPSSRCNTRLCLLG		Badulla	LK-81	7.074529	81.04486	Passara	PS-810102	6.934481	81.154796	6.937341	81.157452	Peradeniya-Badulla-Chenkaladi Hwy, Passara 90500, Sri Lanka	0.432669	
Badulla	Passara	DH Passara	False	False	BDLLPSSRDHPSSR		Badulla	LK-81	7.074529	81.04486	Passara	PS-810102	6.934481	81.154796	6.936513	81.15136	Peradeniya-Badulla-Chenkaladi Hwy, Passara 90500, Sri Lanka	0.441612	
Badulla	Passara	GH Meedumpitiya	False	False	BDLLPSSRGHMDMPTY		Badulla	LK-81	7.074529	81.04486	Passara	PS-810102	6.934481	81.154796	6.991808	81.05235	Daya Gunasekara Mawatha, Badulla, Sri Lanka	12.984538	
Badulla	Lunugala	DH Lunugala	False	False	BDLLLNGLDHLNGL		Badulla	LK-81	7.074529	81.04486	Lunugala	PS-810104	7.047691	81.20339	7.041625	81.202526	Lunugala Bus Station, Peradeniya-Badulla-Chenkaladi Hwy, Lunugala, Sri Lanka	0.681428	
Badulla	Lunugala	MOH Office - Lunugala	False	False	BDLLLNGLMHFFCLNGL		Badulla	LK-81	7.074529	81.04486	Lunugala	PS-810104	7.047691	81.20339	7.030729	81.198808	Peradeniya-Badulla-Chenkaladi Hwy, Lunugala, Sri Lanka	1.953308	
Badulla	Lunugala	Divisional Hospital - Hopton	False	False	BDLLLNGLDVSNLHSPTLHPTN		Badulla	LK-81	7.074529	81.04486	Lunugala	PS-810104	7.047691	81.20339	6.984911	81.19795	Peradeniya-Badulla-Chenkaladi Hwy, Sri Lanka	7.008786	
Badulla	Lunugala	Divisional Hospital - Metigahathenna	False	False	BDLLLNGLDVSNLHSPTLMTGHTHNN		Badulla	LK-81	7.074529	81.04486	Lunugala	PS-810104	7.047691	81.20339	6.435016	80.198501	B158, Meegahathenna, Sri Lanka	130.25044	#CenterFarFromPolice
Badulla	Kahataruppa	GH Kahataruppa	False	False	BDLLKHTRPPGHKHTRPP		Badulla	LK-81	7.074529	81.04486									#PoliceLocationUnknown
Badulla	Haldummulla	Haldummulla Hospital	False	False	BDLLHLDMMLLHLDMMLLHSPTL		Badulla	LK-81	7.074529	81.04486	Haldummulla		6.762216	80.885856	6.758168	80.879938	Colombo - Ratnapura - Wellawaya - Batticaloa Rd, Sri Lanka	0.793746	
Badulla	Bandarawela	MOH Office - Bandarawela	False	False	BDLLBNDRWLMHFFCBNDRWL		Badulla	LK-81	7.074529	81.04486	Bandarawela	PS-810210	6.831526	80.986784	6.841272	80.98482	Hospital Junction Helamuduna Bus Stop, Etampitiya Rd, Bandarawela, Sri Lanka	1.105533	
Badulla	Welimada	MOH Office - Welimada	False	False	BDLLWLMDMHFFCWLMD		Badulla	LK-81	7.074529	81.04486	Welimada	PS-810212	6.900481	80.905809	6.927934	80.896475	Udapussellawa-Welimada Road, Ambagasdowa, Sri Lanka	3.222841	
Badulla	Uva Paranagama	District Hospital - Uva Paranagama	False	False	BDLLVPRNGMDSTRCTHSPTLVPRNGM		Badulla	LK-81	7.074529	81.04486	Uvaparanagama	PS-810213	6.958341	80.930364	6.938076	80.890525	Rendapola-Galahagama-Ambagasdowa Rd, Himbiliyagahamadiththa, Sri Lanka	4.942648	
Badulla	Haputale	MOH Office - Haputale	False	False	BDLLHPTLMHFFCHPTL		Badulla	LK-81	7.074529	81.04486	Haputale	PS-810215	6.767653	80.957218	6.779645	80.964114	QXH7+WC4, Badulla, Sri Lanka	1.536024	
Monaragala	Badalkumbura	Muthukeliyawa Maha Vidyalaya	False	False	MNRGLBDLKMBRMTHKLYWMHVDYLY		Moneragala	LK-82	6.787517	81.303744	Badalkumbura	PS-820128	6.889017	81.235441	6.89796	81.24123	Passara-Moneragala, Highway, Badalkumbura, Sri Lanka	1.182426	
Moneragala	Monaragala	MOH Office - Monaragala	False	False	MNRGLMNRGLMHFFCMNRGL		Moneragala	LK-82	6.787517	81.303744	Monaragala	PS-820121	6.869866	81.348106	6.863814	81.339087	V87Q+GJG, Monaragala, Sri Lanka	1.202138	
Moneragala	Monaragala	JJ Apparel Garment	False	False	MNRGLMNRGLJJPPRLGRMNT		Moneragala	LK-82	6.787517	81.303744	Monaragala	PS-820121	6.869866	81.348106	6.856344	81.344749	Kumarawatta, Muppane, Monaragala. 91000, Sri Lanka	1.549065	
Moneragala	Dambagalla	MOH Office - Dambagalla	False	False	MNRGLDMBGLLMHFFCDMBGLL		Moneragala	LK-82	6.787517	81.303744	Dambagalla	PS-820123	6.978806	81.372037	6.980456	81.375777	X9JG+58J, Monaragala, Sri Lanka	0.451866	
Moneragala	Siyambalanduwa	Mahakalugolla Primary College	False	False	MNRGLSYMBLNDWMHKLGLLPRMRYCLLG		Moneragala	LK-82	6.787517	81.303744	Siyambalanduwa	PS-820122	6.906851	81.547598	6.909655	81.561921	WH56+VQ7, Siyambalanduwa, Sri Lanka	1.612038	
Moneragala	Siyambalanduwa	Kivuleyaya Maha Vidyalaya	False	False	MNRGLSYMBLNDWKVLYYMHVDYLY		Moneragala	LK-82	6.787517	81.303744	Siyambalanduwa	PS-820122	6.906851	81.547598	6.906464	81.561014	Siyambalanduwa, Sri Lanka	1.482056	
Moneragala	Siyambalanduwa	Pahathaarawa Primary College	False	False	MNRGLSYMBLNDWPHTHRWPRMRYCLLG		Moneragala	LK-82	6.787517	81.303744	Siyambalanduwa	PS-820122	6.906851	81.547598	6.909655	81.561921	WH56+VQ7, Siyambalanduwa, Sri Lanka	1.612038	
Moneragala	Ethimale	Kotiyagala Primary College	False	False	MNRGLTHMLKTYGLPRMRYCLLG		Moneragala	LK-82	6.787517	81.303744	Athimale	PS-820124	6.907289	79.863819	6.772543	81.530065	QGFJ+228, මොණරාගල, Sri Lanka	184.626401	#CenterFarFromPolice
Galle	Neluwa	Neluwa National School	False	False	GLLNLWNLWNTNLSCHL		Galle	LK-31	6.222805	80.251977	Neluwa	PS-310132	6.379651	80.358956	6.37678	80.358703	B411, Neluwa, Sri Lanka	0.320563	
Galle	Opatha	Opatha Maha Vidyalaya	False	False	GLLPTHPTHMHVDYLY		Galle	LK-31	6.222805	80.251977									#PoliceLocationUnknown
Galle	Nagoda	Kurupanawa Primary School	False	False	GLLNGDKRPNWPRMRYSCHL		Galle	LK-31	6.222805	80.251977	Nagoda	PS-310130	6.197616	80.274707					#CenterLocationUnknown
Galle	Yakkalamulla	Polpagoda Dharmapala Vidyalaya	False	False	GLLYKKLMLLPLPGDDHRMPLVDYLY		Galle	LK-31	6.222805	80.251977	Yakkalamulla	PS-310125	6.106186	80.348152	6.092944	80.359015	Polpagoda Vidyalaya, Yakkalamulla, Sri Lanka	1.900771	
Galle	Ambalangoda	Dharmasoka Vidyalaya - Ambalangoda	False	False	GLLMBLNGDDHRMSKVDYLYMBLNGD		Galle	LK-31	6.222805	80.251977	Ambalangoda	PS-310243	6.244958	80.047598	6.24063	80.054715	A2, Ambalangoda, Sri Lanka	0.922499	
Galle	Uragasmanhandiya	Dencil Kobbekaduwa Primary College	False	False	GLLRGSMNHNDYDNCLKBBKDWPRMRYCLLG		Galle	LK-31	6.222805	80.251977	Uragasmanhandiya	PS-310236	6.343756	80.080679	6.344654	80.090004	83VR+V26, Uragasmanhandiya, Sri Lanka	1.035694	
Galle	Karandeniya	MOH Office - Karandeniya	False	False	GLLKRNDNYMHFFCKRNDNY		Galle	LK-31	6.222805	80.251977	Karandeniya	PS-310238	6.271732	80.08479	6.268939	80.099876	Elpitiya Rd, Karandeniya, Sri Lanka	1.696659	
Galle	Elpitiya	Rupakarunathilaka Hall	False	False	GLLLPTYRPKRNTHLKHLL		Galle	LK-31	6.222805	80.251977	Elpitiya	PS-310235	6.279163	80.142917	6.290082	80.162727	75R7+23Q, Elpitiya 80400, Sri Lanka	2.504421	
Galle	Elpitiya	Kahaduwa Maha Vidyalaya	False	False	GLLLPTYKHDWMHVDYLY		Galle	LK-31	6.222805	80.251977	Elpitiya	PS-310235	6.279163	80.142917	6.220777	80.212991	112 Yakkatuwa-Kahaduwa Road, Kahaduwa, Sri Lanka	10.109741	
Galle	Pitigala	Niyagama Vijitha Maha Vidyalaya	False	False	GLLPTGLNYGMVJTHMHVDYLY		Galle	LK-31	6.222805	80.251977	Pitigala	PS-310237	6.335202	80.221149	6.308321	80.24853	Niyagama, Sri Lanka	4.254766	
Galle	Pitigala	Sri Sucharithodayaramaya	False	False	GLLPTGLSRSCHRTHDYRMY		Galle	LK-31	6.222805	80.251977	Pitigala	PS-310237	6.335202	80.221149	6.344756	80.221851	Pitigala - Mativiliya - Cotapola Rd, Pitigala, Sri Lanka	1.065528	
Galle	Hikkaduwa	Hikkaduwa Police Station	False	False	GLLHKKDWHKKDWPLCSTTN		Galle	LK-31	6.222805	80.251977	Hikkaduwa	PS-310122	6.145115	80.099693	6.145115	80.099693	Galle Rd, Hikkaduwa, Sri Lanka	0.0	
Galle	Akmeemana	Bataduwa Rathanajothi Vidyalaya	False	False	GLLKMMNBTDWRTHNJTHVDYLY		Galle	LK-31	6.222805	80.251977	Akmeemana	PS-310123	6.073453	80.276627	6.042063	80.243092	Bataduwa, Galle, B129, Galle 80000, Sri Lanka	5.09404	
Galle	Akmeemana	Jambuketiya Nila Piyasa	False	False	GLLKMMNJMBKTYNLPYS		Galle	LK-31	6.222805	80.251977	Akmeemana	PS-310123	6.073453	80.276627	6.083631	80.296239	Akmeemana, Sri Lanka	2.446729	
Galle	Akmeemana	Narawala Vidyalaya	False	False	GLLKMMNNRWLVDYLY		Galle	LK-31	6.222805	80.251977	Akmeemana	PS-310123	6.073453	80.276627	6.09793	80.228472	Narawala, Sri Lanka	5.981606	
Galle	Akmeemana	Labuduwa Siridamma Vidyalaya	False	False	GLLKMMNLBDWSRDMMVDYLY		Galle	LK-31	6.222805	80.251977	Akmeemana	PS-310123	6.073453	80.276627	6.071463	80.232066	සිරිධම්ම විද්‍යාලය, සිරිධම්ම මාවත, ගාල්ල 80090, Sri Lanka	4.933669	
Galle	Habaraduwa	Heenatigala Sariputhra Vidyalaya	False	False	GLLHBRDWHNTGLSRPTHRVDYLY		Galle	LK-31	6.222805	80.251977	Habaraduwa	PS-310127	5.9871	80.327098	6.016251	80.277486	278G+GX5, Heenatigala, Sri Lanka	6.374375	
Galle	Imaduwa	Havupe Vidyalaya	False	False	GLLMDWHVPVDYLY		Galle	LK-31	6.222805	80.251977	Imaduwa	PS-310134	6.034389	80.391055	6.036482	80.382217	Imaduwa, Sri Lanka	1.004938	
Matara	Mawarala	Gomila Central College	False	False	MTRMWRLGMLCNTRLCLLG		Matara	LK-32	6.142734	80.539994	Mawarala	PS-320109	6.198061	80.587045	5.953769	80.544354	Rahula Road,, Matara, 81000, Sri Lanka	27.579769	#CenterFarFromPolice
Matara	Dickwella	Kumarthunga Munidasa Maha Vidyalaya	False	False	MTRDCKWLLKMRTHNGMNDSMHVDYLY		Matara	LK-32	6.142734	80.539994	Dikwella	PS-320103	5.964296	80.693198	5.965899	80.694907	XM8V+9X3, Dikwella, Sri Lanka	0.259877	
Matara	Hakmana	Town Hall - Hakmana	False	False	MTRHKMNTWNHLLHKMN		Matara	LK-32	6.142734	80.539994	Hakmana	PS-320106	6.084824	80.643227	6.079554	80.657662	Hakmana, Sri Lanka	1.700772	
Matara	Weligama	Weligama Siddhartha Maha Vidyalaya	False	False	MTRWLGMWLGMSDDHRTHMHVDYLY		Matara	LK-32	6.142734	80.539994	Weligama	PS-320111	5.973301	80.426455	5.971718	80.422394	XCCC+MXJ, Weligama, Sri Lanka	0.482525	
Matara	Deniyaya	Deniyaya Maha Vidyalaya	False	False	MTRDNYYDNYYMHVDYLY		Matara	LK-32	6.142734	80.539994	Deniyaya	PS-320110	6.341435	80.558719	6.342485	80.559658	Sri Lanka Matara, Deniyaya, Sri Lanka	0.156256	
Matara	Akuressa	Army Mobile Vaccination	False	False	MTRKRSSRMYMBLVCCNTN		Matara	LK-32	6.142734	80.539994	Akuressa	PS-320112	6.099044	80.4776					#CenterLocationUnknown
Hambantota	Walasmulla	Modarawana Maha Vidyalaya	False	False	HMBNTTWLSMLLMDRWNMHVDYLY		Hambantota	LK-33	6.259779	81.098619	Walasmulla	PS-330151	6.154102	80.698256	6.109322	80.714402	Beliatta - Walasmulla Rd, Okewela, Sri Lanka	5.291276	
Hambantota	Tangalle	MOH Office - Tangalle	False	False	HMBNTTTNGLLMHFFCTNGLL		Hambantota	LK-33	6.259779	81.098619	Tangalle	PS-330147	6.023954	80.797255	6.02363	80.795742	2QFW+F75, Tangalle, Sri Lanka	0.171198	
Hambantota	Tangalle	Vitharandeniya Sudarshanagama Primary College	False	False	HMBNTTTNGLLVTHRNDNYSDRSHNGMPRMRYCLLG		Hambantota	LK-33	6.259779	81.098619	Tangalle	PS-330147	6.023954	80.797255	6.022935	80.794892	2QFV+5XC, Tangalle, Sri Lanka	0.284901	
Hambantota	Beliatta	MOH Office - Beliatta	False	False	HMBNTTBLTTMHFFCBLTT		Hambantota	LK-33	6.259779	81.098619	Beliatta	PS-330152	6.046936	80.735408	6.051828	80.741735	3P2R+PMQ, Hambantota, Sri Lanka	0.886482	
Hambantota	Beliatta	Pallaththara Maha Vidyalaya	False	False	HMBNTTBLTTPLLTHTHRMHVDYLY		Hambantota	LK-33	6.259779	81.098619	Beliatta	PS-330152	6.046936	80.735408	6.061014	80.730277	3P6J+C42, Beliatta, Sri Lanka	1.665569	
Hambantota	Katuwana	MOH Office - Katuwana	False	False	HMBNTTKTWNMHFFCKTWN		Hambantota	LK-33	6.259779	81.098619	Katuwana	PS-330153	6.269722	80.690963	6.26627	80.693035	7M8V+G63, Katuwana, Sri Lanka	0.447115	
Hambantota	Angunakolapelessa	MOH Office - Angunakolapelessa	False	False	HMBNTTNGNKLPLSSMHFFCNGNKLPLSS		Hambantota	LK-33	6.259779	81.098619	Angunakolapelessa	PS-330150	6.321993	80.844883	6.164691	80.898963	Unnamed Road, Agunukolapelessa, Sri Lanka	18.490258	
Hambantota	Angunakolapelessa	Jandura Primary College	False	False	HMBNTTNGNKLPLSSJNDRPRMRYCLLG		Hambantota	LK-33	6.259779	81.098619	Angunakolapelessa	PS-330150	6.321993	80.844883	6.150016	80.898979	Eramini Yaya - Pattamaluwa Rd, Sri Lanka	20.042349	#CenterFarFromPolice
Hambantota	Thissamaharamaya	Muthiyammagama Primary College	False	False	HMBNTTTHSSMHRMYMTHYMMGMPRMRYCLLG		Hambantota	LK-33	6.259779	81.098619	Tissamaharamaya	PS-330158	6.26109	81.236724	6.276898	81.286084	Cross street, තිස්සමහාරාමය 82600, Sri Lanka	5.733735	
Hambantota	Suriyawewa	Viharagala Viharaya	False	False	HMBNTTSRYWWVHRGLVHRY		Hambantota	LK-33	6.259779	81.098619	Sooriyawewa	PS-330155	6.306022	81.003873	6.280703	80.988902	7XJQ+7HJ, Hambantota, Sri Lanka	3.266617	
Hambantota	Suriyawewa	Weniwelara Vidyalaya	False	False	HMBNTTSRYWWWNWLRVDYLY		Hambantota	LK-33	6.259779	81.098619	Sooriyawewa	PS-330155	6.306022	81.003873	6.056995	80.750125	3Q42+Q3R, Hambantota, Sri Lanka	39.428635	#CenterFarFromPolice
Hambantota	Ambalanthota	Pahala Beragama Vidyalaya	False	False	HMBNTTMBLNTHTPHLBRGMVDYLY		Hambantota	LK-33	6.259779	81.098619	Ambalantota	PS-330157	6.12516	81.023981	6.148971	81.049155	Pahala Beragama Rd, Ambalantota, Sri Lanka	3.842586	
Hambantota	Ambalanthota	Arawanamulla Viharaya	False	False	HMBNTTMBLNTHTRWNMLLVHRY		Hambantota	LK-33	6.259779	81.098619	Ambalantota	PS-330157	6.12516	81.023981	6.127007	81.022217	42GC+RV4, Ambalantota, Sri Lanka	0.283312	
Rathnapura	Opanayaka	Millaketiya Vidyalaya	False	False	RTHNPRPNYKMLLKTYVDYLY		Ratnapura	LK-91	6.586826	80.566158	Opanayaka	PS-910104	6.608519	80.619285	6.618238	80.62379	Galhira Rd, Opanayake,, Sri Lanka	1.190132	
Rathnapura	Opanayaka	Akarella  Vidyalaya	False	False	RTHNPRPNYKKRLLVDYLY		Ratnapura	LK-91	6.586826	80.566158	Opanayaka	PS-910104	6.608519	80.619285	6.618238	80.62379	Galhira Rd, Opanayake,, Sri Lanka	1.190132	
Rathnapura	Pinnawala	Sumanadewa Vidyalaya	False	False	RTHNPRPNNWLSMNDWVDYLY		Ratnapura	LK-91	6.586826	80.566158	Pinnawala	PS-910115	7.299943	80.386604	6.726907	80.663883	Pahala Waleboda Rd, Sri Lanka	70.708149	#CenterFarFromPolice
Rathnapura	Pinnawala	Gurubewa Vidyalaya	False	False	RTHNPRPNNWLGRBWVDYLY		Ratnapura	LK-91	6.586826	80.566158	Pinnawala	PS-910115	7.299943	80.386604	6.773169	80.317655	Kuruwita, Sri Lanka	59.085287	#CenterFarFromPolice
Rathnapura	Pinnawala	Pinnawala Dispensary	False	False	RTHNPRPNNWLPNNWLDSPNSRY		Ratnapura	LK-91	6.586826	80.566158	Pinnawala	PS-910115	7.299943	80.386604	6.870229	80.120206	Wewalpanawa - Waga Rd, Pinnawala, Sri Lanka	56.117848	#CenterFarFromPolice
Rathnapura	Pinnawala	Morahela Dispensary	False	False	RTHNPRPNNWLMRHLDSPNSRY		Ratnapura	LK-91	6.586826	80.566158	Pinnawala	PS-910115	7.299943	80.386604	6.671939	80.680324	Rassagala Rd, Bulathgama, Sri Lanka	77.012774	#CenterFarFromPolice
Rathnapura	Godakawela	Agaregama Vidyalaya	False	False	RTHNPRGDKWLGRGMVDYLY		Ratnapura	LK-91	6.586826	80.566158	Godakawela	PS-910233	6.50224	80.655642	6.505873	80.640843	GJ4R+88W, Ratnapura, Sri Lanka	1.684679	
Rathnapura	Godakawela	Opatha No. 3 Tamil College	False	False	RTHNPRGDKWLPTHNTMLCLLG		Ratnapura	LK-91	6.586826	80.566158	Godakawela	PS-910233	6.50224	80.655642	6.563779	80.611601	No 03 Opatha Rd, Kahawatta, Sri Lanka	8.39881	
Rathnapura	Balangoda	Rassagala Vidyalaya	False	False	RTHNPRBLNGDRSSGLVDYLY		Ratnapura	LK-91	6.586826	80.566158	Balangoda	PS-910103	6.649474	80.700276	6.692579	80.643126	Balangoda - Rassagala - Uwella Rd, Sri Lanka	7.927876	
Rathnapura	Balangoda	Durakanda Vidyalaya	False	False	RTHNPRBLNGDDRKNDVDYLY		Ratnapura	LK-91	6.586826	80.566158	Balangoda	PS-910103	6.649474	80.700276	6.704898	80.624626	Sri Lanka	10.385179	
Rathnapura	Balangoda	Watawala Vidyalaya	False	False	RTHNPRBLNGDWTWLVDYLY		Ratnapura	LK-91	6.586826	80.566158	Balangoda	PS-910103	6.649474	80.700276	6.625092	80.794203	Watawala Mulgama, Kapugala Rd, 70100, Sri Lanka	10.725983	
Rathnapura	Balangoda	Godakumbura Vidyalaya	False	False	RTHNPRBLNGDGDKMBRVDYLY		Ratnapura	LK-91	6.586826	80.566158	Balangoda	PS-910103	6.649474	80.700276	6.602628	80.734181	JP3M+3M3, Ratnapura, Sri Lanka	6.41748	
Rathnapura	Balangoda	Mahawalathenna Vidyalaya	False	False	RTHNPRBLNGDMHWLTHNNVDYLY		Ratnapura	LK-91	6.586826	80.566158	Balangoda	PS-910103	6.649474	80.700276	6.580138	80.732308	HPJJ+3W3, Mahawalathenna, Sri Lanka	8.485542	
Rathnapura	Balangoda	Imbulmure Vidyalaya	False	False	RTHNPRBLNGDMBLMRVDYLY		Ratnapura	LK-91	6.586826	80.566158	Balangoda	PS-910103	6.649474	80.700276	6.641498	80.714138	JPR7+HMR, Balangoda, Sri Lanka	1.769912	
Rathnapura	Samanalawewa	Pambahinna Hospital	False	False	RTHNPRSMNLWWPMBHNNHSPTL		Ratnapura	LK-91	6.586826	80.566158									#PoliceLocationUnknown
Rathnapura	Weligepola	Kandegama Health Centre	False	False	RTHNPRWLGPLKNDGMHLTHCNTR		Ratnapura	LK-91	6.586826	80.566158	Weligepola	PS-910106	6.596426	80.723695	6.686824	80.393088	Colombo Rd, Ratnapura 70000, Sri Lanka	37.885254	#CenterFarFromPolice
Rathnapura	Weligepola	Yatipasgamuwa Vidyalaya	False	False	RTHNPRWLGPLYTPSGMWVDYLY		Ratnapura	LK-91	6.586826	80.566158	Weligepola	PS-910106	6.596426	80.723695	6.561477	80.733922	Yatipassgamuwa Rd, Weligepola, Sri Lanka	4.048294	
Rathnapura	Weligepola	Hatangala Vidyalaya	False	False	RTHNPRWLGPLHTNGLVDYLY		Ratnapura	LK-91	6.586826	80.566158	Weligepola	PS-910106	6.596426	80.723695	6.574518	80.706607	HPF4+RJ5, Weligepola, Sri Lanka	3.082732	
Rathnapura	Weligepola	Kottimulwala Viharaya	False	False	RTHNPRWLGPLKTTMLWLVHRY		Ratnapura	LK-91	6.586826	80.566158	Weligepola	PS-910106	6.596426	80.723695	6.550577	80.731519	HP2J+6JJ, Weligepola, Sri Lanka	5.172538	
Rathnapura	Weligepola	Kalegammana Viharaya	False	False	RTHNPRWLGPLKLGMMNVHRY		Ratnapura	LK-91	6.586826	80.566158	Weligepola	PS-910106	6.596426	80.723695	6.578241	80.705765	HPH4+78R, Weligepola, Sri Lanka	2.831336	
Rathnapura	Weligepola	Kongastenna Vidyalaya	False	False	RTHNPRWLGPLKNGSTNNVDYLY		Ratnapura	LK-91	6.586826	80.566158	Weligepola	PS-910106	6.596426	80.723695	6.574518	80.706607	HPF4+RJ5, Weligepola, Sri Lanka	3.082732	
Rathnapura	Weligepola	Panana Vidyalaya	False	False	RTHNPRWLGPLPNNVDYLY		Ratnapura	LK-91	6.586826	80.566158	Weligepola	PS-910106	6.596426	80.723695	6.574518	80.706607	HPF4+RJ5, Weligepola, Sri Lanka	3.082732	
Rathnapura	Embilipitiya	Thorakolayaya Vidyalaya	False	False	RTHNPRMBLPTYTHRKLYYVDYLY		Ratnapura	LK-91	6.586826	80.566158	Embilipitiya	PS-910237	6.321993	80.844883	6.286169	80.797078	7QPW+FR8, Ratnapura, Sri Lanka	6.618991	
Rathnapura	Embilipitiya	Bodhiraja Dharma Institute	False	False	RTHNPRMBLPTYBDHRJDHRMNSTTT		Ratnapura	LK-91	6.586826	80.566158	Embilipitiya	PS-910237	6.321993	80.844883	6.346927	80.841412	Pelmadulla - Embilipitiya Hwy, Embilipitiya, Sri Lanka	2.799824	
Rathnapura	Embilipitiya	Julankate  Vidyalaya	False	False	RTHNPRMBLPTYJLNKTVDYLY		Ratnapura	LK-91	6.586826	80.566158	Embilipitiya	PS-910237	6.321993	80.844883	6.337086	80.845788	8RPW+R8M, Embilipitiya, Sri Lanka	1.681771	
Rathnapura	Udawalawa	Maduwanwela Vidyalaya	False	False	RTHNPRDWLWMDWNWLVDYLY		Ratnapura	LK-91	6.586826	80.566158	Udawalawa	PS-910234	6.422661	80.814293	6.389167	80.703611	B115, Suriyakanda, Sri Lanka	12.788943	
Rathnapura	Udawalawa	Makandura Vidyalaya	False	False	RTHNPRDWLWMKNDRVDYLY		Ratnapura	LK-91	6.586826	80.566158	Udawalawa	PS-910234	6.422661	80.814293	6.531572	80.590958	A17, Sri Lanka	27.495464	#CenterFarFromPolice
Rathnapura	Udawalawa	Kolombageara Maha Vidyalaya	False	False	RTHNPRDWLWKLMBGRMHVDYLY		Ratnapura	LK-91	6.586826	80.566158	Udawalawa	PS-910234	6.422661	80.814293	6.418356	80.780324	maha vidyalaya, Sri Lanka	3.785079	
Rathnapura	Kolonna	Wijeriya Suma Maha Vidyalaya	False	False	RTHNPRKLNNWJRYSMMHVDYLY		Ratnapura	LK-91	6.586826	80.566158	Kolonna	PS-910235	6.40194	80.687615	6.423524	80.653169	B115, Sri Lanka	4.50116	
Rathnapura	Kolonna	Suriya Kanda Egbert Vidyalaya	False	False	RTHNPRKLNNSRYKNDGBRTVDYLY		Ratnapura	LK-91	6.586826	80.566158	Kolonna	PS-910235	6.40194	80.687615	6.43354	80.638241	Suriyakanda, Sri Lanka	6.491377	
Rathnapura	Rakwana	Kotakothana Vidyalaya	False	False	RTHNPRRKWNKTKTHNVDYLY		Ratnapura	LK-91	6.586826	80.566158	Rakwana	PS-910108	6.470133	80.613684	6.472859	80.613449	Masimbula Rd, Rakwana, Sri Lanka	0.304323	
Rathnapura	Rakwana	Panawala Vidyalaya	False	False	RTHNPRRKWNPNWLVDYLY		Ratnapura	LK-91	6.586826	80.566158	Rakwana	PS-910108	6.470133	80.613684	6.543634	80.608134	Panawala, Atakalanpanna, Sri Lanka	8.198479	
Rathnapura	Rakwana	Hiramadagama Vidyalaya	False	False	RTHNPRRKWNHRMDGMVDYLY		Ratnapura	LK-91	6.586826	80.566158	Rakwana	PS-910108	6.470133	80.613684	6.53071	80.615995	GJJ8+79Q, Ratnapura, Sri Lanka	6.742808	
Rathnapura	Kahawatta	Madalagama Vidyalaya	False	False	RTHNPRKHWTTMDLGMVDYLY		Ratnapura	LK-91	6.586826	80.566158	Kahawatta	PS-910107	6.591434	80.56893	6.53663	80.523916	Madalagama, Kahawatta., Endana - Madalagama - Nahalwatura Rd, Sri Lanka	7.867701	
Rathnapura	Kahawatta	Madalagama Colony Vidyalaya	False	False	RTHNPRKHWTTMDLGMCLNYVDYLY		Ratnapura	LK-91	6.586826	80.566158	Kahawatta	PS-910107	6.591434	80.56893	6.53663	80.523916	Madalagama, Kahawatta., Endana - Madalagama - Nahalwatura Rd, Sri Lanka	7.867701	
Rathnapura	Kahawatta	Nawalakanda Vidyalaya	False	False	RTHNPRKHWTTNWLKNDVDYLY		Ratnapura	LK-91	6.586826	80.566158	Kahawatta	PS-910107	6.591434	80.56893	6.54544	80.540911	Manandola - Endana Rd, Kahawatta 70154, Sri Lanka	5.979822	
Rathnapura	Kahawatta	Handurukanda Vidyalaya	False	False	RTHNPRKHWTTHNDRKNDVDYLY		Ratnapura	LK-91	6.586826	80.566158	Kahawatta	PS-910107	6.591434	80.56893	6.584014	80.570904	Watapotha - Kahawatta Road, Kahawatta, Sri Lanka	0.853661	
Rathnapura	Wewelwatta	Amunuthenna Vidyalaya	False	False	RTHNPRWWLWTTMNTHNNVDYLY		Ratnapura	LK-91	6.586826	80.566158	Wewalwatta	PS-910102	6.707202	80.555569	6.682615	80.39899	Vinisuru Mw, රත්නපුර 70000, Sri Lanka	17.512353	
Rathnapura	Wewelwatta	Gurubewilagama Vidyalaya	False	False	RTHNPRWWLWTTGRBWLGMVDYLY		Ratnapura	LK-91	6.586826	80.566158	Wewalwatta	PS-910102	6.707202	80.555569	6.683533	80.399526	A4, Ratnapura, Sri Lanka	17.438145	
Rathnapura	Wewelwatta	Bambarabotuwa Vidyalaya	False	False	RTHNPRWWLWTTBMBRBTWVDYLY		Ratnapura	LK-91	6.586826	80.566158	Wewalwatta	PS-910102	6.707202	80.555569	6.708183	80.541656	PG5R+7MC, Ratnapura, Sri Lanka	1.540816	
Rathnapura	Siripagama	Samanala Vidyalaya	False	False	RTHNPRSRPGMSMNLVDYLY		Ratnapura	LK-91	6.586826	80.566158	Siripagama	PS-910116	6.783587	80.4322	6.749915	80.428885	Malwala - Siripagama Rd, Sri Lanka	3.763187	
Rathnapura	Siripagama	Palabedda Vidyalaya	False	False	RTHNPRSRPGMPLBDDVDYLY		Ratnapura	LK-91	6.586826	80.566158	Siripagama	PS-910116	6.783587	80.4322	6.481689	80.707977	A18, Pallebedda, Sri Lanka	45.343119	#CenterFarFromPolice
Rathnapura	Kuruwita	Kandagoda Vidyalaya	False	False	RTHNPRKRWTKNDGDVDYLY		Ratnapura	LK-91	6.586826	80.566158	Kuruwita	PS-910112	6.778839	80.364712	6.773169	80.317655	Kuruwita, Sri Lanka	5.235705	
Rathnapura	Kuruwita	Pussella Vidyalaya	False	False	RTHNPRKRWTPSSLLVDYLY		Ratnapura	LK-91	6.586826	80.566158	Kuruwita	PS-910112	6.778839	80.364712	6.81242	80.304539	Pohorabawa Rd, Bodimaluwa, Sri Lanka	7.623729	
Rathnapura	Kuruwita	Sri Wimalarama Viharaya	False	False	RTHNPRKRWTSRWMLRMVHRY		Ratnapura	LK-91	6.586826	80.566158	Kuruwita	PS-910112	6.778839	80.364712	6.77558	80.35651	Q9G4+6JJ, Kuruwita, Sri Lanka	0.975765	
Rathnapura	Rathnapura	Mahawala Mosque	False	False	RTHNPRRTHNPRMHWLMSQ		Ratnapura	LK-91	6.586826	80.566158	Ratnapura	PS-910101	6.679456	80.40223	6.680478	80.402228	MCJ2+5VX, Ratnapura, Sri Lanka	0.113677	
Rathnapura	Rathnapura	Thakshila Vidyalaya	False	False	RTHNPRRTHNPRTHKSHLVDYLY		Ratnapura	LK-91	6.586826	80.566158	Ratnapura	PS-910101	6.679456	80.40223	6.666509	80.422411	Hakamuwa Rd, Ratnapura, Sri Lanka	2.654174	
Rathnapura	Rathnapura	Peralanda Vidyalaya	False	False	RTHNPRRTHNPRPRLNDVDYLY		Ratnapura	LK-91	6.586826	80.566158	Ratnapura	PS-910101	6.679456	80.40223	6.67386	80.405688	Ratnapura 70000, Sri Lanka	0.730326	
Rathnapura	Nivithigala	Lokadeniya Vidyalaya	False	False	RTHNPRNVTHGLLKDNYVDYLY		Ratnapura	LK-91	6.586826	80.566158	Nivithigala	PS-910111	6.592765	80.459492	6.594632	80.401586	Ratnapura-Palawela-Karawita Rd, Gangulwitiya, Sri Lanka	6.40164	
Rathnapura	Nivithigala	Halkandaliya Vidyalaya	False	False	RTHNPRNVTHGLHLKNDLYVDYLY		Ratnapura	LK-91	6.586826	80.566158	Nivithigala	PS-910111	6.592765	80.459492	6.580682	80.45021	HFJ2+73G, Nivithigala, Sri Lanka	1.690623	
Rathnapura	Pelmadulla	Ihala Bopitiya Viharaya	False	False	RTHNPRPLMDLLHLBPTYVHRY		Ratnapura	LK-91	6.586826	80.566158	Pelmadulla	PS-910117	6.632692	80.521315	6.614655	80.537717	JG7Q+V38, Ratnapura, Sri Lanka	2.703622	
Rathnapura	Mawanella	MOH Office - Mawanella	False	False	RTHNPRMWNLLMHFFCMWNLL		Ratnapura	LK-91	6.586826	80.566158	Mawanella	PS-920122	7.256966	80.445912	7.253248	80.44561	Rambukkana-Mawanella Rd, Mawanella, Sri Lanka	0.414893	
Anuradhapura	Anuradhapura	Army Hospital Anuradhapura	False	False	NRDHPRNRDHPRRMYHSPTLNRDHPR		Anuradhapura	LK-71	8.39199	80.512958	Anuradapura	PS-710101	8.329752	80.407265	8.338302	80.407646	AB02, Anuradhapura, Sri Lanka	0.951939	
Anuradhapura	Anuradhapura	Kaleththewa Vidyalaya	False	False	NRDHPRNRDHPRKLTHTHWVDYLY		Anuradhapura	LK-71	8.39199	80.512958	Anuradapura	PS-710101	8.329752	80.407265	8.335922	80.407513	Maithripala Senanayake Mawatha, Anuradhapura 50000, Sri Lanka	0.686831	
Anuradhapura	Nochchiyagama	Nochchiyagama Vidyadarshi Vidyalaya	False	False	NRDHPRNCHCHYGMNCHCHYGMVDYDRSHVDYLY		Anuradhapura	LK-71	8.39199	80.512958	Nochchiyagama	PS-710115	8.264918	80.212175	8.264593	80.213219	Trincomalee Road, Nochchiyagama, Sri Lanka	0.12047	
Anuradhapura	Thirappane	Walagamba Vidyalaya	False	False	NRDHPRTHRPPNWLGMBVDYLY		Anuradhapura	LK-71	8.39199	80.512958	Thirappone	PS-710106	6.907289	79.863819	8.238595	80.365479	69Q8+C5Q, Anuradhapura, Sri Lanka	158.073825	#CenterFarFromPolice
Polonnaruwa	Polonnaruwa	Thopawewa National College	False	False	PLNNRWPLNNRWTHPWWNTNLCLLG		Polonnaruwa	LK-72	7.993659	81.026061	Polonnaruwa	PS-720125	7.924307	81.036895	7.938857	81.003164	Thopawewa Maha Vidyalaya, Polonnaruwa, Sri Lanka	4.05313	
Polonnaruwa	Polonnaruwa	Royal College	False	False	PLNNRWPLNNRWRYLCLLG		Polonnaruwa	LK-72	7.993659	81.026061	Polonnaruwa	PS-720125	7.924307	81.036895	7.919643	81.003574	Newtown 51000, Sri Lanka	3.707395	
Polonnaruwa	Polonnaruwa	Bendiwewa Maha Vidyalaya	False	False	PLNNRWPLNNRWBNDWWMHVDYLY		Polonnaruwa	LK-72	7.993659	81.026061	Polonnaruwa	PS-720125	7.924307	81.036895	7.954439	81.024595	Somawathiya Rd, Polonnaruwa, Sri Lanka	3.615125	
Polonnaruwa	Polonnaruwa	Wijayaraja Maha Vidyalaya	False	False	PLNNRWPLNNRWWJYRJMHVDYLY		Polonnaruwa	LK-72	7.993659	81.026061	Polonnaruwa	PS-720125	7.924307	81.036895	7.959994	81.069167	Onegama Rd, Polonnaruwa, Sri Lanka	5.32878	
Polonnaruwa	Welikanda	MOH Office - Welikanda	False	False	PLNNRWWLKNDMHFFCWLKND		Polonnaruwa	LK-72	7.993659	81.026061	Welikanda	PS-720127	7.946441	81.245381	7.947728	81.244951	W6XV+3XW, Welikanda, Sri Lanka	0.150787	
Polonnaruwa	Sripura	MOH Office - Sripura	False	False	PLNNRWSRPRMHFFCSRPR		Polonnaruwa	LK-72	7.993659	81.026061	Sripura	PS-530136	8.929617	80.81428	8.926697	80.814799	Padavi Sripura, Padaviya - Sripura Road, Welioya, Sri Lanka	0.329869	
Polonnaruwa	Aralaganwila	MOH Office - Aralaganwila	False	False	PLNNRWRLGNWLMHFFCRLGNWL		Polonnaruwa	LK-72	7.993659	81.026061	Aralaganwila	PS-720128	7.785325	81.185632	7.787865	81.186925	Q5QP+4QV, Polonnaruwa, Sri Lanka	0.316424	
Polonnaruwa	Medirigiriya	Medirigiriya National School	False	False	PLNNRWMDRGRYMDRGRYNTNLSCHL		Polonnaruwa	LK-72	7.993659	81.026061	Medirigiriya	PS-720130	8.150847	80.984493	8.150533	80.978982	Medirigiriya, Sri Lanka	0.6078	
Polonnaruwa	Medirigiriya	Diyasenapura Primary College	False	False	PLNNRWMDRGRYDYSNPRPRMRYCLLG		Polonnaruwa	LK-72	7.993659	81.026061	Medirigiriya	PS-720130	8.150847	80.984493	8.135768	81.020543	42PC+863, Diyasenpura, Sri Lanka	4.309209	
Polonnaruwa	Hingurakgoda	Tharuka Pavilion	False	False	PLNNRWHNGRKGDTHRKPVLN		Polonnaruwa	LK-72	7.993659	81.026061	Hingurakgoda	PS-720129	8.048819	80.965751	7.695872	80.832682	MRWM+83V, Polonnaruwa, Sri Lanka	41.906745	#CenterFarFromPolice
Polonnaruwa	Bakamuna	Atharagallewa Maha Vidyalaya	False	False	PLNNRWBKMNTHRGLLWMHVDYLY		Polonnaruwa	LK-72	7.993659	81.026061	Bakamuna	PS-720132	7.778789	80.816102	7.780602	80.818401	Bakamuna, Sri Lanka	0.323821	
Polonnaruwa	Bakamuna	Galmulla Primary College	False	False	PLNNRWBKMNGLMLLPRMRYCLLG		Polonnaruwa	LK-72	7.993659	81.026061	Bakamuna	PS-720132	7.778789	80.816102	7.775622	80.819812	Dambulla - Bakamuna - Kalugahawela Road, Bakamuna, Sri Lanka	0.539688	
Polonnaruwa	Jaffna	Manjamanappathi Kovil	False	False	PLNNRWJFFNMNJMNPPTHKVL		Polonnaruwa	LK-72	7.993659	81.026061	Jaffna	PS-410209	9.659919	80.010965	7.945942	81.000329	Sudarshanarama Puranagama Rd, Polonnaruwa, Sri Lanka	219.479791	#CenterFarFromPolice
Polonnaruwa	Jaffna	St. John's College	False	False	PLNNRWJFFNSTJHNSCLLG		Polonnaruwa	LK-72	7.993659	81.026061	Jaffna	PS-410209	9.659919	80.010965	9.657495	80.026568	Main Street, Chundikuli-Columbuthurai Rd, section, Sri Lanka	1.732049	
Polonnaruwa	Jaffna	Vaithiswara Vidyalaya	False	False	PLNNRWJFFNVTHSWRVDYLY		Polonnaruwa	LK-72	7.993659	81.026061	Jaffna	PS-410209	9.659919	80.010965	9.672726	80.009234	M2F5+3MX, Jaffna, Sri Lanka	1.43711	
Polonnaruwa	Jaffna	Nallur Durfamani Hall	False	False	PLNNRWJFFNNLLRDRFMNHLL		Polonnaruwa	LK-72	7.993659	81.026061	Jaffna	PS-410209	9.659919	80.010965	9.674532	80.029444	M2FH+RQ8, Jaffna, Sri Lanka	2.597601	
Polonnaruwa	Kopay	MOH Office- Nallur	False	False	PLNNRWKPYMHFFCNLLR		Polonnaruwa	LK-72	7.993659	81.026061	Kopai	PS-410216	9.686887	80.03856	9.673947	80.027736	M2FH+H3H, Jaffna, Sri Lanka	1.865513	
Polonnaruwa	Kopay	Muthuthambi Maha Vidyalaya	False	False	PLNNRWKPYMTHTHMBMHVDYLY		Polonnaruwa	LK-72	7.993659	81.026061	Kopai	PS-410216	9.686887	80.03856	9.69139	80.033453	Kalasalai Road,, Jaffna, Sri Lanka	0.751272	
Polonnaruwa	Chunnagam	Uduvil Girls College	False	False	PLNNRWCHNNGMDVLGRLSCLLG		Polonnaruwa	LK-72	7.993659	81.026061	Chunnakam	PS-410211	9.745309	80.029151	9.734484	80.015916	Uduvil Road, Uduvil, Sri Lanka	1.885444	
Polonnaruwa	Chunnagam	Thavadi HTM Hall	False	False	PLNNRWCHNNGMTHVDHTMHLL		Polonnaruwa	LK-72	7.993659	81.026061	Chunnakam	PS-410211	9.745309	80.029151	9.737563	80.024505	Chunnakam, Sri Lanka	1.00087	
Polonnaruwa	Chunnagam	MOH Office - Uduvil	False	False	PLNNRWCHNNGMMHFFCDVL		Polonnaruwa	LK-72	7.993659	81.026061	Chunnakam	PS-410211	9.745309	80.029151	9.742938	80.035132	P2VP+53C, Chunnakam, Sri Lanka	0.706719	
Polonnaruwa	Chunnagam	Erlalai Muththumil Hall	False	False	PLNNRWCHNNGMRLLMTHTHMLHLL		Polonnaruwa	LK-72	7.993659	81.026061	Chunnakam	PS-410211	9.745309	80.029151	9.737563	80.024505	Chunnakam, Sri Lanka	1.00087	
Polonnaruwa	Chunnagam	Inuvil Ariwalyam Hall	False	False	PLNNRWCHNNGMNVLRWLYMHLL		Polonnaruwa	LK-72	7.993659	81.026061	Chunnakam	PS-410211	9.745309	80.029151	9.750062	80.029209	Jaffna-Kankesanturai Rd, Chunnakam, Sri Lanka	0.528714	
Polonnaruwa	Chunnagam	Sitti Vinayagar Hall	False	False	PLNNRWCHNNGMSTTVNYGRHLL		Polonnaruwa	LK-72	7.993659	81.026061	Chunnakam	PS-410211	9.745309	80.029151	9.737563	80.024505	Chunnakam, Sri Lanka	1.00087	
Polonnaruwa	Point Pedro	Vada Hindu Girls College	False	False	PLNNRWPNTPDRVDHNDGRLSCLLG		Polonnaruwa	LK-72	7.993659	81.026061	Point Pedro	PS-410106	9.827018	80.233187	9.817623	80.23136	Vinayaga Muthaliyaar Veethy, Point Pedro, Sri Lanka	1.064016	
Polonnaruwa	Nelliyady	MOH Office - Karaveddy	False	False	PLNNRWNLLYDYMHFFCKRVDDY		Polonnaruwa	LK-72	7.993659	81.026061	Nelliadi	PS-410108	9.778397	80.113303	9.792126	80.201799	Q6R2+VP3, Point Pedro, Sri Lanka	9.819656	
Polonnaruwa	Palali	Vasavilan Central College	False	False	PLNNRWPLLVSVLNCNTRLCLLG		Polonnaruwa	LK-72	7.993659	81.026061	Palali	PS-410105	9.789552	80.06488	9.775601	80.073223	AB18, Sri Lanka	1.80119	
Polonnaruwa	Ilavalai	St. Thomas' College, Madagal	False	False	PLNNRWLVLSTTHMSCLLGMDGL		Polonnaruwa	LK-72	7.993659	81.026061	Ilavalai	PS-410102	9.775967	79.983146	9.788288	79.965894	Mathagal Rd, Sri Lanka	2.335421	
Polonnaruwa	Manippai	Manippai Hospital	False	False	PLNNRWMNPPMNPPHSPTL		Polonnaruwa	LK-72	7.993659	81.026061	Manippai	PS-410210	9.727151	79.996905	9.725939	79.998028	Manipay, Sri Lanka	0.182569	
Polonnaruwa	Manippai	Sandilippai Hindu Vidyalaya	False	False	PLNNRWMNPPSNDLPPHNDVDYLY		Polonnaruwa	LK-72	7.993659	81.026061	Manippai	PS-410210	9.727151	79.996905	9.729106	79.992545	PXHV+J2V, Manipay, Sri Lanka	0.525128	
Polonnaruwa	Kayts	MOH Office - Karainagar	False	False	PLNNRWKYTSMHFFCKRNGR		Polonnaruwa	LK-72	7.993659	81.026061	Kayts	PS-410212	9.728654	79.94775	9.725097	79.99772	Sri Lanka, Manipay, Sri Lanka	5.492521	
Polonnaruwa	Kayts	MOH Office - Velanai	False	False	PLNNRWKYTSMHFFCVLN		Polonnaruwa	LK-72	7.993659	81.026061	Kayts	PS-410212	9.728654	79.94775	9.636317	79.903777	Chatty vangkalvady road, Velanai, Sri Lanka	11.346015	
Polonnaruwa	Kayts	MOH Office - Kayts	False	False	PLNNRWKYTSMHFFCKYTS		Polonnaruwa	LK-72	7.993659	81.026061	Kayts	PS-410212	9.728654	79.94775	9.697759	79.866366	Sri Lanka, Kayts, Sri Lanka	9.561445	
Polonnaruwa	Chavakachcheri	MOH Office - Chavakachcheri	False	False	PLNNRWCHVKCHCHRMHFFCCHVKCHCHR		Polonnaruwa	LK-72	7.993659	81.026061	Chawakachcheri	PS-410215	9.666459	80.132384	9.663455	80.166068	Dutch Rd, Chavakachcheri, Sri Lanka	3.70857	
Kilinochchi	Kilinochchi	MOH Office - Karachchi	False	False	KLNCHCHKLNCHCHMHFFCKRCHCH		Kilinochchi	LK-45	9.415742	80.30358	Kilinochchi	PS-450131	9.392265	80.407846	9.396965	80.407782	Kandy - Jaffna Hwy, Kilinochchi, Sri Lanka	0.522827	
Kilinochchi	Pooneryn	MOH Office - Pooneryn	False	False	KLNCHCHPNRYNMHFFCPNRYN		Kilinochchi	LK-45	9.415742	80.30358	Pooneryn		9.505717	80.21101	9.507968	80.208317	G655+58P, Pooneryn, Sri Lanka	0.387256	
Mullaitivu	Oddusuddan	MOH Office - Oddusuddan	False	False	MLLTVDDSDDNMHFFCDDSDDN		Mullaitivu	LK-44	9.167643	80.549091	Oddusudan	PS-440151	9.160983	80.652821	9.162816	80.661584	5M76+4JG, Oddusuddan, Sri Lanka	0.983634	
Mullaitivu	Pudukudiruppu	MOH Office - Pudukudiruppu	False	False	MLLTVPDKDRPPMHFFCPDKDRPP		Mullaitivu	LK-44	9.167643	80.549091	Pudukuduiruppu	PS-440149	7.00152	79.95003	9.320965	80.683013	Parantan-Mullaitivu Hwy, Velikkandal, Sri Lanka	270.317914	#CenterFarFromPolice
Trincomalee	Muttur	MOH Office – Muttur	False	False	TRNCMLMTTRMHFFCMTTR		Trincomalee	LK-53	8.551241	81.092014	Mutur	PS-530138	8.461133	81.259371	8.453916	81.264494	1 Old Batticaloa Rd, Mutur, Sri Lanka	0.980859	
Trincomalee	Muttur	Muttur An Nahar Maha Vidyalaya	False	False	TRNCMLMTTRMTTRNNHRMHVDYLY		Trincomalee	LK-53	8.551241	81.092014	Mutur	PS-530138	8.461133	81.259371	8.451822	81.262307	F726+PWF, Mutur, Sri Lanka	1.084867	
Trincomalee	Muttur	Al Hidayah Maha Vidyalaya	False	False	TRNCMLMTTRLHDYHMHVDYLY		Trincomalee	LK-53	8.551241	81.092014	Mutur	PS-530138	8.461133	81.259371	8.449646	81.26789	1 Old Batticaloa Rd, Mutur, Sri Lanka	1.584607	
Trincomalee	Muttur	Chennaiur Maha Vidyalaya	False	False	TRNCMLMTTRCHNNRMHVDYLY		Trincomalee	LK-53	8.551241	81.092014	Mutur	PS-530138	8.461133	81.259371	8.449646	81.26789	1 Old Batticaloa Rd, Mutur, Sri Lanka	1.584607	
Trincomalee	Muttur	Al Hilal Maha Vidyalaya	False	False	TRNCMLMTTRLHLLMHVDYLY		Trincomalee	LK-53	8.551241	81.092014	Mutur	PS-530138	8.461133	81.259371	8.457062	81.268574	Mutur, Sri Lanka	1.109154	
Trincomalee	Muttur	Mallikaithivu Maha Vidyalaya	False	False	TRNCMLMTTRMLLKTHVMHVDYLY		Trincomalee	LK-53	8.551241	81.092014	Mutur	PS-530138	8.461133	81.259371	8.449646	81.26789	1 Old Batticaloa Rd, Mutur, Sri Lanka	1.584607	
Trincomalee	Muttur	Palathopur Zahira Maha Vidyalaya	False	False	TRNCMLMTTRPLTHPRZHRMHVDYLY		Trincomalee	LK-53	8.551241	81.092014	Mutur	PS-530138	8.461133	81.259371	8.457906	81.268402	Mutur, Sri Lanka	1.056434	
Trincomalee	Muttur	Al Hamra Vidyalaya	False	False	TRNCMLMTTRLHMRVDYLY		Trincomalee	LK-53	8.551241	81.092014	Mutur	PS-530138	8.461133	81.259371	8.726266	81.172086	P5GC+GR4, Irrakkakandi, Sri Lanka	31.013792	#CenterFarFromPolice
Trincomalee	Muttur	Thopur Hospital	False	False	TRNCMLMTTRTHPRHSPTL		Trincomalee	LK-53	8.551241	81.092014	Mutur	PS-530138	8.461133	81.259371	8.39979	81.304998	Thoppur, Sri Lanka	8.471041	
Trincomalee	Kinniya	MOH Office - Naduthivu	False	False	TRNCMLKNNYMHFFCNDTHV		Trincomalee	LK-53	8.551241	81.092014	Kinnia	PS-530140	6.907289	79.863819	8.593907	81.211949	Anbuvalipuram, Trincomalee, Sri Lanka	239.310726	#CenterFarFromPolice
Trincomalee	Kinniya	Al Mujahira Vidyalaya	False	False	TRNCMLKNNYLMJHRVDYLY		Trincomalee	LK-53	8.551241	81.092014	Kinnia	PS-530140	6.907289	79.863819	8.504893	81.179851	Kinniya, Sri Lanka	229.387631	#CenterFarFromPolice
Trincomalee	Kinniya	Arafa  Vidyalaya	False	False	TRNCMLKNNYRFVDYLY		Trincomalee	LK-53	8.551241	81.092014	Kinnia	PS-530140	6.907289	79.863819	8.500004	81.170769	G52C+282, Kinniya, Sri Lanka	228.334302	#CenterFarFromPolice
Trincomalee	Kinniya	Tarul Ulum Maha Vidyalaya	False	False	TRNCMLKNNYTRLLMMHVDYLY		Trincomalee	LK-53	8.551241	81.092014	Kinnia	PS-530140	6.907289	79.863819	8.480347	81.185754	F5JP+48J, Kinniya, Sri Lanka	227.697731	#CenterFarFromPolice
Trincomalee	Kinniya	MOH Office - Kinniya	False	False	TRNCMLKNNYMHFFCKNNY		Trincomalee	LK-53	8.551241	81.092014	Kinnia	PS-530140	6.907289	79.863819	8.498696	81.179644	F5XH+FVC, Kinniya 31100, Sri Lanka	228.840304	#CenterFarFromPolice
Trincomalee	Kinniya	Al Aksha Central College	False	False	TRNCMLKNNYLKSHCNTRLCLLG		Trincomalee	LK-53	8.551241	81.092014	Kinnia	PS-530140	6.907289	79.863819	8.496662	81.180256	F5WJ+M46, Kinniya 31100, Sri Lanka	228.708367	#CenterFarFromPolice
Trincomalee	Kinniya	Kinniya Hospital	False	False	TRNCMLKNNYKNNYHSPTL		Trincomalee	LK-53	8.551241	81.092014	Kinnia	PS-530140	6.907289	79.863819	8.501539	81.187539	Tampalakamam-Kinniya Rd, Kinniya 31100, Sri Lanka	229.636589	#CenterFarFromPolice
Trincomalee	Sripura	MOH Office – Sripura	False	False	TRNCMLSRPRMHFFCSRPR		Trincomalee	LK-53	8.551241	81.092014	Sripura	PS-530136	8.929617	80.81428	8.926697	80.814799	Padavi Sripura, Padaviya - Sripura Road, Welioya, Sri Lanka	0.329869	
Trincomalee	Kuchchaveli	MOH Office - Kuchchaveli	False	False	TRNCMLKCHCHVLMHFFCKCHCHVL		Trincomalee	LK-53	8.551241	81.092014	Kuchchaweli	PS-530133	8.81895	81.100438	8.740082	81.161616	P5R6+2JQ, Kumpurupiddi, Sri Lanka	11.053646	
Trincomalee	Kuchchaveli	Divisional Hospital - Kuchchaveli	False	False	TRNCMLKCHCHVLDVSNLHSPTLKCHCHVL		Trincomalee	LK-53	8.551241	81.092014	Kuchchaweli	PS-530133	8.81895	81.100438	8.814795	81.102358	R472+WW9, Kuchchaveli, Sri Lanka	0.508064	
Trincomalee	Kuchchaveli	Annuria Muslim College	False	False	TRNCMLKCHCHVLNNRMSLMCLLG		Trincomalee	LK-53	8.551241	81.092014	Kuchchaweli	PS-530133	8.81895	81.100438	8.504893	81.179851	Kinniya, Sri Lanka	36.007413	#CenterFarFromPolice
Trincomalee	Kuchchaveli	Divisional Hospital - Nilaveli	False	False	TRNCMLKCHCHVLDVSNLHSPTLNLVL		Trincomalee	LK-53	8.551241	81.092014	Kuchchaweli	PS-530133	8.81895	81.100438	8.681035	81.193632	M5JV+CF6, Nilaveli, Sri Lanka	18.44695	
Trincomalee	Kantale	MOH Office – Kantale	False	False	TRNCMLKNTLMHFFCKNTL		Trincomalee	LK-53	8.551241	81.092014	Kantale	PS-530241	8.356129	81.007739	8.349617	81.009107	අග්‍රබෝධි මාවත, Kantale, Sri Lanka	0.739809	
Trincomalee	Kantale	Al Taric Vidyalaya	False	False	TRNCMLKNTLLTRCVDYLY		Trincomalee	LK-53	8.551241	81.092014	Kantale	PS-530241	8.356129	81.007739	8.370158	81.006979	A6, Kantale, Sri Lanka	1.562683	
Trincomalee	Kantale	Kantale Base Hospital	False	False	TRNCMLKNTLKNTLBSHSPTL		Trincomalee	LK-53	8.551241	81.092014	Kantale	PS-530241	8.356129	81.007739	8.366314	81.004891	A6, Kantale, Sri Lanka	1.17546	
Trincomalee	Kantale	Gantalawa Central College	False	False	TRNCMLKNTLGNTLWCNTRLCLLG		Trincomalee	LK-53	8.551241	81.092014	Kantale	PS-530241	8.356129	81.007739	8.379492	81.010837	Kandy Rd, Kantale 31300, Sri Lanka	2.62093	
Trincomalee	Kantale	Unit 14 Jayarajarama Viharaya	False	False	TRNCMLKNTLNTJYRJRMVHRY		Trincomalee	LK-53	8.551241	81.092014	Kantale	PS-530241	8.356129	81.007739	8.351263	81.006993	Kantale, Sri Lanka	0.547435	
Trincomalee	Vanela	Vanela Central Dispensary	False	False	TRNCMLVNLVNLCNTRLDSPNSRY		Trincomalee	LK-53	8.551241	81.092014									#PoliceLocationUnknown
Trincomalee	Agbopura	Batukachchiya Central Dispensary	False	False	TRNCMLGBPRBTKCHCHYCNTRLDSPNSRY		Trincomalee	LK-53	8.551241	81.092014	Agbopura	PS-530242	8.331395	80.976489	8.480713	81.165957	Kachchakodutheevu,Kinniya, Kinniya, Sri Lanka	26.654993	#CenterFarFromPolice
Trincomalee	Suriyapura	Jayanthipura Vidyalaya	False	False	TRNCMLSRYPRJYNTHPRVDYLY		Trincomalee	LK-53	8.551241	81.092014	Suriyapura	PS-530245	6.873107	79.86167	8.369017	81.071671	939C+JM3, Kantale, Sri Lanka	213.260141	#CenterFarFromPolice
Trincomalee	Pulmoddai	Pulmoddai Base Hospital	False	False	TRNCMLPLMDDPLMDDBSHSPTL	Base Hospital - Pulmoddai	Trincomalee	LK-53	8.551241	81.092014	Pulmudai	PS-530135	6.915266	79.87829	8.941204	80.983139	WXRM+F7J, Pulmoddai, Sri Lanka	256.112801	#CenterFarFromPolice
Trincomalee	Pulmoddai	Muslim National College	False	False	TRNCMLPLMDDMSLMNTNLCLLG		Trincomalee	LK-53	8.551241	81.092014	Pulmudai	PS-530135	6.915266	79.87829	8.940296	80.985139	B60, Pulmoddai, Sri Lanka	256.12882	#CenterFarFromPolice
Trincomalee	Serunuwara	MOH Office - Serunuwara	False	False	TRNCMLSRNWRMHFFCSRNWR		Trincomalee	LK-53	8.551241	81.092014	Serunuwara	PS-530244	8.321863	81.299322	8.323143	81.299894	B10, Sri Lanka	0.155671	
Trincomalee	Serunuwara	Serunuwara Hospital	False	False	TRNCMLSRNWRSRNWRHSPTL		Trincomalee	LK-53	8.551241	81.092014	Serunuwara	PS-530244	8.321863	81.299322	8.322964	81.299734	Allai-Kantalai Rd, Sri Lanka	0.130589	
Trincomalee	Serunuwara	Somadevi Maha Vidyalaya	False	False	TRNCMLSRNWRSMDVMHVDYLY		Trincomalee	LK-53	8.551241	81.092014	Serunuwara	PS-530244	8.321863	81.299322	6.308406	80.940472	Sewanagala, Sri Lanka	227.428456	#CenterFarFromPolice
Trincomalee	Morawewa	Mahadivulwewa Hospital	False	False	TRNCMLMRWWMHDVLWWHSPTL		Trincomalee	LK-53	8.551241	81.092014	Morawewa	PS-530247	8.630317	81.031386	8.620893	80.968736	JXC9+9F5, Mahadivul Wewa, Sri Lanka	6.969016	
Trincomalee	Harbour Police	MOH Office - Trincomalee	False	False	TRNCMLHRBRPLCMHFFCTRNCML		Trincomalee	LK-53	8.551241	81.092014	Trinco Harbour Police	PS-530131	8.56705	81.231407	8.598974	81.216963	MOH Office, Farm Rd, Trincomalee, Sri Lanka	3.890062	
Trincomalee	Harbour Police	Trincomalee Base Hospital	False	False	TRNCMLHRBRPLCTRNCMLBSHSPTL		Trincomalee	LK-53	8.551241	81.092014	Trinco Harbour Police	PS-530131	8.56705	81.231407	8.56486	81.239445	Hospital Ln, Trincomalee, Sri Lanka	0.917037	
Trincomalee	Uppuveli	MOH Office - Uppuveli	False	False	TRNCMLPPVLMHFFCPPVL		Trincomalee	LK-53	8.551241	81.092014	Uppuweli	PS-530134	8.593614	81.21743	8.607961	81.216512	Nilaveli Rd, Trincomalee, Sri Lanka	1.599005	
Trincomalee	Ichchalampattu	MOH Office - Ichchalampattu	False	False	TRNCMLCHCHLMPTTMHFFCCHCHLMPTT	Eachchilampattu Hospital	Trincomalee	LK-53	8.551241	81.092014	Ichchalampattu		8.289549	81.359002	8.289644	81.358983	Highway, Ichchalampattu, Trincomalee, Sri Lanka	0.010772	
Trincomalee	Ichchalampattu	Ichchalampattu Hospital	False	False	TRNCMLCHCHLMPTTCHCHLMPTTHSPTL		Trincomalee	LK-53	8.551241	81.092014	Ichchalampattu		8.289549	81.359002	8.289549	81.358986	Trincomalee Hwy, Sri Lanka	0.001761	
Trincomalee	Ichchalampattu	Uppural Vidyalaya	False	False	TRNCMLCHCHLMPTTPPRLVDYLY		Trincomalee	LK-53	8.551241	81.092014	Ichchalampattu		8.289549	81.359002	8.365205	81.031496	928J+3HQ, Kantale, Sri Lanka	37.013665	#CenterFarFromPolice
Trincomalee	Thambalagamuwa	MOH Office - Thambalagamuwa	False	False	TRNCMLTHMBLGMWMHFFCTHMBLGMW		Trincomalee	LK-53	8.551241	81.092014	Thambalagamuva	PS-530243	6.907289	79.863819	8.563603	81.239584	Hospital Ln, Trincomalee, Sri Lanka	238.604889	#CenterFarFromPolice
Trincomalee	Thambalagamuwa	Kulakottan Vidyalaya	False	False	TRNCMLTHMBLGMWKLKTTNVDYLY		Trincomalee	LK-53	8.551241	81.092014	Thambalagamuva	PS-530243	6.907289	79.863819	8.491061	81.104748	potkerney Thampalagamam, Sri Lanka	223.028906	#CenterFarFromPolice
Trincomalee	Thambalagamuwa	Mollipathana Sinhala Maha Vidyalaya	False	False	TRNCMLTHMBLGMWMLLPTHNSNHLMHVDYLY		Trincomalee	LK-53	8.551241	81.092014	Thambalagamuva	PS-530243	6.907289	79.863819	8.491061	81.104748	potkerney Thampalagamam, Sri Lanka	223.028906	#CenterFarFromPolice
Trincomalee	Thambalagamuwa	Mollipathana Central Dispensary	False	False	TRNCMLTHMBLGMWMLLPTHNCNTRLDSPNSRY		Trincomalee	LK-53	8.551241	81.092014	Thambalagamuva	PS-530243	6.907289	79.863819	8.454476	81.062722	96 A6, Mullipotana, Sri Lanka	216.98052	#CenterFarFromPolice
Trincomalee	Thambalagamuwa	Gantalawa Central Dispensary	False	False	TRNCMLTHMBLGMWGNTLWCNTRLDSPNSRY		Trincomalee	LK-53	8.551241	81.092014	Thambalagamuva	PS-530243	6.907289	79.863819	8.454476	81.062722	96 A6, Mullipotana, Sri Lanka	216.98052	#CenterFarFromPolice
Trincomalee	Thambalagamuwa	Siraj Nagar Muslim College	False	False	TRNCMLTHMBLGMWSRJNGRMSLMCLLG		Trincomalee	LK-53	8.551241	81.092014	Thambalagamuva	PS-530243	6.907289	79.863819	8.465601	81.082906	Siraj Nagar,, Trincomalee, Sri Lanka	219.318228	#CenterFarFromPolice
Trincomalee	Gomarankadawala	MOH Office - Gomarankadawala	False	False	TRNCMLGMRNKDWLMHFFCGMRNKDWL		Trincomalee	LK-53	8.551241	81.092014	Gomarankadawala	PS-530248	8.674487	80.967555	8.674726	80.955691	Unnamed Road, Gomarankadawala, Sri Lanka	1.304806	
Batticaloa	Kokkadicholai	Mahaladithivu Saraswathi Vidyalaya	False	False	BTTCLKKKDCHLMHLDTHVSRSWTHVDYLY		Batticaloa	LK-51	7.792772	81.486513	Kokkadicholai	PS-510112	7.715979	81.698757	7.622641	81.720011	JPFC+322, Batticaloa, Sri Lanka	10.643056	
Batticaloa	Kokkadicholai	Keviliyamadu Community Health Centre	False	False	BTTCLKKKDCHLKVLYMDCMMNTYHLTHCNTR		Batticaloa	LK-51	7.792772	81.486513	Kokkadicholai	PS-510112	7.715979	81.698757	7.68206	81.728154	MPJH+R7C, Kattankudy, Sri Lanka	4.97332	
Batticaloa	Kokkadicholai	Kollenule Tamil College	False	False	BTTCLKKKDCHLKLLNLTMLCLLG		Batticaloa	LK-51	7.792772	81.486513	Kokkadicholai	PS-510112	7.715979	81.698757	7.683651	81.731154	Hizbullah Stadium Rd, Kattankudy, Sri Lanka	5.067766	
Batticaloa	Batticaloa	Mangantuduvai Baradi Vidyalaya	False	False	BTTCLBTTCLMNGNTDVBRDVDYLY		Batticaloa	LK-51	7.792772	81.486513	Batticaloa	PS-510101	7.717949	81.699294	7.720143	81.700516	PPC2+362, Batticaloa, Sri Lanka	0.278741	
Batticaloa	Batticaloa	Sathurukondan Sarvodaya	False	False	BTTCLBTTCLSTHRKNDNSRVDY		Batticaloa	LK-51	7.792772	81.486513	Batticaloa	PS-510101	7.717949	81.699294	7.751535	81.671916	Sathurukondan, Batticaloa, Sri Lanka	4.80224	
Batticaloa	Batticaloa	Mamangam Sahayamatha Church	False	False	BTTCLBTTCLMMNGMSHYMTHCHRCH		Batticaloa	LK-51	7.792772	81.486513	Batticaloa	PS-510101	7.717949	81.699294	7.720183	81.69536	Trincomalee Road, Batticaloa, Sri Lanka	0.499766	
Batticaloa	Batticaloa	Karuwappankeni Vipulananda Vidyalaya	False	False	BTTCLBTTCLKRWPPNKNVPLNNDVDYLY		Batticaloa	LK-51	7.792772	81.486513	Batticaloa	PS-510101	7.717949	81.699294	7.718067	81.712712	PP97+63G, Kallady, Sri Lanka	1.47902	
Batticaloa	Batticaloa	RDSH Office	False	False	BTTCLBTTCLRDSHFFC		Batticaloa	LK-51	7.792772	81.486513	Batticaloa	PS-510101	7.717949	81.699294	7.718332	81.698836	Trinco Rd, Batticaloa, Sri Lanka	0.066055	
Batticaloa	Vellawali	Kalaimagal  Vidyalaya	False	False	BTTCLVLLWLKLMGLVDYLY		Batticaloa	LK-51	7.792772	81.486513	Vellavali	PS-510111	6.907289	79.863819	7.503251	81.730235	Ampilanturai-Veeramunai Rd, Sri Lanka	216.365388	#CenterFarFromPolice
Batticaloa	Kaluwanchikudy	Periya Porathivu   Vidyalaya	False	False	BTTCLKLWNCHKDYPRYPRTHVVDYLY		Batticaloa	LK-51	7.792772	81.486513	Kalawanchikudy	PS-510110	7.515908	81.787051	7.5182	81.75479	kovilporathivu, Sri Lanka	3.56667	
Batticaloa	Kaluwanchikudy	Settipalama Tamil College	False	False	BTTCLKLWNCHKDYSTTPLMTMLCLLG		Batticaloa	LK-51	7.792772	81.486513	Kalawanchikudy	PS-510110	7.515908	81.787051	7.648759	81.745706	JPXW+G74, Batticaloa, Sri Lanka	15.464161	
Batticaloa	Kaluwanchikudy	Thethathivu Tamil College	False	False	BTTCLKLWNCHKDYTHTHTHVTMLCLLG		Batticaloa	LK-51	7.792772	81.486513	Kalawanchikudy	PS-510110	7.515908	81.787051	7.547235	81.787676	A4, Kaluwanchikudy, Sri Lanka	3.485178	
Batticaloa	Valachchenai	MOH Office - Valachchenai	False	False	BTTCLVLCHCHNMHFFCVLCHCHN		Batticaloa	LK-51	7.792772	81.486513	Valachchanai	PS-510107	7.908015	81.533004	7.912281	81.532775	WG6M+W46, Batticaloa, Sri Lanka	0.475177	
Batticaloa	Valachchenai	Saduliya Vidyalaya	False	False	BTTCLVLCHCHNSDLYVDYLY		Batticaloa	LK-51	7.792772	81.486513	Valachchanai	PS-510107	7.908015	81.533004	7.921328	81.52467	WGCF+GVM, Oddamavadi, Sri Lanka	1.742353	
Batticaloa	Valachchenai	MOH Office - Oddamavadi	False	False	BTTCLVLCHCHNMHFFCDDMVD		Batticaloa	LK-51	7.792772	81.486513	Valachchanai	PS-510107	7.908015	81.533004	7.912281	81.532775	WG6M+W46, Batticaloa, Sri Lanka	0.475177	
Batticaloa	Valachchenai	MOH Office - Kiran	False	False	BTTCLVLCHCHNMHFFCKRN		Batticaloa	LK-51	7.792772	81.486513	Valachchanai	PS-510107	7.908015	81.533004	7.502211	79.839254	GR2Q+VPJ, Madampe, Sri Lanka	192.073036	#CenterFarFromPolice
Batticaloa	Valachchenai	Valachchenai Base Hospital	False	False	BTTCLVLCHCHNVLCHCHNBSHSPTL		Batticaloa	LK-51	7.792772	81.486513	Valachchanai	PS-510107	7.908015	81.533004	7.911315	81.533046	Valaichchenai-Nasuvantivu-Navaladi Road, Sri Lanka	0.367088	
Batticaloa	Vakarai	MOH Office - Vakarai	False	False	BTTCLVKRMHFFCVKR	Divisional Hospital Vakarai	Batticaloa	LK-51	7.792772	81.486513	Wakarai	PS-510109	6.934132	79.856305	8.134552	81.435328	Trincomalee Hwy, Vakarai, Sri Lanka	219.417822	#CenterFarFromPolice
Batticaloa	Kattankudy	MOH Office - Kattankudy	False	False	BTTCLKTTNKDYMHFFCKTTNKDY		Batticaloa	LK-51	7.792772	81.486513	Kaththankudi	PS-510103	7.715979	81.698757	7.683586	81.730767	MPMJ+C8J, Kattankudy, Sri Lanka	5.042961	
Batticaloa	Kattankudy	Kalladi Sivananda Vidyalaya	False	False	BTTCLKTTNKDYKLLDSVNNDVDYLY		Batticaloa	LK-51	7.792772	81.486513	Kaththankudi	PS-510103	7.715979	81.698757	7.705703	81.714267	New Kalmunai Rd, Batticaloa, Sri Lanka	2.056476	
Batticaloa	Kattankudy	Kalladi Swami Vipulananda Vidyalaya	False	False	BTTCLKTTNKDYKLLDSWMVPLNNDVDYLY		Batticaloa	LK-51	7.792772	81.486513	Kaththankudi	PS-510103	7.715979	81.698757	7.70014	81.718098	Swami Vipulananda Institute of Aesthetic Studies, Batticaloa, Sri Lanka	2.765619	
Batticaloa	Eravur	Sandiveli Hospital	False	False	BTTCLRVRSNDVLHSPTL		Batticaloa	LK-51	7.792772	81.486513	Eravur	PS-510104	7.715979	81.698757	7.777289	81.602853	Trincomalee Hwy, Eravur, Sri Lanka	12.578998	
Batticaloa	Eravur	MOH Office - Chenkaladi	False	False	BTTCLRVRMHFFCCHNKLD		Batticaloa	LK-51	7.792772	81.486513	Eravur	PS-510104	7.715979	81.698757	7.783599	81.593367	Trincomalee Hwy, Chenkaladi 30350, Sri Lanka	13.837876	
Batticaloa	Eravur	Chenkaladi Hospital	False	False	BTTCLRVRCHNKLDHSPTL		Batticaloa	LK-51	7.792772	81.486513	Eravur	PS-510104	7.715979	81.698757	7.783546	81.589961	Batticaloa Rd, Chenkaladi, Sri Lanka	14.151406	
Batticaloa	Eravur	Wigneswara Vidyalaya	False	False	BTTCLRVRWGNSWRVDYLY		Batticaloa	LK-51	7.792772	81.486513	Eravur	PS-510104	7.715979	81.698757	7.777732	81.603631	Trincomalee Road, Eravur, Sri Lanka	12.533962	
Batticaloa	Eravur	Macan Markar Vidyalaya	False	False	BTTCLRVRMCNMRKRVDYLY		Batticaloa	LK-51	7.792772	81.486513	Eravur	PS-510104	7.715979	81.698757	7.787789	81.614795	Thaikka Road, Eravur, Sri Lanka	12.224171	
Batticaloa	Eravur	Eravur Hospital	False	False	BTTCLRVRRVRHSPTL		Batticaloa	LK-51	7.792772	81.486513	Eravur	PS-510104	7.715979	81.698757	7.783168	81.605999	QJM4+799, Eravur 30300, Sri Lanka	12.663585	
Batticaloa	Eravur	Badurdeen Mohammed Vidyalaya	False	False	BTTCLRVRBDRDNMHMMDVDYLY		Batticaloa	LK-51	7.792772	81.486513	Eravur	PS-510104	7.715979	81.698757	7.776897	81.604203	Eravur, Sri Lanka	12.430415	
Batticaloa	Eravur	Akbar Mosque	False	False	BTTCLRVRKBRMSQ		Batticaloa	LK-51	7.792772	81.486513	Eravur	PS-510104	7.715979	81.698757	7.775776	81.606514	QJG4+8J6, Eravur, Sri Lanka	12.148969	
Batticaloa	Eravur	Mawadiwembu Hospital	False	False	BTTCLRVRMWDWMBHSPTL		Batticaloa	LK-51	7.792772	81.486513	Eravur	PS-510104	7.715979	81.698757	7.808545	81.566328	Mawadiwembu Hospital, Sri Lanka	17.861302	
Batticaloa	Eravur	Arumuhathankudiiruppu Primary School	False	False	BTTCLRVRRMHTHNKDRPPPRMRYSCHL		Batticaloa	LK-51	7.792772	81.486513	Eravur	PS-510104	7.715979	81.698757	7.781715	81.601743	Eravur - 04, Chenkaladi, Sri Lanka	12.953304	
Batticaloa	Eravur	Wigneswara  Vidyalaya	False	False	BTTCLRVRWGNSWRVDYLY		Batticaloa	LK-51	7.792772	81.486513	Eravur	PS-510104	7.715979	81.698757	7.797306	81.608061	Eravurpattu, Eravur, Sri Lanka	13.481315	
Batticaloa	Eravur	Siththandi RKM Vidyalaya	False	False	BTTCLRVRSTHTHNDRKMVDYLY		Batticaloa	LK-51	7.792772	81.486513	Eravur	PS-510104	7.715979	81.698757	7.66884	81.72948	Old kalmunai road, Sri Lanka	6.241843	
Batticaloa	Eravur	Kommaturai Clinic	False	False	BTTCLRVRKMMTRCLNC		Batticaloa	LK-51	7.792772	81.486513	Eravur	PS-510104	7.715979	81.698757	7.777289	81.602853	Trincomalee Hwy, Eravur, Sri Lanka	12.578998	
Batticaloa	Eravur	Al Arafa Vidyalaya	False	False	BTTCLRVRLRFVDYLY		Batticaloa	LK-51	7.792772	81.486513	Eravur	PS-510104	7.715979	81.698757	7.772262	81.605907	QJC4+W93, Eravur, Sri Lanka	11.996518	
Batticaloa	Eravur	Kiran Central College	False	False	BTTCLRVRKRNCNTRLCLLG		Batticaloa	LK-51	7.792772	81.486513	Eravur	PS-510104	7.715979	81.698757	7.785947	81.590295	Trincomalee Road, Chenkaladi, Sri Lanka	14.264135	
Batticaloa	Eravur	Morakotanchenai Vidyalaya	False	False	BTTCLRVRMRKTNCHNVDYLY		Batticaloa	LK-51	7.792772	81.486513	Eravur	PS-510104	7.715979	81.698757	7.781715	81.601743	Eravur - 04, Chenkaladi, Sri Lanka	12.953304	
Batticaloa	Vavunathivu	MOH Office - Vavunathivu	False	False	BTTCLVVNTHVMHFFCVVNTHV		Batticaloa	LK-51	7.792772	81.486513	Vavunathive	PS-510102	6.933075	79.857181	7.708253	81.691368	Hospital Rd, Batticaloa, Sri Lanka	219.95575	#CenterFarFromPolice
Batticaloa	Vavunathivu	Mahilattuwan Clinic	False	False	BTTCLVVNTHVMHLTTWNCLNC		Batticaloa	LK-51	7.792772	81.486513	Vavunathive	PS-510102	6.933075	79.857181	7.708032	81.690622	Hospital Ln, Batticaloa 30000, Sri Lanka	219.870447	#CenterFarFromPolice
Batticaloa	Vavunathivu	Pavakkodichenai Vinayagar Vidyalaya	False	False	BTTCLVVNTHVPVKKDCHNVNYGRVDYLY		Batticaloa	LK-51	7.792772	81.486513	Vavunathive	PS-510102	6.933075	79.857181	7.720143	81.700516	PPC2+362, Batticaloa, Sri Lanka	221.401617	#CenterFarFromPolice
Batticaloa	Vavunathivu	Pudumandapathadi Clinic	False	False	BTTCLVVNTHVPDMNDPTHDCLNC		Batticaloa	LK-51	7.792772	81.486513	Vavunathive	PS-510102	6.933075	79.857181	7.708032	81.690622	Hospital Ln, Batticaloa 30000, Sri Lanka	219.870447	#CenterFarFromPolice
Batticaloa	Vavunathivu	Kannankuda Clinic	False	False	BTTCLVVNTHVKNNNKDCLNC		Batticaloa	LK-51	7.792772	81.486513	Vavunathive	PS-510102	6.933075	79.857181	7.708032	81.690622	Hospital Ln, Batticaloa 30000, Sri Lanka	219.870447	#CenterFarFromPolice
Batticaloa	Arayampathy	MOH Office - Arayampathy	False	False	BTTCLRYMPTHYMHFFCRYMPTHY		Batticaloa	LK-51	7.792772	81.486513	Arayampathy		7.670333	81.745783	7.672862	81.735019	MPFP+42R, Sri Lanka	1.21945	
Batticaloa	Arayampathy	Arayampathy Thalankuda Vinayagar Vidyalaya	False	False	BTTCLRYMPTHYRYMPTHYTHLNKDVNYGRVDYLY		Batticaloa	LK-51	7.792772	81.486513	Arayampathy		7.670333	81.745783	7.604417	81.764773	Kirankulam, Sri Lanka	7.624859	
Batticaloa	Arayampathy	Unnachchiya GTM Vidyalaya, 08th Mile Post	False	False	BTTCLRYMPTHYNNCHCHYGTMVDYLYTHMLPST		Batticaloa	LK-51	7.792772	81.486513	Arayampathy		7.670333	81.745783	7.65695	81.740413	Arayampathy, Sri Lanka	1.601975	
Batticaloa	Arayampathy	Mahilawattuwan Maha Vidyalaya	False	False	BTTCLRYMPTHYMHLWTTWNMHVDYLY		Batticaloa	LK-51	7.792772	81.486513	Arayampathy		7.670333	81.745783	7.669096	81.735067	Village Ct Rd, Kattankudy, Sri Lanka	1.189262	
Batticaloa	Karadiyanaru	Karadiyanaru Hospital	False	False	BTTCLKRDYNRKRDYNRHSPTL		Batticaloa	LK-51	7.792772	81.486513	Karadiyanaru	PS-510105	7.701992	81.537252	7.700216	81.539779	PG2Q+3WJ, Karadiyanaru, Sri Lanka	0.341482	
Batticaloa	Karadiyanaru	Kitula Sri Krishna Vidyalaya	False	False	BTTCLKRDYNRKTLSRKRSHNVDYLY		Batticaloa	LK-51	7.792772	81.486513	Karadiyanaru	PS-510105	7.701992	81.537252	7.700747	81.538387	Karadiyanaru, Sri Lanka	0.186625	
Ampara	Chavalakade	5th Colony Health Centre	False	False	MPRCHVLKDTHCLNYHLTHCNTR		Ampara	LK-52	7.23699	81.550391	Chawalakade	PS-520125	7.413559	81.776822	7.418836	81.781436	Chavalakade, Sri Lanka	0.776867	
Ampara	Chavalakade	MOH Office - Navindaweli	False	False	MPRCHVLKDMHFFCNVNDWL		Ampara	LK-52	7.23699	81.550391	Chawalakade	PS-520125	7.413559	81.776822	7.419149	81.821171	CR9C+MF3, Kalmunai 32300, Sri Lanka	4.931023	
Ampara	Karaitivu	MOH Office – Karaitivu	False	False	MPRKRTVMHFFCKRTV		Ampara	LK-52	7.23699	81.550391	Karaitivu		9.744059	79.870587	7.377712	81.838796	Colombo-Ratnapura-Wellawaya-Batticaloa Highway, Karativu 32250, Sri Lanka	340.788666	#CenterFarFromPolice
Ampara	Karaitivu	Mavadipalli Helth Centre	False	False	MPRKRTVMVDPLLHLTHCNTR		Ampara	LK-52	7.23699	81.550391	Karaitivu		9.744059	79.870587	7.372549	81.824772	Karativu-Ampara Hwy, Karaitivu, Sri Lanka	340.256929	#CenterFarFromPolice
Ampara	Mahaoya	MOH Office - Mahaoya	False	False	MPRMHYMHFFCMHY		Ampara	LK-52	7.23699	81.550391	Mahaoya	PS-520120	7.531108	81.356391	7.530116	81.354519	G9J3+2RR, Maha Oya, Sri Lanka	0.234066	
Ampara	Uhana	Uhana National College	False	False	MPRHNHNNTNLCLLG		Ampara	LK-52	7.23699	81.550391	Uhana	PS-520116	7.362435	81.636035	7.363322	81.635476	Uhana, Sri Lanka	0.116347	
Ampara	Uhana	Bokkabedda Vidyalaya	False	False	MPRHNBKKBDDVDYLY		Ampara	LK-52	7.23699	81.550391	Uhana	PS-520116	7.362435	81.636035	7.420995	81.7514	CQC2+9HR, Kalmunai, Sri Lanka	14.295553	
Ampara	Uhana	Weranketagoda Maha Vidyalaya	False	False	MPRHNWRNKTGDMHVDYLY		Ampara	LK-52	7.23699	81.550391	Uhana	PS-520116	7.362435	81.636035	7.405066	81.620317	CJ4C+24G, Weranketagoda, Sri Lanka	5.048876	
Ampara	Uhana	Gonagala Vidyalaya	False	False	MPRHNGNGLVDYLY		Ampara	LK-52	7.23699	81.550391	Uhana	PS-520116	7.362435	81.636035	7.367509	81.640912	9J9R+293, Uhana, Sri Lanka	0.779718	
Ampara	Uhana	Nawagiriyawa Sri Gothama Viharaya	False	False	MPRHNNWGRYWSRGTHMVHRY		Ampara	LK-52	7.23699	81.550391	Uhana	PS-520116	7.362435	81.636035	7.439723	81.608987	Nawagiriyawa, Sri Lanka	9.099722	
Ampara	Dehiattakandiya	Dehiattakandiya National School	False	False	MPRDHTTKNDYDHTTKNDYNTNLSCHL		Ampara	LK-52	7.23699	81.550391	Dehiaththakandiya	PS-520121	7.672072	81.044241	7.665625	81.0489	M28X+6HR, Dehiattakandiya 32150, Sri Lanka	0.882043	
Ampara	Dehiattakandiya	Bihiri Sorowwa Vidyalaya	False	False	MPRDHTTKNDYBHRSRWWVDYLY		Ampara	LK-52	7.23699	81.550391	Dehiaththakandiya	PS-520121	7.672072	81.044241	7.67128	81.046484	Dehiattakandiya, Sri Lanka	0.26248	
Ampara	Dehiattakandiya	Kudagala Vidyalaya	False	False	MPRDHTTKNDYKDGLVDYLY		Ampara	LK-52	7.23699	81.550391	Dehiaththakandiya	PS-520121	7.672072	81.044241	7.67128	81.046484	Dehiattakandiya, Sri Lanka	0.26248	
Ampara	Dehiattakandiya	Suriyapokuna Vidyalaya	False	False	MPRDHTTKNDYSRYPKNVDYLY		Ampara	LK-52	7.23699	81.550391	Dehiaththakandiya	PS-520121	7.672072	81.044241	7.67128	81.046484	Dehiattakandiya, Sri Lanka	0.26248	
Ampara	Dehiattakandiya	Mawanagama Viharaya	False	False	MPRDHTTKNDYMWNGMVHRY		Ampara	LK-52	7.23699	81.550391	Dehiaththakandiya	PS-520121	7.672072	81.044241	7.66769	81.080464	M39J+35G, Balukekulakada, Sri Lanka	4.02267	
Ampara	Dehiattakandiya	Dolakanda Viharaya	False	False	MPRDHTTKNDYDLKNDVHRY		Ampara	LK-52	7.23699	81.550391	Dehiaththakandiya	PS-520121	7.672072	81.044241	7.66769	81.080464	M39J+35G, Balukekulakada, Sri Lanka	4.02267	
Ampara	Padiyatalawa	Padiyatalawa	False	False	MPRPDYTLWPDYTLW		Ampara	LK-52	7.23699	81.550391	Padiyathalawa	PS-520122	7.401155	81.243526	7.392513	81.243623	Padiyatalawa, Sri Lanka	0.961308	
Ampara	Ampara	DS Senanayaka National College	False	False	MPRMPRDSSNNYKNTNLCLLG		Ampara	LK-52	7.23699	81.550391	Ampara	PS-520113	7.296771	81.677161	7.303531	81.671966	Dharmapala Mawatha, Ampara, Sri Lanka	0.945453	
Ampara	Damana	MOH Office - Damana	False	False	MPRDMNMHFFCDMN		Ampara	LK-52	7.23699	81.550391	Damana	PS-520114	7.200465	81.654653	7.197982	81.65538	5MX4+55R, Damana, Sri Lanka	0.2876	
Ampara	Panama	Panama Viharaya	False	False	MPRPNMPNMVHRY		Ampara	LK-52	7.23699	81.550391	Panama	PS-520129	6.752004	81.79349	6.758059	81.808772	Panama, Sri Lanka	1.817413	
Ampara	Panama	Panama Sinhala Vidyalaya	False	False	MPRPNMPNMSNHLVDYLY		Ampara	LK-52	7.23699	81.550391	Panama	PS-520129	6.752004	81.79349	6.755175	81.803536	QR43+3C7, Panama, Sri Lanka	1.164368	
Ampara	Eragama	MOH Office - Eragama	False	False	MPRRGMMHFFCRGM		Ampara	LK-52	7.23699	81.550391									#PoliceLocationUnknown
Ampara	Pottuvil	Pottuvil Central College	False	False	MPRPTTVLPTTVLCNTRLCLLG		Ampara	LK-52	7.23699	81.550391	Pothuvil	PS-520128	6.878387	81.826859	6.879508	81.835585	Pottuvil, Sri Lanka	0.971748	
Ampara	Pottuvil	Al Aksha Vidyalaya	False	False	MPRPTTVLLKSHVDYLY		Ampara	LK-52	7.23699	81.550391	Pothuvil	PS-520128	6.878387	81.826859	6.866896	81.832636	B374, Pottuvil, Sri Lanka	1.428509	
Ampara	Pottuvil	MOH Office - Lahugala	False	False	MPRPTTVLMHFFCLHGL		Ampara	LK-52	7.23699	81.550391	Pothuvil	PS-520128	6.878387	81.826859	6.880658	81.765015	VQJ8+726, Sangamuwa, Sri Lanka	6.834041	
Ampara	Pottuvil	MOH Office - Pottuvil	False	False	MPRPTTVLMHFFCPTTVL		Ampara	LK-52	7.23699	81.550391	Pothuvil	PS-520128	6.878387	81.826859	6.877076	81.828969	B374, Pottuvil, Sri Lanka	0.274874	
Ampara	Pottuvil	GH Komari	False	False	MPRPTTVLGHKMR		Ampara	LK-52	7.23699	81.550391	Pothuvil	PS-520128	6.878387	81.826859	6.98626	81.864779	Komari, Sri Lanka	12.708252	
Ampara	Bakkiella	Rajagalathenna Maha Vidyalaya	False	False	MPRBKKLLRJGLTHNNMHVDYLY		Ampara	LK-52	7.23699	81.550391	Bakkiella	PS-520117	7.489231	81.643668	7.474507	81.632449	Ampara-Uhana-Maha Oya Hwy, Sri Lanka	2.052569	
Ampara	Thirukkovil	Mobile Vaccination	False	False	MPRTHRKKVLMBLVCCNTN		Ampara	LK-52	7.23699	81.550391	Thirukkovil	PS-520127	7.113998	81.852219					#CenterLocationUnknown
Ampara	Thirukkovil	Thambiluvil Maha Vidyalaya	False	False	MPRTHRKKVLTHMBLVLMHVDYLY		Ampara	LK-52	7.23699	81.550391	Thirukkovil	PS-520127	7.113998	81.852219	7.120484	81.852659	Main Road, Thambiluvil, Sri Lanka	0.723069	
Ampara	Thirukkovil	Vinayagapuram Shakthi Vidyalaya	False	False	MPRTHRKKVLVNYGPRMSHKTHVDYLY		Ampara	LK-52	7.23699	81.550391	Thirukkovil	PS-520127	7.113998	81.852219	7.115312	81.852488	Thirukkovil, Sri Lanka	0.149141	
Ampara	Thirukkovil	District Hospital - Thirukkovil	False	False	MPRTHRKKVLDSTRCTHSPTLTHRKKVL		Ampara	LK-52	7.23699	81.550391	Thirukkovil	PS-520127	7.113998	81.852219	7.115713	81.851887	4V82+7QJ, Thirukkovil, Sri Lanka	0.194247	
Ampara	Akkaraipattu	Akkaraipattu Nuraniya Church	False	False	MPRKKRPTTKKRPTTNRNYCHRCH		Ampara	LK-52	7.23699	81.550391	Akkaraipattu	PS-520126	7.216084	81.853254	7.217154	81.849717	Sagama Rd, Akkaraipattu, Sri Lanka	0.408046	
Ampara	Akkaraipattu	Al Siraj Vidyalaya	False	False	MPRKKRPTTLSRJVDYLY		Ampara	LK-52	7.23699	81.550391	Akkaraipattu	PS-520126	7.216084	81.853254	7.219333	81.85313	Akkaraipattu, Sri Lanka	0.361645	
Ampara	Akkaraipattu	Badur Mosque	False	False	MPRKKRPTTBDRMSQ		Ampara	LK-52	7.23699	81.550391	Akkaraipattu	PS-520126	7.216084	81.853254	7.21798	81.859573	Deens Road, Akkaraipattu, Sri Lanka	0.728487	
Ampara	Akkaraipattu	Kadiriya Jumma Mosque	False	False	MPRKKRPTTKDRYJMMMSQ		Ampara	LK-52	7.23699	81.550391	Akkaraipattu	PS-520126	7.216084	81.853254	7.219042	81.844208	Grand Mosque, Akkaraipattu - Warapathanchenai, Akkaraipattu 32400, Sri Lanka	1.051038	
Ampara	Akkaraipattu	Nuraniya Jumma Musque	False	False	MPRKKRPTTNRNYJMMMSQ		Ampara	LK-52	7.23699	81.550391	Akkaraipattu	PS-520126	7.216084	81.853254	7.221477	81.849682	Thomputhor Road, Akkaraipattu, Sri Lanka	0.717774	
Ampara	Akkaraipattu	Aisha Maha Vidyalaya	False	False	MPRKKRPTTSHMHVDYLY		Ampara	LK-52	7.23699	81.550391	Akkaraipattu	PS-520126	7.216084	81.853254	7.223603	81.84711	Mudaliyar Rd, Akkaraipattu 32400, Sri Lanka	1.076621	
Ampara	Akkaraipattu	Pallikudiyiruppu Vidyalaya	False	False	MPRKKRPTTPLLKDYRPPVDYLY		Ampara	LK-52	7.23699	81.550391	Akkaraipattu	PS-520126	7.216084	81.853254	7.210268	81.845672	6R6W+473, Akkaraipattu, Sri Lanka	1.057598	
Ampara	Akkaraipattu	Sri Ramakrishna Mission Maha Vidyalaya	False	False	MPRKKRPTTSRRMKRSHNMSSNMHVDYLY		Ampara	LK-52	7.23699	81.550391	Akkaraipattu	PS-520126	7.216084	81.853254	7.216207	81.846355	Rkm road, Akkaraipattu-07, Akkaraipattu 32400, Sri Lanka	0.761419	
Ampara	Akkaraipattu	Sri Ramakrishna Vidyalaya	False	False	MPRKKRPTTSRRMKRSHNVDYLY		Ampara	LK-52	7.23699	81.550391	Akkaraipattu	PS-520126	7.216084	81.853254	7.210268	81.845672	6R6W+473, Akkaraipattu, Sri Lanka	1.057598	
Ampara	Akkaraipattu	Kolavilvinayagar Maha Vidyalaya	False	False	MPRKKRPTTKLVLVNYGRMHVDYLY		Ampara	LK-52	7.23699	81.550391	Akkaraipattu	PS-520126	7.216084	81.853254	7.198526	81.849358	Akkaraipattu-Sagamam Rd, Sri Lanka	1.999736	
Ampara	Akkaraipattu	MOH Office - Addalachena	False	False	MPRKKRPTTMHFFCDDLCHN		Ampara	LK-52	7.23699	81.550391	Akkaraipattu	PS-520126	7.216084	81.853254	7.260916	81.853493	7V63+999, Addalaichenai, Sri Lanka	4.986726	
Ampara	Akkaraipattu	MOH Office - Alayadivembu	False	False	MPRKKRPTTMHFFCLYDVMB		Ampara	LK-52	7.23699	81.550391	Akkaraipattu	PS-520126	7.216084	81.853254	7.228134	81.851123	6VH2+7C5, Akkaraipattu, Sri Lanka	1.360772	
Ampara	Kalmunai	MOH Office - Kalmunai North	False	False	MPRKLMNMHFFCKLMNNRTH		Ampara	LK-52	7.23699	81.550391	Kalmunai	PS-520123	7.414289	81.825006	7.411712	81.838462	CR6Q+M9P, Kalmunai 32300, Sri Lanka	1.511625	
Ampara	Kalmunai	Mobile Vaccination	False	False	MPRKLMNMBLVCCNTN		Ampara	LK-52	7.23699	81.550391	Kalmunai	PS-520123	7.414289	81.825006					#CenterLocationUnknown
Ampara	Kalmunai	Periyanilawani Clinic	False	False	MPRKLMNPRYNLWNCLNC		Ampara	LK-52	7.23699	81.550391	Kalmunai	PS-520123	7.414289	81.825006	7.420034	81.82232	hospital near, Kalmunai 32300, Sri Lanka	0.704353	
Ampara	Kalmunai	Maradamunai Almanar Central College	False	False	MPRKLMNMRDMNLMNRCNTRLCLLG		Ampara	LK-52	7.23699	81.550391	Kalmunai	PS-520123	7.414289	81.825006	7.436331	81.812701	Maruthamunai, Sri Lanka	2.802316	
Ampara	Kalmunai	Kalmunai Al Mishba Maha Vidyalaya	False	False	MPRKLMNKLMNLMSHBMHVDYLY		Ampara	LK-52	7.23699	81.550391	Kalmunai	PS-520123	7.414289	81.825006	7.401673	81.840708	Kalmunai 32300, Sri Lanka	2.22909	
Ampara	Kalmunai	Narappattimunai Al Ashka Maha Vidyalaya	False	False	MPRKLMNNRPPTTMNLSHKMHVDYLY		Ampara	LK-52	7.23699	81.550391	Kalmunai	PS-520123	7.414289	81.825006	7.414638	81.81151	CR76+VJ2, Kalmunai, Sri Lanka	1.489112	
Ampara	Kalmunai	Kalmunai Ramakrishna Mission College	False	False	MPRKLMNKLMNRMKRSHNMSSNCLLG		Ampara	LK-52	7.23699	81.550391	Kalmunai	PS-520123	7.414289	81.825006	7.412373	81.828629	Udyar Rd, Kalmunai 32300, Sri Lanka	0.452893	
Ampara	Kalmunai	Kalmunai North Base Hospital	False	False	MPRKLMNKLMNNRTHBSHSPTL		Ampara	LK-52	7.23699	81.550391	Kalmunai	PS-520123	7.414289	81.825006	7.420034	81.82232	hospital near, Kalmunai 32300, Sri Lanka	0.704353	
Ampara	Kalmunai	Carmel Fatima National College	False	False	MPRKLMNCRMLFTMNTNLCLLG		Ampara	LK-52	7.23699	81.550391	Kalmunai	PS-520123	7.414289	81.825006	7.419889	81.823933	Carmel Fatima College Rd, Kalmunai 32300, Sri Lanka	0.634031	
Ampara	Kalmunai	Pandirippu Cultural Centre	False	False	MPRKLMNPNDRPPCLTRLCNTR		Ampara	LK-52	7.23699	81.550391	Kalmunai	PS-520123	7.414289	81.825006	7.430188	81.815947	CRJ8+39G, Pandiruppu, Sri Lanka	2.031199	
Ampara	Kalmunai	Senakudiirippu Health Centre	False	False	MPRKLMNSNKDRPPHLTHCNTR		Ampara	LK-52	7.23699	81.550391	Kalmunai	PS-520123	7.414289	81.825006	7.420034	81.82232	hospital near, Kalmunai 32300, Sri Lanka	0.704353	
Ampara	Kalmunai	Nappatitimuna Shivashakthi Vidyalaya	False	False	MPRKLMNNPPTTMNSHVSHKTHVDYLY		Ampara	LK-52	7.23699	81.550391	Kalmunai	PS-520123	7.414289	81.825006	7.426418	81.816781	Colombo - Batticaloa Hwy, Kalmunai, Sri Lanka	1.625764	
Ampara	Kalmunai	Periyanilawana Saraswathi Vidyalaya	False	False	MPRKLMNPRYNLWNSRSWTHVDYLY		Ampara	LK-52	7.23699	81.550391	Kalmunai	PS-520123	7.414289	81.825006	7.426418	81.816781	Colombo - Batticaloa Hwy, Kalmunai, Sri Lanka	1.625764	
Ampara	Kalmunai	Pandirippu Hindu Maha Vidyalaya	False	False	MPRKLMNPNDRPPHNDMHVDYLY		Ampara	LK-52	7.23699	81.550391	Kalmunai	PS-520123	7.414289	81.825006	7.426349	81.816459	Kalmunai, Sri Lanka	1.639561	
Ampara	Kalmunai	Ashraff Memorial Hospital	False	False	MPRKLMNSHRFFMMRLHSPTL		Ampara	LK-52	7.23699	81.550391	Kalmunai	PS-520123	7.414289	81.825006	7.403172	81.831146	A4, Ashraff Memorial Base Hospital, A4 A4, Kalmunai 32300, Sri Lanka	1.409859	
Ampara	Saindamarudu	APC Clinic	False	False	MPRSNDMRDPCCLNC		Ampara	LK-52	7.23699	81.550391	Saindamarudu		7.397352	81.842377	7.298334	81.690841	Dharmapala Mawatha, Ampara, Sri Lanka	20.018935	#CenterFarFromPolice
Ampara	Saindamarudu	Saindamarudu Hospital	False	False	MPRSNDMRDSNDMRDHSPTL		Ampara	LK-52	7.23699	81.550391	Saindamarudu		7.397352	81.842377	6.900252	79.87618	08 Elvitigala Mawatha, Colombo 00800, Sri Lanka	223.932389	#CenterFarFromPolice
Ampara	Saindamarudu	MOH Office - Saindamarudu	False	False	MPRSNDMRDMHFFCSNDMRD		Ampara	LK-52	7.23699	81.550391	Saindamarudu		7.397352	81.842377	7.939573	81.000275	Thamankaduwa, Sri Lanka	110.700687	#CenterFarFromPolice
Ampara	Sammanthurai	Miranagar Health Centre	False	False	MPRSMMNTHRMRNGRHLTHCNTR		Ampara	LK-52	7.23699	81.550391	Samanthurai	PS-520124	7.365785	81.810859	7.359802	81.793874	Vilinaiyadi Rd, Sammanthurai, Sri Lanka	1.988336	
Ampara	Sammanthurai	Vavalodai Health Centre	False	False	MPRSMMNTHRVVLDHLTHCNTR		Ampara	LK-52	7.23699	81.550391	Samanthurai	PS-520124	7.365785	81.810859	7.359802	81.793874	Vilinaiyadi Rd, Sammanthurai, Sri Lanka	1.988336	
Ampara	Sammanthurai	Arasady Health Centre	False	False	MPRSMMNTHRRSDYHLTHCNTR		Ampara	LK-52	7.23699	81.550391	Samanthurai	PS-520124	7.365785	81.810859	7.368169	81.812056	Hospital Rd, Sammanthurai, Sri Lanka	0.296229	
Ampara	Sammanthurai	Attapalam Health Centre	False	False	MPRSMMNTHRTTPLMHLTHCNTR		Ampara	LK-52	7.23699	81.550391	Samanthurai	PS-520124	7.365785	81.810859	7.359802	81.793874	Vilinaiyadi Rd, Sammanthurai, Sri Lanka	1.988336	
Ampara	Sammanthurai	Sammanthurai Base Hospital	False	False	MPRSMMNTHRSMMNTHRBSHSPTL		Ampara	LK-52	7.23699	81.550391	Samanthurai	PS-520124	7.365785	81.810859	7.368355	81.813042	9R96+MWM, Hospital Rd, Sammanthurai, Sri Lanka	0.373773	
Ampara	Sammanthurai	Town Hall - Sammanthurai	False	False	MPRSMMNTHRTWNHLLSMMNTHR		Ampara	LK-52	7.23699	81.550391	Samanthurai	PS-520124	7.365785	81.810859	7.363356	81.804123	9R73+8JX, Sammanthurai, Sri Lanka	0.790657	
Ampara	Sammanthurai	Malwatta Hospital	False	False	MPRSMMNTHRMLWTTHSPTL		Ampara	LK-52	7.23699	81.550391	Samanthurai	PS-520124	7.365785	81.810859	7.368355	81.813042	9R96+MWM, Hospital Rd, Sammanthurai, Sri Lanka	0.373773	
Ampara	Sammanthurai	Al Arshath College - Sammanthurai	False	False	MPRSMMNTHRLRSHTHCLLGSMMNTHR		Ampara	LK-52	7.23699	81.550391	Samanthurai	PS-520124	7.365785	81.810859	7.372726	81.802532	9RF3+32V, Sammanthurai, Sri Lanka	1.19992	
Ampara	Sammanthurai	MOH Office - Nintavur	False	False	MPRSMMNTHRMHFFCNNTVR		Ampara	LK-52	7.23699	81.550391	Samanthurai	PS-520124	7.365785	81.810859	7.352821	81.856939	Hospital Rd, Nintavur 32340, Sri Lanka	5.283925	
Ampara	Sammanthurai	MOH Office - Sammanthurai	False	False	MPRSMMNTHRMHFFCSMMNTHR		Ampara	LK-52	7.23699	81.550391	Samanthurai	PS-520124	7.365785	81.810859	7.369857	81.812264	9R96+WWR, Sammanthurai, Sri Lanka	0.478712	
Ampara	Sammanthurai	Nintavur Hospital	False	False	MPRSMMNTHRNNTVRHSPTL		Ampara	LK-52	7.23699	81.550391	Samanthurai	PS-520124	7.365785	81.810859	7.353372	81.856852	Hospital Rd, Nintavur, Sri Lanka	5.258159	
Ampara	Sammanthurai	Al Azhar Maha Vidyalaya - Sammanthurai	False	False	MPRSMMNTHRLZHRMHVDYLYSMMNTHR		Ampara	LK-52	7.23699	81.550391	Samanthurai	PS-520124	7.365785	81.810859	7.35018	81.80359	Kallarichchel 02, Sammanthurai, Sri Lanka	1.912014	
