district	police	center	dose1	dose2	fuzzy_key	alt_name	district_name_norm	district_id	district_lat	district_lng	ps_name_norm	ps_id	ps_lat	ps_lng	lat	lng	formatted_address	dis_center_to_police	tags	district_si	police_si	center_si	district_ta	police_ta	center_ta	formatted_address_si	formatted_address_ta
Colombo	Cinnamon Gardens	Viharamahadevi Park	True	True	CLMBCNNMNGRDNSVHRMHDVPRK		Colombo	LK-11	6.869636	80.019598	Cinnamon Garden	PS-110324	6.907289	79.863819	6.913391	79.86174	Viharamahadevi Park, Colombo, Sri Lanka	0.716497		කොළඹ	කුරුඳු උද්‍යාන	විහාරමහාදේවි උද්‍යානය	கொழும்பு	இலவங்கப்பட்டை தோட்டங்கள்	விஹாரமஹாதேவி பூங்கா	විහාරමහාදේවි උද්‍යානය, කොළඹ, ශ්‍රී ලංකාව	விஹாரமஹாதேவி பூங்கா, கொழும்பு, இலங்கை
Colombo	Narahenpita	Army Hospital Narahenpita	False	False	CLMBNRHNPTRMYHSPTLNRHNPT		Colombo	LK-11	6.869636	80.019598	Narahenpita	PS-110321	6.891832	79.876715	6.900252	79.87618	08 Elvitigala Mawatha, Colombo 00800, Sri Lanka	0.938417		කොළඹ	නාරාහේන්පිට	නාරාහේන්පිට හමුදා රෝහල	கொழும்பு	நரஹேன்பிட்ட	இராணுவ மருத்துவமனை நாரஹேன்பிட்ட	08 ඇල්විටිගල මාවත, කොළඹ 00800, ශ්‍රී ලංකාව	08 எல்விட்டிகல மாவத்தை, கொழும்பு 00800, இலங்கை
Colombo	Narahenpita	Army Headquarters Mobitel Team	True	True	CLMBNRHNPTRMYHDQRTRSMBTLTM		Colombo	LK-11	6.869636	80.019598	Narahenpita	PS-110321	6.891832	79.876715	6.92129	79.881222	148, 15 Leslie Ranagala Mawatha, Colombo 00800, Sri Lanka	3.314188		කොළඹ	නාරාහේන්පිට	යුද හමුදා මූලස්ථාන මොබිටෙල් කණ්ඩායම	கொழும்பு	நரஹேன்பிட்ட	இராணுவ தலைமையகம் மொபிடெல் குழு	148, 15 ලෙස්ලි රණගල මාවත, කොළඹ 00800, ශ්‍රී ලංකාව	148, 15 லெஸ்லி ரணகல மாவத்தை, கொழும்பு 00800, இலங்கை
Colombo	Thalangama	Diyatha Uyana	True	True	CLMBTHLNGMDYTHYN		Colombo	LK-11	6.869636	80.019598	Thalangama	PS-110466	6.91089	79.929325	6.904575	79.909831	Diyatha Uyana, B240, Sri Jayawardenepura Kotte, Sri Lanka	2.264281		කොළඹ	තලංගම	දියත උයන	கொழும்பு	தலங்கம	தியாத உயனா	දියත උයන, බී 240, ශ්‍රී ජයවර්ධනපුර කෝට්ටේ, ශ්‍රී ලංකාව	தியாத உயனா, B240, ஸ்ரீ ஜெயவர்தனபுர கோட்டே, இலங்கை
Colombo	Maradana	Mobitel Team	True	True	CLMBMRDNMBTLTM		Colombo	LK-11	6.869636	80.019598	Maradana	PS-110107	6.927939	79.865471	6.933703	79.850412	Colombo Fort Station, Colombo, Sri Lanka	1.782092		කොළඹ	මරදාන	මොබිටෙල් කණ්ඩායම	கொழும்பு	மரதானா	மொபிடெல் குழு	කොළඹ කොටුව දුම්රිය ස්ථානය, කොළඹ, ශ්‍රී ලංකාව	கொழும்பு கோட்டை நிலையம், கொழும்பு, இலங்கை
Colombo	Boralesgamuwa	Kotelawala Defence Hospital	False	True	CLMBBRLSGMWKTLWLDFNCHSPTL		Colombo	LK-11	6.869636	80.019598	Boralesgamuwa	PS-110464	6.841331	79.901255	6.82518	79.907167	RWG4+3VF, Boralesgamuwa, Sri Lanka	1.911444		කොළඹ	බොරලැස්ගමුව	කොතලාවල ආරක්‍ෂක රෝහල	கொழும்பு	பொரலஸ்கமுவா	கொத்தலாவல பாதுகாப்பு மருத்துவமனை	RWG4+3VF, බොරලැස්ගමුව, ශ්‍රී ලංකාව	RWG4+3VF, பொரலஸ்கமுவா, இலங்கை
Colombo	Boralesgamuwa	MOH Office - Werahera	False	False	CLMBBRLSGMWMHFFCWRHR		Colombo	LK-11	6.869636	80.019598	Boralesgamuwa	PS-110464	6.841331	79.901255	6.833094	79.905583	RWM4+66P, Boralesgamuwa, Sri Lanka	1.033386		කොළඹ	බොරලැස්ගමුව	MOH කාර්යාලය - වේරහැර	கொழும்பு	பொரலஸ்கமுவா	MOH அலுவலகம் - வெரஹெரா	RWM4+66P, බොරලැස්ගමුව, ශ්‍රී ලංකාව	RWM4+66P, பொரலஸ்கமுவா, இலங்கை
Colombo	Grandpass	Sugathadasa Outdoor Stadium	False	False	CLMBGRNDPSSSGTHDSTDRSTDM		Colombo	LK-11	6.869636	80.019598	Grandpass	PS-110215	6.949052	79.872983	6.94806	79.868842	Prince of Wales Ave, Colombo 01400, Sri Lanka	0.470345		කොළඹ	ග්‍රෑන්ඩ්පාස්	සුගතදාස එළිමහන් ක්‍රීඩාංගනය	கொழும்பு	கிராண்ட்பாஸ்	சுகததாச வெளிப்புற அரங்கம்	වේල්ස් කුමර මාවත, කොළඹ 01400, ශ්‍රී ලංකාව	பிரின்ஸ் ஆஃப் வேல்ஸ் அவே, கொழும்பு 01400, இலங்கை
Colombo	Dehiwala	MOH Office - Dehiwala	False	False	CLMBDHWLMHFFCDHWL		Colombo	LK-11	6.869636	80.019598	Dehiwala	PS-110580	6.850088	79.871696	6.861346	79.865943	VV68+G9P, Dehiwala-Mount Lavinia, Sri Lanka	1.404177		කොළඹ	දෙහිවල	MOH කාර්යාලය - දෙහිවල	கொழும்பு	தெஹிவளை	MOH அலுவலகம் - தெஹிவளை	VV68+G9P, දෙහිවල-ගල්කිස්ස, ශ්‍රී ලංකාව	VV68+G9P, தெஹிவளை-கல்கிசை, இலங்கை
Colombo	Padukka	MOH Office - Padukka	False	False	CLMBPDKKMHFFCPDKK		Colombo	LK-11	6.869636	80.019598	Padukka	PS-110473	6.842195	80.09247	6.840164	80.093288	Galagedera - Horana Rd, Padukka, Sri Lanka	0.243301		කොළඹ	පාදුක්ක	MOH කාර්යාලය - පාදුක්ක	கொழும்பு	பாதுக்கா	MOH அலுவலகம் - பாதுக்கா	ගලගෙදර - හොරණ පාර, පාදුක්ක, ශ්‍රී ලංකාව	கலகெடெரா - ஹொரானா வீதி, பாதுக்கா, இலங்கை
Colombo	Fort	Navy Headquarters	False	False	CLMBFRTNVYHDQRTRS		Colombo	LK-11	6.869636	80.019598	Fort	PS-110105	6.9334	79.842895	6.936952	79.842104	WRPR+QRQ, Colombo, Sri Lanka	0.404627		කොළඹ	කොටුව	නාවික හමුදා මූලස්ථානය	கொழும்பு	கோட்டை	கடற்படை தலைமையகம்	WRPR+QRQ, කොළඹ, ශ්‍රී ලංකාව	WRPR+QRQ, கொழும்பு, இலங்கை
Colombo	Avissawella	Puwakpitiya Tamil College	False	False	CLMBVSSWLLPWKPTYTMLCLLG		Colombo	LK-11	6.869636	80.019598	Awissawella	PS-920226	6.947538	80.215422	6.941689	80.198194	Farnham Division Rd, Avissawella, Sri Lanka	2.010387		කොළඹ	අවිස්සාවේල්ල	පුවක්පිටිය දෙමළ විද්‍යාලය	கொழும்பு	அவிசாவெல்லா	புவக்பிட்டிய தமிழ் கல்லூரி	ෆර්න්හැම් අංශය පාර, අවිස්සාවේල්ල, ශ්‍රී ලංකාව	ஃபார்ன்ஹாம் டிவிஷன் ஆர்ட், அவிசாவல்லா, இலங்கை
Colombo	Fore shore	MOH Office - Jinthupitiya	False	False	CLMBFRSHRMHFFCJNTHPTY		Colombo	LK-11	6.869636	80.019598	Fore shore	PS-110210	6.949589	79.857355	6.943258	79.859238	No.27 Vivekananda Hill, Colombo 01300, Sri Lanka	0.734247		කොළඹ	ඉදිරිපස වෙරළ	MOH කාර්යාලය - ජින්තුපිටිය	கொழும்பு	முன் கரை	MOH அலுவலகம் - ஜிந்துபிடியா	අංක 27 විවේකානන්ද කන්ද, කොළඹ 01300, ශ්‍රී ලංකාව	எண் .27 விவேகானந்த மலை, கொழும்பு 01300, இலங்கை
Gampaha	Gampaha	Mobile Medical Team	True	True	GMPHGMPHMBLMDCLTM		Gampaha	LK-12	7.123598	80.018508	Gampaha	PS-120237	7.087765	80.01228					#CenterLocationUnknown	ගම්පහ	ගම්පහ	ජංගම වෛද්‍ය කණ්ඩායම	கம்பஹா	கம்பஹா	மொபைல் மருத்துவ குழு		
Gampaha	Gampaha	MOH Office – Gampaha	False	False	GMPHGMPHMHFFCGMPH		Gampaha	LK-12	7.123598	80.018508	Gampaha	PS-120237	7.087765	80.01228	7.17227	79.956823	Katunayake-Veyangoda Rd, Minuwangoda, Sri Lanka	11.216745		ගම්පහ	ගම්පහ	MOH කාර්යාලය - ගම්පහ	கம்பஹா	கம்பஹா	MOH அலுவலகம் - கம்பஹா	කටුනායක-වේයන්ගොඩ පාර, මිනුවන්ගොඩ, ශ්‍රී ලංකාව	கட்டுநாயக்க-வெயங்கொட வீதி, மினுவாங்கொட, இலங்கை
Gampaha	Kadawata	Webada Vidyalaya	False	False	GMPHKDWTWBDVDYLY		Gampaha	LK-12	7.123598	80.018508	Kadawatha	PS-120136	7.00152	79.95003	7.012507	79.953464	Kadawatha - Ganemulla Rd, Kadawatha, Sri Lanka	1.279535		ගම්පහ	කඩවත	වෙබඩ විද්‍යාලය	கம்பஹா	கடவாடா	வெபடா வித்யாலயா	කඩවත - ගණේමුල්ල පාර, කඩවත, ශ්‍රී ලංකාව	கடவத்த - கணேமுல்லா வீதி, கடவத்தை, இலங்கை
Gampaha	Pugoda	MOH Office – Dompe	False	False	GMPHPGDMHFFCDMP		Gampaha	LK-12	7.123598	80.018508	Pugoda	PS-120241	6.98283	80.111189	6.976767	80.117422	Dompe, Pugoda-Mandawala Rd, Pugoda, Sri Lanka	0.963513		ගම්පහ	පූගොඩ	MOH කාර්යාලය - දොම්පේ	கம்பஹா	புகோடா	MOH அலுவலகம் - Dompe	දොම්පේ, පූගොඩ-මණ්ඩාවල පාර, පූගොඩ, ශ්‍රී ලංකාව	டோம்பே, புகோடா-மண்டவாலா சாலை, புகோடா, இலங்கை
Gampaha	Nittambuwa	Urapola Central College	False	False	GMPHNTTMBWRPLCNTRLCLLG		Gampaha	LK-12	7.123598	80.018508	Nittambuwa	PS-120246	7.149726	80.10046	7.098949	80.144672	No. 280, Nittambuwa - Ruwanwella Rd, Urapola, Sri Lanka	7.463959		ගම්පහ	නිට්ටඹුව	Raරාපොළ මධ්‍ය මහා විද්‍යාලය	கம்பஹா	நிட்டம்புவா	உரபொல மத்திய கல்லூரி	අංක 280, නිට්ටඹුව - රුවන්වැල්ල පාර, raරාපොළ, ශ්‍රී ලංකාව	எண் 280, நிட்டம்புவா - ருவன்வெல்ல வீதி, ஊரபொல, இலங்கை
Gampaha	Nittambuwa	Al Azhar Central College	False	False	GMPHNTTMBWLZHRCNTRLCLLG		Gampaha	LK-12	7.123598	80.018508	Nittambuwa	PS-120246	7.149726	80.10046	7.121335	80.072386	43CC+GXJ, Kalagedihena, Sri Lanka	4.424148		ගම්පහ	නිට්ටඹුව	අල් අසාර් මධ්‍ය විද්‍යාලය	கம்பஹா	நிட்டம்புவா	அல் அசார் மத்திய கல்லூரி	43CC+GXJ, කලගෙඩිහේන, ශ්‍රී ලංකාව	43CC+GXJ, கலகெடிஹேனா, இலங்கை
Gampaha	Minuwangoda	MOH Office – Minuwangoda	False	False	GMPHMNWNGDMHFFCMNWNGD		Gampaha	LK-12	7.123598	80.018508	Minuwangoda	PS-120238	7.174215	79.957874	7.17227	79.956823	Katunayake-Veyangoda Rd, Minuwangoda, Sri Lanka	0.245525		ගම්පහ	මිනුවන්ගොඩ	MOH කාර්යාලය - මිනුවන්ගොඩ	கம்பஹா	மினுவாங்கொட	MOH அலுவலகம் - மினுவாங்கொட	කටුනායක-වේයන්ගොඩ පාර, මිනුවන්ගොඩ, ශ්‍රී ලංකාව	கட்டுநாயக்க-வெயங்கொட வீதி, மினுவாங்கொட, இலங்கை
Gampaha	Weliweriya	Nedungamuwa Siri Sivali Vidyalaya	False	False	GMPHWLWRYNDNGMWSRSVLVDYLY		Gampaha	LK-12	7.123598	80.018508	Weliweriya	PS-120244	7.03451	80.026114	7.049755	80.024105	22XF+WJ5, Gampaha, Sri Lanka	1.71025		ගම්පහ	වැලිවේරිය	නැදුන්ගමුව සිරි සීවලී විද්‍යාලය	கம்பஹா	வெலிவேரியா	நெடுங்கமுவ ஸ்ரீ சிவாலி வித்தியாலயம்	22XF+WJ5, ගම්පහ, ශ්‍රී ලංකාව	22XF+WJ5, கம்பஹா, இலங்கை
Gampaha	Ja Ela	MOH Office - Ja Ela	False	False	GMPHJLMHFFCJL		Gampaha	LK-12	7.123598	80.018508	Ja - Ela	PS-120133	7.081055	79.890504	7.075216	79.893879	60 Mount Kalvary Rd, Ja-Ela, Sri Lanka	0.748731		ගම්පහ	ජා ඇල	MOH කාර්යාලය - ජා ඇල	கம்பஹா	ஜா எல	MOH அலுவலகம் - ஜா எல	60 කල්වාරි පාර, ජා-ඇල, ශ්‍රී ලංකාව	60 மவுண்ட் கல்வாரி சாலை, ஜா-எல, இலங்கை
Gampaha	Wattala	MOH Office – Wattala	False	False	GMPHWTTLMHFFCWTTL		Gampaha	LK-12	7.123598	80.018508	Wattala	PS-120128	6.993713	79.894506	6.995817	79.885793	301 Hendala Rd, Wattala, Sri Lanka	0.989991		ගම්පහ	වත්තල	MOH කාර්යාලය - වත්තල	கம்பஹா	வத்தளை	MOH அலுவலகம் - வத்தளை	301 හැඳල පාර, වත්තල, ශ්‍රී ලංකාව	301 ஹெந்தலா சாலை, வத்தளை, இலங்கை
Gampaha	Ragama	MOH Office – Ragama	False	False	GMPHRGMMHFFCRGM		Gampaha	LK-12	7.123598	80.018508	Ragama	PS-120134	7.034975	79.924148	7.027386	79.920232	2WGC+X35, Ragama, Sri Lanka	0.948382		ගම්පහ	රාගම	MOH කාර්යාලය - රාගම	கம்பஹா	ராகம	MOH அலுவலகம் - ராகம	2WGC+X35, රාගම, ශ්‍රී ලංකාව	2WGC+X35, ராகம, இலங்கை
Gampaha	Ragama	Maharanugegoda Jaya Sumanaramaya	False	False	GMPHRGMMHRNGGDJYSMNRMY		Gampaha	LK-12	7.123598	80.018508	Ragama	PS-120134	7.034975	79.924148	7.026382	79.950576	Maharanugegoda, Kadawatha, Sri Lanka	3.070054		ගම්පහ	රාගම	මහරනුගේගොඩ ජය සුමනාරාමය	கம்பஹா	ராகம	மஹரானுகேகொட ஜய சுமனாராமயா	මහරනුගේගොඩ, කඩවත, ශ්‍රී ලංකාව	மஹரானுகேகொட, கடவத்த, இலங்கை
Kalutara	Kalutara	Mobile Medical Team	True	True	KLTRKLTRMBLMDCLTM		Kalutara	LK-13	6.577316	80.127363	Kalutara South		6.584968	79.96102					#CenterLocationUnknown	කළුතර	කළුතර	ජංගම වෛද්‍ය කණ්ඩායම	களுத்துறை	களுத்துறை	மொபைல் மருத்துவ குழு		
Kalutara	Kalutara	NIHS	False	False	KLTRKLTRNHS		Kalutara	LK-13	6.577316	80.127363	Kalutara South		6.584968	79.96102	6.559269	79.973486	Janatha Ln, Kalutara, Sri Lanka	3.173081		කළුතර	කළුතර	NIHS	களுத்துறை	களுத்துறை	என்ஐஎச்எஸ்	ජනතා එන්, කළුතර, ශ්‍රී ලංකාව	ஜனதா எல்என், களுத்துறை, இலங்கை
Kalutara	Aluthgama	MOH Office – Beruwala	False	False	KLTRLTHGMMHFFCBRWL		Kalutara	LK-13	6.577316	80.127363	Aluthgama	PS-1302100	6.432842	79.998032	6.437559	79.999356	CXQX+2PH, Aluthgama, Sri Lanka	0.544697		කළුතර	අලුත්ගම	MOH කාර්යාලය - බේරුවල	களுத்துறை	அளுத்கம	MOH அலுவலகம் - பேருவளை	CXQX+2PH, අළුත්ගම, ශ්‍රී ලංකාව	CXQX+2PH, அளுத்கம, இலங்கை
Kalutara	Agalawatta	Pimbura Hospital	False	False	KLTRGLWTTPMBRHSPTL		Kalutara	LK-13	6.577316	80.127363	Agalawatta		6.542566	80.157178	6.575949	80.158371	H5G5+98H, කළුතර, Sri Lanka	3.715525		කළුතර	අගලවත්ත	පිඹුර රෝහල	களுத்துறை	அகலவத்தை	பிம்புரா மருத்துவமனை	H5G5+98H, කළුතර, ශ්‍රී ලංකාව	H5G5+98H, கருப்புதர, இலங்கை
Kalutara	Matugama	MOH Office - Matugama	False	False	KLTRMTGMMHFFCMTGM		Kalutara	LK-13	6.577316	80.127363	Mathugama	PS-1302103	6.520881	80.117908	6.523544	80.126443	G4FG+CH8, Matugama, Sri Lanka	0.988725		කළුතර	මතුගම	MOH කාර්යාලය - මතුගම	களுத்துறை	மத்துகம	MOH அலுவலகம் - மத்துகம	G4FG+CH8, මතුගම, ශ්‍රී ලංකාව	G4FG+CH8, மத்துகம, இலங்கை
Kalutara	Matugama	Horawala Primary School	False	False	KLTRMTGMHRWLPRMRYSCHL		Kalutara	LK-13	6.577316	80.127363	Mathugama	PS-1302103	6.520881	80.117908	6.487275	80.12671	F4PG+WM8, Horawala, Sri Lanka	3.862378		කළුතර	මතුගම	හොරවල ප්‍රාථමික විද්‍යාලය	களுத்துறை	மத்துகம	ஹோராவாலா தொடக்கப்பள்ளி	F4PG+WM8, හොරවල, ශ්‍රී ලංකාව	F4PG+WM8, ஹோராவாலா, இலங்கை
Kalutara	Baduraliya	Baduraliya Hospital	False	False	KLTRBDRLYBDRLYHSPTL		Kalutara	LK-13	6.577316	80.127363	Baduraliya	PS-1302106	6.516756	80.226716	6.514727	80.232731	Tiruwanaketiya-Agalawatte Rd, Baduraliya, Sri Lanka	0.702098		කළුතර	බදුරලිය	බදුරලිය රෝහල	களுத்துறை	பதுரலியா	பதுரலியா மருத்துவமனை	තිරුවානකැටිය-අගලවත්ත පාර, බදුරලිය, ශ්‍රී ලංකාව	திருவனகெட்டிய-அகலவத்தை சாலை, பதுரலியா, இலங்கை
Kalutara	Panadura	Walana Maha Vidyalaya	False	False	KLTRPNDRWLNMHVDYLY		Kalutara	LK-13	6.577316	80.127363	Panadura North		6.756309	79.898939	6.713086	79.907765	PW75+64J, Panadura, Sri Lanka	4.905544		කළුතර	පානදුර	වලාන මහා විද්‍යාලය	களுத்துறை	பாணந்துறை	வாலானா மகா வித்தியாலயம்	PW75+64J, පානදුර, ශ්‍රී ලංකාව	PW75+64J, பாணந்துரா, இலங்கை
Kalutara	Ingiriya	Maha Ingiriya Cinic	False	False	KLTRNGRYMHNGRYCNC		Kalutara	LK-13	6.577316	80.127363	Ingiriya	PS-130193	6.743614	80.175077	6.743291	80.18617	Parevithota (පරෙවිතොට), Paravithota Rd, Ingiriya, Sri Lanka	1.225863		කළුතර	ඉංගිරිය	මහා ඉංගිරිය සිනික්	களுத்துறை	இங்கிரிய	மஹா இங்கிரிய சினிக்	පරෙවිතොට (පරෙවිතොට), පරවිතොට පාර, ඉංගිරිය, ශ්‍රී ලංකාව	Parevithota (பரெவிதோட்ட), Paravithota Rd, Ingiriya, Sri Lanka
Kurunegala	Kurunegala	Kurunegala	False	False	KRNGLKRNGLKRNGL		Kurunegala	LK-61	7.66477	80.23677	Kurunegala	PS-610101	7.485852	80.364137	7.48177	80.360888	Kurunegala, Sri Lanka	0.578391		කුරුණෑගල	කුරුණෑගල	කුරුණෑගල	குருநாகல்	குருநாகல்	குருநாகல்	කුරුණෑගල, ශ්‍රී ලංකාව	குருநாகல், இலங்கை
Puttalam	Kalpitiya	District Hospital - Kalpitiya	False	False	PTTLMKLPTYDSTRCTHSPTLKLPTY		Puttalam	LK-62	7.973531	79.913833	Kalpitiya	PS-620137	8.235145	79.764567	8.235596	79.766951	6QP8+6QP, Kalpitiya, Sri Lanka	0.267189		පුත්තලම	කල්පිටිය	දිසා රෝහල - කල්පිටිය	புத்தளம்	கல்பிட்டிய	மாவட்ட மருத்துவமனை - கல்பிட்டி	6QP8+6QP, කල්පිටිය, ශ්‍රී ලංකාව	6QP8+6QP, கல்பிட்டிய, இலங்கை
Puttalam	Norochcholai	Norochcholai Muslim Maha Vidyalaya	False	False	PTTLMNRCHCHLNRCHCHLMSLMMHVDYLY		Puttalam	LK-62	7.973531	79.913833	Norochcholey	PS-620139	6.900777	79.872638	8.050195	79.736044	3P2P+3CF, Norochcholai, Sri Lanka	128.73397	#CenterFarFromPolice	පුත්තලම	නොරොච්චෝලේ	නොරොච්චෝලේ මුස්ලිම් මහා විද්‍යාලය	புத்தளம்	நொரோச்சோலை	நொரோச்சோலை முஸ்லிம் மகா வித்தியாலயம்	3 පී 2 පී+3 සීඑෆ්, නොරොච්චෝලේ, ශ්‍රී ලංකාව	3P2P+3CF, நொரோச்சோலை, இலங்கை
Puttalam	Wennappuwa	Lunuvila Primary School	False	False	PTTLMWNNPPWLNVLPRMRYSCHL		Puttalam	LK-62	7.973531	79.913833	Wennappuwa	PS-620245	7.339623	79.843017	7.350001	79.863107	Sirigampala Para, Sri Lanka	2.498874		පුත්තලම	වෙන්නප්පුව	ලුණුවිල ප්‍රාථමික විද්‍යාලය	புத்தளம்	வென்னப்புவா	லுனுவில ஆரம்பப் பள்ளி	සිරිගම්පල පරා, ශ්‍රී ලංකාව	சிறிகம்பலா பரா, இலங்கை
Puttalam	Wennappuwa	Sirigampola St. Anne's College	False	False	PTTLMWNNPPWSRGMPLSTNNSCLLG		Puttalam	LK-62	7.973531	79.913833	Wennappuwa	PS-620245	7.339623	79.843017	7.314871	79.861441	8V86+5PV, Puttalam, Sri Lanka	3.422164		පුත්තලම	වෙන්නප්පුව	සිරිගම්පොල ශාන්ත ආනා විද්‍යාලය	புத்தளம்	வென்னப்புவா	சிறிகம்பொல செயின்ட் அன்னீஸ் கல்லூரி	8V86+5PV, පුත්තලම, ශ්‍රී ලංකාව	8V86+5PV, புத்தளம், இலங்கை
Puttalam	Wennappuwa	Bandirippuwa Galawatta Church	False	False	PTTLMWNNPPWBNDRPPWGLWTTCHRCH		Puttalam	LK-62	7.973531	79.913833	Wennappuwa	PS-620245	7.339623	79.843017	7.325399	79.866462	8VG8+5H4, Bandirippuwa, Sri Lanka	3.031981		පුත්තලම	වෙන්නප්පුව	බණ්ඩිරිප්පුව ගලවත්ත පල්ලිය	புத்தளம்	வென்னப்புவா	பண்டிரிப்புவ கலவத்த தேவாலயம்	8VG8+5H4, බණ්ඩිරිප්පුව, ශ්‍රී ලංකාව	8VG8+5H4, பண்டிரிப்புவா, இலங்கை
Puttalam	Dankotuwa	Dankotuwa Balika Vidyalaya	False	False	PTTLMDNKTWDNKTWBLKVDYLY		Puttalam	LK-62	7.973531	79.913833	Dankotuwa	PS-620246	7.300337	79.882595	7.29238	79.878239	Toppuwa - Madampe Rd, Dankotuwa, Sri Lanka	1.007122		පුත්තලම	දන්කොටුව	දංකොටුව බාලිකා විද්‍යාලය	புத்தளம்	டாங்கொட்டுவா	தங்கொட்டுவ பாலிகா வித்தியாலயம்	තොප්පුව - මාදම්පේ පාර, දංකොටුව, ශ්‍රී ලංකාව	தொப்புவா - மாதம்பே வீதி, தங்கொட்டுவா, இலங்கை
Puttalam	Dankotuwa	Matikotuwa Viharaya	False	False	PTTLMDNKTWMTKTWVHRY		Puttalam	LK-62	7.973531	79.913833	Dankotuwa	PS-620246	7.300337	79.882595	7.284867	79.891825	Metikotuwa Sri Surendrarama Purana Viharaya, Matikotuwa Road, Dankotuwa, Sri Lanka	1.999481		පුත්තලම	දන්කොටුව	මැටිකොටුව විහාරය	புத்தளம்	டாங்கொட்டுவா	மாடிகொட்டுவ விஹாராயா	මැටිකොටුව ශ්‍රී සුරේන්ද්‍රාරාම පුරාණ විහාරය, මැටකොටුව පාර, දංකොටුව, ශ්‍රී ලංකාව	மேடிகொட்டுவா ஸ்ரீ சுரேந்திரராம புராண விகாரை, மாடிகொட்டுவா சாலை, தங்கொட்டுவா, இலங்கை
Puttalam	Dankotuwa	Wekada Maha Vidyalaya	False	False	PTTLMDNKTWWKDMHVDYLY		Puttalam	LK-62	7.973531	79.913833	Dankotuwa	PS-620246	7.300337	79.882595	7.294468	79.928811	7WVH+QGM, Puttalam, Sri Lanka	5.140579		පුත්තලම	දන්කොටුව	වෑකඩ මහා විද්‍යාලය	புத்தளம்	டாங்கொட்டுவா	வெகடா மகா வித்தியாலயம்	7WVH+QGM, පුත්තලම, ශ්‍රී ලංකාව	7WVH+QGM, புத்தளம், இலங்கை
Puttalam	Koswatta	Kirimetiyana Balika Vidyalaya	False	False	PTTLMKSWTTKRMTYNBLKVDYLY		Puttalam	LK-62	7.973531	79.913833	Koswatta	PS-620244	7.374528	79.898302	7.35784	79.883943	Toppuwa - Madampe Rd, Sri Lanka	2.440173		පුත්තලම	කොස්වත්ත	කිරිමැටියාන බාලිකා විද්‍යාලය	புத்தளம்	கொஸ்வத்த	கிரிமெதியான பாலிகா வித்யாலயா	තොප්පුව - මාදම්පේ පාර, ශ්‍රී ලංකාව	தொப்புவா - மாதம்பே சாலை, இலங்கை
Puttalam	Marawila	President's College - Nattandiya	False	False	PTTLMMRWLPRSDNTSCLLGNTTNDY		Puttalam	LK-62	7.973531	79.913833	Marawila	PS-620243	7.415075	79.839776	7.410105	79.862237	Marawila - Udubaddawa Rd, Nattandiya, Sri Lanka	2.538382		පුත්තලම	මාරවිල	ජනාධිපති විද්‍යාලය - නාත්තන්ඩිය	புத்தளம்	மாரவில	ஜனாதிபதி கல்லூரி - நாட்டாண்டியா	මාරවිල - උඩුබද්දාව පාර, නාත්තන්ඩිය, ශ්‍රී ලංකාව	மாரவில - உடுபத்தவா வீதி, நாட்டாண்டியா, இலங்கை
Puttalam	Chilaw	Kakkapalliya Siri Sujatha Vidyalaya	False	False	PTTLMCHLWKKKPLLYSRSJTHVDYLY		Puttalam	LK-62	7.973531	79.913833	Chilaw	PS-620241	7.576197	79.788003	7.533774	79.819538	A3, Sri Lanka	5.861481		පුත්තලම	භලාවත	කාක්කපල්ලිය සිරි සුජාතා විද්‍යාලය	புத்தளம்	சிலாபம்	காக்கப்பள்ளியா ஸ்ரீ சுஜாதா வித்யாலயா	ඒ 3, ශ්‍රී ලංකාව	ஏ 3, இலங்கை
Puttalam	Chilaw	Savarana School	False	False	PTTLMCHLWSVRNSCHL		Puttalam	LK-62	7.973531	79.913833	Chilaw	PS-620241	7.576197	79.788003	7.580259	79.795395	HQJW+452, Chilaw, Sri Lanka	0.931982		පුත්තලම	භලාවත	සවන පාසල	புத்தளம்	சிலாபம்	சவரனா பள்ளி	HQJW+452, හලාවත, ශ්‍රී ලංකාව	HQJW+452, சிலாபம், இலங்கை
Puttalam	Chilaw	Kokkawila Primary School	False	False	PTTLMCHLWKKKWLPRMRYSCHL		Puttalam	LK-62	7.973531	79.913833	Chilaw	PS-620241	7.576197	79.788003					#CenterLocationUnknown	පුත්තලම	භලාවත	කොක්කවිල ප්‍රාථමික විද්‍යාලය	புத்தளம்	சிலாபம்	கொக்கவில ஆரம்பப் பள்ளி		
Puttalam	Arachchikattuwa	Battuluoya Vidyalaya	False	False	PTTLMRCHCHKTTWBTTLYVDYLY		Puttalam	LK-62	7.973531	79.913833	Arachchikattuwa	PS-620247	7.65944	79.837772	8.025991	79.847127	Puttalam, Sri Lanka	40.784547	#CenterFarFromPolice	පුත්තලම	ආරච්චිකට්ටුව	බත්තුලුඔය විද්‍යාලය	புத்தளம்	ஆராச்சிக்கட்டுவா	பட்டுலுஓயா வித்தியாலயம்	පුත්තලම, ශ්‍රී ලංකාව	புத்தளம், இலங்கை
Puttalam	Arachchikattuwa	Mangala Eliya Viharaya	False	False	PTTLMRCHCHKTTWMNGLLYVHRY		Puttalam	LK-62	7.973531	79.913833	Arachchikattuwa	PS-620247	7.65944	79.837772	7.851253	79.821942	Puttalam Road, Puttalam, Sri Lanka	21.406543	#CenterFarFromPolice	පුත්තලම	ආරච්චිකට්ටුව	මංගල එලිය විහාරය	புத்தளம்	ஆராச்சிக்கட்டுவா	மங்கள எலிய விகாரை	පුත්තලම පාර, පුත්තලම, ශ්‍රී ලංකාව	புத்தளம் சாலை, புத்தளம், இலங்கை
Puttalam	Arachchikattuwa	Vijayakatupatha Viharaya	False	False	PTTLMRCHCHKTTWVJYKTPTHVHRY		Puttalam	LK-62	7.973531	79.913833	Arachchikattuwa	PS-620247	7.65944	79.837772	7.576948	79.796615	HQGW+QJH, Chilaw, Sri Lanka	10.236202		පුත්තලම	ආරච්චිකට්ටුව	විජයකටුපත විහාරය	புத்தளம்	ஆராச்சிக்கட்டுவா	விஜயகடுபத விஹாராயா	HQGW+QJH, හලාවත, ශ්‍රී ලංකාව	HQGW+QJH, சிலாபம், இலங்கை
Puttalam	Madampe	Medagama Abhaya Maha Vidyalaya	False	False	PTTLMMDMPMDGMBHYMHVDYLY		Puttalam	LK-62	7.973531	79.913833	Madampe	PS-620242	7.49496	79.840268	7.534061	79.87694	Kakkapalliya-Medagama Rd, Sri Lanka	5.938802		පුත්තලම	මාදම්පේ	මැදගම අභය මහා විද්‍යාලය	புத்தளம்	மாதம்பே	மேடகம அபய மகா வித்தியாலயம்	කාක්කපල්ලිය-මැදගම පාර, ශ්‍රී ලංකාව	காக்கப்பல்லியா-மேடகம சாலை, இலங்கை
Puttalam	Puttalam	Puttalam Base Hospital	False	False	PTTLMPTTLMPTTLMBSHSPTL		Puttalam	LK-62	7.973531	79.913833	Puttalam	PS-620130	8.029904	79.834396	8.027902	79.83874	Katugastota-Kurunegala-Puttalam Hwy, Puttalam, Sri Lanka	0.527729		පුත්තලම	පුත්තලම	පුත්තලම මූලික රෝහල	புத்தளம்	புத்தளம்	புத்தளம் ஆதார மருத்துவமனை	කටුගස්තොට-කුරුණෑගල-පුත්තලම හ්වි, පුත්තලම, ශ්‍රී ලංකාව	கட்டுகஸ்தோட்டா-குருநாகல்-புத்தளம் Hwy, புத்தளம், இலங்கை
Puttalam	Puttalam	Divisional Secretariat - Puttalam	False	False	PTTLMPTTLMDVSNLSCRTRTPTTLM		Puttalam	LK-62	7.973531	79.913833	Puttalam	PS-620130	8.029904	79.834396	8.030562	79.835452	2RJP+65G, Puttalam, Sri Lanka	0.137419		පුත්තලම	පුත්තලම	ප්‍රාදේශීය ලේකම් කාර්යාලය - පුත්තලම	புத்தளம்	புத்தளம்	பிரதேச செயலகம் - புத்தளம்	2RJP+65G, පුත්තලම, ශ්‍රී ලංකාව	2RJP+65G, புத்தளம், இலங்கை
Puttalam	Puttalam	Palaviya Navodya Maha Vidyalaya	False	False	PTTLMPTTLMPLVYNVDYMHVDYLY		Puttalam	LK-62	7.973531	79.913833	Puttalam	PS-620130	8.029904	79.834396	8.02116	79.838263	2RCQ+F86, Puttalam, Sri Lanka	1.061763		පුත්තලම	පුත්තලම	පලාවිය නවෝද්‍යා මහා විද්‍යාලය	புத்தளம்	புத்தளம்	பாலவியா நவோத்யா மகா வித்தியாலயம்	2RCQ+F86, පුත්තලම, ශ්‍රී ලංකාව	2RCQ+F86, புத்தளம், இலங்கை
Puttalam	Wanathavilluwa	Bandaranayakapura Vidyalaya	False	False	PTTLMWNTHVLLWBNDRNYKPRVDYLY		Puttalam	LK-62	7.973531	79.913833	Wanathawilluwa	PS-620134	8.188137	79.858447	8.20616	79.859043	Mannar Rd, Wanathavillu, Sri Lanka	2.005769		පුත්තලම	වනාතවිල්ලුව	බණ්ඩාරනායකපුර විද්‍යාලය	புத்தளம்	வனதவில்லுவா	பண்டாரநாயக்கபுரா வித்யாலயா	මන්නාරම පාර, වනාතවිලු, ශ්‍රී ලංකාව	மன்னார் சாலை, வனதவில்லு, இலங்கை
Puttalam	Wanathavilluwa	Serukkuliya Vidyalaya	False	False	PTTLMWNTHVLLWSRKKLYVDYLY		Puttalam	LK-62	7.973531	79.913833	Wanathawilluwa	PS-620134	8.188137	79.858447	8.028082	79.840608	Katugastota-Kurunegala-Puttalam Hwy, Puttalam, Sri Lanka	17.91094		පුත්තලම	වනාතවිල්ලුව	සේරුක්කුලිය විද්‍යාලය	புத்தளம்	வனதவில்லுவா	செருக்குளியா வித்தியாலயம்	කටුගස්තොට-කුරුණෑගල-පුත්තලම හ්වි, පුත්තලම, ශ්‍රී ලංකාව	கட்டுகஸ்தோட்டா-குருநாகல்-புத்தளம் Hwy, புத்தளம், இலங்கை
Puttalam	Mundalama	MOH Office - Mundalama	False	False	PTTLMMNDLMMHFFCMNDLM		Puttalam	LK-62	7.973531	79.913833	Mundal	PS-620138	7.808859	79.825729	7.78892	79.82751	Puttalam - Colombo Rd, Sri Lanka	2.226479		පුත්තලම	මුන්දලම	MOH කාර්යාලය - මුන්දලම	புத்தளம்	முண்டாலமா	MOH அலுவலகம் - முண்டலமா	පුත්තලම - කොළඹ පාර, ශ්‍රී ලංකාව	புத்தளம் - கொழும்பு வீதி, இலங்கை
Puttalam	Karuwalagaswewa	DS Senanayaka Vidyalaya	False	False	PTTLMKRWLGSWWDSSNNYKVDYLY		Puttalam	LK-62	7.973531	79.913833	Karuwalagaswewa	PS-620135	8.055066	79.955817	8.054145	79.949949	3W3X+MX4, Karuwalagaswewa, Sri Lanka	0.654327		පුත්තලම	කරුවලගස්වැව	ඩීඑස් සේනානායක විද්‍යාලය	புத்தளம்	கருவலகஸ்வெவ	டிஎஸ் சேனாநாயக்க வித்யாலயா	3W3X+MX4, කරුවලගස්වැව, ශ්‍රී ලංකාව	3W3X+MX4, கருவலகஸ்வெவா, இலங்கை
Puttalam	Saliyawewa	Adarsha Maha Vidyalaya	False	False	PTTLMSLYWWDRSHMHVDYLY		Puttalam	LK-62	7.973531	79.913833	Saliyawewa	PS-620136	8.192614	80.09136	7.341361	79.892557	8VRV+G2V, Kirimatiyana Junction, Sri Lanka	97.186598	#CenterFarFromPolice	පුත්තලම	සාලියවැව	ආදර්ශ මහා විද්‍යාලය	புத்தளம்	சாலியவெவ	ஆதர்ஷா மகா வித்யாலயா	8VRV+G2V, කිරිමැටියාන හන්දිය, ශ්‍රී ලංකාව	8VRV+G2V, கிரிமதியான சந்தி, இலங்கை
Puttalam	Nawagattegama	Nawagattegama  Maha Vidyalaya	False	False	PTTLMNWGTTGMNWGTTGMMHVDYLY		Puttalam	LK-62	7.973531	79.913833	Nawagaththegama	PS-620133	8.002882	80.106543	8.004238	80.112651	2437+M3R, Nawagattegama, Sri Lanka	0.689474		පුත්තලම	නවගත්තේගම	නවගත්තේගම මහා විද්‍යාලය	புத்தளம்	நவகத்தேகம	நவகத்தேகம மகா வித்தியாலயம்	2437+එම් 3 ආර්, නවගත්තේගම, ශ්‍රී ලංකාව	2437+எம் 3 ஆர், நவகத்தேகம, இலங்கை
Puttalam	Anamaduwa	Kannangara Maha Vidyalaya	False	False	PTTLMNMDWKNNNGRMHVDYLY		Puttalam	LK-62	7.973531	79.913833	Anamaduwa	PS-620131	7.874852	80.01316	7.872754	80.014672	V2F7+4V3, Anamaduwa, Sri Lanka	0.286724		පුත්තලම	ආණමඩුව	කන්නන්ගර මහා විද්‍යාලය	புத்தளம்	ஆனமடுவா	கன்னங்கரா மகா வித்தியாலயம்	V2F7+4V3, ආණමඩුව, ශ්‍රී ලංකාව	V2F7+4V3, ஆனமடுவா, இலங்கை
Puttalam	Anamaduwa	Thalgaswewa Maha Vidyalaya	False	False	PTTLMNMDWTHLGSWWMHVDYLY		Puttalam	LK-62	7.973531	79.913833	Anamaduwa	PS-620131	7.874852	80.01316	7.876981	80.014181	V2G7+QMV, Anamaduwa, Sri Lanka	0.26217		පුත්තලම	ආණමඩුව	තල්ගස්වැව මහා විද්‍යාලය	புத்தளம்	ஆனமடுவா	தல்கஸ்வெவ மகா வித்தியாலயம்	V2G7+QMV, ආණමඩුව, ශ්‍රී ලංකාව	V2G7+QMV, ஆனமடுவா, இலங்கை
Puttalam	Anamaduwa	Kottukachchiya Navodya Vidyalaya	False	False	PTTLMNMDWKTTKCHCHYNVDYVDYLY		Puttalam	LK-62	7.973531	79.913833	Anamaduwa	PS-620131	7.874852	80.01316	7.940691	79.94725	Kottukachchiya, Sri Lanka	10.313116		පුත්තලම	ආණමඩුව	කොට්ටුකච්චිය නවෝද්‍යා විද්‍යාලය	புத்தளம்	ஆனமடுவா	கோட்டுகாச்சியா நவோதயா வித்யாலயா	කොට්ටුකච්චිය, ශ්‍රී ලංකාව	கொட்டுகாச்சியா, இலங்கை
Puttalam	Pallama	Galkuliya Vidyalaya	False	False	PTTLMPLLMGLKLYVDYLY		Puttalam	LK-62	7.973531	79.913833	Pallama	PS-620132	7.691904	79.922555	7.684519	79.918904	Puttalam, Sri Lanka	0.914722		පුත්තලම	පල්ලම	ගල්කුලිය විද්‍යාලය	புத்தளம்	பல்லாமா	கல்குலியா வித்தியாலயம்	පුත්තලම, ශ්‍රී ලංකාව	புத்தளம், இலங்கை
Puttalam	Pallama	Serukele Vidyalaya	False	False	PTTLMPLLMSRKLVDYLY		Puttalam	LK-62	7.973531	79.913833	Pallama	PS-620132	7.691904	79.922555	7.684519	79.918904	Puttalam, Sri Lanka	0.914722		පුත්තලම	පල්ලම	සේරුකැලේ විද්‍යාලය	புத்தளம்	பல்லாமா	செருகேல் வித்யாலயா	පුත්තලම, ශ්‍රී ලංකාව	புத்தளம், இலங்கை
Puttalam	Mahakumbukkadawala	Mahakumbukkadawala Vidyalaya	False	False	PTTLMMHKMBKKDWLMHKMBKKDWLVDYLY		Puttalam	LK-62	7.973531	79.913833	Mahakumbukkadawala		7.848668	79.903132	7.848816	79.90352	RWX3+GCC, Mahakumbukkadawala, Sri Lanka	0.045813		පුත්තලම	මහකුඹුක්කඩවල	මහකුඹුක්කඩවල විද්‍යාලය	புத்தளம்	மகாகும்புகடவாலா	மகாகும்புகடவாலா வித்யாலயா	ආර්ඩබ්ලිව්එක්ස් 3+ජීසීසී, මහකුඹුක්කඩවල, ශ්‍රී ලංකාව	RWX3+GCC, மகாகும்புகடவாலா, இலங்கை
Kandy	Kandy	Mobile Medical Team	False	False	KNDYKNDYMBLMDCLTM		Kandy	LK-21	7.27337	80.709602	Kandy	PS-210101	7.292948	80.642368					#CenterLocationUnknown	මහනුවර	මහනුවර	ජංගම වෛද්‍ය කණ්ඩායම	கண்டி	கண்டி	மொபைல் மருத்துவ குழு		
Kandy	Hatharaliyadda	Hatharaliyadda Maha Vidyalaya	False	False	KNDYHTHRLYDDHTHRLYDDMHVDYLY		Kandy	LK-21	7.27337	80.709602	Hatharaliyadda	PS-210106	7.336886	80.471814	7.33578	80.471154	Hatharaliyadda, Sri Lanka	0.142952		මහනුවර	හතරලියද්ද	හතරලියද්ද මහා විද්‍යාලය	கண்டி	ஹதரலியத்த	ஹதரலியத்த மகா வித்தியாலயம்	හතරලියද්ද, ශ්‍රී ලංකාව	ஹதரலியத்த, இலங்கை
Kandy	Wattegama	Madawala Madina Vidyalaya	False	False	KNDYWTTGMMDWLMDNVDYLY		Kandy	LK-21	7.27337	80.709602	Wattegama	PS-210357	7.350603	80.68335	7.327038	80.668348	Katugastota - Madawala - Bambarella Rd, Jambugahapitiya, Sri Lanka	3.099896		මහනුවර	වත්තේගම	මඩවල මදීනා විද්‍යාලය	கண்டி	வட்டேகம	மடவாலா மதினா வித்யாலயா	කටුගස්තොට - මඩවල - බඹරැල්ල පාර, ජම්බුගහපිටිය, ශ්‍රී ලංකාව	கட்டுகஸ்தோட்டா - மடவாலா - பம்பரெல்லா சாலை, ஜம்புகாபிட்டிய, இலங்கை
Kandy	Wattegama	Paranagama Maha Vidyalaya	False	False	KNDYWTTGMPRNGMMHVDYLY		Kandy	LK-21	7.27337	80.709602	Wattegama	PS-210357	7.350603	80.68335	7.351534	80.682953	Pitiyagedera - Wattegama - Iriyagastenne Rd, Wattegama, Sri Lanka	0.112435		මහනුවර	වත්තේගම	පරණගම මහා විද්‍යාලය	கண்டி	வட்டேகம	பரணகம மகா வித்தியாலயம்	පිටියගෙදර - වත්තේගම - ඊරියගස්තැන්න පාර, වත්තේගම, ශ්‍රී ලංකාව	பிட்டியகெடெரா - வட்டேகம - இரியாகஸ்டென் சாலை, வட்டேகம, இலங்கை
Kandy	Wattegama	Wattegama Balika Vidyalaya	False	False	KNDYWTTGMWTTGMBLKVDYLY		Kandy	LK-21	7.27337	80.709602	Wattegama	PS-210357	7.350603	80.68335	7.351534	80.682953	Pitiyagedera - Wattegama - Iriyagastenne Rd, Wattegama, Sri Lanka	0.112435		මහනුවර	වත්තේගම	වත්තේගම බාලිකා විද්‍යාලය	கண்டி	வட்டேகம	வட்டேகம பாலிகா வித்தியாலயம்	පිටියගෙදර - වත්තේගම - ඊරියගස්තැන්න පාර, වත්තේගම, ශ්‍රී ලංකාව	பிட்டியகெடெரா - வட்டேகம - இரியாகஸ்டென் சாலை, வட்டேகம, இலங்கை
Kandy	Katugastota	St. Anthony's College	False	False	KNDYKTGSTTSTNTHNYSCLLG		Kandy	LK-21	7.27337	80.709602	Katugastota	PS-210103	7.332014	80.623006	7.31563	80.624014	548 Peradeniya - Halloluwa - Katugastota Rd, Katugastota, Sri Lanka	1.825779		මහනුවර	කටුගස්තොට	ශාන්ත අන්තෝනි විද්‍යාලය	கண்டி	கட்டுகஸ்தோட்டா	செயின்ட் அந்தோணி கல்லூரி	548 පේරාදෙණිය - හල්ලොළුව - කටුගස්තොට පාර, කටුගස්තොට, ශ්‍රී ලංකාව	548 பேராதெனிய - ஹல்லோலுவ - கட்டுகஸ்தோட்டா சாலை, கட்டுகஸ்தோட்டா, இலங்கை
Kandy	Katugastota	Gohagoda Dharmavijaya Vidyalaya	False	False	KNDYKTGSTTGHGDDHRMVJYVDYLY		Kandy	LK-21	7.27337	80.709602	Katugastota	PS-210103	7.332014	80.623006	7.305057	80.618816	Gohagoda, Katugastota, Sri Lanka	3.033846		මහනුවර	කටුගස්තොට	ගොහාගොඩ ධර්මවිජය විද්‍යාලය	கண்டி	கட்டுகஸ்தோட்டா	கோஹகொட தர்மவிஜய வித்யாலயா	ගොහාගොඩ, කටුගස්තොට, ශ්‍රී ලංකාව	கோஹகொட, கட்டுகஸ்தோட்டா, இலங்கை
Kandy	Udadumbara	Medamahanuwara Central College	False	False	KNDYDDMBRMDMHNWRCNTRLCLLG		Kandy	LK-21	7.27337	80.709602	Ududumbara	PS-210358	7.318133	80.8791	7.286062	80.813902	A26, Medamahanuwara, Sri Lanka	8.029113		මහනුවර	උඩදුම්බර	මැදමහනුවර මධ්‍ය විද්‍යාලය	கண்டி	உடதும்பரா	மேடமஹனுவரா மத்திய கல்லூரி	ඒ 26, මැදමහනුවර, ශ්‍රී ලංකාව	A26, மேடமஹனுவரா, இலங்கை
Kandy	Galagedara	Galagedara Sujatha Balika Vidyalaya	False	False	KNDYGLGDRGLGDRSJTHBLKVDYLY		Kandy	LK-21	7.27337	80.709602	Galagedara	PS-210105	7.373683	80.526154	7.372389	80.518839	B122, Galagedara, Sri Lanka	0.819655		මහනුවර	ගලගෙදර	ගලගෙදර සුජාතා බාලිකා විද්‍යාලය	கண்டி	கலகெதரா	கலகெதர சுஜாதா பாலிகா வித்யாலயா	බී 122, ගලගෙදර, ශ්‍රී ලංකාව	பி 122, கலகெதரா, இலங்கை
Kandy	Alawatugoda	Akurana Zahira College	False	False	KNDYLWTGDKRNZHRCLLG		Kandy	LK-21	7.27337	80.709602	Alawathugoda	PS-210113	7.38828	80.618824	7.37133	80.609801	Akurana, Kandy, Sri Lanka, Kasawattha Road, Akurana, Sri Lanka	2.131942		මහනුවර	අලවතුගොඩ	අකුරණ සහිරා විද්‍යාලය	கண்டி	அலவத்துகொட	அக்குரானா ஸாஹிரா கல்லூரி	අකුරණ, මහනුවර, ශ්‍රී ලංකාව, කසාවත්ත පාර, අකුරණ, ශ්‍රී ලංකාව	அக்குரானா, கண்டி, இலங்கை, கசாவத்த சாலை, அக்குரானா, இலங்கை
Kandy	Alawatugoda	Dunuwila Rathnapala Vidyalaya	False	False	KNDYLWTGDDNWLRTHNPLVDYLY		Kandy	LK-21	7.27337	80.709602	Alawathugoda	PS-210113	7.38828	80.618824	7.409661	80.609795	Alawatugoda, Sri Lanka	2.578321		මහනුවර	අලවතුගොඩ	දුනුවිල රත්නපාල විද්‍යාලය	கண்டி	அலவத்துகொட	துனுவில ரத்னபால வித்தியாலயம்	අලවතුගොඩ, ශ්‍රී ලංකාව	அலவத்துகொட, இலங்கை
Kandy	Panwila	Panwila Rajasingha Vidyalaya	False	False	KNDYPNWLPNWLRJSNGHVDYLY		Kandy	LK-21	7.27337	80.709602	Panwila	PS-210361	7.362355	80.713731	7.35866	80.708571	Kudugala-Wattegama Rd, Panwila 20830, Sri Lanka	0.702085		මහනුවර	පන්විල	පන්විල රාජසිංහ විද්‍යාලය	கண்டி	பன்விலா	பன்வில ராஜசிங்க வித்யாலயா	කුඩුගල-වත්තේගම පාර, පන්විල 20830, ශ්‍රී ලංකාව	குடுகல-வட்டேகம சாலை, பன்விலா 20830, இலங்கை
Kandy	Nawalapitiya	Westhall Tamil School	False	False	KNDYNWLPTYWSTHLLTMLSCHL		Kandy	LK-21	7.27337	80.709602	Nawalapitiya	PS-210219	7.057355	80.536075	7.003823	80.572917	2H3F+G5F, Sri Lanka	7.21081		මහනුවර	නාවලපිටිය	වෙස්ට්හෝල් දෙමළ පාසල	கண்டி	நாவலப்பிட்டி	வெஸ்ட்ஹால் தமிழ் பள்ளி	2H3F+G5F, ශ්‍රී ලංකාව	2H3F+G5F, இலங்கை
Kandy	Gampola	Wickramabahu National College	False	False	KNDYGMPLWCKRMBHNTNLCLLG		Kandy	LK-21	7.27337	80.709602	Gampola	PS-210216	7.132941	80.56799	7.153925	80.563839	Nawalapitiya Road, Gampola 20500, Sri Lanka, Sri Lanka	2.378605		මහනුවර	ගම්පොල	වික්‍රමබාහු ජාතික විද්‍යාලය	கண்டி	கம்போலா	விக்கிரமபாகு தேசிய கல்லூரி	නාවලපිටිය පාර, ගම්පොල 20500, ශ්‍රී ලංකාව, ශ්‍රී ලංකාව	நாவலப்பிட்டி சாலை, கம்போலா 20500, இலங்கை, இலங்கை
Kandy	Gampola	National Heritage Centre	False	False	KNDYGMPLNTNLHRTGCNTR		Kandy	LK-21	7.27337	80.709602	Gampola	PS-210216	7.132941	80.56799	7.162374	80.574165	Hindagala-Naranwita-Gampola Rd, Gampola, Sri Lanka	3.344009		මහනුවර	ගම්පොල	ජාතික උරුම මධ්‍යස්ථානය	கண்டி	கம்போலா	தேசிய பாரம்பரிய மையம்	හිඳගල-නාරංවිට-ගම්පොල පාර, ගම්පොල, ශ්‍රී ලංකාව	ஹிந்தகலா-நரன்விட்ட-கம்போலா சாலை, கம்போலா, இலங்கை
Kandy	Pussellawa	Town Hall – Pussellawa	False	False	KNDYPSSLLWTWNHLLPSSLLW		Kandy	LK-21	7.27337	80.709602	Pussellawa	PS-210217	7.115334	80.635553	7.106515	80.636264	Peradeniya - Badulla - Chenkaladi Hwy, Pussellawa, Sri Lanka	0.98407		මහනුවර	පුස්සැල්ලාව	නගර ශාලාව - පුස්සැල්ලාව	கண்டி	புசெல்லவா	டவுன் ஹால் - புஸ்ஸல்லாவ	පේරාදෙණිය - බදුල්ල - චෙන්කලාඩි හ්වි, පුස්සැල්ලාව, ශ්‍රී ලංකාව	பேராதனை - பதுளை - செங்கலடி ஹ்வி, புஸ்ஸல்லவா, இலங்கை
Kandy	Nawa Kurunduwatta	Kurunduwatta Royal College	False	False	KNDYNWKRNDWTTKRNDWTTRYLCLLG		Kandy	LK-21	7.27337	80.709602	Nawa Kurunduwatta	PS-210218	7.126357	80.530286	7.130783	80.533673	Gampola, Kurunduwaththa Rd, kurunduwaththa 20509, Sri Lanka	0.618148		මහනුවර	නව කුරුඳුවත්ත	කුරුඳුවත්ත රාජකීය විද්‍යාලය	கண்டி	நவ குருந்துவத்த	குருந்துவத்த ராயல் கல்லூரி	ගම්පොල, කුරුඳුවත්ත පාර, කුරුඳුවත්ත 20509, ශ්‍රී ලංකාව	கம்போலா, குருந்துவத்த வீதி, குருந்துவத்த 20509, இலங்கை
Kandy	Nawa Kurunduwatta	Udagama Saranapala Vidyalaya	False	False	KNDYNWKRNDWTTDGMSRNPLVDYLY		Kandy	LK-21	7.27337	80.709602	Nawa Kurunduwatta	PS-210218	7.126357	80.530286	7.122536	80.566502	Udagama, Ulapane, Kandy Rd, Sri Lanka	4.019729		මහනුවර	නව කුරුඳුවත්ත	උඩගම සරණපාල විද්‍යාලය	கண்டி	நவ குருந்துவத்த	உடகம சரணபால வித்தியாலயம்	උඩගම, උලපනේ, මහනුවර පාර, ශ්‍රී ලංකාව	உதகம, உலபனே, கண்டி வீதி, இலங்கை
Kandy	Nawa Kurunduwatta	Ulapane Rathnawali Vidyalaya	False	False	KNDYNWKRNDWTTLPNRTHNWLVDYLY		Kandy	LK-21	7.27337	80.709602	Nawa Kurunduwatta	PS-210218	7.126357	80.530286	7.126357	80.530286	Kurunduwaththa Rd, Sri Lanka	0.0		මහනුවර	නව කුරුඳුවත්ත	උලපනේ රත්නාවලී විද්‍යාලය	கண்டி	நவ குருந்துவத்த	உலாபனே ரத்னாவலி வித்யாலயா	කුරුඳුවත්ත පාර, ශ්‍රී ලංකාව	குருந்துவத்த சாலை, இலங்கை
Kandy	Nawa Kurunduwatta	Cray Head Tamil College	False	False	KNDYNWKRNDWTTCRYHDTMLCLLG		Kandy	LK-21	7.27337	80.709602	Nawa Kurunduwatta	PS-210218	7.126357	80.530286	7.126357	80.530286	Kurunduwaththa Rd, Sri Lanka	0.0		මහනුවර	නව කුරුඳුවත්ත	ක්‍රේ හෙඩ් දෙමළ විද්‍යාලය	கண்டி	நவ குருந்துவத்த	க்ரே ஹெட் தமிழ் கல்லூரி	කුරුඳුවත්ත පාර, ශ්‍රී ලංකාව	குருந்துவத்த சாலை, இலங்கை
Nuwara Eliya	Nuwara Eliya	Mobile Medical Team	False	False	NWRLYNWRLYMBLMDCLTM		Nuwara Eliya	LK-23	6.97423	80.711222	Nuwaraeliya	PS-230131	6.974148	80.767627					#CenterLocationUnknown	නුවරඑලිය	නුවරඑලිය	ජංගම වෛද්‍ය කණ්ඩායම	நுவரெலியா	நுவரெலியா	மொபைல் மருத்துவ குழு		
Nuwara Eliya	Hanguranketa	Diyathilaka Centarl College	False	False	NWRLYHNGRNKTDYTHLKCNTRLCLLG		Nuwara Eliya	LK-23	6.97423	80.711222	Hanguranketha	PS-210108	7.176511	80.777388	7.180385	80.771148	B413, Hanguranketa, Sri Lanka	0.812339		නුවරඑලිය	හඟුරන්කැට	දියතිලක සෙන්ටර්ල් විද්‍යාලය	நுவரெலியா	ஹங்குரன்கெட்டா	தியதிலக மைய கல்லூரி	බී 413, හඟුරන්කෙටා, ශ්‍රී ලංකාව	பி 413, ஹங்குரன்கெட்டா, இலங்கை
Nuwara Eliya	Walapane	Walapane Hospital	False	False	NWRLYWLPNWLPNHSPTL		Nuwara Eliya	LK-23	6.97423	80.711222	Walapone	PS-230141	7.093348	80.862513	7.102424	80.858882	Tennekumbura - Rikillagaskada - Ragala, Walapane, Sri Lanka	1.086167		නුවරඑලිය	වලපනේ	වලපනේ රෝහල	நுவரெலியா	வலப்பனே	வலப்பனே மருத்துவமனை	තෙන්නකුඹුර - රිකිල්ලගස්කඩ - රාගල, වලපනේ, ශ්‍රී ලංකාව	தென்னேகும்புரா - ரிகிலகஸ்கட - ராகலா, வலப்பனே, இலங்கை
Nuwara Eliya	Walapane	Batapola Pussellawa Vidyalaya	False	False	NWRLYWLPNBTPLPSSLLWVDYLY		Nuwara Eliya	LK-23	6.97423	80.711222	Walapone	PS-230141	7.093348	80.862513	6.973742	80.768537	Old Uda Pussellawa Rd, Nuwara Eliya 22200, Sri Lanka	16.870548		නුවරඑලිය	වලපනේ	බටපොල පුස්සැල්ලාව විද්‍යාලය	நுவரெலியா	வலப்பனே	படபொல புஸ்ஸல்லாவ வித்தியாலயம்	පැරණි උඩ පුස්සැල්ලාව පාර, නුවරඑළිය 22200, ශ්‍රී ලංකාව	பழைய உட புசெல்லவா சாலை, நுவரெலியா 22200, இலங்கை
Matale	Mathale	Mobile Medical Team	False	False	MTLMTHLMBLMDCLTM		Matale	LK-22	7.667587	80.731008	Matale	PS-220121	7.462789	80.626211					#CenterLocationUnknown	මාතලේ	මාතලේ	ජංගම වෛද්‍ය කණ්ඩායම	மாத்தளை	மாத்தலே	மொபைல் மருத்துவ குழு		
Badulla	Badulla	Mobile Medical Team	False	False	BDLLBDLLMBLMDCLTM		Badulla	LK-81	7.074529	81.04486	Badulla	PS-810101	6.991337	81.055246					#CenterLocationUnknown	බදුල්ල	බදුල්ල	ජංගම වෛද්‍ය කණ්ඩායම	பதுளை	பதுளை	மொபைல் மருத்துவ குழு		
Badulla	Uva Paranagama	Uva Paranagama Hospital	False	False	BDLLVPRNGMVPRNGMHSPTL	Divisional Hospital - Uva Paranagama	Badulla	LK-81	7.074529	81.04486	Uvaparanagama	PS-810213	6.958341	80.930364	6.938076	80.890525	Rendapola-Galahagama-Ambagasdowa Rd, Himbiliyagahamadiththa, Sri Lanka	4.942648		බදුල්ල	Vaව පරණගම	ප්‍රාදේශීය රෝහල - vaව පරණගම	பதுளை	ஊவ பரணகம	பிரதேச மருத்துவமனை - ஊவா பரணகம	රෙන්ඳපොල-ගලහගම-අඹගස්දෝව පාර, හිම්බිලියගහමදිත්ත, ශ්‍රී ලංකාව	ரெண்டபொல-கலஹகம-அம்பகஸ்தோவ வீதி, ஹிம்பிலியகஹமாதித்த, இலங்கை
Badulla	Bandarawela	MOH Office - Bandarawela	False	False	BDLLBNDRWLMHFFCBNDRWL		Badulla	LK-81	7.074529	81.04486	Bandarawela	PS-810210	6.831526	80.986784	6.841272	80.98482	Hospital Junction Helamuduna Bus Stop, Etampitiya Rd, Bandarawela, Sri Lanka	1.105533		බදුල්ල	බණ්ඩාරවෙල	MOH කාර්යාලය - බණ්ඩාරවෙල	பதுளை	பண்டாரவளை	MOH அலுவலகம் - பண்டாரவளை	රෝහල් හන්දිය හෙළමුදුන බස් නැවතුම, ඇටම්පිටිය පාර, බණ්ඩාරවෙල, ශ්‍රී ලංකාව	மருத்துவமனை சந்திப்பு ஹெலமுதுனா பேருந்து நிறுத்தம், இடம்பிட்டிய சாலை, பண்டாரவளை, இலங்கை
Badulla	Welimada	MOH Office – Welimada	False	False	BDLLWLMDMHFFCWLMD		Badulla	LK-81	7.074529	81.04486	Welimada	PS-810212	6.900481	80.905809	6.927934	80.896475	Udapussellawa-Welimada Road, Ambagasdowa, Sri Lanka	3.222841		බදුල්ල	වැලිමඞ	MOH කාර්යාලය - වැලිමඩ	பதுளை	வெலிமடா	MOH அலுவலகம் - வெலிமடை	උඩපුස්සැල්ලාව-වැලිමඩ පාර, අඹගස්දෝව, ශ්‍රී ලංකාව	உடபுசெல்லவா-வெலிமட சாலை, அம்பகஸ்தோவா, இலங்கை
Badulla	Haputale	Diyatalawa Base Hospital	False	False	BDLLHPTLDYTLWBSHSPTL		Badulla	LK-81	7.074529	81.04486	Haputale	PS-810215	6.767653	80.957218	6.80555	80.956366	12 Fair Rd, Diyatalawa, Sri Lanka	4.216327		බදුල්ල	හපුතලේ	දියතලාව මූලික රෝහල	பதுளை	ஹப்புதலே	தியத்தலாவா அடிப்படை மருத்துவமனை	12 සාධාරණ පාර, දියතලාව, ශ්‍රී ලංකාව	12 சிகப்பு சாலை, தியத்தலாவா, இலங்கை
Moneragala	Monaragala	Mobile Medical Team	False	False	MNRGLMNRGLMBLMDCLTM		Moneragala	LK-82	6.787517	81.303744	Monaragala	PS-820121	6.869866	81.348106					#CenterLocationUnknown	මොණරාගල	මොනරාගල	ජංගම වෛද්‍ය කණ්ඩායම	மொனராகலை	மொனராகலை	மொபைல் மருத்துவ குழு		
Galle	Galle	Mobile Medical Team	False	False	GLLGLLMBLMDCLTM		Galle	LK-31	6.222805	80.251977	Galle	PS-310120	6.032983	80.21714					#CenterLocationUnknown	ගාල්ල	ගාල්ල	ජංගම වෛද්‍ය කණ්ඩායම	காலி	காலி	மொபைல் மருத்துவ குழு		
Galle	Habaraduwa	Unawatuna Maha Vidyalaya	False	False	GLLHBRDWNWTNMHVDYLY		Galle	LK-31	6.222805	80.251977	Habaraduwa	PS-310127	5.9871	80.327098	6.020558	80.249382	Maharamba Rd, Unawatuna, Sri Lanka	9.367862		ගාල්ල	හබරාදුව	උණවටුන මහා විද්‍යාලය	காலி	ஹபராடுவா	உனவடுனா மகா வித்தியாலயம்	මහරම්බ පාර, උණවටුන, ශ්‍රී ලංකාව	மகரம்பா சாலை, உனவடுனா, இலங்கை
Galle	Elpitiya	Ganegoda Maha Vidyalaya	False	False	GLLLPTYGNGDMHVDYLY		Galle	LK-31	6.222805	80.251977	Elpitiya	PS-310235	6.279163	80.142917	6.313479	80.163267	Avittava - Elpitiya Rd, 80440, Sri Lanka	4.430704		ගාල්ල	ඇල්පිටිය	ගනේගොඩ මහා විද්‍යාලය	காலி	எல்பிட்டிய	கணேகொட மகா வித்தியாலயம்	අවිත්තාව - ඇල්පිටිය පාර, 80440, ශ්‍රී ලංකාව	அவிட்டவா - எல்பிட்டிய சாலை, 80440, இலங்கை
Galle	Elpitiya	Vaihena Vidyavashanthi Pirivena Viharaya	False	False	GLLLPTYVHNVDYVSHNTHPRVNVHRY		Galle	LK-31	6.222805	80.251977	Elpitiya	PS-310235	6.279163	80.142917	6.288903	80.165387	75Q8+H56, Elpitiya, Sri Lanka	2.710266		ගාල්ල	ඇල්පිටිය	වෛහේන විද්‍යාවශාන්ති පිරිවෙන් විහාරය	காலி	எல்பிட்டிய	வைஹேன வித்யாவசாந்தி பிரிவேன விஹாராயா	75Q8+H56, ඇල්පිටිය, ශ්‍රී ලංකාව	75Q8+H56, எல்பிட்டிய, இலங்கை
Galle	Akmeemana	Manawila Upananda Vidyalaya	False	False	GLLKMMNMNWLPNNDVDYLY		Galle	LK-31	6.222805	80.251977	Akmeemana	PS-310123	6.073453	80.276627	6.063186	80.263601	Manawila, Galle, Sri Lanka	1.838464		ගාල්ල	අක්මීමන	මානවිල උපනන්ද විද්‍යාලය	காலி	அக்மீமானா	மணவில உபானந்தா வித்தியாலயம்	මානවිල, ගාල්ල, ශ්‍රී ලංකාව	மணவில, காலி, இலங்கை
Galle	Hikkaduwa	Thiranagama International Buddhist Centre	False	False	GLLHKKDWTHRNGMNTRNTNLBDDHSTCNTR		Galle	LK-31	6.222805	80.251977	Hikkaduwa	PS-310122	6.145115	80.099693	6.119512	80.118489	'Malima' Palakatiyawatta Thiranagama, Hikkaduwa 80240, Sri Lanka	3.525778		ගාල්ල	හික්කඩුව	තිරාණගම ජාත්‍යන්තර බෞද්ධ මධ්‍යස්ථානය	காலி	ஹிக்கடுவா	திரணகம சர்வதேச புத்த மையம்	'මලිමා' පලාකතියවත්ත තිරාණගම, හික්කඩුව 80240, ශ්‍රී ලංකාව	'மலிமா' பலகட்டியவத்த திரணகம, ஹிக்கடுவா 80240, இலங்கை
Galle	Ambalangoda	Powatta Agbodhi Viharaya	False	False	GLLMBLNGDPWTTGBDHVHRY		Galle	LK-31	6.222805	80.251977	Ambalangoda	PS-310243	6.244958	80.047598	6.245269	80.057509	Dhirakkanda Buddhist Temple, Dhirakkanda Mawatha, Kaluwadumulla, Ambalangada., Ambalangoda 80300, Sri Lanka	1.096403		ගාල්ල	අම්බලන්ගොඩ	පවුඅත්ත අග්බෝධි විහාරය	காலி	அம்பலங்கொட	போவத்த அக்போதி விஹாராயா	ධිරාක්කන්ද බෞද්ධ විහාරය, ධිරාක්කන්ද මාවත, කළුවාඩුමුල්ල, අම්බලන්ගොඩ., අම්බලන්ගොඩ 80300, ශ්‍රී ලංකාව	திரக்கந்த புத்த கோவில், திரக்கந்த மாவத்தை, களுவாடுமுல்ல, அம்பலங்கடா., அம்பலங்கொட 80300, இலங்கை
Matara	Matara	Mobile Medical Team	False	False	MTRMTRMBLMDCLTM		Matara	LK-32	6.142734	80.539994	Matara	PS-320101	5.94904	80.533659					#CenterLocationUnknown	මාතර	මාතර	ජංගම වෛද්‍ය කණ්ඩායම	மாத்தறை	மாத்தறை	மொபைல் மருத்துவ குழு		
Matara	Matara	Ilma Vidyalaya	False	False	MTRMTRLMVDYLY		Matara	LK-32	6.142734	80.539994	Matara	PS-320101	5.94904	80.533659	5.945678	80.554636	Ilma College, Matara, Matara, Sri Lanka	2.350646		මාතර	මාතර	ඉල්මා විද්‍යාලය	மாத்தறை	மாத்தறை	இல்மா வித்யாலயா	ඉල්මා විද්‍යාලය, මාතර, මාතර, ශ්‍රී ලංකාව	இல்மா கல்லூரி, மாத்தறை, மாத்தறை, இலங்கை
Matara	Matara	Parawahera Veluwanaramaya	False	False	MTRMTRPRWHRVLWNRMY		Matara	LK-32	6.142734	80.539994	Matara	PS-320101	5.94904	80.533659	5.969413	80.617133	Parawahera Rd, Kekanadura, Sri Lanka	9.508598		මාතර	මාතර	පරවාහැර වේළුවනාරාමය	மாத்தறை	மாத்தறை	பரவாஹெரா வேலுவனாராமாயா	පරවාහැර පාර, කැකණදුර, ශ්‍රී ලංකාව	பரவாஹெரா சாலை, கேகனதுரா, இலங்கை
Matara	Malimbada	Kirimetimulla Sri Wardhanaramaya	False	False	MTRMLMBDKRMTMLLSRWRDHNRMY		Matara	LK-32	6.142734	80.539994	Malimbada	PS-320117	6.010503	80.517438	6.056356	80.509189	Akuressa - Malimbada Rd, Sri Lanka	5.1812		මාතර	මාලිම්බඩ	කිරිමැටිමුල්ල ශ්‍රී වර්ධනාරාමය	மாத்தறை	மாலிம்படா	கிரிமிதிமுல்ல ஸ்ரீ வர்தனாராமையா	අකුරැස්ස - මාලිම්බඩ පාර, ශ්‍රී ලංකාව	அகுரஸ்ஸா - மாலிம்படா சாலை, இலங்கை
Matara	Malimbada	Dampella Maha Vidyalaya	False	False	MTRMLMBDDMPLLMHVDYLY		Matara	LK-32	6.142734	80.539994	Malimbada	PS-320117	6.010503	80.517438	6.04717	80.502418	Dampella maha vidyalaya Dampella, Sri Lanka	4.403888		මාතර	මාලිම්බඩ	දම්පැල්ල මහා විද්‍යාලය	மாத்தறை	மாலிம்படா	டம்பெல்லா மகா வித்தியாலயம்	දම්පැල්ල මහා විද්‍යාලය දම්පැල්ල, ශ්‍රී ලංකාව	டம்பெல்லா மஹா வித்யாலயா டம்பெல்லா, இலங்கை
Matara	Malimbada	Malimbada Maha College	False	False	MTRMLMBDMLMBDMHCLLG		Matara	LK-32	6.142734	80.539994	Malimbada	PS-320117	6.010503	80.517438	6.00944	80.51813	Malimbada, Matara 81000, Sri Lanka	0.140853		මාතර	මාලිම්බඩ	මාලිම්බඩ මහා විද්‍යාලය	மாத்தறை	மாலிம்படா	மாலிம்படா மகா கல்லூரி	මාලිම්බඩ, මාතර 81000, ශ්‍රී ලංකාව	மாலிம்படா, மாத்தாரா 81000, இலங்கை
Matara	Kotawila	Sultanagoda Gunaratana Vivekarama Viharaya	False	False	MTRKTWLSLTNGDGNRTNVVKRMVHRY		Matara	LK-32	6.142734	80.539994	Kotawila	PS-320115	5.967553	80.493921	5.953038	80.575286	Weherahena Rd, Matara, Sri Lanka	9.144936		මාතර	කොටවිල	සුල්තානාගොඩ ගුණරතන විවේකාරාම විහාරය	மாத்தறை	கொட்டாவில	சுல்தானகொட குணரதன விவேகாராம விஹாராயா	වෙහෙරහේන පාර, මාතර, ශ්‍රී ලංකාව	வெஹெரஹேனா வீதி, மாத்தறை, இலங்கை
Matara	Kotawila	Akuregoda Nagarukkaramaya	False	False	MTRKTWLKRGDNGRKKRMY		Matara	LK-32	6.142734	80.539994	Kotawila	PS-320115	5.967553	80.493921	6.893724	79.948649	Akuregoda, Sri Jayawardenepura Kotte, Sri Lanka	119.35215	#CenterFarFromPolice	මාතර	කොටවිල	අකුරේගොඩ නාගරුක්කාරාමය	மாத்தறை	கொட்டாவில	அகுரேகொட நகருக்கராமையா	අකුරේගොඩ, ශ්‍රී ජයවර්ධනපුර කෝට්ටේ, ශ්‍රී ලංකාව	அகுரேகொட, ஸ்ரீ ஜெயவர்தனபுர கோட்டே, இலங்கை
Matara	Akuressa	Thepuldeniya Sri Bodhiraja Viharaya	False	False	MTRKRSSTHPLDNYSRBDHRJVHRY		Matara	LK-32	6.142734	80.539994	Akuressa	PS-320112	6.099044	80.4776	6.050673	80.458957	Thepudeniya, Kananke, Sri Lanka	5.761901		මාතර	අකුරැස්ස	තෙපුල්දෙණිය ශ්‍රී බෝධිරාජ විහාරය	மாத்தறை	அக்குரஸ்ஸா	தெபுல்தெனிய ஸ்ரீ போதிராஜா விஹாராயா	තෙපුදෙනිය, කනංකේ, ශ්‍රී ලංකාව	தெபுதெனியா, கனங்கே, இலங்கை
Matara	Akuressa	Maramba Sewa Piyasa	False	False	MTRKRSSMRMBSWPYS		Matara	LK-32	6.142734	80.539994	Akuressa	PS-320112	6.099044	80.4776	6.127018	80.493368	4FGV+R85, Matara, Sri Lanka	3.566915		මාතර	අකුරැස්ස	මාරඹ සේවා පියස	மாத்தறை	அக்குரஸ்ஸா	மரம்ப சேவா பியாச	4FGV+R85, මාතර, ශ්‍රී ලංකාව	4FGV+R85, மாத்தறை, இலங்கை
Hambantota	Hambantota	Mobile Medical Team	False	False	HMBNTTHMBNTTMBLMDCLTM		Hambantota	LK-33	6.259779	81.098619	Hambantota	PS-330156	6.125872	81.12521					#CenterLocationUnknown	හම්බන්තොට	හම්බන්තොට	ජංගම වෛද්‍ය කණ්ඩායම	அம்பாந்தோட்டை	அம்பாந்தோட்டை	மொபைல் மருத்துவ குழு		
Hambantota	Tissamaharama	Beralihela Maha Vidyalaya	False	False	HMBNTTTSSMHRMBRLHLMHVDYLY		Hambantota	LK-33	6.259779	81.098619	Tissamaharamaya	PS-330158	6.26109	81.236724	6.334298	81.286427	Tissamaharama, Beralihela Rd, Beralihela, Sri Lanka	9.823599		හම්බන්තොට	තිස්සමහාරාම	බෙරලිහෙල මහා විද්‍යාලය	அம்பாந்தோட்டை	திஸ்ஸமஹாராம	பெரலிஹெல மகா வித்தியாலயம்	තිස්සමහාරාම, බෙරලිහෙල පාර, බෙරලිහෙල, ශ්‍රී ලංකාව	திஸ்ஸமஹாராமா, பெரலிஹெலா சாலை, பெரலிஹெலா, இலங்கை
Hambantota	Lunugamvehera	Lunugamvehera Hospital	False	False	HMBNTTLNGMVHRLNGMVHRHSPTL		Hambantota	LK-33	6.259779	81.098619	Lunugamwehera	PS-330160	6.341544	81.202699	6.34652	81.196527	85WW+JJ2, Hambantota, Sri Lanka	0.878568		හම්බන්තොට	ලුණුගම්වෙහෙර	ලුණුගම්වෙහෙර රෝහල	அம்பாந்தோட்டை	லுனுகம்வெஹெரா	லுனுகம்வெஹெரா மருத்துவமனை	85WW+JJ2, හම්බන්තොට, ශ්‍රී ලංකාව	85WW+JJ2, ஹம்பாந்தோட்டை, இலங்கை
Hambantota	Lunugamvehera	Ranawarnawa Primary School	False	False	HMBNTTLNGMVHRRNWRNWPRMRYSCHL		Hambantota	LK-33	6.259779	81.098619	Lunugamwehera	PS-330160	6.341544	81.202699	6.34061	81.203129	86R3+67R, Hambantota, Sri Lanka	0.114248		හම්බන්තොට	ලුණුගම්වෙහෙර	රණවර්ණව ප්‍රාථමික විද්‍යාලය	அம்பாந்தோட்டை	லுனுகம்வெஹெரா	ரணவர்ணாவா ஆரம்பப் பள்ளி	86 ආර් 3+67 ආර්, හම්බන්තොට, ශ්‍රී ලංකාව	86R3+67R, ஹம்பாந்தோட்டை, இலங்கை
Hambantota	Tangalle	MOH Office – Tangalle	False	False	HMBNTTTNGLLMHFFCTNGLL		Hambantota	LK-33	6.259779	81.098619	Tangalle	PS-330147	6.023954	80.797255	6.02363	80.795742	2QFW+F75, Tangalle, Sri Lanka	0.171198		හම්බන්තොට	තංගල්ල	MOH කාර්යාලය - තංගල්ල	அம்பாந்தோட்டை	தங்காலை	MOH அலுவலகம் - தங்காலை	2QFW+F75, තංගල්ල, ශ්‍රී ලංකාව	2QFW+F75, தங்காலை, இலங்கை
Hambantota	Katuwana	MOH Office – Katuwana	False	False	HMBNTTKTWNMHFFCKTWN		Hambantota	LK-33	6.259779	81.098619	Katuwana	PS-330153	6.269722	80.690963	6.26627	80.693035	7M8V+G63, Katuwana, Sri Lanka	0.447115		හම්බන්තොට	කටුවන	MOH කාර්යාලය - කටුවන	அம்பாந்தோட்டை	கட்டுவானா	MOH அலுவலகம் - கட்டுவானா	7 එම් 8 වී+ජී 63, කටුවන, ශ්‍රී ලංකාව	7M8V+G63, கட்டுவானா, இலங்கை
Hambantota	Agunukolapelessa	MOH Office - Agunukolapelessa	False	False	HMBNTTGNKLPLSSMHFFCGNKLPLSS		Hambantota	LK-33	6.259779	81.098619	Angunakolapelessa	PS-330150	6.321993	80.844883	6.164691	80.898963	Unnamed Road, Agunukolapelessa, Sri Lanka	18.490258		හම්බන්තොට	අගුණුකොලපැලැස්ස	MOH කාර්යාලය - අගුණුකොලපැලැස්ස	அம்பாந்தோட்டை	அகுணுகோலாபெலெஸ்ஸா	MOH அலுவலகம் - அகுணுகோலபெலஸ்ஸா	නම් නොකළ පාර, අගුණුකොලපැලැස්ස, ශ්‍රී ලංකාව	பெயரிடப்படாத சாலை, அகுனுகோலபெலஸ்ஸா, இலங்கை
Hambantota	Sooriyawewa	Weliwewa Vidyalaya	False	False	HMBNTTSRYWWWLWWVDYLY		Hambantota	LK-33	6.259779	81.098619	Sooriyawewa	PS-330155	6.306022	81.003873	6.340181	81.020679	82RC+37F, Hambantota, Sri Lanka	4.229396		හම්බන්තොට	සූරියවැව	වැලිවැව විද්‍යාලය	அம்பாந்தோட்டை	சூரியவெவ	வெலிவெவ வித்தியாலயம்	82RC+37 එෆ්, හම්බන්තොට, ශ්‍රී ලංකාව	82RC+37F, ஹம்பாந்தோட்டை, இலங்கை
Hambantota	Sooriyawewa	Ranmuthuwewa Vidyalaya	False	False	HMBNTTSRYWWRNMTHWWVDYLY		Hambantota	LK-33	6.259779	81.098619	Sooriyawewa	PS-330155	6.306022	81.003873	6.07308	80.704144	Hakmana - Beliatte - Tangalle Rd, Sri Lanka	42.070026	#CenterFarFromPolice	හම්බන්තොට	සූරියවැව	රන්මුතුවැව විද්‍යාලය	அம்பாந்தோட்டை	சூரியவெவ	ரண்முத்துவெவ வித்யாலயா	හක්මන - බෙලිඅත්තේ - තංගල්ල පාර, ශ්‍රී ලංකාව	ஹக்மனா - பெலியாட்டே - தங்காலை சாலை, இலங்கை
Hambantota	Beliatta	MOH Office – Beliatta	False	False	HMBNTTBLTTMHFFCBLTT		Hambantota	LK-33	6.259779	81.098619	Beliatta	PS-330152	6.046936	80.735408	6.051828	80.741735	3P2R+PMQ, Hambantota, Sri Lanka	0.886482		හම්බන්තොට	බෙලිඅත්ත	MOH කාර්යාලය - බෙලිඅත්ත	அம்பாந்தோட்டை	பெலியாட்டா	MOH அலுவலகம் - பெலியாட்ட	3P2R+PMQ, හම්බන්තොට, ශ්‍රී ලංකාව	3P2R+PMQ, ஹம்பாந்தோட்டை, இலங்கை
Rathnapura	Pinnawala	Naluwela Viharaya	False	False	RTHNPRPNNWLNLWLVHRY		Ratnapura	LK-91	6.586826	80.566158	Pinnawala	PS-910115	7.299943	80.386604	6.677689	80.718117	MPH9+36H, Ratnapura, Sri Lanka	78.294483	#CenterFarFromPolice	රත්නපුර	පින්නවල	නළුවෙල විහාරය	இரத்தினபுரி	பின்னாவாலா	நாலுவேல விஹாராயா	MPH9+36H, රත්නපුර, ශ්‍රී ලංකාව	MPH9+36H, இரத்தினபுரி, இலங்கை
Rathnapura	Kolonna	Kella Maha Vidyalaya	False	False	RTHNPRKLNNKLLMHVDYLY		Ratnapura	LK-91	6.586826	80.566158	Kolonna	PS-910235	6.40194	80.687615	6.365273	80.699386	9M8X+4Q2, Kaella, Sri Lanka	4.280994		රත්නපුර	කොළොන්න	කෑල්ල මහා විද්‍යාලය	இரத்தினபுரி	கொலோன்னா	கெல்லா மகா வித்தியாலயம்	9M8X+4Q2, කයෙලා, ශ්‍රී ලංකාව	9M8X+4Q2, காயெல்லா, இலங்கை
Rathnapura	Nivithigala	Mobile Vaccination	False	False	RTHNPRNVTHGLMBLVCCNTN		Ratnapura	LK-91	6.586826	80.566158	Nivithigala	PS-910111	6.592765	80.459492					#CenterLocationUnknown	රත්නපුර	නිවිතිගල	ජංගම එන්නත	இரத்தினபுரி	நிவித்திகலா	மொபைல் தடுப்பூசி		
Rathnapura	Rathnapura	MOH Office - Rathnapura	False	False	RTHNPRRTHNPRMHFFCRTHNPR		Ratnapura	LK-91	6.586826	80.566158	Ratnapura	PS-910101	6.679456	80.40223	6.687915	80.393434	M9QV+597, Ratnapura, Sri Lanka	1.352603		රත්නපුර	රත්නපුර	MOH කාර්යාලය - රත්නපුර	இரத்தினபுரி	இரத்தினபுரி	MOH அலுவலகம் - இரத்தினபுரி	M9QV+597, රත්නපුර, ශ්‍රී ලංකාව	M9QV+597, இரத்தினபுரி, இலங்கை
Rathnapura	Rathnapura	Mobile Vaccination	False	False	RTHNPRRTHNPRMBLVCCNTN		Ratnapura	LK-91	6.586826	80.566158	Ratnapura	PS-910101	6.679456	80.40223					#CenterLocationUnknown	රත්නපුර	රත්නපුර	ජංගම එන්නත	இரத்தினபுரி	இரத்தினபுரி	மொபைல் தடுப்பூசி		
Rathnapura	Ayagama	MOH Office – Ayagama	False	False	RTHNPRYGMMHFFCYGM		Ratnapura	LK-91	6.586826	80.566158	Ayagama	PS-910109	6.637727	80.312554	6.634742	80.314759	J8M7+VWR, Ayagama, Sri Lanka	0.411811		රත්නපුර	අයගම	MOH කාර්යාලය - අයගම	இரத்தினபுரி	அயகம	MOH அலுவலகம் - அயகம	J8M7+VWR, අයගම, ශ්‍රී ලංකාව	J8M7+VWR, அயகாமா, இலங்கை
Kegalle	Warakapola	MOH Office - Warakapola	False	False	KGLLWRKPLMHFFCWRKPL		Kegalle	LK-92	7.104216	80.342866	Wrakapola	PS-920119	7.227488	80.199696	7.226501	80.197818	65GX+J44, Warakapola, Sri Lanka	0.234514		කෑගල්ල	වරකාපොල	MOH කාර්යාලය - වරකාපොල	கேகாலை	வாரகபொல	MOH அலுவலகம் - வாரகபொல	65GX+J44, වරකාපොල, ශ්‍රී ලංකාව	65GX+J44, வராகபொல, இலங்கை
Kegalle	Mawanella	Aluthnuwara Medical Clinic	False	False	KGLLMWNLLLTHNWRMDCLCLNC		Kegalle	LK-92	7.104216	80.342866	Mawanella	PS-920122	7.256966	80.445912	7.249469	80.455696	A1, Mawanella, Sri Lanka	1.364123		කෑගල්ල	මාවනැල්ල	අලුත්නුවර වෛද්‍ය සායනය	கேகாலை	மாவனெல்லா	அளுத்துவாரா மருத்துவ மருத்துவமனை	ඒ 1, මාවනැල්ල, ශ්‍රී ලංකාව	A1, மாவனெல்லா, இலங்கை
Kegalle	Kegalle	MOH Office – Kegalle	False	False	KGLLKGLLMHFFCKGLL		Kegalle	LK-92	7.104216	80.342866	Kegalle	PS-920118	7.255928	80.353156	7.24797	80.343583	Kegalle-Bulathkohupitiya-Karawanella Hwy, Kegalle, Sri Lanka	1.378052		කෑගල්ල	කෑගල්ල	MOH කාර්යාලය - කෑගල්ල	கேகாலை	கேகாலை	MOH அலுவலகம் - கேகாலை	කෑගල්ල-බුලත්කොහුපිටිය-කරවනැල්ල හ්වි, කෑගල්ල, ශ්‍රී ලංකාව	கேகாலை-புலத்கோஹுபிட்டிய-கரவனெல்லா ஹ்வி, கேகாலை, இலங்கை
Kegalle	Bulathkohupitiya	MOH Office - Bulathkohupitiya	False	False	KGLLBLTHKHPTYMHFFCBLTHKHPTY		Kegalle	LK-92	7.104216	80.342866	Bulathkohupitiya	PS-920232	7.106684	80.3347	7.109127	80.334565	485M+MR4, Bulathkohupitiya, Sri Lanka	0.272143		කෑගල්ල	බුලත්කොහුපිටිය	MOH කාර්යාලය - බුලත්කොහුපිටිය	கேகாலை	புலத்கோஹுபிடியா	MOH அலுவலகம் - புலத்கோஹுபிட்டிய	485 එම්+එම්ආර් 4, බුලත්කොහුපිටිය, ශ්‍රී ලංකාව	485M+MR4, புலத்கோஹுபிட்டிய, இலங்கை
Kegalle	Puwakpitiya	Puwakpitiya Tamail College	False	False	KGLLPWKPTYPWKPTYTMLCLLG		Kegalle	LK-92	7.104216	80.342866	Puwakpitiya		6.936275	80.193714	6.941689	80.198194	Farnham Division Rd, Avissawella, Sri Lanka	0.779314		කෑගල්ල	පුවක්පිටිය	පුවක්පිටිය තමෙයිල් විද්‍යාලය	கேகாலை	புவக்பிட்டிய	புவக்பிட்டிய தமைல் கல்லூரி	ෆර්න්හැම් අංශය පාර, අවිස්සාවේල්ල, ශ්‍රී ලංකාව	ஃபார்ன்ஹாம் டிவிஷன் ஆர்ட், அவிசாவல்லா, இலங்கை
Kegalle	Avissawella	MOH Office – Dehiowita	False	False	KGLLVSSWLLMHFFCDHWT		Kegalle	LK-92	7.104216	80.342866	Awissawella	PS-920226	6.947538	80.215422	6.963895	80.264191	X777+HM4, Talduwa, Sri Lanka	5.683709		කෑගල්ල	අවිස්සාවේල්ල	MOH කාර්යාලය - දෙහිඕවිට	கேகாலை	அவிசாவெல்லா	MOH அலுவலகம் - Dehiowita	X777+එච්එම් 4, තල්දූව, ශ්‍රී ලංකාව	X777+HM4, தல்துவா, இலங்கை
Anuradhapura	Anuradhapura	Army Hospital Anuradhapura	False	False	NRDHPRNRDHPRRMYHSPTLNRDHPR		Anuradhapura	LK-71	8.39199	80.512958	Anuradapura	PS-710101	8.329752	80.407265	8.338302	80.407646	AB02, Anuradhapura, Sri Lanka	0.951939		අනුරාධපුර	අනුරාධපුර	අනුරාධපුර හමුදා රෝහල	அனுராதபுரம்	அனுராதபுரம்	அனுராதபுரம் இராணுவ மருத்துவமனை	ඒබී 02, අනුරාධපුර, ශ්‍රී ලංකාව	ஏபி 02, அனுராதபுரம், இலங்கை
Anuradhapura	Anuradhapura	62 DIV	False	False	NRDHPRNRDHPRDV		Anuradhapura	LK-71	8.39199	80.512958	Anuradapura	PS-710101	8.329752	80.407265	8.311352	80.403651	Anuradhapura, Sri Lanka	2.084922		අනුරාධපුර	අනුරාධපුර	62 DIV	அனுராதபுரம்	அனுராதபுரம்	62 DIV	අනුරාධපුර, ශ්‍රී ලංකාව	அனுராதபுரம், இலங்கை
Anuradhapura	Anuradhapura	Pothahenagama Vidyalaya	False	False	NRDHPRNRDHPRPTHHNGMVDYLY		Anuradhapura	LK-71	8.39199	80.512958	Anuradapura	PS-710101	8.329752	80.407265	8.32659	80.375949	89GG+J9P, Anuradhapura, Sri Lanka	3.46444		අනුරාධපුර	අනුරාධපුර	පොතාහේනගම විද්‍යාලය	அனுராதபுரம்	அனுராதபுரம்	பொதஹெனகம வித்தியாலயம்	89GG+J9P, අනුරාධපුර, ශ්‍රී ලංකාව	89GG+J9P, அனுராதபுரம், இலங்கை
Anuradhapura	Mihintale	Mihintale Base Hospital	False	False	NRDHPRMHNTLMHNTLBSHSPTL		Anuradhapura	LK-71	8.39199	80.512958	Mihintale	PS-710104	8.360062	80.511889	8.35505	80.509287	Kandy Rd, Mihintale, Sri Lanka	0.626724		අනුරාධපුර	මිහින්තලය	මිහින්තලේ මූලික රෝහල	அனுராதபுரம்	மிஹிந்தலை	மிஹிந்தலை அடிப்படை மருத்துவமனை	මහනුවර පාර, මිහින්තලය, ශ්‍රී ලංකාව	கண்டி வீதி, மிஹிந்தலை, இலங்கை
Anuradhapura	Mahawilachchiya	MOH Office - Mahawilachchiya	False	False	NRDHPRMHWLCHCHYMHFFCMHWLCHCHY		Anuradhapura	LK-71	8.39199	80.512958	Mahawilachchiya	PS-710120	8.484987	80.193911	8.494303	80.186519	F5VP+PJC, Mahawilachchiya, Sri Lanka	1.317298		අනුරාධපුර	මහවිලච්චිය	MOH කාර්යාලය - මහවිලච්චිය	அனுராதபுரம்	மகாவிலாச்சியா	MOH அலுவலகம் - மகாவிலாச்சியா	F5VP+PJC, මහවිලච්චිය, ශ්‍රී ලංකාව	F5VP+PJC, மகாவிலாச்சியா, இலங்கை
Anuradhapura	Elayapattuwa	Mahabulankulama Vidyalaya	False	False	NRDHPRLYPTTWMHBLNKLMVDYLY		Anuradhapura	LK-71	8.39199	80.512958									#PoliceLocationUnknown	අනුරාධපුර	ඇලයාපත්තුව	මහාබුලන්කුලම විද්‍යාලය	அனுராதபுரம்	எலயாபட்டுவா	மஹாபுலங்குலமா வித்தியாலயம்		
Anuradhapura	Galenbindunuwewa	MOH Office - Galenbindunuwewa	False	False	NRDHPRGLNBNDNWWMHFFCGLNBNDNWW		Anuradhapura	LK-71	8.39199	80.512958	Galenbidunuwewa	PS-710121	8.29037	80.71501	8.292134	80.717284	7PR8+VW3, Galenbindunuwewa, Sri Lanka	0.318033		අනුරාධපුර	ගලෙන්බිඳුණුවැව	MOH කාර්යාලය - ගලෙන්බිඳුණුවැව	அனுராதபுரம்	கலென்பிந்துனுவேவா	MOH அலுவலகம் - கலென்பிந்துனுவேவா	7PR8+VW3, ගලෙන්බිඳුණුවැව, ශ්‍රී ලංකාව	7PR8+VW3, கலென்பிந்துனுவேவா, இலங்கை
Jaffna	Jaffna	Mobile Medical Team	False	False	JFFNJFFNMBLMDCLTM		Jaffna	LK-41	9.691792	80.098594	Jaffna	PS-410209	9.659919	80.010965					#CenterLocationUnknown	යාපනය	යාපනය	ජංගම වෛද්‍ය කණ්ඩායම	யாழ்	யாழ்	மொபைல் மருத்துவ குழு		
Jaffna	Jaffna	Mobile Medical Team	False	False	JFFNJFFNMBLMDCLTM		Jaffna	LK-41	9.691792	80.098594	Jaffna	PS-410209	9.659919	80.010965					#CenterLocationUnknown	යාපනය	යාපනය	ජංගම වෛද්‍ය කණ්ඩායම	யாழ்	யாழ்	மொபைல் மருத்துவ குழு		
Jaffna	Kayts	MOH Office - Karainagar	False	False	JFFNKYTSMHFFCKRNGR		Jaffna	LK-41	9.691792	80.098594	Kayts	PS-410212	9.728654	79.94775	9.725097	79.99772	Sri Lanka, Manipay, Sri Lanka	5.492521		යාපනය	කයිට්ස්	MOH කාර්යාලය - කරෙයිනගර්	யாழ்	ஊர்காவற்துறையினர்	MOH அலுவலகம் - காரைநகர்	ශ්‍රී ලංකාව, මනිපායි, ශ්‍රී ලංකාව	இலங்கை, மானிப்பாய், இலங்கை
Jaffna	Wadukkotte	MOH Office - Chankanai	False	False	JFFNWDKKTTMHFFCCHNKN		Jaffna	LK-41	9.691792	80.098594	Vaddukoddai		9.728886	79.947771	9.753617	79.976004	QX3G+CCR, Sri Lanka	4.140836		යාපනය	වඩුක්කෝට්ටේ	MOH කාර්යාලය - චංකනායි	யாழ்	வட்டுக்கோட்டை	MOH அலுவலகம் - சங்கனை	QX3G+CCR, ශ්‍රී ලංකාව	QX3G+CCR, இலங்கை
Jaffna	Kodikamam	Varani Base Hospital	False	False	JFFNKDKMMVRNBSHSPTL		Jaffna	LK-41	9.691792	80.098594	Kodikamam	PS-410217	9.666459	80.132384	9.677952	80.236663	M6HP+5MM, Jaffna, Sri Lanka	11.505299		යාපනය	කොඩිකාමම්	වාරානි මූලික රෝහල	யாழ்	கொடிகாமம்	வரணி அடிப்படை மருத்துவமனை	M6HP+5MM, යාපනය, ශ්‍රී ලංකාව	M6HP+5MM, யாழ்ப்பாணம், இலங்கை
Jaffna	Chavakachcheri	Town Hall - Chavakachcheri	False	False	JFFNCHVKCHCHRTWNHLLCHVKCHCHR		Jaffna	LK-41	9.691792	80.098594	Chawakachcheri	PS-410215	9.666459	80.132384	9.659136	80.160946	M556+M94, Chavakachcheri, Sri Lanka	3.236063		යාපනය	චාවකච්චේරි	නගර ශාලාව - චාවකච්චේරි	யாழ்	சாவகச்சேரி	டவுன் ஹால் - சாவகச்சேரி	එම් 556+එම් 94, චාවකච්චේරි, ශ්‍රී ලංකාව	M556+M94, சாவகச்சேரி, இலங்கை
Kilinochchi	Kilinochchi	Mobile Medical Team	False	False	KLNCHCHKLNCHCHMBLMDCLTM		Kilinochchi	LK-45	9.415742	80.30358	Kilinochchi	PS-450131	9.392265	80.407846					#CenterLocationUnknown	කිලිනොච්චි	කිලිනොච්චි	ජංගම වෛද්‍ය කණ්ඩායම	கிளிநொச்சி	கிளிநொச்சி	மொபைல் மருத்துவ குழு		
Kilinochchi	Pooneryn	MOH Office - Pooneryn	False	False	KLNCHCHPNRYNMHFFCPNRYN		Kilinochchi	LK-45	9.415742	80.30358	Pooneryn		9.505717	80.21101	9.507968	80.208317	G655+58P, Pooneryn, Sri Lanka	0.387256		කිලිනොච්චි	පුනරීන්	MOH කාර්යාලය - පුනරීන්	கிளிநொச்சி	பூனெரின்	MOH அலுவலகம் - பூனெரின்	ජී 655+58 පී, පූනරීන්, ශ්‍රී ලංකාව	G655+58P, பூனெரின், இலங்கை
Mullaitivu	Mullaitivu	Mobile Medical Team	False	False	MLLTVMLLTVMBLMDCLTM		Mullaitivu	LK-44	9.167643	80.549091	Mullativu	PS-440148	9.212825	80.760159					#CenterLocationUnknown	මුලතිව්	මුලතිව්	ජංගම වෛද්‍ය කණ්ඩායම	முல்லைத்தீவு	முல்லைத்தீவு	மொபைல் மருத்துவ குழு		
Mullaitivu	Iyankulam	Mobile Vaccination	False	False	MLLTVYNKLMMBLVCCNTN		Mullaitivu	LK-44	9.167643	80.549091	Mankulam	PS-440147	9.124606	80.448404					#CenterLocationUnknown	මුලතිව්	අයන්කුලම්	ජංගම එන්නත	முல்லைத்தீவு	ஐயன்குளம்	மொபைல் தடுப்பூசி		
Mullaitivu	Mankulam	MOH Office - Mankulam	False	False	MLLTVMNKLMMHFFCMNKLM		Mullaitivu	LK-44	9.167643	80.549091	Mankulam	PS-440147	9.124606	80.448404	9.136526	80.307948	48P5+J58, Mallavi, Sri Lanka	15.481822		මුලතිව්	මාන්කුලම්	MOH කාර්යාලය - මාන්කුලම්	முல்லைத்தீவு	மாங்குளம்	MOH அலுவலகம் - மாங்குளம்	48 පී 5+ජේ 58, මල්ලාවි, ශ්‍රී ලංකාව	48P5+J58, மல்லாவி, இலங்கை
Mullaitivu	Oddusuddan	MOH Office - Oddusuddan	False	False	MLLTVDDSDDNMHFFCDDSDDN		Mullaitivu	LK-44	9.167643	80.549091	Oddusudan	PS-440151	9.160983	80.652821	9.162816	80.661584	5M76+4JG, Oddusuddan, Sri Lanka	0.983634		මුලතිව්	ඔඩ්ඩුසුඩාන්	MOH කාර්යාලය - ඔඩ්ඩුසුඩාන්	முல்லைத்தீவு	ஒட்டுசுட்டான்	MOH அலுவலகம் - ஒட்டுசுட்டான்	5 එම් 76+4 ජේජී, ඔඩ්ඩුසුඩාන්, ශ්‍රී ලංකාව	5M76+4JG, ஒட்டுசுட்டான், இலங்கை
Mullaitivu	Pudukudiruppu	MOH Office - Pudukudiruppu	False	False	MLLTVPDKDRPPMHFFCPDKDRPP		Mullaitivu	LK-44	9.167643	80.549091	Pudukuduiruppu	PS-440149	7.00152	79.95003	9.320965	80.683013	Parantan-Mullaitivu Hwy, Velikkandal, Sri Lanka	270.317914	#CenterFarFromPolice	මුලතිව්	පුදුකුඩිරුප්පු	එම්ඕඑච් කාර්යාලය - පුදුකුඩිරුප්පු	முல்லைத்தீவு	புதுக்குடியிருப்பு	MOH அலுவலகம் - புதுக்குடியிருப்பு	පරන්තන්-මුලතිව් හ්වි, වේලිකන්දල්, ශ්‍රී ලංකාව	பரந்தன்-முல்லைத்தீவு Hwy, வேலிக்கண்டல், இலங்கை
Mullaitivu	Mulliyawalai	PMCU - Mulliyawalai Neeravipiddy	False	False	MLLTVMLLYWLPMCMLLYWLNRVPDDY		Mullaitivu	LK-44	9.167643	80.549091	Muliyaweli	PS-440150	6.915266	79.87829	9.219215	80.764395	Mulliyawalai, Sri Lanka	274.216834	#CenterFarFromPolice	මුලතිව්	මුල්ලියාවලෙයි	PMCU - මුල්ලියවලෙයි නීරවිපිඩ්ඩි	முல்லைத்தீவு	முள்ளியவளை	PMCU - முள்ளியவளை நீராவிப்பிடி	මුල්ලියාවලෙයි, ශ්‍රී ලංකාව	முள்ளியவளை, இலங்கை
Mannar	Mannar	Mobile Medical Team	False	False	MNNRMNNRMBLMDCLTM		Mannar	LK-42	8.877429	80.088628	Mannar	PS-420138	8.978123	79.911642					#CenterLocationUnknown	මන්නාරම	මන්නාරම	ජංගම වෛද්‍ය කණ්ඩායම	மன்னார்	மன்னார்	மொபைல் மருத்துவ குழு		
Mannar	Murunkan	Murunkan Rural Health Service Offices	False	False	MNNRMRNKNMRNKNRRLHLTHSRVCFFCS		Mannar	LK-42	8.877429	80.088628	Murunkan	PS-420143	8.838186	80.038298	8.844353	80.02639	DIE's office, murunkan, Sri Lanka	1.477652		මන්නාරම	මුරුන්කන්	මුරුන්කන් ග්‍රාමීය සෞඛ්‍ය සේවා කාර්යාල	மன்னார்	முருங்கன்	முருங்கன் கிராம சுகாதார சேவை அலுவலகங்கள்	ඩීඅයිඊ කාර්යාලය, මුරුන්කන්, ශ්‍රී ලංකාව	DIE அலுவலகம், முருங்கன், இலங்கை
Mannar	Murunkan	Nanattan Hospital	False	False	MNNRMRNKNNNTTNHSPTL		Mannar	LK-42	8.877429	80.088628	Murunkan	PS-420143	8.838186	80.038298	8.834257	79.97851	Murunkan - Nanattan Rd, Sri Lanka	6.585797		මන්නාරම	මුරුන්කන්	නැනත්තන් රෝහල	மன்னார்	முருங்கன்	நானாட்டான் மருத்துவமனை	මුරුංකන් - නානාටන් පාර, ශ්‍රී ලංකාව	முருங்கன் - நானாட்டான் சாலை, இலங்கை
Mannar	Murunkan	Madukarai Clinic	False	False	MNNRMRNKNMDKRCLNC		Mannar	LK-42	8.877429	80.088628	Murunkan	PS-420143	8.838186	80.038298	8.836678	80.038164	Divisional Hospital Murunkan, Mannar, Sri Lanka	0.16838		මන්නාරම	මුරුන්කන්	මඩුකාරෙයි සායනය	மன்னார்	முருங்கன்	மதுக்கரை மருத்துவமனை	ප්‍රාදේශීය රෝහල මුරුන්කන්, මන්නාරම, ශ්‍රී ලංකාව	பிரிவு மருத்துவமனை முருங்கன், மன்னார், இலங்கை
Vavuniya	Vavuniya	Mobile Medical Team	False	False	VVNYVVNYMBLMDCLTM		Vavuniya	LK-43	8.852071	80.467404	Vavuniya	PS-430119	8.754431	80.498604					#CenterLocationUnknown	වවුනියාව	වවුනියාව	ජංගම වෛද්‍ය කණ්ඩායම	வவுனியா	வவுனியா	மொபைல் மருத்துவ குழு		
Trincomalee	Trincomalee	Mobile Medical Team	False	False	TRNCMLTRNCMLMBLMDCLTM		Trincomalee	LK-53	8.551241	81.092014	Trincomalee	PS-530130	8.563946	81.234023					#CenterLocationUnknown	ත්රිකුණාමලය	ත්රිකුණාමලය	ජංගම වෛද්‍ය කණ්ඩායම	திருகோணமலை	திருகோணமலை	மொபைல் மருத்துவ குழு		
Trincomalee	Muttur	MOH Office – Muttur	False	False	TRNCMLMTTRMHFFCMTTR		Trincomalee	LK-53	8.551241	81.092014	Mutur	PS-530138	8.461133	81.259371	8.453916	81.264494	1 Old Batticaloa Rd, Mutur, Sri Lanka	0.980859		ත්රිකුණාමලය	මුතූර්	MOH කාර්යාලය - මුතූර්	திருகோணமலை	மூதூர்	MOH அலுவலகம் - மூதூர்	1 පරණ මඩකලපුව පාර, මුතූර්, ශ්‍රී ලංකාව	1 பழைய மட்டக்களப்பு வீதி, மூதூர், இலங்கை
Trincomalee	Kinniya	MOH Office - Kuruggankeni	False	False	TRNCMLKNNYMHFFCKRGGNKN		Trincomalee	LK-53	8.551241	81.092014	Kinnia	PS-530140	6.907289	79.863819	8.498696	81.179644	F5XH+FVC, Kinniya 31100, Sri Lanka	228.840304	#CenterFarFromPolice	ත්රිකුණාමලය	කින්නියා	MOH කාර්යාලය - කුරුගන්කේනි	திருகோணமலை	கிண்ணியா	MOH அலுவலகம் - குருக்கன்கேணி	F5XH+FVC, කින්නියා 31100, ශ්‍රී ලංකාව	F5XH+FVC, கிண்ணியா 31100, இலங்கை
Trincomalee	Kinniya	MOH Office – Kinniya	False	False	TRNCMLKNNYMHFFCKNNY		Trincomalee	LK-53	8.551241	81.092014	Kinnia	PS-530140	6.907289	79.863819	8.498696	81.179644	F5XH+FVC, Kinniya 31100, Sri Lanka	228.840304	#CenterFarFromPolice	ත්රිකුණාමලය	කින්නියා	MOH කාර්යාලය - කින්නියා	திருகோணமலை	கிண்ணியா	MOH அலுவலகம் - கிண்ணியா	F5XH+FVC, කින්නියා 31100, ශ්‍රී ලංකාව	F5XH+FVC, கிண்ணியா 31100, இலங்கை
Trincomalee	Sripura	MOH Office – Sripura	False	False	TRNCMLSRPRMHFFCSRPR		Trincomalee	LK-53	8.551241	81.092014	Sripura	PS-530136	8.929617	80.81428	8.926697	80.814799	Padavi Sripura, Padaviya - Sripura Road, Welioya, Sri Lanka	0.329869		ත්රිකුණාමලය	ශ්‍රීපුර	MOH කාර්යාලය - ශ්‍රීපුර	திருகோணமலை	ஸ்ரீபுரா	MOH அலுவலகம் - ஸ்ரீபுரா	පදවි ශ්‍රීපුර, පදවිය - ශ්‍රීපුර පාර, වැලිඔය, ශ්‍රී ලංකාව	படவி ஸ்ரீபுரா, படாவியா - ஸ்ரீபுரா சாலை, வெலிஓயா, இலங்கை
Trincomalee	Kuchchaveli	MOH Office - Kuchchaveli	False	False	TRNCMLKCHCHVLMHFFCKCHCHVL		Trincomalee	LK-53	8.551241	81.092014	Kuchchaweli	PS-530133	8.81895	81.100438	8.740082	81.161616	P5R6+2JQ, Kumpurupiddi, Sri Lanka	11.053646		ත්රිකුණාමලය	කුච්චවේලි	MOH කාර්යාලය - කුච්චවේලි	திருகோணமலை	குச்சவெளி	MOH அலுவலகம் - குச்சவெளி	P5R6+2JQ, කුඹුරුපිඩි, ශ්‍රී ලංකාව	P5R6+2JQ, கும்புறுப்பிடி, இலங்கை
Trincomalee	Kuchchaveli	Divisional Hospital - Kuchchaveli	False	False	TRNCMLKCHCHVLDVSNLHSPTLKCHCHVL		Trincomalee	LK-53	8.551241	81.092014	Kuchchaweli	PS-530133	8.81895	81.100438	8.814795	81.102358	R472+WW9, Kuchchaveli, Sri Lanka	0.508064		ත්රිකුණාමලය	කුච්චවේලි	ප්‍රාදේශීය රෝහල - කුච්චවේලි	திருகோணமலை	குச்சவெளி	பிரதேச மருத்துவமனை - குச்சவெளி	ආර් 472+WW9, කුච්චවේලි, ශ්‍රී ලංකාව	R472+WW9, குச்சவெளி, இலங்கை
Trincomalee	Kuchchaveli	Divisional Hospital - Nilaveli	False	False	TRNCMLKCHCHVLDVSNLHSPTLNLVL		Trincomalee	LK-53	8.551241	81.092014	Kuchchaweli	PS-530133	8.81895	81.100438	8.681035	81.193632	M5JV+CF6, Nilaveli, Sri Lanka	18.44695		ත්රිකුණාමලය	කුච්චවේලි	ප්‍රාදේශීය රෝහල - නිලාවේලි	திருகோணமலை	குச்சவெளி	பிரதேச மருத்துவமனை - நிலாவெளி	M5JV+CF6, නිලාවේලි, ශ්‍රී ලංකාව	M5JV+CF6, நிலவேலி, இலங்கை
Trincomalee	Kantale	MOH Office – Kantale	False	False	TRNCMLKNTLMHFFCKNTL		Trincomalee	LK-53	8.551241	81.092014	Kantale	PS-530241	8.356129	81.007739	8.349617	81.009107	අග්‍රබෝධි මාවත, Kantale, Sri Lanka	0.739809		ත්රිකුණාමලය	කන්තලේ	MOH කාර්යාලය - කන්තලේ	திருகோணமலை	கந்தலே	MOH அலுவலகம் - கந்தலே	වැඩි දියුණු කිරීම මාවත, කන්තලේ, ශ්‍රී ලංකාව	தீவிரப்படுத்தி மாவத்த, கந்தலே, இலங்கை
Trincomalee	Pulmoddai	Pulmoddai Base Hospital	False	False	TRNCMLPLMDDPLMDDBSHSPTL	Base Hospital - Pulmoddai	Trincomalee	LK-53	8.551241	81.092014	Pulmudai	PS-530135	6.915266	79.87829	8.941204	80.983139	WXRM+F7J, Pulmoddai, Sri Lanka	256.112801	#CenterFarFromPolice	ත්රිකුණාමලය	පුල්මොඩෙයි	මූලික රෝහල - පුල්මොඩෙයි	திருகோணமலை	புல்மோட்டை	அடிப்படை மருத்துவமனை - புல்மோட்டை	ඩබ්ලිව්එක්ස්ආර්එම්+එෆ් 7 ජේ, පුල්මොඩෙයි, ශ්‍රී ලංකාව	WXRM+F7J, புல்மோடை, இலங்கை
Trincomalee	Serunuwara	MOH Office - Serunuwara	False	False	TRNCMLSRNWRMHFFCSRNWR		Trincomalee	LK-53	8.551241	81.092014	Serunuwara	PS-530244	8.321863	81.299322	8.323143	81.299894	B10, Sri Lanka	0.155671		ත්රිකුණාමලය	සේරුනුවර	MOH කාර්යාලය - සේරුනුවර	திருகோணமலை	சேருநுவரா	MOH அலுவலகம் - சேருநுவரா	බී 10, ශ්‍රී ලංකාව	பி 10, இலங்கை
Trincomalee	Harbour Police	MOH Office - Trincomalee	False	False	TRNCMLHRBRPLCMHFFCTRNCML		Trincomalee	LK-53	8.551241	81.092014	Trinco Harbour Police	PS-530131	8.56705	81.231407	8.598974	81.216963	MOH Office, Farm Rd, Trincomalee, Sri Lanka	3.890062		ත්රිකුණාමලය	වරාය පොලිසිය	එම්ඕඑච් කාර්යාලය - ත්‍රිකුණාමලය	திருகோணமலை	துறைமுக காவல்துறை	MOH அலுவலகம் - திருகோணமலை	එම්ඕඑච් කාර්යාලය, ගොවිපල පාර, ත්‍රිකුණාමලය, ශ්‍රී ලංකාව	MOH அலுவலகம், பண்ணை சாலை, திருகோணமலை, இலங்கை
Trincomalee	Uppuveli	MOH Office - Uppuveli	False	False	TRNCMLPPVLMHFFCPPVL		Trincomalee	LK-53	8.551241	81.092014	Uppuweli	PS-530134	8.593614	81.21743	8.607961	81.216512	Nilaveli Rd, Trincomalee, Sri Lanka	1.599005		ත්රිකුණාමලය	උප්පුවේලි	MOH කාර්යාලය - උප්පුවේලි	திருகோணமலை	உப்புவேலி	MOH அலுவலகம் - உப்புவேலி	නිලාවේලි පාර, ත්‍රිකුණාමලය, ශ්‍රී ලංකාව	நிலவேலி வீதி, திருகோணமலை, இலங்கை
Trincomalee	Ichchalampattu	MOH Office - Ichchalampattu	False	False	TRNCMLCHCHLMPTTMHFFCCHCHLMPTT		Trincomalee	LK-53	8.551241	81.092014	Ichchalampattu		8.289549	81.359002	6.788131	79.883651	Station Road, Rawathawaththa, Moratuwa, Lunawa Station Rd, Moratuwa 10400, Sri Lanka	233.14046	#CenterFarFromPolice	ත්රිකුණාමලය	ඉච්චලම්පත්තු	MOH කාර්යාලය - ඉච්චලම්පත්තු	திருகோணமலை	இச்சலம்பட்டு	MOH அலுவலகம் - ஈச்சலாம்பட்டு	ස්ටේෂන් පාර, රාවාවත්ත, මොරටුව, ලූනාව දුම්රිය ස්ථානය, මොරටුව 10400, ශ්‍රී ලංකාව	ஸ்டேஷன் சாலை, ரவதவத்த, மொரட்டுவா, லுனாவா ஸ்டேஷன் சாலை, மொரட்டுவா 10400, இலங்கை
Trincomalee	Thambalagamuwa	MOH Office - Thambalagamuwa	False	False	TRNCMLTHMBLGMWMHFFCTHMBLGMW		Trincomalee	LK-53	8.551241	81.092014	Thambalagamuva	PS-530243	6.907289	79.863819	8.563603	81.239584	Hospital Ln, Trincomalee, Sri Lanka	238.604889	#CenterFarFromPolice	ත්රිකුණාමලය	තඹලගමුව	MOH කාර්යාලය - තඹලගමුව	திருகோணமலை	தம்பலகாமுவா	MOH அலுவலகம் - தம்பலகமுவ	රෝහල, ත්‍රිකුණාමලය, ශ්‍රී ලංකාව	மருத்துவமனை Ln, திருகோணமலை, இலங்கை
Trincomalee	Gomarankadawala	MOH Office - Gomarankadawala	False	False	TRNCMLGMRNKDWLMHFFCGMRNKDWL		Trincomalee	LK-53	8.551241	81.092014	Gomarankadawala	PS-530248	8.674487	80.967555	8.674726	80.955691	Unnamed Road, Gomarankadawala, Sri Lanka	1.304806		ත්රිකුණාමලය	ගෝමරන්කඩවල	එම්ඕඑච් කාර්යාලය - ගෝමරන්කඩවල	திருகோணமலை	கோமரன்கடவாலா	MOH அலுவலகம் - கோமரன்கடவாலா	නම් නොකළ පාර, ගෝමරන්කඩවල, ශ්‍රී ලංකාව	பெயரிடப்படாத சாலை, கோமரன்கடவாலா, இலங்கை
Batticaloa	Batticaloa	Mobile Medical Team	False	False	BTTCLBTTCLMBLMDCLTM		Batticaloa	LK-51	7.792772	81.486513	Batticaloa	PS-510101	7.717949	81.699294					#CenterLocationUnknown	මඩකලපුව	මඩකලපුව	ජංගම වෛද්‍ය කණ්ඩායම	மட்டக்களப்பு	மட்டக்களப்பு	மொபைல் மருத்துவ குழு		
Batticaloa	Batticaloa	Methodist Vidyalaya	False	False	BTTCLBTTCLMTHDSTVDYLY		Batticaloa	LK-51	7.792772	81.486513	Batticaloa	PS-510101	7.717949	81.699294	7.711534	81.697756	PM6X+J46, Batticaloa, Sri Lanka	0.733401		මඩකලපුව	මඩකලපුව	මෙතෝදිස්ත විද්‍යාලය	மட்டக்களப்பு	மட்டக்களப்பு	மெதடிஸ்ட் வித்யாலயா	PM6X+J46, මඩකලපුව, ශ්‍රී ලංකාව	PM6X+J46, மட்டக்களப்பு, இலங்கை
Batticaloa	Batticaloa	YMCA Hall	False	False	BTTCLBTTCLYMCHLL		Batticaloa	LK-51	7.792772	81.486513	Batticaloa	PS-510101	7.717949	81.699294	7.719116	81.695091	Boundary Rd S, Batticaloa, Sri Lanka	0.481105		මඩකලපුව	මඩකලපුව	YMCA ශාලාව	மட்டக்களப்பு	மட்டக்களப்பு	ஒய்எம்சிஏ ஹால்	මායිම් පාර, එස්, මඩකලපුව, ශ්‍රී ලංකාව	எல்லை Rd S, மட்டக்களப்பு, இலங்கை
Batticaloa	Batticaloa	Arasadi Pillayar	False	False	BTTCLBTTCLRSDPLLYR		Batticaloa	LK-51	7.792772	81.486513	Batticaloa	PS-510101	7.717949	81.699294	7.717285	81.699849	Trinco Rd, Batticaloa, Sri Lanka	0.095901		මඩකලපුව	මඩකලපුව	අරසාදි පිල්ලෙයාර්	மட்டக்களப்பு	மட்டக்களப்பு	அரசடி பிள்ளையார்	ත්‍රිකුණාමල පාර, මඩකලපුව, ශ්‍රී ලංකාව	டிரின்கோ ஆர்ட், மட்டக்களப்பு, இலங்கை
Batticaloa	Batticaloa	Pudunagar Wigneswara Vidyalaya	False	False	BTTCLBTTCLPDNGRWGNSWRVDYLY		Batticaloa	LK-51	7.792772	81.486513	Batticaloa	PS-510101	7.717949	81.699294	7.720987	81.697673	PMCX+93V, Batticaloa, Sri Lanka	0.382244		මඩකලපුව	මඩකලපුව	පුදුනගර් විග්නේෂ්වර විද්‍යාලය	மட்டக்களப்பு	மட்டக்களப்பு	புதுநகர் விக்னேஸ்வரா வித்யாலயா	PMCX+93V, මඩකලපුව, ශ්‍රී ලංකාව	PMCX+93V, மட்டக்களப்பு, இலங்கை
Batticaloa	Kokkadichcholai	MOH Office - Pattipola	False	False	BTTCLKKKDCHCHLMHFFCPTTPL		Batticaloa	LK-51	7.792772	81.486513	Kokkadicholai	PS-510112	7.715979	81.698757	6.943236	80.777788	Blackpool-Ambewela-Pattipola-Horton Plain Rd, Nuwara Eliya, Sri Lanka	133.081143	#CenterFarFromPolice	මඩකලපුව	කොක්කඩිච්චෝලේ	MOH කාර්යාලය - පට්ටිපොල	மட்டக்களப்பு	கொக்கட்டிச்சோலை	MOH அலுவலகம் - பட்டிப்பொல	බ්ලැක්පූල්-අඹේවෙල-පට්ටිපොල-හෝර්ටන් තැන්න පාර, නුවරඑළිය, ශ්‍රී ලංකාව	பிளாக்பூல்-அம்பேவெல-பட்டிபொல-ஹார்டன் சமவெளி சாலை, நுவரெலியா, இலங்கை
Batticaloa	Vellawali	MOH Office - Vellawali	False	False	BTTCLVLLWLMHFFCVLLWL		Batticaloa	LK-51	7.792772	81.486513	Vellavali	PS-510111	6.907289	79.863819	7.290886	80.643784	No. 20000, 163 Sangaraja Mawatha, Kandy 20000, Sri Lanka	96.083396	#CenterFarFromPolice	මඩකලපුව	වෙල්ලවාලි	MOH කාර්යාලය - වෙල්ලවාලි	மட்டக்களப்பு	வெல்லவாலி	MOH அலுவலகம் - வெள்ளாவலி	අංක 20000, 163 සංඝරාජ මාවත, මහනුවර 20000, ශ්‍රී ලංකාව	எண் 20000, 163 சங்கராஜா மாவத்தை, கண்டி 20000, இலங்கை
Batticaloa	Kaluwanchikudy	MOH Office - Kaluwanchikudy	False	False	BTTCLKLWNCHKDYMHFFCKLWNCHKDY	Medical Officer of Health Kaluwanchikudy	Batticaloa	LK-51	7.792772	81.486513	Kalawanchikudy	PS-510110	7.515908	81.787051	7.509333	81.79204	Colombo - Batticaloa Hwy, Kaluwanchikudy, Sri Lanka	0.915167		මඩකලපුව	කළුවන්චිකුඩි	කළුවන්චිකුඩි සෞඛ්‍ය වෛද්‍ය නිලධාරී	மட்டக்களப்பு	களுவாஞ்சிக்குடி	சுகாதார மருத்துவ அதிகாரி களுவாஞ்சிக்குடி	කොළඹ - මඩකලපුව හ්වි, කලුවාංචිකුඩි, ශ්‍රී ලංකාව	கொழும்பு - மட்டக்களப்பு Hwy, களுவாஞ்சிக்குடி, இலங்கை
Batticaloa	Valachchenai	MOH Office - Valachchenai	False	False	BTTCLVLCHCHNMHFFCVLCHCHN		Batticaloa	LK-51	7.792772	81.486513	Valachchanai	PS-510107	7.908015	81.533004	7.912281	81.532775	WG6M+W46, Batticaloa, Sri Lanka	0.475177		මඩකලපුව	වාලච්චේන	MOH කාර්යාලය - වාලච්චේන	மட்டக்களப்பு	வாலாச்சேனை	MOH அலுவலகம் - வாலாச்சேனை	WG6M+W46, මඩකලපුව, ශ්‍රී ලංකාව	WG6M+W46, மட்டக்களப்பு, இலங்கை
Batticaloa	Valachchenai	Mobile Vaccination	False	False	BTTCLVLCHCHNMBLVCCNTN		Batticaloa	LK-51	7.792772	81.486513	Valachchanai	PS-510107	7.908015	81.533004					#CenterLocationUnknown	මඩකලපුව	වාලච්චේන	ජංගම එන්නත	மட்டக்களப்பு	வாலாச்சேனை	மொபைல் தடுப்பூசி		
Batticaloa	Valachchenai	Valachchenai Base Hospital	False	False	BTTCLVLCHCHNVLCHCHNBSHSPTL		Batticaloa	LK-51	7.792772	81.486513	Valachchanai	PS-510107	7.908015	81.533004	7.911315	81.533046	Valaichchenai-Nasuvantivu-Navaladi Road, Sri Lanka	0.367088		මඩකලපුව	වාලච්චේන	වාලච්චේන මූලික රෝහල	மட்டக்களப்பு	வாலாச்சேனை	வாலாச்சேனை ஆதார மருத்துவமனை	වාලච්චේනයි-නසුවන්ටිව්-නවාලාඩි පාර, ශ්‍රී ලංකාව	வாழைச்சேனை-நசுவந்திவு-நாவலடி சாலை, இலங்கை
Batticaloa	Vakarai	MOH Office - Vakarai	False	False	BTTCLVKRMHFFCVKR	Divisional Hospital Vakarai	Batticaloa	LK-51	7.792772	81.486513	Wakarai	PS-510109	6.934132	79.856305	8.134552	81.435328	Trincomalee Hwy, Vakarai, Sri Lanka	219.417822	#CenterFarFromPolice	මඩකලපුව	වාකරේ	වාකරේ ප්‍රාදේශීය රෝහල	மட்டக்களப்பு	வாகரை	வாகரை பிரதேச மருத்துவமனை	ත්‍රිකුණාමලය හ්වි, වාකරේ, ශ්‍රී ලංකාව	திருகோணமலை Hwy, வாகரை, இலங்கை
Batticaloa	Kattankudy	MOH Office - Kattankudy	False	False	BTTCLKTTNKDYMHFFCKTTNKDY		Batticaloa	LK-51	7.792772	81.486513	Kaththankudi	PS-510103	7.715979	81.698757	7.683586	81.730767	MPMJ+C8J, Kattankudy, Sri Lanka	5.042961		මඩකලපුව	කාත්තන්කුඩි	MOH කාර්යාලය - කාත්තන්කුඩි	மட்டக்களப்பு	காத்தான்குடி	MOH அலுவலகம் - காத்தான்குடி	එම්පීඑම්ජේ+සී 8 ජේ, කාත්තන්කුඩි, ශ්‍රී ලංකාව	MPMJ+C8J, காத்தான்குடி, இலங்கை
Batticaloa	Eravur	Eravur Hospital	False	False	BTTCLRVRRVRHSPTL		Batticaloa	LK-51	7.792772	81.486513	Eravur	PS-510104	7.715979	81.698757	7.783168	81.605999	QJM4+799, Eravur 30300, Sri Lanka	12.663585		මඩකලපුව	එරාවුර්	එරාවුර් රෝහල	மட்டக்களப்பு	ஏறாவூர்	ஏறாவூர் மருத்துவமனை	QJM4+799, එරාවුර් 30300, ශ්‍රී ලංකාව	QJM4+799, ஏறாவூர் 30300, இலங்கை
Batticaloa	Eravur	MOH Office – Eravur	False	False	BTTCLRVRMHFFCRVR		Batticaloa	LK-51	7.792772	81.486513	Eravur	PS-510104	7.715979	81.698757	7.783664	81.605626	QJM4+F76, Eravur, Sri Lanka	12.729342		මඩකලපුව	එරාවුර්	MOH කාර්යාලය - එරාවුර්	மட்டக்களப்பு	ஏறாவூர்	MOH அலுவலகம் - ஏறாவூர்	QJM4+F76, එරාවුර්, ශ්‍රී ලංකාව	QJM4+F76, ஏறாவூர், இலங்கை
Batticaloa	Eravur	MOH Office - Chenkaladi	False	False	BTTCLRVRMHFFCCHNKLD		Batticaloa	LK-51	7.792772	81.486513	Eravur	PS-510104	7.715979	81.698757	7.783599	81.593367	Trincomalee Hwy, Chenkaladi 30350, Sri Lanka	13.837876		මඩකලපුව	එරාවුර්	MOH කාර්යාලය - චෙන්කලාඩි	மட்டக்களப்பு	ஏறாவூர்	MOH அலுவலகம் - செங்கலடி	ත්‍රිකුණාමලය හ්වි, චෙන්කලාඩි 30350, ශ්‍රී ලංකාව	திருகோணமலை Hwy, செங்கலடி 30350, இலங்கை
Batticaloa	Eravur	Chenkaladi Hospital	False	False	BTTCLRVRCHNKLDHSPTL		Batticaloa	LK-51	7.792772	81.486513	Eravur	PS-510104	7.715979	81.698757	7.783546	81.589961	Batticaloa Rd, Chenkaladi, Sri Lanka	14.151406		මඩකලපුව	එරාවුර්	චෙන්කලාඩි රෝහල	மட்டக்களப்பு	ஏறாவூர்	செங்கலடி மருத்துவமனை	මඩකලපුව පාර, චෙන්කලාඩි, ශ්‍රී ලංකාව	மட்டக்களப்பு வீதி, செங்கலடி, இலங்கை
Batticaloa	Eravur	Mawadivembu Hospital	False	False	BTTCLRVRMWDVMBHSPTL		Batticaloa	LK-51	7.792772	81.486513	Eravur	PS-510104	7.715979	81.698757	7.911315	81.533046	Valaichchenai-Nasuvantivu-Navaladi Road, Sri Lanka	28.381861	#CenterFarFromPolice	මඩකලපුව	එරාවුර්	මාවඩිවෙම්බු රෝහල	மட்டக்களப்பு	ஏறாவூர்	மாவடிவேம்பு மருத்துவமனை	වාලච්චේනයි-නසුවන්ටිව්-නවාලාඩි පාර, ශ්‍රී ලංකාව	வாழைச்சேனை-நசுவந்திவு-நாவலடி சாலை, இலங்கை
Batticaloa	Eravur	Mobile Vaccination	False	False	BTTCLRVRMBLVCCNTN		Batticaloa	LK-51	7.792772	81.486513	Eravur	PS-510104	7.715979	81.698757					#CenterLocationUnknown	මඩකලපුව	එරාවුර්	ජංගම එන්නත	மட்டக்களப்பு	ஏறாவூர்	மொபைல் தடுப்பூசி		
Batticaloa	Vavunathivu	District Secretariat - Vavunathivu	False	False	BTTCLVVNTHVDSTRCTSCRTRTVVNTHV		Batticaloa	LK-51	7.792772	81.486513	Vavunathive	PS-510102	6.933075	79.857181	7.711424	81.702051	PP62+HR7, Batticaloa, Sri Lanka	221.17762	#CenterFarFromPolice	මඩකලපුව	වවුනතිව්	දිස්ත්රික් ලේකම් කාර්යාලය - වවුනතිව්	மட்டக்களப்பு	வவுணதீவு	மாவட்ட செயலகம் - வவுணதீவு	පීපී 62+එච්ආර් 7, මඩකලපුව, ශ්‍රී ලංකාව	PP62+HR7, மட்டக்களப்பு, இலங்கை
Batticaloa	Vavunathivu	Navatkadu Hospital	False	False	BTTCLVVNTHVNVTKDHSPTL		Batticaloa	LK-51	7.792772	81.486513	Vavunathive	PS-510102	6.933075	79.857181	7.713686	81.640546	Navatladu, Batticaloa, Sri Lanka	215.05111	#CenterFarFromPolice	මඩකලපුව	වවුනතිව්	නවත්කාඩු රෝහල	மட்டக்களப்பு	வவுணதீவு	நவட்காடு மருத்துவமனை	නාවට්ලාඩු, මඩකලපුව, ශ්‍රී ලංකාව	நவத்லாடு, மட்டக்களப்பு, இலங்கை
Batticaloa	Vavunathivu	Kayamaduwa Vidyalaya	False	False	BTTCLVVNTHVKYMDWVDYLY		Batticaloa	LK-51	7.792772	81.486513	Vavunathive	PS-510102	6.933075	79.857181	7.720143	81.700516	PPC2+362, Batticaloa, Sri Lanka	221.401617	#CenterFarFromPolice	මඩකලපුව	වවුනතිව්	කායමඩුව විද්‍යාලය	மட்டக்களப்பு	வவுணதீவு	கயமடுவ வித்யாலயா	පීපීසී 2+362, මඩකලපුව, ශ්‍රී ලංකාව	PPC2+362, மட்டக்களப்பு, இலங்கை
Batticaloa	Vavunathivu	Pavakkodichenai Vinayager Vidyalaya	False	False	BTTCLVVNTHVPVKKDCHNVNYGRVDYLY		Batticaloa	LK-51	7.792772	81.486513	Vavunathive	PS-510102	6.933075	79.857181	7.720547	81.70115	PPC2+6F6, Batticaloa, Sri Lanka	221.483543	#CenterFarFromPolice	මඩකලපුව	වවුනතිව්	පවක්කොඩිචේනායි විනායගර් විද්‍යාලය	மட்டக்களப்பு	வவுணதீவு	பவக்கொடிச்சேனை விநாயகர் வித்தியாலயம்	පීපීසී 2+6 එෆ් 6, මඩකලපුව, ශ්‍රී ලංකාව	PPC2+6F6, மட்டக்களப்பு, இலங்கை
Batticaloa	Vavunathivu	Mandapathadi Hospital	False	False	BTTCLVVNTHVMNDPTHDHSPTL		Batticaloa	LK-51	7.792772	81.486513	Vavunathive	PS-510102	6.933075	79.857181	7.719015	81.701193	91 Pioneer Rd, Batticaloa, Sri Lanka	221.420894	#CenterFarFromPolice	මඩකලපුව	වවුනතිව්	මණ්ඩපතාදි රෝහල	மட்டக்களப்பு	வவுணதீவு	மண்டபத்தடி மருத்துவமனை	91 පුරෝගාමී පාර, මඩකලපුව, ශ්‍රී ලංකාව	91 முன்னோடி சாலை, மட்டக்களப்பு, இலங்கை
Ampara	Chavalakade	MOH Office - Navidanveli	False	False	MPRCHVLKDMHFFCNVDNVL		Ampara	LK-52	7.23699	81.550391	Chawalakade	PS-520125	7.413559	81.776822	7.420081	81.788401	B77, Sri Lanka	1.468805		අම්පාර	චවලකඩේ	MOH කාර්යාලය - නාවිදන්වේලි	அம்பாறை	சவளகடே	MOH அலுவலகம் - நாவிதன்வெளி	බී 77, ශ්‍රී ලංකාව	பி 77, இலங்கை
Ampara	Karaitivu	MOH Office – Karaitivu	False	False	MPRKRTVMHFFCKRTV		Ampara	LK-52	7.23699	81.550391	Karaitivu		9.744059	79.870587	7.377712	81.838796	Colombo-Ratnapura-Wellawaya-Batticaloa Highway, Karativu 32250, Sri Lanka	340.788666	#CenterFarFromPolice	අම්පාර	කාරතිව්	MOH කාර්යාලය - කරෙයිතිව්	அம்பாறை	காரைதீவு	MOH அலுவலகம் - காரைதீவு	කොළඹ-රත්නපුර-වැල්ලවාය-මඩකලපුව අධිවේගී මාර්ගය, කරතිවු 32250, ශ්‍රී ලංකාව	கொழும்பு-இரத்தினபுரி-வெள்ளவாயா-மட்டக்களப்பு நெடுஞ்சாலை, காரடிவு 32250, இலங்கை
