district	police	center	dose1	dose2	fuzzy_key	alt_name	district_name_norm	district_id	district_lat	district_lng	ps_name_norm	ps_id	ps_lat	ps_lng	lat	lng	formatted_address	dis_center_to_police	tags	district_si	police_si	center_si	district_ta	police_ta	center_ta	formatted_address_si	formatted_address_ta
Colombo	Thalangama	Diyatha Uyana	False	False	CLMBTHLNGMDYTHYN		Colombo	LK-11	6.869636	80.019598	Thalangama	PS-110466	6.91089	79.929325	6.904575	79.909831	Diyatha Uyana, B240, Sri Jayawardenepura Kotte, Sri Lanka	2.264281		කොළඹ	තලංගම	දියත උයන	கொழும்பு	தலங்கம	தியாத உயனா	දියත උයන, බී 240, ශ්‍රී ජයවර්ධනපුර කෝට්ටේ, ශ්‍රී ලංකාව	தியாத உயனா, B240, ஸ்ரீ ஜெயவர்தனபுர கோட்டே, இலங்கை
Colombo	Thalangama	MOH Office - Battaramulla	False	False	CLMBTHLNGMMHFFCBTTRMLL		Colombo	LK-11	6.869636	80.019598	Thalangama	PS-110466	6.91089	79.929325	6.901538	79.919128	WW29+JM6, Battaramulla 10120, Sri Lanka	1.532936		කොළඹ	තලංගම	MOH කාර්යාලය - බත්තරමුල්ල	கொழும்பு	தலங்கம	MOH அலுவலகம் - பத்தரமுல்ல	WW29+JM6, බත්තරමුල්ල 10120, ශ්‍රී ලංකාව	WW29+JM6, பத்தரமுல்ல 10120, இலங்கை
Colombo	Narahenpita	Army Hospital - Narahenpita	False	False	CLMBNRHNPTRMYHSPTLNRHNPT		Colombo	LK-11	6.869636	80.019598	Narahenpita	PS-110321	6.891832	79.876715	6.900252	79.87618	08 Elvitigala Mawatha, Colombo 00800, Sri Lanka	0.938417		කොළඹ	නාරාහේන්පිට	යුද හමුදා රෝහල - නාරාහේන්පිට	கொழும்பு	நரஹேன்பிட்ட	இராணுவ மருத்துவமனை - நாரஹேன்பிட்ட	08 ඇල්විටිගල මාවත, කොළඹ 00800, ශ්‍රී ලංකාව	08 எல்விட்டிகல மாவத்தை, கொழும்பு 00800, இலங்கை
Colombo	Homagama	Panagoda Bodhirajarama Viharaya	False	False	CLMBHMGMPNGDBDHRJRMVHRY		Colombo	LK-11	6.869636	80.019598	Homagama	PS-110470	6.836155	80.003474	6.929161	79.88265	Gnanawimala Rd, Colombo, Sri Lanka	16.883101		කොළඹ	හෝමාගම	පනාගොඩ බෝධිරාජාරාම විහාරය	கொழும்பு	ஹோமாகம	பனகொட போதிராஜாராம விஹாராயா	ඥානවිමල පාර, කොළඹ, ශ්‍රී ලංකාව	ஞானவிமல வீதி, கொழும்பு, இலங்கை
Colombo	Borella	St. Luke's Church - Borella	False	False	CLMBBRLLSTLKSCHRCHBRLL		Colombo	LK-11	6.869636	80.019598	Borella	PS-110323	6.915266	79.87829	6.918035	79.874548	1091 Gnanartha Pradeepa Mawatha, Colombo 00800, Sri Lanka	0.515354		කොළඹ	බොරැල්ල	ශාන්ත ලූක් දේවස්ථානය - බොරැල්ල	கொழும்பு	பொரெல்லா	செயின்ட் லூக்கா தேவாலயம் - பொரெல்லா	1091 ඥානාර්ථ ප්‍රදීපා මාවත, කොළඹ 00800, ශ්‍රී ලංකාව	1091 ஞானார்த்த பிரதீப மாவத்தை, கொழும்பு 00800, இலங்கை
Colombo	Padukka	Halpe Nagadushmanarama Viharaya	False	False	CLMBPDKKHLPNGDSHMNRMVHRY		Colombo	LK-11	6.869636	80.019598	Padukka	PS-110473	6.842195	80.09247	6.858332	80.09737	No. 07, Meepe, Ingiriya Road, Padukka 10500, Sri Lanka	1.874713		කොළඹ	පාදුක්ක	හල්පේ නාගදුෂ්මනාරාම විහාරය	கொழும்பு	பாதுக்கா	ஹல்பே நாகதுஷ்மனராம விஹாராயா	අංක 07, මීපේ, ඉංගිරිය පාර, පාදුක්ක 10500, ශ්‍රී ලංකාව	எண் 07, மீபே, இங்கிரிய சாலை, பாதுக்கா 10500, இலங்கை
Colombo	Mirihana	MOH Office - Beddagana	False	False	CLMBMRHNMHFFCBDDGN		Colombo	LK-11	6.869636	80.019598	Mirihana	PS-110462	6.873714	79.901724	6.885731	79.908328	Baddagana Rd, Sri Jayawardenepura Kotte 10100, Sri Lanka	1.522652		කොළඹ	මිරිහාන	MOH කාර්යාලය - බැද්දගාන	கொழும்பு	மிரிஹானா	MOH அலுவலகம் - பெத்தகனா	බද්දගාන පාර, ශ්‍රී ජයවර්ධනපුර කෝට්ටේ 10100, ශ්‍රී ලංකාව	பதகனா சாலை, ஸ்ரீ ஜெயவர்தனபுரா கோட்டே 10100, இலங்கை
Colombo	Dehiwala	MOH Office - Dehiwala	False	False	CLMBDHWLMHFFCDHWL		Colombo	LK-11	6.869636	80.019598	Dehiwala	PS-110580	6.850088	79.871696	6.861346	79.865943	VV68+G9P, Dehiwala-Mount Lavinia, Sri Lanka	1.404177		කොළඹ	දෙහිවල	MOH කාර්යාලය - දෙහිවල	கொழும்பு	தெஹிவளை	MOH அலுவலகம் - தெஹிவளை	VV68+G9P, දෙහිවල-ගල්කිස්ස, ශ්‍රී ලංකාව	VV68+G9P, தெஹிவளை-கல்கிசை, இலங்கை
Colombo	Grandpass	Fowzie Maternity Clinic	False	False	CLMBGRNDPSSFWZMTRNTYCLNC		Colombo	LK-11	6.869636	80.019598	Grandpass	PS-110215	6.949052	79.872983	6.967647	79.870269	Hubert Pl, Colombo, Sri Lanka	2.089913		කොළඹ	ග්‍රෑන්ඩ්පාස්	ෆවුසි මාතෘ සායනය	கொழும்பு	கிராண்ட்பாஸ்	ஃபowஸி மகப்பேறு மருத்துவமனை	හියුබර්ට් පීඑල්, ​​කොළඹ, ශ්‍රී ලංකාව	ஹூபர்ட் பிஎல், கொழும்பு, இலங்கை
Colombo	Fore Shore	MOH Office - Jinthupitiya	False	False	CLMBFRSHRMHFFCJNTHPTY		Colombo	LK-11	6.869636	80.019598	Fore shore	PS-110210	6.949589	79.857355	6.943258	79.859238	No.27 Vivekananda Hill, Colombo 01300, Sri Lanka	0.734247		කොළඹ	වෙරළ තීරය	MOH කාර්යාලය - ජින්තුපිටිය	கொழும்பு	முன் கரை	MOH அலுவலகம் - ஜிந்துபிடியா	අංක 27 විවේකානන්ද කන්ද, කොළඹ 01300, ශ්‍රී ලංකාව	எண் .27 விவேகானந்த மலை, கொழும்பு 01300, இலங்கை
Colombo	Maradana	National Hospital - Colombo	False	False	CLMBMRDNNTNLHSPTLCLMB		Colombo	LK-11	6.869636	80.019598	Maradana	PS-110107	6.927939	79.865471	6.918743	79.868992	Colombo 00700, Sri Lanka	1.094265		කොළඹ	මරදාන	ජාතික රෝහල - කොළඹ	கொழும்பு	மரதானா	தேசிய மருத்துவமனை - கொழும்பு	කොළඹ 00700, ශ්‍රී ලංකාව	கொழும்பு 00700, இலங்கை
Colombo	Kosgama	Kosgama Hospital	False	False	CLMBKSGMKSGMHSPTL		Colombo	LK-11	6.869636	80.019598	Kosgama	PS-920227	6.946597	80.137869	6.940956	80.124888	Salawa-Akarawita, 10730, Sri Lanka	1.564606		කොළඹ	කොස්ගම	කොස්ගම රෝහල	கொழும்பு	கொஸ்கம	கொஸ்கம மருத்துவமனை	සාලාව-අකරවිට, 10730, ශ්‍රී ලංකාව	சலாவா-அகரவிட, 10730, இலங்கை
Gampaha	Kelaniya	Pradeshiya Shabha - Kelaniya	False	False	GMPHKLNYPRDSHYSHBHKLNY		Gampaha	LK-12	7.123598	80.018508	Kelaniya	PS-120126	6.950251	79.917459	6.967072	79.906385	Colombo - Kandy Rd, Peliyagoda, Sri Lanka	2.235082		ගම්පහ	කැලණිය	ප්‍රාදේශීය සභාව - කැලණිය	கம்பஹா	களனி	பிரதேச சபா - களனி	කොළඹ - නුවර පාර, පෑලියගොඩ, ශ්‍රී ලංකාව	கொழும்பு - கண்டி வீதி, பேலியகொட, இலங்கை
Gampaha	Biyagama	MOH Office - Biyagama	False	False	GMPHBYGMMHFFCBYGM		Gampaha	LK-12	7.123598	80.018508	Biyagama	PS-120131	6.962284	80.009037	6.946824	79.994052	Hospital Rd, Sri Lanka	2.386313		ගම්පහ	බියගම	MOH කාර්යාලය - බියගම	கம்பஹா	பியகம	MOH அலுவலகம் - பியாகம	රෝහල පාර, ශ්‍රී ලංකාව	மருத்துவமனை Rd, இலங்கை
Gampaha	Kadawata	Kirillawala Maha Vidyalaya	False	False	GMPHKDWTKRLLWLMHVDYLY		Gampaha	LK-12	7.123598	80.018508	Kadawatha	PS-120136	7.00152	79.95003	7.015981	79.969223	2X89+9MX, Eldeniya, Sri Lanka	2.660247		ගම්පහ	කඩවත	කිරිල්ලවල මහා විද්‍යාලය	கம்பஹா	கடவாடா	கிரில்லாவாலா மகா வித்தியாலயம்	2X89+9MX, ඇල්දෙනිය, ශ්‍රී ලංකාව	2X89+9MX, எல்டெனியா, இலங்கை
Gampaha	Weliweriya	Henegama Mahabodhi Vidyalaya	False	False	GMPHWLWRYHNGMMHBDHVDYLY		Gampaha	LK-12	7.123598	80.018508	Weliweriya	PS-120244	7.03451	80.026114	7.002487	79.94454	Mahabodhi Road, Kadawatha 11850, Sri Lanka	9.684305		ගම්පහ	වැලිවේරිය	හේනේගම මහාබෝධි විද්‍යාලය	கம்பஹா	வெலிவேரியா	ஹெனேகம மகாபோதி வித்தியாலயம்	මහාබෝධි පාර, කඩවත 11850, ශ්‍රී ලංකාව	மகாபோதி சாலை, கடவத்தை 11850, இலங்கை
Gampaha	Nittambuwa	Urapola Central College	False	False	GMPHNTTMBWRPLCNTRLCLLG		Gampaha	LK-12	7.123598	80.018508	Nittambuwa	PS-120246	7.149726	80.10046	7.098949	80.144672	No. 280, Nittambuwa - Ruwanwella Rd, Urapola, Sri Lanka	7.463959		ගම්පහ	නිට්ටඹුව	Raරාපොළ මධ්‍ය මහා විද්‍යාලය	கம்பஹா	நிட்டம்புவா	உரபொல மத்திய கல்லூரி	අංක 280, නිට්ටඹුව - රුවන්වැල්ල පාර, raරාපොළ, ශ්‍රී ලංකාව	எண் 280, நிட்டம்புவா - ருவன்வெல்ல வீதி, ஊரபொல, இலங்கை
Gampaha	Nittambuwa	Sanghabodhi Vidyalaya	False	False	GMPHNTTMBWSNGHBDHVDYLY		Gampaha	LK-12	7.123598	80.018508	Nittambuwa	PS-120246	7.149726	80.10046	7.132766	80.082302	A1, Nittambuwa, Sri Lanka	2.752256		ගම්පහ	නිට්ටඹුව	සංඝබෝධි විද්‍යාලය	கம்பஹா	நிட்டம்புவா	சங்கபோதி வித்யாலயா	ඒ 1, නිට්ටඹුව, ශ්‍රී ලංකාව	ஏ 1, நிட்டம்புவா, இலங்கை
Gampaha	Nittambuwa	Mathalana Primary School	False	False	GMPHNTTMBWMTHLNPRMRYSCHL		Gampaha	LK-12	7.123598	80.018508	Nittambuwa	PS-120246	7.149726	80.10046	7.115656	80.099626	438X+7V6, Nittambuwa, Sri Lanka	3.790718		ගම්පහ	නිට්ටඹුව	මාතලාන ප්‍රාථමික විද්‍යාලය	கம்பஹா	நிட்டம்புவா	மத்தலானா ஆரம்பப் பள்ளி	438X+7V6, නිට්ටඹුව, ශ්‍රී ලංකාව	438X+7V6, நிட்டம்புவா, இலங்கை
Gampaha	Pallewela	Pallewela Central Dispensary	False	False	GMPHPLLWLPLLWLCNTRLDSPNSRY		Gampaha	LK-12	7.123598	80.018508	Pallewela	PS-120249	7.197365	80.094856	7.19666	80.093998	Pallewela, Sri Lanka	0.12294		ගම්පහ	පල්ලෙවෙල	පල්ලෙවෙල මධ්‍යම බෙහෙත් ශාලාව	கம்பஹா	பல்லெவெல	பல்லெவெல மத்திய மருந்தகம்	පල්ලෙවෙල, ශ්‍රී ලංකාව	பல்லேவெல, இலங்கை
Gampaha	Gampaha	MOH Office - Gampaha	False	False	GMPHGMPHMHFFCGMPH		Gampaha	LK-12	7.123598	80.018508	Gampaha	PS-120237	7.087765	80.01228	7.090643	80.002094	Colombo Rd, Gampaha, Sri Lanka	1.16901		ගම්පහ	ගම්පහ	MOH කාර්යාලය - ගම්පහ	கம்பஹா	கம்பஹா	MOH அலுவலகம் - கம்பஹா	කොළඹ පාර, ගම්පහ, ශ්‍රී ලංකාව	கொழும்பு வீதி, கம்பஹா, இலங்கை
Gampaha	Gampaha	Pahalagama Viharaya	False	False	GMPHGMPHPHLGMVHRY		Gampaha	LK-12	7.123598	80.018508	Gampaha	PS-120237	7.087765	80.01228	7.08886	79.986232	Gampaha, Sri Lanka	2.877749		ගම්පහ	ගම්පහ	පහළගම විහාරය	கம்பஹா	கம்பஹா	பஹலகம விஹாராயா	ගම්පහ, ශ්‍රී ලංකාව	கம்பஹா, இலங்கை
Gampaha	Seeduwa	MOH Office - Seeduwa	False	False	GMPHSDWMHFFCSDW		Gampaha	LK-12	7.123598	80.018508	Seeduwa	PS-120356	7.128721	79.877371	7.131527	79.879964	24 Kotugoda Rd, Katunayake 11410, Sri Lanka	0.423459		ගම්පහ	සීදුව	MOH කාර්යාලය - සීදුව	கம்பஹா	சீதுவா	MOH அலுவலகம் - சீதுவா	24 කොටුගොඩ පාර, කටුනායක 11410, ශ්‍රී ලංකාව	24 கொடுகொட வீதி, கட்டுநாயக்க 11410, இலங்கை
Gampaha	Pugoda	MOH Office – Dompe	False	False	GMPHPGDMHFFCDMP		Gampaha	LK-12	7.123598	80.018508	Pugoda	PS-120241	6.98283	80.111189	6.976767	80.117422	Dompe, Pugoda-Mandawala Rd, Pugoda, Sri Lanka	0.963513		ගම්පහ	පූගොඩ	MOH කාර්යාලය - දොම්පේ	கம்பஹா	புகோடா	MOH அலுவலகம் - Dompe	දොම්පේ, පූගොඩ-මණ්ඩාවල පාර, පූගොඩ, ශ්‍රී ලංකාව	டோம்பே, புகோடா-மண்டவாலா சாலை, புகோடா, இலங்கை
Gampaha	Divulapitiya	MOH Office - Divulapitiya	False	False	GMPHDVLPTYMHFFCDVLPTY		Gampaha	LK-12	7.123598	80.018508	Diulapitiya	PS-120355	7.174215	79.957874	7.215486	80.013606	6287+5CX, Divulapitiya, Sri Lanka	7.67456		ගම්පහ	දිවුලපිටිය	එම්ඕඑච් කාර්යාලය - දිවුලපිටිය	கம்பஹா	திவுலபிட்டிய	MOH அலுவலகம் - திவுலபிட்டிய	6287+5CX, දිවුලපිටිය, ශ්‍රී ලංකාව	6287+5CX, திவுலபிட்டிய, இலங்கை
Gampaha	Negombo	Municipal Council – Negombo	False	False	GMPHNGMBMNCPLCNCLNGMB		Gampaha	LK-12	7.123598	80.018508	Negombo	PS-120351	7.224796	79.880015	7.20614	79.851928	Colombo Rd, Negombo, Sri Lanka	3.729901		ගම්පහ	මීගමුව	නගර සභාව - මීගමුව	கம்பஹா	நீர்கொழும்பு	மாநகர சபை - நீர்கொழும்பு	කොළඹ පාර, මීගමුව, ශ්‍රී ලංකාව	கொழும்பு வீதி, நீர்கொழும்பு, இலங்கை
Gampaha	Ja Ela	MOH Office – Ja Ela	False	False	GMPHJLMHFFCJL		Gampaha	LK-12	7.123598	80.018508	Ja - Ela	PS-120133	7.081055	79.890504	7.075216	79.893879	60 Mount Kalvary Rd, Ja-Ela, Sri Lanka	0.748731		ගම්පහ	ජා ඇල	MOH කාර්යාලය - ජා ඇල	கம்பஹா	ஜா எல	MOH அலுவலகம் - ஜா எல	60 කල්වාරි පාර, ජා-ඇල, ශ්‍රී ලංකාව	60 மவுண்ட் கல்வாரி சாலை, ஜா-எல, இலங்கை
Gampaha	Wattala	MOH Office – Wattala	False	False	GMPHWTTLMHFFCWTTL		Gampaha	LK-12	7.123598	80.018508	Wattala	PS-120128	6.993713	79.894506	6.995817	79.885793	301 Hendala Rd, Wattala, Sri Lanka	0.989991		ගම්පහ	වත්තල	MOH කාර්යාලය - වත්තල	கம்பஹா	வத்தளை	MOH அலுவலகம் - வத்தளை	301 හැඳල පාර, වත්තල, ශ්‍රී ලංකාව	301 ஹெந்தலா சாலை, வத்தளை, இலங்கை
Gampaha	Ragama	MOH Office – Ragama	False	False	GMPHRGMMHFFCRGM		Gampaha	LK-12	7.123598	80.018508	Ragama	PS-120134	7.034975	79.924148	7.027386	79.920232	2WGC+X35, Ragama, Sri Lanka	0.948382		ගම්පහ	රාගම	MOH කාර්යාලය - රාගම	கம்பஹா	ராகம	MOH அலுவலகம் - ராகம	2WGC+X35, රාගම, ශ්‍රී ලංකාව	2WGC+X35, ராகம, இலங்கை
Gampaha	Pamunugama	Pamunugama Hospital	False	False	GMPHPMNGMPMNGMHSPTL		Gampaha	LK-12	7.123598	80.018508	Pamunugama	PS-120353	7.078892	79.859696	7.093543	79.850191	3VV2+C38, Negombo, Sri Lanka	1.938152		ගම්පහ	පමුණුගම	පමුණුගම රෝහල	கம்பஹா	பமுனுகம	பமுனுகம மருத்துவமனை	3VV2+C38, මීගමුව, ශ්‍රී ලංකාව	3VV2+C38, நீர்கொழும்பு, இலங்கை
Kalutara	Bandaragama	Sri Saralankara Vidyalaya Kidelpitiya	False	False	KLTRBNDRGMSRSRLNKRVDYLYKDLPTY		Kalutara	LK-13	6.577316	80.127363	Bandaragama	PS-130189	6.715179	79.987674	6.748894	79.971239	PXXC+HF5, Welmilla, Sri Lanka	4.166442		කළුතර	බණ්ඩාරගම	කිදෙල්පිටිය ශ්‍රී සාරාලංකාර විද්‍යාලය	களுத்துறை	பண்டாரகம	ஸ்ரீ சரலங்கரா வித்யாலயா கிடெல்பிட்டிய	PXXC+HF5, වෙල්මිල්ල, ශ්‍රී ලංකාව	PXXC+HF5, வெல்மில்லா, இலங்கை
Kalutara	Bandaragama	Raigama Viharaya	False	False	KLTRBNDRGMRGMVHRY		Kalutara	LK-13	6.577316	80.127363	Bandaragama	PS-130189	6.715179	79.987674	6.721581	80.012636	P2C7+J3J, Bandaragama, Sri Lanka	2.847916		කළුතර	බණ්ඩාරගම	රයිගම විහාරය	களுத்துறை	பண்டாரகம	ராயகம விஹாராயா	P2C7+J3J, බණ්ඩාරගම, ශ්‍රී ලංකාව	P2C7+J3J, பண்டாரகம, இலங்கை
Kalutara	Bandaragama	Weeragaha Viharaya	False	False	KLTRBNDRGMWRGHVHRY		Kalutara	LK-13	6.577316	80.127363	Bandaragama	PS-130189	6.715179	79.987674	6.712917	80.00252	Southern Expy, Bandaragama, Sri Lanka	1.659181		කළුතර	බණ්ඩාරගම	වීරගහ විහාරය	களுத்துறை	பண்டாரகம	வீரகஹா விஹாராயா	සදර්න් එක්ස්පී, බණ්ඩාරගම, ශ්‍රී ලංකාව	தெற்கு எக்ஸ்பி, பண்டாரகம, இலங்கை
Kalutara	Bandaragama	Kolamediriya Viharaya	False	False	KLTRBNDRGMKLMDRYVHRY		Kalutara	LK-13	6.577316	80.127363	Bandaragama	PS-130189	6.715179	79.987674	6.7075	79.991389	Kalutara Rd., Bandaragama., Waskaduwa - Bandaragama Rd, Bandaragama, Sri Lanka	0.947609		කළුතර	බණ්ඩාරගම	කොළමැදිරිය විහාරය	களுத்துறை	பண்டாரகம	கோலமெதிரியா விஹாராயா	කළුතර පාර, බණ්ඩාරගම., වස්කඩුව - බණ්ඩාරගම පාර, බණ්ඩාරගම, ශ්‍රී ලංකාව	களுத்துறை வீதி, பண்டாரகம., வாஸ்கடுவ - பண்டாரகம வீதி, பண்டாரகம, இலங்கை
Kalutara	Wadduwa	Dharmapala Vidyalaya	False	False	KLTRWDDWDHRMPLVDYLY		Kalutara	LK-13	6.577316	80.127363	Wadduwa	PS-130188	6.664403	79.929851	6.668381	79.930516	MW9J+962, Wadduwa, Sri Lanka	0.44853		කළුතර	වාද්දුව	ධර්මපාල විද්‍යාලය	களுத்துறை	வாத்துவா	தர்மபால வித்யாலயா	MW9J+962, වාද්දුව, ශ්‍රී ලංකාව	MW9J+962, வாட்டுவா, இலங்கை
Kalutara	Wadduwa	Mobile Vaccination	False	False	KLTRWDDWMBLVCCNTN		Kalutara	LK-13	6.577316	80.127363	Wadduwa	PS-130188	6.664403	79.929851					#CenterLocationUnknown	කළුතර	වාද්දුව	ජංගම එන්නත	களுத்துறை	வாத்துவா	மொபைல் தடுப்பூசி		
Kalutara	Millaniya	MOH Office - Millaniya	False	False	KLTRMLLNYMHFFCMLLNY		Kalutara	LK-13	6.577316	80.127363	Millaniya	PS-130191	6.681692	80.020847	6.724224	79.907284	A2, Panadura, Sri Lanka	13.407612		කළුතර	මිල්ලනිය	MOH කාර්යාලය - මිල්ලනිය	களுத்துறை	மில்லனியா	MOH அலுவலகம் - மில்லனியா	ඒ 2, පානදුර, ශ්‍රී ලංකාව	ஏ 2, பாணந்துரா, இலங்கை
Kalutara	Thebuwana	Wellatha Rural Hospital	False	False	KLTRTHBWNWLLTHRRLHSPTL		Kalutara	LK-13	6.577316	80.127363	Thebuwana	PS-1302105	6.654997	80.058183	6.570354	80.073048	wellatha Neboda ., Neboda - Wellatha Rd, Sri Lanka	9.557015		කළුතර	තෙබුවන	වැල්ලතා ග්‍රාමීය රෝහල	களுத்துறை	தேபுவானா	வெள்ளத்தா கிராமப்புற மருத்துவமனை	වෙල්ලතා නැබොඩ., නැබොඩ - වෙල්ලත පාර, ශ්‍රී ලංකාව	வெல்லதா நெபோடா., நெபோடா - வெல்லதா ஆர்ட், இலங்கை
Kalutara	Panadura	Panadura Hospital	False	False	KLTRPNDRPNDRHSPTL	Base Hospital Panadura	Kalutara	LK-13	6.577316	80.127363	Panadura North		6.756309	79.898939	6.721556	79.906851	A2, Panadura, Sri Lanka	3.963137		කළුතර	පානදුර	පානදුර මූලික රෝහල	களுத்துறை	பாணந்துறை	பாணந்துறை அடிப்படை மருத்துவமனை	ඒ 2, පානදුර, ශ්‍රී ලංකාව	ஏ 2, பாணந்துரா, இலங்கை
Kalutara	Beruwala	Beruwala Hospital	False	False	KLTRBRWLBRWLHSPTL		Kalutara	LK-13	6.577316	80.127363	Beruwala	PS-1302102	6.480329	79.983498	6.472087	79.983492	FXCM+R9Q, Beruwala, Sri Lanka	0.916757		කළුතර	බේරුවල	බේරුවල රෝහල	களுத்துறை	பேருவளை	பேருவளை மருத்துவமனை	FXCM+R9Q, බේරුවල, ශ්‍රී ලංකාව	FXCM+R9Q, பேருவளை, இலங்கை
Kalutara	Anguruwatota	MOH Office - Madurawala	False	False	KLTRNGRWTTMHFFCMDRWL		Kalutara	LK-13	6.577316	80.127363	Anguruwatota	PS-130190	6.654997	80.058183	6.654814	80.057811	M335+W4F, Keselhenawa, Sri Lanka	0.045863		කළුතර	අඟුරුවාතොට	MOH කාර්යාලය - මදුරාවල	களுத்துறை	அங்குருவடோட்டா	MOH அலுவலகம் - மதுரவாலா	M335+W4F, කෙසෙල්හේනාව, ශ්‍රී ලංකාව	M335+W4F, கெசல்ஹேனாவா, இலங்கை
Kalutara	Agalawatta	Pimbura Hospital	False	False	KLTRGLWTTPMBRHSPTL		Kalutara	LK-13	6.577316	80.127363	Agalawatta		6.542566	80.157178	6.575949	80.158371	H5G5+98H, කළුතර, Sri Lanka	3.715525		කළුතර	අගලවත්ත	පිඹුර රෝහල	களுத்துறை	அகலவத்தை	பிம்புரா மருத்துவமனை	H5G5+98H, කළුතර, ශ්‍රී ලංකාව	H5G5+98H, கருப்புதர, இலங்கை
Kalutara	Matugama	Katugahahena Hospital	False	False	KLTRMTGMKTGHHNHSPTL		Kalutara	LK-13	6.577316	80.127363	Mathugama	PS-1302103	6.520881	80.117908	6.489328	80.08471	F3QM+PVP, Bopitiya, Sri Lanka	5.077192		කළුතර	මතුගම	කටුගහහේන රෝහල	களுத்துறை	மத்துகம	கட்டுகஹஹேனா மருத்துவமனை	F3QM+PVP, බෝපිටිය, ශ්‍රී ලංකාව	F3QM+PVP, போபிடியா, இலங்கை
Kalutara	Baduraliya	Baduraliya Hospital	False	False	KLTRBDRLYBDRLYHSPTL		Kalutara	LK-13	6.577316	80.127363	Baduraliya	PS-1302106	6.516756	80.226716	6.514727	80.232731	Tiruwanaketiya-Agalawatte Rd, Baduraliya, Sri Lanka	0.702098		කළුතර	බදුරලිය	බදුරලිය රෝහල	களுத்துறை	பதுரலியா	பதுரலியா மருத்துவமனை	තිරුවානකැටිය-අගලවත්ත පාර, බදුරලිය, ශ්‍රී ලංකාව	திருவனகெட்டிய-அகலவத்தை சாலை, பதுரலியா, இலங்கை
Kalutara	Mathugama	Weththewa Hospital	False	False	KLTRMTHGMWTHTHWHSPTL		Kalutara	LK-13	6.577316	80.127363	Mathugama	PS-1302103	6.520881	80.117908	6.523087	80.125192	District Hospital, Hospital Road,Weththewa,., Matugama, Sri Lanka	0.841523		කළුතර	මතුගම	වෙත්තෑව රෝහල	களுத்துறை	மதுகம	வெத்தேவா மருத்துவமனை	දිසා රෝහල, රෝහල් පාර, වෙත්තෑව,., මතුගම, ශ්‍රී ලංකාව	மாவட்ட மருத்துவமனை, மருத்துவமனை சாலை, வெத்தேவா,., மத்துகம, இலங்கை
Kalutara	Horana	Thakshila Central College	False	False	KLTRHRNTHKSHLCNTRLCLLG		Kalutara	LK-13	6.577316	80.127363	Horana	PS-130192	6.714613	80.069091	6.71141	80.062945	Moronthuduwa Horana Rd, Horana 12400, Sri Lanka	0.766731		කළුතර	හොරණ	තක්ෂිලා මධ්‍ය මහා විද්‍යාලය	களுத்துறை	ஹொரானா	தக்ஷிலா மத்திய கல்லூரி	මොරොන්තුඩුව හොරණ පාර, හොරණ 12400, ශ්‍රී ලංකාව	மொரோந்துடுவ ஹொரானா வீதி, ஹொரணை 12400, இலங்கை
Kalutara	Ingiriya	Ingiriya Hospital	False	False	KLTRNGRYNGRYHSPTL		Kalutara	LK-13	6.577316	80.127363	Ingiriya	PS-130193	6.743614	80.175077	6.741133	80.162046	Panadura-Nambapana-Ratnapura Hwy, Ingiriya, Sri Lanka	1.465626		කළුතර	ඉංගිරිය	ඉංගිරිය රෝහල	களுத்துறை	இங்கிரிய	இங்கிரிய மருத்துவமனை	පානදුර-නාම්බපන-රත්නපුර හ්වි, ඉංගිරිය, ශ්‍රී ලංකාව	பாணாதுரா-நம்பபனா-ரத்னபுரா ஹ்வி, இங்கிரிய, இலங்கை
Kalutara	Ingiriya	MOH Office - Ingiriya	False	False	KLTRNGRYMHFFCNGRY		Kalutara	LK-13	6.577316	80.127363	Ingiriya	PS-130193	6.743614	80.175077	6.74328	80.166145	A8, Ingiriya, Sri Lanka	0.987331		කළුතර	ඉංගිරිය	MOH කාර්යාලය - ඉංගිරිය	களுத்துறை	இங்கிரிய	MOH அலுவலகம் - இங்கிரிய	ඒ 8, ඉංගිරිය, ශ්‍රී ලංකාව	ஏ 8, இங்கிரிய, இலங்கை
Kalutara	Rasnayakapura	MOH Office - Rasnayakapura	False	False	KLTRRSNYKPRMHFFCRSNYKPR		Kalutara	LK-13	6.577316	80.127363	Rasnayakapura	PS-610323	7.776658	80.012692	7.812336	80.080579	R36J+W6P, Sri Lanka	8.468673		කළුතර	රස්නායකපුර	MOH කාර්යාලය - රස්නායකපුර	களுத்துறை	ரஸ்நாயகாபுரா	MOH அலுவலகம் - ரஸ்நாயகாபுரா	R36J+W6P, ශ්‍රී ලංකාව	R36J+W6P, இலங்கை
Kurunegala	Nikaweratiya	Nikaweratiya Hospital	False	False	KRNGLNKWRTYNKWRTYHSPTL		Kurunegala	LK-61	7.66477	80.23677	Nikaweratiya	PS-610320	7.742612	80.121177	7.747476	80.114446	Nikaweratiya-Heelogama Rd, Nikaweratiya, Sri Lanka	0.918182		කුරුණෑගල	නිකවැරටිය	නිකවැරටිය රෝහල	குருநாகல்	நிகவெரட்டியா	நிகவெரட்டிய மருத்துவமனை	නිකවැරටිය-හීලොගම පාර, නිකවැරටිය, ශ්‍රී ලංකාව	நிகவெரட்டிய-ஹீலோகம வீதி, நிகவெரட்டிய, இலங்கை
Kurunegala	Puttalam	MOH Office - Puttalam	False	False	KRNGLPTTLMMHFFCPTTLM		Kurunegala	LK-61	7.66477	80.23677	Puttalam	PS-620130	8.029904	79.834396	8.022836	79.833312	Colombo Puttalam Rd, Puttalam, Sri Lanka	0.795187		කුරුණෑගල	පුත්තලම	MOH කාර්යාලය - පුත්තලම	குருநாகல்	புத்தளம்	MOH அலுவலகம் - புத்தளம்	කොළඹ පුත්තලම පාර, පුත්තලම, ශ්‍රී ලංකාව	கொழும்பு புத்தளம் வீதி, புத்தளம், இலங்கை
Kandy	Wattegama	Walala A.Rathnayake Central College	False	False	KNDYWTTGMWLLRTHNYKCNTRLCLLG		Kandy	LK-21	7.27337	80.709602	Wattegama	PS-210357	7.350603	80.68335	7.318909	80.693359	8M9V+H89, Menikhinna, Sri Lanka	3.694199		මහනුවර	වත්තේගම	වලල ඒ. රත්නායක මධ්‍ය මහා විද්‍යාලය	கண்டி	வட்டேகம	வாலாலா ஏ.ரத்நாயக்க மத்திய கல்லூரி	8 එම් 9 වී+එච් 89, මැණික්හින්න, ශ්‍රී ලංකාව	8M9V+H89, மெனிகின்னா, இலங்கை
Kandy	Pujapitiya	Pujapitiya Central College	False	False	KNDYPJPTYPJPTYCNTRLCLLG		Kandy	LK-21	7.27337	80.709602	Poojapitiya	PS-210115	7.372938	80.587619	7.371519	80.593387	Poojapitiya Road, Poojapitiya, Sri Lanka	0.655554		මහනුවර	පුජාපිටිය	පූජාපිටිය මධ්‍ය මහා විද්‍යාලය	கண்டி	பூஜாபிடியா	பூஜாபிட்டிய மத்திய கல்லூரி	පූජාපිටිය පාර, පූජාපිටිය, ශ්‍රී ලංකාව	பூஜாபிட்டிய சாலை, பூஜாபிட்டிய, இலங்கை
Kandy	Daulagala	Alapalawa Piriven Viharaya	False	False	KNDYDLGLLPLWPRVNVHRY		Kandy	LK-21	7.27337	80.709602	Daulagala	PS-210111	7.227283	80.574409	7.21821	80.584983	6H9M+7XQ, Muruthagahamula, Sri Lanka	1.542696		මහනුවර	දවුලගල	අලපලාව පිරිවෙන් විහාරය	கண்டி	தauலகலா	அலபலாவா பிரிவென் விஹாராயா	6H9M+7XQ, මුරුතගහමුල, ශ්‍රී ලංකාව	6H9M+7XQ, முருதகஹாமுலா, இலங்கை
Kandy	Pallekele	Bandaranayake National College - Kundasale	False	False	KNDYPLLKLBNDRNYKNTNLCLLGKNDSL		Kandy	LK-21	7.27337	80.709602	Pallekele	PS-210109	7.279688	80.682945	7.280986	80.687993	A26, Kundasale 20168, Sri Lanka	0.57537		මහනුවර	පල්ලෙකැලේ	බණ්ඩාරනායක ජාතික විද්‍යාලය - කුණ්ඩසාලේ	கண்டி	பல்லேகலே	பண்டாரநாயக்க தேசிய கல்லூரி - குண்டசாலை	ඒ 26, කුණ්ඩසාලේ 20168, ශ්‍රී ලංකාව	A26, குண்டசலே 20168, இலங்கை
Kandy	Peradeniya	Gelioya Maha Vidyalaya	False	False	KNDYPRDNYGLYMHVDYLY		Kandy	LK-21	7.27337	80.709602	Peradeniya	PS-210110	7.267283	80.601901	7.266783	80.601296	Galaha Rd, Peradeniya, Sri Lanka	0.086885		මහනුවර	පේරාදෙණිය	ගෙලිඔය මහා විද්‍යාලය	கண்டி	பேராதனை	கெலிஓயா மகா வித்தியாலயம்	ගලහ පාර, පේරාදෙණිය, ශ්‍රී ලංකාව	கலஹா சாலை, பேராதனை, இலங்கை
Kandy	Kadugannawa	D.B. Wijetunga National School	False	False	KNDYKDGNNWDBWJTNGNTNLSCHL		Kandy	LK-21	7.27337	80.709602	Kadugannawa	PS-210112	7.256285	80.516908	7.208613	80.578297	D.B. Wijetunga National School , Daskara , Muruthagahamula., Geli Oya - Embekke Rd, Kovilakanda, Sri Lanka	8.602531		මහනුවර	කඩුගන්නාව	ඩී.බී. විජේතුංග ජාතික පාසල	கண்டி	கடுகன்னாவா	டி.பி. விஜேதுங்கா தேசிய பள்ளி	ඩී.බී. විජේතුංග ජාතික පාසල, දස්කාරා, මුරුතාගහමුල., ගෙලි ඔය - ඇම්බැක්කේ පාර, කෝවිලකන්ද, ශ්‍රී ලංකාව	டி.பி. விஜேதுங்கா தேசிய பள்ளி, தஸ்கரா, முருதகஹாமுலா., கெலி ஓயா - எம்பெக்கே சாலை, கோவிலகந்தா, இலங்கை
Kandy	Teldeniya	Teldeniya National College	False	False	KNDYTLDNYTLDNYNTNLCLLG		Kandy	LK-21	7.27337	80.709602	Theldeniya	PS-210356	7.309853	80.76426	7.308862	80.762491	8Q56+GXX, Karalliyadda, Sri Lanka	0.224144		මහනුවර	තෙල්දෙණිය	තෙල්දෙණිය ජාතික විද්‍යාලය	கண்டி	தெல்தெனியா	தெல்தெனிய தேசிய கல்லூரி	8Q56+GXX, කරල්ලියද්ද, ශ්‍රී ලංකාව	8Q56+GXX, கரல்லியத்த, இலங்கை
Matale	Galewela	Galewela Hospital	False	False	MTLGLWLGLWLHSPTL		Matale	LK-22	7.667587	80.731008	Galewela	PS-220129	7.763244	80.574149	7.760542	80.571552	QH6C+6J7, Galewela, Sri Lanka	0.415026		මාතලේ	ගලේවෙල	ගලේවෙල රෝහල	மாத்தளை	கலேவெல	கலேவெல மருத்துவமனை	QH6C+6J7, ගලේවෙල, ශ්‍රී ලංකාව	QH6C+6J7, கலேவெல, இலங்கை
Matale	Galewela	Madipola Hospital	False	False	MTLGLWLMDPLHSPTL		Matale	LK-22	7.667587	80.731008	Galewela	PS-220129	7.763244	80.574149	7.685835	80.576848	MHPG+8PQ, Madipola, Sri Lanka	8.615328		මාතලේ	ගලේවෙල	මාදිපොල රෝහල	மாத்தளை	கலேவெல	மடிப்பொல மருத்துவமனை	MHPG+8PQ, මාදිපොල, ශ්‍රී ලංකාව	MHPG+8PQ, மடிபோலா, இலங்கை
Matale	Galewela	Aluthwewa Hospital	False	False	MTLGLWLLTHWWHSPTL		Matale	LK-22	7.667587	80.731008	Galewela	PS-220129	7.763244	80.574149	7.788566	80.520555	Aluthwewa Hospital Rd, Sri Lanka	6.543624		මාතලේ	ගලේවෙල	අළුත්වැව රෝහල	மாத்தளை	கலேவெல	அளுத்வெவா மருத்துவமனை	අළුත්වැව රෝහල පාර, ශ්‍රී ලංකාව	அளுத்வெவா மருத்துவமனை சாலை, இலங்கை
Matale	Galewela	Makulugaswewa Vidyalaya	False	False	MTLGLWLMKLGSWWVDYLY		Matale	LK-22	7.667587	80.731008	Galewela	PS-220129	7.763244	80.574149	7.842251	80.579391	RHRH+WQ2, Makulugaswewa, Sri Lanka	8.806901		මාතලේ	ගලේවෙල	මකුළුගස්වැව විද්‍යාලය	மாத்தளை	கலேவெல	மகுலுகஸ்வெவ வித்தியாலயம்	ආර්එච්ආර්එච්+ඩබ්ලිව්කියු 2, මකුළුගස්වැව, ශ්‍රී ලංකාව	RHRH+WQ2, மகுலுகஸ்வெவா, இலங்கை
Matale	Galewela	Kalakiriyagama Vidyalaya	False	False	MTLGLWLKLKRYGMVDYLY		Matale	LK-22	7.667587	80.731008	Galewela	PS-220129	7.763244	80.574149	7.75947	80.572049	Ambepussa - Kurunegala - Trincomalee Hwy, Galewela, Sri Lanka	0.479356		මාතලේ	ගලේවෙල	කලකිරියාගම විද්‍යාලය	மாத்தளை	கலேவெல	கலகிரியகம வித்தியாலயம்	අඹේපුස්ස - කුරුණෑගල - ත්‍රිකුණාමලය හ්වි, ගලේවෙල, ශ්‍රී ලංකාව	அம்பேபுஸ்ஸா - குருநாகல் - திருகோணமலை ஹ்வி, கலேவெல, இலங்கை
Monaragala	Siyambalanduwa	Siyambalanduwa Maha Vidyalaya	False	False	MNRGLSYMBLNDWSYMBLNDWMHVDYLY		Moneragala	LK-82	6.787517	81.303744	Siyambalanduwa	PS-820122	6.906851	81.547598	6.909655	81.561921	WH56+VQ7, Siyambalanduwa, Sri Lanka	1.612038		මොනරාගල	සියඹලාණ්ඩුව	සියඹලාණ්ඩුව මහා විද්‍යාලය	மொனராகலை	சியம்பலாண்டுவா	சியம்பலாண்டுவா மகா வித்தியாலயம்	WH56+VQ7, සියඹලාණ්ඩුව, ශ්‍රී ලංකාව	WH56+VQ7, சியம்பலாண்டுவா, இலங்கை
Moneragala	Bibila	Radaliyadda Viharaya	False	False	MNRGLBBLRDLYDDVHRY		Moneragala	LK-82	6.787517	81.303744	Bibila	PS-820125	7.165232	81.225463	7.183482	81.232146	Peradeniya-Badulla-Chenkaladi Hwy, Radaliyadda, Sri Lanka	2.159774		මොණරාගල	බිබිල	රදලියද්ද විහාරය	மொனராகலை	பிபிலா	ரதாலியத்த விஹாராயா	පේරාදෙණිය-බදුල්ල-චෙන්කලාඩි හ්වි, රදලියද්ද, ශ්‍රී ලංකාව	பேராதனை-பதுல்லா-செங்கலடி ஹ்வி, ரதாலியத்த, இலங்கை
Moneragala	Bibila	Wellassa Central College	False	False	MNRGLBBLWLLSSCNTRLCLLG		Moneragala	LK-82	6.787517	81.303744	Bibila	PS-820125	7.165232	81.225463	7.131231	81.23558	46JP+F6W, Kanulwela, Sri Lanka	3.943308		මොණරාගල	බිබිල	වෙල්ලස්ස මධ්‍ය මහා විද්‍යාලය	மொனராகலை	பிபிலா	வெல்லஸ்ஸா மத்திய கல்லூரி	46JP+F6W, කණුල්වෙල, ශ්‍රී ලංකාව	46JP+F6W, கனுல்வேலா, இலங்கை
Moneragala	Bibila	Bibila Cultural Centre	False	False	MNRGLBBLBBLCLTRLCNTR		Moneragala	LK-82	6.787517	81.303744	Bibila	PS-820125	7.165232	81.225463	7.162409	81.22159	Bibile, Sri Lanka	0.530371		මොණරාගල	බිබිල	බිබිල සංස්කෘතික මධ්‍යස්ථානය	மொனராகலை	பிபிலா	பிபிலா கலாச்சார மையம்	බිබිලේ, ශ්‍රී ලංකාව	பிபிலே, இலங்கை
Moneragala	Hikkaduwa	International Buddhist Center - Patuwatha	False	False	MNRGLHKKDWNTRNTNLBDDHSTCNTRPTWTH		Moneragala	LK-82	6.787517	81.303744	Hikkaduwa	PS-310122	6.145115	80.099693					#CenterLocationUnknown	මොණරාගල	හික්කඩුව	ජාත්‍යන්තර බෞද්ධ මධ්‍යස්ථානය - පටුවත	மொனராகலை	ஹிக்கடுவா	சர்வதேச புத்த மையம் - படுவத		
Moneragala	Udugama	Yatalamaththa Maha Vidyalaya	False	False	MNRGLDGMYTLMTHTHMHVDYLY		Moneragala	LK-82	6.787517	81.303744	Udugama	PS-310133	6.210944	80.339616	6.373966	80.134659	Ittapane - Avittava Raod, Sri Lanka	29.022011	#CenterFarFromPolice	මොණරාගල	උඩුගම	යටලමත්ත මහා විද්‍යාලය	மொனராகலை	உடுகம	யதலமத்த மகா வித்தியாலயம்	ඉත්තපානේ - අවිත්තාවා රවුඩ්, ශ්‍රී ලංකාව	இட்டப்பனே - அவிட்டாவ ராட், இலங்கை
Galle	Elpitiya	Elpitiya Central College	False	False	GLLLPTYLPTYCNTRLCLLG		Galle	LK-31	6.222805	80.251977	Elpitiya	PS-310235	6.279163	80.142917	6.295674	80.166231	Ambalangoda - Elpitiya - Pitigala Rd, Elpitiya, Sri Lanka	3.164946		ගාල්ල	ඇල්පිටිය	ඇල්පිටිය මධ්‍ය විද්‍යාලය	காலி	எல்பிட்டிய	எல்பிட்டிய மத்திய கல்லூரி	අම්බලන්ගොඩ - ඇල්පිටිය - පිටිගල පාර, ඇල්පිටිය, ශ්‍රී ලංකාව	அம்பலங்கொட - எல்பிட்டிய - பிடிகல வீதி, எல்பிட்டிய, இலங்கை
Matara	Urubokka	Urubokka National College	False	False	MTRRBKKRBKKNTNLCLLG		Matara	LK-32	6.142734	80.539994	Urubokka	PS-320108	6.310257	80.629013	6.30653	80.63061	Urubokka, Sri Lanka	0.450586		මාතර	Ruරුබොක්ක	Ruරුබොක්ක ජාතික විද්‍යාලය	மாத்தறை	உரூபோக்கா	உருபொக்க தேசிய கல்லூரி	Ruරුබොක්ක, ශ්‍රී ලංකාව	உருபொக்கா, இலங்கை
Matara	Urubokka	Pattigala Primary School	False	False	MTRRBKKPTTGLPRMRYSCHL		Matara	LK-32	6.142734	80.539994	Urubokka	PS-320108	6.310257	80.629013	6.319119	80.625275	Kotapola - Urubokka - Mulatiyana Rd, Sri Lanka	1.068884		මාතර	Ruරුබොක්ක	පට්ටිගල ප්‍රාථමික විද්‍යාලය	மாத்தறை	உரூபோக்கா	பட்டிகல ஆரம்பப் பள்ளி	කොටපොල - ruරුබොක්ක - මුලටියන පාර, ශ්‍රී ලංකාව	கோட்டபொல - ஊருபொக்க - முலாட்டியானா வீதி, இலங்கை
Matara	Hakmana	Mobile Vaccination	False	False	MTRHKMNMBLVCCNTN		Matara	LK-32	6.142734	80.539994	Hakmana	PS-320106	6.084824	80.643227					#CenterLocationUnknown	මාතර	හක්මන	ජංගම එන්නත	மாத்தறை	ஹக்மனா	மொபைல் தடுப்பூசி		
Matara	Gandara	MOH Office - Devinuwara	False	False	MTRGNDRMHFFCDVNWR		Matara	LK-32	6.142734	80.539994	Gandara	PS-320102	5.941629	80.614037	5.925907	80.586456	Port Access Road, Dondra, Sri Lanka	3.516979		මාතර	ගන්දර	MOH කාර්යාලය - දෙවිනුවර	மாத்தறை	கந்தரா	MOH அலுவலகம் - தேவினுவாரா	වරාය ප්‍රවේශ මාර්ගය, දෙවුන්දර, ශ්‍රී ලංකාව	துறைமுக அணுகல் சாலை, டோண்ட்ரா, இலங்கை
Matara	Walasmulla	MOH Office - Walasmulla	False	False	MTRWLSMLLMHFFCWLSMLL		Matara	LK-32	6.142734	80.539994	Walasmulla	PS-330151	6.154102	80.698256	6.150889	80.693718	Walasmulla, Sri Lanka	0.616099		මාතර	වලස්මුල්ල	MOH කාර්යාලය - වලස්මුල්ල	மாத்தறை	வலஸ்முல்லா	MOH அலுவலகம் - வலஸ்முல்லா	වලස්මුල්ල, ශ්‍රී ලංකාව	வலஸ்முல்லா, இலங்கை
Matara	Walasmulla	MOH Office - Okewela	False	False	MTRWLSMLLMHFFCKWL		Matara	LK-32	6.142734	80.539994	Walasmulla	PS-330151	6.154102	80.698256	6.098886	80.715898	Okewela, Sri Lanka	6.444136		මාතර	වලස්මුල්ල	MOH කාර්යාලය - ඕකේවෙල	மாத்தறை	வலஸ்முல்லா	MOH அலுவலகம் - ஒகேவெலா	ඕකේවෙල, ශ්‍රී ලංකාව	ஒகேவெலா, இலங்கை
Matara	Weeraketiya	MOH Office - Weeraketiya	False	False	MTRWRKTYMHFFCWRKTY		Matara	LK-32	6.142734	80.539994	Weeraketiya	PS-330149	6.153899	80.76737	6.144703	80.765287	4QV8+V4M, Weeraketiya, Sri Lanka	1.048488		මාතර	වීරකැටිය	MOH කාර්යාලය - වීරකැටිය	மாத்தறை	வீரகெட்டிய	MOH அலுவலகம் - வீரகெட்டிய	4QV8+V4M, වීරකැටිය, ශ්‍රී ලංකාව	4QV8+V4M, வீரகெட்டிய, இலங்கை
Hambantota	Hambantota	MOH Office - Hambantota	False	False	HMBNTTHMBNTTMHFFCHMBNTT		Hambantota	LK-33	6.259779	81.098619	Hambantota	PS-330156	6.125872	81.12521	6.171162	81.127	54CG+FQ9, Hambantota, Sri Lanka	5.041487		හම්බන්තොට	හම්බන්තොට	MOH කාර්යාලය - හම්බන්තොට	அம்பாந்தோட்டை	அம்பாந்தோட்டை	MOH அலுவலகம் - அம்பாந்தோட்டை	54CG+FQ9, හම්බන්තොට, ශ්‍රී ලංකාව	54CG+FQ9, ஹம்பாந்தோட்டை, இலங்கை
Hambantota	Katuwana	MOH Office - Katuwana	False	False	HMBNTTKTWNMHFFCKTWN		Hambantota	LK-33	6.259779	81.098619	Katuwana	PS-330153	6.269722	80.690963	6.26627	80.693035	7M8V+G63, Katuwana, Sri Lanka	0.447115		හම්බන්තොට	කටුවන	MOH කාර්යාලය - කටුවන	அம்பாந்தோட்டை	கட்டுவானா	MOH அலுவலகம் - கட்டுவானா	7 එම් 8 වී+ජී 63, කටුවන, ශ්‍රී ලංකාව	7M8V+G63, கட்டுவானா, இலங்கை
Hambantota	Ambalantota	MOH Office - Ambalantota	False	False	HMBNTTMBLNTTMHFFCMBLNTT		Hambantota	LK-33	6.259779	81.098619	Ambalantota	PS-330157	6.12516	81.023981	6.122767	81.005973	Walawa watta Road, Malpeththawa, Ambalantota, Sri Lanka	2.009195		හම්බන්තොට	අම්බලන්තොට	MOH කාර්යාලය - අම්බලන්තොට	அம்பாந்தோட்டை	அம்பலாந்தோட்டை	MOH அலுவலகம் - அம்பலாந்தோட்டை	වලව වත්ත පාර, මල්පෙත්තාව, අම්බලන්තොට, ශ්‍රී ලංකාව	வலவா வாட்டா சாலை, மால்பெத்தவா, அம்பலாந்தோட்டை, இலங்கை
Hambantota	Sooriyawewa	MOH Office - Sooriyawewa	False	False	HMBNTTSRYWWMHFFCSRYWW		Hambantota	LK-33	6.259779	81.098619	Sooriyawewa	PS-330155	6.306022	81.003873	6.304862	81.004768	8233+WWR, Sooriyawewa, Sri Lanka	0.1626		හම්බන්තොට	සූරියවැව	MOH කාර්යාලය - සූරියවැව	அம்பாந்தோட்டை	சூரியவெவ	MOH அலுவலகம் - சூரியவெவ	8233+ඩබ්ලිව්ඩබ්ලිව්ආර්, සූරියවැව, ශ්‍රී ලංකාව	8233+WWR, சூரியவெவ, இலங்கை
Hambantota	Beliatta	MOH Office – Beliatta	False	False	HMBNTTBLTTMHFFCBLTT		Hambantota	LK-33	6.259779	81.098619	Beliatta	PS-330152	6.046936	80.735408	6.051828	80.741735	3P2R+PMQ, Hambantota, Sri Lanka	0.886482		හම්බන්තොට	බෙලිඅත්ත	MOH කාර්යාලය - බෙලිඅත්ත	அம்பாந்தோட்டை	பெலியாட்டா	MOH அலுவலகம் - பெலியாட்ட	3P2R+PMQ, හම්බන්තොට, ශ්‍රී ලංකාව	3P2R+PMQ, ஹம்பாந்தோட்டை, இலங்கை
Hambantota	Tangalle	MOH Office – Tangalle	False	False	HMBNTTTNGLLMHFFCTNGLL		Hambantota	LK-33	6.259779	81.098619	Tangalle	PS-330147	6.023954	80.797255	6.02363	80.795742	2QFW+F75, Tangalle, Sri Lanka	0.171198		හම්බන්තොට	තංගල්ල	MOH කාර්යාලය - තංගල්ල	அம்பாந்தோட்டை	தங்காலை	MOH அலுவலகம் - தங்காலை	2QFW+F75, තංගල්ල, ශ්‍රී ලංකාව	2QFW+F75, தங்காலை, இலங்கை
Hambantota	Balangoda	Base Hospital - Balangoda	False	False	HMBNTTBLNGDBSHSPTLBLNGD		Hambantota	LK-33	6.259779	81.098619	Balangoda	PS-910103	6.649474	80.700276	6.65828	80.712444	A4, Balangoda, Sri Lanka	1.663316		හම්බන්තොට	බලන්ගොඩ	මූලික රෝහල - බලංගොඩ	அம்பாந்தோட்டை	பலாங்கொடை	அடிப்படை மருத்துவமனை - பலாங்கொடை	ඒ 4, බලංගොඩ, ශ්‍රී ලංකාව	A4, பலாங்கொடை, இலங்கை
Anuradhapura	Anuradhapura	Teaching Hospital Anuradhapura	False	False	NRDHPRNRDHPRTCHNGHSPTLNRDHPR		Anuradhapura	LK-71	8.39199	80.512958	Anuradapura	PS-710101	8.329752	80.407265	8.324765	80.413968	Harischandra Mawatha, Anuradhapura, Sri Lanka	0.922993		අනුරාධපුර	අනුරාධපුර	අනුරාධපුර ශික්ෂණ රෝහල	அனுராதபுரம்	அனுராதபுரம்	போதனா மருத்துவமனை அனுராதபுரம்	හරිශ්චන්ද්‍ර මාවත, අනුරාධපුර, ශ්‍රී ලංකාව	ஹரிச்சந்திர மாவத்தை, அனுராதபுரம், இலங்கை
Anuradhapura	Anuradhapura	MOH Office - Nuwaragampalatha East	False	False	NRDHPRNRDHPRMHFFCNWRGMPLTHST		Anuradhapura	LK-71	8.39199	80.512958	Anuradapura	PS-710101	8.329752	80.407265	8.324809	80.412262	Kandy Rd, Anuradhapura, Sri Lanka	0.777651		අනුරාධපුර	අනුරාධපුර	MOH කාර්යාලය - නුවරගම්පලතා නැගෙනහිර	அனுராதபுரம்	அனுராதபுரம்	MOH அலுவலகம் - நுவரகம்பலதா கிழக்கு	මහනුවර පාර, අනුරාධපුර, ශ්‍රී ලංකාව	கண்டி வீதி, அனுராதபுரம், இலங்கை
Anuradhapura	Anuradhapura	MOH Office - Nuwaragampalatha Central	False	False	NRDHPRNRDHPRMHFFCNWRGMPLTHCNTRL		Anuradhapura	LK-71	8.39199	80.512958	Anuradapura	PS-710101	8.329752	80.407265	8.341215	80.374096	Unnamed Road, Anuradhapura, Sri Lanka	3.866675		අනුරාධපුර	අනුරාධපුර	MOH කාර්යාලය - නුවරගම්පලතා මධ්‍ය	அனுராதபுரம்	அனுராதபுரம்	MOH அலுவலகம் - நுவரகம்பலதா சென்ட்ரல்	නම් නොකළ පාර, අනුරාධපුර, ශ්‍රී ලංකාව	பெயரிடப்படாத சாலை, அனுராதபுரம், இலங்கை
Anuradhapura	Tirappanaya	MOH Office - Thirappanane	False	False	NRDHPRTRPPNYMHFFCTHRPPNN		Anuradhapura	LK-71	8.39199	80.512958									#PoliceLocationUnknown	අනුරාධපුර	තිරප්පනය	MOH කාර්යාලය - තිරප්පනනේ	அனுராதபுரம்	திறப்பனாய	MOH அலுவலகம் - திரப்பனனே		
Anuradhapura	Mihintale	MOH Office - Mihintale	False	False	NRDHPRMHNTLMHFFCMHNTL		Anuradhapura	LK-71	8.39199	80.512958	Mihintale	PS-710104	8.360062	80.511889	8.357612	80.509049	Puttalam - Anuradhapura - Trincomalee Hwy, Mihintale, Sri Lanka	0.41466		අනුරාධපුර	මිහින්තලය	MOH කාර්යාලය - මිහින්තලය	அனுராதபுரம்	மிஹிந்தலை	MOH அலுவலகம் - மிஹிந்தலை	පුත්තලම - අනුරාධපුර - ත්‍රිකුණාමලය හ්වි, මිහින්තලය, ශ්‍රී ලංකාව	புத்தளம் - அனுராதபுரம் - திருகோணமலை Hwy, மிஹிந்தலை, இலங்கை
Anuradhapura	Parasangaswewa	Parasangaswewa Vidyalaya	False	False	NRDHPRPRSNGSWWPRSNGSWWVDYLY		Anuradhapura	LK-71	8.39199	80.512958	Parasangaswewa	PS-710123	8.650981	80.314759	8.422674	80.45927	A20, Sri Lanka	29.959317	#CenterFarFromPolice	අනුරාධපුර	පරසන්ගස්වැව	පරසන්ගස්වැව විද්‍යාලය	அனுராதபுரம்	பராசங்கஸ்வேவா	பராசங்கஸ்வேவ வித்தியாலயம்	ඒ 20, ශ්‍රී ලංකාව	ஏ 20, இலங்கை
Anuradhapura	Hingurakgoda	MOH Office - Hingurakgoda	False	False	NRDHPRHNGRKGDMHFFCHNGRKGD		Anuradhapura	LK-71	8.39199	80.512958	Hingurakgoda	PS-720129	8.048819	80.965751	8.046007	80.96576	2XW8+C82, Hingurakgoda, Sri Lanka	0.31278		අනුරාධපුර	හිඟුරක්ගොඩ	MOH කාර්යාලය - හිඟුරක්ගොඩ	அனுராதபுரம்	ஹிங்குரகொட	MOH அலுவலகம் - ஹிங்குரகொட	2XW8+C82, හිඟුරක්ගොඩ, ශ්‍රී ලංකාව	2XW8+C82, ஹிங்குரகொட, இலங்கை
Jaffna	Achchuveli	Achchuveli Hospital	False	False	JFFNCHCHVLCHCHVLHSPTL		Jaffna	LK-41	9.691792	80.098594	Achchuweli	PS-410103	6.934132	79.856305	9.772721	80.115501	Avarankal-Tondaimanar Rd, Sri Lanka	317.021383	#CenterFarFromPolice	යාපනය	අච්චුවේලි	අච්චුවේලි රෝහල	யாழ்	அச்சுவேலி	அச்சுவேலி மருத்துவமனை	අවරන්කල්-තොණ්ඩයිමානර් පාර, ශ්‍රී ලංකාව	அவரங்கால்-தொண்டைமானார் சாலை, இலங்கை
Jaffna	Kayts	MOH Office - Velanai	False	False	JFFNKYTSMHFFCVLN		Jaffna	LK-41	9.691792	80.098594	Kayts	PS-410212	9.728654	79.94775	9.636317	79.903777	Chatty vangkalvady road, Velanai, Sri Lanka	11.346015		යාපනය	කයිට්ස්	එම්ඕඑච් කාර්යාලය - වෙලනායි	யாழ்	ஊர்காவற்துறையினர்	MOH அலுவலகம் - வேலணை	චැටි වංගල්වඩි පාර, වෙලනායි, ශ්‍රී ලංකාව	சட்டி வாங்கல்வாடி சாலை, வேலணை, இலங்கை
Jaffna	Kayts	MOH Office - Kayts	False	False	JFFNKYTSMHFFCKYTS		Jaffna	LK-41	9.691792	80.098594	Kayts	PS-410212	9.728654	79.94775	9.697759	79.866366	Sri Lanka, Kayts, Sri Lanka	9.561445		යාපනය	කයිට්ස්	MOH කාර්යාලය - කයිට්ස්	யாழ்	ஊர்காவற்துறையினர்	MOH அலுவலகம் - ஊர்காவற்துறை	ශ්‍රී ලංකාව, කයිට්ස්, ශ්‍රී ලංකාව	இலங்கை, ஊர்காவற்துறை, இலங்கை
Jaffna	Kayts	MOH Office - Karainagar	False	False	JFFNKYTSMHFFCKRNGR		Jaffna	LK-41	9.691792	80.098594	Kayts	PS-410212	9.728654	79.94775	9.725097	79.99772	Sri Lanka, Manipay, Sri Lanka	5.492521		යාපනය	කයිට්ස්	MOH කාර්යාලය - කරෙයිනගර්	யாழ்	ஊர்காவற்துறையினர்	MOH அலுவலகம் - காரைநகர்	ශ්‍රී ලංකාව, මනිපායි, ශ්‍රී ලංකාව	இலங்கை, மானிப்பாய், இலங்கை
Jaffna	Manippai	Manippai Hospital	False	False	JFFNMNPPMNPPHSPTL		Jaffna	LK-41	9.691792	80.098594	Manippai	PS-410210	9.727151	79.996905	9.725939	79.998028	Manipay, Sri Lanka	0.182569		යාපනය	මනිප්පායි	මානිප්පායි රෝහල	யாழ்	மணிப்பை	மணிப்பை மருத்துவமனை	මනිපායි, ශ්‍රී ලංකාව	மானிப்பாய், இலங்கை
Jaffna	Thelippalai	MOH Office - Thelippalai	False	False	JFFNTHLPPLMHFFCTHLPPL		Jaffna	LK-41	9.691792	80.098594	Thelippalay	PS-410104	6.933075	79.857181	9.785272	80.032899	Q2PM+452, Tellippalai, Sri Lanka	317.838063	#CenterFarFromPolice	යාපනය	තෙලිප්පලෙයි	MOH කාර්යාලය - තෙලිප්පලෙයි	யாழ்	தெளிப்பளை	MOH அலுவலகம் - தெல்லிப்பழை	Q2PM+452, තෙලිප්පලෙයි, ශ්‍රී ලංකාව	Q2PM+452, தெல்லிப்பழை, இலங்கை
Jaffna	Waddukkottai	MOH Office – Chankanai	False	False	JFFNWDDKKTTMHFFCCHNKN		Jaffna	LK-41	9.691792	80.098594									#PoliceLocationUnknown	යාපනය	වාද්ඩුක්කොට්ටෙයි	MOH කාර්යාලය - චංකනායි	யாழ்	வாட்டுக்கோட்டை	MOH அலுவலகம் - சங்கனை		
Kilinochchi	Mulankavil	Mulankavil Hospital	False	False	KLNCHCHMLNKVLMLNKVLHSPTL		Kilinochchi	LK-45	9.415742	80.30358	Mulankavil	PS-450135	9.254463	80.141528	9.243423	80.143894	Base Hospital Mulankavil, A32 Road, Mulankavil, Kumulamunai, Sri Lanka	1.255148		කිලිනොච්චි	මුලංකාවිල්	මුලංකාවිල් රෝහල	கிளிநொச்சி	முழங்காவில்	முழங்காவில் மருத்துவமனை	මුලික රෝහල මුලංකාවිල්, ඒ 32 පාර, මුලංකාවිල්, කුමුලමුනෙයි, ශ්‍රී ලංකාව	அடிப்படை மருத்துவமனை முழங்காவில், A32 சாலை, முழங்காவில், குமுலமுனை, இலங்கை
Kilinochchi	Pooneryn	MOH Office – Pooneryn	False	False	KLNCHCHPNRYNMHFFCPNRYN		Kilinochchi	LK-45	9.415742	80.30358	Pooneryn		9.505717	80.21101	9.507968	80.208317	G655+58P, Pooneryn, Sri Lanka	0.387256		කිලිනොච්චි	පුනරීන්	MOH කාර්යාලය - පුනරීන්	கிளிநொச்சி	பூனெரின்	MOH அலுவலகம் - பூனெரின்	ජී 655+58 පී, පූනරීන්, ශ්‍රී ලංකාව	G655+58P, பூனெரின், இலங்கை
Kilinochchi	Kilinochchi	MOH Office – Karachchi	False	False	KLNCHCHKLNCHCHMHFFCKRCHCH		Kilinochchi	LK-45	9.415742	80.30358	Kilinochchi	PS-450131	9.392265	80.407846	7.683586	81.730767	MPMJ+C8J, Kattankudy, Sri Lanka	239.363691	#CenterFarFromPolice	කිලිනොච්චි	කිලිනොච්චි	MOH කාර්යාලය - කරච්චි	கிளிநொச்சி	கிளிநொச்சி	MOH அலுவலகம் - கராச்சி	එම්පීඑම්ජේ+සී 8 ජේ, කාත්තන්කුඩි, ශ්‍රී ලංකාව	MPMJ+C8J, காத்தான்குடி, இலங்கை
Kilinochchi	Kilinochchi	MOH Office - Kandavalai	False	False	KLNCHCHKLNCHCHMHFFCKNDVL		Kilinochchi	LK-45	9.415742	80.30358	Kilinochchi	PS-450131	9.392265	80.407846	9.411006	80.516427	Parantan-Mullaitivu Hwy, Sri Lanka	12.096188		කිලිනොච්චි	කිලිනොච්චි	MOH කාර්යාලය - කඳවලයි	கிளிநொச்சி	கிளிநொச்சி	MOH அலுவலகம் - கண்டாவளை	පරන්තන්-මුලතිව් හ්වි, ශ්‍රී ලංකාව	பரந்தன்-முல்லைத்தீவு, இலங்கை
Kilinochchi	Palei	MOH Office – Palei	False	False	KLNCHCHPLMHFFCPL		Kilinochchi	LK-45	9.415742	80.30358	Palei	PS-450132	6.900777	79.872638	9.610611	80.328165	Office of the Medical Officer for Health, Pallai Pradwshasaba, A9, Pachchilapalli, Sri Lanka	305.555993	#CenterFarFromPolice	කිලිනොච්චි	පලෙයි	MOH කාර්යාලය - පලෙයි	கிளிநொச்சி	பலே	MOH அலுவலகம் - பலே	සෞඛ්‍ය වෛද්‍ය නිලධාරි කාර්යාලය, පලෙයි ප්‍රද්වශසාබා, ඒ 9, පච්චිලපල්ලි, ශ්‍රී ලංකාව	சுகாதார மருத்துவ அதிகாரி அலுவலகம், பளை பிரத்வசாபா, ஏ 9, பச்சிலப்பள்ளி, இலங்கை
Mullaitivu	Mallavi	MOH Office - Mallavi	False	False	MLLTVMLLVMHFFCMLLV		Mullaitivu	LK-44	9.167643	80.549091	Mallavi	PS-440153	9.137878	80.307257	9.136526	80.307948	48P5+J58, Mallavi, Sri Lanka	0.168444		මුලතිව්	මල්ලාවි	MOH කාර්යාලය - මල්ලාවි	முல்லைத்தீவு	மல்லவி	MOH அலுவலகம் - மல்லாவி	48 පී 5+ජේ 58, මල්ලාවි, ශ්‍රී ලංකාව	48P5+J58, மல்லாவி, இலங்கை
Mullaitivu	Mallavi	Vidyananda Maha Vidyalaya	False	False	MLLTVMLLVVDYNNDMHVDYLY		Mullaitivu	LK-44	9.167643	80.549091	Mallavi	PS-440153	9.137878	80.307257	9.130417	80.307209	Hospital road mallavi mullaitivu, 42000, Sri Lanka	0.829903		මුලතිව්	මල්ලාවි	විද්‍යානන්ද මහා විද්‍යාලය	முல்லைத்தீவு	மல்லவி	வித்யானந்த மகா வித்தியாலயம்	රෝහල් පාර මල්ලාවි මුලතිව්, 42000, ශ්‍රී ලංකාව	மருத்துவமனை சாலை மல்லாவி முல்லைத்தீவு, 42000, இலங்கை
Mullaitivu	Puthukudiyiruppu	Medical Superintendent of Health Office	False	False	MLLTVPTHKDYRPPMDCLSPRNTNDNTFHLTHFFC		Mullaitivu	LK-44	9.167643	80.549091	Pudukuduiruppu	PS-440149	7.00152	79.95003	9.320996	80.683002	8MCM+96R, Puthukkudiyiruppu, Sri Lanka	270.320843	#CenterFarFromPolice	මුලතිව්	පුදුකුඩියිරුප්පු	සෞඛ්‍ය අධිකාරී කාර්යාලය	முல்லைத்தீவு	புதுக்குடியிருப்பு	சுகாதார மேற்பார்வையாளர் அலுவலகம்	8MCM+96R, පුදුක්කුඩියිරුප්පු, ශ්‍රී ලංකාව	8 எம்சிஎம்+96 ஆர், புதுக்குடியிருப்பு, இலங்கை
Mullaitivu	Oddusuddan	Medical Superintendent of Health Office	False	False	MLLTVDDSDDNMDCLSPRNTNDNTFHLTHFFC		Mullaitivu	LK-44	9.167643	80.549091	Oddusudan	PS-440151	9.160983	80.652821	9.261573	80.813807	Mullaittivu-Kokkilai Rd, Mullaitivu, Sri Lanka	20.919119	#CenterFarFromPolice	මුලතිව්	ඔඩ්ඩුසුඩාන්	සෞඛ්‍ය අධිකාරී කාර්යාලය	முல்லைத்தீவு	ஒட்டுசுட்டான்	சுகாதார மேற்பார்வையாளர் அலுவலகம்	මුලතිව්-කොකිලායි පාර, මුලතිව්, ශ්‍රී ලංකාව	முல்லைத்தீவு-கொக்கிளாய் சாலை, முல்லைத்தீவு, இலங்கை
Trincomalee	Muttur	MOH Office – Muttur	False	False	TRNCMLMTTRMHFFCMTTR		Trincomalee	LK-53	8.551241	81.092014	Mutur	PS-530138	8.461133	81.259371	8.453916	81.264494	1 Old Batticaloa Rd, Mutur, Sri Lanka	0.980859		ත්රිකුණාමලය	මුතූර්	MOH කාර්යාලය - මුතූර්	திருகோணமலை	மூதூர்	MOH அலுவலகம் - மூதூர்	1 පරණ මඩකලපුව පාර, මුතූර්, ශ්‍රී ලංකාව	1 பழைய மட்டக்களப்பு வீதி, மூதூர், இலங்கை
Trincomalee	Kinniya	MOH Office – Kinniya	False	False	TRNCMLKNNYMHFFCKNNY		Trincomalee	LK-53	8.551241	81.092014	Kinnia	PS-530140	6.907289	79.863819	8.498696	81.179644	F5XH+FVC, Kinniya 31100, Sri Lanka	228.840304	#CenterFarFromPolice	ත්රිකුණාමලය	කින්නියා	MOH කාර්යාලය - කින්නියා	திருகோணமலை	கிண்ணியா	MOH அலுவலகம் - கிண்ணியா	F5XH+FVC, කින්නියා 31100, ශ්‍රී ලංකාව	F5XH+FVC, கிண்ணியா 31100, இலங்கை
Trincomalee	Kinniya	Surangal Rural Health Medical Center	False	False	TRNCMLKNNYSRNGLRRLHLTHMDCLCNTR		Trincomalee	LK-53	8.551241	81.092014	Kinnia	PS-530140	6.907289	79.863819	8.47091	81.139893	F4CQ+9X6, Kinniya, Sri Lanka	223.680372	#CenterFarFromPolice	ත්රිකුණාමලය	කින්නියා	සුරංගල් ග්‍රාමීය සෞඛ්‍ය වෛද්‍ය මධ්‍යස්ථානය	திருகோணமலை	கிண்ணியா	சுரங்கல் கிராம சுகாதார மருத்துவ மையம்	F4CQ+9X6, කින්නියා, ශ්‍රී ලංකාව	F4CQ+9X6, கிண்ணியா, இலங்கை
Trincomalee	Sripura	MOH Office – Sripura	False	False	TRNCMLSRPRMHFFCSRPR		Trincomalee	LK-53	8.551241	81.092014	Sripura	PS-530136	8.929617	80.81428	8.926697	80.814799	Padavi Sripura, Padaviya - Sripura Road, Welioya, Sri Lanka	0.329869		ත්රිකුණාමලය	ශ්‍රීපුර	MOH කාර්යාලය - ශ්‍රීපුර	திருகோணமலை	ஸ்ரீபுரா	MOH அலுவலகம் - ஸ்ரீபுரா	පදවි ශ්‍රීපුර, පදවිය - ශ්‍රීපුර පාර, වැලිඔය, ශ්‍රී ලංකාව	படவி ஸ்ரீபுரா, படாவியா - ஸ்ரீபுரா சாலை, வெலிஓயா, இலங்கை
Trincomalee	Kuchchaveli	MOH Office - Kuchchaveli	False	False	TRNCMLKCHCHVLMHFFCKCHCHVL		Trincomalee	LK-53	8.551241	81.092014	Kuchchaweli	PS-530133	8.81895	81.100438	8.740082	81.161616	P5R6+2JQ, Kumpurupiddi, Sri Lanka	11.053646		ත්රිකුණාමලය	කුච්චවේලි	MOH කාර්යාලය - කුච්චවේලි	திருகோணமலை	குச்சவெளி	MOH அலுவலகம் - குச்சவெளி	P5R6+2JQ, කුඹුරුපිඩි, ශ්‍රී ලංකාව	P5R6+2JQ, கும்புறுப்பிடி, இலங்கை
Trincomalee	Kuchchaveli	Kuchchaveli Hospital	False	False	TRNCMLKCHCHVLKCHCHVLHSPTL		Trincomalee	LK-53	8.551241	81.092014	Kuchchaweli	PS-530133	8.81895	81.100438	8.814795	81.102358	R472+WW9, Kuchchaveli, Sri Lanka	0.508064		ත්රිකුණාමලය	කුච්චවේලි	කුච්චවේලි රෝහල	திருகோணமலை	குச்சவெளி	குச்சவெளி மருத்துவமனை	ආර් 472+WW9, කුච්චවේලි, ශ්‍රී ලංකාව	R472+WW9, குச்சவெளி, இலங்கை
Trincomalee	Kuchchaveli	Divisional Hospital - Nilaveli	False	False	TRNCMLKCHCHVLDVSNLHSPTLNLVL		Trincomalee	LK-53	8.551241	81.092014	Kuchchaweli	PS-530133	8.81895	81.100438	8.681035	81.193632	M5JV+CF6, Nilaveli, Sri Lanka	18.44695		ත්රිකුණාමලය	කුච්චවේලි	ප්‍රාදේශීය රෝහල - නිලාවේලි	திருகோணமலை	குச்சவெளி	பிரதேச மருத்துவமனை - நிலாவெளி	M5JV+CF6, නිලාවේලි, ශ්‍රී ලංකාව	M5JV+CF6, நிலவேலி, இலங்கை
Trincomalee	Pulmoddai	MOH Office - Pulmoddai	False	False	TRNCMLPLMDDMHFFCPLMDD		Trincomalee	LK-53	8.551241	81.092014	Pulmudai	PS-530135	6.915266	79.87829	8.599018	81.217151	H6X8+JV2, Trincomalee, Sri Lanka	238.425888	#CenterFarFromPolice	ත්රිකුණාමලය	පුල්මොඩෙයි	MOH කාර්යාලය - පුල්මොඩෙයි	திருகோணமலை	புல்மோட்டை	MOH அலுவலகம் - புல்மோட்டை	H6X8+JV2, ත්‍රිකුණාමලය, ශ්‍රී ලංකාව	H6X8+JV2, திருகோணமலை, இலங்கை
Trincomalee	Uppuveli	MOH Office - Uppuveli	False	False	TRNCMLPPVLMHFFCPPVL		Trincomalee	LK-53	8.551241	81.092014	Uppuweli	PS-530134	8.593614	81.21743	8.607961	81.216512	Nilaveli Rd, Trincomalee, Sri Lanka	1.599005		ත්රිකුණාමලය	උප්පුවේලි	MOH කාර්යාලය - උප්පුවේලි	திருகோணமலை	உப்புவேலி	MOH அலுவலகம் - உப்புவேலி	නිලාවේලි පාර, ත්‍රිකුණාමලය, ශ්‍රී ලංකාව	நிலவேலி வீதி, திருகோணமலை, இலங்கை
Trincomalee	Harbour Police	MOH Office - Trincomalee	False	False	TRNCMLHRBRPLCMHFFCTRNCML		Trincomalee	LK-53	8.551241	81.092014	Trinco Harbour Police	PS-530131	8.56705	81.231407	8.598974	81.216963	MOH Office, Farm Rd, Trincomalee, Sri Lanka	3.890062		ත්රිකුණාමලය	වරාය පොලිසිය	එම්ඕඑච් කාර්යාලය - ත්‍රිකුණාමලය	திருகோணமலை	துறைமுக காவல்துறை	MOH அலுவலகம் - திருகோணமலை	එම්ඕඑච් කාර්යාලය, ගොවිපල පාර, ත්‍රිකුණාමලය, ශ්‍රී ලංකාව	MOH அலுவலகம், பண்ணை சாலை, திருகோணமலை, இலங்கை
Trincomalee	Harbour Police	Base Hospital - Trincomalee	False	False	TRNCMLHRBRPLCBSHSPTLTRNCML		Trincomalee	LK-53	8.551241	81.092014	Trinco Harbour Police	PS-530131	8.56705	81.231407	8.56486	81.239445	Hospital Ln, Trincomalee, Sri Lanka	0.917037		ත්රිකුණාමලය	වරාය පොලිසිය	මූලික රෝහල - ත්‍රිකුණාමලය	திருகோணமலை	துறைமுக காவல்துறை	அடிப்படை மருத்துவமனை - திருகோணமலை	රෝහල, ත්‍රිකුණාමලය, ශ්‍රී ලංකාව	மருத்துவமனை Ln, திருகோணமலை, இலங்கை
Trincomalee	Ichchalampattu	MOH Office - Ichchalampattu	False	False	TRNCMLCHCHLMPTTMHFFCCHCHLMPTT	Eachchilampattu Hospital	Trincomalee	LK-53	8.551241	81.092014	Ichchalampattu		8.289549	81.359002	8.289644	81.358983	Highway, Ichchalampattu, Trincomalee, Sri Lanka	0.010772		ත්රිකුණාමලය	ඉච්චලම්පත්තු	එක්ර්චිලම්පත්තු රෝහල	திருகோணமலை	இச்சலம்பட்டு	ஒவ்வொருசிலம்பட்டு மருத்துவமனை	අධිවේගී මාර්ගය, ඉච්චලම්පත්තු, ත්‍රිකුණාමලය, ශ්‍රී ලංකාව	நெடுஞ்சாலை, ஈச்சலாம்பட்டு, திருகோணமலை, இலங்கை
Trincomalee	Serunuwara	MOH Office - Serunuwara	False	False	TRNCMLSRNWRMHFFCSRNWR		Trincomalee	LK-53	8.551241	81.092014	Serunuwara	PS-530244	8.321863	81.299322	8.323143	81.299894	B10, Sri Lanka	0.155671		ත්රිකුණාමලය	සේරුනුවර	MOH කාර්යාලය - සේරුනුවර	திருகோணமலை	சேருநுவரா	MOH அலுவலகம் - சேருநுவரா	බී 10, ශ්‍රී ලංකාව	பி 10, இலங்கை
Trincomalee	Kantale	MOH Office - Kantale	False	False	TRNCMLKNTLMHFFCKNTL		Trincomalee	LK-53	8.551241	81.092014	Kantale	PS-530241	8.356129	81.007739	8.349617	81.009107	අග්‍රබෝධි මාවත, Kantale, Sri Lanka	0.739809		ත්රිකුණාමලය	කන්තලේ	MOH කාර්යාලය - කන්තලේ	திருகோணமலை	கந்தலே	MOH அலுவலகம் - கந்தலே	වැඩි දියුණු කිරීම මාවත, කන්තලේ, ශ්‍රී ලංකාව	தீவிரப்படுத்தி மாவத்த, கந்தலே, இலங்கை
Batticaloa	Vakarai	MOH Office - Vakarai	False	False	BTTCLVKRMHFFCVKR	Divisional Hospital Vakarai	Batticaloa	LK-51	7.792772	81.486513	Wakarai	PS-510109	6.934132	79.856305	8.134552	81.435328	Trincomalee Hwy, Vakarai, Sri Lanka	219.417822	#CenterFarFromPolice	මඩකලපුව	වාකරේ	වාකරේ ප්‍රාදේශීය රෝහල	மட்டக்களப்பு	வாகரை	வாகரை பிரதேச மருத்துவமனை	ත්‍රිකුණාමලය හ්වි, වාකරේ, ශ්‍රී ලංකාව	திருகோணமலை Hwy, வாகரை, இலங்கை
Batticaloa	Valachchenai	Valachchenai Base Hospital	False	False	BTTCLVLCHCHNVLCHCHNBSHSPTL		Batticaloa	LK-51	7.792772	81.486513	Valachchanai	PS-510107	7.908015	81.533004	7.911315	81.533046	Valaichchenai-Nasuvantivu-Navaladi Road, Sri Lanka	0.367088		මඩකලපුව	වාලච්චේන	වාලච්චේන මූලික රෝහල	மட்டக்களப்பு	வாலாச்சேனை	வாலாச்சேனை ஆதார மருத்துவமனை	වාලච්චේනයි-නසුවන්ටිව්-නවාලාඩි පාර, ශ්‍රී ලංකාව	வாழைச்சேனை-நசுவந்திவு-நாவலடி சாலை, இலங்கை
Batticaloa	Valachchenai	MOH Office - Valachchenai	False	False	BTTCLVLCHCHNMHFFCVLCHCHN		Batticaloa	LK-51	7.792772	81.486513	Valachchanai	PS-510107	7.908015	81.533004	7.912281	81.532775	WG6M+W46, Batticaloa, Sri Lanka	0.475177		මඩකලපුව	වාලච්චේන	MOH කාර්යාලය - වාලච්චේන	மட்டக்களப்பு	வாலாச்சேனை	MOH அலுவலகம் - வாலாச்சேனை	WG6M+W46, මඩකලපුව, ශ්‍රී ලංකාව	WG6M+W46, மட்டக்களப்பு, இலங்கை
Batticaloa	Valachchenai	MOH Office - Oddamavadi	False	False	BTTCLVLCHCHNMHFFCDDMVD		Batticaloa	LK-51	7.792772	81.486513	Valachchanai	PS-510107	7.908015	81.533004	7.912281	81.532775	WG6M+W46, Batticaloa, Sri Lanka	0.475177		මඩකලපුව	වාලච්චේන	එම්ඕඑච් කාර්යාලය - ඔද්දමවඩි	மட்டக்களப்பு	வாலாச்சேனை	MOH அலுவலகம் - ஓட்டமாவடி	WG6M+W46, මඩකලපුව, ශ්‍රී ලංකාව	WG6M+W46, மட்டக்களப்பு, இலங்கை
Batticaloa	Valachchenai	MOH Office - Kiran	False	False	BTTCLVLCHCHNMHFFCKRN		Batticaloa	LK-51	7.792772	81.486513	Valachchanai	PS-510107	7.908015	81.533004	7.502211	79.839254	GR2Q+VPJ, Madampe, Sri Lanka	192.073036	#CenterFarFromPolice	මඩකලපුව	වාලච්චේන	MOH කාර්යාලය - කිරාන්	மட்டக்களப்பு	வாலாச்சேனை	MOH அலுவலகம் - கிரண்	GR2Q+VPJ, මාදම්පේ, ශ්‍රී ලංකාව	GR2Q+VPJ, மாதம்பே, இலங்கை
Batticaloa	Valachchenai	MOH Office - Navallady	False	False	BTTCLVLCHCHNMHFFCNVLLDY		Batticaloa	LK-51	7.792772	81.486513	Valachchanai	PS-510107	7.908015	81.533004	7.912281	81.532775	WG6M+W46, Batticaloa, Sri Lanka	0.475177		මඩකලපුව	වාලච්චේන	MOH කාර්යාලය - නවල්ලඩි	மட்டக்களப்பு	வாலாச்சேனை	MOH அலுவலகம் - நாவல்லடி	WG6M+W46, මඩකලපුව, ශ්‍රී ලංකාව	WG6M+W46, மட்டக்களப்பு, இலங்கை
Batticaloa	Kaluwanchikudy	MOH Office - Kaluwanchikudy	False	False	BTTCLKLWNCHKDYMHFFCKLWNCHKDY	Medical Officer of Health Kaluwanchikudy	Batticaloa	LK-51	7.792772	81.486513	Kalawanchikudy	PS-510110	7.515908	81.787051	7.509333	81.79204	Colombo - Batticaloa Hwy, Kaluwanchikudy, Sri Lanka	0.915167		මඩකලපුව	කළුවන්චිකුඩි	කළුවන්චිකුඩි සෞඛ්‍ය වෛද්‍ය නිලධාරී	மட்டக்களப்பு	களுவாஞ்சிக்குடி	சுகாதார மருத்துவ அதிகாரி களுவாஞ்சிக்குடி	කොළඹ - මඩකලපුව හ්වි, කලුවාංචිකුඩි, ශ්‍රී ලංකාව	கொழும்பு - மட்டக்களப்பு Hwy, களுவாஞ்சிக்குடி, இலங்கை
Batticaloa	Kaluwanchikudy	Kaluwanchikudy Hospital	False	False	BTTCLKLWNCHKDYKLWNCHKDYHSPTL	Base Hospital - Kaluwanchikudy	Batticaloa	LK-51	7.792772	81.486513	Kalawanchikudy	PS-510110	7.515908	81.787051	7.51724	81.785184	GQ8P+V3V, Kaluwanchikudy, Sri Lanka	0.25365		මඩකලපුව	කළුවන්චිකුඩි	මූලික රෝහල - කළුවන්චිකුඩි	மட்டக்களப்பு	களுவாஞ்சிக்குடி	அடிப்படை மருத்துவமனை - களுவாஞ்சிக்குடி	GQ8P+V3V, කළුවාංචිකුඩි, ශ්‍රී ලංකාව	GQ8P+V3V, களுவாஞ்சிக்குடி, இலங்கை
Batticaloa	Kokkadicholai	MOH Office - Pattipala	False	False	BTTCLKKKDCHLMHFFCPTTPL		Batticaloa	LK-51	7.792772	81.486513	Kokkadicholai	PS-510112	7.715979	81.698757	7.539982	80.915581	GWQ8+X6W, Hettipola, Sri Lanka	88.533038	#CenterFarFromPolice	මඩකලපුව	කොක්කඩිචෝලේ	MOH කාර්යාලය - පට්ටිපාල	மட்டக்களப்பு	கொக்கடிச்சோலை	MOH அலுவலகம் - பட்டிபால	GWQ8+X6W, හෙට්ටිපොල, ශ්‍රී ලංකාව	GWQ8+X6W, ஹெட்டிபொல, இலங்கை
Batticaloa	Vellavely	MOH Office - Vellavely	False	False	BTTCLVLLVLYMHFFCVLLVLY		Batticaloa	LK-51	7.792772	81.486513									#PoliceLocationUnknown	මඩකලපුව	වෙල්ලවෙලි	MOH කාර්යාලය - වෙල්ලවේලි	மட்டக்களப்பு	வெள்ளவேலி	MOH அலுவலகம் - வெள்ளவேலி		
Batticaloa	Kattankudy	MOH Office - Kattankudy	False	False	BTTCLKTTNKDYMHFFCKTTNKDY		Batticaloa	LK-51	7.792772	81.486513	Kaththankudi	PS-510103	7.715979	81.698757	7.683586	81.730767	MPMJ+C8J, Kattankudy, Sri Lanka	5.042961		මඩකලපුව	කාත්තන්කුඩි	MOH කාර්යාලය - කාත්තන්කුඩි	மட்டக்களப்பு	காத்தான்குடி	MOH அலுவலகம் - காத்தான்குடி	එම්පීඑම්ජේ+සී 8 ජේ, කාත්තන්කුඩි, ශ්‍රී ලංකාව	MPMJ+C8J, காத்தான்குடி, இலங்கை
Batticaloa	Kattankudy	MOH Office - Arayampathy	False	False	BTTCLKTTNKDYMHFFCRYMPTHY		Batticaloa	LK-51	7.792772	81.486513	Kaththankudi	PS-510103	7.715979	81.698757	7.672862	81.735019	MPFP+42R, Sri Lanka	6.243191		මඩකලපුව	කාත්තන්කුඩි	MOH කාර්යාලය - අරයම්පති	மட்டக்களப்பு	காத்தான்குடி	MOH அலுவலகம் - ஆரையம்பதி	එම්පීඑෆ්පී+42 ආර්, ශ්‍රී ලංකාව	MPFP+42R, இலங்கை
Batticaloa	Vavunathivu	MOH Office - Vavunathivu	False	False	BTTCLVVNTHVMHFFCVVNTHV		Batticaloa	LK-51	7.792772	81.486513	Vavunathive	PS-510102	6.933075	79.857181	7.708253	81.691368	Hospital Rd, Batticaloa, Sri Lanka	219.95575	#CenterFarFromPolice	මඩකලපුව	වවුනතිව්	MOH කාර්යාලය - වවුනතිව්	மட்டக்களப்பு	வவுணதீவு	MOH அலுவலகம் - வவுணதீவு	රෝහල පාර, මඩකලපුව, ශ්‍රී ලංකාව	மருத்துவமனை சாலை, மட்டக்களப்பு, இலங்கை
Batticaloa	Batticaloa	MOH Office - Batticaloa	False	False	BTTCLBTTCLMHFFCBTTCL		Batticaloa	LK-51	7.792772	81.486513	Batticaloa	PS-510101	7.717949	81.699294	7.708253	81.691368	Hospital Rd, Batticaloa, Sri Lanka	1.387934		මඩකලපුව	මඩකලපුව	MOH කාර්යාලය - මඩකලපුව	மட்டக்களப்பு	மட்டக்களப்பு	MOH அலுவலகம் - மட்டக்களப்பு	රෝහල පාර, මඩකලපුව, ශ්‍රී ලංකාව	மருத்துவமனை சாலை, மட்டக்களப்பு, இலங்கை
Batticaloa	Eravur	Sandiveli Hospital	False	False	BTTCLRVRSNDVLHSPTL		Batticaloa	LK-51	7.792772	81.486513	Eravur	PS-510104	7.715979	81.698757	7.777289	81.602853	Trincomalee Hwy, Eravur, Sri Lanka	12.578998		මඩකලපුව	එරාවුර්	සඳිවේලි රෝහල	மட்டக்களப்பு	ஏறாவூர்	சண்டிவேலி மருத்துவமனை	ත්‍රිකුණාමලය හ්වි, එරාවුර්, ශ්‍රී ලංකාව	திருகோணமலை Hwy, ஏறாவூர், இலங்கை
Batticaloa	Eravur	MOH Office – Eravur	False	False	BTTCLRVRMHFFCRVR		Batticaloa	LK-51	7.792772	81.486513	Eravur	PS-510104	7.715979	81.698757	7.783664	81.605626	QJM4+F76, Eravur, Sri Lanka	12.729342		මඩකලපුව	එරාවුර්	MOH කාර්යාලය - එරාවුර්	மட்டக்களப்பு	ஏறாவூர்	MOH அலுவலகம் - ஏறாவூர்	QJM4+F76, එරාවුර්, ශ්‍රී ලංකාව	QJM4+F76, ஏறாவூர், இலங்கை
Batticaloa	Eravur	Eravur Hospital	False	False	BTTCLRVRRVRHSPTL		Batticaloa	LK-51	7.792772	81.486513	Eravur	PS-510104	7.715979	81.698757	7.783168	81.605999	QJM4+799, Eravur 30300, Sri Lanka	12.663585		මඩකලපුව	එරාවුර්	එරාවුර් රෝහල	மட்டக்களப்பு	ஏறாவூர்	ஏறாவூர் மருத்துவமனை	QJM4+799, එරාවුර් 30300, ශ්‍රී ලංකාව	QJM4+799, ஏறாவூர் 30300, இலங்கை
Batticaloa	Eravur	Muhaidin Mosque	False	False	BTTCLRVRMHDNMSQ		Batticaloa	LK-51	7.792772	81.486513	Eravur	PS-510104	7.715979	81.698757	7.772927	81.609849	Town,, Eravur 30300, Sri Lanka	11.668		මඩකලපුව	එරාවුර්	මුහයිඩින් පල්ලිය	மட்டக்களப்பு	ஏறாவூர்	முஹைதீன் மசூதி	නගරය ,, එරාවුර් 30300, ශ්‍රී ලංකාව	நகரம் ,, ஏறாவூர் 30300, இலங்கை
Batticaloa	Eravur	MOH Office - Chenkaladi	False	False	BTTCLRVRMHFFCCHNKLD		Batticaloa	LK-51	7.792772	81.486513	Eravur	PS-510104	7.715979	81.698757	7.783599	81.593367	Trincomalee Hwy, Chenkaladi 30350, Sri Lanka	13.837876		මඩකලපුව	එරාවුර්	MOH කාර්යාලය - චෙන්කලාඩි	மட்டக்களப்பு	ஏறாவூர்	MOH அலுவலகம் - செங்கலடி	ත්‍රිකුණාමලය හ්වි, චෙන්කලාඩි 30350, ශ්‍රී ලංකාව	திருகோணமலை Hwy, செங்கலடி 30350, இலங்கை
Batticaloa	Eravur	Chenkaladi Hospital	False	False	BTTCLRVRCHNKLDHSPTL		Batticaloa	LK-51	7.792772	81.486513	Eravur	PS-510104	7.715979	81.698757	7.783546	81.589961	Batticaloa Rd, Chenkaladi, Sri Lanka	14.151406		මඩකලපුව	එරාවුර්	චෙන්කලාඩි රෝහල	மட்டக்களப்பு	ஏறாவூர்	செங்கலடி மருத்துவமனை	මඩකලපුව පාර, චෙන්කලාඩි, ශ්‍රී ලංකාව	மட்டக்களப்பு வீதி, செங்கலடி, இலங்கை
Batticaloa	Eravur	Joseph College	False	False	BTTCLRVRJSPHCLLG		Batticaloa	LK-51	7.792772	81.486513	Eravur	PS-510104	7.715979	81.698757	7.75875	81.648713	Thannamunai, Sri Lanka	7.283871		මඩකලපුව	එරාවුර්	ජෝශප් විද්‍යාලය	மட்டக்களப்பு	ஏறாவூர்	ஜோசப் கல்லூரி	තන්නමුනායි, ශ්‍රී ලංකාව	தன்னமுனை, இலங்கை
Batticaloa	Eravur	Kommanthurai Clinic	False	False	BTTCLRVRKMMNTHRCLNC		Batticaloa	LK-51	7.792772	81.486513	Eravur	PS-510104	7.715979	81.698757	7.780325	81.604389	Town, Eravur, Sri Lanka	12.625376		මඩකලපුව	එරාවුර්	කොම්මන්තුරේ සායනය	மட்டக்களப்பு	ஏறாவூர்	கொம்மாந்துறை மருத்துவமனை	නගරය, එරාවුර්, ශ්‍රී ලංකාව	நகரம், ஏறாவூர், இலங்கை
Batticaloa	Eravur	Mawadiwembu Hospital	False	False	BTTCLRVRMWDWMBHSPTL		Batticaloa	LK-51	7.792772	81.486513	Eravur	PS-510104	7.715979	81.698757	7.808545	81.566328	Mawadiwembu Hospital, Sri Lanka	17.861302		මඩකලපුව	එරාවුර්	මාවඩිවේඹු රෝහල	மட்டக்களப்பு	ஏறாவூர்	மாவடிவெம்பு மருத்துவமனை	මාවඩිවේඹු රෝහල, ශ්‍රී ලංකාව	மாவடிவெம்பு மருத்துவமனை, இலங்கை
Batticaloa	Karadiyanaru	Karadiyanaru Hospital	False	False	BTTCLKRDYNRKRDYNRHSPTL		Batticaloa	LK-51	7.792772	81.486513	Karadiyanaru	PS-510105	7.701992	81.537252	7.700216	81.539779	PG2Q+3WJ, Karadiyanaru, Sri Lanka	0.341482		මඩකලපුව	කරදියනාරු	කරදියනාරු රෝහල	மட்டக்களப்பு	கரடியனாறு	கரடியனாறு மருத்துவமனை	PG2Q+3WJ, කරදියනාරු, ශ්‍රී ලංකාව	PG2Q+3WJ, கரடியனாறு, இலங்கை
Ampara	Chavalakade	MOH Office - Navidanveli	False	False	MPRCHVLKDMHFFCNVDNVL		Ampara	LK-52	7.23699	81.550391	Chawalakade	PS-520125	7.413559	81.776822	7.420081	81.788401	B77, Sri Lanka	1.468805		අම්පාර	චවලකඩේ	MOH කාර්යාලය - නාවිදන්වේලි	அம்பாறை	சவளகடே	MOH அலுவலகம் - நாவிதன்வெளி	බී 77, ශ්‍රී ලංකාව	பி 77, இலங்கை
Ampara	Akkaraipattu	MOH Office - Akkaraipattu	False	False	MPRKKRPTTMHFFCKKRPTT		Ampara	LK-52	7.23699	81.550391	Akkaraipattu	PS-520126	7.216084	81.853254	7.228134	81.851123	6VH2+7C5, Akkaraipattu, Sri Lanka	1.360772		අම්පාර	අක්කරපත්තුව	MOH කාර්යාලය - අක්කරපත්තුව	அம்பாறை	அக்கரைப்பற்று	MOH அலுவலகம் - அக்கரைப்பற்று	6VH2+7C5, අක්කරපත්තුව, ශ්‍රී ලංකාව	6VH2+7C5, அக்கரைப்பற்று, இலங்கை
Ampara	Akkaraipattu	MOH Office - Addalaichenai	False	False	MPRKKRPTTMHFFCDDLCHN		Ampara	LK-52	7.23699	81.550391	Akkaraipattu	PS-520126	7.216084	81.853254	7.260916	81.853493	7V63+999, Addalaichenai, Sri Lanka	4.986726		අම්පාර	අක්කරපත්තුව	MOH කාර්යාලය - අද්දලෙයිචේනයි	அம்பாறை	அக்கரைப்பற்று	MOH அலுவலகம் - அடிலைச்சேனை	7V63+999, අද්දලෙයිචේනෙයි, ශ්‍රී ලංකාව	7V63+999, அடிலைச்சேனை, இலங்கை
Ampara	Akkaraipattu	MOH Office - Alayadiwembu	False	False	MPRKKRPTTMHFFCLYDWMB		Ampara	LK-52	7.23699	81.550391	Akkaraipattu	PS-520126	7.216084	81.853254	7.413484	81.826588	Colombo - Batticaloa Hwy, Kalmunai 32300, Sri Lanka	22.152981	#CenterFarFromPolice	අම්පාර	අක්කරපත්තුව	එම්ඕඑච් කාර්යාලය - අලයඩිවෙම්බු	அம்பாறை	அக்கரைப்பற்று	MOH அலுவலகம் - ஆலையடிவேம்பு	කොළඹ - මඩකලපුව හ්වි, කල්මුණේ 32300, ශ්‍රී ලංකාව	கொழும்பு - மட்டக்களப்பு Hwy, கல்முனை 32300, இலங்கை
Ampara	Thirukkovil	MOH Office – Thirukkovil	False	False	MPRTHRKKVLMHFFCTHRKKVL		Ampara	LK-52	7.23699	81.550391	Thirukkovil	PS-520127	7.113998	81.852219	7.111635	81.852892	Central Rd, Vinayagapuram, Sri Lanka	0.273131		අම්පාර	තිරුක්කෝවිල්	MOH කාර්යාලය - තිරුක්කෝවිල්	அம்பாறை	திருக்கோவில்	MOH அலுவலகம் - திருக்கோவில்	මධ්‍යම පාර, විනයාගපුරම්, ශ්‍රී ලංකාව	மத்திய வீதி, விநாயகபுரம், இலங்கை
Ampara	Dehiattakandiya	Henanigala South College	False	False	MPRDHTTKNDYHNNGLSTHCLLG		Ampara	LK-52	7.23699	81.550391	Dehiaththakandiya	PS-520121	7.672072	81.044241	7.704478	81.079838	P33H+QWW, Bandanagala, Sri Lanka	5.328148		අම්පාර	දෙහිඅත්තකණ්ඩිය	හෙනානිගල දකුණු විද්‍යාලය	அம்பாறை	தெஹியத்தகண்டியா	ஹெனனிகலா தெற்கு கல்லூரி	P33H+QWW, බන්දනාගල, ශ්‍රී ලංකාව	P33H+QWW, பந்தனகலா, இலங்கை
Ampara	Dehiattakandiya	Diyaviddagama Community Hall	False	False	MPRDHTTKNDYDYVDDGMCMMNTYHLL		Ampara	LK-52	7.23699	81.550391	Dehiaththakandiya	PS-520121	7.672072	81.044241	7.668027	81.047433	M29W+6X7, Dehiattakandiya, Sri Lanka	0.571178		අම්පාර	දෙහිඅත්තකණ්ඩිය	දියවිද්දගම ප්‍රජා ශාලාව	அம்பாறை	தெஹியத்தகண்டியா	தியவிடகம சமூக மண்டபம்	M29W+6X7, දෙහිඅත්තකණ්ඩිය, ශ්‍රී ලංකාව	M29W+6X7, தெஹியத்தகண்டியா, இலங்கை
Ampara	Dehiattakandiya	Serupitiya Viharaya	False	False	MPRDHTTKNDYSRPTYVHRY		Ampara	LK-52	7.23699	81.550391	Dehiaththakandiya	PS-520121	7.672072	81.044241	7.52674	81.485504	Ampara-Uhana-Maha Oya Hwy, aranthalava 32250, Sri Lanka	51.265848	#CenterFarFromPolice	අම්පාර	දෙහිඅත්තකණ්ඩිය	සේරුපිටිය විහාරය	அம்பாறை	தெஹியத்தகண்டியா	சேருபிட்டிய விகாரை	අම්පාර-උහන-මහා ඔය හ්වි, අරන්තලාව 32250, ශ්‍රී ලංකාව	அம்பாறை-உஹன-மஹா ஓயா ஹ்வி, ஆரந்தலாவா 32250, இலங்கை
Ampara	Dehiattakandiya	Sadamadulla Vidyalaya	False	False	MPRDHTTKNDYSDMDLLVDYLY		Ampara	LK-52	7.23699	81.550391	Dehiaththakandiya	PS-520121	7.672072	81.044241	7.210268	81.845672	6R6W+473, Akkaraipattu, Sri Lanka	102.233352	#CenterFarFromPolice	අම්පාර	දෙහිඅත්තකණ්ඩිය	සදමඩුල්ල විද්‍යාලය	அம்பாறை	தெஹியத்தகண்டியா	சதமடுல்லா வித்யாலயா	6R6W+473, අක්කරපත්තුව, ශ්‍රී ලංකාව	6R6W+473, அக்கரைப்பற்று, இலங்கை
Ampara	Dehiattakandiya	Lihiniyagama Vidyalaya	False	False	MPRDHTTKNDYLHNYGMVDYLY		Ampara	LK-52	7.23699	81.550391	Dehiaththakandiya	PS-520121	7.672072	81.044241	7.632293	81.027045	J2JG+WR7, Sandunpura, Sri Lanka	4.813603		අම්පාර	දෙහිඅත්තකණ්ඩිය	ලිහිණියාගම විද්‍යාලය	அம்பாறை	தெஹியத்தகண்டியா	லிஹினியாகம வித்யாலயா	J2JG+WR7, සඳුන්පුර, ශ්‍රී ලංකාව	J2JG+WR7, சந்துன்புரா, இலங்கை
Ampara	Dehiattakandiya	Bakmeedeniya Vidyalaya	False	False	MPRDHTTKNDYBKMDNYVDYLY		Ampara	LK-52	7.23699	81.550391	Dehiaththakandiya	PS-520121	7.672072	81.044241	7.682795	81.023899	M2MF+4H6, Dehiattakandiya, Sri Lanka	2.539829		අම්පාර	දෙහිඅත්තකණ්ඩිය	බක්මීදෙණිය විද්‍යාලය	அம்பாறை	தெஹியத்தகண்டியா	பக்மீதெனிய வித்யாலயா	M2MF+4H6, දෙහිඅත්තකණ්ඩිය, ශ්‍රී ලංකාව	M2MF+4H6, தெஹியத்தகண்டியா, இலங்கை
Ampara	Dehiattakandiya	Rathmalkandura Vidyalaya	False	False	MPRDHTTKNDYRTHMLKNDRVDYLY		Ampara	LK-52	7.23699	81.550391	Dehiaththakandiya	PS-520121	7.672072	81.044241	7.710574	81.015578	P268+66G, Bandanagala, Sri Lanka	5.321921		අම්පාර	දෙහිඅත්තකණ්ඩිය	රත්මල්කඳුර විද්‍යාලය	அம்பாறை	தெஹியத்தகண்டியா	ரத்மல்கந்துரா வித்யாலயா	පී 268+66 ජී, බන්දනාගල, ශ්‍රී ලංකාව	பி 268+66 ஜி, பந்தனகலா, இலங்கை
Ampara	Dehiattakandiya	Nawamedagama Vidyalaya	False	False	MPRDHTTKNDYNWMDGMVDYLY		Ampara	LK-52	7.23699	81.550391	Dehiaththakandiya	PS-520121	7.672072	81.044241	7.533823	81.045377	G2MW+G5C, Diyawiddagama, Sri Lanka	15.377923		අම්පාර	දෙහිඅත්තකණ්ඩිය	නවමැදගම විද්‍යාලය	அம்பாறை	தெஹியத்தகண்டியா	நவமேதகம வித்யாலயா	ජී 2 එම්ඩබ්ලිව්+ජී 5 සී, දියවිද්දගම, ශ්‍රී ලංකාව	G2MW+G5C, தியவிடகம, இலங்கை
Ampara	Dehiattakandiya	Pahalagama Viharaya	False	False	MPRDHTTKNDYPHLGMVHRY		Ampara	LK-52	7.23699	81.550391	Dehiaththakandiya	PS-520121	7.672072	81.044241	7.594037	81.024321	H2VF+JP8, Diyawiddagama, Sri Lanka	8.953349		අම්පාර	දෙහිඅත්තකණ්ඩිය	පහළගම විහාරය	அம்பாறை	தெஹியத்தகண்டியா	பஹலகம விஹாராயா	H2VF+JP8, දියවිද්දගම, ශ්‍රී ලංකාව	H2VF+JP8, தியவிடகம, இலங்கை
Ampara	Dehiattakandiya	Sadunpura Vidyalaya	False	False	MPRDHTTKNDYSDNPRVDYLY		Ampara	LK-52	7.23699	81.550391	Dehiaththakandiya	PS-520121	7.672072	81.044241	7.628748	81.044783	Lihiniyagama Road, Sandunpura, Sri Lanka	4.819292		අම්පාර	දෙහිඅත්තකණ්ඩිය	සදුන්පුර විද්‍යාලය	அம்பாறை	தெஹியத்தகண்டியா	சடுன்புரா வித்யாலயா	ලිහිණියාගම පාර, සඳුන්පුර, ශ්‍රී ලංකාව	லிஹினியாகம சாலை, சந்துன்புரா, இலங்கை
Ampara	Sainthamarthu	MOH Office – Sainthamarthu	False	False	MPRSNTHMRTHMHFFCSNTHMRTH		Ampara	LK-52	7.23699	81.550391									#PoliceLocationUnknown	අම්පාර	සයින්දමර්තු	MOH කාර්යාලය - සයින්දමර්තු	அம்பாறை	சாய்ந்தமருது	MOH அலுவலகம் - சாய்ந்தமருது		
Ampara	Karaitivu	MOH Office – Karaitivu	False	False	MPRKRTVMHFFCKRTV		Ampara	LK-52	7.23699	81.550391	Karaitivu		9.744059	79.870587	7.377712	81.838796	Colombo-Ratnapura-Wellawaya-Batticaloa Highway, Karativu 32250, Sri Lanka	340.788666	#CenterFarFromPolice	අම්පාර	කාරතිව්	MOH කාර්යාලය - කරෙයිතිව්	அம்பாறை	காரைதீவு	MOH அலுவலகம் - காரைதீவு	කොළඹ-රත්නපුර-වැල්ලවාය-මඩකලපුව අධිවේගී මාර්ගය, කරතිවු 32250, ශ්‍රී ලංකාව	கொழும்பு-இரத்தினபுரி-வெள்ளவாயா-மட்டக்களப்பு நெடுஞ்சாலை, காரடிவு 32250, இலங்கை
Ampara	Kalmunai	MOH Office - Kalmunai South	False	False	MPRKLMNMHFFCKLMNSTH		Ampara	LK-52	7.23699	81.550391	Kalmunai	PS-520123	7.414289	81.825006	7.411712	81.838462	CR6Q+M9P, Kalmunai 32300, Sri Lanka	1.511625		අම්පාර	කල්මුණේ	MOH කාර්යාලය - කල්මුණේ දකුණ	அம்பாறை	கல்முனை	MOH அலுவலகம் - கல்முனை தெற்கு	CR6Q+M9P, කල්මුණේ 32300, ශ්‍රී ලංකාව	CR6Q+M9P, கல்முனை 32300, இலங்கை
Ampara	Kalmunai	Base Hospital Kalmunai North	False	False	MPRKLMNBSHSPTLKLMNNRTH		Ampara	LK-52	7.23699	81.550391	Kalmunai	PS-520123	7.414289	81.825006	7.420034	81.82232	hospital near, Kalmunai 32300, Sri Lanka	0.704353		අම්පාර	කල්මුණේ	කල්මුනේ උතුර මූලික රෝහල	அம்பாறை	கல்முனை	அடிப்படை மருத்துவமனை கல்முனை வடக்கு	රෝහල අසල, කල්මුණේ 32300, ශ්‍රී ලංකාව	மருத்துவமனை அருகில், கல்முனை 32300, இலங்கை
Ampara	Kalmunai	MOH Office - Kalmunai North	False	False	MPRKLMNMHFFCKLMNNRTH		Ampara	LK-52	7.23699	81.550391	Kalmunai	PS-520123	7.414289	81.825006	7.411712	81.838462	CR6Q+M9P, Kalmunai 32300, Sri Lanka	1.511625		අම්පාර	කල්මුණේ	MOH කාර්යාලය - කල්මුණේ උතුර	அம்பாறை	கல்முனை	MOH அலுவலகம் - கல்முனை வடக்கு	CR6Q+M9P, කල්මුණේ 32300, ශ්‍රී ලංකාව	CR6Q+M9P, கல்முனை 32300, இலங்கை
Ampara	Sammanthurai	MOH Office - Sammanthurai	False	False	MPRSMMNTHRMHFFCSMMNTHR		Ampara	LK-52	7.23699	81.550391	Samanthurai	PS-520124	7.365785	81.810859	7.369857	81.812264	9R96+WWR, Sammanthurai, Sri Lanka	0.478712		අම්පාර	සමන්තුරේ	MOH කාර්යාලය - සම්මන්තුරේ	அம்பாறை	சம்மாந்துறை	MOH அலுவலகம் - சம்மாந்துறை	9R96+ඩබ්ලිව්ඩබ්ලිව්ආර්, සම්මන්තුරේ, ශ්‍රී ලංකාව	9R96+WWR, சம்மாந்துறை, இலங்கை
Ampara	Sammanthurai	MOH Office - Nintavur	False	False	MPRSMMNTHRMHFFCNNTVR		Ampara	LK-52	7.23699	81.550391	Samanthurai	PS-520124	7.365785	81.810859	7.352821	81.856939	Hospital Rd, Nintavur 32340, Sri Lanka	5.283925		අම්පාර	සමන්තුරේ	එම්ඕඑච් කාර්යාලය - නින්දවූර්	அம்பாறை	சம்மாந்துறை	MOH அலுவலகம் - நிந்தவூர்	රෝහල පාර, නින්දවූර් 32340, ශ්‍රී ලංකාව	மருத்துவமனை Rd, நிந்தவூர் 32340, இலங்கை
Ampara	Sammanthurai	Base Hospital - Sammanthurai	False	False	MPRSMMNTHRBSHSPTLSMMNTHR		Ampara	LK-52	7.23699	81.550391	Samanthurai	PS-520124	7.365785	81.810859	7.368355	81.813042	9R96+MWM, Hospital Rd, Sammanthurai, Sri Lanka	0.373773		අම්පාර	සමන්තුරේ	මූලික රෝහල - සමන්තුරේ	அம்பாறை	சம்மாந்துறை	அடிப்படை மருத்துவமனை - சம்மாந்துறை	9R96+MWM, රෝහල් පාර, සමන්තුරේ, ශ්‍රී ලංකාව	9R96+MWM, மருத்துவமனை சாலை, சம்மாந்துறை, இலங்கை
Ampara	Pottuvil	MOH Office - Pottuvil	False	False	MPRPTTVLMHFFCPTTVL		Ampara	LK-52	7.23699	81.550391	Pothuvil	PS-520128	6.878387	81.826859	6.877076	81.828969	B374, Pottuvil, Sri Lanka	0.274874		අම්පාර	පොතුවිල්	එම්ඕඑච් කාර්යාලය - පොතුවිල්	அம்பாறை	பொட்டுவில்	MOH அலுவலகம் - பொத்துவில்	බී 374, පොතුවිල්, ශ්‍රී ලංකාව	B374, பொத்துவில், இலங்கை
Ampara	Pottuvil	Base Hospital - Pottuvil	False	False	MPRPTTVLBSHSPTLPTTVL		Ampara	LK-52	7.23699	81.550391	Pothuvil	PS-520128	6.878387	81.826859	6.876098	81.830463	Main Street Colombo - Batticaloa Hwy, Pottuvil 32500, Sri Lanka	0.47246		අම්පාර	පොතුවිල්	මූලික රෝහල - පොතුවිල්	அம்பாறை	பொட்டுவில்	அடிப்படை மருத்துவமனை - பொத்துவில்	කොළඹ ප්‍රධාන වීදිය - මඩකලපුව හ්වි, පොතුවිල් 32500, ශ්‍රී ලංකාව	பிரதான வீதி கொழும்பு - மட்டக்களப்பு Hwy, பொத்துவில் 32500, இலங்கை
