district	police	center	dose1	dose2	fuzzy_key	alt_name	district_name_norm	district_id	district_lat	district_lng	ps_name_norm	ps_id	ps_lat	ps_lng	lat	lng	formatted_address	dis_center_to_police	tags
Colombo	Cinnamon Gardens	Viharamahadevi Park	False	False	CLMBCNNMNGRDNSVHRMHDVPRK		Colombo	LK-11	6.869636	80.019598	Cinnamon Garden	PS-110324	6.907289	79.863819	6.913391	79.86174	Viharamahadevi Park, Colombo, Sri Lanka	0.716497	
Colombo	Thalangama	Diyatha Uyana	False	False	CLMBTHLNGMDYTHYN		Colombo	LK-11	6.869636	80.019598	Thalangama	PS-110466	6.91089	79.929325	6.904575	79.909831	Diyatha Uyana, B240, Sri Jayawardenepura Kotte, Sri Lanka	2.264281	
Colombo	Thalangama	MOH Office - Battaramulla	False	False	CLMBTHLNGMMHFFCBTTRMLL		Colombo	LK-11	6.869636	80.019598	Thalangama	PS-110466	6.91089	79.929325	6.901538	79.919128	WW29+JM6, Battaramulla 10120, Sri Lanka	1.532936	
Colombo	Grandpass	Sugathadasa Outdoor Stadium	False	False	CLMBGRNDPSSSGTHDSTDRSTDM		Colombo	LK-11	6.869636	80.019598	Grandpass	PS-110215	6.949052	79.872983	6.94806	79.868842	Prince of Wales Ave, Colombo 01400, Sri Lanka	0.470345	
Colombo	Narahenpita	Army Hospital Narahenpita	False	False	CLMBNRHNPTRMYHSPTLNRHNPT		Colombo	LK-11	6.869636	80.019598	Narahenpita	PS-110321	6.891832	79.876715	6.900252	79.87618	08 Elvitigala Mawatha, Colombo 00800, Sri Lanka	0.938417	
Colombo	Boralesgamuwa	Kotelawala Defence Hospital	False	False	CLMBBRLSGMWKTLWLDFNCHSPTL		Colombo	LK-11	6.869636	80.019598	Boralesgamuwa	PS-110464	6.841331	79.901255	6.82518	79.907167	RWG4+3VF, Boralesgamuwa, Sri Lanka	1.911444	
Colombo	Dehiwala	MOH Office - Dehiwala	False	False	CLMBDHWLMHFFCDHWL		Colombo	LK-11	6.869636	80.019598	Dehiwala	PS-110580	6.850088	79.871696	6.861346	79.865943	VV68+G9P, Dehiwala-Mount Lavinia, Sri Lanka	1.404177	
Colombo	Maradana	National Hospital - Colombo	False	False	CLMBMRDNNTNLHSPTLCLMB		Colombo	LK-11	6.869636	80.019598	Maradana	PS-110107	6.927939	79.865471	6.918743	79.868992	Colombo 00700, Sri Lanka	1.094265	
Colombo	Borella	St. Luke's Church - Borella	False	False	CLMBBRLLSTLKSCHRCHBRLL		Colombo	LK-11	6.869636	80.019598	Borella	PS-110323	6.915266	79.87829	6.918035	79.874548	1091 Gnanartha Pradeepa Mawatha, Colombo 00800, Sri Lanka	0.515354	
Colombo	Wellampitiya	MOH Office - Kolonnawa	False	False	CLMBWLLMPTYMHFFCKLNNW		Colombo	LK-11	6.869636	80.019598	Wellampitiya	PS-110465	6.937514	79.896298	6.938303	79.889664	25 Pansalhena 1st Ln, 10600, Sri Lanka	0.737734	
Colombo	Kaduwela	MOH Office - Kaduwela	False	False	CLMBKDWLMHFFCKDWL		Colombo	LK-11	6.869636	80.019598	Kaduwela		6.936234	79.970183	6.934127	79.984398	B263, Kaduwela, Sri Lanka	1.586964	
Colombo	Mulleriyawa	MOH Office - Gothatuwa	False	False	CLMBMLLRYWMHFFCGTHTW		Colombo	LK-11	6.869636	80.019598	Mulleriyawa	PS-110469	6.927187	79.929108	6.922088	79.916237	Mandavila Rd, Kotikawatta, Sri Lanka	1.530186	
Colombo	Kosgama	Kanampella Vidyalaya	False	False	CLMBKSGMKNMPLLVDYLY		Colombo	LK-11	6.869636	80.019598	Kosgama	PS-920227	6.946597	80.137869	6.962201	80.129653	Pugoda - Kosgama, Kananpella, Sri Lanka	1.958397	
Colombo	Kosgama	Kosgama Hospital	False	False	CLMBKSGMKSGMHSPTL		Colombo	LK-11	6.869636	80.019598	Kosgama	PS-920227	6.946597	80.137869	6.940956	80.124888	Salawa-Akarawita, 10730, Sri Lanka	1.564606	
Gampaha	Minuwangoda	MOH Office - Minuwangoda	False	False	GMPHMNWNGDMHFFCMNWNGD		Gampaha	LK-12	7.123598	80.018508	Minuwangoda	PS-120238	7.174215	79.957874	7.17227	79.956823	Katunayake-Veyangoda Rd, Minuwangoda, Sri Lanka	0.245525	
Gampaha	Gampaha	Viharamahadevi Vidyalaya - Ihala Imbulpe	False	False	GMPHGMPHVHRMHDVVDYLYHLMBLP		Gampaha	LK-12	7.123598	80.018508	Gampaha	PS-120237	7.087765	80.01228	6.980842	79.92784	Vihara Maha Devi Road, Kiribathgoda, Sri Lanka	15.110771	
Gampaha	Peliyagoda	Nawalokagama Community Hall	False	False	GMPHPLYGDNWLKGMCMMNTYHLL		Gampaha	LK-12	7.123598	80.018508	Peliyagoda	PS-120125	6.955193	79.88612	6.985664	79.901599	Station Rd, Wattala 11300, Sri Lanka	3.795778	
Gampaha	Pugoda	MOH Office – Dompe	False	False	GMPHPGDMHFFCDMP		Gampaha	LK-12	7.123598	80.018508	Pugoda	PS-120241	6.98283	80.111189	6.976767	80.117422	Dompe, Pugoda-Mandawala Rd, Pugoda, Sri Lanka	0.963513	
Gampaha	Pamunugama	Pamunugama Hospital	False	False	GMPHPMNGMPMNGMHSPTL		Gampaha	LK-12	7.123598	80.018508	Pamunugama	PS-120353	7.078892	79.859696	7.093543	79.850191	3VV2+C38, Negombo, Sri Lanka	1.938152	
Gampaha	Seeduwa	Seeduwa Methodist Church	False	False	GMPHSDWSDWMTHDSTCHRCH		Gampaha	LK-12	7.123598	80.018508	Seeduwa	PS-120356	7.128721	79.877371	7.130532	79.888689	74 Amuna Rd, Seeduwa, Sri Lanka	1.265303	
Gampaha	Divulapitiya	MOH Office - Divulapitiya	False	False	GMPHDVLPTYMHFFCDVLPTY		Gampaha	LK-12	7.123598	80.018508	Diulapitiya	PS-120355	7.174215	79.957874	7.215486	80.013606	6287+5CX, Divulapitiya, Sri Lanka	7.67456	
Gampaha	Ja Ela	MOH Office - Ja Ela	False	False	GMPHJLMHFFCJL		Gampaha	LK-12	7.123598	80.018508	Ja - Ela	PS-120133	7.081055	79.890504	7.075216	79.893879	60 Mount Kalvary Rd, Ja-Ela, Sri Lanka	0.748731	
Gampaha	Wattala	MOH Office – Wattala	False	False	GMPHWTTLMHFFCWTTL		Gampaha	LK-12	7.123598	80.018508	Wattala	PS-120128	6.993713	79.894506	6.995817	79.885793	301 Hendala Rd, Wattala, Sri Lanka	0.989991	
Gampaha	Ragama	MOH Office – Ragama	False	False	GMPHRGMMHFFCRGM		Gampaha	LK-12	7.123598	80.018508	Ragama	PS-120134	7.034975	79.924148	7.027386	79.920232	2WGC+X35, Ragama, Sri Lanka	0.948382	
Kalutara	Kalutara	NIHS	False	False	KLTRKLTRNHS		Kalutara	LK-13	6.577316	80.127363	Kalutara South		6.584968	79.96102	6.559269	79.973486	Janatha Ln, Kalutara, Sri Lanka	3.173081	
Kalutara	Thebuwana	Divisional Hospital - Neboda	False	False	KLTRTHBWNDVSNLHSPTLNBD		Kalutara	LK-13	6.577316	80.127363	Thebuwana	PS-1302105	6.654997	80.058183	6.570354	80.073048	wellatha Neboda ., Neboda - Wellatha Rd, Sri Lanka	9.557015	
Kalutara	Dodangoda	Dodangoda Hospital	False	False	KLTRDDNGDDDNGDHSPTL		Kalutara	LK-13	6.577316	80.127363	Dodangoda	PS-130299	6.553375	80.023569	6.540961	80.036553	Wilpatha Rd, Sri Lanka	1.991373	
Kalutara	Dodangoda	Dodangoda Eladuwa Vidyalaya	False	False	KLTRDDNGDDDNGDLDWVDYLY		Kalutara	LK-13	6.577316	80.127363	Dodangoda	PS-130299	6.553375	80.023569	6.505918	80.038034	G24Q+967, Maggona, Sri Lanka	5.515359	
Kalutara	Wadduwa	MOH Office - Wadduwa	False	False	KLTRWDDWMHFFCWDDW		Kalutara	LK-13	6.577316	80.127363	Wadduwa	PS-130188	6.664403	79.929851	6.666497	79.928619	Government Dispensery, Rd, Wadduwa, Sri Lanka	0.269769	
Kalutara	Millaniya	MOH Office - Millaniya	False	False	KLTRMLLNYMHFFCMLLNY		Kalutara	LK-13	6.577316	80.127363	Millaniya	PS-130191	6.681692	80.020847	6.724224	79.907284	A2, Panadura, Sri Lanka	13.407612	
Kalutara	Agalawatta	Pimbura Hospital	False	False	KLTRGLWTTPMBRHSPTL		Kalutara	LK-13	6.577316	80.127363	Agalawatta		6.542566	80.157178	6.575949	80.158371	H5G5+98H, කළුතර, Sri Lanka	3.715525	
Kalutara	Matugama	Weththewa Hospital	False	False	KLTRMTGMWTHTHWHSPTL		Kalutara	LK-13	6.577316	80.127363	Mathugama	PS-1302103	6.520881	80.117908	6.523087	80.125192	District Hospital, Hospital Road,Weththewa,., Matugama, Sri Lanka	0.841523	
Kalutara	Matugama	Katuhena Hospital	False	False	KLTRMTGMKTHNHSPTL		Kalutara	LK-13	6.577316	80.127363	Mathugama	PS-1302103	6.520881	80.117908	6.946064	79.860912	WVW6+99, 213 Jampettah St, Colombo 01300, Sri Lanka	55.159144	#CenterFarFromPolice
Kalutara	Matugama	MOH Office - Matugama	False	False	KLTRMTGMMHFFCMTGM		Kalutara	LK-13	6.577316	80.127363	Mathugama	PS-1302103	6.520881	80.117908	6.523544	80.126443	G4FG+CH8, Matugama, Sri Lanka	0.988725	
Kalutara	Baduraliya	Baduraliya Hospital	False	False	KLTRBDRLYBDRLYHSPTL		Kalutara	LK-13	6.577316	80.127363	Baduraliya	PS-1302106	6.516756	80.226716	6.514727	80.232731	Tiruwanaketiya-Agalawatte Rd, Baduraliya, Sri Lanka	0.702098	
Kalutara	Beruwala	MOH Office - Beruwala	False	False	KLTRBRWLMHFFCBRWL		Kalutara	LK-13	6.577316	80.127363	Beruwala	PS-1302102	6.480329	79.983498	6.437559	79.999356	CXQX+2PH, Aluthgama, Sri Lanka	5.069893	
Kalutara	Bulathsinhala	MOH Office - Bulathsinhala	False	False	KLTRBLTHSNHLMHFFCBLTHSNHL		Kalutara	LK-13	6.577316	80.127363	Bulathsinhala	PS-1302104	6.650425	80.17703	6.644683	80.179607	J5VH+VRH, Bulathsinhala, Sri Lanka	0.699369	
Kalutara	Bandragama	MOH Office - Bandaragama	False	False	KLTRBNDRGMMHFFCBNDRGM		Kalutara	LK-13	6.577316	80.127363	Bandaragama	PS-130189	6.715179	79.987674	6.713351	79.991671	Library Path, Bandaragama, Sri Lanka	0.486104	
Kalutara	Panadura South	Mahanama Vidyalaya	False	False	KLTRPNDRSTHMHNMVDYLY		Kalutara	LK-13	6.577316	80.127363	Panadura South	PS-130186	6.720941	79.907315	6.725866	79.907901	PWG5+85R, Panadura, Sri Lanka	0.551618	
Kalutara	Mawathagama	Samodaya Hall	False	False	KLTRMWTHGMSMDYHLL		Kalutara	LK-13	6.577316	80.127363	Mawathagama	PS-610109	7.432976	80.449904	6.566007	79.962542	St. Sebastian Rd, Kalutara 12000, Sri Lanka	110.42748	#CenterFarFromPolice
Kurunegala	Polgahawela	Pothuhera Dutugemunu Vidyalaya	False	False	KRNGLPLGHWLPTHHRDTGMNVDYLY		Kurunegala	LK-61	7.66477	80.23677	Polgahawela	PS-610102	7.333281	80.300363	7.424469	80.329381	Ambepussa - Kurunegala - Trincomalee Hwy, Pothuhera, Sri Lanka	10.635926	
Puttalam	Marawila	MOH Office - Nattandiya	False	False	PTTLMMRWLMHFFCNTTNDY		Puttalam	LK-62	7.973531	79.913833	Marawila	PS-620243	7.415075	79.839776	7.423943	79.835277	M.O.H. Office, Marawila, Sri Lanka	1.104176	
Puttalam	Wennappuwa	Lunuwila Buddhist Primary School	False	False	PTTLMWNNPPWLNWLBDDHSTPRMRYSCHL		Puttalam	LK-62	7.973531	79.913833	Wennappuwa	PS-620245	7.339623	79.843017	7.350001	79.863107	Sirigampala Para, Sri Lanka	2.498874	
Puttalam	Wennappuwa	St. Anne's Maha Vidyalaya	False	False	PTTLMWNNPPWSTNNSMHVDYLY		Puttalam	LK-62	7.973531	79.913833	Wennappuwa	PS-620245	7.339623	79.843017	7.314871	79.861441	8V86+5PV, Puttalam, Sri Lanka	3.422164	
Puttalam	Dankotuwa	MOH Office - Dankotuwa	False	False	PTTLMDNKTWMHFFCDNKTW		Puttalam	LK-62	7.973531	79.913833	Dankotuwa	PS-620246	7.300337	79.882595	7.29759	79.888187	146 Negombo-Kurunegala Rd, Dankotuwa, Sri Lanka	0.688474	
Puttalam	Puttalam	Town Hall – Puttalam	False	False	PTTLMPTTLMTWNHLLPTTLM		Puttalam	LK-62	7.973531	79.913833	Puttalam	PS-620130	8.029904	79.834396	8.028655	79.829762	Colombo Road, Puttalam, Sri Lanka	0.528956	
Puttalam	Hanguranketha	Diyathilaka Central College	False	False	PTTLMHNGRNKTHDYTHLKCNTRLCLLG		Puttalam	LK-62	7.973531	79.913833	Hanguranketha	PS-210108	7.176511	80.777388	7.180385	80.771148	B413, Hanguranketa, Sri Lanka	0.812339	
Nuwara Eliya	Mathurata	MOH Office - Munakola	False	False	NWRLYMTHRTMHFFCMNKL		Nuwara Eliya	LK-23	6.97423	80.711222	Maturata	PS-230144	7.079873	80.801871	7.041811	80.7807	Padiyapelella Mandaramnuwara Road, Mandaramnuwara, Sri Lanka	4.835818	
Matale	Matale	Ovilikanda Maha Vidyalaya	False	False	MTLMTLVLKNDMHVDYLY		Matale	LK-22	7.667587	80.731008	Matale	PS-220121	7.462789	80.626211	7.459794	80.58842	Ovilikanda, Matale, Sri Lanka	4.181187	
Matale	Matale	Elkaduwa Tamil College	False	False	MTLMTLLKDWTMLCLLG		Matale	LK-22	7.667587	80.731008	Matale	PS-220121	7.462789	80.626211	7.465092	80.623609	Kandy-Jaffna Highway, Matale, Sri Lanka	0.384668	
Matale	Matale	Leliambe Vidyalaya	False	False	MTLMTLLLMBVDYLY		Matale	LK-22	7.667587	80.731008	Matale	PS-220121	7.462789	80.626211	7.465092	80.623609	Kandy-Jaffna Highway, Matale, Sri Lanka	0.384668	
Matale	Matale	St. Thomas College	False	False	MTLMTLSTTHMSCLLG		Matale	LK-22	7.667587	80.731008	Matale	PS-220121	7.462789	80.626211	7.470517	80.621246	Kings St, Matale, Sri Lanka	1.019177	
Matale	Mahawela	Madawala Ulpatha Maha Vidyalaya	False	False	MTLMHWLMDWLLPTHMHVDYLY		Matale	LK-22	7.667587	80.731008	Mahawela	PS-220123	7.589247	80.61027	7.611168	80.63547	JJ6P+F59, Madawala Ulpotha, Sri Lanka	3.69655	
Matale	Mahawela	Kaudupelella Kalaimagal Vidyalaya	False	False	MTLMHWLKDPLLLKLMGLVDYLY		Matale	LK-22	7.667587	80.731008	Mahawela	PS-220123	7.589247	80.61027	7.577162	80.625181	HJGG+V37, Kawudupelella, Sri Lanka	2.123625	
Matale	Rattota	Laggala Maha Vidyalaya	False	False	MTLRTTTLGGLMHVDYLY		Matale	LK-22	7.667587	80.731008	Rattota	PS-220122	7.520684	80.678809	7.526641	80.702552	GPG3+M23, Rattota, Sri Lanka	2.700736	
Matale	Rattota	Pussellawa Navodaya Vidyalaya	False	False	MTLRTTTPSSLLWNVDYVDYLY		Matale	LK-22	7.667587	80.731008	Rattota	PS-220122	7.520684	80.678809	7.519034	80.676942	GM9G+JQ8, Rattota, Sri Lanka	0.275807	
Matale	Wilgamuwa	Nugagolla Maha Vidyalaya	False	False	MTLWLGMWNGGLLMHVDYLY		Matale	LK-22	7.667587	80.731008	Wilgamuwa	PS-220127	7.542012	80.916496	7.498902	80.925323	FWXG+H48, Matale, Sri Lanka	4.892916	
Badulla	Passara	Passara National College	False	False	BDLLPSSRPSSRNTNLCLLG		Badulla	LK-81	7.074529	81.04486	Passara	PS-810102	6.934481	81.154796	6.940355	81.167392	Peradeniya-Badulla-Chenkaladi Hwy, Passara, Sri Lanka	1.536617	
Badulla	Passara	Bibilegama Hospital	False	False	BDLLPSSRBBLGMHSPTL		Badulla	LK-81	7.074529	81.04486	Passara	PS-810102	6.934481	81.154796	6.895098	81.14174	Bibilegama Rd, Passara, Sri Lanka	4.611693	
Badulla	Passara	Ury Hospital	False	False	BDLLPSSRRYHSPTL		Badulla	LK-81	7.074529	81.04486	Passara	PS-810102	6.934481	81.154796	6.94256	81.126231	W4VG+2FH, Pelgahatenna, Sri Lanka	3.279529	
Badulla	Passara	Meedumpitiya Hospital	False	False	BDLLPSSRMDMPTYHSPTL		Badulla	LK-81	7.074529	81.04486	Passara	PS-810102	6.934481	81.154796	6.945576	81.190338	Peradeniya-Badulla-Chenkaladi Hwy, Sri Lanka	4.113834	
Badulla	Passara	Kanawerella Hospital	False	False	BDLLPSSRKNWRLLHSPTL		Badulla	LK-81	7.074529	81.04486	Passara	PS-810102	6.934481	81.154796	6.933517	81.152592	Demodera - Spring Valley - Badulla Road, Passara, Sri Lanka	0.265888	
Badulla	Passara	Kahataruppa Hospital	False	False	BDLLPSSRKHTRPPHSPTL		Badulla	LK-81	7.074529	81.04486	Passara	PS-810102	6.934481	81.154796	7.02379	81.116022	Muthumala - Kahataruppa Rd, Sri Lanka	10.816965	
Badulla	Badulla	Base Hospital - Badulla	False	False	BDLLBDLLBSHSPTLBDLL		Badulla	LK-81	7.074529	81.04486	Badulla	PS-810101	6.991337	81.055246	6.991808	81.05235	Daya Gunasekara Mawatha, Badulla, Sri Lanka	0.32399	
Badulla	Badulla	MOH Office - Soranatota	False	False	BDLLBDLLMHFFCSRNTT		Badulla	LK-81	7.074529	81.04486	Badulla	PS-810101	6.991337	81.055246	7.013876	81.05556	Rideepana, Mahiyangana Rd, Sri Lanka	2.507249	
Monaragala	Wellawaya	Kurugama Vidyalaya	False	False	MNRGLWLLWYKRGMVDYLY		Moneragala	LK-82	6.787517	81.303744	wellawaya	PS-820130	6.730804	81.100708	6.801245	81.079558	R32H+FRV, Karandagolla, Sri Lanka	8.175996	
Monaragala	Wellawaya	Randeniya Vidyalaya	False	False	MNRGLWLLWYRNDNYVDYLY		Moneragala	LK-82	6.787517	81.303744	wellawaya	PS-820130	6.730804	81.100708	7.599399	80.280565	Randeniya, Sri Lanka	132.38752	#CenterFarFromPolice
Monaragala	Wellawaya	Kumaradasa Maha Vidyalaya	False	False	MNRGLWLLWYKMRDSMHVDYLY		Moneragala	LK-82	6.787517	81.303744	wellawaya	PS-820130	6.730804	81.100708	6.755702	81.099926	Q34X+7XM, මොණරාගල, Sri Lanka	2.770747	
Monaragala	Wellawaya	Anapallama Primary School	False	False	MNRGLWLLWYNPLLMPRMRYSCHL		Moneragala	LK-82	6.787517	81.303744	wellawaya	PS-820130	6.730804	81.100708	6.737797	81.155377	P5Q4+456, Monaragala, Sri Lanka	6.088758	
Monaragala	Wellawaya	Malwattawala Maha Vidyalaya	False	False	MNRGLWLLWYMLWTTWLMHVDYLY		Moneragala	LK-82	6.787517	81.303744	wellawaya	PS-820130	6.730804	81.100708	6.82367	81.162042	R5F6+FR7, Monaragala, Sri Lanka	12.352805	
Moneragala	Monaragala	Monaragala Community Hall	False	False	MNRGLMNRGLMNRGLCMMNTYHLL		Moneragala	LK-82	6.787517	81.303744	Monaragala	PS-820121	6.869866	81.348106	6.872778	81.350683	Moneragala, Sri Lanka	0.431159	
Moneragala	Monaragala	Mahanama Vidyalaya	False	False	MNRGLMNRGLMHNMVDYLY		Moneragala	LK-82	6.787517	81.303744	Monaragala	PS-820121	6.869866	81.348106	6.876259	81.348364	Potuvile Road Colombo - Batticaloa Hwy, Monaragala, Sri Lanka	0.711663	
Galle	Wanduramba	Pradeshiya Sabah - Wanduramba	False	False	GLLWNDRMBPRDSHYSBHWNDRMB		Galle	LK-31	6.222805	80.251977	Wanduramba	PS-310124	6.1257	80.252985	6.135073	80.255228	Wanduramba - Mapalagama Rd, Wanduramba, Sri Lanka	1.071662	
Galle	Habaraduwa	MOH Office - Habaraduwa	False	False	GLLHBRDWMHFFCHBRDW		Galle	LK-31	6.222805	80.251977	Habaraduwa	PS-310127	5.9871	80.327098	6.011672	80.306719	Meepe Hospital Rd, Bandaranayake, Sri Lanka	3.542893	
Galle	Rathgama	MOH Office - Rathgama	False	False	GLLRTHGMMHFFCRTHGM		Galle	LK-31	6.222805	80.251977	Ratgama	PS-310121	6.145115	80.099693	6.091631	80.141186	34RR+MF3, Rathgama, Sri Lanka	7.513284	
Galle	Poddala	MOH Office - Bope Poddala	False	False	GLLPDDLMHFFCBPPDDL		Galle	LK-31	6.222805	80.251977	Poddala	PS-310126	6.121449	80.210629	6.079556	80.221347	Godakanda Narawala Rd, Narawala, Sri Lanka	4.808168	
Galle	Akmeemana	MOH Office - Akmeemana	False	False	GLLKMMNMHFFCKMMN		Galle	LK-31	6.222805	80.251977	Akmeemana	PS-310123	6.073453	80.276627	6.051559	80.257222	Akmeemana MOH, Walahanduwa, Sri Lanka	3.246122	
Galle	Imaduwa	MOH Office - Imaduwa	False	False	GLLMDWMHFFCMDW		Galle	LK-31	6.222805	80.251977	Imaduwa	PS-310134	6.034389	80.391055	6.030554	80.389371	29JQ+6PH, Delghawatta, Sri Lanka	0.465464	
Hambantota	Hambantota	MOH Office - Hambantota	False	False	HMBNTTHMBNTTMHFFCHMBNTT		Hambantota	LK-33	6.259779	81.098619	Hambantota	PS-330156	6.125872	81.12521	6.171162	81.127	54CG+FQ9, Hambantota, Sri Lanka	5.041487	
Hambantota	Ambalantota	MOH Office - Ambalantota	False	False	HMBNTTMBLNTTMHFFCMBLNTT		Hambantota	LK-33	6.259779	81.098619	Ambalantota	PS-330157	6.12516	81.023981	6.122767	81.005973	Walawa watta Road, Malpeththawa, Ambalantota, Sri Lanka	2.009195	
Hambantota	Walasmulla	MOH Office - Walasmulla	False	False	HMBNTTWLSMLLMHFFCWLSMLL		Hambantota	LK-33	6.259779	81.098619	Walasmulla	PS-330151	6.154102	80.698256	6.150889	80.693718	Walasmulla, Sri Lanka	0.616099	
Hambantota	Lunugamvehera	MOH Office - Lunugamvehera	False	False	HMBNTTLNGMVHRMHFFCLNGMVHR		Hambantota	LK-33	6.259779	81.098619	Lunugamwehera	PS-330160	6.341544	81.202699	6.346093	81.196978	MOH Office, new town, Lunugamvehera National Park, Tanamalwila, Sri Lanka	0.809946	
Hambantota	Lunugamvehera	Lunugamvehera Hospital	False	False	HMBNTTLNGMVHRLNGMVHRHSPTL		Hambantota	LK-33	6.259779	81.098619	Lunugamwehera	PS-330160	6.341544	81.202699	6.34652	81.196527	85WW+JJ2, Hambantota, Sri Lanka	0.878568	
Hambantota	Weeraketiya	MOH Office - Weeraketiya	False	False	HMBNTTWRKTYMHFFCWRKTY		Hambantota	LK-33	6.259779	81.098619	Weeraketiya	PS-330149	6.153899	80.76737	6.144703	80.765287	4QV8+V4M, Weeraketiya, Sri Lanka	1.048488	
Hambantota	Katuwana	MOH Office - Katuwana	False	False	HMBNTTKTWNMHFFCKTWN		Hambantota	LK-33	6.259779	81.098619	Katuwana	PS-330153	6.269722	80.690963	6.26627	80.693035	7M8V+G63, Katuwana, Sri Lanka	0.447115	
Hambantota	Middeniya	Talawa Hospital	False	False	HMBNTTMDDNYTLWHSPTL		Hambantota	LK-33	6.259779	81.098619	Middeniya	PS-330154	6.248275	80.765018	8.233797	80.348381	68MX+G96, Talawa, Sri Lanka	225.582995	#CenterFarFromPolice
Hambantota	Angunukolapelessa	Angunukolapelessa Hospital	False	False	HMBNTTNGNKLPLSSNGNKLPLSSHSPTL		Hambantota	LK-33	6.259779	81.098619	Angunakolapelessa	PS-330150	6.321993	80.844883	6.165249	80.899914	Hungama - Agunukola Road, Agunukolapelessa, Sri Lanka	18.465918	
Hambantota	Sooriyawewa	MOH Office - Sooriyawewa	False	False	HMBNTTSRYWWMHFFCSRYWW		Hambantota	LK-33	6.259779	81.098619	Sooriyawewa	PS-330155	6.306022	81.003873	6.304862	81.004768	8233+WWR, Sooriyawewa, Sri Lanka	0.1626	
Hambantota	Beliatta	MOH Office – Beliatta	False	False	HMBNTTBLTTMHFFCBLTT		Hambantota	LK-33	6.259779	81.098619	Beliatta	PS-330152	6.046936	80.735408	6.051828	80.741735	3P2R+PMQ, Hambantota, Sri Lanka	0.886482	
Hambantota	Tangalla	Town Hall – Tangalla	False	False	HMBNTTTNGLLTWNHLLTNGLL		Hambantota	LK-33	6.259779	81.098619	Tangalle	PS-330147	6.023954	80.797255	6.026547	80.795587	Matara Rd, Tangalle, Sri Lanka	0.342386	
Rathnapura	Kiriella	Nedun Viharaya	False	False	RTHNPRKRLLNDNVHRY		Ratnapura	LK-91	6.586826	80.566158	Kiriella	PS-910114	6.735338	80.276481	6.749921	80.262275	B222, Sri Lanka	2.256876	
Rathnapura	Kiriella	Ruksewana Viharaya	False	False	RTHNPRKRLLRKSWNVHRY		Ratnapura	LK-91	6.586826	80.566158	Kiriella	PS-910114	6.735338	80.276481	6.440955	80.759711	Pelmadulla - Embilipitiya Hwy, Ratnapura, Sri Lanka	62.635257	#CenterFarFromPolice
Rathnapura	Kiriella	Ketepola Viharaya	False	False	RTHNPRKRLLKTPLVHRY		Ratnapura	LK-91	6.586826	80.566158	Kiriella	PS-910114	6.735338	80.276481	6.749772	80.26278	Rajamaha Wihara Mawatha, Kiriella, Ratnapura, Sri Lanka	2.206364	
Rathnapura	Pinnawala	Rathmalwinna Vidyalaya	False	False	RTHNPRPNNWLRTHMLWNNVDYLY		Ratnapura	LK-91	6.586826	80.566158	Pinnawala	PS-910115	7.299943	80.386604	6.773169	80.317655	Kuruwita, Sri Lanka	59.085287	#CenterFarFromPolice
Rathnapura	Pinnawala	Rai Tamil College	False	False	RTHNPRPNNWLRTMLCLLG		Ratnapura	LK-91	6.586826	80.566158	Pinnawala	PS-910115	7.299943	80.386604	6.670279	80.710473	Unnamed Road, Balangoda, Sri Lanka	78.636858	#CenterFarFromPolice
Rathnapura	Balangoda	Dehigastalawa Watawala Vidyalaya	False	False	RTHNPRBLNGDDHGSTLWWTWLVDYLY		Ratnapura	LK-91	6.586826	80.566158	Balangoda	PS-910103	6.649474	80.700276	6.638481	80.71637	JPQ8+9GX, Balangoda, Sri Lanka	2.157961	
Rathnapura	Balangoda	Mulgama Vidyalaya	False	False	RTHNPRBLNGDMLGMVDYLY		Ratnapura	LK-91	6.586826	80.566158	Balangoda	PS-910103	6.649474	80.700276	6.625092	80.794203	Watawala Mulgama, Kapugala Rd, 70100, Sri Lanka	10.725983	
Rathnapura	Balangoda	Rajawaka Vidyalaya	False	False	RTHNPRBLNGDRJWKVDYLY		Ratnapura	LK-91	6.586826	80.566158	Balangoda	PS-910103	6.649474	80.700276	6.607202	80.794259	B38, Sri Lanka	11.398773	
Rathnapura	Balangoda	Godakumbura Community Hall	False	False	RTHNPRBLNGDGDKMBRCMMNTYHLL		Ratnapura	LK-91	6.586826	80.566158	Balangoda	PS-910103	6.649474	80.700276	6.666861	80.704808	Balangoda, Sri Lanka	1.997716	
Rathnapura	Balangoda	Welage Vidyalaya	False	False	RTHNPRBLNGDWLGVDYLY		Ratnapura	LK-91	6.586826	80.566158	Balangoda	PS-910103	6.649474	80.700276	6.641498	80.714138	JPR7+HMR, Balangoda, Sri Lanka	1.769912	
Rathnapura	Balangoda	Mawela Community Hall	False	False	RTHNPRBLNGDMWLCMMNTYHLL		Ratnapura	LK-91	6.586826	80.566158	Balangoda	PS-910103	6.649474	80.700276	6.616174	80.705008	Mawela-Ellepola Rd, Balangoda, Sri Lanka	3.74067	
Rathnapura	Balangoda	Gawanehena Community Hall	False	False	RTHNPRBLNGDGWNHNCMMNTYHLL		Ratnapura	LK-91	6.586826	80.566158	Balangoda	PS-910103	6.649474	80.700276	6.631371	80.724065	Kirimatithanna, Balangoda, Sri Lanka	3.310966	
Rathnapura	Balangoda	Vidyalaoka Vidyalaya	False	False	RTHNPRBLNGDVDYLKVDYLY		Ratnapura	LK-91	6.586826	80.566158	Balangoda	PS-910103	6.649474	80.700276	6.648651	80.698377	Barns Rathwathta Mawatha, Balangoda 70100, Sri Lanka	0.228906	
Rathnapura	Balangoda	Thothupolathenna Community Hall	False	False	RTHNPRBLNGDTHTHPLTHNNCMMNTYHLL		Ratnapura	LK-91	6.586826	80.566158	Balangoda	PS-910103	6.649474	80.700276	6.631371	80.724065	Kirimatithanna, Balangoda, Sri Lanka	3.310966	
Rathnapura	Balangoda	Yahalawela Community Hall	False	False	RTHNPRBLNGDYHLWLCMMNTYHLL		Ratnapura	LK-91	6.586826	80.566158	Balangoda	PS-910103	6.649474	80.700276	6.631371	80.724065	Kirimatithanna, Balangoda, Sri Lanka	3.310966	
Rathnapura	Balangoda	Batugammana Vidyalaya	False	False	RTHNPRBLNGDBTGMMNVDYLY		Ratnapura	LK-91	6.586826	80.566158	Balangoda	PS-910103	6.649474	80.700276	6.602628	80.734181	JP3M+3M3, Ratnapura, Sri Lanka	6.41748	
Rathnapura	Weligepola	Hatangala Vidyalaya	False	False	RTHNPRWLGPLHTNGLVDYLY		Ratnapura	LK-91	6.586826	80.566158	Weligepola	PS-910106	6.596426	80.723695	6.574518	80.706607	HPF4+RJ5, Weligepola, Sri Lanka	3.082732	
Rathnapura	Weligepola	Kottimbulwala Viharaya	False	False	RTHNPRWLGPLKTTMBLWLVHRY		Ratnapura	LK-91	6.586826	80.566158	Weligepola	PS-910106	6.596426	80.723695	6.550577	80.731519	HP2J+6JJ, Weligepola, Sri Lanka	5.172538	
Rathnapura	Weligepola	Yatipasgamuwa Vidyalaya	False	False	RTHNPRWLGPLYTPSGMWVDYLY		Ratnapura	LK-91	6.586826	80.566158	Weligepola	PS-910106	6.596426	80.723695	6.561477	80.733922	Yatipassgamuwa Rd, Weligepola, Sri Lanka	4.048294	
Rathnapura	Weligepola	Kandegama Health Centre	False	False	RTHNPRWLGPLKNDGMHLTHCNTR		Ratnapura	LK-91	6.586826	80.566158	Weligepola	PS-910106	6.596426	80.723695	6.686824	80.393088	Colombo Rd, Ratnapura 70000, Sri Lanka	37.885254	#CenterFarFromPolice
Rathnapura	Weligepola	Bowitiyagoda Community Hall	False	False	RTHNPRWLGPLBWTYGDCMMNTYHLL		Ratnapura	LK-91	6.586826	80.566158	Weligepola	PS-910106	6.596426	80.723695	6.583202	80.711558	Galgoda - Weligepola Rd, Weligepola, Sri Lanka	1.990489	
Rathnapura	Weligepola	Kongastenna Vidyalaya	False	False	RTHNPRWLGPLKNGSTNNVDYLY		Ratnapura	LK-91	6.586826	80.566158	Weligepola	PS-910106	6.596426	80.723695	6.574518	80.706607	HPF4+RJ5, Weligepola, Sri Lanka	3.082732	
Rathnapura	Weligepola	Panana Vidyalaya	False	False	RTHNPRWLGPLPNNVDYLY		Ratnapura	LK-91	6.586826	80.566158	Weligepola	PS-910106	6.596426	80.723695	6.574518	80.706607	HPF4+RJ5, Weligepola, Sri Lanka	3.082732	
Rathnapura	Kalawana	Rajawatta Bodhimularamaya	False	False	RTHNPRKLWNRJWTTBDHMLRMY		Ratnapura	LK-91	6.586826	80.566158	Kalawana	PS-910110	6.530738	80.390719	6.690487	80.379893	Panadura-Nambapana-Ratnapura Hwy, Ratnapura, Sri Lanka	17.809071	
Rathnapura	Kalawana	Kajugaswatta Vidyalaya	False	False	RTHNPRKLWNKJGSWTTVDYLY		Ratnapura	LK-91	6.586826	80.566158	Kalawana	PS-910110	6.530738	80.390719	6.535423	80.401004	GCP2+5C6, Kalawana, Sri Lanka	1.25034	
Rathnapura	Kalawana	Kathalana Viharaya	False	False	RTHNPRKLWNKTHLNVHRY		Ratnapura	LK-91	6.586826	80.566158	Kalawana	PS-910110	6.530738	80.390719	6.537292	80.404672	GCP3+WV7, Ratnapura, Sri Lanka	1.705557	
Rathnapura	Kalawana	Pothupitiya Vidyalaya	False	False	RTHNPRKLWNPTHPTYVDYLY		Ratnapura	LK-91	6.586826	80.566158	Kalawana	PS-910110	6.530738	80.390719	6.424135	80.517798	B181, Sri Lanka	18.380791	
Rathnapura	Kalawana	Panapola Vidyalaya	False	False	RTHNPRKLWNPNPLVDYLY		Ratnapura	LK-91	6.586826	80.566158	Kalawana	PS-910110	6.530738	80.390719	6.430037	80.44934	Panapola, Sri Lanka	12.939687	
Rathnapura	Kalawana	Sudharmarama Pirivena	False	False	RTHNPRKLWNSDHRMRMPRVN		Ratnapura	LK-91	6.586826	80.566158	Kalawana	PS-910110	6.530738	80.390719	6.4642	80.425996	Kalawana-Depedene-Rakwana Rd, Weddagala, Sri Lanka	8.365073	
Rathnapura	Kalawana	Meepagama Jayanthi Vidyalaya	False	False	RTHNPRKLWNMPGMJYNTHVDYLY		Ratnapura	LK-91	6.586826	80.566158	Kalawana	PS-910110	6.530738	80.390719	6.540483	80.364299	Ayagama-Kukulegama Rd, Kukulegama, Sri Lanka	3.114313	
Rathnapura	Kalawana	Damsak Viharaya	False	False	RTHNPRKLWNDMSKVHRY		Ratnapura	LK-91	6.586826	80.566158	Kalawana	PS-910110	6.530738	80.390719	6.589509	80.371959	H9QC+RQ4, Ratnapura, Sri Lanka	6.857907	
Rathnapura	Kalawana	Kodippilikanda Vidyalaya	False	False	RTHNPRKLWNKDPPLKNDVDYLY		Ratnapura	LK-91	6.586826	80.566158	Kalawana	PS-910110	6.530738	80.390719	6.540754	80.318525	Kodippili Kanda, Sri Lanka	8.055351	
Rathnapura	Kuruwita	Kosgoda Clinic	False	False	RTHNPRKRWTKSGDCLNC		Ratnapura	LK-91	6.586826	80.566158	Kuruwita	PS-910112	6.778839	80.364712	6.686824	80.393088	Colombo Rd, Ratnapura 70000, Sri Lanka	10.704038	
Rathnapura	Kuruwita	Walandura Viharaya	False	False	RTHNPRKRWTWLNDRVHRY		Ratnapura	LK-91	6.586826	80.566158	Kuruwita	PS-910112	6.778839	80.364712	6.778114	80.366735	Kuruwita Erathna Rd, Kuruwita, Sri Lanka	0.237552	
Rathnapura	Kuruwita	Pathagama Vidyalaya	False	False	RTHNPRKRWTPTHGMVDYLY		Ratnapura	LK-91	6.586826	80.566158	Kuruwita	PS-910112	6.778839	80.364712	6.756011	80.34172	pathagama, Kuruwita, Sri Lanka	3.591206	
Rathnapura	Kuruwita	Eraththa Maha Vidyalaya	False	False	RTHNPRKRWTRTHTHMHVDYLY		Ratnapura	LK-91	6.586826	80.566158	Kuruwita	PS-910112	6.778839	80.364712	6.746161	80.336177	Gonapitiya Road, Ratnapura, Sri Lanka	4.811005	
Rathnapura	Pelmadulla	Kattange Vidyalaya	False	False	RTHNPRPLMDLLKTTNGVDYLY		Ratnapura	LK-91	6.586826	80.566158	Pelmadulla	PS-910117	6.632692	80.521315	6.58556	80.598726	Kahawatta Opanayake Rd, Kattange, Sri Lanka	10.031985	
Rathnapura	Pelmadulla	Ihala Bopitiya Viharaya	False	False	RTHNPRPLMDLLHLBPTYVHRY		Ratnapura	LK-91	6.586826	80.566158	Pelmadulla	PS-910117	6.632692	80.521315	6.614655	80.537717	JG7Q+V38, Ratnapura, Sri Lanka	2.703622	
Rathnapura	Ayagama	Pimbura Vidyalaya	False	False	RTHNPRYGMPMBRVDYLY		Ratnapura	LK-91	6.586826	80.566158	Ayagama	PS-910109	6.637727	80.312554	6.584387	80.35261	H9M3+Q25, Ratnapura, Sri Lanka	7.401902	
Rathnapura	Wewelwatta	Hapugasthenna Tamil College	False	False	RTHNPRWWLWTTHPGSTHNNTMLCLLG		Ratnapura	LK-91	6.586826	80.566158	Wewalwatta	PS-910102	6.707202	80.555569	6.711251	80.517809	Ratnapura-Wewelwatte Rd, Sri Lanka	4.195519	
Rathnapura	Wewelwatta	Bambarakotuwa Vidyalaya	False	False	RTHNPRWWLWTTBMBRKTWVDYLY		Ratnapura	LK-91	6.586826	80.566158	Wewalwatta	PS-910102	6.707202	80.555569	6.708183	80.541656	PG5R+7MC, Ratnapura, Sri Lanka	1.540816	
Rathnapura	Rakwana	Pannila Viharaya	False	False	RTHNPRRKWNPNNLVHRY		Ratnapura	LK-91	6.586826	80.566158	Rakwana	PS-910108	6.470133	80.613684	6.464724	80.61604	Rakwana, Sri Lanka	0.655573	
Rathnapura	Rathnapura	Weragoda Viharaya	False	False	RTHNPRRTHNPRWRGDVHRY		Ratnapura	LK-91	6.586826	80.566158	Ratnapura	PS-910101	6.679456	80.40223	6.690487	80.379893	Panadura-Nambapana-Ratnapura Hwy, Ratnapura, Sri Lanka	2.75586	
Rathnapura	Rathnapura	Rathgama Vidyalaya	False	False	RTHNPRRTHNPRRTHGMVDYLY		Ratnapura	LK-91	6.586826	80.566158	Ratnapura	PS-910101	6.679456	80.40223	6.683533	80.399526	A4, Ratnapura, Sri Lanka	0.543031	
Rathnapura	Rathnapura	Dehenakanda Tamil College	False	False	RTHNPRRTHNPRDHNKNDTMLCLLG		Ratnapura	LK-91	6.586826	80.566158	Ratnapura	PS-910101	6.679456	80.40223	6.681597	80.40321	St.Aloysius' College , Church Road , Ratnapura , Srilanka, Cathedral Road, Ratnapura 70000, Sri Lanka	0.261598	
Rathnapura	Rathnapura	Dambarabotuwa Vidyalaya	False	False	RTHNPRRTHNPRDMBRBTWVDYLY		Ratnapura	LK-91	6.586826	80.566158	Ratnapura	PS-910101	6.679456	80.40223	6.700614	80.361803	A8, Ratnapura, Sri Lanka	5.048196	
Rathnapura	Eheliyagoda	Eheliyagoda National College	False	False	RTHNPRHLYGDHLYGDNTNLCLLG		Ratnapura	LK-91	6.586826	80.566158	Ehaliyagoda	PS-910113	6.854603	80.260446	6.853465	80.263249	A4 Ratnapura Road, Eheliyagoda 10600, Sri Lanka	0.334429	
Rathnapura	Eheliyagoda	Pahalagama Vidyalaya	False	False	RTHNPRHLYGDPHLGMVDYLY		Ratnapura	LK-91	6.586826	80.566158	Ehaliyagoda	PS-910113	6.854603	80.260446	6.840252	80.261301	Kiriella-Nadurana-Eheliyagoda Rd, Eheliyagoda, Sri Lanka	1.59905	
Rathnapura	Eheliyagoda	Matuwagala Vidyalaya	False	False	RTHNPRHLYGDMTWGLVDYLY		Ratnapura	LK-91	6.586826	80.566158	Ehaliyagoda	PS-910113	6.854603	80.260446	6.755188	80.279946	Sri Lanka., Kiriella-Ellawala-Eheliyagoda Rd, Sri Lanka	11.265695	
Rathnapura	Kahawatta	Dharmarama Vidyalaya	False	False	RTHNPRKHWTTDHRMRMVDYLY		Ratnapura	LK-91	6.586826	80.566158	Kahawatta	PS-910107	6.591434	80.56893	6.597914	80.556342	HHX4+5G8, Ketetanna, Sri Lanka	1.566558	
Rathnapura	Kahawatta	Poronuwa Vidyalaya	False	False	RTHNPRKHWTTPRNWVDYLY		Ratnapura	LK-91	6.586826	80.566158	Kahawatta	PS-910107	6.591434	80.56893	6.578537	80.540556	HGHR+C67, Ratnapura, Sri Lanka	3.447818	
Rathnapura	Kahawatta	Handurukanda Vidyalaya	False	False	RTHNPRKHWTTHNDRKNDVDYLY		Ratnapura	LK-91	6.586826	80.566158	Kahawatta	PS-910107	6.591434	80.56893	6.584014	80.570904	Watapotha - Kahawatta Road, Kahawatta, Sri Lanka	0.853661	
Rathnapura	Godakawela	Aslam Vidyalaya	False	False	RTHNPRGDKWLSLMVDYLY		Ratnapura	LK-91	6.586826	80.566158	Godakawela	PS-910233	6.50224	80.655642	6.505873	80.640843	GJ4R+88W, Ratnapura, Sri Lanka	1.684679	
Rathnapura	Godakawela	Ubhayathilakaramaya	False	False	RTHNPRGDKWLBHYTHLKRMY		Ratnapura	LK-91	6.586826	80.566158	Godakawela	PS-910233	6.50224	80.655642	6.502044	80.657016	Pelmadulla - Embilipitiya Hwy, Godakawela, Sri Lanka	0.153404	
Rathnapura	Godakawela	Kottala Church	False	False	RTHNPRGDKWLKTTLCHRCH		Ratnapura	LK-91	6.586826	80.566158	Godakawela	PS-910233	6.50224	80.655642	6.464724	80.61604	Rakwana, Sri Lanka	6.047234	
Rathnapura	Kolonna	Kolonna National College	False	False	RTHNPRKLNNKLNNNTNLCLLG		Ratnapura	LK-91	6.586826	80.566158	Kolonna	PS-910235	6.40194	80.687615	6.403661	80.693724	B115, Sri Lanka	0.701874	
Rathnapura	Kolonna	Kella Maha Vidyalaya	False	False	RTHNPRKLNNKLLMHVDYLY		Ratnapura	LK-91	6.586826	80.566158	Kolonna	PS-910235	6.40194	80.687615	6.365273	80.699386	9M8X+4Q2, Kaella, Sri Lanka	4.280994	
Rathnapura	Endana	Nawalakanda Vidyalaya	False	False	RTHNPRNDNNWLKNDVDYLY		Ratnapura	LK-91	6.586826	80.566158									#PoliceLocationUnknown
Rathnapura	Endana	Endana Hospital	False	False	RTHNPRNDNNDNHSPTL		Ratnapura	LK-91	6.586826	80.566158									#PoliceLocationUnknown
Rathnapura	Endana	Nawalakanda Viharaya	False	False	RTHNPRNDNNWLKNDVHRY		Ratnapura	LK-91	6.586826	80.566158									#PoliceLocationUnknown
Rathnapura	Dewalagama	Maliyadewa Vidyalaya	False	False	RTHNPRDWLGMMLYDWVDYLY		Ratnapura	LK-91	6.586826	80.566158	Dewalagama		7.285171	80.321988	6.713215	80.385002	70000, 70000 A4, Ratnapura, Sri Lanka	63.997917	#CenterFarFromPolice
Rathnapura	Warakapola	Bopitiya Primary School	False	False	RTHNPRWRKPLBPTYPRMRYSCHL		Ratnapura	LK-91	6.586826	80.566158	Wrakapola	PS-920119	7.227488	80.199696	7.166977	80.197095	Dummaladeniya - Uduwaka Rd, Sri Lanka	6.736746	
Rathnapura	Warakapola	Athnawala Maha Vidyalaya	False	False	RTHNPRWRKPLTHNWLMHVDYLY		Ratnapura	LK-91	6.586826	80.566158	Wrakapola	PS-920119	7.227488	80.199696	6.708374	80.484677	B391, Ratnapura, Sri Lanka	65.757221	#CenterFarFromPolice
Rathnapura	Warakapola	Meinoluwa Maha Vidyalaya	False	False	RTHNPRWRKPLMNLWMHVDYLY		Ratnapura	LK-91	6.586826	80.566158	Wrakapola	PS-920119	7.227488	80.199696	6.746161	80.336177	Gonapitiya Road, Ratnapura, Sri Lanka	55.617921	#CenterFarFromPolice
Rathnapura	Warakapola	Niwatuwa Maha Vidyalaya	False	False	RTHNPRWRKPLNWTWMHVDYLY		Ratnapura	LK-91	6.586826	80.566158	Wrakapola	PS-920119	7.227488	80.199696	6.746161	80.336177	Gonapitiya Road, Ratnapura, Sri Lanka	55.617921	#CenterFarFromPolice
Rathnapura	Warakapola	Palamurai Viharaya	False	False	RTHNPRWRKPLPLMRVHRY		Ratnapura	LK-91	6.586826	80.566158	Wrakapola	PS-920119	7.227488	80.199696	7.226803	80.195875	Warakapola, Sri Lanka	0.428353	
Rathnapura	Warakapola	Pabediya Primary School	False	False	RTHNPRWRKPLPBDYPRMRYSCHL		Ratnapura	LK-91	6.586826	80.566158	Wrakapola	PS-920119	7.227488	80.199696	7.223572	80.199267	Pilanduwa, Ruwanwella Rd, Warakapola, Sri Lanka	0.438141	
Rathnapura	Warakapola	Uduwaka Primary School	False	False	RTHNPRWRKPLDWKPRMRYSCHL		Ratnapura	LK-91	6.586826	80.566158	Wrakapola	PS-920119	7.227488	80.199696	6.760739	80.221662	Q66C+7MV, Ratnapura, Sri Lanka	51.973022	#CenterFarFromPolice
Rathnapura	Mawanella	Kahawandala Viharaya	False	False	RTHNPRMWNLLKHWNDLVHRY		Ratnapura	LK-91	6.586826	80.566158	Mawanella	PS-920122	7.256966	80.445912	7.227782	80.485298	Mawanella - Aluthnuwara Rd, Alutnuwara, Sri Lanka	5.424446	
Rathnapura	Mawanella	Kahawandala Vidyalaya	False	False	RTHNPRMWNLLKHWNDLVDYLY		Ratnapura	LK-91	6.586826	80.566158	Mawanella	PS-920122	7.256966	80.445912	6.695088	80.382654	M9WM+23J, Ratnapura, Sri Lanka	62.886617	#CenterFarFromPolice
Rathnapura	Mawanella	Waduwawala Vidyalaya	False	False	RTHNPRMWNLLWDWWLVDYLY		Ratnapura	LK-91	6.586826	80.566158	Mawanella	PS-920122	7.256966	80.445912	6.683533	80.399526	A4, Ratnapura, Sri Lanka	63.988132	#CenterFarFromPolice
Rathnapura	Mawanella	Eraminigammana Viharaya	False	False	RTHNPRMWNLLRMNGMMNVHRY		Ratnapura	LK-91	6.586826	80.566158	Mawanella	PS-920122	7.256966	80.445912	7.227319	80.485243	Mawanella - Aluthnuwara Rd, Sri Lanka	5.450589	
Rathnapura	Mawanella	Padiyadora Viharaya	False	False	RTHNPRMWNLLPDYDRVHRY		Ratnapura	LK-91	6.586826	80.566158	Mawanella	PS-920122	7.256966	80.445912	6.440955	80.759711	Pelmadulla - Embilipitiya Hwy, Ratnapura, Sri Lanka	97.155443	#CenterFarFromPolice
Rathnapura	Kegalle	Town Hall – Kegalla	False	False	RTHNPRKGLLTWNHLLKGLL		Ratnapura	LK-91	6.586826	80.566158	Kegalle	PS-920118	7.255928	80.353156	7.254688	80.352612	7933+V2H, Kegalle, Sri Lanka	0.15042	
Rathnapura	Kegalle	Gangtuna Health Medical Centre	False	False	RTHNPRKGLLGNGTNHLTHMDCLCNTR		Ratnapura	LK-91	6.586826	80.566158	Kegalle	PS-920118	7.255928	80.353156	7.250552	80.343208	Red Cross Building, Kalugalla, Mawatha, Kegalle, Sri Lanka	1.249971	
Rathnapura	Kegalle	Hakahinna Vidyalaya	False	False	RTHNPRKGLLHKHNNVDYLY		Ratnapura	LK-91	6.586826	80.566158	Kegalle	PS-920118	7.255928	80.353156	7.20705	80.301704	6842+RM8, Kegalle, Sri Lanka	7.860746	
Rathnapura	Kegalle	Galigamuwa Vidyalaya	False	False	RTHNPRKGLLGLGMWVDYLY		Ratnapura	LK-91	6.586826	80.566158	Kegalle	PS-920118	7.255928	80.353156	7.236296	80.306083	Colombo - Kandy Rd, Galigamuwa, Sri Lanka	5.634458	
Rathnapura	Aranayaka	Hathgampola Maha Vidyalaya	False	False	RTHNPRRNYKHTHGMPLMHVDYLY		Ratnapura	LK-91	6.586826	80.566158	Aranayaka	PS-920120	7.186505	80.455273	6.746161	80.336177	Gonapitiya Road, Ratnapura, Sri Lanka	50.713727	#CenterFarFromPolice
Rathnapura	Aranayaka	Viyanella Viharaya	False	False	RTHNPRRNYKVYNLLVHRY		Ratnapura	LK-91	6.586826	80.566158	Aranayaka	PS-920120	7.186505	80.455273	6.440955	80.759711	Pelmadulla - Embilipitiya Hwy, Ratnapura, Sri Lanka	89.484519	#CenterFarFromPolice
Rathnapura	Aranayaka	Keselwatta Primary School	False	False	RTHNPRRNYKKSLWTTPRMRYSCHL		Ratnapura	LK-91	6.586826	80.566158	Aranayaka	PS-920120	7.186505	80.455273	6.760739	80.221662	Q66C+7MV, Ratnapura, Sri Lanka	53.925945	#CenterFarFromPolice
Rathnapura	Rambukkana	Pinnawala Maha Vidyalaya	False	False	RTHNPRRMBKKNPNNWLMHVDYLY		Ratnapura	LK-91	6.586826	80.566158	Rambukkana	PS-920123	7.324319	80.387808	7.310807	80.389261	Karandupona-Rambukkna Road, Rambukkana 71100, Sri Lanka	1.511462	
Rathnapura	Rambukkana	Naranbedda Viharaya	False	False	RTHNPRRMBKKNNRNBDDVHRY		Ratnapura	LK-91	6.586826	80.566158	Rambukkana	PS-920123	7.324319	80.387808	7.314802	80.362211	Naranbedda, Hiriwadunna., Rambukkana 71014, Sri Lanka	3.015836	
Rathnapura	Rambukkana	Ranawana Viharaya	False	False	RTHNPRRMBKKNRNWNVHRY		Ratnapura	LK-91	6.586826	80.566158	Rambukkana	PS-920123	7.324319	80.387808	6.440955	80.759711	Pelmadulla - Embilipitiya Hwy, Ratnapura, Sri Lanka	106.493806	#CenterFarFromPolice
Rathnapura	Deraniyagala	Demeda Community Hall	False	False	RTHNPRDRNYGLDMDCMMNTYHLL		Ratnapura	LK-91	6.586826	80.566158	Deraniyagala	PS-920228	6.935815	80.334998	6.678622	80.403356	Colombo - Batticaloa Hwy, Ratnapura, Sri Lanka	29.58701	#CenterFarFromPolice
Rathnapura	Deraniyagala	Pothdenikanada Vidyalaya	False	False	RTHNPRDRNYGLPTHDNKNDVDYLY		Ratnapura	LK-91	6.586826	80.566158	Deraniyagala	PS-920228	6.935815	80.334998	6.713215	80.385002	70000, 70000 A4, Ratnapura, Sri Lanka	25.368278	#CenterFarFromPolice
Rathnapura	Deraniyagala	Udapola Vidyalaya	False	False	RTHNPRDRNYGLDPLVDYLY		Ratnapura	LK-91	6.586826	80.566158	Deraniyagala	PS-920228	6.935815	80.334998	6.905691	80.342155	Deraniyagala Erathna Road, Deraniyagala 71430, Sri Lanka	3.44262	
Rathnapura	Deraniyagala	Lassegama Community Hall	False	False	RTHNPRDRNYGLLSSGMCMMNTYHLL		Ratnapura	LK-91	6.586826	80.566158	Deraniyagala	PS-920228	6.935815	80.334998	6.93492	80.338021	Deraniyagala, Sri Lanka	0.348317	
Rathnapura	Deraniyagala	Nakkawawita Maha Vidyalaya	False	False	RTHNPRDRNYGLNKKWWTMHVDYLY		Ratnapura	LK-91	6.586826	80.566158	Deraniyagala	PS-920228	6.935815	80.334998	6.700614	80.361803	A8, Ratnapura, Sri Lanka	26.328337	#CenterFarFromPolice
Rathnapura	Yatiyantota	Seapoth Viharaya	False	False	RTHNPRYTYNTTSPTHVHRY		Ratnapura	LK-91	6.586826	80.566158	Yatiyantota	PS-920230	7.027207	80.290753	6.690487	80.379893	Panadura-Nambapana-Ratnapura Hwy, Ratnapura, Sri Lanka	38.72539	#CenterFarFromPolice
Rathnapura	Yatiyantota	Nagasthenna Vidyalaa	False	False	RTHNPRYTYNTTNGSTHNNVDYL		Ratnapura	LK-91	6.586826	80.566158	Yatiyantota	PS-920230	7.027207	80.290753	6.602628	80.734181	JP3M+3M3, Ratnapura, Sri Lanka	68.034671	#CenterFarFromPolice
Rathnapura	Bulathkohupitiya	Pannala Maha Vidyalaya	False	False	RTHNPRBLTHKHPTYPNNLMHVDYLY		Ratnapura	LK-91	6.586826	80.566158	Bulathkohupitiya	PS-920232	7.106684	80.3347	7.080272	80.296157	Kegalle-Bulathkohupitiya-Karawanella Hwy, Sri Lanka	5.170097	
Rathnapura	Bulathkohupitiya	Panapitiya Primary School	False	False	RTHNPRBLTHKHPTYPNPTYPRMRYSCHL		Ratnapura	LK-91	6.586826	80.566158	Bulathkohupitiya	PS-920232	7.106684	80.3347	7.105878	80.344368	Nevismiyar Ihala - Rangalla Rd, Sri Lanka	1.070869	
Rathnapura	Bulathkohupitiya	Wegalla Viharaya	False	False	RTHNPRBLTHKHPTYWGLLVHRY		Ratnapura	LK-91	6.586826	80.566158	Bulathkohupitiya	PS-920232	7.106684	80.3347	6.440955	80.759711	Pelmadulla - Embilipitiya Hwy, Ratnapura, Sri Lanka	87.6753	#CenterFarFromPolice
Rathnapura	Ruwanwella	Mahakanda Primary School	False	False	RTHNPRRWNWLLMHKNDPRMRYSCHL		Ratnapura	LK-91	6.586826	80.566158	Ruwanwella	PS-920229	7.046189	80.254174	7.110831	80.203454	4663+89P, Basnagoda, Sri Lanka	9.112732	
Rathnapura	Ruwanwella	Basnagoda Primary School	False	False	RTHNPRRWNWLLBSNGDPRMRYSCHL		Ratnapura	LK-91	6.586826	80.566158	Ruwanwella	PS-920229	7.046189	80.254174	7.110831	80.203454	4663+89P, Basnagoda, Sri Lanka	9.112732	
Rathnapura	Ruwanwella	Waharaka Viharaya	False	False	RTHNPRRWNWLLWHRKVHRY		Ratnapura	LK-91	6.586826	80.566158	Ruwanwella	PS-920229	7.046189	80.254174	7.079464	80.198839	Walgampatha - Gonagaldeniya Rd, Kegalle, Sri Lanka	7.142043	
Rathnapura	Ruwanwella	Gonagala Maha Vidyalaya	False	False	RTHNPRRWNWLLGNGLMHVDYLY		Ratnapura	LK-91	6.586826	80.566158	Ruwanwella	PS-920229	7.046189	80.254174	7.012101	80.213036	Gonagala, Ruwanwella, Sri Lanka	5.916113	
Rathnapura	Ruwanwella	Batuwita Maha Vidyalaya	False	False	RTHNPRRWNWLLBTWTMHVDYLY		Ratnapura	LK-91	6.586826	80.566158	Ruwanwella	PS-920229	7.046189	80.254174	6.746161	80.336177	Gonapitiya Road, Ratnapura, Sri Lanka	34.578765	#CenterFarFromPolice
Rathnapura	Ruwanwella	Walgampotha Viharaya	False	False	RTHNPRRWNWLLWLGMPTHVHRY		Ratnapura	LK-91	6.586826	80.566158	Ruwanwella	PS-920229	7.046189	80.254174	6.440955	80.759711	Pelmadulla - Embilipitiya Hwy, Ratnapura, Sri Lanka	87.465868	#CenterFarFromPolice
Rathnapura	Ruwanwella	Amithirigala North Vidyalaya	False	False	RTHNPRRWNWLLMTHRGLNRTHVDYLY		Ratnapura	LK-91	6.586826	80.566158	Ruwanwella	PS-920229	7.046189	80.254174	7.040501	80.184717	Amithirigala North, Sri Lanka	7.693448	
Rathnapura	Ruwanwella	Kugama Vidyalaya	False	False	RTHNPRRWNWLLKGMVDYLY		Ratnapura	LK-91	6.586826	80.566158	Ruwanwella	PS-920229	7.046189	80.254174	6.713215	80.385002	70000, 70000 A4, Ratnapura, Sri Lanka	39.754775	#CenterFarFromPolice
Anuradhapura	Anuradhapura	Pradeshiya Sabah - Nuwaragam Palatha  East central	False	False	NRDHPRNRDHPRPRDSHYSBHNWRGMPLTHSTCNTRL		Anuradhapura	LK-71	8.39199	80.512958	Anuradapura	PS-710101	8.329752	80.407265	8.304729	80.417186	Nagasena Mawatha, Anuradhapura, Sri Lanka	2.989822	
Anuradhapura	Anuradhapura	MOH Office - Nuwaragam Palatha Central	False	False	NRDHPRNRDHPRMHFFCNWRGMPLTHCNTRL		Anuradhapura	LK-71	8.39199	80.512958	Anuradapura	PS-710101	8.329752	80.407265	8.341215	80.374096	Unnamed Road, Anuradhapura, Sri Lanka	3.866675	
Anuradhapura	Anuradhapura	Medagama Viharaya	False	False	NRDHPRNRDHPRMDGMVHRY		Anuradhapura	LK-71	8.39199	80.512958	Anuradapura	PS-710101	8.329752	80.407265	8.334575	80.390255	89MR+R4J, Anuradhapura, Sri Lanka	1.947397	
Anuradhapura	Anuradhapura	Kalathewa Vidyalaya	False	False	NRDHPRNRDHPRKLTHWVDYLY		Anuradhapura	LK-71	8.39199	80.512958	Anuradapura	PS-710101	8.329752	80.407265	8.335922	80.407513	Maithripala Senanayake Mawatha, Anuradhapura 50000, Sri Lanka	0.686831	
Anuradhapura	Anuradhapura	National Youth Corps - Maha Paladikulam	False	False	NRDHPRNRDHPRNTNLYTHCRPSMHPLDKLM		Anuradhapura	LK-71	8.39199	80.512958	Anuradapura	PS-710101	8.329752	80.407265	8.284354	80.426406	7CMG+PHR, Anuradhapura, Sri Lanka	5.471455	
Anuradhapura	Anuradhapura	Harischandra Ground	False	False	NRDHPRNRDHPRHRSCHNDRGRND		Anuradhapura	LK-71	8.39199	80.512958	Anuradapura	PS-710101	8.329752	80.407265	8.337404	80.405697	8CP4+X78, Anuradhapura, Sri Lanka	0.868448	
Anuradhapura	Thirappane	Mahanama Vidyalaya	False	False	NRDHPRTHRPPNMHNMVDYLY		Anuradhapura	LK-71	8.39199	80.512958	Thirappone	PS-710106	6.907289	79.863819	8.220559	80.523326	A9, Tirappane, Sri Lanka	163.173498	#CenterFarFromPolice
Anuradhapura	Mahawilachchiya	MOH Office - Mahawilachchiya	False	False	NRDHPRMHWLCHCHYMHFFCMHWLCHCHY		Anuradhapura	LK-71	8.39199	80.512958	Mahawilachchiya	PS-710120	8.484987	80.193911	8.494303	80.186519	F5VP+PJC, Mahawilachchiya, Sri Lanka	1.317298	
Anuradhapura	Mihintale	Katupotha Clinic	False	False	NRDHPRMHNTLKTPTHCLNC		Anuradhapura	LK-71	8.39199	80.512958	Mihintale	PS-710104	8.360062	80.511889	8.35505	80.509287	Kandy Rd, Mihintale, Sri Lanka	0.626724	
Anuradhapura	Mihintale	Pradeshiya Sabah - Rambewa	False	False	NRDHPRMHNTLPRDSHYSBHRMBW		Anuradhapura	LK-71	8.39199	80.512958	Mihintale	PS-710104	8.360062	80.511889	8.35748	80.510071	Puttalam - Anuradhapura - Trincomalee Hwy, Mihintale, Sri Lanka	0.350012	
Anuradhapura	Hidogama	Mahanelubewa Viharaya	False	False	NRDHPRHDGMMHNLBWVHRY		Anuradhapura	LK-71	8.39199	80.512958	Hidogama	PS-710102	8.31575	80.420358	8.334575	80.390255	89MR+R4J, Anuradhapura, Sri Lanka	3.919291	
Anuradhapura	Hingurakgoda	Hingurakgoda Ananda Balika Vidyalaya	False	False	NRDHPRHNGRKGDHNGRKGDNNDBLKVDYLY		Anuradhapura	LK-71	8.39199	80.512958	Hingurakgoda	PS-720129	8.048819	80.965751	8.036478	80.958439	B552, Hingurakgoda, Sri Lanka	1.591477	
Polonnaruwa	Hingurakgoda	Minneriya National College	False	False	PLNNRWHNGRKGDMNNRYNTNLCLLG		Polonnaruwa	LK-72	7.993659	81.026061	Hingurakgoda	PS-720129	8.048819	80.965751	8.032861	80.823596	2RMF+4CX, Polonnaruwa, Sri Lanka	15.756721	
Jaffna	Nelliyady	MOH Office - Karaveddy	False	False	JFFNNLLYDYMHFFCKRVDDY		Jaffna	LK-41	9.691792	80.098594	Nelliadi	PS-410108	9.778397	80.113303	9.792126	80.201799	Q6R2+VP3, Point Pedro, Sri Lanka	9.819656	
Jaffna	Point Pedro	MOH Office - Point Pedro	False	False	JFFNPNTPDRMHFFCPNTPDR		Jaffna	LK-41	9.691792	80.098594	Point Pedro	PS-410106	9.827018	80.233187	9.805763	80.222952	R64F+854, Point Pedro, Sri Lanka	2.616722	
Jaffna	Thelippalai	Wasavilan Maha Vidyalaya	False	False	JFFNTHLPPLWSVLNMHVDYLY		Jaffna	LK-41	9.691792	80.098594	Thelippalay	PS-410104	6.933075	79.857181	9.775601	80.073223	AB18, Sri Lanka	317.066154	#CenterFarFromPolice
Jaffna	Wadukkotte	MOH Office – Chankanai	False	False	JFFNWDKKTTMHFFCCHNKN		Jaffna	LK-41	9.691792	80.098594	Vaddukoddai		9.728886	79.947771	9.753617	79.976004	QX3G+CCR, Sri Lanka	4.140836	
Jaffna	Achchuveli	Achchuveli Hospital	False	False	JFFNCHCHVLCHCHVLHSPTL		Jaffna	LK-41	9.691792	80.098594	Achchuweli	PS-410103	6.934132	79.856305	9.772721	80.115501	Avarankal-Tondaimanar Rd, Sri Lanka	317.021383	#CenterFarFromPolice
Jaffna	Achchuveli	Puthur Sri Somaskanda Vidyalaya	False	False	JFFNCHCHVLPTHRSRSMSKNDVDYLY		Jaffna	LK-41	9.691792	80.098594	Achchuweli	PS-410103	6.934132	79.856305	9.745655	80.104632	AB20 - Point Pedro Road Puttur west, Jaffna 40000, Sri Lanka	313.916871	#CenterFarFromPolice
Jaffna	Chavakachcheri	MOH Office - Chavakachcheri	False	False	JFFNCHVKCHCHRMHFFCCHVKCHCHR		Jaffna	LK-41	9.691792	80.098594	Chawakachcheri	PS-410215	9.666459	80.132384	9.663455	80.166068	Dutch Rd, Chavakachcheri, Sri Lanka	3.70857	
Kilinochchi	Dharmapuram	MOH Office - Kanadawalai	False	False	KLNCHCHDHRMPRMMHFFCKNDWL		Kilinochchi	LK-45	9.415742	80.30358	Dharmapuram	PS-450136	6.873107	79.86167	9.417165	80.504182	CG83+VM7, Velikkandal, Sri Lanka	291.682933	#CenterFarFromPolice
Kilinochchi	Kilinochchi	MOH Office - Karachchi	False	False	KLNCHCHKLNCHCHMHFFCKRCHCH		Kilinochchi	LK-45	9.415742	80.30358	Kilinochchi	PS-450131	9.392265	80.407846	9.396965	80.407782	Kandy - Jaffna Hwy, Kilinochchi, Sri Lanka	0.522827	
Kilinochchi	Palai	MOH Office – Palai	False	False	KLNCHCHPLMHFFCPL		Kilinochchi	LK-45	9.415742	80.30358	Palali	PS-410105	9.789552	80.06488	7.330938	80.29484	06 A6, Polgahawela, Sri Lanka	274.638245	#CenterFarFromPolice
Kilinochchi	Pooneryn	MOH Office - Pooneryn	False	False	KLNCHCHPNRYNMHFFCPNRYN		Kilinochchi	LK-45	9.415742	80.30358	Pooneryn		9.505717	80.21101	9.507968	80.208317	G655+58P, Pooneryn, Sri Lanka	0.387256	
Kilinochchi	Mulankavil	Mulankavil Hospital	False	False	KLNCHCHMLNKVLMLNKVLHSPTL		Kilinochchi	LK-45	9.415742	80.30358	Mulankavil	PS-450135	9.254463	80.141528	9.243423	80.143894	Base Hospital Mulankavil, A32 Road, Mulankavil, Kumulamunai, Sri Lanka	1.255148	
Kilinochchi	Mulliyawalai	Tanniruttu Muslim Maha Vidyalaya	False	False	KLNCHCHMLLYWLTNNRTTMSLMMHVDYLY		Kilinochchi	LK-45	9.415742	80.30358	Muliyaweli	PS-440150	6.915266	79.87829	9.394954	80.409776	Vilson Rd, Kilinochchi 44400, Sri Lanka	281.953913	#CenterFarFromPolice
Mullaitivu	Mallavi	Therankandal General Society Hall	False	False	MLLTVMLLVTHRNKNDLGNRLSCTYHLL		Mullaitivu	LK-44	9.167643	80.549091	Mallavi	PS-440153	9.137878	80.307257	9.140012	80.301811	Mallavi, Sri Lanka	0.64345	
Mannar	Adampan	MOH Office - Adampan	False	False	MNNRDMPNMHFFCDMPN		Mannar	LK-42	8.877429	80.088628	Adampan		8.939451	80.002055	8.944842	79.996862	WXVW+WPQ, Adampan, Sri Lanka	0.827737	
Mannar	Adampan	MOH Office - Manthai West	False	False	MNNRDMPNMHFFCMNTHWST		Mannar	LK-42	8.877429	80.088628	Adampan		8.939451	80.002055	8.944842	79.996862	WXVW+WPQ, Adampan, Sri Lanka	0.827737	
Mannar	Madu	MOH Office - Madu	False	False	MNNRMDMHFFCMD		Mannar	LK-42	8.877429	80.088628	Madu	PS-420144	6.914115	79.849048	8.774247	80.156403	Puliyadi Irakkamam-Madhu Rd, Paraiyanalankulam, Sri Lanka	209.655399	#CenterFarFromPolice
Mannar	Mannar	Erukkalampiddy Girls' College	False	False	MNNRMNNRRKKLMPDDYGRLSCLLG		Mannar	LK-42	8.877429	80.088628	Mannar	PS-420138	8.978123	79.911642	9.033327	79.878889	2VMH+8HJ, Erukkalampiddy, Sri Lanka	7.116932	
Vavunia	Sidambarapuram	Sidambarapuram hospital	False	False	VVNSDMBRPRMSDMBRPRMHSPTL		Vavuniya	LK-43	8.852071	80.467404									#PoliceLocationUnknown
Vavuniya	Vavuniya	Pudukulam Maha Vidyalaya	False	False	VVNYVVNYPDKLMMHVDYLY		Vavuniya	LK-43	8.852071	80.467404	Vavuniya	PS-430119	8.754431	80.498604	8.750324	80.497043	A9, Vavuniya 43000, Sri Lanka	0.48799	
Vavuniya	Vavuniya	Shiwaprakash Girls' College	False	False	VVNYVVNYSHWPRKSHGRLSCLLG		Vavuniya	LK-43	8.852071	80.467404	Vavuniya	PS-430119	8.754431	80.498604	8.751173	80.503888	QG23+FH6, Vavuniya, Sri Lanka	0.684662	
Vavuniya	Vavuniya	Kaneshapuram Maha Vidyalaya	False	False	VVNYVVNYKNSHPRMMHVDYLY		Vavuniya	LK-43	8.852071	80.467404	Vavuniya	PS-430119	8.754431	80.498604	8.750324	80.497043	A9, Vavuniya 43000, Sri Lanka	0.48799	
Vavuniya	Nedunkeni	Public Health Service Offices - Nedunkeni	False	False	VVNYNDNKNPBLCHLTHSRVCFFCSNDNKN		Vavuniya	LK-43	8.852071	80.467404	Nedumkenrni	PS-430121	7.128721	79.877371	9.060607	80.66112	Old Post Office Road, Nedunkeni, Sri Lanka	231.566681	#CenterFarFromPolice
Vavuniya	Puvarissankulam	Puvarissankulam Hospital	False	False	VVNYPVRSSNKLMPVRSSNKLMHSPTL		Vavuniya	LK-43	8.852071	80.467404									#PoliceLocationUnknown
Vavuniya	Omanthai	Omanthai Hospital	False	False	VVNYMNTHMNTHHSPTL		Vavuniya	LK-43	8.852071	80.467404	Omantha	PS-430123	8.84719	80.497841	8.864234	80.502119	VG72+MRX, Omanthai, Sri Lanka	1.953234	
Vavuniya	Omanthai	Nauvi Hospital	False	False	VVNYMNTHNVHSPTL		Vavuniya	LK-43	8.852071	80.467404	Omantha	PS-430123	8.84719	80.497841	8.864234	80.502119	VG72+MRX, Omanthai, Sri Lanka	1.953234	
Trincomalee	Muttur	Annahar Central College	False	False	TRNCMLMTTRNNHRCNTRLCLLG		Trincomalee	LK-53	8.551241	81.092014	Mutur	PS-530138	8.461133	81.259371	8.457042	81.268759	Old Batticaloa Rd, Mutur, Sri Lanka	1.12856	
Trincomalee	Muttur	Al Hidaya Vidyalaya	False	False	TRNCMLMTTRLHDYVDYLY		Trincomalee	LK-53	8.551241	81.092014	Mutur	PS-530138	8.461133	81.259371	8.457906	81.268402	Mutur, Sri Lanka	1.056434	
Trincomalee	Muttur	Al Hilal Central College	False	False	TRNCMLMTTRLHLLCNTRLCLLG		Trincomalee	LK-53	8.551241	81.092014	Mutur	PS-530138	8.461133	81.259371	8.457042	81.268759	Old Batticaloa Rd, Mutur, Sri Lanka	1.12856	
Trincomalee	Muttur	MOH Office – Muttur	False	False	TRNCMLMTTRMHFFCMTTR		Trincomalee	LK-53	8.551241	81.092014	Mutur	PS-530138	8.461133	81.259371	8.453916	81.264494	1 Old Batticaloa Rd, Mutur, Sri Lanka	0.980859	
Trincomalee	Muttur	Mallikaithivu Maha Vidyalaya	False	False	TRNCMLMTTRMLLKTHVMHVDYLY		Trincomalee	LK-53	8.551241	81.092014	Mutur	PS-530138	8.461133	81.259371	8.449646	81.26789	1 Old Batticaloa Rd, Mutur, Sri Lanka	1.584607	
Trincomalee	Muttur	Zahira Maha Vidyalaya	False	False	TRNCMLMTTRZHRMHVDYLY		Trincomalee	LK-53	8.551241	81.092014	Mutur	PS-530138	8.461133	81.259371	8.573355	81.232605	Mosque Rd, Trincomalee 31000, Sri Lanka	12.824988	
Trincomalee	Muttur	Al Hamra Vidyalaya	False	False	TRNCMLMTTRLHMRVDYLY		Trincomalee	LK-53	8.551241	81.092014	Mutur	PS-530138	8.461133	81.259371	8.726266	81.172086	P5GC+GR4, Irrakkakandi, Sri Lanka	31.013792	#CenterFarFromPolice
Trincomalee	Muttur	Periya Palam Church	False	False	TRNCMLMTTRPRYPLMCHRCH		Trincomalee	LK-53	8.551241	81.092014	Mutur	PS-530138	8.461133	81.259371	8.426188	81.267843	Trincomalee Hwy, Sri Lanka	3.997105	
Trincomalee	Muttur	Pallikudiirippu Maha Vidyalaya	False	False	TRNCMLMTTRPLLKDRPPMHVDYLY		Trincomalee	LK-53	8.551241	81.092014	Mutur	PS-530138	8.461133	81.259371	8.582339	81.215159	H6J8+W3M, Trincomalee, Sri Lanka	14.332115	
Trincomalee	Muttur	Jinnanagar Muslim College	False	False	TRNCMLMTTRJNNNGRMSLMCLLG		Trincomalee	LK-53	8.551241	81.092014	Mutur	PS-530138	8.461133	81.259371	8.44606	81.26022	Arabic College Road, Mutur., Mutur, Sri Lanka	1.679167	
Trincomalee	Kinniya	MOH Office - Kurungnakeni	False	False	TRNCMLKNNYMHFFCKRNGNKN		Trincomalee	LK-53	8.551241	81.092014	Kinnia	PS-530140	6.907289	79.863819	7.484932	80.353119	F9M3+X6H, Kurunegala 60000, Sri Lanka	83.927094	#CenterFarFromPolice
Trincomalee	Kinniya	Al Mujahira Vidyalaya	False	False	TRNCMLKNNYLMJHRVDYLY		Trincomalee	LK-53	8.551241	81.092014	Kinnia	PS-530140	6.907289	79.863819	8.504893	81.179851	Kinniya, Sri Lanka	229.387631	#CenterFarFromPolice
Trincomalee	Kinniya	Tarul Ulum Maha Vidyalaya	False	False	TRNCMLKNNYTRLLMMHVDYLY		Trincomalee	LK-53	8.551241	81.092014	Kinnia	PS-530140	6.907289	79.863819	8.480347	81.185754	F5JP+48J, Kinniya, Sri Lanka	227.697731	#CenterFarFromPolice
Trincomalee	Kinniya	Kachchakuduthivu Hospital	False	False	TRNCMLKNNYKCHCHKDTHVHSPTL		Trincomalee	LK-53	8.551241	81.092014	Kinnia	PS-530140	6.907289	79.863819	8.501539	81.187539	Tampalakamam-Kinniya Rd, Kinniya 31100, Sri Lanka	229.636589	#CenterFarFromPolice
Trincomalee	Kinniya	MOH Office – Kinniya	False	False	TRNCMLKNNYMHFFCKNNY		Trincomalee	LK-53	8.551241	81.092014	Kinnia	PS-530140	6.907289	79.863819	8.498696	81.179644	F5XH+FVC, Kinniya 31100, Sri Lanka	228.840304	#CenterFarFromPolice
Trincomalee	Kinniya	Arafa Vidyalaya	False	False	TRNCMLKNNYRFVDYLY		Trincomalee	LK-53	8.551241	81.092014	Kinnia	PS-530140	6.907289	79.863819	8.500004	81.170769	G52C+282, Kinniya, Sri Lanka	228.334302	#CenterFarFromPolice
Trincomalee	Kinniya	Al Aksha Vidyalaya - Kinniya	False	False	TRNCMLKNNYLKSHVDYLYKNNY		Trincomalee	LK-53	8.551241	81.092014	Kinnia	PS-530140	6.907289	79.863819	8.50241	81.18629	Tampalakamam-Kinniya Rd, Kinniya 31100, Sri Lanka	229.623896	#CenterFarFromPolice
Trincomalee	Kinniya	Al Adan Vidyalaya - Kinniya	False	False	TRNCMLKNNYLDNVDYLYKNNY		Trincomalee	LK-53	8.551241	81.092014	Kinnia	PS-530140	6.907289	79.863819	8.502547	81.180383	Kinniya, Sri Lanka	229.222923	#CenterFarFromPolice
Trincomalee	Kinniya	Al Irfan Vidyalaya - Kinniya	False	False	TRNCMLKNNYLRFNVDYLYKNNY		Trincomalee	LK-53	8.551241	81.092014	Kinnia	PS-530140	6.907289	79.863819	8.481391	81.191368	F5JR+HG5, Kinniya, Sri Lanka	228.183186	#CenterFarFromPolice
Trincomalee	Sampur	Sampur Hospital	False	False	TRNCMLSMPRSMPRHSPTL		Trincomalee	LK-53	8.551241	81.092014									#PoliceLocationUnknown
Trincomalee	Sampur	Health Medical Centre - Patalipuram	False	False	TRNCMLSMPRHLTHMDCLCNTRPTLPRM		Trincomalee	LK-53	8.551241	81.092014									#PoliceLocationUnknown
Trincomalee	Sampur	Cheneyur Central College	False	False	TRNCMLSMPRCHNYRCNTRLCLLG		Trincomalee	LK-53	8.551241	81.092014									#PoliceLocationUnknown
Trincomalee	Sripura	MOH Office – Sripura	False	False	TRNCMLSRPRMHFFCSRPR		Trincomalee	LK-53	8.551241	81.092014	Sripura	PS-530136	8.929617	80.81428	8.926697	80.814799	Padavi Sripura, Padaviya - Sripura Road, Welioya, Sri Lanka	0.329869	
Trincomalee	Kuchchaveli	MOH Office - Kuchchaveli	False	False	TRNCMLKCHCHVLMHFFCKCHCHVL		Trincomalee	LK-53	8.551241	81.092014	Kuchchaweli	PS-530133	8.81895	81.100438	8.740082	81.161616	P5R6+2JQ, Kumpurupiddi, Sri Lanka	11.053646	
Trincomalee	Kuchchaveli	Divisional Hospital - Kuchchaveli	False	False	TRNCMLKCHCHVLDVSNLHSPTLKCHCHVL		Trincomalee	LK-53	8.551241	81.092014	Kuchchaweli	PS-530133	8.81895	81.100438	8.814795	81.102358	R472+WW9, Kuchchaveli, Sri Lanka	0.508064	
Trincomalee	Kuchchaveli	Divisional Hospital - Nilaveli	False	False	TRNCMLKCHCHVLDVSNLHSPTLNLVL		Trincomalee	LK-53	8.551241	81.092014	Kuchchaweli	PS-530133	8.81895	81.100438	8.681035	81.193632	M5JV+CF6, Nilaveli, Sri Lanka	18.44695	
Trincomalee	Kuchchaveli	Erakkandi Muslim College	False	False	TRNCMLKCHCHVLRKKNDMSLMCLLG		Trincomalee	LK-53	8.551241	81.092014	Kuchchaweli	PS-530133	8.81895	81.100438	8.824431	81.095742	R3FW+Q7H, Kuchchaveli, Sri Lanka	0.798806	
Trincomalee	Kuchchaveli	Al Nuria Vidyalaya - Kuchchaveli	False	False	TRNCMLKCHCHVLLNRVDYLYKCHCHVL		Trincomalee	LK-53	8.551241	81.092014	Kuchchaweli	PS-530133	8.81895	81.100438	8.821385	81.094781	Kuchchaveli, Sri Lanka	0.678215	
Trincomalee	Kuchchaveli	Family Health Services Office - Tiriyaya	False	False	TRNCMLKCHCHVLFMLYHLTHSRVCSFFCTRYY		Trincomalee	LK-53	8.551241	81.092014	Kuchchaweli	PS-530133	8.81895	81.100438	8.564779	81.237545	H67Q+W27, Manayaweli, Sri Lanka	32.039577	#CenterFarFromPolice
Trincomalee	Pulmoddai	Base Hospital -Pulmoddai	False	False	TRNCMLPLMDDBSHSPTLPLMDD		Trincomalee	LK-53	8.551241	81.092014	Pulmudai	PS-530135	6.915266	79.87829	8.941204	80.983139	WXRM+F7J, Pulmoddai, Sri Lanka	256.112801	#CenterFarFromPolice
Trincomalee	Pulmoddai	Muslim Maha Vidyalaya	False	False	TRNCMLPLMDDMSLMMHVDYLY		Trincomalee	LK-53	8.551241	81.092014	Pulmudai	PS-530135	6.915266	79.87829	8.940296	80.985139	B60, Pulmoddai, Sri Lanka	256.12882	#CenterFarFromPolice
Trincomalee	Serunuwara	MOH Office - Serunuwara	False	False	TRNCMLSRNWRMHFFCSRNWR		Trincomalee	LK-53	8.551241	81.092014	Serunuwara	PS-530244	8.321863	81.299322	8.323143	81.299894	B10, Sri Lanka	0.155671	
Trincomalee	Serunuwara	Serunuwara Hospital	False	False	TRNCMLSRNWRSRNWRHSPTL		Trincomalee	LK-53	8.551241	81.092014	Serunuwara	PS-530244	8.321863	81.299322	8.322964	81.299734	Allai-Kantalai Rd, Sri Lanka	0.130589	
Trincomalee	Serunuwara	Seruwila Hospital	False	False	TRNCMLSRNWRSRWLHSPTL		Trincomalee	LK-53	8.551241	81.092014	Serunuwara	PS-530244	8.321863	81.299322	8.37193	81.317244	Palatoppu-Seruwawila Rd, Seruwawila, Sri Lanka	5.9079	
Trincomalee	Kantale	MOH Office - Kantale	False	False	TRNCMLKNTLMHFFCKNTL		Trincomalee	LK-53	8.551241	81.092014	Kantale	PS-530241	8.356129	81.007739	8.349617	81.009107	අග්‍රබෝධි මාවත, Kantale, Sri Lanka	0.739809	
Trincomalee	Kantale	Altaric Vidyalaya	False	False	TRNCMLKNTLLTRCVDYLY		Trincomalee	LK-53	8.551241	81.092014	Kantale	PS-530241	8.356129	81.007739	8.365205	81.031496	928J+3HQ, Kantale, Sri Lanka	2.802542	
Trincomalee	Kantale	Ganthalawa Central College	False	False	TRNCMLKNTLGNTHLWCNTRLCLLG		Trincomalee	LK-53	8.551241	81.092014	Kantale	PS-530241	8.356129	81.007739	8.379492	81.010837	Kandy Rd, Kantale 31300, Sri Lanka	2.62093	
Trincomalee	Kantale	Unit 14 Jayarajarama Viharaya	False	False	TRNCMLKNTLNTJYRJRMVHRY		Trincomalee	LK-53	8.551241	81.092014	Kantale	PS-530241	8.356129	81.007739	8.351263	81.006993	Kantale, Sri Lanka	0.547435	
Trincomalee	Kantale	Vanela Central Dispensary	False	False	TRNCMLKNTLVNLCNTRLDSPNSRY		Trincomalee	LK-53	8.551241	81.092014	Kantale	PS-530241	8.356129	81.007739	8.456635	81.160349	F546+M45, Kinniya, Sri Lanka	20.173272	#CenterFarFromPolice
Trincomalee	Kantale	Jayanthipura Vidyalaya	False	False	TRNCMLKNTLJYNTHPRVDYLY		Trincomalee	LK-53	8.551241	81.092014	Kantale	PS-530241	8.356129	81.007739	8.369017	81.071671	939C+JM3, Kantale, Sri Lanka	7.180097	
Trincomalee	Ichchalampattu	MOH Office - Ichchalampattu	False	False	TRNCMLCHCHLMPTTMHFFCCHCHLMPTT	Eachchilampattu Hospital	Trincomalee	LK-53	8.551241	81.092014	Ichchalampattu		8.289549	81.359002	8.289644	81.358983	Highway, Ichchalampattu, Trincomalee, Sri Lanka	0.010772	
Trincomalee	Ichchalampattu	Karakamunai Vidyalaya	False	False	TRNCMLCHCHLMPTTKRKMNVDYLY		Trincomalee	LK-53	8.551241	81.092014	Ichchalampattu		8.289549	81.359002	8.653949	81.21274	M637+H3H, Trincomalee, Sri Lanka	43.609409	#CenterFarFromPolice
Trincomalee	Ichchalampattu	Ilangathurai Muhaththuvaram Vidyalaya	False	False	TRNCMLCHCHLMPTTLNGTHRMHTHTHVRMVDYLY		Trincomalee	LK-53	8.551241	81.092014	Ichchalampattu		8.289549	81.359002	8.574433	81.234967	Dockyard Rd, Trincomalee, Sri Lanka	34.501425	#CenterFarFromPolice
Trincomalee	Ichchalampattu	Valaithottam Vidyalaya	False	False	TRNCMLCHCHLMPTTVLTHTTMVDYLY		Trincomalee	LK-53	8.551241	81.092014	Ichchalampattu		8.289549	81.359002	8.289549	81.358986	Trincomalee Hwy, Sri Lanka	0.001761	
Trincomalee	Thambalagamuwa	Kulakotan Vidyalaya	False	False	TRNCMLTHMBLGMWKLKTNVDYLY		Trincomalee	LK-53	8.551241	81.092014	Thambalagamuva	PS-530243	6.907289	79.863819	8.499625	81.094502	Kandy Road, Sri Lanka	223.092723	#CenterFarFromPolice
Trincomalee	Thambalagamuwa	Mollipathana Sinhala Maha Vidyalaya	False	False	TRNCMLTHMBLGMWMLLPTHNSNHLMHVDYLY		Trincomalee	LK-53	8.551241	81.092014	Thambalagamuva	PS-530243	6.907289	79.863819	8.491061	81.104748	potkerney Thampalagamam, Sri Lanka	223.028906	#CenterFarFromPolice
Trincomalee	Thambalagamuwa	Mollipathana Central Dispensary	False	False	TRNCMLTHMBLGMWMLLPTHNCNTRLDSPNSRY		Trincomalee	LK-53	8.551241	81.092014	Thambalagamuva	PS-530243	6.907289	79.863819	8.454476	81.062722	96 A6, Mullipotana, Sri Lanka	216.98052	#CenterFarFromPolice
Trincomalee	Thambalagamuwa	Al Hikma Muslim Maha Vidyalaya	False	False	TRNCMLTHMBLGMWLHKMMSLMMHVDYLY		Trincomalee	LK-53	8.551241	81.092014	Thambalagamuva	PS-530243	6.907289	79.863819	8.497375	81.092022	Thambalagamuwa, Sri Lanka	222.728062	#CenterFarFromPolice
Trincomalee	Thambalagamuwa	Gantalawa Central Dispensary	False	False	TRNCMLTHMBLGMWGNTLWCNTRLDSPNSRY		Trincomalee	LK-53	8.551241	81.092014	Thambalagamuva	PS-530243	6.907289	79.863819	8.454476	81.062722	96 A6, Mullipotana, Sri Lanka	216.98052	#CenterFarFromPolice
Trincomalee	Morawewa	Mahadivulwewa Central Dispensary	False	False	TRNCMLMRWWMHDVLWWCNTRLDSPNSRY		Trincomalee	LK-53	8.551241	81.092014	Morawewa	PS-530247	8.630317	81.031386	8.617386	80.964277	JX87+XP2, Mahadivul Wewa, Sri Lanka	7.518979	
Trincomalee	Gomarankadawala	MOH Office - Gomarankadawala	False	False	TRNCMLGMRNKDWLMHFFCGMRNKDWL		Trincomalee	LK-53	8.551241	81.092014	Gomarankadawala	PS-530248	8.674487	80.967555	8.674726	80.955691	Unnamed Road, Gomarankadawala, Sri Lanka	1.304806	
Batticaloa	Batticaloa	MOH Office - Batticaloa	False	False	BTTCLBTTCLMHFFCBTTCL		Batticaloa	LK-51	7.792772	81.486513	Batticaloa	PS-510101	7.717949	81.699294	7.708253	81.691368	Hospital Rd, Batticaloa, Sri Lanka	1.387934	
Batticaloa	Kokkadicholai	Pattipola Maha Vidyalaya	False	False	BTTCLKKKDCHLPTTPLMHVDYLY		Batticaloa	LK-51	7.792772	81.486513	Kokkadicholai	PS-510112	7.715979	81.698757	7.604351	81.764784	JQ37+PWV, Kirankulam, Sri Lanka	14.392518	
Batticaloa	Kokkadicholai	Ambalanthurai Maha Vidyalaya	False	False	BTTCLKKKDCHLMBLNTHRMHVDYLY		Batticaloa	LK-51	7.792772	81.486513	Kokkadicholai	PS-510112	7.715979	81.698757	7.626196	81.709966	JPG5+FXG, Batticaloa, Sri Lanka	10.062698	
Batticaloa	Vellawali	Kalaimagal Vidyalaya	False	False	BTTCLVLLWLKLMGLVDYLY		Batticaloa	LK-51	7.792772	81.486513	Vellavali	PS-510111	6.907289	79.863819	7.503251	81.730235	Ampilanturai-Veeramunai Rd, Sri Lanka	216.365388	#CenterFarFromPolice
Batticaloa	Vellawali	Kovil Porathivu Vivekananda Maha Vidyalaya	False	False	BTTCLVLLWLKVLPRTHVVVKNNDMHVDYLY		Batticaloa	LK-51	7.792772	81.486513	Vellavali	PS-510111	6.907289	79.863819	7.518391	81.753524	GQ93+9C2, මඩකලපුව, Sri Lanka	219.325855	#CenterFarFromPolice
Batticaloa	Valachchenai	Valachchenai Base Hospital	False	False	BTTCLVLCHCHNVLCHCHNBSHSPTL		Batticaloa	LK-51	7.792772	81.486513	Valachchanai	PS-510107	7.908015	81.533004	7.911315	81.533046	Valaichchenai-Nasuvantivu-Navaladi Road, Sri Lanka	0.367088	
Batticaloa	Valachchenai	Pradeshiya Shabha - Valachchenai	False	False	BTTCLVLCHCHNPRDSHYSHBHVLCHCHN		Batticaloa	LK-51	7.792772	81.486513	Valachchanai	PS-510107	7.908015	81.533004	7.913398	81.524439	Main Street, Oddamavadi, Sri Lanka	1.117549	
Batticaloa	Valachchenai	Kinniyadi Saraswathi Vidyalaya	False	False	BTTCLVLCHCHNKNNYDSRSWTHVDYLY		Batticaloa	LK-51	7.792772	81.486513	Valachchanai	PS-510107	7.908015	81.533004	7.920735	81.521581	Hairath Vidyalaya Road, Valaichenai, Oddamavadi, Sri Lanka	1.893553	
Batticaloa	Valachchenai	Vinayagapuram Vinayagar Vidyalaya	False	False	BTTCLVLCHCHNVNYGPRMVNYGRVDYLY		Batticaloa	LK-51	7.792772	81.486513	Valachchanai	PS-510107	7.908015	81.533004	7.921328	81.52467	Valaichchenai, Sri Lanka	1.742353	
Batticaloa	Valachchenai	Oddamavadi Central College	False	False	BTTCLVLCHCHNDDMVDCNTRLCLLG		Batticaloa	LK-51	7.792772	81.486513	Valachchanai	PS-510107	7.908015	81.533004	7.912597	81.524823	WG7F+2WP, Oddamavadi, Sri Lanka	1.035429	
Batticaloa	Valachchenai	Kawanthimunai Clinic	False	False	BTTCLVLCHCHNKWNTHMNCLNC		Batticaloa	LK-51	7.792772	81.486513	Valachchanai	PS-510107	7.908015	81.533004	7.920789	81.531158	WGCJ+8F7, Sri Lanka	1.435331	
Batticaloa	Valachchenai	Theyawattuwan Samurdhi Bank	False	False	BTTCLVLCHCHNTHYWTTWNSMRDHBNK		Batticaloa	LK-51	7.792772	81.486513	Valachchanai	PS-510107	7.908015	81.533004	7.735979	81.674696	Main Rd, Batticaloa, Sri Lanka	24.697314	#CenterFarFromPolice
Batticaloa	Valachchenai	MOH Office – Kiran	False	False	BTTCLVLCHCHNMHFFCKRN		Batticaloa	LK-51	7.792772	81.486513	Valachchanai	PS-510107	7.908015	81.533004	7.623441	81.717877	Muthalaikudah Kanchirankudah Rd, Sri Lanka	37.64378	#CenterFarFromPolice
Batticaloa	Vakarai	MOH Office - Vakarai	False	False	BTTCLVKRMHFFCVKR	Divisional Hospital Vakarai	Batticaloa	LK-51	7.792772	81.486513	Wakarai	PS-510109	6.934132	79.856305	8.134552	81.435328	Trincomalee Hwy, Vakarai, Sri Lanka	219.417822	#CenterFarFromPolice
Batticaloa	Kaluwanchikudy	Settipalama Maha Vidyalaya	False	False	BTTCLKLWNCHKDYSTTPLMMHVDYLY		Batticaloa	LK-51	7.792772	81.486513	Kalawanchikudy	PS-510110	7.515908	81.787051	7.579554	81.784113	Kaluwanchikudy, Sri Lanka	7.086743	
Batticaloa	Kaluwanchikudy	Periya Kallar Vidyalaya	False	False	BTTCLKLWNCHKDYPRYKLLRVDYLY		Batticaloa	LK-51	7.792772	81.486513	Kalawanchikudy	PS-510110	7.515908	81.787051	7.705703	81.714267	New Kalmunai Rd, Batticaloa, Sri Lanka	22.584511	#CenterFarFromPolice
Batticaloa	Kaluwanchikudy	Base Hospital Kaluwanchikudy	False	False	BTTCLKLWNCHKDYBSHSPTLKLWNCHKDY		Batticaloa	LK-51	7.792772	81.486513	Kalawanchikudy	PS-510110	7.515908	81.787051	7.51724	81.785184	GQ8P+V3V, Kaluwanchikudy, Sri Lanka	0.25365	
Batticaloa	Vavunathivu	MOH Office - Vavunathivu	False	False	BTTCLVVNTHVMHFFCVVNTHV		Batticaloa	LK-51	7.792772	81.486513	Vavunathive	PS-510102	6.933075	79.857181	7.708253	81.691368	Hospital Rd, Batticaloa, Sri Lanka	219.95575	#CenterFarFromPolice
Batticaloa	Kattankudy	MOH Office - Arayampathy	False	False	BTTCLKTTNKDYMHFFCRYMPTHY		Batticaloa	LK-51	7.792772	81.486513	Kaththankudi	PS-510103	7.715979	81.698757	7.672862	81.735019	MPFP+42R, Sri Lanka	6.243191	
Batticaloa	Kattankudy	MOH Office - Kattankudy	False	False	BTTCLKTTNKDYMHFFCKTTNKDY		Batticaloa	LK-51	7.792772	81.486513	Kaththankudi	PS-510103	7.715979	81.698757	7.683586	81.730767	MPMJ+C8J, Kattankudy, Sri Lanka	5.042961	
Batticaloa	Eravur	Sandiveli Hospital	False	False	BTTCLRVRSNDVLHSPTL		Batticaloa	LK-51	7.792772	81.486513	Eravur	PS-510104	7.715979	81.698757	7.777289	81.602853	Trincomalee Hwy, Eravur, Sri Lanka	12.578998	
Batticaloa	Eravur	MOH Office – Eravur	False	False	BTTCLRVRMHFFCRVR		Batticaloa	LK-51	7.792772	81.486513	Eravur	PS-510104	7.715979	81.698757	7.783664	81.605626	QJM4+F76, Eravur, Sri Lanka	12.729342	
Batticaloa	Eravur	MOH Office - Chenkaladi	False	False	BTTCLRVRMHFFCCHNKLD		Batticaloa	LK-51	7.792772	81.486513	Eravur	PS-510104	7.715979	81.698757	7.783599	81.593367	Trincomalee Hwy, Chenkaladi 30350, Sri Lanka	13.837876	
Batticaloa	Eravur	Eravur Hospital	False	False	BTTCLRVRRVRHSPTL		Batticaloa	LK-51	7.792772	81.486513	Eravur	PS-510104	7.715979	81.698757	7.783168	81.605999	QJM4+799, Eravur 30300, Sri Lanka	12.663585	
Batticaloa	Eravur	Ottupalliya Pre School	False	False	BTTCLRVRTTPLLYPRSCHL		Batticaloa	LK-51	7.792772	81.486513	Eravur	PS-510104	7.715979	81.698757	7.785947	81.590295	Trincomalee Road, Chenkaladi, Sri Lanka	14.264135	
Batticaloa	Eravur	St. Joseph's College	False	False	BTTCLRVRSTJSPHSCLLG		Batticaloa	LK-51	7.792772	81.486513	Eravur	PS-510104	7.715979	81.698757	7.712033	81.695528	PM6W+R66, Batticaloa, Sri Lanka	0.565082	
Batticaloa	Eravur	Kommaturai Conference Hall	False	False	BTTCLRVRKMMTRCNFRNCHLL		Batticaloa	LK-51	7.792772	81.486513	Eravur	PS-510104	7.715979	81.698757	7.789932	81.584839	main road,, kommathurai, Chenkaladi 30350, Sri Lanka	15.009924	
Batticaloa	Eravur	Kiran Central College	False	False	BTTCLRVRKRNCNTRLCLLG		Batticaloa	LK-51	7.792772	81.486513	Eravur	PS-510104	7.715979	81.698757	7.785947	81.590295	Trincomalee Road, Chenkaladi, Sri Lanka	14.264135	
Batticaloa	Eravur	Morakotanchenai Primary School	False	False	BTTCLRVRMRKTNCHNPRMRYSCHL		Batticaloa	LK-51	7.792772	81.486513	Eravur	PS-510104	7.715979	81.698757	7.785947	81.590295	Trincomalee Road, Chenkaladi, Sri Lanka	14.264135	
Batticaloa	Eravur	Dewapuram Vidyalaya	False	False	BTTCLRVRDWPRMVDYLY		Batticaloa	LK-51	7.792772	81.486513	Eravur	PS-510104	7.715979	81.698757	7.781715	81.601743	Eravur - 04, Chenkaladi, Sri Lanka	12.953304	
Batticaloa	Eravur	MOH Office - Chenkaladi	False	False	BTTCLRVRMHFFCCHNKLD		Batticaloa	LK-51	7.792772	81.486513	Eravur	PS-510104	7.715979	81.698757	7.783599	81.593367	Trincomalee Hwy, Chenkaladi 30350, Sri Lanka	13.837876	
Batticaloa	Eravur	Chenkaladi Hospital	False	False	BTTCLRVRCHNKLDHSPTL		Batticaloa	LK-51	7.792772	81.486513	Eravur	PS-510104	7.715979	81.698757	7.783546	81.589961	Batticaloa Rd, Chenkaladi, Sri Lanka	14.151406	
Batticaloa	Karadiyanaru	Karadiyanaru Hospital	False	False	BTTCLKRDYNRKRDYNRHSPTL		Batticaloa	LK-51	7.792772	81.486513	Karadiyanaru	PS-510105	7.701992	81.537252	7.700216	81.539779	PG2Q+3WJ, Karadiyanaru, Sri Lanka	0.341482	
Ampara	Ampara	Ampara Hospital	False	False	MPRMPRMPRHSPTL		Ampara	LK-52	7.23699	81.550391	Ampara	PS-520113	7.296771	81.677161	7.298334	81.690841	Dharmapala Mawatha, Ampara, Sri Lanka	1.519279	
Ampara	Chavalakade	MOH Office - Navidanveli	False	False	MPRCHVLKDMHFFCNVDNVL		Ampara	LK-52	7.23699	81.550391	Chawalakade	PS-520125	7.413559	81.776822	7.420081	81.788401	B77, Sri Lanka	1.468805	
Ampara	Chavalakade	5th Colony Health Centre	False	False	MPRCHVLKDTHCLNYHLTHCNTR		Ampara	LK-52	7.23699	81.550391	Chawalakade	PS-520125	7.413559	81.776822	7.418836	81.781436	Chavalakade, Sri Lanka	0.776867	
Ampara	Karaitivu	MOH Office – Karaitivu	False	False	MPRKRTVMHFFCKRTV		Ampara	LK-52	7.23699	81.550391	Karaitivu		9.744059	79.870587	7.377712	81.838796	Colombo-Ratnapura-Wellawaya-Batticaloa Highway, Karativu 32250, Sri Lanka	340.788666	#CenterFarFromPolice
Ampara	Kalmunai	Ashraff Memorial Hospital	False	False	MPRKLMNSHRFFMMRLHSPTL		Ampara	LK-52	7.23699	81.550391	Kalmunai	PS-520123	7.414289	81.825006	7.403172	81.831146	A4, Ashraff Memorial Base Hospital, A4 A4, Kalmunai 32300, Sri Lanka	1.409859	
Ampara	Kalmunai	MOH Office - Kalmunai South	False	False	MPRKLMNMHFFCKLMNSTH		Ampara	LK-52	7.23699	81.550391	Kalmunai	PS-520123	7.414289	81.825006	7.411712	81.838462	CR6Q+M9P, Kalmunai 32300, Sri Lanka	1.511625	
Ampara	Kalmunai	Base Hospital - Kalmunai North	False	False	MPRKLMNBSHSPTLKLMNNRTH		Ampara	LK-52	7.23699	81.550391	Kalmunai	PS-520123	7.414289	81.825006	7.420034	81.82232	hospital near, Kalmunai 32300, Sri Lanka	0.704353	
Ampara	Kalmunai	Fathima  National Colleg	False	False	MPRKLMNFTHMNTNLCLLG		Ampara	LK-52	7.23699	81.550391	Kalmunai	PS-520123	7.414289	81.825006	7.419889	81.823933	Carmel Fatima College Rd, Kalmunai 32300, Sri Lanka	0.634031	
Ampara	Kalmunai	MOH Office - Kalmunai North	False	False	MPRKLMNMHFFCKLMNNRTH		Ampara	LK-52	7.23699	81.550391	Kalmunai	PS-520123	7.414289	81.825006	7.411712	81.838462	CR6Q+M9P, Kalmunai 32300, Sri Lanka	1.511625	
Ampara	Sainthamarthu	MOH Office – Sainthamarthu	False	False	MPRSNTHMRTHMHFFCSNTHMRTH		Ampara	LK-52	7.23699	81.550391									#PoliceLocationUnknown
Ampara	Sainthamarthu	Saindamarudu Hospital	False	False	MPRSNTHMRTHSNDMRDHSPTL		Ampara	LK-52	7.23699	81.550391									#PoliceLocationUnknown
Ampara	Sammanthurai	Sammanthurai Base Hospital	False	False	MPRSMMNTHRSMMNTHRBSHSPTL		Ampara	LK-52	7.23699	81.550391	Samanthurai	PS-520124	7.365785	81.810859	7.368355	81.813042	9R96+MWM, Hospital Rd, Sammanthurai, Sri Lanka	0.373773	
Ampara	Sammanthurai	MOH Office – Nintavur	False	False	MPRSMMNTHRMHFFCNNTVR		Ampara	LK-52	7.23699	81.550391	Samanthurai	PS-520124	7.365785	81.810859	7.352821	81.856939	Hospital Rd, Nintavur 32340, Sri Lanka	5.283925	
Ampara	Sammanthurai	Nintavur Hospital	False	False	MPRSMMNTHRNNTVRHSPTL		Ampara	LK-52	7.23699	81.550391	Samanthurai	PS-520124	7.365785	81.810859	7.353372	81.856852	Hospital Rd, Nintavur, Sri Lanka	5.258159	
Ampara	Sammanthurai	MOH Office - Sammanthurai	False	False	MPRSMMNTHRMHFFCSMMNTHR		Ampara	LK-52	7.23699	81.550391	Samanthurai	PS-520124	7.365785	81.810859	7.369857	81.812264	9R96+WWR, Sammanthurai, Sri Lanka	0.478712	
Ampara	Sammanthurai	Kannahi Vidyalaya	False	False	MPRSMMNTHRKNNHVDYLY		Ampara	LK-52	7.23699	81.550391	Samanthurai	PS-520124	7.365785	81.810859	7.35018	81.80359	Kallarichchel 02, Sammanthurai, Sri Lanka	1.912014	
Ampara	Sammanthurai	Darussalam Vidyalaya	False	False	MPRSMMNTHRDRSSLMVDYLY		Ampara	LK-52	7.23699	81.550391	Samanthurai	PS-520124	7.365785	81.810859	7.357562	81.802725	9R53+23H, Sammanthurai, Sri Lanka	1.281286	
Ampara	Thirukkovil	MOH Office – Thirukkovil	False	False	MPRTHRKKVLMHFFCTHRKKVL		Ampara	LK-52	7.23699	81.550391	Thirukkovil	PS-520127	7.113998	81.852219	7.111635	81.852892	Central Rd, Vinayagapuram, Sri Lanka	0.273131	
Ampara	Akkaraipattu	MOH Office – Addalachenai	False	False	MPRKKRPTTMHFFCDDLCHN		Ampara	LK-52	7.23699	81.550391	Akkaraipattu	PS-520126	7.216084	81.853254	7.260916	81.853493	7V63+999, Addalaichenai, Sri Lanka	4.986726	
Ampara	Akkaraipattu	MOH Office - Akkaraipattu	False	False	MPRKKRPTTMHFFCKKRPTT		Ampara	LK-52	7.23699	81.550391	Akkaraipattu	PS-520126	7.216084	81.853254	7.228134	81.851123	6VH2+7C5, Akkaraipattu, Sri Lanka	1.360772	
Ampara	Akkaraipattu	MOH Office - Alayadivembu	False	False	MPRKKRPTTMHFFCLYDVMB		Ampara	LK-52	7.23699	81.550391	Akkaraipattu	PS-520126	7.216084	81.853254	7.228134	81.851123	6VH2+7C5, Akkaraipattu, Sri Lanka	1.360772	
Ampara	Pottuvil	Pakyawatta Vidyalaya	False	False	MPRPTTVLPKYWTTVDYLY		Ampara	LK-52	7.23699	81.550391	Pothuvil	PS-520128	6.878387	81.826859	6.867891	81.839008	Muhudu Maha Vihara Mawatha, Pottuvil, Sri Lanka	1.778462	
Ampara	Pottuvil	Pottuvil Hospital	False	False	MPRPTTVLPTTVLHSPTL		Ampara	LK-52	7.23699	81.550391	Pothuvil	PS-520128	6.878387	81.826859	6.876098	81.830463	Main Street Colombo - Batticaloa Hwy, Pottuvil 32500, Sri Lanka	0.47246	
Ampara	Pottuvil	Komari Hospital	False	False	MPRPTTVLKMRHSPTL		Ampara	LK-52	7.23699	81.550391	Pothuvil	PS-520128	6.878387	81.826859	6.876098	81.830463	Main Street,, Base Hospital, Main Street Colombo - Batticaloa Hwy, Pottuvil 32500, Sri Lanka	0.47246	
