district	police	center	dose1	dose2	fuzzy_key	alt_name	district_name_norm	district_id	district_lat	district_lng	ps_name_norm	ps_id	ps_lat	ps_lng	lat	lng	formatted_address	dis_center_to_police	tags	district_si	police_si	center_si	district_ta	police_ta	center_ta	formatted_address_si	formatted_address_ta
District / Institution	Police Area	Vaccination Centre Name	False	False	DSTRCTNSTTTNPLCRVCCNTNCNTRNM														#CenterLocationUnknown	දිස්ත්රික්කය / ආයතනය	පොලිස් ප්රදේශය	එන්නත් මධ්යස්ථානයේ නම	மாவட்டம் / நிறுவனம்	போலீஸ் ஏரியா	தடுப்பூசி மையத்தின் பெயர்		
Colombo	Cinnamon Gardens	Viharamahadevi Park	False	False	CLMBCNNMNGRDNSVHRMHDVPRK		Colombo	LK-11	6.869685	80.019739									#PoliceLocationUnknown	කොළඹ	කුරුඳුවත්ත	විහාරමහාදේවි උද්‍යානය	கொழும்பு	இலவங்கப்பட்டை	விகாரமஹாதேவி பூங்கா		
Colombo	Borella	Lady Ridgeway Hospital	False	False	CLMBBRLLLDYRDGWYHSPTL		Colombo	LK-11	6.869685	80.019739									#PoliceLocationUnknown	කොළඹ	බොරැල්ල	රිජ්වේ ආර්යා රෝහල	கொழும்பு	பொரளை	லேடி ரிட்ஜ்வே மருத்துவமனை		
Colombo	Narahenpita	Army Hospital - Narahenpita	False	False	CLMBNRHNPTRMYHSPTLNRHNPT		Colombo	LK-11	6.869685	80.019739									#PoliceLocationUnknown	කොළඹ	නාරාහේන්පිට	යුද හමුදා රෝහල - නාරාහේන්පිට	கொழும்பு	நாரஹேன்பிட்டி	இராணுவ மருத்துவமனை - நாரஹேன்பிட்ட		
Colombo	Mt Lavainia	Garden Road Children and Maternity Clinic	False	False	CLMBMTLVNGRDNRDCHLDRNNDMTRNTYCLNC		Colombo	LK-11	6.869685	80.019739									#PoliceLocationUnknown	කොළඹ	ගල්කිස්ස	වත්ත පාර ළමා හා මාතෘ සායනය	கொழும்பு	மவுண்ட் லாவைனியா	கார்டன் ரோடு குழந்தைகள் மற்றும் மகப்பேறு மருத்துவமனை		
Colombo	Mt Lavainia	Attidiya Maternity Clinic	False	False	CLMBMTLVNTTDYMTRNTYCLNC		Colombo	LK-11	6.869685	80.019739									#PoliceLocationUnknown	කොළඹ	ගල්කිස්ස	අත්තිඩිය මාතෘ සායනය	கொழும்பு	மவுண்ட் லாவைனியா	அத்திடிய மகப்பேறு மருத்துவமனை		
Colombo	Grandpass	Fouzi Maternity Clinic	False	False	CLMBGRNDPSSFZMTRNTYCLNC		Colombo	LK-11	6.869685	80.019739									#PoliceLocationUnknown	කොළඹ	ග්රෑන්ඩ්පාස්	ෆවුසි මාතෘ සායනය	கொழும்பு	கிராண்ட்பாஸ்	ஃபouஸி மகப்பேறு மருத்துவமனை		
Colombo	Homagama	Panagoda Bodhiraja Viharaya	False	False	CLMBHMGMPNGDBDHRJVHRY		Colombo	LK-11	6.869685	80.019739									#PoliceLocationUnknown	කොළඹ	හෝමාගම	පනාගොඩ බෝධිරාජ විහාරය	கொழும்பு	ஹோமாகம	பனாகொட போதிராஜ விகாரை		
Colombo	Foreshore	MOH Office - Jinthupitiya	False	False	CLMBFRSHRMHFFCJNTHPTY		Colombo	LK-11	6.869685	80.019739									#PoliceLocationUnknown	කොළඹ	මුහුදු වෙරළ	MOH කාර්යාලය - ජින්තුපිටිය	கொழும்பு	கடற்கரை	MOH அலுவலகம் - ஜிந்துபிட்டிய		
Colombo	Boralesgamuwa	Kotelawala Defence Hospital	False	False	CLMBBRLSGMWKTLWLDFNCHSPTL		Colombo	LK-11	6.869685	80.019739									#PoliceLocationUnknown	කොළඹ	බොරලැස්ගමුව	කොතලාවල ආරක්ෂක රෝහල	கொழும்பு	பொரலஸ்கமுவ	கொத்தலாவல பாதுகாப்பு வைத்தியசாலை		
Colombo	Thalangama	MOH Office - Battaramulla	False	False	CLMBTHLNGMMHFFCBTTRMLL		Colombo	LK-11	6.869685	80.019739									#PoliceLocationUnknown	කොළඹ	තලංගම	MOH කාර්යාලය - බත්තරමුල්ල	கொழும்பு	தலங்கம	MOH அலுவலகம் - பத்தரமுல்ல		
Colombo	Mirihana	MOH Office - Beddagana	False	False	CLMBMRHNMHFFCBDDGN		Colombo	LK-11	6.869685	80.019739									#PoliceLocationUnknown	කොළඹ	මිරිහාන	MOH කාර්යාලය - බැද්දගාන	கொழும்பு	மிரிஹானா	MOH அலுவலகம் - பெத்தகானா		
Colombo	Welikada	Diyatha Uyana	False	False	CLMBWLKDDYTHYN		Colombo	LK-11	6.869685	80.019739									#PoliceLocationUnknown	කොළඹ	වැලිකඩ	දියත උයන	கொழும்பு	வெலிக்கடை	தியத உயன		
Colombo	Wellampitiya	MOH Office - Kolonnawa	False	False	CLMBWLLMPTYMHFFCKLNNW		Colombo	LK-11	6.869685	80.019739									#PoliceLocationUnknown	කොළඹ	වැල්ලම්පිටිය	MOH කාර්යාලය - කොළොන්නාව	கொழும்பு	வெல்லம்பிட்டிய	MOH அலுவலகம் - கொலன்னாவ		
Colombo	Mulleriyawa	MOH Office - Gothatuwa	False	False	CLMBMLLRYWMHFFCGTHTW		Colombo	LK-11	6.869685	80.019739									#PoliceLocationUnknown	කොළඹ	මුල්ලේරියාව	MOH කාර්යාලය - ගොතටුව	கொழும்பு	முல்லேரியாவ	MOH அலுவலகம் - கொதட்டுவ		
Colombo	Kaduwela	MOH Office - Kaduwela	False	False	CLMBKDWLMHFFCKDWL		Colombo	LK-11	6.869685	80.019739	Kaduwela		6.936234	79.970183	6.934127	79.984398	B263, Kaduwela, Sri Lanka	1.586964		කොළඹ	කඩුවෙල	MOH කාර්යාලය - කඩුවෙල	கொழும்பு	கடுவெல	MOH அலுவலகம் - கடுவெல	B263, කඩුවෙල, ශ්‍රී ලංකාව	B263, கடுவெல, இலங்கை
Colombo	Kosgama	Kosgama Hospital	False	False	CLMBKSGMKSGMHSPTL		Colombo	LK-11	6.869685	80.019739									#PoliceLocationUnknown	කොළඹ	කොස්ගම	කොස්ගම රෝහල	கொழும்பு	கொஸ்கம	கொஸ்கம வைத்தியசாலை		
Colombo	Avissawella	BOI – Seethawaka	False	False	CLMBVSSWLLBSTHWK		Colombo	LK-11	6.869685	80.019739									#PoliceLocationUnknown	කොළඹ	අවිස්සාවේල්ල	BOI - සීතාවක	கொழும்பு	அவிசாவளை	BOI - சீதாவாகா		
Gampaha	Gampaha	Arambagodella Temple	False	False	GMPHGMPHRMBGDLLTMPL		Gampaha	LK-12	7.123584	80.018436									#PoliceLocationUnknown	ගම්පහ	ගම්පහ	අරඹගොඩැල්ල පන්සල	கம்பஹா	கம்பஹா	ஆரம்பகோடெல்லா கோவில்		
Gampaha	Attanagalla	Bopetta Viveka Senasanaya	False	False	GMPHTTNGLLBPTTVVKSNSNY		Gampaha	LK-12	7.123584	80.018436									#PoliceLocationUnknown	ගම්පහ	අත්තනගල්ල	බෝපෙත්ත විවේක සේනාසනය	கம்பஹா	அத்தனகல்ல	போபெட்டா விவேக சேனாசனய		
Gampaha	Nittambuwa	BOI – Malwatta	False	False	GMPHNTTMBWBMLWTT		Gampaha	LK-12	7.123584	80.018436									#PoliceLocationUnknown	ගම්පහ	නිට්ටඹුව	ආයෝජන මණ්ඩලය - මල්වත්ත	கம்பஹா	நிட்டம்புவ	BOI - மல்வத்தை		
Gampaha	Pallewela	Bubula Viharaya	False	False	GMPHPLLWLBBLVHRY		Gampaha	LK-12	7.123584	80.018436									#PoliceLocationUnknown	ගම්පහ	පල්ලෙවෙල	බුබුල විහාරය	கம்பஹா	பல்லேவல	புபுல விஹாராய		
Gampaha	Pallewela	Veragoda Viharaya	False	False	GMPHPLLWLVRGDVHRY		Gampaha	LK-12	7.123584	80.018436									#PoliceLocationUnknown	ගම්පහ	පල්ලෙවෙල	වේරගොඩ විහාරය	கம்பஹா	பல்லேவல	வரகொட விகாரை		
Gampaha	Mirigama	Kandagamuwa Viharaya	False	False	GMPHMRGMKNDGMWVHRY		Gampaha	LK-12	7.123584	80.018436									#PoliceLocationUnknown	ගම්පහ	මීරිගම	කන්දගමුව විහාරය	கம்பஹா	மீரிகம	கந்தகமுவ விகாரை		
Gampaha	Ganemulla	Bollatha Sri Bodhi Viharaya	False	False	GMPHGNMLLBLLTHSRBDHVHRY		Gampaha	LK-12	7.123584	80.018436									#PoliceLocationUnknown	ගම්පහ	ගනේමුල්ල	බොල්ලත ශ්‍රී බෝධි විහාරය	கம்பஹா	கணேமுல்ல	பொல்லாத ஸ்ரீ போதி விகாரை		
Gampaha	Pugoda	MOH Office – Dompe	False	False	GMPHPGDMHFFCDMP		Gampaha	LK-12	7.123584	80.018436									#PoliceLocationUnknown	ගම්පහ	පූගොඩ	MOH කාර්යාලය - දොම්පේ	கம்பஹா	பூகோடா	MOH அலுவலகம் - டோம்பே		
Gampaha	Minuwangoda	Minuwangoda Town Hall	False	False	GMPHMNWNGDMNWNGDTWNHLL		Gampaha	LK-12	7.123584	80.018436									#PoliceLocationUnknown	ගම්පහ	මිනුවන්ගොඩ	මිනුවන්ගොඩ නගර ශාලාව	கம்பஹா	மினுவாங்கொட	மினுவாங்கொடை நகர மண்டபம்		
Kalutara	Bandaragama	District Hospital Bandaragama	False	False	KLTRBNDRGMDSTRCTHSPTLBNDRGM		Kalutara	LK-13	6.577363	80.127416									#PoliceLocationUnknown	කළුතර	බණ්ඩාරගම	බණ්ඩාරගම දිසා රෝහල	களுத்துறை	பண்டாரகம	பண்டாரகம மாவட்ட வைத்தியசாலை		
Kalutara	Bandaragama	Bodhirukkarama Viharaya	False	False	KLTRBNDRGMBDHRKKRMVHRY		Kalutara	LK-13	6.577363	80.127416									#PoliceLocationUnknown	කළුතර	බණ්ඩාරගම	බෝධිරුක්ඛාරාම විහාරය	களுத்துறை	பண்டாரகம	போதிருக்கராம விகாரை		
Kalutara	Bandaragama	Bandaragama Maithri Hall	False	False	KLTRBNDRGMBNDRGMMTHRHLL		Kalutara	LK-13	6.577363	80.127416									#PoliceLocationUnknown	කළුතර	බණ්ඩාරගම	බණ්ඩාරගම මෛත්‍රී ශාලාව	களுத்துறை	பண்டாரகம	பண்டாரகம மைத்திரி மண்டபம்		
Kalutara	Panadura	Base Hospital - Panadura	False	False	KLTRPNDRBSHSPTLPNDR		Kalutara	LK-13	6.577363	80.127416	Panadura North		6.756309	79.898939	6.721556	79.906851	A2, Panadura, Sri Lanka	3.963137		කළුතර	පානදුර	මූලික රෝහල - පානදුර	களுத்துறை	பாணந்துறை	ஆதார வைத்தியசாலை - பாணந்துறை	A2, පානදුර, ශ්‍රී ලංකාව	A2, பாணந்துரா, இலங்கை
Kalutara	Anguruwatota	MOH Office - Madurawala	False	False	KLTRNGRWTTMHFFCMDRWL		Kalutara	LK-13	6.577363	80.127416									#PoliceLocationUnknown	කළුතර	Anguruwatota	MOH කාර්යාලය - මදුරාවල	களுத்துறை	Anguruwatota	MOH அலுவலகம் - மதுராவல		
Kalutara	Ingiriya	Divisional Hospital - Ingiriya	False	False	KLTRNGRYDVSNLHSPTLNGRY		Kalutara	LK-13	6.577363	80.127416									#PoliceLocationUnknown	කළුතර	ඉංගිරිය	ප්‍රාදේශීය රෝහල - ඉංගිරිය	களுத்துறை	இங்கிரிய	பிரதேச வைத்தியசாலை - இங்கிரிய		
Kalutara	Dodangoda	MOH Office - Dodangoda	False	False	KLTRDDNGDMHFFCDDNGD	6.540366199937832,80.03661033076219	Kalutara	LK-13	6.577363	80.127416									#PoliceLocationUnknown	කළුතර	දොඩන්ගොඩ	6.540366199937832,80.03661033076219	களுத்துறை	தொடங்கொட	6.540366199937832,80.03661033076219		
Kalutara	Dodangoda	Divisional Hospital - Dodangoda	False	False	KLTRDDNGDDVSNLHSPTLDDNGD		Kalutara	LK-13	6.577363	80.127416									#PoliceLocationUnknown	කළුතර	දොඩන්ගොඩ	ප්‍රාදේශීය රෝහල - දොඩංගොඩ	களுத்துறை	தொடங்கொட	பிரதேச வைத்தியசாலை - தொடங்கொட		
Kalutara	Beruwala	MOH Office - Beruwala	False	False	KLTRBRWLMHFFCBRWL		Kalutara	LK-13	6.577363	80.127416									#PoliceLocationUnknown	කළුතර	බේරුවල	MOH කාර්යාලය - බේරුවල	களுத்துறை	பேருவளை	MOH அலுவலகம் - பேருவளை		
Kalutara	Thebuwana	Nebada Hospital	False	False	KLTRTHBWNNBDHSPTL		Kalutara	LK-13	6.577363	80.127416									#PoliceLocationUnknown	කළුතර	තෙබුවන	Nebada Hospital	களுத்துறை	தெபுவன	Nebada Hospital		
Kalutara	Wadduwa	Kalapugama Temple	False	False	KLTRWDDWKLPGMTMPL		Kalutara	LK-13	6.577363	80.127416									#PoliceLocationUnknown	කළුතර	වාද්දුව	කලපුගම පන්සල	களுத்துறை	வாதுவ	கலபுகம ஆலயம்		
Kalutara	Millaniya	Millaniya Pradeshiya Sabha Office	False	False	KLTRMLLNYMLLNYPRDSHYSBHFFC		Kalutara	LK-13	6.577363	80.127416									#PoliceLocationUnknown	කළුතර	මිල්ලනිය	මිල්ලනිය ප්‍රාදේශීය සභා කාර්යාලය	களுத்துறை	மில்லானியா	மில்லனியா பிரதேச சபை அலுவலகம்		
Kalutara	Millaniya	Millaniya Fantasia Factory	False	False	KLTRMLLNYMLLNYFNTSFCTRY		Kalutara	LK-13	6.577363	80.127416									#PoliceLocationUnknown	කළුතර	මිල්ලනිය	මිල්ලනියා ෆැන්ටසියා කර්මාන්ත ශාලාව	களுத்துறை	மில்லானியா	மிலானியா பேண்டசியா தொழிற்சாலை		
Kalutara	Matugama	Weththewa Hospital	False	False	KLTRMTGMWTHTHWHSPTL		Kalutara	LK-13	6.577363	80.127416									#PoliceLocationUnknown	කළුතර	මතුගම	වෑත්තෑව රෝහල	களுத்துறை	மத்துகம	வெத்தேவ வைத்தியசாலை		
Kalutara	Agalawatta	District Hospital Pimbura	False	False	KLTRGLWTTDSTRCTHSPTLPMBR		Kalutara	LK-13	6.577363	80.127416	Agalawatta		6.542566	80.157178	6.575506	80.158558	Nagoda - Kalawellawa - Bellapitiya Rd, Sri Lanka	3.667083		කළුතර	අගලවත්ත	පිඹුර දිස්ත්‍රික් රෝහල	களுத்துறை	அகலவத்த	பிம்புரா மாவட்ட மருத்துவமனை	නාගොඩ - කලවැල්ලාව - බැල්ලපිටිය පාර, ශ්‍රී ලංකාව	நாகொட - கலவெல்லவ - பெல்லப்பிட்டிய வீதி, இலங்கை
Kalutara	Horana	Base Hospital - Horana	False	False	KLTRHRNBSHSPTLHRN		Kalutara	LK-13	6.577363	80.127416									#PoliceLocationUnknown	කළුතර	හොරණ	මූලික රෝහල - හොරණ	களுத்துறை	ஹொரணை	ஆதார வைத்தியசாலை - ஹொரணை		
Kurunegala	Nikaweratiya	MOH Office - Nikaweratiya	False	False	KRNGLNKWRTYMHFFCNKWRTY		Kurunegala	LK-61	7.664752	80.236782									#PoliceLocationUnknown	කුරුණෑගල	නිකවැරටිය	MOH කාර්යාලය - නිකවැරටිය	குருநாகல்	நிக்கவெரட்டிய	MOH அலுவலகம் - நிக்கவெரட்டிய		
Kurunegala	Rasnayakapura	MOH Office - Rasnayakapura	False	False	KRNGLRSNYKPRMHFFCRSNYKPR		Kurunegala	LK-61	7.664752	80.236782									#PoliceLocationUnknown	කුරුණෑගල	රස්නායකපුර	MOH කාර්යාලය - රස්නායකපුර	குருநாகல்	ரஸ்நாயக்கபுர	MOH அலுவலகம் - ரஸ்நாயக்கபுர		
Kurunegala	Kotawehera	MOH Office - Kotawehera	False	False	KRNGLKTWHRMHFFCKTWHR		Kurunegala	LK-61	7.664752	80.236782									#PoliceLocationUnknown	කුරුණෑගල	කොටවෙහෙර	MOH කාර්යාලය - කොටවෙහෙර	குருநாகல்	கொட்டவெஹெர	MOH அலுவலகம் - கொட்டவெஹெரா		
Puttalam	Dankotuwa	Katukenda Vidyalaya	False	False	PTTLMDNKTWKTKNDVDYLY		Puttalam	LK-62	7.973502	79.91392									#PoliceLocationUnknown	පුත්තලම	දන්කොටුව	කටුකෙන්ද විද්‍යාලය	புத்தளம்	தங்கொடுவ	கட்டுகெந்த வித்தியாலயம்		
Puttalam	Koswatta	Pothuwatana Community Hall	False	False	PTTLMKSWTTPTHWTNCMMNTYHLL		Puttalam	LK-62	7.973502	79.91392									#PoliceLocationUnknown	පුත්තලම	කොස්වත්ත	පොතුවටන ප්‍රජා ශාලාව	புத்தளம்	கொஸ்வத்த	பொதுவாடனை சனசமூக மண்டபம்		
Puttalam	Marawila	MOH Office - Mahawewa	False	False	PTTLMMRWLMHFFCMHWW		Puttalam	LK-62	7.973502	79.91392									#PoliceLocationUnknown	පුත්තලම	මාරවිල	MOH කාර්යාලය - මහවැව	புத்தளம்	மாரவில	MOH அலுவலகம் - மஹாவெவ		
Puttalam	Marawila	MOH Office - Nattandiya	False	False	PTTLMMRWLMHFFCNTTNDY		Puttalam	LK-62	7.973502	79.91392									#PoliceLocationUnknown	පුත්තලම	මාරවිල	MOH කාර්යාලය - නාත්තන්ඩිය	புத்தளம்	மாரவில	MOH அலுவலகம் - நாத்தாண்டிய		
Puttalam	Gampola	National Heritage Center	False	False	PTTLMGMPLNTNLHRTGCNTR		Puttalam	LK-62	7.973502	79.91392									#PoliceLocationUnknown	පුත්තලම	ගම්පොල	ජාතික උරුම මධ්යස්ථානය	புத்தளம்	கம்பளை	தேசிய பாரம்பரிய மையம்		
Kandy	Nawalapitiya	MOH Office - Thispane	False	False	KNDYNWLPTYMHFFCTHSPN		Kandy	LK-21	7.273339	80.709712									#PoliceLocationUnknown	මහනුවර	නාවලපිටිය	MOH කාර්යාලය - තිස්පනේ	கண்டி	நாவலப்பிட்டி	MOH அலுவலகம் - திஸ்பேன்		
Matale	Matale	Warakamura Hela Klodeen Garment Factory	False	False	MTLMTLWRKMRHLKLDNGRMNTFCTRY		Matale	LK-22	7.667594	80.730964									#PoliceLocationUnknown	මාතලේ	මාතලේ	වරකාමුර හෙළ ක්ලෝඩීන් ඇඟලුම් කම්හල	மாத்தளை	மாத்தளை	வரகாமுர ஹெல க்ளோடீன் ஆடைத் தொழிற்சாலை		
Matale	Matale	Kavatayamuna Viharaya	False	False	MTLMTLKVTYMNVHRY		Matale	LK-22	7.667594	80.730964									#PoliceLocationUnknown	මාතලේ	මාතලේ	කවටයමුණ විහාරය	மாத்தளை	மாத்தளை	கவதயமுன விஹாராய		
Matale	Galewela	Galewela Government Hospital	False	False	MTLGLWLGLWLGVRNMNTHSPTL		Matale	LK-22	7.667594	80.730964									#PoliceLocationUnknown	මාතලේ	ගලේවෙල	ගලේවෙල රජයේ රෝහල	மாத்தளை	கலேவெல	கலேவெல அரசு மருத்துவமனை		
Matale	Galewela	Nagolla Viharaya	False	False	MTLGLWLNGLLVHRY		Matale	LK-22	7.667594	80.730964									#PoliceLocationUnknown	මාතලේ	ගලේවෙල	නාගොල්ල විහාරය	மாத்தளை	கலேவெல	நாகொல்ல விகாரை		
Matale	Dambulla	Lenadora Government Hospital	False	False	MTLDMBLLLNDRGVRNMNTHSPTL		Matale	LK-22	7.667594	80.730964									#PoliceLocationUnknown	මාතලේ	දඹුල්ල	ලෙනදොර රජයේ රෝහල	மாத்தளை	தம்புள்ளை	லெனடோரா அரசு மருத்துவமனை		
Matale	Dambulla	MOH Office - Dambulla	False	False	MTLDMBLLMHFFCDMBLL		Matale	LK-22	7.667594	80.730964									#PoliceLocationUnknown	මාතලේ	දඹුල්ල	MOH කාර්යාලය - දඹුල්ල	மாத்தளை	தம்புள்ளை	MOH அலுவலகம் - தம்புள்ளை		
Matale	Wilgamuwa	MOH Office - Wilgamuwa	False	False	MTLWLGMWMHFFCWLGMW		Matale	LK-22	7.667594	80.730964									#PoliceLocationUnknown	මාතලේ	විල්ගමුව	MOH කාර්යාලය - විල්ගමුව	மாத்தளை	வில்கமுவ	MOH அலுவலகம் - வில்கமுவ		
Galle	Nagoda	Unnavitiya Vijayarama Viharaya	False	False	GLLNGDNNVTYVJYRMVHRY		Galle	LK-31	6.222873	80.252034									#PoliceLocationUnknown	ගාල්ල	නාගොඩ	උන්නාවිටිය විජයාරාම විහාරය	காலி	நாகொட	உன்னவிட்டிய விஜயராம விகாரை		
Galle	Yakkalamulla	Udumalagala Gangarama Viharaya	False	False	GLLYKKLMLLDMLGLGNGRMVHRY		Galle	LK-31	6.222873	80.252034									#PoliceLocationUnknown	ගාල්ල	යක්කලමුල්ල	උඩුමලගල ගංගාරාම විහාරය	காலி	யக்கலமுல்ல	உடுமலகல கங்காராம விகாரை		
Galle	Poddala	Godakanda Sunandaramaya	False	False	GLLPDDLGDKNDSNNDRMY		Galle	LK-31	6.222873	80.252034									#PoliceLocationUnknown	ගාල්ල	පෝද්දල	ගොඩකන්ද සුනන්දාරාමය	காலி	போத்தலா	கோடகண்ட சுநந்தராமையா		
Galle	Hunugalla	Pathiraja Community Hall	False	False	GLLHNGLLPTHRJCMMNTYHLL		Galle	LK-31	6.222873	80.252034									#PoliceLocationUnknown	ගාල්ල	හුණුගල්ල	පතිරාජ ප්‍රජා ශාලාව	காலி	ஹுனுகல்ல	பத்திராஜா சமுதாய கூடம்		
Galle	Akmeemana	Bataduwa D.S.I Factory	False	False	GLLKMMNBTDWDSFCTRY		Galle	LK-31	6.222873	80.252034									#PoliceLocationUnknown	ගාල්ල	අක්මීමන	බටදූව D.S.I කර්මාන්ත ශාලාව	காலி	அக்மீமன	படதுவ D.S.I தொழிற்சாலை		
Galle	Galle	Kaluwella International Buddhist Centre	False	False	GLLGLLKLWLLNTRNTNLBDDHSTCNTR		Galle	LK-31	6.222873	80.252034									#PoliceLocationUnknown	ගාල්ල	ගාල්ල	කළුවැල්ල ජාත්‍යන්තර බෞද්ධ මධ්‍යස්ථානය	காலி	காலி	களுவெல்ல சர்வதேச பௌத்த நிலையம்		
Galle	Habaraduwa	BOI – Koggala	False	False	GLLHBRDWBKGGL		Galle	LK-31	6.222873	80.252034									#PoliceLocationUnknown	ගාල්ල	හබරාදුව	ආයෝජන මණ්ඩලය - කොග්ගල	காலி	ஹபராதுவ	BOI - கொக்கலா		
Galle	Karandeniya	MOH Office - Karandeniya	False	False	GLLKRNDNYMHFFCKRNDNY		Galle	LK-31	6.222873	80.252034									#PoliceLocationUnknown	ගාල්ල	කරන්දෙණිය	MOH කාර්යාලය - කරන්දෙණිය	காலி	கரந்தெனிய	MOH அலுவலகம் - கரந்தெனிய		
Galle	Baddegama	Hamingala Community Hall	False	False	GLLBDDGMHMNGLCMMNTYHLL		Galle	LK-31	6.222873	80.252034									#PoliceLocationUnknown	ගාල්ල	බද්දේගම	හාමිංගල ප්‍රජා ශාලාව	காலி	பத்தேகம	ஹமிங்காலா சமூகக் கூடம்		
Matara	Rotumba	Pasgoda Regional Secretariat	False	False	MTRRTMBPSGDRGNLSCRTRT		Matara	LK-32	6.142819	80.540032									#PoliceLocationUnknown	මාතර	රොටුම්බා	පස්ගොඩ ප්‍රාදේශීය ලේකම් කාර්යාලය	மாத்தறை	ரோடும்பா	பஸ்கொட பிராந்திய செயலகம்		
Matara	Dikwella	Godauda Viharaya	False	False	MTRDKWLLGDDVHRY		Matara	LK-32	6.142819	80.540032									#PoliceLocationUnknown	මාතර	දික්වැල්ල	ගොඩඋඩ විහාරය	மாத்தறை	திக்வெல்ல	கோதௌட விஹாராய		
Matara	Hakmana	Ellewela Viharaya	False	False	MTRHKMNLLWLVHRY		Matara	LK-32	6.142819	80.540032									#PoliceLocationUnknown	මාතර	හක්මන	ඇල්ලේවෙල විහාරය	மாத்தறை	ஹக்மனா	எல்லேவெல விகாரை		
Matara	Hakmana	Narawella Henri Ariyarathna Maha Vidyalaya	False	False	MTRHKMNNRWLLHNRRYRTHNMHVDYLY		Matara	LK-32	6.142819	80.540032									#PoliceLocationUnknown	මාතර	හක්මන	නාරවැල්ල හෙන්රි ආරියරත්න මහා විද්‍යාලය	மாத்தறை	ஹக்மனா	நரவெல்ல ஹென்றி ஆரியரத்ன மகா வித்தியாலயம்		
Matara	Weligama	Loadstar Tyre company	False	False	MTRWLGMLDSTRTYRCMPNY		Matara	LK-32	6.142819	80.540032									#PoliceLocationUnknown	මාතර	වැලිගම	ලෝඩ්ස්ටාර් ටයර් සමාගම	மாத்தறை	வெலிகம	லோட்ஸ்டார் டயர் நிறுவனம்		
Hambantota	Hambantota	MOH Office - Hambantota	False	False	HMBNTTHMBNTTMHFFCHMBNTT		Hambantota	LK-33	6.259794	81.098488									#PoliceLocationUnknown	හම්බන්තොට	හම්බන්තොට	MOH කාර්යාලය - හම්බන්තොට	ஹம்பாந்தோட்டை	ஹம்பாந்தோட்டை	MOH அலுவலகம் - அம்பாந்தோட்டை		
Hambantota	Ambalantota	MOH Office - Ambalantota	False	False	HMBNTTMBLNTTMHFFCMBLNTT		Hambantota	LK-33	6.259794	81.098488									#PoliceLocationUnknown	හම්බන්තොට	අම්බලන්තොට	MOH කාර්යාලය - අම්බලන්තොට	ஹம்பாந்தோட்டை	அம்பலாந்தோட்டை	MOH அலுவலகம் - அம்பலாந்தோட்டை		
Hambantota	Katuwana	Katuwana Viharaya	False	False	HMBNTTKTWNKTWNVHRY		Hambantota	LK-33	6.259794	81.098488									#PoliceLocationUnknown	හම්බන්තොට	කටුවන	කටුවන විහාරය	ஹம்பாந்தோட்டை	கட்டுவன	கட்டுவன விகாரை		
Hambantota	Katuwana	Bukendayaya Viharaya	False	False	HMBNTTKTWNBKNDYYVHRY		Hambantota	LK-33	6.259794	81.098488									#PoliceLocationUnknown	හම්බන්තොට	කටුවන	බුකැන්දයාය විහාරය	ஹம்பாந்தோட்டை	கட்டுவன	புகேந்தயாய விஹாராய		
Hambantota	Katuwana	Siyarapitiya Community Hall	False	False	HMBNTTKTWNSYRPTYCMMNTYHLL		Hambantota	LK-33	6.259794	81.098488									#PoliceLocationUnknown	හම්බන්තොට	කටුවන	සියරපිටිය ප්‍රජා ශාලාව	ஹம்பாந்தோட்டை	கட்டுவன	சியராபிட்டிய சனசமூக மண்டபம்		
Hambantota	Katuwana	Nakandawala Viharaya	False	False	HMBNTTKTWNNKNDWLVHRY		Hambantota	LK-33	6.259794	81.098488									#PoliceLocationUnknown	හම්බන්තොට	කටුවන	නාකන්දාවල විහාරය	ஹம்பாந்தோட்டை	கட்டுவன	நகந்தாவல விகாரை		
Hambantota	Beliatta	Beligalla Government Hospital	False	False	HMBNTTBLTTBLGLLGVRNMNTHSPTL		Hambantota	LK-33	6.259794	81.098488									#PoliceLocationUnknown	හම්බන්තොට	බෙලිඅත්ත	බෙලිගල්ල රජයේ රෝහල	ஹம்பாந்தோட்டை	பெலியட்டா	பெலிகல்லா அரசு மருத்துவமனை		
Hambantota	Sooriyawewa	MOH Office - Sooriyawewa	False	False	HMBNTTSRYWWMHFFCSRYWW		Hambantota	LK-33	6.259794	81.098488									#PoliceLocationUnknown	හම්බන්තොට	සූරියවැව	MOH කාර්යාලය - සූරියවැව	ஹம்பாந்தோட்டை	சூரியவெவ	MOH அலுவலகம் - சூரியவெவ		
Moneragala	Monaragala	MOH Office - Monaragala	False	False	MNRGLMNRGLMHFFCMNRGL		Moneragala	LK-82	6.787468	81.303753									#PoliceLocationUnknown	මොණරාගල	මොනරාගල	MOH කාර්යාලය - මොනරාගල	மொனராகலை	மொனராகலை	MOH அலுவலகம் - மொனராகலை		
Moneragala	Monaragala	Community Hall- Monaragala	False	False	MNRGLMNRGLCMMNTYHLLMNRGL		Moneragala	LK-82	6.787468	81.303753									#PoliceLocationUnknown	මොණරාගල	මොනරාගල	ප්‍රජා ශාලාව - මොනරාගල	மொனராகலை	மொனராகலை	சனசமூக மண்டபம்- மொனராகலை		
Moneragala	Badalkumbura	Nishshanka National College	False	False	MNRGLBDLKMBRNSHSHNKNTNLCLLG		Moneragala	LK-82	6.787468	81.303753									#PoliceLocationUnknown	මොණරාගල	බඩල්කුඹුර	නිශ්ශංක ජාතික විද්‍යාලය	மொனராகலை	படல்கும்புரா	நிஷ்ஷங்கா தேசிய கல்லூரி		
Moneragala	Bibile	Cultural Hall	False	False	MNRGLBBLCLTRLHLL		Moneragala	LK-82	6.787468	81.303753									#PoliceLocationUnknown	මොණරාගල	බිබිලේ	සංස්කෘතික ශාලාව	மொனராகலை	பிபிலே	கலாச்சார மண்டபம்		
Rathnapura	Weligepola	Paragahamadiththa Viharaya	False	False	RTHNPRWLGPLPRGHMDTHTHVHRY		Ratnapura	LK-91	6.586845	80.566165									#PoliceLocationUnknown	රත්නපුරය	වැලිගෙපොල	පරගහමඩිත්ත විහාරය	ரத்தினபுரி	வெலிகேபொல	பரகஹமதித்த விஹாராய		
Rathnapura	Weligepola	Ilukkumbura Viharaya	False	False	RTHNPRWLGPLLKKMBRVHRY		Ratnapura	LK-91	6.586845	80.566165									#PoliceLocationUnknown	රත්නපුරය	වැලිගෙපොල	ඉලුක්කුඹුර විහාරය	ரத்தினபுரி	வெலிகேபொல	இலக்கும்புற விஹாராயா		
Rathnapura	Balangoda	Meddekanda Viharaya	False	False	RTHNPRBLNGDMDDKNDVHRY		Ratnapura	LK-91	6.586845	80.566165									#PoliceLocationUnknown	රත්නපුරය	බලන්ගොඩ	මැද්දේකන්ද විහාරය	ரத்தினபுரி	பலாங்கொட	மெடேகண்ட விஹாரை		
Rathnapura	Balangoda	Vijinathkumbura Viharaya	False	False	RTHNPRBLNGDVJNTHKMBRVHRY		Ratnapura	LK-91	6.586845	80.566165									#PoliceLocationUnknown	රත්නපුරය	බලන්ගොඩ	විජිනත්කුඹුර විහාරය	ரத்தினபுரி	பலாங்கொட	விஜிநாத்கும்புர விஹாராய		
Rathnapura	Opanayaka	Hattella Health Centre	False	False	RTHNPRPNYKHTTLLHLTHCNTR		Ratnapura	LK-91	6.586845	80.566165									#PoliceLocationUnknown	රත්නපුරය	ඕපනායක	හැට්ටැල්ල සෞඛ්‍ය මධ්‍යස්ථානය	ரத்தினபுரி	ஓபநாயக	ஹட்டெல்லா சுகாதார மையம்		
Rathnapura	Opanayaka	Hunuwala Tea Factory	False	False	RTHNPRPNYKHNWLTFCTRY		Ratnapura	LK-91	6.586845	80.566165									#PoliceLocationUnknown	රත්නපුරය	ඕපනායක	හුණුවල තේ කම්හල	ரத்தினபுரி	ஓபநாயக	ஹுனுவல தேயிலை தொழிற்சாலை		
Rathnapura	Opanayaka	Polwattahena Viharaya	False	False	RTHNPRPNYKPLWTTHNVHRY		Ratnapura	LK-91	6.586845	80.566165									#PoliceLocationUnknown	රත්නපුරය	ඕපනායක	පොල්වත්තහේන විහාරය	ரத்தினபுரி	ஓபநாயக	பொல்வத்தஹேன விகாரை		
Rathnapura	Pinnawala	Gurubewila Viharaya	False	False	RTHNPRPNNWLGRBWLVHRY		Ratnapura	LK-91	6.586845	80.566165									#PoliceLocationUnknown	රත්නපුරය	පින්නවල	ගුරුබැවිල විහාරය	ரத்தினபுரி	பின்னவல	குருபேவில விகாரை		
Anuradhapura	Anuradhapura	Walisinghe Harischandra Ground	False	False	NRDHPRNRDHPRWLSNGHHRSCHNDRGRND		Anuradhapura	LK-71	8.39199	80.512962									#PoliceLocationUnknown	අනුරාධපුර	අනුරාධපුර	වලිසිංහ හරිශ්චන්ද්‍ර ක්‍රීඩාංගණය	அனுராதபுரம்	அனுராதபுரம்	வலிசிங்க ஹரிச்சந்திர மைதானம்		
Anuradhapura	Anuradhapura	MOH Office - Nuwaragampalatha Central	False	False	NRDHPRNRDHPRMHFFCNWRGMPLTHCNTRL		Anuradhapura	LK-71	8.39199	80.512962									#PoliceLocationUnknown	අනුරාධපුර	අනුරාධපුර	MOH කාර්යාලය - නුවරගම්පලතා මධ්‍ය	அனுராதபுரம்	அனுராதபுரம்	MOH அலுவலகம் - நுவரகம்பலதா சென்ட்ரல்		
Anuradhapura	Anuradhapura	MOH Office - Nuwaragampalatha East	False	False	NRDHPRNRDHPRMHFFCNWRGMPLTHST		Anuradhapura	LK-71	8.39199	80.512962									#PoliceLocationUnknown	අනුරාධපුර	අනුරාධපුර	MOH කාර්යාලය - නුවරගම්පලත නැගෙනහිර	அனுராதபுரம்	அனுராதபுரம்	MOH அலுவலகம் - நுவரகம்பலதா கிழக்கு		
Anuradhapura	Mahavilachchiya	MOH Office - Mahavilachchiya	False	False	NRDHPRMHVLCHCHYMHFFCMHVLCHCHY		Anuradhapura	LK-71	8.39199	80.512962									#PoliceLocationUnknown	අනුරාධපුර	මහවිලච්චිය	MOH කාර්යාලය - මහවිලච්චිය	அனுராதபுரம்	மகாவிளச்சியா	MOH அலுவலகம் - மஹாவிலச்சிய		
Anuradhapura	Mihintale	MOH Office - Mihintale	False	False	NRDHPRMHNTLMHFFCMHNTL		Anuradhapura	LK-71	8.39199	80.512962									#PoliceLocationUnknown	අනුරාධපුර	මිහින්තලේ	MOH කාර්යාලය - මිහින්තලේ	அனுராதபுரம்	மிஹிந்தலை	MOH அலுவலகம் - மிஹிந்தலை		
Anuradhapura	Thirappane	MOH Office - Thirappane	False	False	NRDHPRTHRPPNMHFFCTHRPPN		Anuradhapura	LK-71	8.39199	80.512962									#PoliceLocationUnknown	අනුරාධපුර	තිරප්පනේ	MOH කාර්යාලය - තිරප්පනේ	அனுராதபுரம்	திறப்பனே	MOH அலுவலகம் - திரப்பனே		
Anuradhapura	Point Pedro	MOH Office - Point Pedro	False	False	NRDHPRPNTPDRMHFFCPNTPDR		Anuradhapura	LK-71	8.39199	80.512962									#PoliceLocationUnknown	අනුරාධපුර	පේදුරුතුඩුව	MOH කාර්යාලය - පේදුරුතුඩුව	அனுராதபுரம்	பருத்தித்துறை	MOH அலுவலகம் - பருத்தித்துறை		
Jaffna	Nelliyadi	MOH Office - Karaweddi	False	False	JFFNNLLYDMHFFCKRWDD		Jaffna	LK-41	9.691862	80.098229									#PoliceLocationUnknown	යාපනය	නෙල්ලියඩි	MOH කාර්යාලය - කරවෙඩ්ඩි	யாழ்	நெல்லியடி	MOH அலுவலகம் - கரவெட்டி		
Jaffna	Pooneryn	MOH Office - Pooneryn	False	False	JFFNPNRYNMHFFCPNRYN		Jaffna	LK-41	9.691862	80.098229	Pooneryn		9.505717	80.21101	9.507968	80.208317	G655+58P, Pooneryn, Sri Lanka	0.387256		යාපනය	පුනරීන්	MOH කාර්යාලය - පුනරීන්	யாழ்	பூனேரின்	MOH அலுவலகம் - பூனேரின்	G655+58P, පුනරීන්, ශ්‍රී ලංකාව	G655+58P, பூனேரின், இலங்கை
Jaffna	Mulankavil	Base Hospital Mulankavil	False	False	JFFNMLNKVLBSHSPTLMLNKVL		Jaffna	LK-41	9.691862	80.098229									#PoliceLocationUnknown	යාපනය	මුලංකාවිල්	මුලන්කාවිල් මූලික රෝහල	யாழ்	முழங்காவில்	முலங்காவில் ஆதார வைத்தியசாலை		
Jaffna	Palai	MOH Office - Palai	False	False	JFFNPLMHFFCPL		Jaffna	LK-41	9.691862	80.098229									#PoliceLocationUnknown	යාපනය	පලෙයි	MOH කාර්යාලය - පලෙයි	யாழ்	பாளை	MOH அலுவலகம் - பாளை		
Kilinochchi	Kilinochchi	MOH Office - Karachchi	False	False	KLNCHCHKLNCHCHMHFFCKRCHCH		Kilinochchi	LK-45	9.415768	80.30362									#PoliceLocationUnknown	කිලිනොච්චි	කිලිනොච්චි	MOH කාර්යාලය - කරච්චි	கிளிநொச்சி	கிளிநொச்சி	MOH அலுவலகம் - கராச்சி		
Kilinochchi	Kilinochchi	MOH Office - Kandavalai	False	False	KLNCHCHKLNCHCHMHFFCKNDVL		Kilinochchi	LK-45	9.415768	80.30362									#PoliceLocationUnknown	කිලිනොච්චි	කිලිනොච්චි	MOH කාර්යාලය - කඳවලයි	கிளிநொச்சி	கிளிநொச்சி	MOH அலுவலகம் - கண்டாவளை		
Mullaitivu	Welioya	Divisional Hospital - Sampathnuwara	False	False	MLLTVWLYDVSNLHSPTLSMPTHNWR		Mullaitivu	LK-44	9.167644	80.549049									#PoliceLocationUnknown	මුලතිව්	වැලිඔය	ප්‍රාදේශීය රෝහල - සම්පත්නුවර	முல்லைத்தீவு	வெலிஓயா	பிரதேச வைத்தியசாலை - சம்பத்நுவர		
Mullaitivu	Mallavi	MOH Office - Mallavi	False	False	MLLTVMLLVMHFFCMLLV		Mullaitivu	LK-44	9.167644	80.549049									#PoliceLocationUnknown	මුලතිව්	මල්ලාවි	MOH කාර්යාලය - මල්ලාවි	முல்லைத்தீவு	மல்லாவி	MOH அலுவலகம் - மல்லாவி		
Mullaitivu	Mullaitivu	MOH Office - Mullaitivu	False	False	MLLTVMLLTVMHFFCMLLTV		Mullaitivu	LK-44	9.167644	80.549049									#PoliceLocationUnknown	මුලතිව්	මුලතිව්	MOH කාර්යාලය - මුලතිව්	முல்லைத்தீவு	முல்லைத்தீவு	MOH அலுவலகம் - முல்லைத்தீவு		
Mullaitivu	Oddusudhan	MOH Office - Oddusudhan	False	False	MLLTVDDSDHNMHFFCDDSDHN		Mullaitivu	LK-44	9.167644	80.549049									#PoliceLocationUnknown	මුලතිව්	ඔඩ්ඩුසුඩාන්	MOH කාර්යාලය - ඔඩ්ඩුසුඩාන්	முல்லைத்தீவு	ஒட்டுசுதான்	MOH அலுவலகம் - ஒட்டுசுதான்		
Trincomalee	Kinniya	MOH Office - Kinniya	False	False	TRNCMLKNNYMHFFCKNNY		Trincomalee	LK-53	8.551064	81.091792									#PoliceLocationUnknown	ත්රිකුණාමලය	කින්නියා	MOH කාර්යාලය - කින්නියා	திருகோணமலை	கிண்ணியா	MOH அலுவலகம் - கிண்ணியா		
Trincomalee	Kinniya	MOH Office - Kurugnankerni	False	False	TRNCMLKNNYMHFFCKRGNNKRN		Trincomalee	LK-53	8.551064	81.091792									#PoliceLocationUnknown	ත්රිකුණාමලය	කින්නියා	MOH කාර්යාලය - කුරුග්නන්කර්නි	திருகோணமலை	கிண்ணியா	MOH அலுவலகம் - குருக்னங்கேணி		
Trincomalee	Harbour Police	MOH Office - Trincomalee	False	False	TRNCMLHRBRPLCMHFFCTRNCML		Trincomalee	LK-53	8.551064	81.091792									#PoliceLocationUnknown	ත්රිකුණාමලය	වරාය පොලිසිය	MOH කාර්යාලය - ත්‍රිකුණාමලය	திருகோணமலை	துறைமுக போலீஸ்	MOH அலுவலகம் - திருகோணமலை		
Trincomalee	Harbour Police	Base Hospital -Trincomalee	False	False	TRNCMLHRBRPLCBSHSPTLTRNCML		Trincomalee	LK-53	8.551064	81.091792									#PoliceLocationUnknown	ත්රිකුණාමලය	වරාය පොලිසිය	මූලික රෝහල - ත්‍රිකුණාමලය	திருகோணமலை	துறைமுக போலீஸ்	ஆதார வைத்தியசாலை - திருகோணமலை		
Trincomalee	Uppuveli	MOH Office - Uppuveli	False	False	TRNCMLPPVLMHFFCPPVL		Trincomalee	LK-53	8.551064	81.091792									#PoliceLocationUnknown	ත්රිකුණාමලය	උප්පුවේලි	MOH කාර්යාලය - උප්පුවේලි	திருகோணமலை	உப்புவெளி	MOH அலுவலகம் - உப்புவெளி		
Trincomalee	Ichchalampattu	MOH Office - Ichchalampattu	False	False	TRNCMLCHCHLMPTTMHFFCCHCHLMPTT	Eachchilampattu Hospital	Trincomalee	LK-53	8.551064	81.091792	Ichchalampattu		8.289549	81.359002	8.289644	81.358983	Highway, Ichchalampattu, Trincomalee, Sri Lanka	0.010772		ත්රිකුණාමලය	ඉච්චලම්පත්තු	එක් එක් චිලම්පත්තු රෝහල	திருகோணமலை	இச்சலம்பட்டு	ஒவ்வொருசிலம்பட்டு மருத்துவமனை	අධිවේගී මාර්ගය, ඉච්චලම්පත්තු, ත්‍රිකුණාමලය, ශ්‍රී ලංකාව	நெடுஞ்சாலை, இச்சலம்பட்டு, திருகோணமலை, இலங்கை
Trincomalee	Serunuwara	MOH Office - Serunuwara	False	False	TRNCMLSRNWRMHFFCSRNWR		Trincomalee	LK-53	8.551064	81.091792									#PoliceLocationUnknown	ත්රිකුණාමලය	සේරුනුවර	MOH කාර්යාලය - සේරුනුවර	திருகோணமலை	சேருநுவர	MOH அலுவலகம் - சேருநுவர		
Trincomalee	Kantale	MOH Office - Kantale	False	False	TRNCMLKNTLMHFFCKNTL		Trincomalee	LK-53	8.551064	81.091792									#PoliceLocationUnknown	ත්රිකුණාමලය	කන්තලේ	MOH කාර්යාලය - කන්තලේ	திருகோணமலை	கந்தளே	MOH அலுவலகம் - கந்தளாய்		
Trincomalee	Gomarankadawala	MOH Office - Gomarankadawala	False	False	TRNCMLGMRNKDWLMHFFCGMRNKDWL		Trincomalee	LK-53	8.551064	81.091792									#PoliceLocationUnknown	ත්රිකුණාමලය	ගෝමරන්කඩවල	MOH කාර්යාලය - ගෝමරන්කඩවල	திருகோணமலை	கோமரன்கடவல	MOH அலுவலகம் - கோமரன்கடவல		
Trincomalee	Thambalagamuwa	MOH Office - Thambalagamuwa	False	False	TRNCMLTHMBLGMWMHFFCTHMBLGMW		Trincomalee	LK-53	8.551064	81.091792									#PoliceLocationUnknown	ත්රිකුණාමලය	තඹලගමුව	MOH කාර්යාලය - තඹලගමුව	திருகோணமலை	தம்பலகமுவ	MOH அலுவலகம் - தம்பலகமுவ		
Trincomalee	Thambalagamuwa	Al Hikma Muslim College	False	False	TRNCMLTHMBLGMWLHKMMSLMCLLG		Trincomalee	LK-53	8.551064	81.091792									#PoliceLocationUnknown	ත්රිකුණාමලය	තඹලගමුව	අල් හික්මා මුස්ලිම් විද්‍යාලය	திருகோணமலை	தம்பலகமுவ	அல் ஹிக்மா முஸ்லிம் கல்லூரி		
Trincomalee	Muttur	MOH Office - Muttur	False	False	TRNCMLMTTRMHFFCMTTR		Trincomalee	LK-53	8.551064	81.091792									#PoliceLocationUnknown	ත්රිකුණාමලය	මූතූර්	MOH කාර්යාලය - මුතූර්	திருகோணமலை	மூதூர்	MOH அலுவலகம் - மூதூர்		
Batticaloa	Valachchenai	Base Hospital Valachchenai	False	False	BTTCLVLCHCHNBSHSPTLVLCHCHN		Batticaloa	LK-51	7.792541	81.486564									#PoliceLocationUnknown	මඩකලපුව	වාලච්චේනයි	වාලච්චේන මූලික රෝහල	மட்டக்களப்பு	வாழச்சேனை	வாழைச்சேனை ஆதார வைத்தியசாலை		
Batticaloa	Valachchenai	MOH Office - Valachchenai	False	False	BTTCLVLCHCHNMHFFCVLCHCHN		Batticaloa	LK-51	7.792541	81.486564									#PoliceLocationUnknown	මඩකලපුව	වාලච්චේනයි	MOH කාර්යාලය - වාලච්චේන	மட்டக்களப்பு	வாழச்சேனை	MOH அலுவலகம் - வாழைச்சேனை		
Batticaloa	Valachchenai	MOH Office - Navallady	False	False	BTTCLVLCHCHNMHFFCNVLLDY		Batticaloa	LK-51	7.792541	81.486564									#PoliceLocationUnknown	මඩකලපුව	වාලච්චේනයි	MOH කාර්යාලය - නවල්ලඩි	மட்டக்களப்பு	வாழச்சேனை	MOH அலுவலகம் - நாவல்லடி		
Batticaloa	Valachchenai	MOH Office - Oddamavadi	False	False	BTTCLVLCHCHNMHFFCDDMVD		Batticaloa	LK-51	7.792541	81.486564									#PoliceLocationUnknown	මඩකලපුව	වාලච්චේනයි	MOH කාර්යාලය - ඔඩ්ඩමාවඩි	மட்டக்களப்பு	வாழச்சேனை	MOH அலுவலகம் - ஓட்டமாவடி		
Batticaloa	Vakarai	MOH Office - Vakarai	False	False	BTTCLVKRMHFFCVKR	Divisional Hospital Vakarai	Batticaloa	LK-51	7.792541	81.486564									#PoliceLocationUnknown	මඩකලපුව	වාකරේ	වාකරේ ප්‍රාදේශීය රෝහල	மட்டக்களப்பு	வாகரை	வாகரை பிரதேச வைத்தியசாலை		
Batticaloa	Kaluwanchikudy	Periyakallaru Pillayar Kovil Hall	False	False	BTTCLKLWNCHKDYPRYKLLRPLLYRKVLHLL		Batticaloa	LK-51	7.792541	81.486564									#PoliceLocationUnknown	මඩකලපුව	කලුවංචිකුඩි	පෙරියකල්ලාරු පිල්ලයාර් කෝවිල් ශාලාව	மட்டக்களப்பு	களுவாஞ்சிகுடி	பெரியகல்லாறு பிள்ளையார் கோவில் மண்டபம்		
Batticaloa	Kaluwanchikudy	Base Hospital Kaluwanchikudy	False	False	BTTCLKLWNCHKDYBSHSPTLKLWNCHKDY		Batticaloa	LK-51	7.792541	81.486564									#PoliceLocationUnknown	මඩකලපුව	කලුවංචිකුඩි	කලුවන්චිකුඩි මූලික රෝහල	மட்டக்களப்பு	களுவாஞ்சிகுடி	களுவாஞ்சிக்குடி அடிப்படை மருத்துவமனை		
Batticaloa	Batticaloa	MOH Office - Batticaloa	False	False	BTTCLBTTCLMHFFCBTTCL		Batticaloa	LK-51	7.792541	81.486564									#PoliceLocationUnknown	මඩකලපුව	මඩකලපුව	MOH කාර්යාලය - මඩකලපුව	மட்டக்களப்பு	மட்டக்களப்பு	MOH அலுவலகம் - மட்டக்களப்பு		
Batticaloa	Kattankudy	MOH Office - Kattankudy	False	False	BTTCLKTTNKDYMHFFCKTTNKDY		Batticaloa	LK-51	7.792541	81.486564									#PoliceLocationUnknown	මඩකලපුව	කාත්තන්කුඩි	MOH කාර්යාලය - කාත්තන්කුඩි	மட்டக்களப்பு	காத்தான்குடி	MOH அலுவலகம் - காத்தான்குடி		
Batticaloa	Kattankudy	MOH Office - Arayampathy	False	False	BTTCLKTTNKDYMHFFCRYMPTHY		Batticaloa	LK-51	7.792541	81.486564									#PoliceLocationUnknown	මඩකලපුව	කාත්තන්කුඩි	MOH කාර්යාලය - ආරයම්පති	மட்டக்களப்பு	காத்தான்குடி	MOH அலுவலகம் - ஆரையம்பதி		
Batticaloa	Vavunathivu	MOH Office - Vavunathivu	False	False	BTTCLVVNTHVMHFFCVVNTHV		Batticaloa	LK-51	7.792541	81.486564									#PoliceLocationUnknown	මඩකලපුව	වව්නතිව්	MOH කාර්යාලය - වව්නතිව්	மட்டக்களப்பு	வவுணதீவு	MOH அலுவலகம் - வவுணதீவு		
Batticaloa	Kokkadicholai	MOH Office - Pattipala	False	False	BTTCLKKKDCHLMHFFCPTTPL		Batticaloa	LK-51	7.792541	81.486564									#PoliceLocationUnknown	මඩකලපුව	කොක්කඩිචෝලෙයි	MOH කාර්යාලය - පට්ටිපාල	மட்டக்களப்பு	கொக்கட்டிச்சோலை	MOH அலுவலகம் - பட்டிபால		
Batticaloa	Vellavely	MOH Office - Vellavely	False	False	BTTCLVLLVLYMHFFCVLLVLY		Batticaloa	LK-51	7.792541	81.486564									#PoliceLocationUnknown	මඩකලපුව	වෙල්ලවෙලි	MOH කාර්යාලය - වෙල්ලවේලි	மட்டக்களப்பு	வெள்ளவேலி	MOH அலுவலகம் - வெள்ளவேலி		
Batticaloa	Eravur	Sandiveli Hospital	False	False	BTTCLRVRSNDVLHSPTL		Batticaloa	LK-51	7.792541	81.486564									#PoliceLocationUnknown	මඩකලපුව	එරාවුර්	සන්දිවේලි රෝහල	மட்டக்களப்பு	ஏறாவூர்	சண்டிவெளி வைத்தியசாலை		
Batticaloa	Eravur	MOH Office – Eravur	False	False	BTTCLRVRMHFFCRVR		Batticaloa	LK-51	7.792541	81.486564									#PoliceLocationUnknown	මඩකලපුව	එරාවුර්	MOH කාර්යාලය - එරාවුර්	மட்டக்களப்பு	ஏறாவூர்	MOH அலுவலகம் - ஏறாவூர்		
Batticaloa	Eravur	Base Hospital Eravur	False	False	BTTCLRVRBSHSPTLRVR		Batticaloa	LK-51	7.792541	81.486564									#PoliceLocationUnknown	මඩකලපුව	එරාවුර්	එරාවුර් මූලික රෝහල	மட்டக்களப்பு	ஏறாவூர்	ஆதார வைத்தியசாலை ஏறாவூர்		
Batticaloa	Eravur	Divisional Hospital Mawadiwembu	False	False	BTTCLRVRDVSNLHSPTLMWDWMB		Batticaloa	LK-51	7.792541	81.486564									#PoliceLocationUnknown	මඩකලපුව	එරාවුර්	මාවඩිවෙම්බු ප්‍රාදේශීය රෝහල	மட்டக்களப்பு	ஏறாவூர்	மாவடிவேம்பு பிரதேச வைத்தியசாலை		
Batticaloa	Eravur	MOH Office - Chenkaladi	False	False	BTTCLRVRMHFFCCHNKLD		Batticaloa	LK-51	7.792541	81.486564									#PoliceLocationUnknown	මඩකලපුව	එරාවුර්	MOH Office - Chenkaladi	மட்டக்களப்பு	ஏறாவூர்	MOH Office - Chenkaladi		
Batticaloa	Eravur	Divisional Hospital Chenkaladi	False	False	BTTCLRVRDVSNLHSPTLCHNKLD		Batticaloa	LK-51	7.792541	81.486564									#PoliceLocationUnknown	මඩකලපුව	එරාවුර්	Divisional Hospital Chenkaladi	மட்டக்களப்பு	ஏறாவூர்	Divisional Hospital Chenkaladi		
Batticaloa	Karadiyanaru	Divisional Hospital Karadiyanaru	False	False	BTTCLKRDYNRDVSNLHSPTLKRDYNR		Batticaloa	LK-51	7.792541	81.486564									#PoliceLocationUnknown	මඩකලපුව	කරදියනාරු	කරදියනාරු ප්‍රාදේශීය රෝහල	மட்டக்களப்பு	கரடியனாறு	பிரதேச வைத்தியசாலை கரடியனாறு		
Ampara	Karaitivu	MOH Office – Karaitivu	False	False	MPRKRTVMHFFCKRTV		Ampara	LK-52	7.237331	81.550219	Karaitivu		9.744059	79.870587	7.377712	81.838796	Colombo-Ratnapura-Wellawaya-Batticaloa Highway, Karativu 32250, Sri Lanka	340.788666	#CenterFarFromPolice	අම්පාර	කරෙයිතිව්	MOH කාර්යාලය - කරෙයිතිව්	அம்பாறை	காரைதீவு	MOH அலுவலகம் - காரைதீவு	කොළඹ-රත්නපුර-වැල්ලවාය-මඩකලපු අධිවේගී මාර්ගය, කරතිව් 32250, ශ්‍රී ලංකාව	கொழும்பு-ரத்னபுர-வெல்லவாய-மட்டக்களப்பு நெடுஞ்சாலை, காரைதீவு 32250, இலங்கை
Ampara	Chavalakade	MOH Office - Navithanveli	False	False	MPRCHVLKDMHFFCNVTHNVL		Ampara	LK-52	7.237331	81.550219									#PoliceLocationUnknown	අම්පාර	චවලකඩේ	MOH කාර්යාලය - නාවිතන්වේලි	அம்பாறை	சவளக்கடே	MOH அலுவலகம் - நாவிதன்வெளி		
Ampara	Sainthamarthu	MOH Office – Sainthamarthu	False	False	MPRSNTHMRTHMHFFCSNTHMRTH		Ampara	LK-52	7.237331	81.550219									#PoliceLocationUnknown	අම්පාර	සයින්දමර්තු	MOH කාර්යාලය - සයින්දමර්තු	அம்பாறை	சாய்ந்தமருது	MOH அலுவலகம் - சாய்ந்தமருது		
Ampara	Kalmunai	MOH Office - Kalmunai South	False	False	MPRKLMNMHFFCKLMNSTH		Ampara	LK-52	7.237331	81.550219									#PoliceLocationUnknown	අම්පාර	කල්මුණේ	MOH කාර්යාලය - කල්මුණේ දකුණ	அம்பாறை	கல்முனை	MOH அலுவலகம் - கல்முனை தெற்கு		
Ampara	Kalmunai	MOH Office - Kalmunai North	False	False	MPRKLMNMHFFCKLMNNRTH		Ampara	LK-52	7.237331	81.550219									#PoliceLocationUnknown	අම්පාර	කල්මුණේ	MOH කාර්යාලය - කල්මුණේ උතුර	அம்பாறை	கல்முனை	MOH அலுவலகம் - கல்முனை வடக்கு		
Ampara	Akkaraipattu	MOH Office – Addalachenai	False	False	MPRKKRPTTMHFFCDDLCHN		Ampara	LK-52	7.237331	81.550219									#PoliceLocationUnknown	අම්පාර	අක්කරපත්තුව	MOH කාර්යාලය - අඩාලචේනයි	அம்பாறை	அக்கரைப்பற்று	MOH அலுவலகம் - அட்டாளைச்சேனை		
Ampara	Akkaraipattu	MOH Office - Alayadiwembu	False	False	MPRKKRPTTMHFFCLYDWMB		Ampara	LK-52	7.237331	81.550219									#PoliceLocationUnknown	අම්පාර	අක්කරපත්තුව	MOH කාර්යාලය - ආලයඩිවෙම්බු	அம்பாறை	அக்கரைப்பற்று	MOH அலுவலகம் - ஆலையடிவேம்பு		
Ampara	Akkaraipattu	MOH Office - Akkaraipattu	False	False	MPRKKRPTTMHFFCKKRPTT		Ampara	LK-52	7.237331	81.550219									#PoliceLocationUnknown	අම්පාර	අක්කරපත්තුව	MOH කාර්යාලය - අක්කරපත්තුව	அம்பாறை	அக்கரைப்பற்று	MOH அலுவலகம் - அக்கரைப்பற்று		
Ampara	Thirukkovil	Thirukkovil Hospital	False	False	MPRTHRKKVLTHRKKVLHSPTL		Ampara	LK-52	7.237331	81.550219									#PoliceLocationUnknown	අම්පාර	තිරුක්කෝවිල්	තිරුක්කෝවිල් රෝහල	அம்பாறை	திருக்கோவில்	திருக்கோவில் வைத்தியசாலை		
Ampara	Sammanthurai	MOH Office - Sammanthurai	False	False	MPRSMMNTHRMHFFCSMMNTHR		Ampara	LK-52	7.237331	81.550219									#PoliceLocationUnknown	අම්පාර	සම්මන්තුරේ	MOH කාර්යාලය - සමන්තුරේ	அம்பாறை	சம்மாந்துறை	MOH அலுவலகம் - சம்மாந்துறை		
Ampara	Sammanthurai	Base Hospital - Sammanthurai	False	False	MPRSMMNTHRBSHSPTLSMMNTHR		Ampara	LK-52	7.237331	81.550219									#PoliceLocationUnknown	අම්පාර	සම්මන්තුරේ	මූලික රෝහල - සමන්තුරේ	அம்பாறை	சம்மாந்துறை	ஆதார வைத்தியசாலை - சம்மாந்துறை		
Ampara	Sammanthurai	MOH Office - Nintavur	False	False	MPRSMMNTHRMHFFCNNTVR		Ampara	LK-52	7.237331	81.550219									#PoliceLocationUnknown	අම්පාර	සම්මන්තුරේ	MOH කාර්යාලය - නින්දවුර්	அம்பாறை	சம்மாந்துறை	MOH அலுவலகம் - நிந்தவூர்		
