district	police	center	dose1	dose2	fuzzy_key	alt_name	district_name_norm	district_id	district_lat	district_lng	ps_name_norm	ps_id	ps_lat	ps_lng	lat	lng	formatted_address	dis_center_to_police	tags	district_si	police_si	center_si	district_ta	police_ta	center_ta	formatted_address_si	formatted_address_ta
Colombo	Cinnamon Gardens	Viharamahadevi Park	False	True	CLMBCNNMNGRDNSVHRMHDVPRK		Colombo	LK-11	6.869636	80.019598	Cinnamon Garden	PS-110324	6.907289	79.863819	6.913391	79.86174	Viharamahadevi Park, Colombo, Sri Lanka	0.716497		කොළඹ	කුරුඳු උද්‍යාන	විහාරමහාදේවි උද්‍යානය	கொழும்பு	இலவங்கப்பட்டை தோட்டங்கள்	விஹாரமஹாதேவி பூங்கா	විහාරමහාදේවි උද්‍යානය, කොළඹ, ශ්‍රී ලංකාව	விஹாரமஹாதேவி பூங்கா, கொழும்பு, இலங்கை
Colombo	Grandpass	Sugathadasa Outdoor Stadium	False	True	CLMBGRNDPSSSGTHDSTDRSTDM		Colombo	LK-11	6.869636	80.019598	Grandpass	PS-110215	6.949052	79.872983	6.94806	79.868842	Prince of Wales Ave, Colombo 01400, Sri Lanka	0.470345		කොළඹ	ග්‍රෑන්ඩ්පාස්	සුගතදාස එළිමහන් ක්‍රීඩාංගනය	கொழும்பு	கிராண்ட்பாஸ்	சுகததாச வெளிப்புற அரங்கம்	වේල්ස් කුමර මාවත, කොළඹ 01400, ශ්‍රී ලංකාව	பிரின்ஸ் ஆஃப் வேல்ஸ் அவே, கொழும்பு 01400, இலங்கை
Colombo	Colombo	Mobile Medical Team - Colombo	True	True	CLMBCLMBMBLMDCLTMCLMB		Colombo	LK-11	6.869636	80.019598									#CenterLocationUnknown	කොළඹ	කොළඹ	ජංගම වෛද්‍ය කණ්ඩායම - කොළඹ	கொழும்பு	கொழும்பு	நடமாடும் மருத்துவ குழு - கொழும்பு		
Colombo	Narahenpita	Army Hospital Narahenpita	False	False	CLMBNRHNPTRMYHSPTLNRHNPT		Colombo	LK-11	6.869636	80.019598	Narahenpita	PS-110321	6.891832	79.876715	6.900252	79.87618	08 Elvitigala Mawatha, Colombo 00800, Sri Lanka	0.938417		කොළඹ	නාරාහේන්පිට	නාරාහේන්පිට හමුදා රෝහල	கொழும்பு	நரஹேன்பிட்ட	இராணுவ மருத்துவமனை நாரஹேன்பிட்ட	08 ඇල්විටිගල මාවත, කොළඹ 00800, ශ්‍රී ලංකාව	08 எல்விட்டிகல மாவத்தை, கொழும்பு 00800, இலங்கை
Colombo	Boralesgamuwa	Kotelawala Defence Hospital	False	True	CLMBBRLSGMWKTLWLDFNCHSPTL		Colombo	LK-11	6.869636	80.019598	Boralesgamuwa	PS-110464	6.841331	79.901255	6.82518	79.907167	RWG4+3VF, Boralesgamuwa, Sri Lanka	1.911444		කොළඹ	බොරලැස්ගමුව	කොතලාවල ආරක්‍ෂක රෝහල	கொழும்பு	பொரலஸ்கமுவா	கொத்தலாவல பாதுகாப்பு மருத்துவமனை	RWG4+3VF, බොරලැස්ගමුව, ශ්‍රී ලංකාව	RWG4+3VF, பொரலஸ்கமுவா, இலங்கை
Colombo	Boralesgamuwa	MOH Office - Werahera	False	False	CLMBBRLSGMWMHFFCWRHR		Colombo	LK-11	6.869636	80.019598	Boralesgamuwa	PS-110464	6.841331	79.901255	6.833094	79.905583	RWM4+66P, Boralesgamuwa, Sri Lanka	1.033386		කොළඹ	බොරලැස්ගමුව	MOH කාර්යාලය - වේරහැර	கொழும்பு	பொரலஸ்கமுவா	MOH அலுவலகம் - வெரஹெரா	RWM4+66P, බොරලැස්ගමුව, ශ්‍රී ලංකාව	RWM4+66P, பொரலஸ்கமுவா, இலங்கை
Gampaha	Gampaha	MOH Office – Gampaha	False	False	GMPHGMPHMHFFCGMPH		Gampaha	LK-12	7.123598	80.018508	Gampaha	PS-120237	7.087765	80.01228	7.17227	79.956823	Katunayake-Veyangoda Rd, Minuwangoda, Sri Lanka	11.216745		ගම්පහ	ගම්පහ	MOH කාර්යාලය - ගම්පහ	கம்பஹா	கம்பஹா	MOH அலுவலகம் - கம்பஹா	කටුනායක-වේයන්ගොඩ පාර, මිනුවන්ගොඩ, ශ්‍රී ලංකාව	கட்டுநாயக்க-வெயங்கொட வீதி, மினுவாங்கொட, இலங்கை
Gampaha	Nittambuwa	Urapola Centarl College	False	False	GMPHNTTMBWRPLCNTRLCLLG		Gampaha	LK-12	7.123598	80.018508	Nittambuwa	PS-120246	7.149726	80.10046	7.098949	80.144672	No. 280, Nittambuwa - Ruwanwella Rd, Urapola, Sri Lanka	7.463959		ගම්පහ	නිට්ටඹුව	Raරාපොළ සෙන්ටාර්ල් විද්‍යාලය	கம்பஹா	நிட்டம்புவா	உரபொல சென்டர்ல் கல்லூரி	අංක 280, නිට්ටඹුව - රුවන්වැල්ල පාර, raරාපොළ, ශ්‍රී ලංකාව	எண் 280, நிட்டம்புவா - ருவன்வெல்ல வீதி, ஊரபொல, இலங்கை
Gampaha	Nittambuwa	Vidyananda Pirivena	False	False	GMPHNTTMBWVDYNNDPRVN		Gampaha	LK-12	7.123598	80.018508	Nittambuwa	PS-120246	7.149726	80.10046	7.144907	80.092391	Negambo road, Nittambuwa, Sri Lanka	1.039411		ගම්පහ	නිට්ටඹුව	විද්‍යානන්ද පිරිවෙන	கம்பஹா	நிட்டம்புவா	வித்யானந்தா பிரிவேனா	නැගම්බෝ පාර, නිට්ටඹුව, ශ්‍රී ලංකාව	நெகம்போ சாலை, நிட்டம்புவா, இலங்கை
Gampaha	Minuwangoda	MOH Office – Minuwangoda	False	False	GMPHMNWNGDMHFFCMNWNGD		Gampaha	LK-12	7.123598	80.018508	Minuwangoda	PS-120238	7.174215	79.957874	7.17227	79.956823	Katunayake-Veyangoda Rd, Minuwangoda, Sri Lanka	0.245525		ගම්පහ	මිනුවන්ගොඩ	MOH කාර්යාලය - මිනුවන්ගොඩ	கம்பஹா	மினுவாங்கொட	MOH அலுவலகம் - மினுவாங்கொட	කටුනායක-වේයන්ගොඩ පාර, මිනුවන්ගොඩ, ශ්‍රී ලංකාව	கட்டுநாயக்க-வெயங்கொட வீதி, மினுவாங்கொட, இலங்கை
Gampaha	Bemmulla	Bandarabatawala Pirivena	False	False	GMPHBMMLLBNDRBTWLPRVN		Gampaha	LK-12	7.123598	80.018508	Bemmulla		7.120846	80.026097	7.103522	80.007116	4234+CR5, Gampaha, Sri Lanka	2.846433		ගම්පහ	බෙම්මුල්ල	බණ්ඩාරබටවල පිරිවෙන	கம்பஹா	பெம்முல்லா	பண்டாரபதவாலா பிரிவேனா	4234+CR5, ගම්පහ, ශ්‍රී ලංකාව	4234+CR5, கம்பஹா, இலங்கை
Gampaha	Divulapitiya	MOH Office – Divulapitiya	False	False	GMPHDVLPTYMHFFCDVLPTY		Gampaha	LK-12	7.123598	80.018508	Diulapitiya	PS-120355	7.174215	79.957874	7.215486	80.013606	6287+5CX, Divulapitiya, Sri Lanka	7.67456		ගම්පහ	දිවුලපිටිය	එම්ඕඑච් කාර්යාලය - දිවුලපිටිය	கம்பஹா	திவுலபிட்டிய	MOH அலுவலகம் - திவுலபிட்டிய	6287+5CX, දිවුලපිටිය, ශ්‍රී ලංකාව	6287+5CX, திவுலபிட்டிய, இலங்கை
Gampaha	Katana	MOH Office – Katana	False	False	GMPHKTNMHFFCKTN		Gampaha	LK-12	7.123598	80.018508	Katana	PS-120360	7.224796	79.880015	7.22436	79.88271	Katana, Negombo - Mirigama Rd, Negombo, Sri Lanka	0.301313		ගම්පහ	කටාන	MOH කාර්යාලය - කටාන	கம்பஹா	கட்டானா	MOH அலுவலகம் - கட்டானா	කටාන, මීගමුව - මීරිගම පාර, මීගමුව, ශ්‍රී ලංකාව	கட்டானா, நீர்கொழும்பு - மீரிகம வீதி, நீர்கொழும்பு, இலங்கை
Gampaha	Biyagama	MOH Office – Biyagama	False	False	GMPHBYGMMHFFCBYGM		Gampaha	LK-12	7.123598	80.018508	Biyagama	PS-120131	6.962284	80.009037	6.946824	79.994052	Hospital Rd, Sri Lanka	2.386313		ගම්පහ	බියගම	MOH කාර්යාලය - බියගම	கம்பஹா	பியகம	MOH அலுவலகம் - பியாகம	රෝහල පාර, ශ්‍රී ලංකාව	மருத்துவமனை Rd, இலங்கை
Kalutara	Beruwala	Al Pathiatul Nasria Balika Maha Vidyalaya - Beruwala	True	False	KLTRBRWLLPTHTLNSRBLKMHVDYLYBRWL		Kalutara	LK-13	6.577316	80.127363	Beruwala	PS-1302102	6.480329	79.983498	6.465274	79.975427	12/7 Maradana Rd, Beruwala, Sri Lanka	1.897329		කළුතර	බේරුවල	බේරුවල අල් පතියතුල් නස්රියා බාලිකා මහා විද්‍යාලය	களுத்துறை	பேருவளை	அல் பதியாதுல் நஸ்ரியா பாலிகா மகா வித்தியாலயம் - பேருவளை	12/7 මරදාන පාර, බේරුවල, ශ්‍රී ලංකාව	12/7 மருதானை சாலை, பேருவளை, இலங்கை
Kalutara	Millaniya	MOH Office – Millaniya	False	False	KLTRMLLNYMHFFCMLLNY		Kalutara	LK-13	6.577316	80.127363	Millaniya	PS-130191	6.681692	80.020847	6.724224	79.907284	A2, Panadura, Sri Lanka	13.407612		කළුතර	මිල්ලනිය	MOH කාර්යාලය - මිල්ලනිය	களுத்துறை	மில்லனியா	MOH அலுவலகம் - மில்லனியா	ඒ 2, පානදුර, ශ්‍රී ලංකාව	ஏ 2, பாணந்துரா, இலங்கை
Kalutara	Dodangoda	MOH Office – Dodangoda	False	False	KLTRDDNGDMHFFCDDNGD	6.540366199937832,80.03661033076219	Kalutara	LK-13	6.577316	80.127363	Dodangoda	PS-130299	6.553375	80.023569	6.541731	80.04335	Dodangoda, Sri Lanka	2.540775		කළුතර	දොඩන්ගොඩ	6.540366199937832,80.03661033076219	களுத்துறை	தொடங்கொட	6.540366199937832,80.03661033076219	දොඩන්ගොඩ, ශ්‍රී ලංකාව	தொடங்கொட, இலங்கை
Kalutara	Dodangoda	Dodangoda Hospital	False	False	KLTRDDNGDDDNGDHSPTL		Kalutara	LK-13	6.577316	80.127363	Dodangoda	PS-130299	6.553375	80.023569	6.540961	80.036553	Wilpatha Rd, Sri Lanka	1.991373		කළුතර	දොඩන්ගොඩ	දොඩන්ගොඩ රෝහල	களுத்துறை	தொடங்கொட	தொடங்கொட மருத்துவமனை	විල්පත පාර, ශ්‍රී ලංකාව	வில்பதா சாலை, இலங்கை
Kalutara	Thebuwana	Nebada Hospital	False	False	KLTRTHBWNNBDHSPTL		Kalutara	LK-13	6.577316	80.127363	Thebuwana	PS-1302105	6.654997	80.058183	6.563228	79.985261	Kalutara-Matugama Rd, Sri Lanka	13.004249		කළුතර	තෙබුවන	නෙබාඩා රෝහල	களுத்துறை	தேபுவானா	நெபாடா மருத்துவமனை	කළුතර මතුගම පාර, ශ්‍රී ලංකාව	களுத்துறை-மத்துகம வீதி, இலங்கை
Kalutara	Matugama	Katugahahena Hospital	False	False	KLTRMTGMKTGHHNHSPTL		Kalutara	LK-13	6.577316	80.127363	Mathugama	PS-1302103	6.520881	80.117908	6.489328	80.08471	F3QM+PVP, Bopitiya, Sri Lanka	5.077192		කළුතර	මතුගම	කටුගහහේන රෝහල	களுத்துறை	மத்துகம	கட்டுகஹஹேனா மருத்துவமனை	F3QM+PVP, බෝපිටිය, ශ්‍රී ලංකාව	F3QM+PVP, போபிடியா, இலங்கை
Kalutara	Matugama	Ananda Shashthralaya	False	False	KLTRMTGMNNDSHSHTHRLY		Kalutara	LK-13	6.577316	80.127363	Mathugama	PS-1302103	6.520881	80.117908	6.524298	80.116714	Ananda Sasthralaya Rd, Matugama, Sri Lanka	0.402325		කළුතර	මතුගම	ආනන්ද ශාස්ත්‍රාලය	களுத்துறை	மத்துகம	ஆனந்த சாஸ்திராலயா	ආනන්ද ශාස්ත්‍රාලය පාර, මතුගම, ශ්‍රී ලංකාව	ஆனந்த சாஸ்திராலயா சாலை, மத்துகம, இலங்கை
Kalutara	Welipenna	Rahumaniya Maha Vidyalaya	False	False	KLTRWLPNNRHMNYMHVDYLY		Kalutara	LK-13	6.577316	80.127363	Welipanna	PS-1302101	6.467428	80.108313	6.465024	80.101427	Aluthgama - Mathugama Rd, Welipenna, Sri Lanka	0.806664		කළුතර	වැලිපැන්න	රහුමානියා මහා විද්‍යාලය	களுத்துறை	வெலிபென்னா	ரகுமணிய மகா வித்தியாலயம்	අලුත්ගම - මතුගම පාර, වැලිපැන්න, ශ්‍රී ලංකාව	அளுத்கம - மத்துகம வீதி, வெலிபென்ன, இலங்கை
Kalutara	Anguruwatota	MOH Office – Madurawala	False	False	KLTRNGRWTTMHFFCMDRWL		Kalutara	LK-13	6.577316	80.127363	Anguruwatota	PS-130190	6.654997	80.058183	6.654814	80.057811	M335+W4F, Keselhenawa, Sri Lanka	0.045863		කළුතර	අඟුරුවාතොට	MOH කාර්යාලය - මදුරාවල	களுத்துறை	அங்குருவடோட்டா	MOH அலுவலகம் - மதுரவாலா	M335+W4F, කෙසෙල්හේනාව, ශ්‍රී ලංකාව	M335+W4F, கெசல்ஹேனாவா, இலங்கை
Kalutara	Agalawatta	Pimbura Hospital	False	False	KLTRGLWTTPMBRHSPTL		Kalutara	LK-13	6.577316	80.127363	Agalawatta		6.542566	80.157178	6.575949	80.158371	H5G5+98H, කළුතර, Sri Lanka	3.715525		කළුතර	අගලවත්ත	පිඹුර රෝහල	களுத்துறை	அகலவத்தை	பிம்புரா மருத்துவமனை	H5G5+98H, කළුතර, ශ්‍රී ලංකාව	H5G5+98H, கருப்புதர, இலங்கை
Kurunegala	Rasnayakapura	MOH Office – Rasnayakapura	False	False	KRNGLRSNYKPRMHFFCRSNYKPR		Kurunegala	LK-61	7.66477	80.23677	Rasnayakapura	PS-610323	7.776658	80.012692	7.812336	80.080579	R36J+W6P, Sri Lanka	8.468673		කුරුණෑගල	රස්නායකපුර	MOH කාර්යාලය - රස්නායකපුර	குருநாகல்	ரஸ்நாயகாபுரா	MOH அலுவலகம் - ரஸ்நாயகாபுரா	R36J+W6P, ශ්‍රී ලංකාව	R36J+W6P, இலங்கை
Kurunegala	Weerambugedara	Uhumiya DS Senanayake College	False	False	KRNGLWRMBGDRHMYDSSNNYKCLLG		Kurunegala	LK-61	7.66477	80.23677	Weerambugedara	PS-610106	7.476107	80.242797	7.476521	80.242587	Weerambugedara, Sri Lanka	0.051545		කුරුණෑගල	වීරඹුගෙදර	උහුමියා ඩීඑස් සේනානායක විද්‍යාලය	குருநாகல்	வீரம்புகெதரா	உஹுமியா டிஎஸ் சேனாநாயக்க கல்லூரி	වීරඹුගෙදර, ශ්‍රී ලංකාව	வீரம்புகெதரா, இலங்கை
Kurunegala	Kurunegala	Udabadalawa Maha Vidyalaya	False	False	KRNGLKRNGLDBDLWMHVDYLY		Kurunegala	LK-61	7.66477	80.23677	Kurunegala	PS-610101	7.485852	80.364137	7.521432	80.331581	Katugastota-Kurunegala-Puttalam Hwy, Kurunegala, Sri Lanka	5.34338		කුරුණෑගල	කුරුණෑගල	උඩබඩලාව මහා විද්‍යාලය	குருநாகல்	குருநாகல்	உடபதலாவா மகா வித்தியாலயம்	කටුගස්තොට-කුරුණෑගල-පුත්තලම හ්වි, කුරුණෑගල, ශ්‍රී ලංකාව	கட்டுகஸ்தோட்டா-குருநாகல்-புத்தளம் Hwy, குருநாகல், இலங்கை
Kurunegala	Kurunegala	Wilbawa Viharaya	False	False	KRNGLKRNGLWLBWVHRY		Kurunegala	LK-61	7.66477	80.23677	Kurunegala	PS-610101	7.485852	80.364137	7.464194	80.357021	F974+MRC, Kurunegala, Sri Lanka	2.533623		කුරුණෑගල	කුරුණෑගල	විල්බාව විහාරය	குருநாகல்	குருநாகல்	வில்பாவா விஹாராயா	F974+MRC, කුරුණෑගල, ශ්‍රී ලංකාව	F974+MRC, குருநாகல், இலங்கை
Puttalam	Chilaw	Ambakadawila Church	False	False	PTTLMCHLWMBKDWLCHRCH		Puttalam	LK-62	7.973531	79.913833	Chilaw	PS-620241	7.576197	79.788003	7.561989	79.801657	HR62+QMV, Chilaw, Sri Lanka	2.182669		පුත්තලම	භලාවත	අඹකඩවිල පල්ලිය	புத்தளம்	சிலாபம்	அம்பகடவில தேவாலயம்	HR62+QMV, හලාවත, ශ්‍රී ලංකාව	HR62+QMV, சிலாபம், இலங்கை
Puttalam	Chilaw	Aluthwatta Church	False	False	PTTLMCHLWLTHWTTCHRCH		Puttalam	LK-62	7.973531	79.913833	Chilaw	PS-620241	7.576197	79.788003	7.561989	79.801657	HR62+QMV, Chilaw, Sri Lanka	2.182669		පුත්තලම	භලාවත	අළුත් වත්ත පල්ලිය	புத்தளம்	சிலாபம்	அளுத்வத்த தேவாலயம்	HR62+QMV, හලාවත, ශ්‍රී ලංකාව	HR62+QMV, சிலாபம், இலங்கை
Puttalam	Chilaw	Medawatta Churach	False	False	PTTLMCHLWMDWTTCHRCH		Puttalam	LK-62	7.973531	79.913833	Chilaw	PS-620241	7.576197	79.788003	7.55716	79.789132	Ambakandawila Rd, Chilaw, Sri Lanka	2.121138		පුත්තලම	භලාවත	මැදවත්ත චුරාච්	புத்தளம்	சிலாபம்	மேடவத்தா சுராச்	අම්බකන්දවිල පාර, හලාවත, ශ්‍රී ලංකාව	அம்பகண்டவில சாலை, சிலாபம், இலங்கை
Puttalam	Chilaw	Weralabada South College	False	False	PTTLMCHLWWRLBDSTHCLLG		Puttalam	LK-62	7.973531	79.913833	Chilaw	PS-620241	7.576197	79.788003	7.571297	79.799123	Puttalam - Colombo Rd, Chilaw, Sri Lanka	1.341767		පුත්තලම	භලාවත	වේරලබඩ දකුණු විද්‍යාලය	புத்தளம்	சிலாபம்	வெரலபடா தெற்கு கல்லூரி	පුත්තලම - කොළඹ පාර, හලාවත, ශ්‍රී ලංකාව	புத்தளம் - கொழும்பு வீதி, சிலாபம், இலங்கை
Puttalam	Chilaw	Kurusapaduwa Church	False	False	PTTLMCHLWKRSPDWCHRCH		Puttalam	LK-62	7.973531	79.913833	Chilaw	PS-620241	7.576197	79.788003	8.1255	79.726198	4PGG+5FW, Puttalam, Sri Lanka	61.477237	#CenterFarFromPolice	පුත්තලම	භලාවත	කුරුසපාඩුව පල්ලිය	புத்தளம்	சிலாபம்	குருசபடுவா தேவாலயம்	4PGG+5FW, පුත්තලම, ශ්‍රී ලංකාව	4PGG+5FW, புத்தளம், இலங்கை
Puttalam	Chilaw	Iranawila Catholic Church	False	False	PTTLMCHLWRNWLCTHLCCHRCH		Puttalam	LK-62	7.973531	79.913833	Chilaw	PS-620241	7.576197	79.788003	7.495154	79.807481	Iranawila Rd, Sri Lanka	9.266744		පුත්තලම	භලාවත	ඉරණවිල කතෝලික පල්ලිය	புத்தளம்	சிலாபம்	இரணைவில கத்தோலிக்க தேவாலயம்	ඉරණවිල පාර, ශ්‍රී ලංකාව	இரணவில வீதி, இலங்கை
Puttalam	Puttalam	Veppamadu Muslim Vidyalaya	False	False	PTTLMPTTLMVPPMDMSLMVDYLY		Puttalam	LK-62	7.973531	79.913833	Puttalam	PS-620130	8.029904	79.834396	8.074579	79.837711	Mannar Rd, Puttalam 61300, Sri Lanka	4.982587		පුත්තලම	පුත්තලම	වෙප්පමඩු මුස්ලිම් විද්‍යාලය	புத்தளம்	புத்தளம்	வேப்பமடு முஸ்லிம் வித்யாலயா	මන්නාරම පාර, පුත්තලම 61300, ශ්‍රී ලංකාව	மன்னார் சாலை, புத்தளம் 61300, இலங்கை
Puttalam	Puttalam	Attavilluwa Primary School	False	False	PTTLMPTTLMTTVLLWPRMRYSCHL		Puttalam	LK-62	7.973531	79.913833	Puttalam	PS-620130	8.029904	79.834396	7.986103	79.880264	Palaviya - Kalladiya Rd, Kalladiya, Sri Lanka	7.018567		පුත්තලම	පුත්තලම	අත්තවිල්ලුව ප්‍රාථමික විද්‍යාලය	புத்தளம்	புத்தளம்	அட்டவில்லுவா ஆரம்பப் பள்ளி	පලාවිය - කල්ලදිය පාර, කල්ලදිය, ශ්‍රී ලංකාව	பாலவியா - கல்லடிய சாலை, கல்லடியா, இலங்கை
Puttalam	Puttalam	Thilladi Muslim Maha Vidyalaya	False	False	PTTLMPTTLMTHLLDMSLMMHVDYLY		Puttalam	LK-62	7.973531	79.913833	Puttalam	PS-620130	8.029904	79.834396	8.004413	79.844478	2R3V+QQ9, Puttalam, Sri Lanka	3.045059		පුත්තලම	පුත්තලම	තිල්ලාඩි මුස්ලිම් මහා විද්‍යාලය	புத்தளம்	புத்தளம்	தில்லாடி முஸ்லிம் மகா வித்தியாலயம்	2R3V+QQ9, පුත්තලම, ශ්‍රී ලංකාව	2R3V+QQ9, புத்தளம், இலங்கை
Puttalam	Puttalam	Ananda National College	False	False	PTTLMPTTLMNNDNTNLCLLG		Puttalam	LK-62	7.973531	79.913833	Puttalam	PS-620130	8.029904	79.834396	7.571297	79.799123	Puttalam - Colombo Rd, Chilaw, Sri Lanka	51.158667	#CenterFarFromPolice	පුත්තලම	පුත්තලම	ආනන්ද ජාතික විද්‍යාලය	புத்தளம்	புத்தளம்	ஆனந்தா தேசிய கல்லூரி	පුත්තලම - කොළඹ පාර, හලාවත, ශ්‍රී ලංකාව	புத்தளம் - கொழும்பு வீதி, சிலாபம், இலங்கை
Puttalam	Puttalam	Fathima National School	False	False	PTTLMPTTLMFTHMNTNLSCHL		Puttalam	LK-62	7.973531	79.913833	Puttalam	PS-620130	8.029904	79.834396	8.032756	79.832857	37 Poles Rd, Puttalam 61300, Sri Lanka	0.359673		පුත්තලම	පුත්තලම	ෆාතිමා ජාතික පාසල	புத்தளம்	புத்தளம்	பாத்திமா தேசிய பள்ளி	37 ධ්‍රැව පාර, පුත්තලම 61300, ශ්‍රී ලංකාව	37 துருவங்கள் சாலை, புத்தளம் 61300, இலங்கை
Puttalam	Puttalam	Visadarrama Viharaya	False	False	PTTLMPTTLMVSDRRMVHRY		Puttalam	LK-62	7.973531	79.913833	Puttalam	PS-620130	8.029904	79.834396	8.028546	79.853854	2VH3+CG9, Puttalam, Sri Lanka	2.14841		පුත්තලම	පුත්තලම	විසාදාරාම විහාරය	புத்தளம்	புத்தளம்	விசாதரராம விஹாராயா	2VH3+CG9, පුත්තලම, ශ්‍රී ලංකාව	2VH3+CG9, புத்தளம், இலங்கை
Puttalam	Puttalam	Manalgundu Muslim Vidyalaya	False	False	PTTLMPTTLMMNLGNDMSLMVDYLY		Puttalam	LK-62	7.973531	79.913833	Puttalam	PS-620130	8.029904	79.834396	7.951082	79.806461	Puluthivayal Rd, Puluthivayal, Sri Lanka	9.291648		පුත්තලම	පුත්තලම	මනල්ගුන්ඩු මුස්ලිම් විද්‍යාලය	புத்தளம்	புத்தளம்	மணல்குண்டு முஸ்லிம் வித்தியாலயம்	පුලුතිවායල් පාර, පුලුතිවායල්, ශ්‍රී ලංකාව	புழுதிவயல் சாலை, புழுதிவயல், இலங்கை
Puttalam	Puttalam	Palavi Sinhala Vidyalaya	False	False	PTTLMPTTLMPLVSNHLVDYLY		Puttalam	LK-62	7.973531	79.913833	Puttalam	PS-620130	8.029904	79.834396	8.02676	79.838078	Puttalam South, Sri Lanka	0.535493		පුත්තලම	පුත්තලම	පලවි සිංහල විද්‍යාලය	புத்தளம்	புத்தளம்	பாலாவி சிங்கள வித்யாலயா	පුත්තලම දකුණ, ශ්‍රී ලංකාව	புத்தளம் தெற்கு, இலங்கை
Puttalam	Puttalam	Divisional Secretariat Office - Puttalam	False	False	PTTLMPTTLMDVSNLSCRTRTFFCPTTLM		Puttalam	LK-62	7.973531	79.913833	Puttalam	PS-620130	8.029904	79.834396	8.030562	79.835452	2RJP+65G, Puttalam, Sri Lanka	0.137419		පුත්තලම	පුත්තලම	ප්‍රාදේශීය ලේකම් කාර්යාලය - පුත්තලම	புத்தளம்	புத்தளம்	பிரதேச செயலக அலுவலகம் - புத்தளம்	2RJP+65G, පුත්තලම, ශ්‍රී ලංකාව	2RJP+65G, புத்தளம், இலங்கை
Puttalam	Udappu	Udappuwa Hospital	False	False	PTTLMDPPDPPWHSPTL		Puttalam	LK-62	7.973531	79.913833	Udappuwa	PS-620140	7.759695	79.788518	7.75967	79.789379	QQ5Q+VQ6, Udappu, Sri Lanka	0.094933		පුත්තලම	උඩප්පු	උඩප්පුව රෝහල	புத்தளம்	உடப்பு	உடப்புவா மருத்துவமனை	QQ5Q+VQ6, උඩප්පු, ශ්‍රී ලංකාව	QQ5Q+VQ6, உடப்பு, இலங்கை
Puttalam	Mundalama	Andimunai Vidyalaya	False	False	PTTLMMNDLMNDMNVDYLY		Puttalam	LK-62	7.973531	79.913833	Mundal	PS-620138	7.808859	79.825729	7.760994	79.790111	QQ6R+92X, Udappu, Sri Lanka	6.614597		පුත්තලම	මුන්දලම	අන්දිමුණෙයි විද්‍යාලය	புத்தளம்	முண்டாலமா	ஆண்டிமுனை வித்யாலயா	QQ6R+92X, උඩප්පු, ශ්‍රී ලංකාව	QQ6R+92X, உடப்பு, இலங்கை
Puttalam	Mundalama	Pandalaya Community Hall	False	False	PTTLMMNDLMPNDLYCMMNTYHLL		Puttalam	LK-62	7.973531	79.913833	Mundal	PS-620138	7.808859	79.825729	7.577257	79.798877	Sinhapura Rd, Chilaw, Sri Lanka	25.930533	#CenterFarFromPolice	පුත්තලම	මුන්දලම	පණ්ඩලය ප්‍රජා ශාලාව	புத்தளம்	முண்டாலமா	பந்தலயா சமுதாய கூடம்	සිංහපුර පාර, හලාවත, ශ්‍රී ලංකාව	சிங்களபுர வீதி, சிலாபம், இலங்கை
Puttalam	Mundalama	Kandathoduwawa Community Hall	False	False	PTTLMMNDLMKNDTHDWWCMMNTYHLL		Puttalam	LK-62	7.973531	79.913833	Mundal	PS-620138	7.808859	79.825729	8.036153	79.829536	2RPH+FR7, Puttalam, Sri Lanka	25.285352	#CenterFarFromPolice	පුත්තලම	මුන්දලම	කන්දතොඩුවාව ප්‍රජා ශාලාව	புத்தளம்	முண்டாலமா	கண்டதொடுவா சமூக மண்டபம்	2RPH+FR7, පුත්තලම, ශ්‍රී ලංකාව	2RPH+FR7, புத்தளம், இலங்கை
Puttalam	Mundalama	Mukku Thoduwawa Community Hall	False	False	PTTLMMNDLMMKKTHDWWCMMNTYHLL		Puttalam	LK-62	7.973531	79.913833	Mundal	PS-620138	7.808859	79.825729	7.485903	79.803058	Thoduwawa, Sri Lanka	36.009179	#CenterFarFromPolice	පුත්තලම	මුන්දලම	මුක්කු තොඩුවාව ප්‍රජා ශාලාව	புத்தளம்	முண்டாலமா	முக்கு தொடுவாவா சமுதாயக் கூடம்	තොඩුවාව, ශ්‍රී ලංකාව	தொடுவாவா, இலங்கை
Puttalam	Arachchikattuwa	Karukapanai Churach	False	False	PTTLMRCHCHKTTWKRKPNCHRCH		Puttalam	LK-62	7.973531	79.913833	Arachchikattuwa	PS-620247	7.65944	79.837772	7.591399	79.827877	Chilaw-Munneswarama-Tissogama, Sri Lanka	7.646406		පුත්තලම	ආරච්චිකට්ටුව	කරුකාපානායි චුරාච්	புத்தளம்	ஆராச்சிக்கட்டுவா	கருகப்பனைச் சூரச்	හලාවත-මුන්නේශ්වරම-තිසෝගම, ශ්‍රී ලංකාව	சிலாபம்-முன்னேஸ்வரமா-திசோகம, இலங்கை
Puttalam	Arachchikattuwa	Muthupalliya Churach	False	False	PTTLMRCHCHKTTWMTHPLLYCHRCH		Puttalam	LK-62	7.973531	79.913833	Arachchikattuwa	PS-620247	7.65944	79.837772	7.591399	79.827877	Chilaw-Munneswarama-Tissogama, Sri Lanka	7.646406		පුත්තලම	ආරච්චිකට්ටුව	මුතුපල්ලියා චුරාච්	புத்தளம்	ஆராச்சிக்கட்டுவா	முத்துப்பள்ளியா சூரச்	හලාවත-මුන්නේශ්වරම-තිසෝගම, ශ්‍රී ලංකාව	சிலாபம்-முன்னேஸ்வரமா-திசோகம, இலங்கை
Puttalam	Arachchikattuwa	Arachchikattuwa Viharaya	False	False	PTTLMRCHCHKTTWRCHCHKTTWVHRY		Puttalam	LK-62	7.973531	79.913833	Arachchikattuwa	PS-620247	7.65944	79.837772	7.461124	79.842169	FR6R+CVV, Madampe, Sri Lanka	22.063983	#CenterFarFromPolice	පුත්තලම	ආරච්චිකට්ටුව	ආරච්චිකට්ටුව විහාරය	புத்தளம்	ஆராச்சிக்கட்டுவா	ஆராச்சிக்கட்டுவ விஹாராயா	FR6R+CVV, මාදම්පේ, ශ්‍රී ලංකාව	FR6R+CVV, மாதம்பே, இலங்கை
Puttalam	Arachchikattuwa	Kottapitiya Churach	False	False	PTTLMRCHCHKTTWKTTPTYCHRCH		Puttalam	LK-62	7.973531	79.913833	Arachchikattuwa	PS-620247	7.65944	79.837772	7.656449	79.838078	Rajakadaluwa, Sri Lanka	0.334394		පුත්තලම	ආරච්චිකට්ටුව	කෝට්ටපිටිය චුරාච්	புத்தளம்	ஆராச்சிக்கட்டுவா	கோட்டாபிட்டிய சுராச்	රාජකදළුව, ශ්‍රී ලංකාව	ராஜகடலுவா, இலங்கை
Puttalam	Arachchikattuwa	Nalladarankattuwa Viharaya	False	False	PTTLMRCHCHKTTWNLLDRNKTTWVHRY		Puttalam	LK-62	7.973531	79.913833	Arachchikattuwa	PS-620247	7.65944	79.837772	7.669298	79.835761	Puttalam - Colombo Rd, Nalladarankattuwa, Sri Lanka	1.118689		පුත්තලම	ආරච්චිකට්ටුව	නල්ලදරන්කට්ටුව විහාරය	புத்தளம்	ஆராச்சிக்கட்டுவா	நல்லடரன்கட்டுவ விஹாராயா	පුත්තලම - කොළඹ පාර, නල්ලදරන්කට්ටුව, ශ්‍රී ලංකාව	புத்தளம் - கொழும்பு வீதி, நல்லதரன்கட்டுவா, இலங்கை
Puttalam	Arachchikattuwa	Anavilundawa Churach	False	False	PTTLMRCHCHKTTWNVLNDWCHRCH		Puttalam	LK-62	7.973531	79.913833	Arachchikattuwa	PS-620247	7.65944	79.837772	7.663717	79.839303	Nalladarankattuwa, Sri Lanka	0.50478		පුත්තලම	ආරච්චිකට්ටුව	ආනවිලුන්දාව චුරාච්	புத்தளம்	ஆராச்சிக்கட்டுவா	அனவிலுண்டவா சுராச்	නල්ලදරන්කට්ටුව, ශ්‍රී ලංකාව	நல்லதரன்கட்டுவா, இலங்கை
Puttalam	Kalpitiya	District Hospital – Kalpitiya	False	False	PTTLMKLPTYDSTRCTHSPTLKLPTY		Puttalam	LK-62	7.973531	79.913833	Kalpitiya	PS-620137	8.235145	79.764567	8.235596	79.766951	6QP8+6QP, Kalpitiya, Sri Lanka	0.267189		පුත්තලම	කල්පිටිය	දිසා රෝහල - කල්පිටිය	புத்தளம்	கல்பிட்டிய	மாவட்ட மருத்துவமனை - கல்பிட்டி	6QP8+6QP, කල්පිටිය, ශ්‍රී ලංකාව	6QP8+6QP, கல்பிட்டிய, இலங்கை
Puttalam	Kalpitiya	Al Aksha National School - Kalpitiya	False	False	PTTLMKLPTYLKSHNTNLSCHLKLPTY		Puttalam	LK-62	7.973531	79.913833	Kalpitiya	PS-620137	8.235145	79.764567	8.231092	79.76204	Al Aqsa School Rd, Kalpitiya, Sri Lanka	0.529734		පුත්තලම	කල්පිටිය	අල් අක්ෂා ජාතික පාසල - කල්පිටිය	புத்தளம்	கல்பிட்டிய	அல் அக்ஷா தேசிய பள்ளி - கல்பிட்டி	අල් අක්සා පාසල පාර, කල්පිටිය, ශ්‍රී ලංකාව	அல் அக்ஸா பள்ளி வீதி, கல்பிட்டிய, இலங்கை
Puttalam	Kalpitiya	Kandakkuliya Sinhala Vidyalaya	False	False	PTTLMKLPTYKNDKKLYSNHLVDYLY		Puttalam	LK-62	7.973531	79.913833	Kalpitiya	PS-620137	8.235145	79.764567	8.237069	79.760536	6QP6+R6F, Kalpitiya, Sri Lanka	0.492653		පුත්තලම	කල්පිටිය	කන්දක්කුලිය සිංහල විද්‍යාලය	புத்தளம்	கல்பிட்டிய	கண்டக்குளிய சிங்கள சித்தியாலயம்	6QP6+R6F, කල්පිටිය, ශ්‍රී ලංකාව	6QP6+R6F, கல்பிட்டிய, இலங்கை
Puttalam	Kalpitiya	St. Peter's College – Palakudawa	False	False	PTTLMKLPTYSTPTRSCLLGPLKDW		Puttalam	LK-62	7.973531	79.913833	Kalpitiya	PS-620137	8.235145	79.764567					#CenterLocationUnknown	පුත්තලම	කල්පිටිය	ශාන්ත පීතර විද්‍යාලය - පලකුඩාව	புத்தளம்	கல்பிட்டிய	செயின்ட் பீட்டர்ஸ் கல்லூரி - பாலக்குடாவா		
Puttalam	Kalpitiya	Musalpitiya Muslim Maha Vidyalaya	False	False	PTTLMKLPTYMSLPTYMSLMMHVDYLY		Puttalam	LK-62	7.973531	79.913833	Kalpitiya	PS-620137	8.235145	79.764567	8.102367	79.73026	Etalai, Sri Lanka	15.244252		පුත්තලම	කල්පිටිය	මුසල්පිටිය මුස්ලිම් මහා විද්‍යාලය	புத்தளம்	கல்பிட்டிய	முசல்பிட்டிய முஸ்லிம் மகா வித்தியாலயம்	ඇතාලෙයි, ශ්‍රී ලංකාව	எத்தலை, இலங்கை
Puttalam	Norochcholai	Daluwa St. Anthony's College	False	False	PTTLMNRCHCHLDLWSTNTHNYSCLLG		Puttalam	LK-62	7.973531	79.913833	Norochcholey	PS-620139	6.900777	79.872638	7.979176	79.755536	XQH4+M6F, Puttalam, Sri Lanka	120.643455	#CenterFarFromPolice	පුත්තලම	නොරොච්චෝලේ	දළුව ශාන්ත අන්තෝනි විද්‍යාලය	புத்தளம்	நொரோச்சோலை	தாலுவா புனித அந்தோனியார் கல்லூரி	XQH4+M6F, පුත්තලම, ශ්‍රී ලංකාව	XQH4+M6F, புத்தளம், இலங்கை
Puttalam	Norochcholai	Ulukkapallama Muslim College	False	False	PTTLMNRCHCHLLKKPLLMMSLMCLLG		Puttalam	LK-62	7.973531	79.913833	Norochcholey	PS-620139	6.900777	79.872638	8.050195	79.736044	3P2P+3CF, Norochcholai, Sri Lanka	128.73397	#CenterFarFromPolice	පුත්තලම	නොරොච්චෝලේ	උලුක්කපල්ලම මුස්ලිම් විද්‍යාලය	புத்தளம்	நொரோச்சோலை	உலகப்பல்லாமா முஸ்லிம் கல்லூரி	3 පී 2 පී+3 සීඑෆ්, නොරොච්චෝලේ, ශ්‍රී ලංකාව	3P2P+3CF, நொரோச்சோலை, இலங்கை
Puttalam	Norochcholai	Norochcholai Muslim Maha Vidyalaya	False	False	PTTLMNRCHCHLNRCHCHLMSLMMHVDYLY		Puttalam	LK-62	7.973531	79.913833	Norochcholey	PS-620139	6.900777	79.872638	8.050195	79.736044	3P2P+3CF, Norochcholai, Sri Lanka	128.73397	#CenterFarFromPolice	පුත්තලම	නොරොච්චෝලේ	නොරොච්චෝලේ මුස්ලිම් මහා විද්‍යාලය	புத்தளம்	நொரோச்சோலை	நொரோச்சோலை முஸ்லிம் மகா வித்தியாலயம்	3 පී 2 පී+3 සීඑෆ්, නොරොච්චෝලේ, ශ්‍රී ලංකාව	3P2P+3CF, நொரோச்சோலை, இலங்கை
Puttalam	Norochcholai	Narakkalliya Roman Catholic College	False	False	PTTLMNRCHCHLNRKKLLYRMNCTHLCCLLG		Puttalam	LK-62	7.973531	79.913833	Norochcholey	PS-620139	6.900777	79.872638	8.018727	79.731575	Narakkalliya, Sri Lanka	125.318804	#CenterFarFromPolice	පුත්තලම	නොරොච්චෝලේ	නාරක්කල්ලිය රෝමානු කතෝලික විද්‍යාලය	புத்தளம்	நொரோச்சோலை	நரக்கல்லியா ரோமன் கத்தோலிக்க கல்லூரி	නාරක්කල්ලිය, ශ්‍රී ලංකාව	நரக்கல்லியா, இலங்கை
Puttalam	Wennappuwa	Ulhitiyawa St. Xavier Catholic Church	False	False	PTTLMWNNPPWLHTYWSTXVRCTHLCCHRCH		Puttalam	LK-62	7.973531	79.913833	Wennappuwa	PS-620245	7.339623	79.843017	7.345648	79.831869	8RWJ+7P5, Wennappuwa, Sri Lanka	1.400563		පුත්තලම	වෙන්නප්පුව	උල්හිටියාව ශාන්ත සේවියර් කතෝලික පල්ලිය	புத்தளம்	வென்னப்புவா	உல்ஹித்தியாவா புனித சேவியர் கத்தோலிக்க தேவாலயம்	8RWJ+7P5, වෙන්නප්පුව, ශ්‍රී ලංකාව	8RWJ+7P5, வென்னப்புவா, இலங்கை
Puttalam	Marawila	St.Sebastian Primary College - Katuneriya	False	False	PTTLMMRWLSTSBSTNPRMRYCLLGKTNRY		Puttalam	LK-62	7.973531	79.913833	Marawila	PS-620243	7.415075	79.839776	7.364706	79.832758	9R7M+V4J, Katuneriya, Sri Lanka	5.655765		පුත්තලම	මාරවිල	ශාන්ත සෙබස්තියන් ප්‍රාථමික විද්‍යාලය - කටුනේරිය	புத்தளம்	மாரவில	செயின்ட் செபாஸ்டியன் தொடக்கக் கல்லூரி - கட்டுனேரியா	9 ආර් 7 එම්+වී 4 ජේ, කටුනේරිය, ශ්‍රී ලංකාව	9R7M+V4J, கட்டுனேரியா, இலங்கை
Puttalam	Marawila	At St. Anthony's Church, Thoduwawa	False	False	PTTLMMRWLTSTNTHNYSCHRCHTHDWW		Puttalam	LK-62	7.973531	79.913833	Marawila	PS-620243	7.415075	79.839776	7.476679	79.804902	FRG3+MXC, Thoduwawa, Sri Lanka	7.857917		පුත්තලම	මාරවිල	තොඩුවාව ශාන්ත අන්තෝනි දේවස්ථානයේදී	புத்தளம்	மாரவில	புனித அந்தோனியார் தேவாலயத்தில், தொடுவாவா	FRG3+MXC, තොඩුවාව, ශ්‍රී ලංකාව	FRG3+MXC, தொடுவாவா, இலங்கை
Kandy	Theldeniya	Theldeniya National College	False	False	KNDYTHLDNYTHLDNYNTNLCLLG		Kandy	LK-21	7.27337	80.709602	Theldeniya	PS-210356	7.309853	80.76426	7.308862	80.762491	8Q56+GXX, Karalliyadda, Sri Lanka	0.224144		මහනුවර	තෙල්දෙණිය	තෙල්දෙණිය ජාතික විද්‍යාලය	கண்டி	தெல்தெனியா	தெல்தெனிய தேசிய கல்லூரி	8Q56+GXX, කරල්ලියද්ද, ශ්‍රී ලංකාව	8Q56+GXX, கரல்லியத்த, இலங்கை
Kandy	Thalathuoya	Gurudeniya Central College	False	False	KNDYTHLTHYGRDNYCNTRLCLLG		Kandy	LK-21	7.27337	80.709602	Thalathuoya	PS-210107	7.25166	80.689528	7.252506	80.690643	Talatuoya-Gurudeniya, Thalathuoya, Sri Lanka	0.15489		මහනුවර	තලාතුඔය	ගුරුදෙනිය මධ්‍ය විද්‍යාලය	கண்டி	தலத்துஓயா	குருதேனியா மத்திய கல்லூரி	තලාතුඔය-ගුරුදෙනිය, තලාතුඔය, ශ්‍රී ලංකාව	தலதுஓயா-குருதேனியா, தலத்துஓயா, இலங்கை
Kandy	Kandy	Ampitiya Berevets Vidyalaya	False	False	KNDYKNDYMPTYBRVTSVDYLY		Kandy	LK-21	7.27337	80.709602	Kandy	PS-210101	7.292948	80.642368	7.2812	80.655203	7MJ4+F3P, Ampitiya, Sri Lanka	1.926967		මහනුවර	මහනුවර	අම්පිටිය බෙරවෙට්ස් විද්‍යාලය	கண்டி	கண்டி	அம்பிட்டிய பெரெவெட்ஸ் வித்யாலயா	7 එම්ජේ 4+එෆ් 3 පී, අම්පිටිය, ශ්‍රී ලංකාව	7MJ4+F3P, அம்பிடியா, இலங்கை
Kandy	Kandy	Mahamaya Usas Balika Vidyalaya	False	False	KNDYKNDYMHMYSSBLKVDYLY		Kandy	LK-21	7.27337	80.709602	Kandy	PS-210101	7.292948	80.642368	7.286638	80.64566	Sangaraja Mawatha, Kandy, Sri Lanka	0.790271		මහනුවර	මහනුවර	මහාමායා උසාස් බාලිකා විද්‍යාලය	கண்டி	கண்டி	மகாமாயா உசஸ் பாலிகா வித்யாலயா	සංඝරාජ මාවත, මහනුවර, ශ්‍රී ලංකාව	சங்கராஜா மாவத்தை, கண்டி, இலங்கை
Kandy	Kandy	Mahamaya Girls College	False	False	KNDYKNDYMHMYGRLSCLLG		Kandy	LK-21	7.27337	80.709602	Kandy	PS-210101	7.292948	80.642368	7.286638	80.64566	Sangaraja Mawatha, Kandy, Sri Lanka	0.790271		මහනුවර	මහනුවර	මහාමායා බාලිකා විද්‍යාලය	கண்டி	கண்டி	மகாமாயா பெண்கள் கல்லூரி	සංඝරාජ මාවත, මහනුවර, ශ්‍රී ලංකාව	சங்கராஜா மாவத்தை, கண்டி, இலங்கை
Kandy	Poojapitiya	Poojapitiya Primary School	False	False	KNDYPJPTYPJPTYPRMRYSCHL		Kandy	LK-21	7.27337	80.709602	Poojapitiya	PS-210115	7.372938	80.587619	7.365084	80.601755	Ahalagashinna, Poojapitiya Road, Pujapitiya, Sri Lanka	1.787489		මහනුවර	පූජාපිටිය	පූජාපිටිය ප්‍රාථමික විද්‍යාලය	கண்டி	பூஜாபிட்டிய	பூஜாபிட்டிய தொடக்கப்பள்ளி	අහලගස්හින්න, පූජාපිටිය පාර, පූජාපිටිය, ශ්‍රී ලංකාව	அலகாகசின்னா, பூஜாபிட்டிய சாலை, பூஜாபிட்டிய, இலங்கை
Kandy	Wattegama	Walala A.Rathnayake Central College	False	False	KNDYWTTGMWLLRTHNYKCNTRLCLLG		Kandy	LK-21	7.27337	80.709602	Wattegama	PS-210357	7.350603	80.68335	7.318909	80.693359	8M9V+H89, Menikhinna, Sri Lanka	3.694199		මහනුවර	වත්තේගම	වලල ඒ. රත්නායක මධ්‍ය මහා විද්‍යාලය	கண்டி	வட்டேகம	வாலாலா ஏ.ரத்நாயக்க மத்திய கல்லூரி	8 එම් 9 වී+එච් 89, මැණික්හින්න, ශ්‍රී ලංකාව	8M9V+H89, மெனிகின்னா, இலங்கை
Kandy	Katugastota	Nugawela Maha Vidyalaya	False	False	KNDYKTGSTTNGWLMHVDYLY		Kandy	LK-21	7.27337	80.709602	Katugastota	PS-210103	7.332014	80.623006	7.326749	80.586953	8HGP+MQW, Nugawela, Sri Lanka	4.020285		මහනුවර	කටුගස්තොට	නුගවෙල මහා විද්‍යාලය	கண்டி	கட்டுகஸ்தோட்டா	நுகவெல மகா வித்தியாலயம்	8HGP+MQW, නුගවෙල, ශ්‍රී ලංකාව	8HGP+MQW, நுகவேலா, இலங்கை
Kandy	Katugastota	Kandy Ananda College - Gonigoda	False	False	KNDYKTGSTTKNDYNNDCLLGGNGD		Kandy	LK-21	7.27337	80.709602	Katugastota	PS-210103	7.332014	80.623006	7.346769	80.580787	B206, Medawala, Sri Lanka	4.938236		මහනුවර	කටුගස්තොට	මහනුවර ආනන්ද විද්‍යාලය - ගෝනිගොඩ	கண்டி	கட்டுகஸ்தோட்டா	கண்டி ஆனந்த கல்லூரி - கோனிகொட	බී 206, මැදවල, ශ්‍රී ලංකාව	B206, மேடவாலா, இலங்கை
Kandy	Ankumbura	Gilihinna Primary School	False	False	KNDYNKMBRGLHNNPRMRYSCHL		Kandy	LK-21	7.27337	80.709602	Ankumbura	PS-210104	7.438826	80.571939	7.380409	80.543718	Henegama, Harankahawa, Kandy, Galagedara, Sri Lanka	7.204848		මහනුවර	අංකුඹුර	ගිලිහින්න ප්‍රාථමික විද්‍යාලය	கண்டி	அங்கும்புரா	கிலிஹின்னா ஆரம்பப் பள்ளி	හේනේගම, හරංකහාව, මහනුවර, ගලගෙදර, ශ්‍රී ලංකාව	ஹெனேகம, ஹரன்கஹவா, கண்டி, கலகெதரா, இலங்கை
Kandy	Hatharaliyadda	Hatharaliyadda Maha Vidyalaya	False	False	KNDYHTHRLYDDHTHRLYDDMHVDYLY		Kandy	LK-21	7.27337	80.709602	Hatharaliyadda	PS-210106	7.336886	80.471814	7.33578	80.471154	Hatharaliyadda, Sri Lanka	0.142952		මහනුවර	හතරලියද්ද	හතරලියද්ද මහා විද්‍යාලය	கண்டி	ஹதரலியத்த	ஹதரலியத்த மகா வித்தியாலயம்	හතරලියද්ද, ශ්‍රී ලංකාව	ஹதரலியத்த, இலங்கை
Matale	Mahawela	Pallepola Hospital	False	False	MTLMHWLPLLPLHSPTL		Matale	LK-22	7.667587	80.731008	Mahawela	PS-220123	7.589247	80.61027	7.627907	80.606017	Pallepola 21000, Sri Lanka	4.325634		මාතලේ	මහවෙල	පල්ලෙපොල රෝහල	மாத்தளை	மகாவெல	பல்லெபோலா மருத்துவமனை	පල්ලේපොල 21000, ශ්‍රී ලංකාව	பல்லெபோலா 21000, இலங்கை
Matale	Matale	Kavudupelella Tea Factory	False	False	MTLMTLKVDPLLLTFCTRY		Matale	LK-22	7.667587	80.731008	Matale	PS-220121	7.462789	80.626211	7.46103	80.649559	Matale, Sri Lanka	2.582424		මාතලේ	මාතලේ	කවුඩුපැලැල්ල තේ කර්මාන්ත ශාලාව	மாத்தளை	மாத்தளை	கவுடுபெலெல்லா தேயிலை தொழிற்சாலை	මාතලේ, ශ්‍රී ලංකාව	மாத்தளை, இலங்கை
Matale	Matale	Kuriwela Mahinda Rajapaksa Vidyalaya	False	False	MTLMTLKRWLMHNDRJPKSVDYLY		Matale	LK-22	7.667587	80.731008	Matale	PS-220121	7.462789	80.626211	7.4096	80.648257	Mahinda Rajapaksha Navodya Vidyalaya, Kuriwela, Ukuwela, Sri Lanka	6.396397		මාතලේ	මාතලේ	කුරුවෙල මහින්ද රාජපක්ෂ විද්‍යාලය	மாத்தளை	மாத்தளை	குறிவெல மகிந்த ராஜபக்ச வித்யாலயா	මහින්ද රාජපක්ෂ නවෝද්‍යා විද්‍යාලය, කුරුවෙල, උකුවෙල, ශ්‍රී ලංකාව	மகிந்த ராஜபக்ச நவோதயா வித்யாலயா, குறிவேலா, உக்குவெலா, இலங்கை
Matale	Raththota	Raththota Hindu Vidyalaya	False	False	MTLRTHTHTRTHTHTHNDVDYLY		Matale	LK-22	7.667587	80.731008	Rattota	PS-220122	7.520684	80.678809	7.520682	80.676395	B274, Rattota, Sri Lanka	0.266199		මාතලේ	රත්තොට	රත්තොට හින්දු විද්‍යාලය	மாத்தளை	ரத்தோட	ரத்தோட்டா இந்து வித்யாலயா	බී 274, රත්තොට, ශ්‍රී ලංකාව	பி 274, ரத்தோட்டா, இலங்கை
Matale	Raththota	Pussella Navodya Vidyalaya	False	False	MTLRTHTHTPSSLLNVDYVDYLY		Matale	LK-22	7.667587	80.731008	Rattota	PS-220122	7.520684	80.678809	7.558063	80.680425	HM5J+65F, Matale, Sri Lanka	4.161477		මාතලේ	රත්තොට	පුස්සැල්ල නවෝද්‍යා විද්‍යාලය	மாத்தளை	ரத்தோட	புஸ்ஸெல்லா நவோத்யா வித்யாலயா	HM5J+65F, මාතලේ, ශ්‍රී ලංකාව	HM5J+65F, மாத்தளை, இலங்கை
Matale	Yatawatta	Udasgiriya Vidyalaya	False	False	MTLYTWTTDSGRYVDYLY		Matale	LK-22	7.667587	80.731008	Yatawatta	PS-220124	7.563527	80.567967	7.539384	80.578578	GHQH+QC4, Matale, Sri Lanka	2.92924		මාතලේ	යටවත්ත	උදස්ගිරිය විද්‍යාලය	மாத்தளை	யதவத்த	உதஸ்கிரிய வித்யாலயா	GHQH+QC4, මාතලේ, ශ්‍රී ලංකාව	GHQH+QC4, மாத்தளை, இலங்கை
Matale	Wilgamuwa	Medakanda Primary School	False	False	MTLWLGMWMDKNDPRMRYSCHL		Matale	LK-22	7.667587	80.731008	Wilgamuwa	PS-220127	7.542012	80.916496	7.514605	80.925906	GW7G+R9R, Matale, Sri Lanka	3.220237		මාතලේ	විල්ගමුව	මැදකන්ද ප්‍රාථමික විද්‍යාලය	மாத்தளை	வில்கமுவா	மேடகண்டா தொடக்கப்பள்ளி	GW7G+R9R, මාතලේ, ශ්‍රී ලංකාව	GW7G+R9R, மாத்தளை, இலங்கை
Badulla	Rideemaliyadda	MOH Office – Rideemaliyadda	False	False	BDLLRDMLYDDMHFFCRDMLYDD		Badulla	LK-81	7.074529	81.04486	Rideemaliyadda		7.214807	81.124613	7.236705	81.107802	B57, Uraniya, Sri Lanka	3.061673		බදුල්ල	රිදීමාලියද්ද	MOH කාර්යාලය - රිදීමාලියද්ද	பதுளை	ரிடிமாலியத்த	MOH அலுவலகம் - Rideemaliyadda	බී 57, යුරේනිය, ශ්‍රී ලංකාව	பி 57, யுரேனியா, இலங்கை
Badulla	Kandaketiya	MOH Office – Kandaketiya	False	False	BDLLKNDKTYMHFFCKNDKTY		Badulla	LK-81	7.074529	81.04486	Kandaketiya	PS-810107	7.195551	81.01958	7.138814	81.050128	Mahiyangane Road, Meegahakivula, Sri Lanka	7.15489		බදුල්ල	කන්දකැටිය	MOH කාර්යාලය - කන්දකැටිය	பதுளை	கந்தகெட்டிய	MOH அலுவலகம் - கண்டகெட்டிய	මහියංගනේ පාර, මීගහකිවුල, ශ්‍රී ලංකාව	மஹியங்கனே சாலை, மீகஹகிவுலா, இலங்கை
Badulla	Kandaketiya	MOH Office – Meegahakivula	False	False	BDLLKNDKTYMHFFCMGHKVL		Badulla	LK-81	7.074529	81.04486	Kandaketiya	PS-810107	7.195551	81.01958	7.138672	81.049956	MOH, Meegahakivula, Sri Lanka	7.159918		බදුල්ල	කන්දකැටිය	MOH කාර්යාලය - මීගහකිවුල	பதுளை	கந்தகெட்டிய	MOH அலுவலகம் - மீகஹகிவுலா	MOH, මීගහකිවුල, ශ්‍රී ලංකාව	MOH, மீகஹகிவுலா, இலங்கை
Badulla	Bandarawela	MOH Office – Bandarawela	False	False	BDLLBNDRWLMHFFCBNDRWL		Badulla	LK-81	7.074529	81.04486	Bandarawela	PS-810210	6.831526	80.986784	6.841272	80.98482	Hospital Junction Helamuduna Bus Stop, Etampitiya Rd, Bandarawela, Sri Lanka	1.105533		බදුල්ල	බණ්ඩාරවෙල	MOH කාර්යාලය - බණ්ඩාරවෙල	பதுளை	பண்டாரவளை	MOH அலுவலகம் - பண்டாரவளை	රෝහල් හන්දිය හෙළමුදුන බස් නැවතුම, ඇටම්පිටිය පාර, බණ්ඩාරවෙල, ශ්‍රී ලංකාව	மருத்துவமனை சந்திப்பு ஹெலமுதுனா பேருந்து நிறுத்தம், இடம்பிட்டிய சாலை, பண்டாரவளை, இலங்கை
Badulla	Uva Paranagama	MOH Office - Uva Paranagama	False	False	BDLLVPRNGMMHFFCVPRNGM		Badulla	LK-81	7.074529	81.04486	Uvaparanagama	PS-810213	6.958341	80.930364	6.927934	80.896475	Udapussellawa-Welimada Road, Ambagasdowa, Sri Lanka	5.043837		බදුල්ල	Vaව පරණගම	MOH කාර්යාලය - vaව පරණගම	பதுளை	ஊவ பரணகம	MOH அலுவலகம் - ஊவா பரணகம	උඩපුස්සැල්ලාව-වැලිමඩ පාර, අඹගස්දෝව, ශ්‍රී ලංකාව	உடபுசெல்லவா-வெலிமட சாலை, அம்பகஸ்தோவா, இலங்கை
Badulla	Haputale	MOH Office – Haputale	False	False	BDLLHPTLMHFFCHPTL		Badulla	LK-81	7.074529	81.04486	Haputale	PS-810215	6.767653	80.957218	6.779645	80.964114	QXH7+WC4, Badulla, Sri Lanka	1.536024		බදුල්ල	හපුතලේ	MOH කාර්යාලය - හපුතලේ	பதுளை	ஹப்புதலே	MOH அலுவலகம் - ஹப்புத்தளை	QXH7+WC4, බදුල්ල, ශ්‍රී ලංකාව	QXH7+WC4, பதுளை, இலங்கை
Galle	Elpitiya	MOH Office – Elpitiya	False	False	GLLLPTYMHFFCLPTY		Galle	LK-31	6.222805	80.251977	Elpitiya	PS-310235	6.279163	80.142917	6.295308	80.164521	75W7+4RC, Elpitiya, Sri Lanka	2.98833		ගාල්ල	ඇල්පිටිය	MOH කාර්යාලය - ඇල්පිටිය	காலி	எல்பிட்டிய	MOH அலுவலகம் - எல்பிட்டிய	75W7+4RC, ඇල්පිටිය, ශ්‍රී ලංකාව	75W7+4RC, எல்பிட்டிய, இலங்கை
Galle	Morawaka	MOH Office – Morawaka	False	False	GLLMRWKMHFFCMRWK		Galle	LK-31	6.222805	80.251977	Morawaka	PS-320107	6.256777	80.493654	6.243466	80.493022	Deniyaya Road, Kosnilgoda, Morawaka., Sri Lanka	1.482228		ගාල්ල	මොරවක	MOH කාර්යාලය - මොරවක	காலி	மொரவாகா	MOH அலுவலகம் - மொரவாகா	දෙනියාය පාර, කොස්නිල්ගොඩ, මොරවක., ශ්‍රී ලංකාව	தெனியாயா சாலை, கொஸ்னில்கொட, மொரவாகா., இலங்கை
Matara	Deniyaya	MOH Office – Kotapola	False	False	MTRDNYYMHFFCKTPL		Matara	LK-32	6.142734	80.539994	Deniyaya	PS-320110	6.341435	80.558719	6.327334	80.556547	Deniyaya - Galle Main Rd, Deniyaya, Sri Lanka	1.586725		මාතර	දෙනියාය	MOH කාර්යාලය - කොටපොළ	மாத்தறை	தெனியாய	MOH அலுவலகம் - கொட்டபொல	දෙනියාය - ගාල්ල ප්‍රධාන පාර, දෙනියාය, ශ්‍රී ලංකාව	தெனியாயா - காலி மெயின் சாலை, தெனியாயா, இலங்கை
Hambantota	Walasmulla	MOH Office – Walasmulla	False	False	HMBNTTWLSMLLMHFFCWLSMLL		Hambantota	LK-33	6.259779	81.098619	Walasmulla	PS-330151	6.154102	80.698256	6.150889	80.693718	Walasmulla, Sri Lanka	0.616099		හම්බන්තොට	වලස්මුල්ල	MOH කාර්යාලය - වලස්මුල්ල	அம்பாந்தோட்டை	வலஸ்முல்லா	MOH அலுவலகம் - வலஸ்முல்லா	වලස්මුල්ල, ශ්‍රී ලංකාව	வலஸ்முல்லா, இலங்கை
Hambantota	Tangalle	MOH Office – Tangalle	False	False	HMBNTTTNGLLMHFFCTNGLL		Hambantota	LK-33	6.259779	81.098619	Tangalle	PS-330147	6.023954	80.797255	6.02363	80.795742	2QFW+F75, Tangalle, Sri Lanka	0.171198		හම්බන්තොට	තංගල්ල	MOH කාර්යාලය - තංගල්ල	அம்பாந்தோட்டை	தங்காலை	MOH அலுவலகம் - தங்காலை	2QFW+F75, තංගල්ල, ශ්‍රී ලංකාව	2QFW+F75, தங்காலை, இலங்கை
Hambantota	Katuwana	MOH Office – Katuwana	False	False	HMBNTTKTWNMHFFCKTWN		Hambantota	LK-33	6.259779	81.098619	Katuwana	PS-330153	6.269722	80.690963	6.26627	80.693035	7M8V+G63, Katuwana, Sri Lanka	0.447115		හම්බන්තොට	කටුවන	MOH කාර්යාලය - කටුවන	அம்பாந்தோட்டை	கட்டுவானா	MOH அலுவலகம் - கட்டுவானா	7 එම් 8 වී+ජී 63, කටුවන, ශ්‍රී ලංකාව	7M8V+G63, கட்டுவானா, இலங்கை
Hambantota	Angunakolapelessa	MH Office – Angunakolapelessa	False	False	HMBNTTNGNKLPLSSMHFFCNGNKLPLSS		Hambantota	LK-33	6.259779	81.098619	Angunakolapelessa	PS-330150	6.321993	80.844883	6.146942	80.896312	Ranna - Ebilipitiya Rd, Agunukolapelessa, Sri Lanka	20.284309	#CenterFarFromPolice	හම්බන්තොට	අගුණකොලපැලැස්ස	එම්එච් කාර්යාලය - අගුණකොලපැලැස්ස	அம்பாந்தோட்டை	அங்குனகோலபெலெஸ்ஸா	எம்ஹெச் அலுவலகம் - அங்குனகொலபெலஸ்ஸா	රන්න - ඇඹිලිපිටිය පාර, අගුණුකොලපැලැස්ස, ශ්‍රී ලංකාව	ரன்னா - எபிலிப்பிட்டிய சாலை, அகுணுகொலபெலஸ்ஸா, இலங்கை
Hambantota	Beliatta	MOH Office – Beliatta	False	False	HMBNTTBLTTMHFFCBLTT		Hambantota	LK-33	6.259779	81.098619	Beliatta	PS-330152	6.046936	80.735408	6.051828	80.741735	3P2R+PMQ, Hambantota, Sri Lanka	0.886482		හම්බන්තොට	බෙලිඅත්ත	MOH කාර්යාලය - බෙලිඅත්ත	அம்பாந்தோட்டை	பெலியாட்டா	MOH அலுவலகம் - பெலியாட்ட	3P2R+PMQ, හම්බන්තොට, ශ්‍රී ලංකාව	3P2R+PMQ, ஹம்பாந்தோட்டை, இலங்கை
Rathnapura	Balangoda	Buddha Jayanthi Vidyalaya	False	False	RTHNPRBLNGDBDDHJYNTHVDYLY		Ratnapura	LK-91	6.586826	80.566158	Balangoda	PS-910103	6.649474	80.700276	6.655127	80.700689	MP42+374, Balangoda, Sri Lanka	0.630436		රත්නපුර	බලන්ගොඩ	බුද්ධ ජයන්ති විද්‍යාලය	இரத்தினபுரி	பலாங்கொடை	புத்த ஜெயந்தி வித்யாலயா	MP42+374, බලංගොඩ, ශ්‍රී ලංකාව	MP42+374, பலாங்கோடா, இலங்கை
Rathnapura	Opanayaka	MOH Office – Opanayaka	False	False	RTHNPRPNYKMHFFCPNYK		Ratnapura	LK-91	6.586826	80.566158	Opanayaka	PS-910104	6.608519	80.619285	6.609517	80.620516	Colombo - Ratnapura - Wellawaya - Batticaloa Rd, Opanayake, Sri Lanka	0.175563		රත්නපුර	ඕපනායක	MOH කාර්යාලය - ඕපනායක	இரத்தினபுரி	ஓபநாயக்கா	MOH அலுவலகம் - ஓபநாயக்கா	කොළඹ - රත්නපුර - වැල්ලවාය - මඩකලපුව පාර, ඕපනායක, ශ්‍රී ලංකාව	கொழும்பு - இரத்தினபுரி - வெள்ளவாய - மட்டக்களப்பு வீதி, ஓபநாயக்க, இலங்கை
Rathnapura	Kolonna	MOH Office - Kolonna	False	False	RTHNPRKLNNMHFFCKLNN		Ratnapura	LK-91	6.586826	80.566158	Kolonna	PS-910235	6.40194	80.687615	6.406211	80.691442	Main St, Sri Lanka	0.636106		රත්නපුර	කොළොන්න	MOH කාර්යාලය - කොළොන්න	இரத்தினபுரி	கொலோன்னா	MOH அலுவலகம் - கொலொன்னா	ප්‍රධාන ශාන්ත, ශ්‍රී ලංකාව	பிரதான செயின்ட், இலங்கை
Rathnapura	Kuruwita	Kuruwita Central College	False	False	RTHNPRKRWTKRWTCNTRLCLLG		Ratnapura	LK-91	6.586826	80.566158	Kuruwita	PS-910112	6.778839	80.364712	6.781492	80.362037	A4, Ratnapura 70500, Sri Lanka	0.417583		රත්නපුර	කුරුවිට	කුරුවිට මධ්‍ය මහා විද්‍යාලය	இரத்தினபுரி	குருவிடா	குருவிட மத்திய கல்லூரி	ඒ 4, රත්නපුර 70500, ශ්‍රී ලංකාව	A4, இரத்தினபுரா 70500, இலங்கை
Rathnapura	Kuruwita	Gangarama Viharaya	False	False	RTHNPRKRWTGNGRMVHRY		Ratnapura	LK-91	6.586826	80.566158	Kuruwita	PS-910112	6.778839	80.364712	6.77558	80.35651	Q9G4+6JJ, Kuruwita, Sri Lanka	0.975765		රත්නපුර	කුරුවිට	ගංගාරාම විහාරය	இரத்தினபுரி	குருவிடா	கங்காராம விகாரை	Q9G4+6JJ, කුරුවිට, ශ්‍රී ලංකාව	Q9G4+6JJ, குருவிட, இலங்கை
Rathnapura	Kuruwita	Pahalagama Buddhist College	False	False	RTHNPRKRWTPHLGMBDDHSTCLLG		Ratnapura	LK-91	6.586826	80.566158	Kuruwita	PS-910112	6.778839	80.364712	6.763389	80.308389	E, Mudunkotuwa E Rd, Sri Lanka	6.454095		රත්නපුර	කුරුවිට	පහළගම බෞද්ධ විද්‍යාලය	இரத்தினபுரி	குருவிடா	பஹலகம புத்த கல்லூரி	ඊ, මුදුන්කොටුව ඊ පාර, ශ්‍රී ලංකාව	ஈ, முடுங்கொட்டுவ இ ஆர் டி, இலங்கை
Rathnapura	Kiriella	Rahula Vidyalaya	False	False	RTHNPRKRLLRHLVDYLY		Ratnapura	LK-91	6.586826	80.566158	Kiriella	PS-910114	6.735338	80.276481	6.726152	80.332768	Millakade Dodampe, Ratnapura - Horana - Panadura Hwy, Millakade, Sri Lanka	6.301038		රත්නපුර	කිරිඇල්ල	රාහුල විද්‍යාලය	இரத்தினபுரி	கிரியெல்லா	ராகுல வித்யாலயா	මිල්ලකඩේ දොඩම්පේ, රත්නපුර - හොරණ - පානදුර හ්වි, මිල්ලකඩේ, ශ්‍රී ලංකාව	மில்லக்கடே தோடம்பே, இரத்தினபுரி - ஹொரணை - பாணாதுரா ஹ்வி, மில்லக்கடே, இலங்கை
Rathnapura	Kiriella	Handunkanda Community Hall	False	False	RTHNPRKRLLHNDNKNDCMMNTYHLL		Ratnapura	LK-91	6.586826	80.566158	Kiriella	PS-910114	6.735338	80.276481	6.74486	80.248221	Kiriella, Hadunkanda Rd, Sri Lanka	3.296412		රත්නපුර	කිරිඇල්ල	හඳුන්කන්ද ප්‍රජා ශාලාව	இரத்தினபுரி	கிரியெல்லா	ஹந்துன்கந்தா சமுதாயக் கூடம்	කිරිඇල්ල, හදුන්කන්ද පාර, ශ්‍රී ලංකාව	கிரியெல்லா, ஹடுங்கண்டா சாலை, இலங்கை
Rathnapura	Kiriella	Dethabadakanda Viharaya	False	False	RTHNPRKRLLDTHBDKNDVHRY		Ratnapura	LK-91	6.586826	80.566158	Kiriella	PS-910114	6.735338	80.276481	6.749772	80.26278	Rajamaha Wihara Mawatha, Kiriella, Ratnapura, Sri Lanka	2.206364		රත්නපුර	කිරිඇල්ල	දේතාබඩකන්ද විහාරය	இரத்தினபுரி	கிரியெல்லா	தேதாபடகண்டா விஹாராயா	රජමහා විහාර මාවත, කිරිඇල්ල, රත්නපුර, ශ්‍රී ලංකාව	ராஜமஹா விஹார மாவத்தை, கிரியெல்ல, இரத்தினபுரி, இலங்கை
Rathnapura	Kiriella	Pahala Galathura Vidyalaya	False	False	RTHNPRKRLLPHLGLTHRVDYLY		Ratnapura	LK-91	6.586826	80.566158	Kiriella	PS-910114	6.735338	80.276481	6.714894	80.288574	Mada galathura, Sri Lanka	2.637325		රත්නපුර	කිරිඇල්ල	පහළ ගලතුර විද්‍යාලය	இரத்தினபுரி	கிரியெல்லா	பஹல கலதுரா வித்யாலயா	මඩ ගලතුර, ශ්‍රී ලංකාව	மட கலாதுரா, இலங்கை
Rathnapura	Kahawatta	Weladura Tea Factory	False	False	RTHNPRKHWTTWLDRTFCTRY		Ratnapura	LK-91	6.586826	80.566158	Kahawatta	PS-910107	6.591434	80.56893	6.582051	80.567744	Watapotha - Kahawatta Road, Kahawatta, Sri Lanka	1.051865		රත්නපුර	කහවත්ත	වේලාදුර තේ කර්මාන්ත ශාලාව	இரத்தினபுரி	கஹவத்த	வேலதுரா தேயிலை தொழிற்சாலை	වටපොත - කහවත්ත පාර, කහවත්ත, ශ්‍රී ලංකාව	வாதபோத - கஹவத்த வீதி, கஹவத்த, இலங்கை
Rathnapura	Kahawatta	Nawalakanda Tea Factory	False	False	RTHNPRKHWTTNWLKNDTFCTRY		Ratnapura	LK-91	6.586826	80.566158	Kahawatta	PS-910107	6.591434	80.56893	6.536555	80.537092	Manandola - Endana Rd, Sri Lanka	7.045439		රත්නපුර	කහවත්ත	නාවලකන්ද තේ කර්මාන්ත ශාලාව	இரத்தினபுரி	கஹவத்த	நாவலகண்ட தேயிலை தொழிற்சாலை	මනන්දොල - එන්දන පාර, ශ්‍රී ලංකාව	மனந்தோலா - எண்டனா சாலை, இலங்கை
Rathnapura	Kahawatta	Endawa Tea Factory	False	False	RTHNPRKHWTTNDWTFCTRY		Ratnapura	LK-91	6.586826	80.566158	Kahawatta	PS-910107	6.591434	80.56893	6.523796	80.534012	Kahawatta - Samarkanda Rd, Sri Lanka	8.455124		රත්නපුර	කහවත්ත	එන්ඩාවා තේ කර්මාන්ත ශාලාව	இரத்தினபுரி	கஹவத்த	எண்டவா தேயிலை தொழிற்சாலை	කහවත්ත - සමර්කන්ද පාර, ශ්‍රී ලංකාව	கஹவத்த - சமர்கந்தா சாலை, இலங்கை
Rathnapura	Kahawatta	Doralawitiya Tea Factory	False	False	RTHNPRKHWTTDRLWTYTFCTRY		Ratnapura	LK-91	6.586826	80.566158	Kahawatta	PS-910107	6.591434	80.56893	6.733511	80.383412	Hidellana, Ratnapura 70012, Sri Lanka	25.880844	#CenterFarFromPolice	රත්නපුර	කහවත්ත	දොරලවිටිය තේ කම්හල	இரத்தினபுரி	கஹவத்த	டோரலவிட்டியா தேயிலை தொழிற்சாலை	හිදැල්ලන, රත්නපුර 70012, ශ්‍රී ලංකාව	ஹிடெல்லானா, இரத்தினபுரா 70012, இலங்கை
Rathnapura	Kahawatta	Coperative Tea Factory	False	False	RTHNPRKHWTTCPRTVTFCTRY		Ratnapura	LK-91	6.586826	80.566158	Kahawatta	PS-910107	6.591434	80.56893	6.523796	80.534012	Kahawatta - Samarkanda Rd, Sri Lanka	8.455124		රත්නපුර	කහවත්ත	සමූපකාර තේ කම්හල	இரத்தினபுரி	கஹவத்த	கூட்டுறவு தேயிலை தொழிற்சாலை	කහවත්ත - සමර්කන්ද පාර, ශ්‍රී ලංකාව	கஹவத்த - சமர்கந்தா சாலை, இலங்கை
Jaffna	Wadukkotte	MOH Office – Karainagar	False	False	JFFNWDKKTTMHFFCKRNGR		Jaffna	LK-41	9.691792	80.098594	Vaddukoddai		9.728886	79.947771	9.725097	79.99772	Sri Lanka, Manipay, Sri Lanka	5.492143		යාපනය	වඩුක්කෝට්ටේ	MOH කාර්යාලය - කරෙයිනගර්	யாழ்	வட்டுக்கோட்டை	MOH அலுவலகம் - காரைநகர்	ශ්‍රී ලංකාව, මනිපායි, ශ්‍රී ලංකාව	இலங்கை, மானிப்பாய், இலங்கை
Jaffna	Kayts	MOH Office – Kayts	False	False	JFFNKYTSMHFFCKYTS		Jaffna	LK-41	9.691792	80.098594	Kayts	PS-410212	9.728654	79.94775	9.697759	79.866366	Sri Lanka, Kayts, Sri Lanka	9.561445		යාපනය	කයිට්ස්	MOH කාර්යාලය - කයිට්ස්	யாழ்	ஊர்காவற்துறையினர்	MOH அலுவலகம் - ஊர்காவற்துறை	ශ්‍රී ලංකාව, කයිට්ස්, ශ්‍රී ලංකාව	இலங்கை, ஊர்காவற்துறை, இலங்கை
Jaffna	Kayts	MOH Office – Velanai	False	False	JFFNKYTSMHFFCVLN		Jaffna	LK-41	9.691792	80.098594	Kayts	PS-410212	9.728654	79.94775	9.636317	79.903777	Chatty vangkalvady road, Velanai, Sri Lanka	11.346015		යාපනය	කයිට්ස්	එම්ඕඑච් කාර්යාලය - වෙලනායි	யாழ்	ஊர்காவற்துறையினர்	MOH அலுவலகம் - வேலணை	චැටි වංගල්වඩි පාර, වෙලනායි, ශ්‍රී ලංකාව	சட்டி வாங்கல்வாடி சாலை, வேலணை, இலங்கை
Jaffna	Thelippalai	MOH Office – Thelippalai	False	False	JFFNTHLPPLMHFFCTHLPPL		Jaffna	LK-41	9.691792	80.098594	Thelippalay	PS-410104	6.933075	79.857181	9.785272	80.032899	Q2PM+452, Tellippalai, Sri Lanka	317.838063	#CenterFarFromPolice	යාපනය	තෙලිප්පලෙයි	MOH කාර්යාලය - තෙලිප්පලෙයි	யாழ்	தெளிப்பளை	MOH அலுவலகம் - தெல்லிப்பழை	Q2PM+452, තෙලිප්පලෙයි, ශ්‍රී ලංකාව	Q2PM+452, தெல்லிப்பழை, இலங்கை
Jaffna	Chavakachcheri	Town Hall – Chavakachcheri	False	False	JFFNCHVKCHCHRTWNHLLCHVKCHCHR		Jaffna	LK-41	9.691792	80.098594	Chawakachcheri	PS-410215	9.666459	80.132384	9.659136	80.160946	M556+M94, Chavakachcheri, Sri Lanka	3.236063		යාපනය	චාවකච්චේරි	නගර ශාලාව - චාවකච්චේරි	யாழ்	சாவகச்சேரி	டவுன் ஹால் - சாவகச்சேரி	එම් 556+එම් 94, චාවකච්චේරි, ශ්‍රී ලංකාව	M556+M94, சாவகச்சேரி, இலங்கை
Jaffna	Manippai	MOH Office – Chankanai	False	False	JFFNMNPPMHFFCCHNKN		Jaffna	LK-41	9.691792	80.098594	Manippai	PS-410210	9.727151	79.996905	9.753617	79.976004	QX3G+CCR, Sri Lanka	3.730425		යාපනය	මනිප්පායි	MOH කාර්යාලය - චංකනායි	யாழ்	மணிப்பை	MOH அலுவலகம் - சங்கனை	QX3G+CCR, ශ්‍රී ලංකාව	QX3G+CCR, இலங்கை
Jaffna	Nelliadi	MOH Office – Karaveddy	False	False	JFFNNLLDMHFFCKRVDDY		Jaffna	LK-41	9.691792	80.098594	Nelliadi	PS-410108	9.778397	80.113303	9.792126	80.201799	Q6R2+VP3, Point Pedro, Sri Lanka	9.819656		යාපනය	නෙල්ලියාඩි	MOH කාර්යාලය - කරවෙඩ්ඩි	யாழ்	நெல்லியடி	MOH அலுவலகம் - கரவெட்டி	Q6R2+VP3, පේදුරුතුඩුව, ශ්‍රී ලංකාව	Q6R2+VP3, பருத்தித்துறை, இலங்கை
Jaffna	Kopay	MOH Office – Kopay	False	False	JFFNKPYMHFFCKPY		Jaffna	LK-41	9.691792	80.098594	Kopai	PS-410216	9.686887	80.03856	9.706729	80.065433	B268, Jaffna, Sri Lanka	3.681313		යාපනය	කෝපායි	MOH කාර්යාලය - කෝපායි	யாழ்	கோப்பாய்	MOH அலுவலகம் - கோப்பாய்	බී 268, යාපනය, ශ්‍රී ලංකාව	பி 268, யாழ்ப்பாணம், இலங்கை
Jaffna	Kopay	MOH Office- Nallur	False	False	JFFNKPYMHFFCNLLR		Jaffna	LK-41	9.691792	80.098594	Kopai	PS-410216	9.686887	80.03856	9.673947	80.027736	M2FH+H3H, Jaffna, Sri Lanka	1.865513		යාපනය	කෝපායි	එම්ඕඑච් කාර්යාලය- නල්ලූර්	யாழ்	கோப்பாய்	MOH அலுவலகம்- நல்லூர்	M2FH+H3H, යාපනය, ශ්‍රී ලංකාව	M2FH+H3H, யாழ்ப்பாணம், இலங்கை
Jaffna	Chunnakam	MOH Office - Uduvil	False	False	JFFNCHNNKMMHFFCDVL		Jaffna	LK-41	9.691792	80.098594	Chunnakam	PS-410211	9.745309	80.029151	9.742938	80.035132	P2VP+53C, Chunnakam, Sri Lanka	0.706719		යාපනය	චුන්නාකම්	MOH කාර්යාලය - උඩුවිල්	யாழ்	சுன்னாகம்	MOH அலுவலகம் - உடுவில்	පී 2 වීපී+53 සී, චුන්නාකම්, ශ්‍රී ලංකාව	P2VP+53C, சுன்னாகம், இலங்கை
Jaffna	Point Pedro	MOH Office - Point Pedro	False	False	JFFNPNTPDRMHFFCPNTPDR		Jaffna	LK-41	9.691792	80.098594	Point Pedro	PS-410106	9.827018	80.233187	9.805763	80.222952	R64F+854, Point Pedro, Sri Lanka	2.616722		යාපනය	පේදුරුතුඩුව	MOH කාර්යාලය - පේදුරුතුඩුව	யாழ்	பருத்தித்துறை	MOH அலுவலகம் - பருத்தித்துறை	ආර් 64 එෆ්+854, පේදුරුතුඩුව, ශ්‍රී ලංකාව	R64F+854, பருத்தித்துறை, இலங்கை
Kilinochchi	Kilinochchi	Army Base Hospital - Kilinochchi	False	False	KLNCHCHKLNCHCHRMYBSHSPTLKLNCHCH		Kilinochchi	LK-45	9.415742	80.30358	Kilinochchi	PS-450131	9.392265	80.407846	9.372728	80.411786	Ananthapuram, A9, Kilinochchi, Sri Lanka	2.215695		කිලිනොච්චි	කිලිනොච්චි	යුද හමුදා මූලික රෝහල - කිලිනොච්චිය	கிளிநொச்சி	கிளிநொச்சி	இராணுவ அடிப்படை மருத்துவமனை - கிளிநொச்சி	අනන්තරපුරම්, ඒ 9, කිලිනොච්චිය, ශ්‍රී ලංකාව	அனந்தபுரம், ஏ 9, கிளிநொச்சி, இலங்கை
Kilinochchi	Pooneryn	MOH Office - Pooneryn	False	False	KLNCHCHPNRYNMHFFCPNRYN		Kilinochchi	LK-45	9.415742	80.30358	Pooneryn		9.505717	80.21101	9.507968	80.208317	G655+58P, Pooneryn, Sri Lanka	0.387256		කිලිනොච්චි	පුනරීන්	MOH කාර්යාලය - පුනරීන්	கிளிநொச்சி	பூனெரின்	MOH அலுவலகம் - பூனெரின்	ජී 655+58 පී, පූනරීන්, ශ්‍රී ලංකාව	G655+58P, பூனெரின், இலங்கை
Kilinochchi	Dharmapuram	MOH Office – Dharmapuram	False	False	KLNCHCHDHRMPRMMHFFCDHRMPRM		Kilinochchi	LK-45	9.415742	80.30358	Dharmapuram	PS-450136	6.873107	79.86167	9.410652	80.523364	CG6F+789, Kilinochchi, Sri Lanka	291.501054	#CenterFarFromPolice	කිලිනොච්චි	ධර්මපුරම්	MOH කාර්යාලය - ධර්මපුරම්	கிளிநொச்சி	தர்மபுரம்	MOH அலுவலகம் - தர்மபுரம்	සීජී 6 එෆ්+789, කිලිනොච්චිය, ශ්‍රී ලංකාව	CG6F+789, கிளிநொச்சி, இலங்கை
Mullaitivu	Oddusuddan	MO Office – Oddusuddan	False	False	MLLTVDDSDDNMFFCDDSDDN		Mullaitivu	LK-44	9.167643	80.549091	Oddusudan	PS-440151	9.160983	80.652821	9.153738	80.646338	Mankulam-Mullaitivu Hwy, Oddusuddan, Sri Lanka	1.075281		මුලතිව්	ඔඩ්ඩුසුඩාන්	MO කාර්යාලය - ඔඩ්ඩුසුඩාන්	முல்லைத்தீவு	ஒட்டுசுட்டான்	MO அலுவலகம் - ஒட்டுசுட்டான்	මාන්කුලම්-මුලතිව් හ්වි, ඔඩ්ඩුසුඩාන්, ශ්‍රී ලංකාව	மாங்குளம்-முல்லைத்தீவு Hwy, ஒட்டுசுட்டான், இலங்கை
Mannar	Adampan	Mobile Vaccination	False	False	MNNRDMPNMBLVCCNTN		Mannar	LK-42	8.877429	80.088628	Adampan		8.939451	80.002055					#CenterLocationUnknown	මන්නාරම	අඩම්පන්	ජංගම එන්නත	மன்னார்	அடம்பன்	மொபைல் தடுப்பூசி		
Mannar	Madu	Kattayadappan Maha Vidyalaya	False	False	MNNRMDKTTYDPPNMHVDYLY		Mannar	LK-42	8.877429	80.088628	Madu	PS-420144	6.914115	79.849048	8.85502	80.202842	Puliyadi Irakkamam, Madhu Road, Madu, Sri Lanka	219.377113	#CenterFarFromPolice	මන්නාරම	මඩු	කට්ටායදප්පන් මහා විද්‍යාලය	மன்னார்	மது	கட்டையடப்பன் மகா வித்தியாலயம்	පුලියඩි ඉරක්කමම්, මඩු පාර, මඩු, ශ්‍රී ලංකාව	புளியடி இறக்காமம், மது சாலை, மடு, இலங்கை
Trincomalee	Muttur	MOH Office – Muttur	False	False	TRNCMLMTTRMHFFCMTTR		Trincomalee	LK-53	8.551241	81.092014	Mutur	PS-530138	8.461133	81.259371	8.453916	81.264494	1 Old Batticaloa Rd, Mutur, Sri Lanka	0.980859		ත්රිකුණාමලය	මුතූර්	MOH කාර්යාලය - මුතූර්	திருகோணமலை	மூதூர்	MOH அலுவலகம் - மூதூர்	1 පරණ මඩකලපුව පාර, මුතූර්, ශ්‍රී ලංකාව	1 பழைய மட்டக்களப்பு வீதி, மூதூர், இலங்கை
Trincomalee	Kinniya	MOH Office – Kuruggankeni	False	False	TRNCMLKNNYMHFFCKRGGNKN		Trincomalee	LK-53	8.551241	81.092014	Kinnia	PS-530140	6.907289	79.863819	8.498696	81.179644	F5XH+FVC, Kinniya 31100, Sri Lanka	228.840304	#CenterFarFromPolice	ත්රිකුණාමලය	කින්නියා	MOH කාර්යාලය - කුරුගන්කේනි	திருகோணமலை	கிண்ணியா	MOH அலுவலகம் - குருக்கன்கேணி	F5XH+FVC, කින්නියා 31100, ශ්‍රී ලංකාව	F5XH+FVC, கிண்ணியா 31100, இலங்கை
Trincomalee	Kinniya	MOH Office – Kinniya	False	False	TRNCMLKNNYMHFFCKNNY		Trincomalee	LK-53	8.551241	81.092014	Kinnia	PS-530140	6.907289	79.863819	8.498696	81.179644	F5XH+FVC, Kinniya 31100, Sri Lanka	228.840304	#CenterFarFromPolice	ත්රිකුණාමලය	කින්නියා	MOH කාර්යාලය - කින්නියා	திருகோணமலை	கிண்ணியா	MOH அலுவலகம் - கிண்ணியா	F5XH+FVC, කින්නියා 31100, ශ්‍රී ලංකාව	F5XH+FVC, கிண்ணியா 31100, இலங்கை
Trincomalee	Sripura	MOH Office – Sripura	False	False	TRNCMLSRPRMHFFCSRPR		Trincomalee	LK-53	8.551241	81.092014	Sripura	PS-530136	8.929617	80.81428	8.926697	80.814799	Padavi Sripura, Padaviya - Sripura Road, Welioya, Sri Lanka	0.329869		ත්රිකුණාමලය	ශ්‍රීපුර	MOH කාර්යාලය - ශ්‍රීපුර	திருகோணமலை	ஸ்ரீபுரா	MOH அலுவலகம் - ஸ்ரீபுரா	පදවි ශ්‍රීපුර, පදවිය - ශ්‍රීපුර පාර, වැලිඔය, ශ්‍රී ලංකාව	படவி ஸ்ரீபுரா, படாவியா - ஸ்ரீபுரா சாலை, வெலிஓயா, இலங்கை
Trincomalee	Kuchchaveli	MOH Office – Kuchchaveli	False	False	TRNCMLKCHCHVLMHFFCKCHCHVL		Trincomalee	LK-53	8.551241	81.092014	Kuchchaweli	PS-530133	8.81895	81.100438	8.740082	81.161616	P5R6+2JQ, Kumpurupiddi, Sri Lanka	11.053646		ත්රිකුණාමලය	කුච්චවේලි	MOH කාර්යාලය - කුච්චවේලි	திருகோணமலை	குச்சவெளி	MOH அலுவலகம் - குச்சவெளி	P5R6+2JQ, කුඹුරුපිඩි, ශ්‍රී ලංකාව	P5R6+2JQ, கும்புறுப்பிடி, இலங்கை
Trincomalee	Kuchchaveli	Divisional Hospital – Kuchchaveli	False	False	TRNCMLKCHCHVLDVSNLHSPTLKCHCHVL		Trincomalee	LK-53	8.551241	81.092014	Kuchchaweli	PS-530133	8.81895	81.100438	8.814795	81.102358	R472+WW9, Kuchchaveli, Sri Lanka	0.508064		ත්රිකුණාමලය	කුච්චවේලි	ප්‍රාදේශීය රෝහල - කුච්චවේලි	திருகோணமலை	குச்சவெளி	பிரதேச மருத்துவமனை - குச்சவெளி	ආර් 472+WW9, කුච්චවේලි, ශ්‍රී ලංකාව	R472+WW9, குச்சவெளி, இலங்கை
Trincomalee	Kuchchaveli	Divisional Hospital – Nilaveli	False	False	TRNCMLKCHCHVLDVSNLHSPTLNLVL		Trincomalee	LK-53	8.551241	81.092014	Kuchchaweli	PS-530133	8.81895	81.100438	8.681035	81.193632	M5JV+CF6, Nilaveli, Sri Lanka	18.44695		ත්රිකුණාමලය	කුච්චවේලි	ප්‍රාදේශීය රෝහල - නිලාවේලි	திருகோணமலை	குச்சவெளி	பிரதேச மருத்துவமனை - நிலாவெளி	M5JV+CF6, නිලාවේලි, ශ්‍රී ලංකාව	M5JV+CF6, நிலவேலி, இலங்கை
Trincomalee	Pulmoddai	Pulmoddai Base Hospital	False	False	TRNCMLPLMDDPLMDDBSHSPTL	Base Hospital - Pulmoddai	Trincomalee	LK-53	8.551241	81.092014	Pulmudai	PS-530135	6.915266	79.87829	8.941204	80.983139	WXRM+F7J, Pulmoddai, Sri Lanka	256.112801	#CenterFarFromPolice	ත්රිකුණාමලය	පුල්මොඩෙයි	මූලික රෝහල - පුල්මොඩෙයි	திருகோணமலை	புல்மோட்டை	அடிப்படை மருத்துவமனை - புல்மோட்டை	ඩබ්ලිව්එක්ස්ආර්එම්+එෆ් 7 ජේ, පුල්මොඩෙයි, ශ්‍රී ලංකාව	WXRM+F7J, புல்மோடை, இலங்கை
Trincomalee	Ichchalampattu	MOH Office – Ichchalampattu	False	False	TRNCMLCHCHLMPTTMHFFCCHCHLMPTT		Trincomalee	LK-53	8.551241	81.092014	Ichchalampattu		8.289549	81.359002	6.788131	79.883651	Station Road, Rawathawaththa, Moratuwa, Lunawa Station Rd, Moratuwa 10400, Sri Lanka	233.14046	#CenterFarFromPolice	ත්රිකුණාමලය	ඉච්චලම්පත්තු	MOH කාර්යාලය - ඉච්චලම්පත්තු	திருகோணமலை	இச்சலம்பட்டு	MOH அலுவலகம் - ஈச்சலாம்பட்டு	ස්ටේෂන් පාර, රාවාවත්ත, මොරටුව, ලූනාව දුම්රිය ස්ථානය, මොරටුව 10400, ශ්‍රී ලංකාව	ஸ்டேஷன் சாலை, ரவதவத்த, மொரட்டுவா, லுனாவா ஸ்டேஷன் சாலை, மொரட்டுவா 10400, இலங்கை
Trincomalee	Serunuwara	MOH Office – Serunuwara	False	False	TRNCMLSRNWRMHFFCSRNWR		Trincomalee	LK-53	8.551241	81.092014	Serunuwara	PS-530244	8.321863	81.299322	8.323143	81.299894	B10, Sri Lanka	0.155671		ත්රිකුණාමලය	සේරුනුවර	MOH කාර්යාලය - සේරුනුවර	திருகோணமலை	சேருநுவரா	MOH அலுவலகம் - சேருநுவரா	බී 10, ශ්‍රී ලංකාව	பி 10, இலங்கை
Batticaloa	Kokkadichcholai	Mahaladithivu Hospital	False	False	BTTCLKKKDCHCHLMHLDTHVHSPTL		Batticaloa	LK-51	7.792772	81.486513	Kokkadicholai	PS-510112	7.715979	81.698757	7.623207	81.718327	Muthalaikudah Kanchirankudah Rd, Sri Lanka	10.542105		මඩකලපුව	කොක්කඩිච්චෝලේ	මහලදිතිව් රෝහල	மட்டக்களப்பு	கொக்கட்டிச்சோலை	மகாலடித்தீவு மருத்துவமனை	මුතලෙයිකුඩා කාංචිරන්කුඩා පාර, ශ්‍රී ලංකාව	முத்தலைக்கூடா காஞ்சிரங்குடா சாலை, இலங்கை
Batticaloa	Kaluwanchikudy	MOH Office - Kaluwanchikudy	False	False	BTTCLKLWNCHKDYMHFFCKLWNCHKDY	Medical Officer of Health Kaluwanchikudy	Batticaloa	LK-51	7.792772	81.486513	Kalawanchikudy	PS-510110	7.515908	81.787051	7.509333	81.79204	Colombo - Batticaloa Hwy, Kaluwanchikudy, Sri Lanka	0.915167		මඩකලපුව	කළුවන්චිකුඩි	කළුවන්චිකුඩි සෞඛ්‍ය වෛද්‍ය නිලධාරී	மட்டக்களப்பு	களுவாஞ்சிக்குடி	சுகாதார மருத்துவ அதிகாரி களுவாஞ்சிக்குடி	කොළඹ - මඩකලපුව හ්වි, කලුවාංචිකුඩි, ශ්‍රී ලංකාව	கொழும்பு - மட்டக்களப்பு Hwy, களுவாஞ்சிக்குடி, இலங்கை
Batticaloa	Valachchenai	MOH Office - Valachchenai	False	False	BTTCLVLCHCHNMHFFCVLCHCHN		Batticaloa	LK-51	7.792772	81.486513	Valachchanai	PS-510107	7.908015	81.533004	7.912281	81.532775	WG6M+W46, Batticaloa, Sri Lanka	0.475177		මඩකලපුව	වාලච්චේන	MOH කාර්යාලය - වාලච්චේන	மட்டக்களப்பு	வாலாச்சேனை	MOH அலுவலகம் - வாலாச்சேனை	WG6M+W46, මඩකලපුව, ශ්‍රී ලංකාව	WG6M+W46, மட்டக்களப்பு, இலங்கை
Batticaloa	Valachchenai	MOH Office – Oddamavadi	False	False	BTTCLVLCHCHNMHFFCDDMVD		Batticaloa	LK-51	7.792772	81.486513	Valachchanai	PS-510107	7.908015	81.533004	7.912281	81.532775	WG6M+W46, Batticaloa, Sri Lanka	0.475177		මඩකලපුව	වාලච්චේන	එම්ඕඑච් කාර්යාලය - ඔද්දමවඩි	மட்டக்களப்பு	வாலாச்சேனை	MOH அலுவலகம் - ஓட்டமாவடி	WG6M+W46, මඩකලපුව, ශ්‍රී ලංකාව	WG6M+W46, மட்டக்களப்பு, இலங்கை
Batticaloa	Valachchenai	MOH Office – Nawaladi	False	False	BTTCLVLCHCHNMHFFCNWLD		Batticaloa	LK-51	7.792772	81.486513	Valachchanai	PS-510107	7.908015	81.533004	6.862775	79.901065	Delakada Plaza, Delkada, Nugegoda, Sri Lanka	214.291922	#CenterFarFromPolice	මඩකලපුව	වාලච්චේන	MOH කාර්යාලය - නාවලඩි	மட்டக்களப்பு	வாலாச்சேனை	MOH அலுவலகம் - நாவலடி	දෙලකද ප්ලාසා, දෙල්කඩ, නුගේගොඩ, ශ්‍රී ලංකාව	தெலகடா பிளாசா, தெல்கடா, நுகேகொட, இலங்கை
Batticaloa	Valachchenai	Valachchenai Base Hospital	False	False	BTTCLVLCHCHNVLCHCHNBSHSPTL		Batticaloa	LK-51	7.792772	81.486513	Valachchanai	PS-510107	7.908015	81.533004	7.911315	81.533046	Valaichchenai-Nasuvantivu-Navaladi Road, Sri Lanka	0.367088		මඩකලපුව	වාලච්චේන	වාලච්චේන මූලික රෝහල	மட்டக்களப்பு	வாலாச்சேனை	வாலாச்சேனை ஆதார மருத்துவமனை	වාලච්චේනයි-නසුවන්ටිව්-නවාලාඩි පාර, ශ්‍රී ලංකාව	வாழைச்சேனை-நசுவந்திவு-நாவலடி சாலை, இலங்கை
Batticaloa	Vakarai	MOH Office – Vakarai	False	False	BTTCLVKRMHFFCVKR		Batticaloa	LK-51	7.792772	81.486513	Wakarai	PS-510109	6.934132	79.856305	7.215486	80.013606	6287+5CX, Divulapitiya, Sri Lanka	35.7891	#CenterFarFromPolice	මඩකලපුව	වාකරේ	MOH කාර්යාලය - වාකරේ	மட்டக்களப்பு	வாகரை	MOH அலுவலகம் - வாகரை	6287+5CX, දිවුලපිටිය, ශ්‍රී ලංකාව	6287+5CX, திவுலபிட்டிய, இலங்கை
Batticaloa	Kaluwanchikudy	MOH Office – Kaluwanchikudy	False	False	BTTCLKLWNCHKDYMHFFCKLWNCHKDY	Medical Officer of Health Kaluwanchikudy	Batticaloa	LK-51	7.792772	81.486513	Kalawanchikudy	PS-510110	7.515908	81.787051	7.509333	81.79204	Colombo - Batticaloa Hwy, Kaluwanchikudy, Sri Lanka	0.915167		මඩකලපුව	කළුවන්චිකුඩි	කළුවන්චිකුඩි සෞඛ්‍ය වෛද්‍ය නිලධාරී	மட்டக்களப்பு	களுவாஞ்சிக்குடி	சுகாதார மருத்துவ அதிகாரி களுவாஞ்சிக்குடி	කොළඹ - මඩකලපුව හ්වි, කලුවාංචිකුඩි, ශ්‍රී ලංකාව	கொழும்பு - மட்டக்களப்பு Hwy, களுவாஞ்சிக்குடி, இலங்கை
Batticaloa	Vavunathivu	MOH Office – Vavunathivu	False	False	BTTCLVVNTHVMHFFCVVNTHV		Batticaloa	LK-51	7.792772	81.486513	Vavunathive	PS-510102	6.933075	79.857181	7.708253	81.691368	Hospital Rd, Batticaloa, Sri Lanka	219.95575	#CenterFarFromPolice	මඩකලපුව	වවුනතිව්	MOH කාර්යාලය - වවුනතිව්	மட்டக்களப்பு	வவுணதீவு	MOH அலுவலகம் - வவுணதீவு	රෝහල පාර, මඩකලපුව, ශ්‍රී ලංකාව	மருத்துவமனை சாலை, மட்டக்களப்பு, இலங்கை
Batticaloa	Eravur	Sandiveli Hospital	False	False	BTTCLRVRSNDVLHSPTL		Batticaloa	LK-51	7.792772	81.486513	Eravur	PS-510104	7.715979	81.698757	7.777289	81.602853	Trincomalee Hwy, Eravur, Sri Lanka	12.578998		මඩකලපුව	එරාවුර්	සඳිවේලි රෝහල	மட்டக்களப்பு	ஏறாவூர்	சண்டிவேலி மருத்துவமனை	ත්‍රිකුණාමලය හ්වි, එරාවුර්, ශ්‍රී ලංකාව	திருகோணமலை Hwy, ஏறாவூர், இலங்கை
Batticaloa	Eravur	MOH Office – Eravur	False	False	BTTCLRVRMHFFCRVR		Batticaloa	LK-51	7.792772	81.486513	Eravur	PS-510104	7.715979	81.698757	7.783664	81.605626	QJM4+F76, Eravur, Sri Lanka	12.729342		මඩකලපුව	එරාවුර්	MOH කාර්යාලය - එරාවුර්	மட்டக்களப்பு	ஏறாவூர்	MOH அலுவலகம் - ஏறாவூர்	QJM4+F76, එරාවුර්, ශ්‍රී ලංකාව	QJM4+F76, ஏறாவூர், இலங்கை
Batticaloa	Eravur	MOH Office – Chenkaladi	False	False	BTTCLRVRMHFFCCHNKLD		Batticaloa	LK-51	7.792772	81.486513	Eravur	PS-510104	7.715979	81.698757	7.783599	81.593367	Trincomalee Hwy, Chenkaladi 30350, Sri Lanka	13.837876		මඩකලපුව	එරාවුර්	MOH කාර්යාලය - චෙන්කලාඩි	மட்டக்களப்பு	ஏறாவூர்	MOH அலுவலகம் - செங்கலடி	ත්‍රිකුණාමලය හ්වි, චෙන්කලාඩි 30350, ශ්‍රී ලංකාව	திருகோணமலை Hwy, செங்கலடி 30350, இலங்கை
Ampara	Kalmunai	MOH Office - Kalmunai North	False	False	MPRKLMNMHFFCKLMNNRTH		Ampara	LK-52	7.23699	81.550391	Kalmunai	PS-520123	7.414289	81.825006	7.411712	81.838462	CR6Q+M9P, Kalmunai 32300, Sri Lanka	1.511625		අම්පාර	කල්මුණේ	MOH කාර්යාලය - කල්මුණේ උතුර	அம்பாறை	கல்முனை	MOH அலுவலகம் - கல்முனை வடக்கு	CR6Q+M9P, කල්මුණේ 32300, ශ්‍රී ලංකාව	CR6Q+M9P, கல்முனை 32300, இலங்கை
Ampara	Karaitivu	MOH Office – Karaitivu	False	False	MPRKRTVMHFFCKRTV		Ampara	LK-52	7.23699	81.550391	Karaitivu		9.744059	79.870587	7.377712	81.838796	Colombo-Ratnapura-Wellawaya-Batticaloa Highway, Karativu 32250, Sri Lanka	340.788666	#CenterFarFromPolice	අම්පාර	කාරතිව්	MOH කාර්යාලය - කරෙයිතිව්	அம்பாறை	காரைதீவு	MOH அலுவலகம் - காரைதீவு	කොළඹ-රත්නපුර-වැල්ලවාය-මඩකලපුව අධිවේගී මාර්ගය, කරතිවු 32250, ශ්‍රී ලංකාව	கொழும்பு-இரத்தினபுரி-வெள்ளவாயா-மட்டக்களப்பு நெடுஞ்சாலை, காரடிவு 32250, இலங்கை
