district	police	center	dose1	dose2	fuzzy_key	alt_name	district_name_norm	district_id	district_lat	district_lng	ps_name_norm	ps_id	ps_lat	ps_lng	lat	lng	formatted_address	dis_center_to_police	tags
Colombo	Thalangama	MOH Office  – Battaramulla	False	False	CLMBTHLNGMMHFFCBTTRMLL		Colombo	LK-11	6.869636	80.019598	Thalangama	PS-110466	6.91089	79.929325	6.901538	79.919128	WW29+JM6, Battaramulla 10120, Sri Lanka	1.532936	
Colombo	Thalangama	Diyatha Uyana	False	False	CLMBTHLNGMDYTHYN		Colombo	LK-11	6.869636	80.019598	Thalangama	PS-110466	6.91089	79.929325	6.904575	79.909831	Diyatha Uyana, B240, Sri Jayawardenepura Kotte, Sri Lanka	2.264281	
Colombo	Homagama	Panagoda Bodhirajarama  Viharaya	False	False	CLMBHMGMPNGDBDHRJRMVHRY		Colombo	LK-11	6.869636	80.019598	Homagama	PS-110470	6.836155	80.003474	6.845614	80.018023	Colombo Rd, Homagama, Sri Lanka	1.920585	
Colombo	Padukka	Siri Piyarathana Primary School	False	False	CLMBPDKKSRPYRTHNPRMRYSCHL		Colombo	LK-11	6.869636	80.019598	Padukka	PS-110473	6.842195	80.09247	6.838859	80.088899	Padukka Rd, Padukka, Sri Lanka	0.541497	
Colombo	Mirihana	MOH Office  – Beddagana	False	False	CLMBMRHNMHFFCBDDGN		Colombo	LK-11	6.869636	80.019598	Mirihana	PS-110462	6.873714	79.901724	6.885731	79.908328	Baddagana Rd, Sri Jayawardenepura Kotte 10100, Sri Lanka	1.522652	
Colombo	Boralesgamuwa	Kotelawala  Defence  Hospital	False	False	CLMBBRLSGMWKTLWLDFNCHSPTL		Colombo	LK-11	6.869636	80.019598	Boralesgamuwa	PS-110464	6.841331	79.901255	6.82518	79.907167	RWG4+3VF, Boralesgamuwa, Sri Lanka	1.911444	
Colombo	Dehiwala	MOH Office  – Dehiwala	False	False	CLMBDHWLMHFFCDHWL		Colombo	LK-11	6.869636	80.019598	Dehiwala	PS-110580	6.850088	79.871696	6.861346	79.865943	VV68+G9P, Dehiwala-Mount Lavinia, Sri Lanka	1.404177	
Colombo	Dehiwala	Mihindu Mawatha Maternity Clinic	False	False	CLMBDHWLMHNDMWTHMTRNTYCLNC		Colombo	LK-11	6.869636	80.019598	Dehiwala	PS-110580	6.850088	79.871696	6.845892	79.868035	RVW9+963, Dehiwala-Mount Lavinia, Sri Lanka	0.617489	
Colombo	Grandpass	Fouzi Maternity Clinic	False	False	CLMBGRNDPSSFZMTRNTYCLNC		Colombo	LK-11	6.869636	80.019598	Grandpass	PS-110215	6.949052	79.872983	6.967647	79.870269	Hubert Pl, Colombo, Sri Lanka	2.089913	
Colombo	Foreshore	MOH Office  - Jinthupitiya	False	False	CLMBFRSHRMHFFCJNTHPTY		Colombo	LK-11	6.869636	80.019598	Fore shore	PS-110210	6.949589	79.857355	6.943258	79.859238	No.27 Vivekananda Hill, Colombo 01300, Sri Lanka	0.734247	
Colombo	Mulleriyawa	MOH Office  - Gothatuwa	False	False	CLMBMLLRYWMHFFCGTHTW		Colombo	LK-11	6.869636	80.019598	Mulleriyawa	PS-110469	6.927187	79.929108	6.922088	79.916237	Mandavila Rd, Kotikawatta, Sri Lanka	1.530186	
Colombo	Wellampitiya	MOH Office  – Kolonnawa	False	False	CLMBWLLMPTYMHFFCKLNNW		Colombo	LK-11	6.869636	80.019598	Wellampitiya	PS-110465	6.937514	79.896298	6.922088	79.916237	Mandavila Rd, Kotikawatta, Sri Lanka	2.791266	
Colombo	Kaduwela	MOH Office  – Kaduwela	False	False	CLMBKDWLMHFFCKDWL		Colombo	LK-11	6.869636	80.019598	Kaduwela		6.936234	79.970183	6.934127	79.984398	B263, Kaduwela, Sri Lanka	1.586964	
Colombo	Maradana	National Hospital - Colombo	False	False	CLMBMRDNNTNLHSPTLCLMB		Colombo	LK-11	6.869636	80.019598	Maradana	PS-110107	6.927939	79.865471	6.918743	79.868992	Colombo 00700, Sri Lanka	1.094265	
Colombo	Kosgama	Kosgama Hospital	False	False	CLMBKSGMKSGMHSPTL		Colombo	LK-11	6.869636	80.019598	Kosgama	PS-920227	6.946597	80.137869	6.940956	80.124888	Salawa-Akarawita, 10730, Sri Lanka	1.564606	
Gampaha	Minuwangoda	Maternity Clinic Minuwangoda	False	False	GMPHMNWNGDMTRNTYCLNCMNWNGD		Gampaha	LK-12	7.123598	80.018508	Minuwangoda	PS-120238	7.174215	79.957874	7.148928	79.939304	Uggalboda Rd, Paththanduwana, Sri Lanka	3.480121	
Gampaha	Nittambuwa	MOH Office  - Aththanagalla	False	False	GMPHNTTMBWMHFFCTHTHNGLL		Gampaha	LK-12	7.123598	80.018508	Nittambuwa	PS-120246	7.149726	80.10046	7.154005	80.062741	B445, Veyangoda 11100, Sri Lanka	4.189956	
Gampaha	Gampaha	MOH Office  – Gampaha	False	False	GMPHGMPHMHFFCGMPH		Gampaha	LK-12	7.123598	80.018508	Gampaha	PS-120237	7.087765	80.01228	7.090643	80.002094	Colombo Rd, Gampaha, Sri Lanka	1.16901	
Gampaha	Gampaha	Idigolla Viharaya	False	False	GMPHGMPHDGLLVHRY		Gampaha	LK-12	7.123598	80.018508	Gampaha	PS-120237	7.087765	80.01228	7.091336	80.018613	32R9+GCQ, Gampaha, Sri Lanka	0.804	
Gampaha	Gampaha	Asgiriya Viharaya	False	False	GMPHGMPHSGRYVHRY		Gampaha	LK-12	7.123598	80.018508	Gampaha	PS-120237	7.087765	80.01228	7.110015	79.989902	4X6Q+2X2, Gampaha, Sri Lanka	3.496563	
Gampaha	Gampaha	Udugampola Maligagodella  Viharaya	False	False	GMPHGMPHDGMPLMLGGDLLVHRY		Gampaha	LK-12	7.123598	80.018508	Gampaha	PS-120237	7.087765	80.01228	7.129332	79.982812	Pathaha Road, උඩුගම්පළ 11030, Sri Lanka	5.652928	
Gampaha	Ganemulla	Galahitiyawa Vidyalaya	False	False	GMPHGNMLLGLHTYWVDYLY		Gampaha	LK-12	7.123598	80.018508	Ganemulla	PS-120242	7.066804	79.959751	7.069576	79.953719	Ganemulla-JaEla Road, Ganemulla 11020, Sri Lanka	0.733764	
Gampaha	Kotadeniyawa	Kotadeniyawa  Central Dispensary	False	False	GMPHKTDNYWKTDNYWCNTRLDSPNSRY		Gampaha	LK-12	7.123598	80.018508	Kotadeniyawa	PS-120354	7.283643	80.06649	7.284487	80.063252	B322, Kotadeniyawa, Sri Lanka	0.369384	
Gampaha	Kotadeniyawa	Dunagaha  Central Dispensary	False	False	GMPHKTDNYWDNGHCNTRLDSPNSRY		Gampaha	LK-12	7.123598	80.018508	Kotadeniyawa	PS-120354	7.283643	80.06649	7.284487	80.063252	B322, Kotadeniyawa, Sri Lanka	0.369384	
Gampaha	Kotadeniyawa	Badalgama  Central Dispensary	False	False	GMPHKTDNYWBDLGMCNTRLDSPNSRY		Gampaha	LK-12	7.123598	80.018508	Kotadeniyawa	PS-120354	7.283643	80.06649	7.284487	80.063252	B322, Kotadeniyawa, Sri Lanka	0.369384	
Gampaha	Divulapitiya	MOH Office  – Divulapitiya	False	False	GMPHDVLPTYMHFFCDVLPTY		Gampaha	LK-12	7.123598	80.018508	Diulapitiya	PS-120355	7.174215	79.957874	7.215486	80.013606	6287+5CX, Divulapitiya, Sri Lanka	7.67456	
Gampaha	Divulapitiya	Wekada  Central Dispensary	False	False	GMPHDVLPTYWKDCNTRLDSPNSRY		Gampaha	LK-12	7.123598	80.018508	Diulapitiya	PS-120355	7.174215	79.957874	7.269649	80.013248	7297+V75, Gampaha, Sri Lanka	12.248152	
Gampaha	Katana	Mirigama Halpe Central Dispensary	False	False	GMPHKTNMRGMHLPCNTRLDSPNSRY		Gampaha	LK-12	7.123598	80.018508	Katana	PS-120360	7.224796	79.880015	7.252875	80.103935	Thalakolayaya Halpe Rd, Mirigama, Sri Lanka	24.90468	#CenterFarFromPolice
Gampaha	Pamunugama	Pamunugama Hospital	False	False	GMPHPMNGMPMNGMHSPTL		Gampaha	LK-12	7.123598	80.018508	Pamunugama	PS-120353	7.078892	79.859696	7.093543	79.850191	3VV2+C38, Negombo, Sri Lanka	1.938152	
Gampaha	Seeduwa	MOH Office  – Seeduwa	False	False	GMPHSDWMHFFCSDW		Gampaha	LK-12	7.123598	80.018508	Seeduwa	PS-120356	7.128721	79.877371	7.131527	79.879964	24 Kotugoda Rd, Katunayake 11410, Sri Lanka	0.423459	
Gampaha	Ja Ela	MOH Office  – Ja Ela	False	False	GMPHJLMHFFCJL		Gampaha	LK-12	7.123598	80.018508	Ja - Ela	PS-120133	7.081055	79.890504	7.075216	79.893879	60 Mount Kalvary Rd, Ja-Ela, Sri Lanka	0.748731	
Gampaha	Wattala	MOH Office  – Wattala	False	False	GMPHWTTLMHFFCWTTL		Gampaha	LK-12	7.123598	80.018508	Wattala	PS-120128	6.993713	79.894506	6.996645	79.885441	301 Hendala Rd, Wattala, Sri Lanka	1.05259	
Gampaha	Ragama	MOH Office  – Ragama	False	False	GMPHRGMMHFFCRGM		Gampaha	LK-12	7.123598	80.018508	Ragama	PS-120134	7.034975	79.924148	7.027386	79.920232	2WGC+X35, Ragama, Sri Lanka	0.948382	
Kalutara	Kalutara South	Nagoda Hospital	False	False	KLTRKLTRSTHNGDHSPTL		Kalutara	LK-13	6.577316	80.127363	Kalutara South	PS-130296	6.58486	79.961043	6.563228	79.985261	Kalutara-Matugama Rd, Sri Lanka	3.598706	
Kalutara	Kalutara South	NIHS	False	False	KLTRKLTRSTHNHS		Kalutara	LK-13	6.577316	80.127363	Kalutara South	PS-130296	6.58486	79.961043	6.55864	79.977416	HX5G+FX3, Katukurunda, Sri Lanka	3.432035	
Kalutara	Kalutara South	Lewis Silva Ground	False	False	KLTRKLTRSTHLWSSLVGRND		Kalutara	LK-13	6.577316	80.127363	Kalutara South	PS-130296	6.58486	79.961043	6.581792	79.961936	Kalutara South, Kalutara, Sri Lanka	0.355232	
Kalutara	Kalutara South	Rajawatta  Viharaya	False	False	KLTRKLTRSTHRJWTTVHRY		Kalutara	LK-13	6.577316	80.127363	Kalutara South	PS-130296	6.58486	79.961043	6.586943	79.960167	Galle Rd, Kalutara, Sri Lanka	0.251098	
Kalutara	Bandaragama	MOH Office  - Bandaragama	False	False	KLTRBNDRGMMHFFCBNDRGM		Kalutara	LK-13	6.577316	80.127363	Bandaragama	PS-130189	6.715179	79.987674	6.713351	79.991671	Library Path, Bandaragama, Sri Lanka	0.486104	
Kalutara	Millaniya	MOH Office  – Millaniya	False	False	KLTRMLLNYMHFFCMLLNY		Kalutara	LK-13	6.577316	80.127363	Millaniya	PS-130191	6.681692	80.020847	6.724224	79.907284	A2, Panadura, Sri Lanka	13.407612	
Kalutara	Dodangoda	MOH Office  – Dodangoda	False	False	KLTRDDNGDMHFFCDDNGD	6.540366199937832,80.03661033076219	Kalutara	LK-13	6.577316	80.127363	Dodangoda	PS-130299	6.553375	80.023569	6.541731	80.04335	Dodangoda, Sri Lanka	2.540775	
Kalutara	Dodangoda	Dodangoda  Hospital	False	False	KLTRDDNGDDDNGDHSPTL		Kalutara	LK-13	6.577316	80.127363	Dodangoda	PS-130299	6.553375	80.023569	6.540961	80.036553	Wilpatha Rd, Sri Lanka	1.991373	
Kalutara	Thebuwana	Wellatha Hospital	False	False	KLTRTHBWNWLLTHHSPTL		Kalutara	LK-13	6.577316	80.127363	Thebuwana	PS-1302105	6.654997	80.058183	6.570354	80.073048	wellatha Neboda ., Neboda - Wellatha Rd, Sri Lanka	9.557015	
Kalutara	Wadduwa	Dharmapala  College  Wadduwa	False	False	KLTRWDDWDHRMPLCLLGWDDW		Kalutara	LK-13	6.577316	80.127363	Wadduwa	PS-130188	6.664403	79.929851	6.667863	79.928679	Dharmapala College Wadduwa, Wadduwa, Sri Lanka	0.406052	
Kalutara	Panadura	Base Hospital Panadura	False	False	KLTRPNDRBSHSPTLPNDR		Kalutara	LK-13	6.577316	80.127363	Panadura North		6.756309	79.898939	6.721556	79.906851	A2, Panadura, Sri Lanka	3.963137	
Kalutara	Anguruwatota	MOH Office  – Madurawala	False	False	KLTRNGRWTTMHFFCMDRWL		Kalutara	LK-13	6.577316	80.127363	Anguruwatota	PS-130190	6.654997	80.058183	6.654814	80.057811	M335+W4F, Keselhenawa, Sri Lanka	0.045863	
Kalutara	Agalawatta	Pimbura Hospital	False	False	KLTRGLWTTPMBRHSPTL		Kalutara	LK-13	6.577316	80.127363	Agalawatta		6.542566	80.157178	6.575949	80.158371	H5G5+98H, කළුතර, Sri Lanka	3.715525	
Kalutara	Meegahathenna	MOH Office  - Meegahathenna	False	False	KLTRMGHTHNNMHFFCMGHTHNN		Kalutara	LK-13	6.577316	80.127363	Meegahathenna	PS-1302107	6.436941	80.1943	6.435016	80.198501	B158, Meegahathenna, Sri Lanka	0.511322	
Kalutara	Welipenna	Horawala Navodya Vidylaya	False	False	KLTRWLPNNHRWLNVDYVDYLY		Kalutara	LK-13	6.577316	80.127363	Welipanna	PS-1302101	6.467428	80.108313	6.468199	80.106565	Welipenna, Sri Lanka	0.211371	
Kalutara	Baduraliya	Baduraliya Hospital	False	False	KLTRBDRLYBDRLYHSPTL		Kalutara	LK-13	6.577316	80.127363	Baduraliya	PS-1302106	6.516756	80.226716	6.514727	80.232731	Tiruwanaketiya-Agalawatte Rd, Baduraliya, Sri Lanka	0.702098	
Kalutara	Baduraliya	Hedigalla Colony Maha Vidyalaya	False	False	KLTRBDRLYHDGLLCLNYMHVDYLY		Kalutara	LK-13	6.577316	80.127363	Baduraliya	PS-1302106	6.516756	80.226716	6.514948	80.234482	G67M+XQH, Baduraliya, Sri Lanka	0.881478	
Kalutara	Baduraliya	Hedigalla Vipulananda Primary School	False	False	KLTRBDRLYHDGLLVPLNNDPRMRYSCHL		Kalutara	LK-13	6.577316	80.127363	Baduraliya	PS-1302106	6.516756	80.226716	6.543697	80.23062	Maragahadeniya Rd, Baduraliya 12230, Sri Lanka	3.02754	
Kalutara	Matugama	Weththewa  Hospital	False	False	KLTRMTGMWTHTHWHSPTL		Kalutara	LK-13	6.577316	80.127363	Mathugama	PS-1302103	6.520881	80.117908	7.228063	80.478336	6FHH+68G, කෑගල්ල, Sri Lanka	88.156352	#CenterFarFromPolice
Kalutara	Horana	Base Hospital Horana	False	False	KLTRHRNBSHSPTLHRN		Kalutara	LK-13	6.577316	80.127363	Horana	PS-130192	6.714613	80.069091	6.710644	80.066589	Hospital Ln, Horana, Sri Lanka	0.520853	
Kalutara	Ingiriya	MOH Office  – Ingiriya	False	False	KLTRNGRYMHFFCNGRY		Kalutara	LK-13	6.577316	80.127363	Ingiriya	PS-130193	6.743614	80.175077	6.74328	80.166145	A8, Ingiriya, Sri Lanka	0.987331	
Kalutara	Ingiriya	Ingiriya Hospital	False	False	KLTRNGRYNGRYHSPTL		Kalutara	LK-13	6.577316	80.127363	Ingiriya	PS-130193	6.743614	80.175077	6.741133	80.162046	Panadura-Nambapana-Ratnapura Hwy, Ingiriya, Sri Lanka	1.465626	
Kalutara	Ingiriya	Poruwadanda  Thilakarama Viharaya	False	False	KLTRNGRYPRWDNDTHLKRMVHRY		Kalutara	LK-13	6.577316	80.127363	Ingiriya	PS-130193	6.743614	80.175077	6.734825	80.117154	P4M8+WVC, Poruwadanda, Sri Lanka	6.472503	
Kurunegala	Nikaweratiya	MOH Office  – Nikaweratiya	False	False	KRNGLNKWRTYMHFFCNKWRTY		Kurunegala	LK-61	7.66477	80.23677	Nikaweratiya	PS-610320	7.742612	80.121177	7.7475	80.115183	Nikaweratiya-Heelogama Rd, Nikaweratiya, Sri Lanka	0.855589	
Kurunegala	Peradeniya	Ranabima Royal College	False	False	KRNGLPRDNYRNBMRYLCLLG		Kurunegala	LK-61	7.66477	80.23677	Peradeniya	PS-210110	7.267283	80.601901	7.279039	80.594471	Gannoruwa, Sri Lanka	1.543346	
Kandy	Kadugannawa	Dheerananda  Maha Vidyalaya	False	False	KNDYKDGNNWDHRNNDMHVDYLY		Kandy	LK-21	7.27337	80.709602	Kadugannawa	PS-210112	7.256285	80.516908	7.26826	80.552654	Sri Dheerananda Maha Vidyalaya, Malgammana Rd, Pilimathalawa, Sri Lanka	4.162966	
Monaragala	Thanamalwila	National Youth Corps Bodagama	False	False	MNRGLTHNMLWLNTNLYTHCRPSBDGM		Moneragala	LK-82	6.787517	81.303744	Thanamalwila	PS-820131	6.437696	81.131051	6.43111	81.084733	Thanamalvila Rd, Sri Lanka	5.171527	
Monaragala	Thanamalwila	Wijayapura  Vidyalaya	False	False	MNRGLTHNMLWLWJYPRVDYLY		Moneragala	LK-82	6.787517	81.303744	Thanamalwila	PS-820131	6.437696	81.131051	6.429588	81.012337	B427, Sri Lanka	13.152336	
Monaragala	Dambagalla	Mariarawa  Maha Vidyalaya	False	False	MNRGLDMBGLLMRRWMHVDYLY		Moneragala	LK-82	6.787517	81.303744	Dambagalla	PS-820123	6.978806	81.372037	6.961757	81.371229	X96C+PF5, Dambagalla, Sri Lanka	1.898455	
Monaragala	Dambagalla	Madulla Central College	False	False	MNRGLDMBGLLMDLLCNTRLCLLG		Moneragala	LK-82	6.787517	81.303744	Dambagalla	PS-820123	6.978806	81.372037	6.98417	81.374688	Dambagalla,Monaragala, Sri Lanka	0.66456	
Monaragala	Dambagalla	Polgahagama  Viharaya	False	False	MNRGLDMBGLLPLGHGMVHRY		Moneragala	LK-82	6.787517	81.303744	Dambagalla	PS-820123	6.978806	81.372037	6.979142	81.373075	Mariarawa Rd,Dambagalla, Monaragala, Sri Lanka	0.120541	
Monaragala	Dambagalla	Thampalawela  Sewa Piyasa	False	False	MNRGLDMBGLLTHMPLWLSWPYS		Moneragala	LK-82	6.787517	81.303744	Dambagalla	PS-820123	6.978806	81.372037	6.95	81.366667	Dambagalla, Sri Lanka	3.258481	
Galle	Nagoda	Unanvitiya Rewatha  Vidyalaya	False	False	GLLNGDNNVTYRWTHVDYLY		Galle	LK-31	6.222805	80.251977	Nagoda	PS-310130	6.197616	80.274707	6.162235	80.251505	Nayapamulla - Unanwitiya - Nagoda Rd, Sri Lanka	4.697942	
Galle	Nagoda	Nagoda Royal College	False	False	GLLNGDNGDRYLCLLG		Galle	LK-31	6.222805	80.251977	Nagoda	PS-310130	6.197616	80.274707	6.193905	80.276953	B454, Nagoda, Sri Lanka	0.481733	
Galle	Hiniduma	Panangala Sanasa Bank	False	False	GLLHNDMPNNGLSNSBNK		Galle	LK-31	6.222805	80.251977	Hiniduma	PS-310131	6.329517	80.322442	6.268444	80.324151	Panangala, Sri Lanka	6.795767	
Galle	Karandeniya	Borakanda  Samaraweera  Ground	False	False	GLLKRNDNYBRKNDSMRWRGRND		Galle	LK-31	6.222805	80.251977	Karandeniya	PS-310238	6.271732	80.08479	6.269634	80.10128	Borakanda, Karandeniya, Karandeniya, Sri Lanka	1.83808	
Matara	Dikwella	Wijitha Maha Vidyalaya	False	False	MTRDKWLLWJTHMHVDYLY		Matara	LK-32	6.142734	80.539994	Dikwella	PS-320103	5.964296	80.693198	5.97916	80.699701	XMHX+MV8, Dikwella, Sri Lanka	1.803055	
Matara	Weligama	Siddhartha Vidyalaya	False	False	MTRWLGMSDDHRTHVDYLY		Matara	LK-32	6.142734	80.539994	Weligama	PS-320111	5.973301	80.426455	5.971718	80.422394	XCCC+MXJ, Weligama, Sri Lanka	0.482525	
Matara	Weligama	Kokmaduwa Maha Vidyalaya	False	False	MTRWLGMKKMDWMHVDYLY		Matara	LK-32	6.142734	80.539994	Weligama	PS-320111	5.973301	80.426455	5.987584	80.422596	XCQF+22Q, Weligama, Sri Lanka	1.645052	
Matara	Kotawila	Kotawila Sri Sunandaraa Viharaya	False	False	MTRKTWLKTWLSRSNNDRVHRY		Matara	LK-32	6.142734	80.539994	Kotawila	PS-320115	5.967553	80.493921	5.966937	80.485314	XF8P+Q4G, Kamburugamuwa, Sri Lanka	0.95463	
Matara	Walasmulla	MOH Office  - Walasmulla	False	False	MTRWLSMLLMHFFCWLSMLL		Matara	LK-32	6.142734	80.539994	Walasmulla	PS-330151	6.154102	80.698256	6.150889	80.693718	Walasmulla, Sri Lanka	0.616099	
Matara	Tissamaharama	Pannegamuwa  Royal College	False	False	MTRTSSMHRMPNNGMWRYLCLLG		Matara	LK-32	6.142734	80.539994	Tissamaharamaya	PS-330158	6.26109	81.236724	6.299024	81.236046	76XP+JC3, Hambantota, Sri Lanka	4.220058	
Matara	Weeraketiya	MOH Office  - Weeraketiya	False	False	MTRWRKTYMHFFCWRKTY		Matara	LK-32	6.142734	80.539994	Weeraketiya	PS-330149	6.153899	80.76737	6.144703	80.765287	4QV8+V4M, Weeraketiya, Sri Lanka	1.048488	
Hambantota	Hambantota	MOH Office  - Hambantota	False	False	HMBNTTHMBNTTMHFFCHMBNTT		Hambantota	LK-33	6.259779	81.098619	Hambantota	PS-330156	6.125872	81.12521	6.171162	81.127	54CG+FQ9, Hambantota, Sri Lanka	5.041487	
Hambantota	Katuwana	MOH Office  - Katuwana	False	False	HMBNTTKTWNMHFFCKTWN		Hambantota	LK-33	6.259779	81.098619	Katuwana	PS-330153	6.269722	80.690963	6.267235	80.697498	7M8W+VXX, Katuwana, Sri Lanka	0.773685	
Hambantota	Katuwana	Walgammullala Maha Vidyalaya	False	False	HMBNTTKTWNWLGMMLLLMHVDYLY		Hambantota	LK-33	6.259779	81.098619	Katuwana	PS-330153	6.269722	80.690963	6.238257	80.675865	6MQG+885, Galpotukanda, Sri Lanka	3.877585	
Hambantota	Katuwana	Ambagahahena  Maha Vidyalaya	False	False	HMBNTTKTWNMBGHHNMHVDYLY		Hambantota	LK-33	6.259779	81.098619	Katuwana	PS-330153	6.269722	80.690963	6.240914	80.659223	Sri Lanka	4.75222	
Hambantota	Katuwana	Wathukanada  Maha Vidyalaya	False	False	HMBNTTKTWNWTHKNDMHVDYLY		Hambantota	LK-33	6.259779	81.098619	Katuwana	PS-330153	6.269722	80.690963	6.249382	80.70948	Julampitiya Rd, Katuwana, Sri Lanka	3.051265	
Hambantota	Ambalantota	MOH Office  - Ambalantota	False	False	HMBNTTMBLNTTMHFFCMBLNTT		Hambantota	LK-33	6.259779	81.098619	Ambalantota	PS-330157	6.12516	81.023981	6.122767	81.005973	Walawa watta Road, Malpeththawa, Ambalantota, Sri Lanka	2.009195	
Hambantota	Sooriyawewa	Albuluara Viharaya	False	False	HMBNTTSRYWWLBLRVHRY		Hambantota	LK-33	6.259779	81.098619	Sooriyawewa	PS-330155	6.306022	81.003873	6.246512	81.004663	Madunaagala Forest Monastery, Sooriyawewa, Sri Lanka	6.619864	
Hambantota	Sooriyawewa	Hathporuwa Community Hall	False	False	HMBNTTSRYWWHTHPRWCMMNTYHLL		Hambantota	LK-33	6.259779	81.098619	Sooriyawewa	PS-330155	6.306022	81.003873	6.308418	80.996606	School Rd, Sooriyawewa, Sri Lanka	0.846464	
Hambantota	Beliatta	MOH Office  – Beliatta	False	False	HMBNTTBLTTMHFFCBLTT		Hambantota	LK-33	6.259779	81.098619	Beliatta	PS-330152	6.046936	80.735408	6.051828	80.741735	3P2R+PMQ, Hambantota, Sri Lanka	0.886482	
Hambantota	Tangalle	MOH Office  – Tangalle	False	False	HMBNTTTNGLLMHFFCTNGLL		Hambantota	LK-33	6.259779	81.098619	Tangalle	PS-330147	6.023954	80.797255	6.02363	80.795742	2QFW+F75, Tangalle, Sri Lanka	0.171198	
Hambantota	Samanalawewa	University of Sabaragamuwa	False	False	HMBNTTSMNLWWNVRSTYFSBRGMW		Hambantota	LK-33	6.259779	81.098619									#PoliceLocationUnknown
Hambantota	Kegalle	Town Hall - Kegalle	False	False	HMBNTTKGLLTWNHLLKGLL		Hambantota	LK-33	6.259779	81.098619	Kegalle	PS-920118	7.255928	80.353156	7.251332	80.346375	Kegalle, Sri Lanka	0.906179	
Hambantota	Kegalle	Wewaladeniya  Viharaya	False	False	HMBNTTKGLLWWLDNYVHRY		Hambantota	LK-33	6.259779	81.098619	Kegalle	PS-920118	7.255928	80.353156	7.249123	80.548831	Gadaladeniya, Sri Lanka	21.604029	#CenterFarFromPolice
Hambantota	Kegalle	Hettimulla Nawa Maha Vidyalaya	False	False	HMBNTTKGLLHTTMLLNWMHVDYLY		Hambantota	LK-33	6.259779	81.098619	Kegalle	PS-920118	7.255928	80.353156	7.219906	80.355946	Hettimulla Evunugalle Rd, Kaudugama, Sri Lanka	4.018531	
Jaffna	Waddukkottai	MOH Office  – Chankanai	False	False	JFFNWDDKKTTMHFFCCHNKN		Jaffna	LK-41	9.691792	80.098594									#PoliceLocationUnknown
Jaffna	Kayts	MOH Office  - Velanai	False	False	JFFNKYTSMHFFCVLN		Jaffna	LK-41	9.691792	80.098594	Kayts	PS-410212	9.728654	79.94775	9.636317	79.903777	Chatty vangkalvady road, Velanai, Sri Lanka	11.346015	
Jaffna	Kayts	MOH Office  - Kayts	False	False	JFFNKYTSMHFFCKYTS		Jaffna	LK-41	9.691792	80.098594	Kayts	PS-410212	9.728654	79.94775	9.697759	79.866366	Sri Lanka, Kayts, Sri Lanka	9.561445	
Jaffna	Kayts	MOH Office  - Karainagar	False	False	JFFNKYTSMHFFCKRNGR		Jaffna	LK-41	9.691792	80.098594	Kayts	PS-410212	9.728654	79.94775	9.725097	79.99772	Sri Lanka, Manipay, Sri Lanka	5.492521	
Jaffna	Chavakachcheri	Town Hall - Chavakachcheri	False	False	JFFNCHVKCHCHRTWNHLLCHVKCHCHR		Jaffna	LK-41	9.691792	80.098594	Chawakachcheri	PS-410215	9.666459	80.132384	9.659136	80.160946	M556+M94, Chavakachcheri, Sri Lanka	3.236063	
Kilinochchi	Mulankavil	Mulankavil Hospital	False	False	KLNCHCHMLNKVLMLNKVLHSPTL		Kilinochchi	LK-45	9.415742	80.30358	Mulankavil	PS-450135	9.254463	80.141528	9.243423	80.143894	Base Hospital Mulankavil, A32 Road, Mulankavil, Kumulamunai, Sri Lanka	1.255148	
Kilinochchi	Pooneryn	MOH Office  – Pooneryn	False	False	KLNCHCHPNRYNMHFFCPNRYN		Kilinochchi	LK-45	9.415742	80.30358	Pooneryn		9.505717	80.21101	9.507968	80.208317	G655+58P, Pooneryn, Sri Lanka	0.387256	
Kilinochchi	Kilinochchi	MOH Office  – Karachchi	False	False	KLNCHCHKLNCHCHMHFFCKRCHCH		Kilinochchi	LK-45	9.415742	80.30358	Kilinochchi	PS-450131	9.392265	80.407846	7.683586	81.730767	MPMJ+C8J, Kattankudy, Sri Lanka	239.363691	#CenterFarFromPolice
Kilinochchi	Kilinochchi	MOH Office  - Kandavalai	False	False	KLNCHCHKLNCHCHMHFFCKNDVL		Kilinochchi	LK-45	9.415742	80.30358	Kilinochchi	PS-450131	9.392265	80.407846	9.411006	80.516427	Parantan-Mullaitivu Hwy, Sri Lanka	12.096188	
Kilinochchi	Palei	MOH Office  – Palei	False	False	KLNCHCHPLMHFFCPL		Kilinochchi	LK-45	9.415742	80.30358	Palei	PS-450132	6.900777	79.872638	9.610611	80.328165	Office of the Medical Officer for Health, Pallai Pradwshasaba, A9, Pachchilapalli, Sri Lanka	305.555993	#CenterFarFromPolice
Kilinochchi	Puthukudiyiruppu	Medical Superintendent  of Health Office	False	False	KLNCHCHPTHKDYRPPMDCLSPRNTNDNTFHLTHFFC		Kilinochchi	LK-45	9.415742	80.30358	Pudukuduiruppu	PS-440149	7.00152	79.95003	9.396965	80.407782	Kandy - Jaffna Hwy, Kilinochchi, Sri Lanka	271.168205	#CenterFarFromPolice
Mullaitivu	Oddusuddan	Medical Superintendent  of Health Office	False	False	MLLTVDDSDDNMDCLSPRNTNDNTFHLTHFFC		Mullaitivu	LK-44	9.167643	80.549091	Oddusudan	PS-440151	9.160983	80.652821	9.162942	80.660301	Oddusudan Divisional Hospital, Mankulam-Mullaitivu Highway, Oddusuddan, Northern Province, Oddusuddan, Sri Lanka	0.849796	
Trincomalee	Muttur	MOH Office  – Muttur	False	False	TRNCMLMTTRMHFFCMTTR		Trincomalee	LK-53	8.551241	81.092014	Mutur	PS-530138	8.461133	81.259371	8.453916	81.264494	1 Old Batticaloa Rd, Mutur, Sri Lanka	0.980859	
Trincomalee	Kinniya	MOH Office  – Kinniya	False	False	TRNCMLKNNYMHFFCKNNY		Trincomalee	LK-53	8.551241	81.092014	Kinnia	PS-530140	6.907289	79.863819	8.498696	81.179644	F5XH+FVC, Kinniya 31100, Sri Lanka	228.840304	#CenterFarFromPolice
Trincomalee	Kinniya	Surangal Rural Health Medical Center	False	False	TRNCMLKNNYSRNGLRRLHLTHMDCLCNTR		Trincomalee	LK-53	8.551241	81.092014	Kinnia	PS-530140	6.907289	79.863819	8.47091	81.139893	F4CQ+9X6, Kinniya, Sri Lanka	223.680372	#CenterFarFromPolice
Trincomalee	Sripura	MOH Office  – Sripura	False	False	TRNCMLSRPRMHFFCSRPR		Trincomalee	LK-53	8.551241	81.092014	Sripura	PS-530136	8.929617	80.81428	8.926697	80.814799	Padavi Sripura, Padaviya - Sripura Road, Welioya, Sri Lanka	0.329869	
Trincomalee	Kuchchaveli	MOH Office  - Kuchchaveli	False	False	TRNCMLKCHCHVLMHFFCKCHCHVL		Trincomalee	LK-53	8.551241	81.092014	Kuchchaweli	PS-530133	8.81895	81.100438	8.740082	81.161616	P5R6+2JQ, Kumpurupiddi, Sri Lanka	11.053646	
Trincomalee	Kuchchaveli	Kuchchaveli  Hospital	False	False	TRNCMLKCHCHVLKCHCHVLHSPTL		Trincomalee	LK-53	8.551241	81.092014	Kuchchaweli	PS-530133	8.81895	81.100438	8.814795	81.102358	R472+WW9, Kuchchaveli, Sri Lanka	0.508064	
Trincomalee	Kuchchaveli	Divisional Hospital - Nilaveli	False	False	TRNCMLKCHCHVLDVSNLHSPTLNLVL		Trincomalee	LK-53	8.551241	81.092014	Kuchchaweli	PS-530133	8.81895	81.100438	8.681035	81.193632	M5JV+CF6, Nilaveli, Sri Lanka	18.44695	
Trincomalee	Pulmoddai	MOH Office  - Pulmoddai	False	False	TRNCMLPLMDDMHFFCPLMDD		Trincomalee	LK-53	8.551241	81.092014	Pulmudai	PS-530135	6.915266	79.87829	8.941204	80.983139	WXRM+F7J, Pulmoddai, Sri Lanka	256.112801	#CenterFarFromPolice
Trincomalee	Uppuveli	MOH Office  - Uppuveli	False	False	TRNCMLPPVLMHFFCPPVL		Trincomalee	LK-53	8.551241	81.092014	Uppuweli	PS-530134	8.593614	81.21743	8.607961	81.216512	Nilaveli Rd, Trincomalee, Sri Lanka	1.599005	
Trincomalee	Harbour Police	MOH Office  - Trincomalee	False	False	TRNCMLHRBRPLCMHFFCTRNCML		Trincomalee	LK-53	8.551241	81.092014	Trinco Harbour Police	PS-530131	8.56705	81.231407	8.598974	81.216963	MOH Office, Farm Rd, Trincomalee, Sri Lanka	3.890062	
Trincomalee	Harbour Police	Base Hospital - Trincomalee	False	False	TRNCMLHRBRPLCBSHSPTLTRNCML		Trincomalee	LK-53	8.551241	81.092014	Trinco Harbour Police	PS-530131	8.56705	81.231407	8.56486	81.239445	Hospital Ln, Trincomalee, Sri Lanka	0.917037	
Trincomalee	Ichchalampattu	MOH Office  - Ichchalampattu	False	False	TRNCMLCHCHLMPTTMHFFCCHCHLMPTT	Eachchilampattu Hospital	Trincomalee	LK-53	8.551241	81.092014	Ichchalampattu		8.289549	81.359002	8.289644	81.358983	Highway, Ichchalampattu, Trincomalee, Sri Lanka	0.010772	
Trincomalee	Serunuwara	MOH Office  - Serunuwara	False	False	TRNCMLSRNWRMHFFCSRNWR		Trincomalee	LK-53	8.551241	81.092014	Serunuwara	PS-530244	8.321863	81.299322	8.321911	81.301248	Serunuwara, Allai-Kantalai Rd, Sri Lanka	0.21204	
Trincomalee	Kantale	MOH Office  - Kantale	False	False	TRNCMLKNTLMHFFCKNTL		Trincomalee	LK-53	8.551241	81.092014	Kantale	PS-530241	8.356129	81.007739	8.366638	81.004746	Ambepussa - Kurunegala - Trincomalee Hwy, Kantale, Sri Lanka	1.214433	
Batticaloa	Batticaloa	MOH Office  - Batticaloa	False	False	BTTCLBTTCLMHFFCBTTCL		Batticaloa	LK-51	7.792772	81.486513	Batticaloa	PS-510101	7.717949	81.699294	7.708253	81.691368	Hospital Rd, Batticaloa, Sri Lanka	1.387934	
Batticaloa	Batticaloa	Urani Saraswath Vidyalaya	False	False	BTTCLBTTCLRNSRSWTHVDYLY		Batticaloa	LK-51	7.792772	81.486513	Batticaloa	PS-510101	7.717949	81.699294	7.731928	81.678315	PMJH+Q8G, Batticaloa, Sri Lanka	2.786477	
Batticaloa	Vakarai	MOH Office  - Vakarai	False	False	BTTCLVKRMHFFCVKR	Divisional Hospital Vakarai	Batticaloa	LK-51	7.792772	81.486513	Wakarai	PS-510109	6.934132	79.856305	8.134552	81.435328	Trincomalee Hwy, Vakarai, Sri Lanka	219.417822	#CenterFarFromPolice
Batticaloa	Valachchenai	Valachchenai  Base Hospital	False	False	BTTCLVLCHCHNVLCHCHNBSHSPTL		Batticaloa	LK-51	7.792772	81.486513	Valachchanai	PS-510107	7.908015	81.533004	7.911315	81.533046	Valaichchenai-Nasuvantivu-Navaladi Road, Sri Lanka	0.367088	
Batticaloa	Valachchenai	MOH Office  - Valachchenai	False	False	BTTCLVLCHCHNMHFFCVLCHCHN		Batticaloa	LK-51	7.792772	81.486513	Valachchanai	PS-510107	7.908015	81.533004	7.912281	81.532775	WG6M+W46, Batticaloa, Sri Lanka	0.475177	
Batticaloa	Valachchenai	MOH Office  - Oddamavadi	False	False	BTTCLVLCHCHNMHFFCDDMVD		Batticaloa	LK-51	7.792772	81.486513	Valachchanai	PS-510107	7.908015	81.533004	7.912281	81.532775	WG6M+W46, Batticaloa, Sri Lanka	0.475177	
Batticaloa	Valachchenai	MOH Office  - Kiran	False	False	BTTCLVLCHCHNMHFFCKRN		Batticaloa	LK-51	7.792772	81.486513	Valachchanai	PS-510107	7.908015	81.533004	7.623441	81.717877	Muthalaikudah Kanchirankudah Rd, Sri Lanka	37.64378	#CenterFarFromPolice
Batticaloa	Valachchenai	MOH Office  - Navallady	False	False	BTTCLVLCHCHNMHFFCNVLLDY		Batticaloa	LK-51	7.792772	81.486513	Valachchanai	PS-510107	7.908015	81.533004	7.912281	81.532775	WG6M+W46, Batticaloa, Sri Lanka	0.475177	
Batticaloa	Kaluwanchikudy	MOH Office  - Kaluwanchikudy	False	False	BTTCLKLWNCHKDYMHFFCKLWNCHKDY	Medical Officer of Health Kaluwanchikudy	Batticaloa	LK-51	7.792772	81.486513	Kalawanchikudy	PS-510110	7.515908	81.787051	7.509333	81.79204	Colombo - Batticaloa Hwy, Kaluwanchikudy, Sri Lanka	0.915167	
Batticaloa	Kaluwanchikudy	Base Hospita Kaluwanchikudy	False	False	BTTCLKLWNCHKDYBSHSPTKLWNCHKDY		Batticaloa	LK-51	7.792772	81.486513	Kalawanchikudy	PS-510110	7.515908	81.787051	7.51724	81.785184	GQ8P+V3V, Kaluwanchikudy, Sri Lanka	0.25365	
Batticaloa	Kokkadicholai	MOH Office  - Pattipala	False	False	BTTCLKKKDCHLMHFFCPTTPL		Batticaloa	LK-51	7.792772	81.486513	Kokkadicholai	PS-510112	7.715979	81.698757	7.539982	80.915581	GWQ8+X6W, Hettipola, Sri Lanka	88.533038	#CenterFarFromPolice
Batticaloa	Kattankudy	MOH Office  - Kattankudy	False	False	BTTCLKTTNKDYMHFFCKTTNKDY		Batticaloa	LK-51	7.792772	81.486513	Kaththankudi	PS-510103	7.715979	81.698757	7.683586	81.730767	MPMJ+C8J, Kattankudy, Sri Lanka	5.042961	
Batticaloa	Vavunathivu	MOH Office  - Vavunathivu	False	False	BTTCLVVNTHVMHFFCVVNTHV		Batticaloa	LK-51	7.792772	81.486513	Vavunathive	PS-510102	6.933075	79.857181	7.708253	81.691368	Hospital Rd, Batticaloa, Sri Lanka	219.95575	#CenterFarFromPolice
Batticaloa	Eravur	Sandiveli Hospital	False	False	BTTCLRVRSNDVLHSPTL		Batticaloa	LK-51	7.792772	81.486513	Eravur	PS-510104	7.715979	81.698757	7.777289	81.602853	Trincomalee Hwy, Eravur, Sri Lanka	12.578998	
Batticaloa	Eravur	MOH Office  – Eravur	False	False	BTTCLRVRMHFFCRVR		Batticaloa	LK-51	7.792772	81.486513	Eravur	PS-510104	7.715979	81.698757	7.783664	81.605626	QJM4+F76, Eravur, Sri Lanka	12.729342	
Batticaloa	Eravur	Eravur Hospital	False	False	BTTCLRVRRVRHSPTL		Batticaloa	LK-51	7.792772	81.486513	Eravur	PS-510104	7.715979	81.698757	7.783168	81.605999	QJM4+799, Eravur 30300, Sri Lanka	12.663585	
Batticaloa	Eravur	MOH Office  - Chenkaladi	False	False	BTTCLRVRMHFFCCHNKLD		Batticaloa	LK-51	7.792772	81.486513	Eravur	PS-510104	7.715979	81.698757	7.783599	81.593367	Trincomalee Hwy, Chenkaladi 30350, Sri Lanka	13.837876	
Batticaloa	Eravur	MOH Office  - Chenkaladi	False	False	BTTCLRVRMHFFCCHNKLD		Batticaloa	LK-51	7.792772	81.486513	Eravur	PS-510104	7.715979	81.698757	7.783599	81.593367	Trincomalee Hwy, Chenkaladi 30350, Sri Lanka	13.837876	
Batticaloa	Eravur	Chenkaladi  Hospital	False	False	BTTCLRVRCHNKLDHSPTL		Batticaloa	LK-51	7.792772	81.486513	Eravur	PS-510104	7.715979	81.698757	7.783546	81.589961	Batticaloa Rd, Chenkaladi, Sri Lanka	14.151406	
Batticaloa	Eravur	Muhaideen  Mosque	False	False	BTTCLRVRMHDNMSQ		Batticaloa	LK-51	7.792772	81.486513	Eravur	PS-510104	7.715979	81.698757	7.772927	81.609849	Town,, Eravur 30300, Sri Lanka	11.668	
Batticaloa	Eravur	Wantaramule  Vishnu Vidyalaya	False	False	BTTCLRVRWNTRMLVSHNVDYLY		Batticaloa	LK-51	7.792772	81.486513	Eravur	PS-510104	7.715979	81.698757	7.648793	81.628046	Irudducholaimadu, Kannankudha, Batticaloa, Sri Lanka	10.798262	
Batticaloa	Eravur	Mawadiwembu  Hospital	False	False	BTTCLRVRMWDWMBHSPTL		Batticaloa	LK-51	7.792772	81.486513	Eravur	PS-510104	7.715979	81.698757	7.808545	81.566328	Mawadiwembu Hospital, Sri Lanka	17.861302	
Batticaloa	Karadiyanaru	Karadiyanaru Hospital	False	False	BTTCLKRDYNRKRDYNRHSPTL		Batticaloa	LK-51	7.792772	81.486513	Karadiyanaru	PS-510105	7.701992	81.537252	7.700216	81.539779	PG2Q+3WJ, Karadiyanaru, Sri Lanka	0.341482	
Ampara	Karaitivu	MOH Office  – Karaitivu	False	False	MPRKRTVMHFFCKRTV		Ampara	LK-52	7.23699	81.550391	Karaitivu		9.744059	79.870587	7.377712	81.838796	Colombo-Ratnapura-Wellawaya-Batticaloa Highway, Karativu 32250, Sri Lanka	340.788666	#CenterFarFromPolice
Ampara	Chavalakade	MOH Office  - Navidanveli	False	False	MPRCHVLKDMHFFCNVDNVL		Ampara	LK-52	7.23699	81.550391	Chawalakade	PS-520125	7.413559	81.776822	7.420081	81.788401	B77, Sri Lanka	1.468805	
Ampara	Sainthamarthu	MOH Office  – Sainthamarthu	False	False	MPRSNTHMRTHMHFFCSNTHMRTH		Ampara	LK-52	7.23699	81.550391									#PoliceLocationUnknown
Ampara	Akkaraipattu	MOH Office  – Addalachenai	False	False	MPRKKRPTTMHFFCDDLCHN		Ampara	LK-52	7.23699	81.550391	Akkaraipattu	PS-520126	7.216084	81.853254	7.260916	81.853493	7V63+999, Addalaichenai, Sri Lanka	4.986726	
Ampara	Akkaraipattu	MOH Office  - Alayadiwembu	False	False	MPRKKRPTTMHFFCLYDWMB		Ampara	LK-52	7.23699	81.550391	Akkaraipattu	PS-520126	7.216084	81.853254	7.413484	81.826588	Colombo - Batticaloa Hwy, Kalmunai 32300, Sri Lanka	22.152981	#CenterFarFromPolice
Ampara	Akkaraipattu	MOH Office  - Akkaraipattu	False	False	MPRKKRPTTMHFFCKKRPTT		Ampara	LK-52	7.23699	81.550391	Akkaraipattu	PS-520126	7.216084	81.853254	7.228134	81.851123	6VH2+7C5, Akkaraipattu, Sri Lanka	1.360772	
Ampara	Thirukkovil	MOH Office  – Thirukkovil	False	False	MPRTHRKKVLMHFFCTHRKKVL		Ampara	LK-52	7.23699	81.550391	Thirukkovil	PS-520127	7.113998	81.852219	7.111627	81.852984	Courts road Road, Thirukkovil, Sri Lanka	0.276913	
Ampara	Kalmunai	MOH Office  - Kalmunai South	False	False	MPRKLMNMHFFCKLMNSTH		Ampara	LK-52	7.23699	81.550391	Kalmunai	PS-520123	7.414289	81.825006	7.411712	81.838462	CR6Q+M9P, Kalmunai 32300, Sri Lanka	1.511625	
Ampara	Kalmunai	MOH Office  - Kalmunai North	False	False	MPRKLMNMHFFCKLMNNRTH		Ampara	LK-52	7.23699	81.550391	Kalmunai	PS-520123	7.414289	81.825006	7.411712	81.838462	CR6Q+M9P, Kalmunai 32300, Sri Lanka	1.511625	
Ampara	Sammanthurai	MOH Office  - Sammanthurai	False	False	MPRSMMNTHRMHFFCSMMNTHR		Ampara	LK-52	7.23699	81.550391	Samanthurai	PS-520124	7.365785	81.810859	7.369857	81.812264	9R96+WWR, Sammanthurai, Sri Lanka	0.478712	
Ampara	Sammanthurai	Base Hospital Sammanthurai	False	False	MPRSMMNTHRBSHSPTLSMMNTHR		Ampara	LK-52	7.23699	81.550391	Samanthurai	PS-520124	7.365785	81.810859	7.368355	81.813042	9R96+MWM, Hospital Rd, Sammanthurai, Sri Lanka	0.373773	
Ampara	Sammanthurai	MOH Office  - Nintavur	False	False	MPRSMMNTHRMHFFCNNTVR		Ampara	LK-52	7.23699	81.550391	Samanthurai	PS-520124	7.365785	81.810859	7.352821	81.856939	Hospital Rd, Nintavur 32340, Sri Lanka	5.283925	
