district	police	center	dose1	dose2	fuzzy_key	alt_name	district_name_norm	district_id	district_lat	district_lng	ps_name_norm	ps_id	ps_lat	ps_lng	lat	lng	formatted_address	dis_center_to_police	tags
Colombo	Cinnamon Gardens	Viharamahadevi Park	True	True	CLMBCNNMNGRDNSVHRMHDVPRK		Colombo	LK-11	6.869636	80.019598	Cinnamon Garden	PS-110324	6.907289	79.863819	6.913391	79.86174	Viharamahadevi Park, Colombo, Sri Lanka	0.716497	
Colombo	Grandpass	Sugathadasa Outdoor Stadium	True	True	CLMBGRNDPSSSGTHDSTDRSTDM		Colombo	LK-11	6.869636	80.019598	Grandpass	PS-110215	6.949052	79.872983	6.94806	79.868842	Prince of Wales Ave, Colombo 01400, Sri Lanka	0.470345	
Colombo	Thalangama	Diyatha Uyana	True	True	CLMBTHLNGMDYTHYN		Colombo	LK-11	6.869636	80.019598	Thalangama	PS-110466	6.91089	79.929325	6.904575	79.909831	Diyatha Uyana, B240, Sri Jayawardenepura Kotte, Sri Lanka	2.264281	
Colombo	Narahenpita	Army Hospital Narahenpita	False	False	CLMBNRHNPTRMYHSPTLNRHNPT		Colombo	LK-11	6.869636	80.019598	Narahenpita	PS-110321	6.891832	79.876715	6.900252	79.87618	08 Elvitigala Mawatha, Colombo 00800, Sri Lanka	0.938417	
Colombo	Narahenpita	Army Headquarters Mobile Team	False	False	CLMBNRHNPTRMYHDQRTRSMBLTM		Colombo	LK-11	6.869636	80.019598	Narahenpita	PS-110321	6.891832	79.876715					#CenterLocationUnknown
Colombo	Boralesgamuwa	Kotelawala Defence Hospital	False	True	CLMBBRLSGMWKTLWLDFNCHSPTL		Colombo	LK-11	6.869636	80.019598	Boralesgamuwa	PS-110464	6.841331	79.901255	6.82518	79.907167	RWG4+3VF, Boralesgamuwa, Sri Lanka	1.911444	
Colombo	Maradana	National Hospital – Colombo	False	False	CLMBMRDNNTNLHSPTLCLMB		Colombo	LK-11	6.869636	80.019598	Maradana	PS-110107	6.927939	79.865471	6.918743	79.868992	Colombo 00700, Sri Lanka	1.094265	
Colombo	Fore shore	MOH Office - Jinthupitiya	False	False	CLMBFRSHRMHFFCJNTHPTY		Colombo	LK-11	6.869636	80.019598	Fore shore	PS-110210	6.949589	79.857355	6.943258	79.859238	No.27 Vivekananda Hill, Colombo 01300, Sri Lanka	0.734247	
Gampaha	Minuwangoda	MOH Office – Minuwangoda	False	False	GMPHMNWNGDMHFFCMNWNGD		Gampaha	LK-12	7.123598	80.018508	Minuwangoda	PS-120238	7.174215	79.957874	7.17227	79.956823	Katunayake-Veyangoda Rd, Minuwangoda, Sri Lanka	0.245525	
Gampaha	Gampaha	MOH Office - Gampaha	False	False	GMPHGMPHMHFFCGMPH		Gampaha	LK-12	7.123598	80.018508	Gampaha	PS-120237	7.087765	80.01228	7.090643	80.002094	Colombo Rd, Gampaha, Sri Lanka	1.16901	
Gampaha	Biyagama	MOH Office – Biyagama	False	False	GMPHBYGMMHFFCBYGM		Gampaha	LK-12	7.123598	80.018508	Biyagama	PS-120131	6.962284	80.009037	6.946824	79.994052	Hospital Rd, Sri Lanka	2.386313	
Gampaha	Meegahwatta	Mobile Vaccination	False	False	GMPHMGHWTTMBLVCCNTN		Gampaha	LK-12	7.123598	80.018508	Meegahawatta	PS-120132	6.988968	80.000356					#CenterLocationUnknown
Gampaha	Ja Ela	MOH Office - Ja Ela	False	False	GMPHJLMHFFCJL		Gampaha	LK-12	7.123598	80.018508	Ja - Ela	PS-120133	7.081055	79.890504	7.075216	79.893879	60 Mount Kalvary Rd, Ja-Ela, Sri Lanka	0.748731	
Gampaha	Wattala	MOH Office – Wattala	False	False	GMPHWTTLMHFFCWTTL		Gampaha	LK-12	7.123598	80.018508	Wattala	PS-120128	6.993713	79.894506	6.995817	79.885793	301 Hendala Rd, Wattala, Sri Lanka	0.989991	
Gampaha	Ragama	MOH Office – Ragama	False	False	GMPHRGMMHFFCRGM		Gampaha	LK-12	7.123598	80.018508	Ragama	PS-120134	7.034975	79.924148	7.027386	79.920232	2WGC+X35, Ragama, Sri Lanka	0.948382	
Kalutara	Kalutara	NIHS	False	False	KLTRKLTRNHS		Kalutara	LK-13	6.577316	80.127363	Kalutara South		6.584968	79.96102	6.559269	79.973486	Janatha Ln, Kalutara, Sri Lanka	3.173081	
Kalutara	Aluthgama	MOH Office – Beruwala	False	False	KLTRLTHGMMHFFCBRWL		Kalutara	LK-13	6.577316	80.127363	Aluthgama	PS-1302100	6.432842	79.998032	6.437559	79.999356	CXQX+2PH, Aluthgama, Sri Lanka	0.544697	
Kalutara	Kobeigane	MOH Office – Kobeigane	False	False	KLTRKBGNMHFFCKBGN		Kalutara	LK-13	6.577316	80.127363	Kobeigane	PS-610321	7.656934	80.126283	7.656825	80.123579	Kobeigane, Sri Lanka	0.29833	
Puttalam	Anamaduwa	Swarna Paliyagama Vidyalaya	False	False	PTTLMNMDWSWRNPLYGMVDYLY		Puttalam	LK-62	7.973531	79.913833	Anamaduwa	PS-620131	7.874852	80.01316	7.930322	79.993279	WXJV+48C, Thonigala, Sri Lanka	6.547181	
Puttalam	Anamaduwa	Kiwula 04 Vidyalaya	False	False	PTTLMNMDWKWLVDYLY		Puttalam	LK-62	7.973531	79.913833	Anamaduwa	PS-620131	7.874852	80.01316	7.87777	80.011116	Anamaduwa, Sri Lanka	0.395049	
Puttalam	Anamaduwa	Sangattikulam Sinhala Vidyalaya	False	False	PTTLMNMDWSNGTTKLMSNHLVDYLY		Puttalam	LK-62	7.973531	79.913833	Anamaduwa	PS-620131	7.874852	80.01316	7.819984	79.979978	RX9H+XXX, Anamaduwa, Sri Lanka	7.114378	
Puttalam	Chilaw	Karavitagara Vidyalaya	False	False	PTTLMCHLWKRVTGRVDYLY		Puttalam	LK-62	7.973531	79.913833	Chilaw	PS-620241	7.576197	79.788003	7.578243	79.793162	Chilaw, Sri Lanka	0.61266	
Puttalam	Chilaw	Punchi Vilaththawa Primary School	False	False	PTTLMCHLWPNCHVLTHTHWPRMRYSCHL		Puttalam	LK-62	7.973531	79.913833	Chilaw	PS-620241	7.576197	79.788003	7.597799	79.903877	Punchi Vilattawa, Sri Lanka	12.999799	
Puttalam	Chilaw	Maradankulama Vidyalaya	False	False	PTTLMCHLWMRDNKLMVDYLY		Puttalam	LK-62	7.973531	79.913833	Chilaw	PS-620241	7.576197	79.788003	7.542572	79.828274	Maradankulama, Sri Lanka	5.805651	
Puttalam	Arachchikattuwa	Nalladarankattuwa Viharaya	False	False	PTTLMRCHCHKTTWNLLDRNKTTWVHRY		Puttalam	LK-62	7.973531	79.913833	Arachchikattuwa	PS-620247	7.65944	79.837772	7.669298	79.835761	Puttalam - Colombo Rd, Nalladarankattuwa, Sri Lanka	1.118689	
Puttalam	Pallama	Thamarakkulama Viharaya	False	False	PTTLMPLLMTHMRKKLMVHRY		Puttalam	LK-62	7.973531	79.913833	Pallama	PS-620132	7.691904	79.922555	7.733363	79.924653	PWMF+8VR, Puttalam, Sri Lanka	4.617272	
Puttalam	Kandy	Mobile Medical Team	False	False	PTTLMKNDYMBLMDCLTM		Puttalam	LK-62	7.973531	79.913833	Kandy	PS-210101	7.292948	80.642368					#CenterLocationUnknown
Puttalam	Kandy	Girls' High School – Kandy	False	False	PTTLMKNDYGRLSHGHSCHLKNDY		Puttalam	LK-62	7.973531	79.913833	Kandy	PS-210101	7.292948	80.642368	8.032756	79.832857	37 Poles Rd, Puttalam 61300, Sri Lanka	121.386488	#CenterFarFromPolice
Puttalam	Menikhinna	Rajawella Hindu Vidyalaya	False	False	PTTLMMNKHNNRJWLLHNDVDYLY		Puttalam	LK-62	7.973531	79.913833	Manikhinna	PS-210359	7.317171	80.702253	7.296949	80.730384	7PWJ+Q5C, Rajawella, Sri Lanka	3.832963	
Puttalam	Uva Paranagama	District Hospital - Uva Paranagama	False	False	PTTLMVPRNGMDSTRCTHSPTLVPRNGM		Puttalam	LK-62	7.973531	79.913833	Uvaparanagama	PS-810213	6.958341	80.930364	6.938076	80.890525	Rendapola-Galahagama-Ambagasdowa Rd, Himbiliyagahamadiththa, Sri Lanka	4.942648	
Puttalam	Uva Paranagama	Wewegama Hospital	False	False	PTTLMVPRNGMWWGMHSPTL		Puttalam	LK-62	7.973531	79.913833	Uvaparanagama	PS-810213	6.958341	80.930364	7.009708	80.95351	Dimbulana junction,, B 648 Udapussellawa-Welimada Rd, Sri Lanka	6.258974	
Puttalam	Uva Paranagama	Karkills Estate Hospital	False	False	PTTLMVPRNGMKRKLLSSTTHSPTL		Puttalam	LK-62	7.973531	79.913833	Uvaparanagama	PS-810213	6.958341	80.930364	8.027902	79.83874	Katugastota-Kurunegala-Puttalam Hwy, Puttalam, Sri Lanka	169.248617	#CenterFarFromPolice
Puttalam	Bogahakumbura	Bogahakumbura Hospital	False	False	PTTLMBGHKMBRBGHKMBRHSPTL		Puttalam	LK-62	7.973531	79.913833	Bogahakumbura	PS-810219	6.8536	80.866788	6.862306	80.875527	B48, Sri Lanka	1.367157	
Puttalam	Haputale	MOH Office – Haputale	False	False	PTTLMHPTLMHFFCHPTL		Puttalam	LK-62	7.973531	79.913833	Haputale	PS-810215	6.767653	80.957218	6.779645	80.964114	QXH7+WC4, Badulla, Sri Lanka	1.536024	
Puttalam	Welimada	Keppetipola Hospital	False	False	PTTLMWLMDKPPTPLHSPTL		Puttalam	LK-62	7.973531	79.913833	Welimada	PS-810212	6.900481	80.905809	6.896336	80.874454	Peradeniya-Badulla-Chenkaladi Hwy, Keppetipola, Sri Lanka	3.492925	
Puttalam	Bandarawela	MOH Office – Bandarawela	False	False	PTTLMBNDRWLMHFFCBNDRWL		Puttalam	LK-62	7.973531	79.913833	Bandarawela	PS-810210	6.831526	80.986784	6.841272	80.98482	Hospital Junction Helamuduna Bus Stop, Etampitiya Rd, Bandarawela, Sri Lanka	1.105533	
Badulla	Mahiyanganaya	MOH Office - Mahiyanganaya	False	False	BDLLMHYNGNYMHFFCMHYNGNY		Badulla	LK-81	7.074529	81.04486	Mahiyangane	PS-810105	7.334975	80.993108	7.349752	80.949998	Hasalaka, Sri Lanka	5.031818	
Moneragala	Monaragala	Mahanama Vidyalaya	False	False	MNRGLMNRGLMHNMVDYLY		Moneragala	LK-82	6.787517	81.303744	Monaragala	PS-820121	6.869866	81.348106	6.876259	81.348364	Potuvile Road Colombo - Batticaloa Hwy, Monaragala, Sri Lanka	0.711663	
Moneragala	Monaragala	Royal College	False	False	MNRGLMNRGLRYLCLLG		Moneragala	LK-82	6.787517	81.303744	Monaragala	PS-820121	6.869866	81.348106	6.86108	81.33918	V86Q+CMM, Monaragala, Sri Lanka	1.388052	
Moneragala	Monaragala	Hulandawa Community Hall	False	False	MNRGLMNRGLHLNDWCMMNTYHLL		Moneragala	LK-82	6.787517	81.303744	Monaragala	PS-820121	6.869866	81.348106	6.858672	81.334398	Passara-Moneragala Hwy, Hulandawa, Sri Lanka	1.960079	
Moneragala	Monaragala	Community Hall – Monaragala	False	False	MNRGLMNRGLCMMNTYHLLMNRGL		Moneragala	LK-82	6.787517	81.303744	Monaragala	PS-820121	6.869866	81.348106	6.86094	81.343078	Monaragala, Sri Lanka	1.137556	
Moneragala	Badalkumbura	Muthukeliyawa Maha Vidyalaya	False	False	MNRGLBDLKMBRMTHKLYWMHVDYLY		Moneragala	LK-82	6.787517	81.303744	Badalkumbura	PS-820128	6.889017	81.235441	6.89796	81.24123	Passara-Moneragala, Highway, Badalkumbura, Sri Lanka	1.182426	
Moneragala	Wellawaya	Mahinda Rajapaksha Conference Hall	False	False	MNRGLWLLWYMHNDRJPKSHCNFRNCHLL		Moneragala	LK-82	6.787517	81.303744	wellawaya	PS-820130	6.730804	81.100708	6.732053	81.100032	A23, Wellawaya, Sri Lanka	0.157723	
Moneragala	Buttala	Divisional Hospital – Buttala	False	False	MNRGLBTTLDVSNLHSPTLBTTL		Moneragala	LK-82	6.787517	81.303744	Buttala	PS-820127	6.762499	81.250445	6.75781	81.239724	Colombo - Batticaloa Hwy, Buttala, Sri Lanka	1.293971	
Moneragala	Okkampitiya	Wijayabahu Maha Vidyalaya	False	False	MNRGLKKMPTYWJYBHMHVDYLY		Moneragala	LK-82	6.787517	81.303744	Okkampitiya	PS-820135	6.751072	81.306647	6.748205	81.308028	School Lane, Okkampitiya, Sri Lanka	0.353503	
Moneragala	Kataragama	Kataragama Devalaya Premises	False	False	MNRGLKTRGMKTRGMDVLYPRMSS		Moneragala	LK-82	6.787517	81.303744	Kataragama	PS-330159	6.41352	81.331368	6.418507	81.333278	Main Office Ruhunu Maha Kataragama Dewalaya, Kataragama 91400, Sri Lanka	0.59352	
Matara	Matara	Mobile Medical Team	False	False	MTRMTRMBLMDCLTM		Matara	LK-32	6.142734	80.539994	Matara	PS-320101	5.94904	80.533659					#CenterLocationUnknown
Matara	Pitabeddara	Derangala Maha Vidyalaya	False	False	MTRPTBDDRDRNGLMHVDYLY		Matara	LK-32	6.142734	80.539994	Pitabeddara	PS-320114	6.203675	80.475004	6.253488	80.446914	7C3W+9QV, Matara, Sri Lanka	6.351891	
Matara	Pitabeddara	Derangala Primary School	False	False	MTRPTBDDRDRNGLPRMRYSCHL		Matara	LK-32	6.142734	80.539994	Pitabeddara	PS-320114	6.203675	80.475004	6.207077	80.463245	6F47+R7Q, Pitabeddara, Sri Lanka	1.35423	
Matara	Pitabeddara	Dehigaspe Health Centre	False	False	MTRPTBDDRDHGSPHLTHCNTR		Matara	LK-32	6.142734	80.539994	Pitabeddara	PS-320114	6.203675	80.475004	6.200819	80.474352	6F2F+8PH, Pitabeddara, Sri Lanka	0.325643	
Hambantota	Beliatta	MOH Office – Beliatta	False	False	HMBNTTBLTTMHFFCBLTT		Hambantota	LK-33	6.259779	81.098619	Beliatta	PS-330152	6.046936	80.735408	6.051828	80.741735	3P2R+PMQ, Hambantota, Sri Lanka	0.886482	
Hambantota	Walasmulla	Warapitiya Maha Vidyalaya	False	False	HMBNTTWLSMLLWRPTYMHVDYLY		Hambantota	LK-33	6.259779	81.098619	Walasmulla	PS-330151	6.154102	80.698256	6.218377	80.636298	6J9P+9G3, Hambantota, Sri Lanka	9.902261	
Hambantota	Walasmulla	Modarawana Maha Vidyalaya	False	False	HMBNTTWLSMLLMDRWNMHVDYLY		Hambantota	LK-33	6.259779	81.098619	Walasmulla	PS-330151	6.154102	80.698256	6.109322	80.714402	Beliatta - Walasmulla Rd, Okewela, Sri Lanka	5.291276	
Hambantota	Walasmulla	MOH Office – Walasmulla	False	False	HMBNTTWLSMLLMHFFCWLSMLL		Hambantota	LK-33	6.259779	81.098619	Walasmulla	PS-330151	6.154102	80.698256	6.150889	80.693718	Walasmulla, Sri Lanka	0.616099	
Hambantota	Tangalla	MOH Office – Tangalla	False	False	HMBNTTTNGLLMHFFCTNGLL		Hambantota	LK-33	6.259779	81.098619	Tangalle	PS-330147	6.023954	80.797255	6.02363	80.795742	2QFW+F75, Tangalle, Sri Lanka	0.171198	
Hambantota	Katuwana	MOH Office – Katuwana	False	False	HMBNTTKTWNMHFFCKTWN		Hambantota	LK-33	6.259779	81.098619	Katuwana	PS-330153	6.269722	80.690963	6.26627	80.693035	7M8V+G63, Katuwana, Sri Lanka	0.447115	
Hambantota	Angunukolapelessa	MOH Office – Angunukolapelessa	False	False	HMBNTTNGNKLPLSSMHFFCNGNKLPLSS		Hambantota	LK-33	6.259779	81.098619	Angunakolapelessa	PS-330150	6.321993	80.844883	6.164691	80.898963	Unnamed Road, Agunukolapelessa, Sri Lanka	18.490258	
Hambantota	Angunukolapelessa	Town Hall - Angunukolapelessa	False	False	HMBNTTNGNKLPLSSTWNHLLNGNKLPLSS		Hambantota	LK-33	6.259779	81.098619	Angunakolapelessa	PS-330150	6.321993	80.844883	6.164066	80.899522	Hungama-Talawa-Middeniya Rd, Agunukolapelessa, Sri Lanka	18.576065	
Hambantota	Rathnapura	Kotamulla Viharaya	False	False	HMBNTTRTHNPRKTMLLVHRY		Hambantota	LK-33	6.259779	81.098619	Ratnapura	PS-910101	6.679456	80.40223	6.666909	80.382503	M98M+Q26, Ratnapura, Sri Lanka	2.587921	
Rathnapura	Rathnapura	Kahawatta Vidyalaya	False	False	RTHNPRRTHNPRKHWTTVDYLY		Ratnapura	LK-91	6.586826	80.566158	Ratnapura	PS-910101	6.679456	80.40223	6.594629	80.579426	HHVH+VQ3, රත්නපුර, Sri Lanka	21.732442	#CenterFarFromPolice
Rathnapura	Anuradhapura	Army Hospital Anuradhapura	False	False	RTHNPRNRDHPRRMYHSPTLNRDHPR		Ratnapura	LK-91	6.586826	80.566158	Anuradapura	PS-710101	8.329752	80.407265	8.338302	80.407646	AB02, Anuradhapura, Sri Lanka	0.951939	
Jaffna	Jaffna	St. John's College	False	False	JFFNJFFNSTJHNSCLLG		Jaffna	LK-41	9.691792	80.098594	Jaffna	PS-410209	9.659919	80.010965	9.657495	80.026568	Main Street, Chundikuli-Columbuthurai Rd, section, Sri Lanka	1.732049	
Jaffna	Jaffna	Navalar Hall	False	False	JFFNJFFNNVLRHLL		Jaffna	LK-41	9.691792	80.098594	Jaffna	PS-410209	9.659919	80.010965	9.669604	80.024455	M29F+RQW, Jaffna, Sri Lanka	1.829892	
Jaffna	Jaffna	Cultural Hall	False	False	JFFNJFFNCLTRLHLL		Jaffna	LK-41	9.691792	80.098594	Jaffna	PS-410209	9.659919	80.010965	9.669579	80.024272	Navalar Rd, Jaffna, Sri Lanka	1.81206	
Jaffna	Jaffna	Ariyalai Mahamari Amman Hall	False	False	JFFNJFFNRYLMHMRMMNHLL		Jaffna	LK-41	9.691792	80.098594	Jaffna	PS-410209	9.659919	80.010965	9.660091	80.041517	Pirappankulam, Jaffna, Sri Lanka	3.350164	
Jaffna	Kopay	MOH Office- Nallur	False	False	JFFNKPYMHFFCNLLR		Jaffna	LK-41	9.691792	80.098594	Kopai	PS-410216	9.686887	80.03856	9.673947	80.027736	M2FH+H3H, Jaffna, Sri Lanka	1.865513	
Jaffna	Kopay	Kopay Maha Vidyalaya	False	False	JFFNKPYKPYMHVDYLY		Jaffna	LK-41	9.691792	80.098594	Kopai	PS-410216	9.686887	80.03856	9.692832	80.049227	M2VX+4MQ, Jaffna, Sri Lanka	1.343555	
Jaffna	Kopay	Uralu Ganesha Vidyalaya	False	False	JFFNKPYRLGNSHVDYLY		Jaffna	LK-41	9.691792	80.098594	Kopai	PS-410216	9.686887	80.03856	9.711206	80.059962	Kopay Base Hospital, Jaffna, Sri Lanka	3.580942	
Jaffna	Chunnagam	MOH Office - Uduvil	False	False	JFFNCHNNGMMHFFCDVL		Jaffna	LK-41	9.691792	80.098594	Chunnakam	PS-410211	9.745309	80.029151	9.742938	80.035132	P2VP+53C, Chunnakam, Sri Lanka	0.706719	
Jaffna	Chunnagam	PMCU – Inuvil	False	False	JFFNCHNNGMPMCNVL		Jaffna	LK-41	9.691792	80.098594	Chunnakam	PS-410211	9.745309	80.029151	9.716491	80.018015	P289+H6R, Uduvil, Sri Lanka	3.430038	
Jaffna	Chunnagam	PMCU Punnale Kattuwan	False	False	JFFNCHNNGMPMCPNNLKTTWN		Jaffna	LK-41	9.691792	80.098594	Chunnakam	PS-410211	9.745309	80.029151	9.742231	80.026054	146 Jaffna-Kankesanturai Rd, Chunnakam 40000, Sri Lanka	0.482163	
Jaffna	Thelippalai	Alaveddi Arunodaya Maha Vidyalaya	False	False	JFFNTHLPPLLVDDRNDYMHVDYLY		Jaffna	LK-41	9.691792	80.098594	Thelippalay	PS-410104	6.933075	79.857181	9.674131	80.011248	430 Jaffna-Kankesanturai Rd, Jaffna, Sri Lanka	305.358304	#CenterFarFromPolice
Jaffna	Achchuveli	Sivaprakasam Vidyalaya	False	False	JFFNCHCHVLSVPRKSMVDYLY		Jaffna	LK-41	9.691792	80.098594	Achchuweli	PS-410103	6.934132	79.856305	9.776924	80.114965	Atchuvely Central College, Jaffna, Northern Province, B33, 40000, Sri Lanka	317.481671	#CenterFarFromPolice
Jaffna	Kayts	MOH Office – Karainagar	False	False	JFFNKYTSMHFFCKRNGR		Jaffna	LK-41	9.691792	80.098594	Kayts	PS-410212	9.728654	79.94775	9.725097	79.99772	Sri Lanka, Manipay, Sri Lanka	5.492521	
Jaffna	Pudukudiruppu	MOH Office – Pudukudiruppu	False	False	JFFNPDKDRPPMHFFCPDKDRPP		Jaffna	LK-41	9.691792	80.098594	Pudukuduiruppu	PS-440149	7.00152	79.95003	9.320965	80.683013	Parantan-Mullaitivu Hwy, Velikkandal, Sri Lanka	270.317914	#CenterFarFromPolice
Trincomalee	Muttur	MOH Office – Muttur	False	False	TRNCMLMTTRMHFFCMTTR		Trincomalee	LK-53	8.551241	81.092014	Mutur	PS-530138	8.461133	81.259371	8.453916	81.264494	1 Old Batticaloa Rd, Mutur, Sri Lanka	0.980859	
Trincomalee	Muttur	Al Hilal Maha Vidyalaya	False	False	TRNCMLMTTRLHLLMHVDYLY		Trincomalee	LK-53	8.551241	81.092014	Mutur	PS-530138	8.461133	81.259371	8.457062	81.268574	Mutur, Sri Lanka	1.109154	
Trincomalee	Muttur	Ralkuli Vidyalaya	False	False	TRNCMLMTTRRLKLVDYLY		Trincomalee	LK-53	8.551241	81.092014	Mutur	PS-530138	8.461133	81.259371	8.447261	81.243706	Ralkuli Bridge, Trincomalee Hwy, Sri Lanka	2.313261	
Trincomalee	Muttur	Al Hamra Vidyalaya	False	False	TRNCMLMTTRLHMRVDYLY		Trincomalee	LK-53	8.551241	81.092014	Mutur	PS-530138	8.461133	81.259371	8.726266	81.172086	P5GC+GR4, Irrakkakandi, Sri Lanka	31.013792	#CenterFarFromPolice
Trincomalee	Muttur	Pallekudiirippu Kale Mahal Vidyalaya	False	False	TRNCMLMTTRPLLKDRPPKLMHLVDYLY		Trincomalee	LK-53	8.551241	81.092014	Mutur	PS-530138	8.461133	81.259371	8.449646	81.26789	1 Old Batticaloa Rd, Mutur, Sri Lanka	1.584607	
Trincomalee	Muttur	Sampur Hospital	False	False	TRNCMLMTTRSMPRHSPTL		Trincomalee	LK-53	8.551241	81.092014	Mutur	PS-530138	8.461133	81.259371	8.481264	81.292795	F7JV+G43, Trincomalee, Sri Lanka	4.305295	
Trincomalee	Kinniya	MOH Office – Kurunjankeni	False	False	TRNCMLKNNYMHFFCKRNJNKN		Trincomalee	LK-53	8.551241	81.092014	Kinnia	PS-530140	6.907289	79.863819	8.498696	81.179644	F5XH+FVC, Kinniya 31100, Sri Lanka	228.840304	#CenterFarFromPolice
Trincomalee	Kinniya	MOH Office – Kinniya	False	False	TRNCMLKNNYMHFFCKNNY		Trincomalee	LK-53	8.551241	81.092014	Kinnia	PS-530140	6.907289	79.863819	8.498696	81.179644	F5XH+FVC, Kinniya 31100, Sri Lanka	228.840304	#CenterFarFromPolice
Trincomalee	Kinniya	Al Aksha Central College	False	False	TRNCMLKNNYLKSHCNTRLCLLG		Trincomalee	LK-53	8.551241	81.092014	Kinnia	PS-530140	6.907289	79.863819	8.496662	81.180256	F5WJ+M46, Kinniya 31100, Sri Lanka	228.708367	#CenterFarFromPolice
Trincomalee	Kinniya	Al Adan Vidyalaya	False	False	TRNCMLKNNYLDNVDYLY		Trincomalee	LK-53	8.551241	81.092014	Kinnia	PS-530140	6.907289	79.863819	8.502547	81.180383	Kinniya, Sri Lanka	229.222923	#CenterFarFromPolice
Trincomalee	Kinniya	Al Irfan Viyalaya	False	False	TRNCMLKNNYLRFNVYLY		Trincomalee	LK-53	8.551241	81.092014	Kinnia	PS-530140	6.907289	79.863819	8.481391	81.191368	F5JR+HG5, Kinniya, Sri Lanka	228.183186	#CenterFarFromPolice
Trincomalee	Kinniya	Base Hospital – Kinniya	False	False	TRNCMLKNNYBSHSPTLKNNY		Trincomalee	LK-53	8.551241	81.092014	Kinnia	PS-530140	6.907289	79.863819	8.501539	81.187539	Tampalakamam-Kinniya Rd, Kinniya 31100, Sri Lanka	229.636589	#CenterFarFromPolice
Trincomalee	Sripura	MOH Office – Sripura	False	False	TRNCMLSRPRMHFFCSRPR		Trincomalee	LK-53	8.551241	81.092014	Sripura	PS-530136	8.929617	80.81428	8.926697	80.814799	Padavi Sripura, Padaviya - Sripura Road, Welioya, Sri Lanka	0.329869	
Trincomalee	Sripura	Jayanthipura Vidyalaya	False	False	TRNCMLSRPRJYNTHPRVDYLY		Trincomalee	LK-53	8.551241	81.092014	Sripura	PS-530136	8.929617	80.81428	8.908396	80.833813	Jayanthi wewa, Padavi -Sripura, Sri Lanka	3.190373	
Trincomalee	Sripura	Sripura Hospital	False	False	TRNCMLSRPRSRPRHSPTL		Trincomalee	LK-53	8.551241	81.092014	Sripura	PS-530136	8.929617	80.81428	8.929308	80.813901	Padaviya - Sripura Road, Welioya, Sri Lanka	0.053996	
Trincomalee	Kuchchaveli	MOH Office – Kuchchaveli	False	False	TRNCMLKCHCHVLMHFFCKCHCHVL		Trincomalee	LK-53	8.551241	81.092014	Kuchchaweli	PS-530133	8.81895	81.100438	8.740082	81.161616	P5R6+2JQ, Kumpurupiddi, Sri Lanka	11.053646	
Trincomalee	Kuchchaveli	Divisional Hospital – Kuchchaveli	False	False	TRNCMLKCHCHVLDVSNLHSPTLKCHCHVL		Trincomalee	LK-53	8.551241	81.092014	Kuchchaweli	PS-530133	8.81895	81.100438	8.814795	81.102358	R472+WW9, Kuchchaveli, Sri Lanka	0.508064	
Trincomalee	Kuchchaveli	Annuria Muslim Maha Vidyalaya	False	False	TRNCMLKCHCHVLNNRMSLMMHVDYLY		Trincomalee	LK-53	8.551241	81.092014	Kuchchaweli	PS-530133	8.81895	81.100438	8.504893	81.179851	Kinniya, Sri Lanka	36.007413	#CenterFarFromPolice
Trincomalee	Kuchchaveli	Erakkandi Muslim Maha Vidyalaya	False	False	TRNCMLKCHCHVLRKKNDMSLMMHVDYLY		Trincomalee	LK-53	8.551241	81.092014	Kuchchaweli	PS-530133	8.81895	81.100438	8.592448	81.222257	N, N Coast Rd, Trincomalee, Sri Lanka	28.532789	#CenterFarFromPolice
Trincomalee	Kuchchaveli	Kallanpattu Vidyalaya	False	False	TRNCMLKCHCHVLKLLNPTTVDYLY		Trincomalee	LK-53	8.551241	81.092014	Kuchchaweli	PS-530133	8.81895	81.100438	8.399144	81.032531	92XM+M22, Trincomalee, Sri Lanka	47.288391	#CenterFarFromPolice
Trincomalee	Kuchchaveli	Divisional Hospital – Nilaveli	False	False	TRNCMLKCHCHVLDVSNLHSPTLNLVL		Trincomalee	LK-53	8.551241	81.092014	Kuchchaweli	PS-530133	8.81895	81.100438	8.681035	81.193632	M5JV+CF6, Nilaveli, Sri Lanka	18.44695	
Trincomalee	Pulmoddai	Base Hospital - Pulmoddai	False	False	TRNCMLPLMDDBSHSPTLPLMDD		Trincomalee	LK-53	8.551241	81.092014	Pulmudai	PS-530135	6.915266	79.87829	8.941204	80.983139	WXRM+F7J, Pulmoddai, Sri Lanka	256.112801	#CenterFarFromPolice
Trincomalee	Pulmoddai	Muslim National College	False	False	TRNCMLPLMDDMSLMNTNLCLLG		Trincomalee	LK-53	8.551241	81.092014	Pulmudai	PS-530135	6.915266	79.87829	8.940296	80.985139	B60, Pulmoddai, Sri Lanka	256.12882	#CenterFarFromPolice
Trincomalee	Serunuwara	Serunuwara Hospital	False	False	TRNCMLSRNWRSRNWRHSPTL		Trincomalee	LK-53	8.551241	81.092014	Serunuwara	PS-530244	8.321863	81.299322	8.322964	81.299734	Allai-Kantalai Rd, Sri Lanka	0.130589	
Trincomalee	Kantale	MOH Office – Kanatale	False	False	TRNCMLKNTLMHFFCKNTL		Trincomalee	LK-53	8.551241	81.092014	Kantale	PS-530241	8.356129	81.007739	8.599018	81.217151	H6X8+JV2, Trincomalee, Sri Lanka	35.505652	#CenterFarFromPolice
Trincomalee	Thambalagamuwa	MOH Office - Thambalagamuwa	False	False	TRNCMLTHMBLGMWMHFFCTHMBLGMW		Trincomalee	LK-53	8.551241	81.092014	Thambalagamuva	PS-530243	6.907289	79.863819	8.563603	81.239584	Hospital Ln, Trincomalee, Sri Lanka	238.604889	#CenterFarFromPolice
Batticaloa	Batticaloa	Thiraimadu Hospital	False	False	BTTCLBTTCLTHRMDHSPTL		Batticaloa	LK-51	7.792772	81.486513	Batticaloa	PS-510101	7.717949	81.699294	7.749017	81.671387	PMXC+JH2, Batticaloa, Sri Lanka	4.626304	
Batticaloa	Batticaloa	Navalady Hospital	False	False	BTTCLBTTCLNVLDYHSPTL		Batticaloa	LK-51	7.792772	81.486513	Batticaloa	PS-510101	7.717949	81.699294	7.73517	81.709217	Navalady Rd, Batticaloa, Sri Lanka	2.205798	
Batticaloa	Eravur	Sandiveli Hospital	False	False	BTTCLRVRSNDVLHSPTL		Batticaloa	LK-51	7.792772	81.486513	Eravur	PS-510104	7.715979	81.698757	7.777289	81.602853	Trincomalee Hwy, Eravur, Sri Lanka	12.578998	
Batticaloa	Eravur	MOH Office – Eravur	False	False	BTTCLRVRMHFFCRVR		Batticaloa	LK-51	7.792772	81.486513	Eravur	PS-510104	7.715979	81.698757	7.783664	81.605626	QJM4+F76, Eravur, Sri Lanka	12.729342	
Batticaloa	Eravur	Eravur Hospital	False	False	BTTCLRVRRVRHSPTL		Batticaloa	LK-51	7.792772	81.486513	Eravur	PS-510104	7.715979	81.698757	7.783168	81.605999	QJM4+799, Eravur 30300, Sri Lanka	12.663585	
Batticaloa	Eravur	Dewapuram Vidyalaya	False	False	BTTCLRVRDWPRMVDYLY		Batticaloa	LK-51	7.792772	81.486513	Eravur	PS-510104	7.715979	81.698757	7.781715	81.601743	Eravur - 04, Chenkaladi, Sri Lanka	12.953304	
Batticaloa	Eravur	Kiran Central College	False	False	BTTCLRVRKRNCNTRLCLLG		Batticaloa	LK-51	7.792772	81.486513	Eravur	PS-510104	7.715979	81.698757	7.785947	81.590295	Trincomalee Road, Chenkaladi, Sri Lanka	14.264135	
Batticaloa	Vavunathivu	Kottamunai Hospital	False	False	BTTCLVVNTHVKTTMNHSPTL		Batticaloa	LK-51	7.792772	81.486513	Vavunathive	PS-510102	6.933075	79.857181	7.719015	81.701193	91 Pioneer Rd, Batticaloa, Sri Lanka	221.420894	#CenterFarFromPolice
Batticaloa	Vavunathivu	Mandapathadi Hospital	False	False	BTTCLVVNTHVMNDPTHDHSPTL		Batticaloa	LK-51	7.792772	81.486513	Vavunathive	PS-510102	6.933075	79.857181	7.719015	81.701193	91 Pioneer Rd, Batticaloa, Sri Lanka	221.420894	#CenterFarFromPolice
Batticaloa	Vavunathivu	Panchenai Pari Vidyalaya	False	False	BTTCLVVNTHVPNCHNPRVDYLY		Batticaloa	LK-51	7.792772	81.486513	Vavunathive	PS-510102	6.933075	79.857181	7.720143	81.700516	PPC2+362, Batticaloa, Sri Lanka	221.401617	#CenterFarFromPolice
Batticaloa	Vavunathivu	Kanchanankuda Kamachchi Vidyalaya	False	False	BTTCLVVNTHVKNCHNNKDKMCHCHVDYLY		Batticaloa	LK-51	7.792772	81.486513	Vavunathive	PS-510102	6.933075	79.857181	7.720143	81.700516	PPC2+362, Batticaloa, Sri Lanka	221.401617	#CenterFarFromPolice
Batticaloa	Vavunathivu	MOH Office - Vavunathivu	False	False	BTTCLVVNTHVMHFFCVVNTHV		Batticaloa	LK-51	7.792772	81.486513	Vavunathive	PS-510102	6.933075	79.857181	7.708253	81.691368	Hospital Rd, Batticaloa, Sri Lanka	219.95575	#CenterFarFromPolice
Ampara	Ampara	Mobile Medical Team	False	False	MPRMPRMBLMDCLTM		Ampara	LK-52	7.23699	81.550391	Ampara	PS-520113	7.296771	81.677161					#CenterLocationUnknown
Ampara	Chavalakade	MOH Office – Navidanveli	False	False	MPRCHVLKDMHFFCNVDNVL		Ampara	LK-52	7.23699	81.550391	Chawalakade	PS-520125	7.413559	81.776822	7.420081	81.788401	B77, Sri Lanka	1.468805	
Ampara	Chavalakade	5th Colony Health Centre	False	False	MPRCHVLKDTHCLNYHLTHCNTR		Ampara	LK-52	7.23699	81.550391	Chawalakade	PS-520125	7.413559	81.776822	7.418836	81.781436	Chavalakade, Sri Lanka	0.776867	
Ampara	Karaitivu	MOH Office – Karaitivu	False	False	MPRKRTVMHFFCKRTV		Ampara	LK-52	7.23699	81.550391	Karaitivu		9.744059	79.870587	7.377712	81.838796	Colombo-Ratnapura-Wellawaya-Batticaloa Highway, Karativu 32250, Sri Lanka	340.788666	#CenterFarFromPolice
Ampara	Thirukkovil	MOH Office - Thirukkovil	False	False	MPRTHRKKVLMHFFCTHRKKVL		Ampara	LK-52	7.23699	81.550391	Thirukkovil	PS-520127	7.113998	81.852219	7.111635	81.852892	Central Rd, Vinayagapuram, Sri Lanka	0.273131	
Ampara	Thirukkovil	MOH Office - Alayadivembu	False	False	MPRTHRKKVLMHFFCLYDVMB		Ampara	LK-52	7.23699	81.550391	Thirukkovil	PS-520127	7.113998	81.852219	7.111627	81.852984	Courts road Road, Thirukkovil, Sri Lanka	0.276913	
Ampara	Kalmunai	MOH Office - Kalmunai South	False	False	MPRKLMNMHFFCKLMNSTH		Ampara	LK-52	7.23699	81.550391	Kalmunai	PS-520123	7.414289	81.825006	7.411712	81.838462	CR6Q+M9P, Kalmunai 32300, Sri Lanka	1.511625	
Ampara	Kalmunai	Ashraf Memorial Hospital	False	False	MPRKLMNSHRFMMRLHSPTL		Ampara	LK-52	7.23699	81.550391	Kalmunai	PS-520123	7.414289	81.825006	7.403172	81.831146	A4, Ashraff Memorial Base Hospital, A4 A4, Kalmunai 32300, Sri Lanka	1.409859	
Ampara	Sainthamarthu	MOH Office – Sainthamarthu	False	False	MPRSNTHMRTHMHFFCSNTHMRTH		Ampara	LK-52	7.23699	81.550391									#PoliceLocationUnknown
Ampara	Sainthamarthu	Sainthamarthu Hospital	False	False	MPRSNTHMRTHSNTHMRTHHSPTL		Ampara	LK-52	7.23699	81.550391									#PoliceLocationUnknown
Ampara	Pottuvil	Mobile Vaccination	False	False	MPRPTTVLMBLVCCNTN		Ampara	LK-52	7.23699	81.550391	Pothuvil	PS-520128	6.878387	81.826859					#CenterLocationUnknown
Ampara	Pottuvil	Base Hospital – Pottuvil	False	False	MPRPTTVLBSHSPTLPTTVL		Ampara	LK-52	7.23699	81.550391	Pothuvil	PS-520128	6.878387	81.826859	6.876098	81.830463	Main Street Colombo - Batticaloa Hwy, Pottuvil 32500, Sri Lanka	0.47246	
Ampara	Pottuvil	GN – Sengamam	False	False	MPRPTTVLGNSNGMM		Ampara	LK-52	7.23699	81.550391	Pothuvil	PS-520128	6.878387	81.826859	6.867891	81.839008	Muhudu Maha Vihara Mawatha, Pottuvil, Sri Lanka	1.778462	
Ampara	Pottuvil	Urani Kangar Vidyalaya	False	False	MPRPTTVLRNKNGRVDYLY		Ampara	LK-52	7.23699	81.550391	Pothuvil	PS-520128	6.878387	81.826859	7.739125	81.677467	Urani, Batticaloa, Sri Lanka	97.148053	#CenterFarFromPolice
Ampara	Pottuvil	Al Hidayah Vidyalaya	False	False	MPRPTTVLLHDYHVDYLY		Ampara	LK-52	7.23699	81.550391	Pothuvil	PS-520128	6.878387	81.826859	6.878199	81.841868	VRHR+7PH, Pottuvil, Sri Lanka	1.657565	
Ampara	Pottuvil	Hulannuge Vidyalaya	False	False	MPRPTTVLHLNNGVDYLY		Ampara	LK-52	7.23699	81.550391	Pothuvil	PS-520128	6.878387	81.826859	6.954907	81.669253	Hulannuge, Sri Lanka	19.372753	
Ampara	Akkaraipattu	MOH Office – Addalachenai	False	False	MPRKKRPTTMHFFCDDLCHN		Ampara	LK-52	7.23699	81.550391	Akkaraipattu	PS-520126	7.216084	81.853254	7.260916	81.853493	7V63+999, Addalaichenai, Sri Lanka	4.986726	
Ampara	Sammanthurai	MOH Office – Sammanthurai	False	False	MPRSMMNTHRMHFFCSMMNTHR		Ampara	LK-52	7.23699	81.550391	Samanthurai	PS-520124	7.365785	81.810859	7.369857	81.812264	9R96+WWR, Sammanthurai, Sri Lanka	0.478712	
Ampara	Sammanthurai	MOH Office – Nintavur	False	False	MPRSMMNTHRMHFFCNNTVR		Ampara	LK-52	7.23699	81.550391	Samanthurai	PS-520124	7.365785	81.810859	7.352821	81.856939	Hospital Rd, Nintavur 32340, Sri Lanka	5.283925	
