district	police	center	dose1	dose2	fuzzy_key	alt_name	district_name_norm	district_id	district_lat	district_lng	ps_name_norm	ps_id	ps_lat	ps_lng	lat	lng	formatted_address	dis_center_to_police	tags	district_si	police_si	center_si	district_ta	police_ta	center_ta	formatted_address_si	formatted_address_ta
Colombo	Cinnamon Gardens	Viharamahadevi Park	False	False	CLMBCNNMNGRDNSVHRMHDVPRK		Colombo	LK-11	6.869636	80.019598	Cinnamon Garden	PS-110324	6.907289	79.863819	6.913391	79.86174	Viharamahadevi Park, Colombo, Sri Lanka	0.716497		කොළඹ	කුරුඳු උද්‍යාන	විහාරමහාදේවි උද්‍යානය	கொழும்பு	இலவங்கப்பட்டை தோட்டங்கள்	விஹாரமஹாதேவி பூங்கா	විහාරමහාදේවි උද්‍යානය, කොළඹ, ශ්‍රී ලංකාව	விஹாரமஹாதேவி பூங்கா, கொழும்பு, இலங்கை
Colombo	Thalangama	Diyatha Uyana	False	False	CLMBTHLNGMDYTHYN		Colombo	LK-11	6.869636	80.019598	Thalangama	PS-110466	6.91089	79.929325	6.904575	79.909831	Diyatha Uyana, B240, Sri Jayawardenepura Kotte, Sri Lanka	2.264281		කොළඹ	තලංගම	දියත උයන	கொழும்பு	தலங்கம	தியாத உயனா	දියත උයන, බී 240, ශ්‍රී ජයවර්ධනපුර කෝට්ටේ, ශ්‍රී ලංකාව	தியாத உயனா, B240, ஸ்ரீ ஜெயவர்தனபுர கோட்டே, இலங்கை
Colombo	Grandpass	Sugathadasa Outdoor Stadium	False	False	CLMBGRNDPSSSGTHDSTDRSTDM		Colombo	LK-11	6.869636	80.019598	Grandpass	PS-110215	6.949052	79.872983	6.94806	79.868842	Prince of Wales Ave, Colombo 01400, Sri Lanka	0.470345		කොළඹ	ග්‍රෑන්ඩ්පාස්	සුගතදාස එළිමහන් ක්‍රීඩාංගනය	கொழும்பு	கிராண்ட்பாஸ்	சுகததாச வெளிப்புற அரங்கம்	වේල්ස් කුමර මාවත, කොළඹ 01400, ශ්‍රී ලංකාව	பிரின்ஸ் ஆஃப் வேல்ஸ் அவே, கொழும்பு 01400, இலங்கை
Colombo	Narahenpita	Army Hospital Narahenpita	False	False	CLMBNRHNPTRMYHSPTLNRHNPT		Colombo	LK-11	6.869636	80.019598	Narahenpita	PS-110321	6.891832	79.876715	6.900252	79.87618	08 Elvitigala Mawatha, Colombo 00800, Sri Lanka	0.938417		කොළඹ	නාරාහේන්පිට	නාරාහේන්පිට හමුදා රෝහල	கொழும்பு	நரஹேன்பிட்ட	இராணுவ மருத்துவமனை நாரஹேன்பிட்ட	08 ඇල්විටිගල මාවත, කොළඹ 00800, ශ්‍රී ලංකාව	08 எல்விட்டிகல மாவத்தை, கொழும்பு 00800, இலங்கை
Colombo	Narahenpita	Army Headquarters Mobile Team	False	False	CLMBNRHNPTRMYHDQRTRSMBLTM		Colombo	LK-11	6.869636	80.019598	Narahenpita	PS-110321	6.891832	79.876715					#CenterLocationUnknown	කොළඹ	නාරාහේන්පිට	යුද හමුදා මූලස්ථානයේ ජංගම කණ්ඩායම	கொழும்பு	நரஹேன்பிட்ட	இராணுவ தலைமையகம் மொபைல் குழு		
Colombo	Boralesgamuwa	Kotelawala Defence Hospital	False	False	CLMBBRLSGMWKTLWLDFNCHSPTL		Colombo	LK-11	6.869636	80.019598	Boralesgamuwa	PS-110464	6.841331	79.901255	6.82518	79.907167	RWG4+3VF, Boralesgamuwa, Sri Lanka	1.911444		කොළඹ	බොරලැස්ගමුව	කොතලාවල ආරක්‍ෂක රෝහල	கொழும்பு	பொரலஸ்கமுவா	கொத்தலாவல பாதுகாப்பு மருத்துவமனை	RWG4+3VF, බොරලැස්ගමුව, ශ්‍රී ලංකාව	RWG4+3VF, பொரலஸ்கமுவா, இலங்கை
Colombo	Dehiwala	MOH Office - Dehiwala	False	False	CLMBDHWLMHFFCDHWL		Colombo	LK-11	6.869636	80.019598	Dehiwala	PS-110580	6.850088	79.871696	6.861346	79.865943	VV68+G9P, Dehiwala-Mount Lavinia, Sri Lanka	1.404177		කොළඹ	දෙහිවල	MOH කාර්යාලය - දෙහිවල	கொழும்பு	தெஹிவளை	MOH அலுவலகம் - தெஹிவளை	VV68+G9P, දෙහිවල-ගල්කිස්ස, ශ්‍රී ලංකාව	VV68+G9P, தெஹிவளை-கல்கிசை, இலங்கை
Colombo	Maradana	National Hospital - Colombo	False	False	CLMBMRDNNTNLHSPTLCLMB		Colombo	LK-11	6.869636	80.019598	Maradana	PS-110107	6.927939	79.865471	6.918743	79.868992	Colombo 00700, Sri Lanka	1.094265		කොළඹ	මරදාන	ජාතික රෝහල - කොළඹ	கொழும்பு	மரதானா	தேசிய மருத்துவமனை - கொழும்பு	කොළඹ 00700, ශ්‍රී ලංකාව	கொழும்பு 00700, இலங்கை
Colombo	Padukka	Siri Piyarathana Primary School	False	False	CLMBPDKKSRPYRTHNPRMRYSCHL		Colombo	LK-11	6.869636	80.019598	Padukka	PS-110473	6.842195	80.09247	6.838859	80.088899	Padukka Rd, Padukka, Sri Lanka	0.541497		කොළඹ	පාදුක්ක	සිරි පියරතන ප්‍රාථමික විද්‍යාලය	கொழும்பு	பாதுக்கா	ஸ்ரீ பியரதன ஆரம்பப் பள்ளி	පාදුක්ක පාර, පාදුක්ක, ශ්‍රී ලංකාව	பாதுக்கா சாலை, பாதுக்கா, இலங்கை
Colombo	Mirihana	MOH Office - Beddagana	False	False	CLMBMRHNMHFFCBDDGN		Colombo	LK-11	6.869636	80.019598	Mirihana	PS-110462	6.873714	79.901724	6.885731	79.908328	Baddagana Rd, Sri Jayawardenepura Kotte 10100, Sri Lanka	1.522652		කොළඹ	මිරිහාන	MOH කාර්යාලය - බැද්දගාන	கொழும்பு	மிரிஹானா	MOH அலுவலகம் - பெத்தகனா	බද්දගාන පාර, ශ්‍රී ජයවර්ධනපුර කෝට්ටේ 10100, ශ්‍රී ලංකාව	பதகனா சாலை, ஸ்ரீ ஜெயவர்தனபுரா கோட்டே 10100, இலங்கை
Colombo	Homagama	Panagoda Bodhirajarama Viharaya	False	False	CLMBHMGMPNGDBDHRJRMVHRY		Colombo	LK-11	6.869636	80.019598	Homagama	PS-110470	6.836155	80.003474	6.929161	79.88265	Gnanawimala Rd, Colombo, Sri Lanka	16.883101		කොළඹ	හෝමාගම	පනාගොඩ බෝධිරාජාරාම විහාරය	கொழும்பு	ஹோமாகம	பனகொட போதிராஜாராம விஹாராயா	ඥානවිමල පාර, කොළඹ, ශ්‍රී ලංකාව	ஞானவிமல வீதி, கொழும்பு, இலங்கை
Colombo	Borella	St. Luke's Church - Borella	False	False	CLMBBRLLSTLKSCHRCHBRLL		Colombo	LK-11	6.869636	80.019598	Borella	PS-110323	6.915266	79.87829	6.918035	79.874548	1091 Gnanartha Pradeepa Mawatha, Colombo 00800, Sri Lanka	0.515354		කොළඹ	බොරැල්ල	ශාන්ත ලූක් දේවස්ථානය - බොරැල්ල	கொழும்பு	பொரெல்லா	செயின்ட் லூக்கா தேவாலயம் - பொரெல்லா	1091 ඥානාර්ථ ප්‍රදීපා මාවත, කොළඹ 00800, ශ්‍රී ලංකාව	1091 ஞானார்த்த பிரதீப மாவத்தை, கொழும்பு 00800, இலங்கை
Colombo	Mulleriyawa	MOH Office - Gothatuwa	False	False	CLMBMLLRYWMHFFCGTHTW		Colombo	LK-11	6.869636	80.019598	Mulleriyawa	PS-110469	6.927187	79.929108	6.922088	79.916237	Mandavila Rd, Kotikawatta, Sri Lanka	1.530186		කොළඹ	මුල්ලේරියාව	MOH කාර්යාලය - ගොතටුව	கொழும்பு	முல்லேரியாவா	MOH அலுவலகம் - கோததுவா	මණ්ඩවිල පාර, කොටිකාවත්ත, ශ්‍රී ලංකාව	மண்டவில வீதி, கொட்டிகாவத்த, இலங்கை
Colombo	Wellampitiya	MOH Office - Kolonnawa	False	False	CLMBWLLMPTYMHFFCKLNNW		Colombo	LK-11	6.869636	80.019598	Wellampitiya	PS-110465	6.937514	79.896298	6.938303	79.889664	25 Pansalhena 1st Ln, 10600, Sri Lanka	0.737734		කොළඹ	වැල්ලම්පිටිය	MOH කාර්යාලය - කොළොන්නාව	கொழும்பு	வெல்லம்பிட்டிய	MOH அலுவலகம் - கொலன்னாவா	25 පන්සල්හේන 1 වන අංකය, 10600, ශ්‍රී ලංකාව	25 பன்சால்ஹேனா 1 வது எண், 10600, இலங்கை
Colombo	Kaduwela	MOH Office - Kaduwela	False	False	CLMBKDWLMHFFCKDWL		Colombo	LK-11	6.869636	80.019598	Kaduwela		6.936234	79.970183	6.934127	79.984398	B263, Kaduwela, Sri Lanka	1.586964		කොළඹ	කඩුවෙල	MOH කාර්යාලය - කඩුවෙල	கொழும்பு	கடுவெல	MOH அலுவலகம் - கடுவெல	බී 263, කඩුවෙල, ශ්‍රී ලංකාව	பி 263, கடுவெல, இலங்கை
Colombo	Kosgama	Kandugoda Primary College	False	False	CLMBKSGMKNDGDPRMRYCLLG		Colombo	LK-11	6.869636	80.019598	Kosgama	PS-920227	6.946597	80.137869	6.942122	80.135465	W4RP+R5W, Sri Lanka	0.564105		කොළඹ	කොස්ගම	කඳුගොඩ ප්‍රාථමික විද්‍යාලය	கொழும்பு	கொஸ்கம	கந்துகொட ஆரம்ப கல்லூரி	W4RP+R5W, ශ්‍රී ලංකාව	W4RP+R5W, இலங்கை
Colombo	Kosgama	Kosgama Hospital	False	False	CLMBKSGMKSGMHSPTL		Colombo	LK-11	6.869636	80.019598	Kosgama	PS-920227	6.946597	80.137869	6.940956	80.124888	Salawa-Akarawita, 10730, Sri Lanka	1.564606		කොළඹ	කොස්ගම	කොස්ගම රෝහල	கொழும்பு	கொஸ்கம	கொஸ்கம மருத்துவமனை	සාලාව-අකරවිට, 10730, ශ්‍රී ලංකාව	சலாவா-அகரவிட, 10730, இலங்கை
Colombo	Fore shore	MOH Office - Jinthupitiya	False	False	CLMBFRSHRMHFFCJNTHPTY		Colombo	LK-11	6.869636	80.019598	Fore shore	PS-110210	6.949589	79.857355	6.943258	79.859238	No.27 Vivekananda Hill, Colombo 01300, Sri Lanka	0.734247		කොළඹ	ඉදිරිපස වෙරළ	MOH කාර්යාලය - ජින්තුපිටිය	கொழும்பு	முன் கரை	MOH அலுவலகம் - ஜிந்துபிடியா	අංක 27 විවේකානන්ද කන්ද, කොළඹ 01300, ශ්‍රී ලංකාව	எண் .27 விவேகானந்த மலை, கொழும்பு 01300, இலங்கை
Gampaha	Gampaha	Army Headquarters Mobile Team	False	False	GMPHGMPHRMYHDQRTRSMBLTM		Gampaha	LK-12	7.123598	80.018508	Gampaha	PS-120237	7.087765	80.01228					#CenterLocationUnknown	ගම්පහ	ගම්පහ	යුද හමුදා මූලස්ථානයේ ජංගම කණ්ඩායම	கம்பஹா	கம்பஹா	இராணுவ தலைமையகம் மொபைல் குழு		
Gampaha	Gampaha	MOH Office - Gampaha	False	False	GMPHGMPHMHFFCGMPH		Gampaha	LK-12	7.123598	80.018508	Gampaha	PS-120237	7.087765	80.01228	7.090643	80.002094	Colombo Rd, Gampaha, Sri Lanka	1.16901		ගම්පහ	ගම්පහ	MOH කාර්යාලය - ගම්පහ	கம்பஹா	கம்பஹா	MOH அலுவலகம் - கம்பஹா	කොළඹ පාර, ගම්පහ, ශ්‍රී ලංකාව	கொழும்பு வீதி, கம்பஹா, இலங்கை
Gampaha	Minuwangoda	MOH Office - Minuwangoda	False	False	GMPHMNWNGDMHFFCMNWNGD		Gampaha	LK-12	7.123598	80.018508	Minuwangoda	PS-120238	7.174215	79.957874	7.17227	79.956823	Katunayake-Veyangoda Rd, Minuwangoda, Sri Lanka	0.245525		ගම්පහ	මිනුවන්ගොඩ	MOH කාර්යාලය - මිනුවන්ගොඩ	கம்பஹா	மினுவாங்கொட	MOH அலுவலகம் - மினுவாங்கொட	කටුනායක-වේයන්ගොඩ පාර, මිනුවන්ගොඩ, ශ්‍රී ලංකාව	கட்டுநாயக்க-வெயங்கொட வீதி, மினுவாங்கொட, இலங்கை
Gampaha	Nittambuwa	Mobile Vaccination	False	False	GMPHNTTMBWMBLVCCNTN		Gampaha	LK-12	7.123598	80.018508	Nittambuwa	PS-120246	7.149726	80.10046					#CenterLocationUnknown	ගම්පහ	නිට්ටඹුව	ජංගම එන්නත	கம்பஹா	நிட்டம்புவா	மொபைல் தடுப்பூசி		
Gampaha	Pallewela	Pallewela Dispensary	False	False	GMPHPLLWLPLLWLDSPNSRY		Gampaha	LK-12	7.123598	80.018508	Pallewela	PS-120249	7.197365	80.094856	7.19666	80.093998	Pallewela, Sri Lanka	0.12294		ගම්පහ	පල්ලෙවෙල	පල්ලෙවෙල බෙහෙත් ශාලාව	கம்பஹா	பல்லெவெல	பல்லெவெல மருந்தகம்	පල්ලෙවෙල, ශ්‍රී ලංකාව	பல்லேவெல, இலங்கை
Gampaha	Pallewela	Muddaragama Dispensary	False	False	GMPHPLLWLMDDRGMDSPNSRY		Gampaha	LK-12	7.123598	80.018508	Pallewela	PS-120249	7.197365	80.094856	7.211833	80.059092	6365+PJP, Muddaragama, Sri Lanka	4.262105		ගම්පහ	පල්ලෙවෙල	මුද්දරගම බෙහෙත් ශාලාව	கம்பஹா	பல்லெவெல	முத்தரகம மருந்தகம்	6365+පීජේපී, මුද්දරගම, ශ්‍රී ලංකාව	6365+பிஜேபி, முத்தரகம, இலங்கை
Gampaha	Kadawata	MOH Office – Mahara	False	False	GMPHKDWTMHFFCMHR		Gampaha	LK-12	7.123598	80.018508	Kadawatha	PS-120136	7.00152	79.95003	7.020757	79.973481	Mahara, Eldeniya, Sri Lanka	3.358732		ගම්පහ	කඩවත	MOH කාර්යාලය - මහර	கம்பஹா	கடவாடா	MOH அலுவலகம் - மஹாரா	මහර, ඇල්දෙනිය, ශ්‍රී ලංකාව	மஹாரா, எல்டெனியா, இலங்கை
Gampaha	Biyagama	MOH Office - Biyagama	False	False	GMPHBYGMMHFFCBYGM		Gampaha	LK-12	7.123598	80.018508	Biyagama	PS-120131	6.962284	80.009037	6.946824	79.994052	Hospital Rd, Sri Lanka	2.386313		ගම්පහ	බියගම	MOH කාර්යාලය - බියගම	கம்பஹா	பியகம	MOH அலுவலகம் - பியாகம	රෝහල පාර, ශ්‍රී ලංකාව	மருத்துவமனை Rd, இலங்கை
Gampaha	Peliyagoda	Peliyagoda Vidyalankara Pirivena	False	False	GMPHPLYGDPLYGDVDYLNKRPRVN		Gampaha	LK-12	7.123598	80.018508	Peliyagoda	PS-120125	6.955193	79.88612	6.963965	79.898275	Colombo - Kandy Rd, Peliyagoda, Sri Lanka	1.659238		ගම්පහ	පෑලියගොඩ	පෑලියගොඩ විද්‍යාලංකාර පිරිවෙන	கம்பஹா	பேலியகொட	பேலியகொட வித்யாலங்கார பிரிவேனா	කොළඹ - නුවර පාර, පෑලියගොඩ, ශ්‍රී ලංකාව	கொழும்பு - கண்டி வீதி, பேலியகொட, இலங்கை
Gampaha	Pugoda	MOH Office – Dompe	False	False	GMPHPGDMHFFCDMP		Gampaha	LK-12	7.123598	80.018508	Pugoda	PS-120241	6.98283	80.111189	6.976767	80.117422	Dompe, Pugoda-Mandawala Rd, Pugoda, Sri Lanka	0.963513		ගම්පහ	පූගොඩ	MOH කාර්යාලය - දොම්පේ	கம்பஹா	புகோடா	MOH அலுவலகம் - Dompe	දොම්පේ, පූගොඩ-මණ්ඩාවල පාර, පූගොඩ, ශ්‍රී ලංකාව	டோம்பே, புகோடா-மண்டவாலா சாலை, புகோடா, இலங்கை
Gampaha	Pamunugama	Pamunugama Hospital	False	False	GMPHPMNGMPMNGMHSPTL		Gampaha	LK-12	7.123598	80.018508	Pamunugama	PS-120353	7.078892	79.859696	7.093543	79.850191	3VV2+C38, Negombo, Sri Lanka	1.938152		ගම්පහ	පමුණුගම	පමුණුගම රෝහල	கம்பஹா	பமுனுகம	பமுனுகம மருத்துவமனை	3VV2+C38, මීගමුව, ශ්‍රී ලංකාව	3VV2+C38, நீர்கொழும்பு, இலங்கை
Gampaha	Kotadeniyawa	Badalgama Central Dispensary	False	False	GMPHKTDNYWBDLGMCNTRLDSPNSRY		Gampaha	LK-12	7.123598	80.018508	Kotadeniyawa	PS-120354	7.283643	80.06649	7.284487	80.063252	B322, Kotadeniyawa, Sri Lanka	0.369384		ගම්පහ	කොටදෙනියාව	බඩල්ගම මධ්‍යම බෙහෙත් ශාලාව	கம்பஹா	கோடதெனியாவா	பதல்கம மத்திய மருந்தகம்	B322, කොටදෙනියාව, ශ්‍රී ලංකාව	B322, கொட்டதெனியாவா, இலங்கை
Gampaha	Divulapitiya	MOH Office - Divulapitiya	False	False	GMPHDVLPTYMHFFCDVLPTY		Gampaha	LK-12	7.123598	80.018508	Diulapitiya	PS-120355	7.174215	79.957874	7.215486	80.013606	6287+5CX, Divulapitiya, Sri Lanka	7.67456		ගම්පහ	දිවුලපිටිය	එම්ඕඑච් කාර්යාලය - දිවුලපිටිය	கம்பஹா	திவுலபிட்டிய	MOH அலுவலகம் - திவுலபிட்டிய	6287+5CX, දිවුලපිටිය, ශ්‍රී ලංකාව	6287+5CX, திவுலபிட்டிய, இலங்கை
Gampaha	Ja Ela	Ja-Ela Urban Council Clinic	False	False	GMPHJLJLRBNCNCLCLNC		Gampaha	LK-12	7.123598	80.018508	Ja - Ela	PS-120133	7.081055	79.890504	7.077925	79.891369	A3, Ja-Ela 11350, Sri Lanka	0.361005		ගම්පහ	ජා ඇල	ජා-ඇල නගර සභා සායනය	கம்பஹா	ஜா எல	ஜா-எல நகர சபை கிளினிக்	ඒ 3, ජා-ඇල 11350, ශ්‍රී ලංකාව	A3, ஜா-எல 11350, இலங்கை
Gampaha	Wattala	MOH Office – Wattala	False	False	GMPHWTTLMHFFCWTTL		Gampaha	LK-12	7.123598	80.018508	Wattala	PS-120128	6.993713	79.894506	6.995817	79.885793	301 Hendala Rd, Wattala, Sri Lanka	0.989991		ගම්පහ	වත්තල	MOH කාර්යාලය - වත්තල	கம்பஹா	வத்தளை	MOH அலுவலகம் - வத்தளை	301 හැඳල පාර, වත්තල, ශ්‍රී ලංකාව	301 ஹெந்தலா சாலை, வத்தளை, இலங்கை
Gampaha	Ragama	MOH Office – Ragama	False	False	GMPHRGMMHFFCRGM		Gampaha	LK-12	7.123598	80.018508	Ragama	PS-120134	7.034975	79.924148	7.027386	79.920232	2WGC+X35, Ragama, Sri Lanka	0.948382		ගම්පහ	රාගම	MOH කාර්යාලය - රාගම	கம்பஹா	ராகம	MOH அலுவலகம் - ராகம	2WGC+X35, රාගම, ශ්‍රී ලංකාව	2WGC+X35, ராகம, இலங்கை
Kalutara	Kalutara	Army Headquarters Mobile Team	False	False	KLTRKLTRRMYHDQRTRSMBLTM		Kalutara	LK-13	6.577316	80.127363	Kalutara South		6.584968	79.96102					#CenterLocationUnknown	කළුතර	කළුතර	යුද හමුදා මූලස්ථානයේ ජංගම කණ්ඩායම	களுத்துறை	களுத்துறை	இராணுவ தலைமையகம் மொபைல் குழு		
Kalutara	Kalutara South	Hinatiyangala Mobile  Vaccination	False	False	KLTRKLTRSTHHNTYNGLMBLVCCNTN		Kalutara	LK-13	6.577316	80.127363	Kalutara South	PS-130296	6.58486	79.961043					#CenterLocationUnknown	කළුතර	කළුතර දකුණ	හිනටියංගල ජංගම එන්නත	களுத்துறை	களுத்துறை தெற்கு	ஹினடியங்களா மொபைல் தடுப்பூசி		
Kalutara	Horana	Horana Base Hospital	False	False	KLTRHRNHRNBSHSPTL		Kalutara	LK-13	6.577316	80.127363	Horana	PS-130192	6.714613	80.069091	6.710644	80.066589	Hospital Ln, Horana, Sri Lanka	0.520853		කළුතර	හොරණ	හොරණ මූලික රෝහල	களுத்துறை	ஹொரானா	ஹொரானா அடிப்படை மருத்துவமனை	හොරණ රෝහල, ශ්‍රී ලංකාව	மருத்துவமனை Ln, ஹொரானா, இலங்கை
Kalutara	Ingiriya	Ingiriya Hospital	False	False	KLTRNGRYNGRYHSPTL		Kalutara	LK-13	6.577316	80.127363	Ingiriya	PS-130193	6.743614	80.175077	6.741133	80.162046	Panadura-Nambapana-Ratnapura Hwy, Ingiriya, Sri Lanka	1.465626		කළුතර	ඉංගිරිය	ඉංගිරිය රෝහල	களுத்துறை	இங்கிரிய	இங்கிரிய மருத்துவமனை	පානදුර-නාම්බපන-රත්නපුර හ්වි, ඉංගිරිය, ශ්‍රී ලංකාව	பாணாதுரா-நம்பபனா-ரத்னபுரா ஹ்வி, இங்கிரிய, இலங்கை
Kalutara	Wadduwa	MOH Office - Wadduwa	False	False	KLTRWDDWMHFFCWDDW		Kalutara	LK-13	6.577316	80.127363	Wadduwa	PS-130188	6.664403	79.929851	6.666497	79.928619	Government Dispensery, Rd, Wadduwa, Sri Lanka	0.269769		කළුතර	වාද්දුව	MOH කාර්යාලය - වාද්දුව	களுத்துறை	வாத்துவா	MOH அலுவலகம் - வாட்டுவா	රජයේ ඩිස්පෙන්සරි, පාර, වාද්දුව, ශ්‍රී ලංකාව	அரசு மருந்தகம், ஆர்ட், வாட்டுவா, இலங்கை
Kalutara	Panadura	Panadura Hospital	False	False	KLTRPNDRPNDRHSPTL	Base Hospital Panadura	Kalutara	LK-13	6.577316	80.127363	Panadura North		6.756309	79.898939	6.721556	79.906851	A2, Panadura, Sri Lanka	3.963137		කළුතර	පානදුර	පානදුර මූලික රෝහල	களுத்துறை	பாணந்துறை	பாணந்துறை அடிப்படை மருத்துவமனை	ඒ 2, පානදුර, ශ්‍රී ලංකාව	ஏ 2, பாணந்துரா, இலங்கை
Kalutara	Millaniya	MOH Office - Millaniya	False	False	KLTRMLLNYMHFFCMLLNY		Kalutara	LK-13	6.577316	80.127363	Millaniya	PS-130191	6.681692	80.020847	6.724224	79.907284	A2, Panadura, Sri Lanka	13.407612		කළුතර	මිල්ලනිය	MOH කාර්යාලය - මිල්ලනිය	களுத்துறை	மில்லனியா	MOH அலுவலகம் - மில்லனியா	ඒ 2, පානදුර, ශ්‍රී ලංකාව	ஏ 2, பாணந்துரா, இலங்கை
Kalutara	Agalawatta	Pimbura Hospital	False	False	KLTRGLWTTPMBRHSPTL		Kalutara	LK-13	6.577316	80.127363	Agalawatta		6.542566	80.157178	6.575949	80.158371	H5G5+98H, කළුතර, Sri Lanka	3.715525		කළුතර	අගලවත්ත	පිඹුර රෝහල	களுத்துறை	அகலவத்தை	பிம்புரா மருத்துவமனை	H5G5+98H, කළුතර, ශ්‍රී ලංකාව	H5G5+98H, கருப்புதர, இலங்கை
Kalutara	Matugama	Weththewa Hospital	False	False	KLTRMTGMWTHTHWHSPTL		Kalutara	LK-13	6.577316	80.127363	Mathugama	PS-1302103	6.520881	80.117908	6.523087	80.125192	District Hospital, Hospital Road,Weththewa,., Matugama, Sri Lanka	0.841523		කළුතර	මතුගම	වෙත්තෑව රෝහල	களுத்துறை	மத்துகம	வெத்தேவா மருத்துவமனை	දිසා රෝහල, රෝහල් පාර, වෙත්තෑව,., මතුගම, ශ්‍රී ලංකාව	மாவட்ட மருத்துவமனை, மருத்துவமனை சாலை, வெத்தேவா,., மத்துகம, இலங்கை
Kalutara	Matugama	Katugahahena Hospital	False	False	KLTRMTGMKTGHHNHSPTL		Kalutara	LK-13	6.577316	80.127363	Mathugama	PS-1302103	6.520881	80.117908	6.489328	80.08471	F3QM+PVP, Bopitiya, Sri Lanka	5.077192		කළුතර	මතුගම	කටුගහහේන රෝහල	களுத்துறை	மத்துகம	கட்டுகஹஹேனா மருத்துவமனை	F3QM+PVP, බෝපිටිය, ශ්‍රී ලංකාව	F3QM+PVP, போபிடியா, இலங்கை
Kalutara	Baduraliya	Baduraliya Hospital	False	False	KLTRBDRLYBDRLYHSPTL		Kalutara	LK-13	6.577316	80.127363	Baduraliya	PS-1302106	6.516756	80.226716	6.514727	80.232731	Tiruwanaketiya-Agalawatte Rd, Baduraliya, Sri Lanka	0.702098		කළුතර	බදුරලිය	බදුරලිය රෝහල	களுத்துறை	பதுரலியா	பதுரலியா மருத்துவமனை	තිරුවානකැටිය-අගලවත්ත පාර, බදුරලිය, ශ්‍රී ලංකාව	திருவனகெட்டிய-அகலவத்தை சாலை, பதுரலியா, இலங்கை
Kalutara	Bandragama	MOH Office - Bandaragama	False	False	KLTRBNDRGMMHFFCBNDRGM		Kalutara	LK-13	6.577316	80.127363	Bandaragama	PS-130189	6.715179	79.987674	6.713351	79.991671	Library Path, Bandaragama, Sri Lanka	0.486104		කළුතර	බණ්ඩාරගම	MOH කාර්යාලය - බණ්ඩාරගම	களுத்துறை	பந்த்ரகம	MOH அலுவலகம் - பண்டாரகம	පුස්තකාල මාවත, බණ්ඩාරගම, ශ්‍රී ලංකාව	நூலகப் பாதை, பண்டாரகம, இலங்கை
Kalutara	Bandragama	Bandaragama Hospital	False	False	KLTRBNDRGMBNDRGMHSPTL		Kalutara	LK-13	6.577316	80.127363	Bandaragama	PS-130189	6.715179	79.987674	6.716162	79.991484	Horana Rd, Bandaragama, Sri Lanka	0.434849		කළුතර	බණ්ඩාරගම	බණ්ඩාරගම රෝහල	களுத்துறை	பந்த்ரகம	பண்டாரகம மருத்துவமனை	හොරණ පාර, බණ්ඩාරගම, ශ්‍රී ලංකාව	ஹொரானா வீதி, பண்டாரகம, இலங்கை
Kalutara	Giriulla	Mahagirilla Vidyalaya	False	False	KLTRGRLLMHGRLLVDYLY		Kalutara	LK-13	6.577316	80.127363	Giriulla	PS-610215	7.334527	80.125021	6.57428	79.964787	HXF7+PW7, Kalutara, Sri Lanka	86.392982	#CenterFarFromPolice	කළුතර	ගිරිඋල්ල	මහගිරිල්ල විද්‍යාලය	களுத்துறை	கிரியுல்லா	மஹாகிரில்லா வித்யாலயா	HXF7+PW7, කළුතර, ශ්‍රී ලංකාව	HXF7+PW7, களுத்துறை, இலங்கை
Kurunegala	Giriulla	Mahakirinda Vidyalaya	False	False	KRNGLGRLLMHKRNDVDYLY		Kurunegala	LK-61	7.66477	80.23677	Giriulla	PS-610215	7.334527	80.125021	7.338625	80.117546	Meddepola Road, Giriulla, Sri Lanka	0.942229		කුරුණෑගල	ගිරිඋල්ල	මහකිරින්ද විද්‍යාලය	குருநாகல்	கிரியுல்லா	மகாகிரிந்தா வித்யாலயா	මැද්දේපොළ පාර, ගිරිඋල්ල, ශ්‍රී ලංකාව	மெட்டெபோலா சாலை, கிரியுல்லா, இலங்கை
Puttalam	Puttalam	Bhodirajapura Viharaya	False	False	PTTLMPTTLMBHDRJPRVHRY		Puttalam	LK-62	7.973531	79.913833	Puttalam	PS-620130	8.029904	79.834396	7.952474	79.855153	XV24+X3J, Poththuwilluwa, Sri Lanka	8.910843		පුත්තලම	පුත්තලම	බෝධිරාජපුර විහාරය	புத்தளம்	புத்தளம்	போதிராஜபுரா விஹாராயா	XV24+X3J, පොතුවිල්ලුව, ශ්‍රී ලංකාව	XV24+X3J, பொத்துவிலுவா, இலங்கை
Puttalam	Pallama Marawila	Madawakkulama Vidyalaya	False	False	PTTLMPLLMMRWLMDWKKLMVDYLY		Puttalam	LK-62	7.973531	79.913833									#PoliceLocationUnknown	පුත්තලම	පල්ලම මාරවිල	මඩවක්කුලම විද්‍යාලය	புத்தளம்	பல்லம மரவில	மதவாக்குலம வித்யாலயா		
Puttalam	Pallama Marawila	MOH Office – Naththandiya	False	False	PTTLMPLLMMRWLMHFFCNTHTHNDY		Puttalam	LK-62	7.973531	79.913833									#PoliceLocationUnknown	පුත්තලම	පල්ලම මාරවිල	MOH කාර්යාලය - නත්තණ්ඩිය	புத்தளம்	பல்லம மரவில	MOH அலுவலகம் - நத்தாண்டியா		
Puttalam	Mundalama	MOH Office – Mundalama	False	False	PTTLMMNDLMMHFFCMNDLM		Puttalam	LK-62	7.973531	79.913833	Mundal	PS-620138	7.808859	79.825729	7.78892	79.82751	Puttalam - Colombo Rd, Sri Lanka	2.226479		පුත්තලම	මුන්දලම	MOH කාර්යාලය - මුන්දලම	புத்தளம்	முண்டாலமா	MOH அலுவலகம் - முண்டலமா	පුත්තලම - කොළඹ පාර, ශ්‍රී ලංකාව	புத்தளம் - கொழும்பு வீதி, இலங்கை
Puttalam	Hanguranketa	Muloya Tamil College	False	False	PTTLMHNGRNKTMLYTMLCLLG		Puttalam	LK-62	7.973531	79.913833	Hanguranketha	PS-210108	7.176511	80.777388	8.031949	79.844694	2RJV+QVG, Puttalam, Sri Lanka	140.098467	#CenterFarFromPolice	පුත්තලම	හඟුරන්කැට	මුලෝයා දෙමළ විද්‍යාලය	புத்தளம்	ஹங்குரன்கெட்டா	முலோயா தமிழ் கல்லூரி	2RJV+QVG, පුත්තලම, ශ්‍රී ලංකාව	2RJV+QVG, புத்தளம், இலங்கை
Badulla	Rideemaliyadda	MOH Office - Rideemaliyadda	False	False	BDLLRDMLYDDMHFFCRDMLYDD		Badulla	LK-81	7.074529	81.04486	Rideemaliyadda		7.214807	81.124613	7.236705	81.107802	B57, Uraniya, Sri Lanka	3.061673		බදුල්ල	රිදීමාලියද්ද	MOH කාර්යාලය - රිදීමාලියද්ද	பதுளை	ரிடிமாலியத்த	MOH அலுவலகம் - Rideemaliyadda	බී 57, යුරේනිය, ශ්‍රී ලංකාව	பி 57, யுரேனியா, இலங்கை
Badulla	Passara	MOH Office - Passara	False	False	BDLLPSSRMHFFCPSSR		Badulla	LK-81	7.074529	81.04486	Passara	PS-810102	6.934481	81.154796	6.934254	81.151823	W5M2+PP4, Passara, Sri Lanka	0.329237		බදුල්ල	පස්සර	MOH කාර්යාලය - පස්සර	பதுளை	பசர	MOH அலுவலகம் - பசாரா	W5M2+PP4, පස්සර, ශ්‍රී ලංකාව	W5M2+PP4, பசரா, இலங்கை
Badulla	Hali Ela	MOH Office - Hali Ela	False	False	BDLLHLLMHFFCHLL		Badulla	LK-81	7.074529	81.04486	Haliela	PS-810108	6.958216	81.034447	6.962439	81.036061	Peradeniya-Badulla-Chenkaladi Hwy, Hali-ela, Sri Lanka	0.50239		බදුල්ල	හාලි ඇල	MOH කාර්යාලය - හාලි ඇල	பதுளை	ஹாலி எல	MOH அலுவலகம் - ஹாலி எல	පේරාදෙණිය-බදුල්ල-චෙන්කලාඩි හ්වි, හාලි ඇල, ශ්‍රී ලංකාව	பேராதனை-பதுளை-செங்கலடி ஹ்வி, ஹாலி-எல, இலங்கை
Badulla	Badulla	Badulla Hospital	False	False	BDLLBDLLBDLLHSPTL		Badulla	LK-81	7.074529	81.04486	Badulla	PS-810101	6.991337	81.055246	6.991808	81.05235	Daya Gunasekara Mawatha, Badulla, Sri Lanka	0.32399		බදුල්ල	බදුල්ල	බදුල්ල රෝහල	பதுளை	பதுளை	பதுளை மருத்துவமனை	දයා ගුණසේකර මාවත, බදුල්ල, ශ්‍රී ලංකාව	தயா குணசேகர மாவத்தை, பதுளை, இலங்கை
Matara	Thihagoda	Mobile Vaccination	False	False	MTRTHHGDMBLVCCNTN		Matara	LK-32	6.142734	80.539994	Thihagoda	PS-320104	6.01331	80.567932					#CenterLocationUnknown	මාතර	තිහගොඩ	ජංගම එන්නත	மாத்தறை	திஹாகொட	மொபைல் தடுப்பூசி		
Matara	Pasgoda	MOH Office - Pasgoda	False	False	MTRPSGDMHFFCPSGD		Matara	LK-32	6.142734	80.539994									#PoliceLocationUnknown	මාතර	පස්ගොඩ	MOH කාර්යාලය - පස්ගොඩ	மாத்தறை	பாஸ்கோடா	MOH அலுவலகம் - பாஸ்கோடா		
Matara	Dikwella	Divisional Secretariat Dickwella	False	False	MTRDKWLLDVSNLSCRTRTDCKWLL		Matara	LK-32	6.142734	80.539994	Dikwella	PS-320103	5.964296	80.693198	5.964398	80.689583	Tnagalle Road, Batigama, Sri Lanka	0.40008		මාතර	දික්වැල්ල	දික්වැල්ල ප්‍රාදේශීය ලේකම් කාර්යාලය	மாத்தறை	திக்வெல்ல	பிரதேச செயலகம் டிக்வெல்ல	තනගල්ල පාර, බතිගම, ශ්‍රී ලංකාව	தனகல்லே சாலை, படிகாமா, இலங்கை
Matara	Gandara	Mobile Vaccination	False	False	MTRGNDRMBLVCCNTN		Matara	LK-32	6.142734	80.539994	Gandara	PS-320102	5.941629	80.614037					#CenterLocationUnknown	මාතර	ගන්දර	ජංගම එන්නත	மாத்தறை	கந்தரா	மொபைல் தடுப்பூசி		
Matara	Matara	Superintentdent of Medical Office , Matara	False	False	MTRMTRSPRNTNTDNTFMDCLFFCMTR		Matara	LK-32	6.142734	80.539994	Matara	PS-320101	5.94904	80.533659	5.947366	80.547819	WGWX+W4W, Matara, Sri Lanka	1.577562		මාතර	මාතර	මාතර වෛද්‍ය කාර්යාලයේ අධිකාරි	மாத்தறை	மாத்தறை	மருத்துவ அலுவலகத்தின் மேற்பார்வையாளர், மாத்தறை	WGWX+W4W, මාතර, ශ්‍රී ලංකාව	WGWX+W4W, மாத்தறை, இலங்கை
Hambantota	Hambantota	MOH Office - Hambantota	False	False	HMBNTTHMBNTTMHFFCHMBNTT		Hambantota	LK-33	6.259779	81.098619	Hambantota	PS-330156	6.125872	81.12521	6.171162	81.127	54CG+FQ9, Hambantota, Sri Lanka	5.041487		හම්බන්තොට	හම්බන්තොට	MOH කාර්යාලය - හම්බන්තොට	அம்பாந்தோட்டை	அம்பாந்தோட்டை	MOH அலுவலகம் - அம்பாந்தோட்டை	54CG+FQ9, හම්බන්තොට, ශ්‍රී ලංකාව	54CG+FQ9, ஹம்பாந்தோட்டை, இலங்கை
Hambantota	Ambalantota	MOH Office - Ambalantota	False	False	HMBNTTMBLNTTMHFFCMBLNTT		Hambantota	LK-33	6.259779	81.098619	Ambalantota	PS-330157	6.12516	81.023981	6.122767	81.005973	Walawa watta Road, Malpeththawa, Ambalantota, Sri Lanka	2.009195		හම්බන්තොට	අම්බලන්තොට	MOH කාර්යාලය - අම්බලන්තොට	அம்பாந்தோட்டை	அம்பலாந்தோட்டை	MOH அலுவலகம் - அம்பலாந்தோட்டை	වලව වත්ත පාර, මල්පෙත්තාව, අම්බලන්තොට, ශ්‍රී ලංකාව	வலவா வாட்டா சாலை, மால்பெத்தவா, அம்பலாந்தோட்டை, இலங்கை
Hambantota	Walasmulla	MOH Office - Walasmulla	False	False	HMBNTTWLSMLLMHFFCWLSMLL		Hambantota	LK-33	6.259779	81.098619	Walasmulla	PS-330151	6.154102	80.698256	6.150889	80.693718	Walasmulla, Sri Lanka	0.616099		හම්බන්තොට	වලස්මුල්ල	MOH කාර්යාලය - වලස්මුල්ල	அம்பாந்தோட்டை	வலஸ்முல்லா	MOH அலுவலகம் - வலஸ்முல்லா	වලස්මුල්ල, ශ්‍රී ලංකාව	வலஸ்முல்லா, இலங்கை
Hambantota	Weeraketiya	MOH Office - Weeraketiya	False	False	HMBNTTWRKTYMHFFCWRKTY		Hambantota	LK-33	6.259779	81.098619	Weeraketiya	PS-330149	6.153899	80.76737	6.144703	80.765287	4QV8+V4M, Weeraketiya, Sri Lanka	1.048488		හම්බන්තොට	වීරකැටිය	MOH කාර්යාලය - වීරකැටිය	அம்பாந்தோட்டை	வீரகெட்டிய	MOH அலுவலகம் - வீரகெட்டிய	4QV8+V4M, වීරකැටිය, ශ්‍රී ලංකාව	4QV8+V4M, வீரகெட்டிய, இலங்கை
Hambantota	Katuwana	MOH Office - Katuwana	False	False	HMBNTTKTWNMHFFCKTWN		Hambantota	LK-33	6.259779	81.098619	Katuwana	PS-330153	6.269722	80.690963	6.26627	80.693035	7M8V+G63, Katuwana, Sri Lanka	0.447115		හම්බන්තොට	කටුවන	MOH කාර්යාලය - කටුවන	அம்பாந்தோட்டை	கட்டுவானா	MOH அலுவலகம் - கட்டுவானா	7 එම් 8 වී+ජී 63, කටුවන, ශ්‍රී ලංකාව	7M8V+G63, கட்டுவானா, இலங்கை
Hambantota	Sooriyawewa	MOH Office - Sooriyawewa	False	False	HMBNTTSRYWWMHFFCSRYWW		Hambantota	LK-33	6.259779	81.098619	Sooriyawewa	PS-330155	6.306022	81.003873	6.304862	81.004768	8233+WWR, Sooriyawewa, Sri Lanka	0.1626		හම්බන්තොට	සූරියවැව	MOH කාර්යාලය - සූරියවැව	அம்பாந்தோட்டை	சூரியவெவ	MOH அலுவலகம் - சூரியவெவ	8233+ඩබ්ලිව්ඩබ්ලිව්ආර්, සූරියවැව, ශ්‍රී ලංකාව	8233+WWR, சூரியவெவ, இலங்கை
Hambantota	Beliatta	MOH Office – Beliatta	False	False	HMBNTTBLTTMHFFCBLTT		Hambantota	LK-33	6.259779	81.098619	Beliatta	PS-330152	6.046936	80.735408	6.051828	80.741735	3P2R+PMQ, Hambantota, Sri Lanka	0.886482		හම්බන්තොට	බෙලිඅත්ත	MOH කාර්යාලය - බෙලිඅත්ත	அம்பாந்தோட்டை	பெலியாட்டா	MOH அலுவலகம் - பெலியாட்ட	3P2R+PMQ, හම්බන්තොට, ශ්‍රී ලංකාව	3P2R+PMQ, ஹம்பாந்தோட்டை, இலங்கை
Hambantota	Tangalle	MOH Office – Tangalle	False	False	HMBNTTTNGLLMHFFCTNGLL		Hambantota	LK-33	6.259779	81.098619	Tangalle	PS-330147	6.023954	80.797255	6.02363	80.795742	2QFW+F75, Tangalle, Sri Lanka	0.171198		හම්බන්තොට	තංගල්ල	MOH කාර්යාලය - තංගල්ල	அம்பாந்தோட்டை	தங்காலை	MOH அலுவலகம் - தங்காலை	2QFW+F75, තංගල්ල, ශ්‍රී ලංකාව	2QFW+F75, தங்காலை, இலங்கை
Kegalle	Pindeniya	MOH Office - Galigamuwa	False	False	KGLLPNDNYMHFFCGLGMW		Kegalle	LK-92	7.104216	80.342866	Pindeniya	PS-920124	7.156486	80.295092	7.240448	80.300505	ballapana, galigamuwa town, Sri Lanka	9.358163		කෑගල්ල	පිණ්ඩෙණිය	MOH කාර්යාලය - ගලිගමුව	கேகாலை	பிந்தெனியா	MOH அலுவலகம் - கலிகமுவா	බැල්ලපන, ගලිගමුව නගරය, ශ්‍රී ලංකාව	பலபனா, கலிகமுவா நகரம், இலங்கை
Kegalle	Pindeniya	Atala Rural Hospital	False	False	KGLLPNDNYTLRRLHSPTL		Kegalle	LK-92	7.104216	80.342866	Pindeniya	PS-920124	7.156486	80.295092	7.175086	80.293539	Galigamuwa-Ruwanwella Rd, Sri Lanka	2.075962		කෑගල්ල	පිණ්ඩෙණිය	ඇටලා ග්‍රාමීය රෝහල	கேகாலை	பிந்தெனியா	அட்டா கிராமப்புற மருத்துவமனை	ගලිගමුව-රුවන්වැල්ල පාර, ශ්‍රී ලංකාව	கலிகமுவா-ருவான்வெல்லா சாலை, இலங்கை
Kegalle	Pindeniya	Iddamalpana Viharaya	False	False	KGLLPNDNYDDMLPNVHRY		Kegalle	LK-92	7.104216	80.342866	Pindeniya	PS-920124	7.156486	80.295092	7.180735	80.328255	Morontota-Arandara Rd, Sri Lanka	4.546392		කෑගල්ල	පිණ්ඩෙණිය	ඉද්දමල්පන විහාරය	கேகாலை	பிந்தெனியா	இடமால்பன விஹாராயா	මොරොන්තොට-අරන්දර පාර, ශ්‍රී ලංකාව	மொரோன்டோட்டா-அரந்தரா சாலை, இலங்கை
Kegalle	Dedigama	Dedigama Primary College	False	False	KGLLDDGMDDGMPRMRYCLLG		Kegalle	LK-92	7.104216	80.342866	Dedigama	PS-920121	7.204341	80.261769	7.207588	80.262402	Udukumbura-Dedigama-Kehelwala Rd, Udukumbura, Sri Lanka	0.367856		කෑගල්ල	දැදිගම	දැදිගම ප්‍රාථමික විද්‍යාලය	கேகாலை	டெடிகாமா	தெடிக்கம தொடக்கக் கல்லூரி	උඩුකුඹුර-දැදිගම-කෙහෙල්වල පාර, උඩුකුඹුර, ශ්‍රී ලංකාව	உடுகும்புரா-தெடிகம-கெஹல்வாலா சாலை, உடுகும்புரா, இலங்கை
Kegalle	Dedigama	Ihala Lenagala Community Hall	False	False	KGLLDDGMHLLNGLCMMNTYHLL		Kegalle	LK-92	7.104216	80.342866	Dedigama	PS-920121	7.204341	80.261769	7.203348	80.255694	Lenagala, thunthota, Sri Lanka	0.679425		කෑගල්ල	දැදිගම	ඉහළ ලේනාගල ප්‍රජා ශාලාව	கேகாலை	டெடிகாமா	இஹல லெனகல சமுதாயக் கூடம்	ලේනාගල, තුන්තොට, ශ්‍රී ලංකාව	லெனகலா, துந்தோடா, இலங்கை
Kegalle	Dedigama	Mahapallegama Vidyalaya	False	False	KGLLDDGMMHPLLGMVDYLY		Kegalle	LK-92	7.104216	80.342866	Dedigama	PS-920121	7.204341	80.261769	7.207588	80.262402	Udukumbura-Dedigama-Kehelwala Rd, Udukumbura, Sri Lanka	0.367856		කෑගල්ල	දැදිගම	මහපල්ලේගම විද්‍යාලය	கேகாலை	டெடிகாமா	மஹாபல்லேகம வித்யாலயா	උඩුකුඹුර-දැදිගම-කෙහෙල්වල පාර, උඩුකුඹුර, ශ්‍රී ලංකාව	உடுகும்புரா-தெடிகம-கெஹல்வாலா சாலை, உடுகும்புரா, இலங்கை
Kegalle	Dedigama	Morawaka Primary College	False	False	KGLLDDGMMRWKPRMRYCLLG		Kegalle	LK-92	7.104216	80.342866	Dedigama	PS-920121	7.204341	80.261769	7.207588	80.262402	Udukumbura-Dedigama-Kehelwala Rd, Udukumbura, Sri Lanka	0.367856		කෑගල්ල	දැදිගම	මොරවක ප්‍රාථමික විද්‍යාලය	கேகாலை	டெடிகாமா	மொரவாகா ஆரம்பக் கல்லூரி	උඩුකුඹුර-දැදිගම-කෙහෙල්වල පාර, උඩුකුඹුර, ශ්‍රී ලංකාව	உடுகும்புரா-தெடிகம-கெஹல்வாலா சாலை, உடுகும்புரா, இலங்கை
Kegalle	Dedigama	Menikkadawara Primary College	False	False	KGLLDDGMMNKKDWRPRMRYCLLG		Kegalle	LK-92	7.104216	80.342866	Dedigama	PS-920121	7.204341	80.261769	7.188561	80.250776	Menikkadawara Rd, Dedigama, Sri Lanka	2.133636		කෑගල්ල	දැදිගම	මැණික්කඩවර ප්‍රාථමික විද්‍යාලය	கேகாலை	டெடிகாமா	மெனிக்கடவாரா தொடக்கக் கல்லூரி	මැණික්කඩවර පාර, දැදිගම, ශ්‍රී ලංකාව	மெனிக்கடவாரா சாலை, தெடிகம, இலங்கை
Kegalle	Dedigama	Kinivita Primary College	False	False	KGLLDDGMKNVTPRMRYCLLG		Kegalle	LK-92	7.104216	80.342866	Dedigama	PS-920121	7.204341	80.261769	7.207588	80.262402	Udukumbura-Dedigama-Kehelwala Rd, Udukumbura, Sri Lanka	0.367856		කෑගල්ල	දැදිගම	කිනිවිට ප්‍රාථමික විද්‍යාලය	கேகாலை	டெடிகாமா	கினிவிட ஆரம்பக் கல்லூரி	උඩුකුඹුර-දැදිගම-කෙහෙල්වල පාර, උඩුකුඹුර, ශ්‍රී ලංකාව	உடுகும்புரா-தெடிகம-கெஹல்வாலா சாலை, உடுகும்புரா, இலங்கை
Kegalle	Dedigama	Dedigama Maha Vidyalaya	False	False	KGLLDDGMDDGMMHVDYLY		Kegalle	LK-92	7.104216	80.342866	Dedigama	PS-920121	7.204341	80.261769	7.205955	80.263146	Dedigama, Sri Lanka	0.2352		කෑගල්ල	දැදිගම	දැදිගම මහා විද්‍යාලය	கேகாலை	டெடிகாமா	தெடிகம மகா வித்தியாலயம்	දැදිගම, ශ්‍රී ලංකාව	தெடிகம, இலங்கை
Kegalle	Mawanella	MOH Office - Mawanella	False	False	KGLLMWNLLMHFFCMWNLL		Kegalle	LK-92	7.104216	80.342866	Mawanella	PS-920122	7.256966	80.445912	7.253248	80.44561	Rambukkana-Mawanella Rd, Mawanella, Sri Lanka	0.414893		කෑගල්ල	මාවනැල්ල	MOH කාර්යාලය - මාවනැල්ල	கேகாலை	மாவனெல்லா	MOH அலுவலகம் - மாவனெல்லா	රඹුක්කන-මාවනැල්ල පාර, මාවනැල්ල, ශ්‍රී ලංකාව	ரம்புக்கான-மாவனெல்லா சாலை, மாவனெல்லா, இலங்கை
Kegalle	Kegalle	MOH Office - Kegalle	False	False	KGLLKGLLMHFFCKGLL		Kegalle	LK-92	7.104216	80.342866	Kegalle	PS-920118	7.255928	80.353156	7.24797	80.343583	Kegalle-Bulathkohupitiya-Karawanella Hwy, Kegalle, Sri Lanka	1.378052		කෑගල්ල	කෑගල්ල	MOH කාර්යාලය - කෑගල්ල	கேகாலை	கேகாலை	MOH அலுவலகம் - கேகாலை	කෑගල්ල-බුලත්කොහුපිටිය-කරවනැල්ල හ්වි, කෑගල්ල, ශ්‍රී ලංකාව	கேகாலை-புலத்கோஹுபிட்டிய-கரவனெல்லா ஹ்வி, கேகாலை, இலங்கை
Kegalle	Bulathkohupitiya	MOH Office - Bulathkohupitiya	False	False	KGLLBLTHKHPTYMHFFCBLTHKHPTY		Kegalle	LK-92	7.104216	80.342866	Bulathkohupitiya	PS-920232	7.106684	80.3347	7.109127	80.334565	485M+MR4, Bulathkohupitiya, Sri Lanka	0.272143		කෑගල්ල	බුලත්කොහුපිටිය	MOH කාර්යාලය - බුලත්කොහුපිටිය	கேகாலை	புலத்கோஹுபிடியா	MOH அலுவலகம் - புலத்கோஹுபிட்டிய	485 එම්+එම්ආර් 4, බුලත්කොහුපිටිය, ශ්‍රී ලංකාව	485M+MR4, புலத்கோஹுபிட்டிய, இலங்கை
Kegalle	Aranayaka	MOH Office - Aranayaka	False	False	KGLLRNYKMHFFCRNYK		Kegalle	LK-92	7.104216	80.342866	Aranayaka	PS-920120	7.186505	80.455273	7.177667	80.457992	5FH5+359, Dippitiya, Sri Lanka	1.027824		කෑගල්ල	අරණායක	MOH කාර්යාලය - අරණායක	கேகாலை	அரநாயகம்	MOH அலுவலகம் - அரநாயக்கா	5FH5+359, දිප්පිටිය, ශ්‍රී ලංකාව	5FH5+359, திப்பிட்டிய, இலங்கை
Kegalle	Dewalegama	Dewalegama Hospital	False	False	KGLLDWLGMDWLGMHSPTL		Kegalle	LK-92	7.104216	80.342866									#PoliceLocationUnknown	කෑගල්ල	දේවාලේගම	දේවාලේගම රෝහල	கேகாலை	தேவலேகாமா	தேவலேகம மருத்துவமனை		
Kegalle	Avissawella	Dehiovita National College	False	False	KGLLVSSWLLDHVTNTNLCLLG		Kegalle	LK-92	7.104216	80.342866	Awissawella	PS-920226	6.947538	80.215422	6.964079	80.265062	Yatiyantota Road, Sri Lanka	5.781379		කෑගල්ල	අවිස්සාවේල්ල	දෙහිඕවිට ජාතික විද්‍යාලය	கேகாலை	அவிசாவெல்லா	தெஹியோவிட தேசிய கல்லூரி	යටියන්තොට පාර, ශ්‍රී ලංකාව	யடியந்தோட்டை சாலை, இலங்கை
Kegalle	Rambukkana	MOH Office - Rambukkana	False	False	KGLLRMBKKNMHFFCRMBKKN		Kegalle	LK-92	7.104216	80.342866	Rambukkana	PS-920123	7.324319	80.387808	7.327307	80.394886	89GV+WXC, Rambukkana, Sri Lanka	0.848646		කෑගල්ල	රඹුක්කන	MOH කාර්යාලය - රඹුක්කන	கேகாலை	ரம்புக்கானா	MOH அலுவலகம் - ரம்புக்கானா	89GV+WXC, රඹුක්කන, ශ්‍රී ලංකාව	89GV+WXC, ரம்புக்கானா, இலங்கை
Kegalle	Ruwanwella	Mahalla Nagarukkakaramaya	False	False	KGLLRWNWLLMHLLNGRKKKRMY		Kegalle	LK-92	7.104216	80.342866	Ruwanwella	PS-920229	7.046189	80.254174	7.046199	80.253943	Bus Stop, Kegalle-Bulathkohupitiya-Karawanella Hwy, Ruwanwella, Sri Lanka	0.025524		කෑගල්ල	රුවන්වැල්ල	මහල්ලා නගරුක්කකාරාමය	கேகாலை	ருவன்வெல்ல	மஹல்லா நாகருக்ககாராமயா	බස් නැවතුම, කෑගල්ල-බුලත්කොහුපිටිය-කරවනැල්ල හ්වි, රුවන්වැල්ල, ශ්‍රී ලංකාව	பேருந்து நிறுத்தம், கேகாலை-புலத்கோஹுபிட்டிய-கரவனெல்லா Hwy, ருவன்வெல்ல, இலங்கை
Kegalle	Ruwanwella	Mahalla Kalaivani Vidyalaya	False	False	KGLLRWNWLLMHLLKLVNVDYLY		Kegalle	LK-92	7.104216	80.342866	Ruwanwella	PS-920229	7.046189	80.254174	7.046747	80.229343	Mahalla, Sri Lanka	2.74179		කෑගල්ල	රුවන්වැල්ල	මහල්ල කලෙයිවානි විද්‍යාලය	கேகாலை	ருவன்வெல்ல	மஹல்லா கலைவாணி வித்யாலயா	මහල්ලා, ශ්‍රී ලංකාව	மஹல்லா, இலங்கை
Kegalle	Ruwanwella	Gonagala North Vidyalaya	False	False	KGLLRWNWLLGNGLNRTHVDYLY		Kegalle	LK-92	7.104216	80.342866	Ruwanwella	PS-920229	7.046189	80.254174	7.012101	80.213036	Gonagala, Ruwanwella, Sri Lanka	5.916113		කෑගල්ල	රුවන්වැල්ල	ගෝනගල උතුරු විද්‍යාලය	கேகாலை	ருவன்வெல்ல	கோனகல வடக்கு வித்தியாலயம்	ගෝනගල, රුවන්වැල්ල, ශ්‍රී ලංකාව	கோனகலா, ருவான்வெல்லா, இலங்கை
Kegalle	Ruwanwella	Moraliya Primary School	False	False	KGLLRWNWLLMRLYPRMRYSCHL		Kegalle	LK-92	7.104216	80.342866	Ruwanwella	PS-920229	7.046189	80.254174	7.088921	80.251446	37Q2+HH8, Galamuna, Sri Lanka	4.762603		කෑගල්ල	රුවන්වැල්ල	මොරලිය ප්‍රාථමික විද්‍යාලය	கேகாலை	ருவன்வெல்ல	மொரலியா ஆரம்பப் பள்ளி	37Q2+එච්එච් 8, ගලමුණ, ශ්‍රී ලංකාව	37Q2+HH8, கலாமுனா, இலங்கை
Anuradhapura	Anuradhapura	Army Hospital Anuradhapura	False	False	NRDHPRNRDHPRRMYHSPTLNRDHPR		Anuradhapura	LK-71	8.39199	80.512958	Anuradapura	PS-710101	8.329752	80.407265	8.338302	80.407646	AB02, Anuradhapura, Sri Lanka	0.951939		අනුරාධපුර	අනුරාධපුර	අනුරාධපුර හමුදා රෝහල	அனுராதபுரம்	அனுராதபுரம்	அனுராதபுரம் இராணுவ மருத்துவமனை	ඒබී 02, අනුරාධපුර, ශ්‍රී ලංකාව	ஏபி 02, அனுராதபுரம், இலங்கை
Anuradhapura	Anuradhapura	MOH Office - Nuwaragampalatha	False	False	NRDHPRNRDHPRMHFFCNWRGMPLTH		Anuradhapura	LK-71	8.39199	80.512958	Anuradapura	PS-710101	8.329752	80.407265	8.341215	80.374096	Unnamed Road, Anuradhapura, Sri Lanka	3.866675		අනුරාධපුර	අනුරාධපුර	MOH කාර්යාලය - නුවරගම්පලතා	அனுராதபுரம்	அனுராதபுரம்	MOH அலுவலகம் - நுவரகம்பலதா	නම් නොකළ පාර, අනුරාධපුර, ශ්‍රී ලංකාව	பெயரிடப்படாத சாலை, அனுராதபுரம், இலங்கை
Anuradhapura	Oyamaduwa	Maningamuwa Vidyalaya	False	False	NRDHPRYMDWMNNGMWVDYLY		Anuradhapura	LK-71	8.39199	80.512958									#PoliceLocationUnknown	අනුරාධපුර	ඔයමඩුව	මානිංගමුව විද්‍යාලය	அனுராதபுரம்	ஓயமடுவா	மனிங்கமுவ வித்யாலயா		
Anuradhapura	Mihintale	MOH Office - Mihintale	False	False	NRDHPRMHNTLMHFFCMHNTL		Anuradhapura	LK-71	8.39199	80.512958	Mihintale	PS-710104	8.360062	80.511889	8.357612	80.509049	Puttalam - Anuradhapura - Trincomalee Hwy, Mihintale, Sri Lanka	0.41466		අනුරාධපුර	මිහින්තලය	MOH කාර්යාලය - මිහින්තලය	அனுராதபுரம்	மிஹிந்தலை	MOH அலுவலகம் - மிஹிந்தலை	පුත්තලම - අනුරාධපුර - ත්‍රිකුණාමලය හ්වි, මිහින්තලය, ශ්‍රී ලංකාව	புத்தளம் - அனுராதபுரம் - திருகோணமலை Hwy, மிஹிந்தலை, இலங்கை
Polonnaruwa	Hingurakgoda	Mobile Vaccination	False	False	PLNNRWHNGRKGDMBLVCCNTN		Polonnaruwa	LK-72	7.993659	81.026061	Hingurakgoda	PS-720129	8.048819	80.965751					#CenterLocationUnknown	පොළොන්නරුව	හිඟුරක්ගොඩ	ජංගම එන්නත	பொலன்னறுவை	ஹிங்குரகொட	மொபைல் தடுப்பூசி		
Polonnaruwa	Medirigiriya	MOH Office - Medirigiriya	False	False	PLNNRWMDRGRYMHFFCMDRGRY		Polonnaruwa	LK-72	7.993659	81.026061	Medirigiriya	PS-720130	8.150847	80.984493	8.144647	80.965725	In front of DS office, Hospital Road, Medirigiriya, Sri Lanka	2.178523		පොළොන්නරුව	මැදිරිගිරිය	MOH කාර්යාලය - මැදිරිගිරිය	பொலன்னறுவை	மெதிரிகிரியா	MOH அலுவலகம் - மெதிரிகிரியா	ඩීඑස් කාර්යාලය ඉදිරිපිට, රෝහල් පාර, මැදිරිගිරිය, ශ්‍රී ලංකාව	டிஎஸ் அலுவலகத்தின் முன், மருத்துவமனை சாலை, மெதிரிகிரியா, இலங்கை
Jaffna	Nelliyady	MOH Office - Karaveddy	False	False	JFFNNLLYDYMHFFCKRVDDY		Jaffna	LK-41	9.691792	80.098594	Nelliadi	PS-410108	9.778397	80.113303	9.792126	80.201799	Q6R2+VP3, Point Pedro, Sri Lanka	9.819656		යාපනය	නෙල්ලියාඩි	MOH කාර්යාලය - කරවෙඩ්ඩි	யாழ்	நெல்லியடி	MOH அலுவலகம் - கரவெட்டி	Q6R2+VP3, පේදුරුතුඩුව, ශ්‍රී ලංකාව	Q6R2+VP3, பருத்தித்துறை, இலங்கை
Jaffna	Jaffna	MOH Office - Jaffna	False	False	JFFNJFFNMHFFCJFFN		Jaffna	LK-41	9.691792	80.098594	Jaffna	PS-410209	9.659919	80.010965	9.673947	80.027736	M2FH+H3H, Jaffna, Sri Lanka	2.411714		යාපනය	යාපනය	MOH කාර්යාලය - යාපනය	யாழ்	யாழ்	MOH அலுவலகம் - யாழ்	M2FH+H3H, යාපනය, ශ්‍රී ලංකාව	M2FH+H3H, யாழ்ப்பாணம், இலங்கை
Jaffna	Point Pedro	MOH Office - Point Pedro	False	False	JFFNPNTPDRMHFFCPNTPDR		Jaffna	LK-41	9.691792	80.098594	Point Pedro	PS-410106	9.827018	80.233187	9.805763	80.222952	R64F+854, Point Pedro, Sri Lanka	2.616722		යාපනය	පේදුරුතුඩුව	MOH කාර්යාලය - පේදුරුතුඩුව	யாழ்	பருத்தித்துறை	MOH அலுவலகம் - பருத்தித்துறை	ආර් 64 එෆ්+854, පේදුරුතුඩුව, ශ්‍රී ලංකාව	R64F+854, பருத்தித்துறை, இலங்கை
Jaffna	Point Pedro	Manatkadu RCTM School	False	False	JFFNPNTPDRMNTKDRCTMSCHL		Jaffna	LK-41	9.691792	80.098594	Point Pedro	PS-410106	9.827018	80.233187	9.768848	80.276038	Manatkadu, Point Pedro - Maruthankerny, Point Pedro, Sri Lanka	7.995237		යාපනය	පේදුරුතුඩුව	මනට්කාඩු ආර්සීටීඑම් පාසල	யாழ்	பருத்தித்துறை	மணட்காடு RCTM பள்ளி	මනට්කාඩු, පේදුරුතුඩුව - මරුතන්කර්නි, පේදුරුතුඩුව, ශ්‍රී ලංකාව	மானட்காடு, பருத்தித்துறை - மருதன்கேர்னி, பருத்தித்துறை, இலங்கை
Jaffna	Kayts	Allaipiddy RCTM School	False	False	JFFNKYTSLLPDDYRCTMSCHL		Jaffna	LK-41	9.691792	80.098594	Kayts	PS-410212	9.728654	79.94775	9.690838	79.85659	Kayts, Sri Lanka	10.843518		යාපනය	කයිට්ස්	අල්ලයිපිඩ්ඩි ආර්සීටීඑම් පාසල	யாழ்	ஊர்காவற்துறையினர்	அல்லைப்பிட்டி ஆர்சிடிஎம் பள்ளி	කයිට්ස්, ශ්‍රී ලංකාව	ஊர்காவற்துறை, இலங்கை
Jaffna	Kayts	MOH Office - Velanai	False	False	JFFNKYTSMHFFCVLN		Jaffna	LK-41	9.691792	80.098594	Kayts	PS-410212	9.728654	79.94775	9.636317	79.903777	Chatty vangkalvady road, Velanai, Sri Lanka	11.346015		යාපනය	කයිට්ස්	එම්ඕඑච් කාර්යාලය - වෙලනායි	யாழ்	ஊர்காவற்துறையினர்	MOH அலுவலகம் - வேலணை	චැටි වංගල්වඩි පාර, වෙලනායි, ශ්‍රී ලංකාව	சட்டி வாங்கல்வாடி சாலை, வேலணை, இலங்கை
Jaffna	Kayts	MOH Office - Kayts	False	False	JFFNKYTSMHFFCKYTS		Jaffna	LK-41	9.691792	80.098594	Kayts	PS-410212	9.728654	79.94775	9.697759	79.866366	Sri Lanka, Kayts, Sri Lanka	9.561445		යාපනය	කයිට්ස්	MOH කාර්යාලය - කයිට්ස්	யாழ்	ஊர்காவற்துறையினர்	MOH அலுவலகம் - ஊர்காவற்துறை	ශ්‍රී ලංකාව, කයිට්ස්, ශ්‍රී ලංකාව	இலங்கை, ஊர்காவற்துறை, இலங்கை
Jaffna	Kayts	MOH Office - Karainagar	False	False	JFFNKYTSMHFFCKRNGR		Jaffna	LK-41	9.691792	80.098594	Kayts	PS-410212	9.728654	79.94775	9.725097	79.99772	Sri Lanka, Manipay, Sri Lanka	5.492521		යාපනය	කයිට්ස්	MOH කාර්යාලය - කරෙයිනගර්	யாழ்	ஊர்காவற்துறையினர்	MOH அலுவலகம் - காரைநகர்	ශ්‍රී ලංකාව, මනිපායි, ශ්‍රී ලංකාව	இலங்கை, மானிப்பாய், இலங்கை
Jaffna	Chunnakam	Elalai Muththamil Manram	False	False	JFFNCHNNKMLLMTHTHMLMNRM		Jaffna	LK-41	9.691792	80.098594	Chunnakam	PS-410211	9.745309	80.029151	9.765693	80.049434	Saiva Mahayana School Rd, Earlalai, Sri Lanka	3.175599		යාපනය	චුන්නාකම්	ඇලලෙයි මුත්තමිල් මන්රම්	யாழ்	சுன்னாகம்	ஏலாலை முத்தமிழ் மன்றம்	සෛව මහායාන පාසල පාර, අර්ලාලෙයි, ශ්‍රී ලංකාව	சைவ மகாயான பள்ளி ஆர்.டி., ஏர்லாலை, இலங்கை
Jaffna	Chunnakam	MOH Office - Uduvil	False	False	JFFNCHNNKMMHFFCDVL		Jaffna	LK-41	9.691792	80.098594	Chunnakam	PS-410211	9.745309	80.029151	9.742938	80.035132	P2VP+53C, Chunnakam, Sri Lanka	0.706719		යාපනය	චුන්නාකම්	MOH කාර්යාලය - උඩුවිල්	யாழ்	சுன்னாகம்	MOH அலுவலகம் - உடுவில்	පී 2 වීපී+53 සී, චුන්නාකම්, ශ්‍රී ලංකාව	P2VP+53C, சுன்னாகம், இலங்கை
Jaffna	Manippai	MOH Office - Sandilipay	False	False	JFFNMNPPMHFFCSNDLPY		Jaffna	LK-41	9.691792	80.098594	Manippai	PS-410210	9.727151	79.996905	9.749336	79.987383	Sandilipay, Sri Lanka	2.679343		යාපනය	මනිප්පායි	MOH කාර්යාලය - සඳිලිපේ	யாழ்	மணிப்பை	MOH அலுவலகம் - சண்டிலிபே	සඳිලිපේ, ශ්‍රී ලංකාව	சண்டிலிபே, இலங்கை
Jaffna	Thelippalai	Kuttiyappulam Maha Vidyalaya	False	False	JFFNTHLPPLKTTYPPLMMHVDYLY		Jaffna	LK-41	9.691792	80.098594	Thelippalay	PS-410104	6.933075	79.857181	9.779451	80.039934	Q2HQ+QXM, Tellippalai, Sri Lanka	317.239934	#CenterFarFromPolice	යාපනය	තෙලිප්පලෙයි	කුට්ටියප්පුලම් මහා විද්‍යාලය	யாழ்	தெளிப்பளை	குட்டியப்புலம் மகா வித்தியாலயம்	Q2HQ+QXM, තෙලිප්පලෙයි, ශ්‍රී ලංකාව	Q2HQ+QXM, தெல்லிப்பழை, இலங்கை
Jaffna	Waddukkottai	MOH Office – Chankanai	False	False	JFFNWDDKKTTMHFFCCHNKN		Jaffna	LK-41	9.691792	80.098594									#PoliceLocationUnknown	යාපනය	වාද්ඩුක්කොට්ටෙයි	MOH කාර්යාලය - චංකනායි	யாழ்	வாட்டுக்கோட்டை	MOH அலுவலகம் - சங்கனை		
Jaffna	Achchuveli	Achchuveli Hospital	False	False	JFFNCHCHVLCHCHVLHSPTL		Jaffna	LK-41	9.691792	80.098594	Achchuweli	PS-410103	6.934132	79.856305	9.772721	80.115501	Avarankal-Tondaimanar Rd, Sri Lanka	317.021383	#CenterFarFromPolice	යාපනය	අච්චුවේලි	අච්චුවේලි රෝහල	யாழ்	அச்சுவேலி	அச்சுவேலி மருத்துவமனை	අවරන්කල්-තොණ්ඩයිමානර් පාර, ශ්‍රී ලංකාව	அவரங்கால்-தொண்டைமானார் சாலை, இலங்கை
Jaffna	Chavakachcheri	Town Hall - Chavakachcheri	False	False	JFFNCHVKCHCHRTWNHLLCHVKCHCHR		Jaffna	LK-41	9.691792	80.098594	Chawakachcheri	PS-410215	9.666459	80.132384	9.659136	80.160946	M556+M94, Chavakachcheri, Sri Lanka	3.236063		යාපනය	චාවකච්චේරි	නගර ශාලාව - චාවකච්චේරි	யாழ்	சாவகச்சேரி	டவுன் ஹால் - சாவகச்சேரி	එම් 556+එම් 94, චාවකච්චේරි, ශ්‍රී ලංකාව	M556+M94, சாவகச்சேரி, இலங்கை
Kilinochchi	Mulankavil	Mulankavil Hospital	False	False	KLNCHCHMLNKVLMLNKVLHSPTL		Kilinochchi	LK-45	9.415742	80.30358	Mulankavil	PS-450135	9.254463	80.141528	9.243423	80.143894	Base Hospital Mulankavil, A32 Road, Mulankavil, Kumulamunai, Sri Lanka	1.255148		කිලිනොච්චි	මුලංකාවිල්	මුලංකාවිල් රෝහල	கிளிநொச்சி	முழங்காவில்	முழங்காவில் மருத்துவமனை	මුලික රෝහල මුලංකාවිල්, ඒ 32 පාර, මුලංකාවිල්, කුමුලමුනෙයි, ශ්‍රී ලංකාව	அடிப்படை மருத்துவமனை முழங்காவில், A32 சாலை, முழங்காவில், குமுலமுனை, இலங்கை
Kilinochchi	Pooneryn	MOH Office – Pooneryn	False	False	KLNCHCHPNRYNMHFFCPNRYN		Kilinochchi	LK-45	9.415742	80.30358	Pooneryn		9.505717	80.21101	9.507968	80.208317	G655+58P, Pooneryn, Sri Lanka	0.387256		කිලිනොච්චි	පුනරීන්	MOH කාර්යාලය - පුනරීන්	கிளிநொச்சி	பூனெரின்	MOH அலுவலகம் - பூனெரின்	ජී 655+58 පී, පූනරීන්, ශ්‍රී ලංකාව	G655+58P, பூனெரின், இலங்கை
Kilinochchi	Kilinochchi	MOH Office – Karachchi	False	False	KLNCHCHKLNCHCHMHFFCKRCHCH		Kilinochchi	LK-45	9.415742	80.30358	Kilinochchi	PS-450131	9.392265	80.407846	7.683586	81.730767	MPMJ+C8J, Kattankudy, Sri Lanka	239.363691	#CenterFarFromPolice	කිලිනොච්චි	කිලිනොච්චි	MOH කාර්යාලය - කරච්චි	கிளிநொச்சி	கிளிநொச்சி	MOH அலுவலகம் - கராச்சி	එම්පීඑම්ජේ+සී 8 ජේ, කාත්තන්කුඩි, ශ්‍රී ලංකාව	MPMJ+C8J, காத்தான்குடி, இலங்கை
Kilinochchi	Palei	MOH Office – Palei	False	False	KLNCHCHPLMHFFCPL		Kilinochchi	LK-45	9.415742	80.30358	Palei	PS-450132	6.900777	79.872638	9.610611	80.328165	Office of the Medical Officer for Health, Pallai Pradwshasaba, A9, Pachchilapalli, Sri Lanka	305.555993	#CenterFarFromPolice	කිලිනොච්චි	පලෙයි	MOH කාර්යාලය - පලෙයි	கிளிநொச்சி	பலே	MOH அலுவலகம் - பலே	සෞඛ්‍ය වෛද්‍ය නිලධාරි කාර්යාලය, පලෙයි ප්‍රද්වශසාබා, ඒ 9, පච්චිලපල්ලි, ශ්‍රී ලංකාව	சுகாதார மருத்துவ அதிகாரி அலுவலகம், பளை பிரத்வசாபா, ஏ 9, பச்சிலப்பள்ளி, இலங்கை
Kilinochchi	Dharmapuram	MOH Office – Kandavalai	False	False	KLNCHCHDHRMPRMMHFFCKNDVL		Kilinochchi	LK-45	9.415742	80.30358	Dharmapuram	PS-450136	6.873107	79.86167	9.411006	80.516427	Parantan-Mullaitivu Hwy, Sri Lanka	291.349257	#CenterFarFromPolice	කිලිනොච්චි	ධර්මපුරම්	MOH කාර්යාලය - කඳවලයි	கிளிநொச்சி	தர்மபுரம்	MOH அலுவலகம் - கண்டாவளை	පරන්තන්-මුලතිව් හ්වි, ශ්‍රී ලංකාව	பரந்தன்-முல்லைத்தீவு, இலங்கை
Kilinochchi	Puthukudiyiruppu	Office of the Regional Medical Officer of Health	False	False	KLNCHCHPTHKDYRPPFFCFTHRGNLMDCLFFCRFHLTH		Kilinochchi	LK-45	9.415742	80.30358	Pudukuduiruppu	PS-440149	7.00152	79.95003	9.396965	80.407782	Kandy - Jaffna Hwy, Kilinochchi, Sri Lanka	271.168205	#CenterFarFromPolice	කිලිනොච්චි	පුදුකුඩියිරුප්පු	ප්‍රාදේශීය සෞඛ්‍ය වෛද්‍ය නිලධාරි කාර්යාලය	கிளிநொச்சி	புதுக்குடியிருப்பு	பிராந்திய சுகாதார அலுவலர் அலுவலகம்	මහනුවර - යාපනය හ්වි, කිලිනොච්චි, ශ්‍රී ලංකාව	கண்டி - யாழ்ப்பாணம், கிளிநொச்சி, இலங்கை
Mullaitivu	Mullaitivu	Alampil Regional Hospital	False	False	MLLTVMLLTVLMPLRGNLHSPTL		Mullaitivu	LK-44	9.167643	80.549091	Mullativu	PS-440148	9.212825	80.760159	9.26205	80.81366	Unnappulavu, Mullaitivu, Sri Lanka	8.029915		මුලතිව්	මුලතිව්	ඇලම්පිල් ප්‍රාදේශීය රෝහල	முல்லைத்தீவு	முல்லைத்தீவு	அலம்பில் பிராந்திய மருத்துவமனை	උන්නප්පුලවු, මුලතිව්, ශ්‍රී ලංකාව	உன்னப்புலவு, முல்லைத்தீவு, இலங்கை
Mullaitivu	Mullaitivu	Alampil Roman Catholic College	False	False	MLLTVMLLTVLMPLRMNCTHLCCLLG		Mullaitivu	LK-44	9.167643	80.549091	Mullativu	PS-440148	9.212825	80.760159	9.168606	80.85197	5V92+CQX, Alampil, Sri Lanka	11.216877		මුලතිව්	මුලතිව්	ඇලම්පිල් රෝමානු කතෝලික විද්‍යාලය	முல்லைத்தீவு	முல்லைத்தீவு	அலம்பில் ரோமன் கத்தோலிக்கக் கல்லூரி	5V92+CQX, ආලම්පිල්, ශ්‍රී ලංකාව	5V92+CQX, ஆலம்பில், இலங்கை
Trincomalee	Muttur	MOH Office – Muttur	False	False	TRNCMLMTTRMHFFCMTTR		Trincomalee	LK-53	8.551241	81.092014	Mutur	PS-530138	8.461133	81.259371	8.453916	81.264494	1 Old Batticaloa Rd, Mutur, Sri Lanka	0.980859		ත්රිකුණාමලය	මුතූර්	MOH කාර්යාලය - මුතූර්	திருகோணமலை	மூதூர்	MOH அலுவலகம் - மூதூர்	1 පරණ මඩකලපුව පාර, මුතූර්, ශ්‍රී ලංකාව	1 பழைய மட்டக்களப்பு வீதி, மூதூர், இலங்கை
Trincomalee	Kinniya	MOH Office - Kurungnakeni	False	False	TRNCMLKNNYMHFFCKRNGNKN		Trincomalee	LK-53	8.551241	81.092014	Kinnia	PS-530140	6.907289	79.863819	7.484932	80.353119	F9M3+X6H, Kurunegala 60000, Sri Lanka	83.927094	#CenterFarFromPolice	ත්රිකුණාමලය	කින්නියා	එම්ඕඑච් කාර්යාලය - කුරුංග්ණකේනි	திருகோணமலை	கிண்ணியா	MOH அலுவலகம் - குருங்நகேணி	F9M3+X6H, කුරුණෑගල 60000, ශ්‍රී ලංකාව	F9M3+X6H, குருநாகல் 60000, இலங்கை
Trincomalee	Kinniya	Surangal Rural Health Medical Cente	False	False	TRNCMLKNNYSRNGLRRLHLTHMDCLCNT		Trincomalee	LK-53	8.551241	81.092014	Kinnia	PS-530140	6.907289	79.863819	8.56486	81.239445	Hospital Ln, Trincomalee, Sri Lanka	238.702981	#CenterFarFromPolice	ත්රිකුණාමලය	කින්නියා	සුරංගල් ග්‍රාමීය සෞඛ්‍ය වෛද්‍ය මධ්‍යස්ථානය	திருகோணமலை	கிண்ணியா	சுரங்கல் கிராம சுகாதார மருத்துவ மையம்	රෝහල, ත්‍රිකුණාමලය, ශ්‍රී ලංකාව	மருத்துவமனை Ln, திருகோணமலை, இலங்கை
Trincomalee	Kinniya	Kinniya Base Hospital	False	False	TRNCMLKNNYKNNYBSHSPTL		Trincomalee	LK-53	8.551241	81.092014	Kinnia	PS-530140	6.907289	79.863819	8.501539	81.187539	Tampalakamam-Kinniya Rd, Kinniya 31100, Sri Lanka	229.636589	#CenterFarFromPolice	ත්රිකුණාමලය	කින්නියා	කින්නියා මූලික රෝහල	திருகோணமலை	கிண்ணியா	கிண்ணியா அடிப்படை மருத்துவமனை	තම්පලකමම්-කින්නියා පාර, කින්නියා 31100, ශ්‍රී ලංකාව	தம்பலகாமம்-கிண்ணியா சாலை, கிண்ணியா 31100, இலங்கை
Trincomalee	Kinniya	MOH Office – Kinniya	False	False	TRNCMLKNNYMHFFCKNNY		Trincomalee	LK-53	8.551241	81.092014	Kinnia	PS-530140	6.907289	79.863819	8.498696	81.179644	F5XH+FVC, Kinniya 31100, Sri Lanka	228.840304	#CenterFarFromPolice	ත්රිකුණාමලය	කින්නියා	MOH කාර්යාලය - කින්නියා	திருகோணமலை	கிண்ணியா	MOH அலுவலகம் - கிண்ணியா	F5XH+FVC, කින්නියා 31100, ශ්‍රී ලංකාව	F5XH+FVC, கிண்ணியா 31100, இலங்கை
Trincomalee	Sripura	MOH Office – Sripura	False	False	TRNCMLSRPRMHFFCSRPR		Trincomalee	LK-53	8.551241	81.092014	Sripura	PS-530136	8.929617	80.81428	8.926697	80.814799	Padavi Sripura, Padaviya - Sripura Road, Welioya, Sri Lanka	0.329869		ත්රිකුණාමලය	ශ්‍රීපුර	MOH කාර්යාලය - ශ්‍රීපුර	திருகோணமலை	ஸ்ரீபுரா	MOH அலுவலகம் - ஸ்ரீபுரா	පදවි ශ්‍රීපුර, පදවිය - ශ්‍රීපුර පාර, වැලිඔය, ශ්‍රී ලංකාව	படவி ஸ்ரீபுரா, படாவியா - ஸ்ரீபுரா சாலை, வெலிஓயா, இலங்கை
Trincomalee	Kuchchaveli	MOH Office - Kuchchaveli	False	False	TRNCMLKCHCHVLMHFFCKCHCHVL		Trincomalee	LK-53	8.551241	81.092014	Kuchchaweli	PS-530133	8.81895	81.100438	8.740082	81.161616	P5R6+2JQ, Kumpurupiddi, Sri Lanka	11.053646		ත්රිකුණාමලය	කුච්චවේලි	MOH කාර්යාලය - කුච්චවේලි	திருகோணமலை	குச்சவெளி	MOH அலுவலகம் - குச்சவெளி	P5R6+2JQ, කුඹුරුපිඩි, ශ්‍රී ලංකාව	P5R6+2JQ, கும்புறுப்பிடி, இலங்கை
Trincomalee	Kuchchaveli	Divisional Hospital - Kuchchaveli	False	False	TRNCMLKCHCHVLDVSNLHSPTLKCHCHVL		Trincomalee	LK-53	8.551241	81.092014	Kuchchaweli	PS-530133	8.81895	81.100438	8.814795	81.102358	R472+WW9, Kuchchaveli, Sri Lanka	0.508064		ත්රිකුණාමලය	කුච්චවේලි	ප්‍රාදේශීය රෝහල - කුච්චවේලි	திருகோணமலை	குச்சவெளி	பிரதேச மருத்துவமனை - குச்சவெளி	ආර් 472+WW9, කුච්චවේලි, ශ්‍රී ලංකාව	R472+WW9, குச்சவெளி, இலங்கை
Trincomalee	Kuchchaveli	Divisional Hospital - Nilaveli	False	False	TRNCMLKCHCHVLDVSNLHSPTLNLVL		Trincomalee	LK-53	8.551241	81.092014	Kuchchaweli	PS-530133	8.81895	81.100438	8.681035	81.193632	M5JV+CF6, Nilaveli, Sri Lanka	18.44695		ත්රිකුණාමලය	කුච්චවේලි	ප්‍රාදේශීය රෝහල - නිලාවේලි	திருகோணமலை	குச்சவெளி	பிரதேச மருத்துவமனை - நிலாவெளி	M5JV+CF6, නිලාවේලි, ශ්‍රී ලංකාව	M5JV+CF6, நிலவேலி, இலங்கை
Trincomalee	Pulmoddai	Base Hospital - Pulmoddai	False	False	TRNCMLPLMDDBSHSPTLPLMDD		Trincomalee	LK-53	8.551241	81.092014	Pulmudai	PS-530135	6.915266	79.87829	8.941204	80.983139	WXRM+F7J, Pulmoddai, Sri Lanka	256.112801	#CenterFarFromPolice	ත්රිකුණාමලය	පුල්මොඩෙයි	මූලික රෝහල - පුල්මොඩෙයි	திருகோணமலை	புல்மோட்டை	அடிப்படை மருத்துவமனை - புல்மோட்டை	ඩබ්ලිව්එක්ස්ආර්එම්+එෆ් 7 ජේ, පුල්මොඩෙයි, ශ්‍රී ලංකාව	WXRM+F7J, புல்மோடை, இலங்கை
Trincomalee	Serunuwara	MOH Office - Serunuwara	False	False	TRNCMLSRNWRMHFFCSRNWR		Trincomalee	LK-53	8.551241	81.092014	Serunuwara	PS-530244	8.321863	81.299322	8.323143	81.299894	B10, Sri Lanka	0.155671		ත්රිකුණාමලය	සේරුනුවර	MOH කාර්යාලය - සේරුනුවර	திருகோணமலை	சேருநுவரா	MOH அலுவலகம் - சேருநுவரா	බී 10, ශ්‍රී ලංකාව	பி 10, இலங்கை
Trincomalee	Harbour Police	MOH Office - Trincomalee	False	False	TRNCMLHRBRPLCMHFFCTRNCML		Trincomalee	LK-53	8.551241	81.092014	Trinco Harbour Police	PS-530131	8.56705	81.231407	8.598974	81.216963	MOH Office, Farm Rd, Trincomalee, Sri Lanka	3.890062		ත්රිකුණාමලය	වරාය පොලිසිය	එම්ඕඑච් කාර්යාලය - ත්‍රිකුණාමලය	திருகோணமலை	துறைமுக காவல்துறை	MOH அலுவலகம் - திருகோணமலை	එම්ඕඑච් කාර්යාලය, ගොවිපල පාර, ත්‍රිකුණාමලය, ශ්‍රී ලංකාව	MOH அலுவலகம், பண்ணை சாலை, திருகோணமலை, இலங்கை
Trincomalee	Harbour Police	Base Hospital - Trincomalee	False	False	TRNCMLHRBRPLCBSHSPTLTRNCML		Trincomalee	LK-53	8.551241	81.092014	Trinco Harbour Police	PS-530131	8.56705	81.231407	8.56486	81.239445	Hospital Ln, Trincomalee, Sri Lanka	0.917037		ත්රිකුණාමලය	වරාය පොලිසිය	මූලික රෝහල - ත්‍රිකුණාමලය	திருகோணமலை	துறைமுக காவல்துறை	அடிப்படை மருத்துவமனை - திருகோணமலை	රෝහල, ත්‍රිකුණාමලය, ශ්‍රී ලංකාව	மருத்துவமனை Ln, திருகோணமலை, இலங்கை
Trincomalee	Uppuveli	MOH Office - Uppuveli	False	False	TRNCMLPPVLMHFFCPPVL		Trincomalee	LK-53	8.551241	81.092014	Uppuweli	PS-530134	8.593614	81.21743	8.607961	81.216512	Nilaveli Rd, Trincomalee, Sri Lanka	1.599005		ත්රිකුණාමලය	උප්පුවේලි	MOH කාර්යාලය - උප්පුවේලි	திருகோணமலை	உப்புவேலி	MOH அலுவலகம் - உப்புவேலி	නිලාවේලි පාර, ත්‍රිකුණාමලය, ශ්‍රී ලංකාව	நிலவேலி வீதி, திருகோணமலை, இலங்கை
Trincomalee	Kantale	MOH Office - Kantale	False	False	TRNCMLKNTLMHFFCKNTL		Trincomalee	LK-53	8.551241	81.092014	Kantale	PS-530241	8.356129	81.007739	8.349617	81.009107	අග්‍රබෝධි මාවත, Kantale, Sri Lanka	0.739809		ත්රිකුණාමලය	කන්තලේ	MOH කාර්යාලය - කන්තලේ	திருகோணமலை	கந்தலே	MOH அலுவலகம் - கந்தலே	වැඩි දියුණු කිරීම මාවත, කන්තලේ, ශ්‍රී ලංකාව	தீவிரப்படுத்தி மாவத்த, கந்தலே, இலங்கை
Trincomalee	Ichchalampattu	MOH Office - Ichchalampattu	False	False	TRNCMLCHCHLMPTTMHFFCCHCHLMPTT	Eachchilampattu Hospital	Trincomalee	LK-53	8.551241	81.092014	Ichchalampattu		8.289549	81.359002	8.289644	81.358983	Highway, Ichchalampattu, Trincomalee, Sri Lanka	0.010772		ත්රිකුණාමලය	ඉච්චලම්පත්තු	එක්ර්චිලම්පත්තු රෝහල	திருகோணமலை	இச்சலம்பட்டு	ஒவ்வொருசிலம்பட்டு மருத்துவமனை	අධිවේගී මාර්ගය, ඉච්චලම්පත්තු, ත්‍රිකුණාමලය, ශ්‍රී ලංකාව	நெடுஞ்சாலை, ஈச்சலாம்பட்டு, திருகோணமலை, இலங்கை
Trincomalee	Thambalagamuwa	MOH Office - Thambalagamuwa	False	False	TRNCMLTHMBLGMWMHFFCTHMBLGMW		Trincomalee	LK-53	8.551241	81.092014	Thambalagamuva	PS-530243	6.907289	79.863819	8.563603	81.239584	Hospital Ln, Trincomalee, Sri Lanka	238.604889	#CenterFarFromPolice	ත්රිකුණාමලය	තඹලගමුව	MOH කාර්යාලය - තඹලගමුව	திருகோணமலை	தம்பலகாமுவா	MOH அலுவலகம் - தம்பலகமுவ	රෝහල, ත්‍රිකුණාමලය, ශ්‍රී ලංකාව	மருத்துவமனை Ln, திருகோணமலை, இலங்கை
Batticaloa	Batticaloa	MOH Office - Batticaloa	False	False	BTTCLBTTCLMHFFCBTTCL		Batticaloa	LK-51	7.792772	81.486513	Batticaloa	PS-510101	7.717949	81.699294	7.708253	81.691368	Hospital Rd, Batticaloa, Sri Lanka	1.387934		මඩකලපුව	මඩකලපුව	MOH කාර්යාලය - මඩකලපුව	மட்டக்களப்பு	மட்டக்களப்பு	MOH அலுவலகம் - மட்டக்களப்பு	රෝහල පාර, මඩකලපුව, ශ්‍රී ලංකාව	மருத்துவமனை சாலை, மட்டக்களப்பு, இலங்கை
Batticaloa	Kokkadicholai	Kokkadicholai Maha Vidyalaya	False	False	BTTCLKKKDCHLKKKDCHLMHVDYLY		Batticaloa	LK-51	7.792772	81.486513	Kokkadicholai	PS-510112	7.715979	81.698757	7.612287	81.709296	Kokkadicholai, Batticaloa, Sri Lanka	11.592009		මඩකලපුව	කොක්කඩිචෝලේ	කොක්කඩිචෝලෙයි මහා විද්‍යාලය	மட்டக்களப்பு	கொக்கடிச்சோலை	கொக்கடிச்சோலை மகா வித்தியாலயம்	කොක්කඩිචෝලේ, මඩකලපුව, ශ්‍රී ලංකාව	கொக்கடிச்சோலை, மட்டக்களப்பு, இலங்கை
Batticaloa	Valachchenai	Valachchenai Base Hospital	False	False	BTTCLVLCHCHNVLCHCHNBSHSPTL		Batticaloa	LK-51	7.792772	81.486513	Valachchanai	PS-510107	7.908015	81.533004	7.911315	81.533046	Valaichchenai-Nasuvantivu-Navaladi Road, Sri Lanka	0.367088		මඩකලපුව	වාලච්චේන	වාලච්චේන මූලික රෝහල	மட்டக்களப்பு	வாலாச்சேனை	வாலாச்சேனை ஆதார மருத்துவமனை	වාලච්චේනයි-නසුවන්ටිව්-නවාලාඩි පාර, ශ්‍රී ලංකාව	வாழைச்சேனை-நசுவந்திவு-நாவலடி சாலை, இலங்கை
Batticaloa	Valachchenai	MOH Office - Valachchenai	False	False	BTTCLVLCHCHNMHFFCVLCHCHN		Batticaloa	LK-51	7.792772	81.486513	Valachchanai	PS-510107	7.908015	81.533004	7.912281	81.532775	WG6M+W46, Batticaloa, Sri Lanka	0.475177		මඩකලපුව	වාලච්චේන	MOH කාර්යාලය - වාලච්චේන	மட்டக்களப்பு	வாலாச்சேனை	MOH அலுவலகம் - வாலாச்சேனை	WG6M+W46, මඩකලපුව, ශ්‍රී ලංකාව	WG6M+W46, மட்டக்களப்பு, இலங்கை
Batticaloa	Valachchenai	MOH Office - Oddamavadi	False	False	BTTCLVLCHCHNMHFFCDDMVD		Batticaloa	LK-51	7.792772	81.486513	Valachchanai	PS-510107	7.908015	81.533004	7.912281	81.532775	WG6M+W46, Batticaloa, Sri Lanka	0.475177		මඩකලපුව	වාලච්චේන	එම්ඕඑච් කාර්යාලය - ඔද්දමවඩි	மட்டக்களப்பு	வாலாச்சேனை	MOH அலுவலகம் - ஓட்டமாவடி	WG6M+W46, මඩකලපුව, ශ්‍රී ලංකාව	WG6M+W46, மட்டக்களப்பு, இலங்கை
Batticaloa	Valachchenai	MOH Office - Navallady	False	False	BTTCLVLCHCHNMHFFCNVLLDY		Batticaloa	LK-51	7.792772	81.486513	Valachchanai	PS-510107	7.908015	81.533004	7.912281	81.532775	WG6M+W46, Batticaloa, Sri Lanka	0.475177		මඩකලපුව	වාලච්චේන	MOH කාර්යාලය - නවල්ලඩි	மட்டக்களப்பு	வாலாச்சேனை	MOH அலுவலகம் - நாவல்லடி	WG6M+W46, මඩකලපුව, ශ්‍රී ලංකාව	WG6M+W46, மட்டக்களப்பு, இலங்கை
Batticaloa	Valachchenai	MOH Office - Kiran	False	False	BTTCLVLCHCHNMHFFCKRN		Batticaloa	LK-51	7.792772	81.486513	Valachchanai	PS-510107	7.908015	81.533004	7.502211	79.839254	GR2Q+VPJ, Madampe, Sri Lanka	192.073036	#CenterFarFromPolice	මඩකලපුව	වාලච්චේන	MOH කාර්යාලය - කිරාන්	மட்டக்களப்பு	வாலாச்சேனை	MOH அலுவலகம் - கிரண்	GR2Q+VPJ, මාදම්පේ, ශ්‍රී ලංකාව	GR2Q+VPJ, மாதம்பே, இலங்கை
Batticaloa	Vakarai	MOH Office - Vakarai	False	False	BTTCLVKRMHFFCVKR	Divisional Hospital Vakarai	Batticaloa	LK-51	7.792772	81.486513	Wakarai	PS-510109	6.934132	79.856305	8.134552	81.435328	Trincomalee Hwy, Vakarai, Sri Lanka	219.417822	#CenterFarFromPolice	මඩකලපුව	වාකරේ	වාකරේ ප්‍රාදේශීය රෝහල	மட்டக்களப்பு	வாகரை	வாகரை பிரதேச மருத்துவமனை	ත්‍රිකුණාමලය හ්වි, වාකරේ, ශ්‍රී ලංකාව	திருகோணமலை Hwy, வாகரை, இலங்கை
Batticaloa	Kaluwanchikudy	Kaludawali RKM Vidyalaya	False	False	BTTCLKLWNCHKDYKLDWLRKMVDYLY		Batticaloa	LK-51	7.792772	81.486513	Kalawanchikudy	PS-510110	7.515908	81.787051	7.547235	81.787676	A4, Kaluwanchikudy, Sri Lanka	3.485178		මඩකලපුව	කළුවන්චිකුඩි	කළුදවාලි ආර්කේඑම් විද්‍යාලය	மட்டக்களப்பு	களுவாஞ்சிக்குடி	களுதாவலி ஆர்கேஎம் வித்யாலயா	ඒ 4, කලුවාංචිකුඩි, ශ්‍රී ලංකාව	A4, களுவாஞ்சிக்குடி, இலங்கை
Batticaloa	Kaluwanchikudy	Kaludawali Maha Vidyalaya	False	False	BTTCLKLWNCHKDYKLDWLMHVDYLY		Batticaloa	LK-51	7.792772	81.486513	Kalawanchikudy	PS-510110	7.515908	81.787051	7.547235	81.787676	A4, Kaluwanchikudy, Sri Lanka	3.485178		මඩකලපුව	කළුවන්චිකුඩි	කළුදවාලි මහා විද්‍යාලය	மட்டக்களப்பு	களுவாஞ்சிக்குடி	களுதாவலி மகா வித்தியாலயம்	ඒ 4, කලුවාංචිකුඩි, ශ්‍රී ලංකාව	A4, களுவாஞ்சிக்குடி, இலங்கை
Batticaloa	Kaluwanchikudy	Kottakallara Maha Vidyalaya	False	False	BTTCLKLWNCHKDYKTTKLLRMHVDYLY		Batticaloa	LK-51	7.792772	81.486513	Kalawanchikudy	PS-510110	7.515908	81.787051	7.506644	81.779511	GQ4H+MR2, Kaluwanchikudy, Sri Lanka	1.323995		මඩකලපුව	කළුවන්චිකුඩි	කොට්ටකල්ලර මහා විද්‍යාලය	மட்டக்களப்பு	களுவாஞ்சிக்குடி	கோட்டகல்லாரா மகா வித்தியாலயம்	GQ4H+MR2, කලුවාංචිකුඩි, ශ්‍රී ලංකාව	GQ4H+MR2, களுவாஞ்சிக்குடி, இலங்கை
Batticaloa	Kaluwanchikudy	Ondachchimadam Vinayagar Vidyalaya	False	False	BTTCLKLWNCHKDYNDCHCHMDMVNYGRVDYLY		Batticaloa	LK-51	7.792772	81.486513	Kalawanchikudy	PS-510110	7.515908	81.787051	7.502129	81.802037	highway Onthachimadam, A4, Kaluwanchikudy, Sri Lanka	2.253895		මඩකලපුව	කළුවන්චිකුඩි	ඔණ්ඩච්චිමඩම් විනයාගර් විද්‍යාලය	மட்டக்களப்பு	களுவாஞ்சிக்குடி	ஒண்டச்சிமடம் விநாயகர் வித்தியாலயம்	අධිවේගී මාර්ගය ඔන්තචිමඩම්, ඒ 4, කළුවාංචිකුඩි, ශ්‍රී ලංකාව	நெடுஞ்சாலை ஓந்தாச்சிமடம், ஏ 4, களுவாஞ்சிக்குடி, இலங்கை
Batticaloa	Vavunathivu	MOH Office - Vavunathivu	False	False	BTTCLVVNTHVMHFFCVVNTHV		Batticaloa	LK-51	7.792772	81.486513	Vavunathive	PS-510102	6.933075	79.857181	7.708253	81.691368	Hospital Rd, Batticaloa, Sri Lanka	219.95575	#CenterFarFromPolice	මඩකලපුව	වවුනතිව්	MOH කාර්යාලය - වවුනතිව්	மட்டக்களப்பு	வவுணதீவு	MOH அலுவலகம் - வவுணதீவு	රෝහල පාර, මඩකලපුව, ශ්‍රී ලංකාව	மருத்துவமனை சாலை, மட்டக்களப்பு, இலங்கை
Batticaloa	Kattankudy	MOH Office - Arayampathy	False	False	BTTCLKTTNKDYMHFFCRYMPTHY		Batticaloa	LK-51	7.792772	81.486513	Kaththankudi	PS-510103	7.715979	81.698757	7.672862	81.735019	MPFP+42R, Sri Lanka	6.243191		මඩකලපුව	කාත්තන්කුඩි	MOH කාර්යාලය - අරයම්පති	மட்டக்களப்பு	காத்தான்குடி	MOH அலுவலகம் - ஆரையம்பதி	එම්පීඑෆ්පී+42 ආර්, ශ්‍රී ලංකාව	MPFP+42R, இலங்கை
Batticaloa	Kattankudy	MOH Office - Kattankudy	False	False	BTTCLKTTNKDYMHFFCKTTNKDY		Batticaloa	LK-51	7.792772	81.486513	Kaththankudi	PS-510103	7.715979	81.698757	7.683586	81.730767	MPMJ+C8J, Kattankudy, Sri Lanka	5.042961		මඩකලපුව	කාත්තන්කුඩි	MOH කාර්යාලය - කාත්තන්කුඩි	மட்டக்களப்பு	காத்தான்குடி	MOH அலுவலகம் - காத்தான்குடி	එම්පීඑම්ජේ+සී 8 ජේ, කාත්තන්කුඩි, ශ්‍රී ලංකාව	MPMJ+C8J, காத்தான்குடி, இலங்கை
Batticaloa	Eravur	Sandiveli Hospital	False	False	BTTCLRVRSNDVLHSPTL		Batticaloa	LK-51	7.792772	81.486513	Eravur	PS-510104	7.715979	81.698757	7.777289	81.602853	Trincomalee Hwy, Eravur, Sri Lanka	12.578998		මඩකලපුව	එරාවුර්	සඳිවේලි රෝහල	மட்டக்களப்பு	ஏறாவூர்	சண்டிவேலி மருத்துவமனை	ත්‍රිකුණාමලය හ්වි, එරාවුර්, ශ්‍රී ලංකාව	திருகோணமலை Hwy, ஏறாவூர், இலங்கை
Batticaloa	Eravur	MOH Office – Eravur	False	False	BTTCLRVRMHFFCRVR		Batticaloa	LK-51	7.792772	81.486513	Eravur	PS-510104	7.715979	81.698757	7.783664	81.605626	QJM4+F76, Eravur, Sri Lanka	12.729342		මඩකලපුව	එරාවුර්	MOH කාර්යාලය - එරාවුර්	மட்டக்களப்பு	ஏறாவூர்	MOH அலுவலகம் - ஏறாவூர்	QJM4+F76, එරාවුර්, ශ්‍රී ලංකාව	QJM4+F76, ஏறாவூர், இலங்கை
Batticaloa	Eravur	Orumacholai Vidyalaya	False	False	BTTCLRVRRMCHLVDYLY		Batticaloa	LK-51	7.792772	81.486513	Eravur	PS-510104	7.715979	81.698757	7.777732	81.603631	Trincomalee Road, Eravur, Sri Lanka	12.533962		මඩකලපුව	එරාවුර්	ඔරුමාචෝලේ විද්‍යාලය	மட்டக்களப்பு	ஏறாவூர்	ஒருமசோலை வித்யாலயா	ත්‍රිකුණාමලය පාර, එරාවුර්, ශ්‍රී ලංකාව	திருகோணமலை சாலை, ஏறாவூர், இலங்கை
Batticaloa	Eravur	Vandarammulla Kannagi Vidayalaya	False	False	BTTCLRVRVNDRMMLLKNNGVDYLY		Batticaloa	LK-51	7.792772	81.486513	Eravur	PS-510104	7.715979	81.698757	7.784444	81.593982	QHMV+QHH, Chenkaladi, Sri Lanka	13.832634		මඩකලපුව	එරාවුර්	වන්දාරමුල්ල කන්නගී විද්‍යාලය	மட்டக்களப்பு	ஏறாவூர்	வந்தரம்முல்ல கண்ணகி விதயாலயா	QHMV+QHH, චෙන්කලාඩි, ශ්‍රී ලංකාව	QHMV+QHH, செங்கலடி, இலங்கை
Batticaloa	Eravur	Mawadiwembu Hospital	False	False	BTTCLRVRMWDWMBHSPTL		Batticaloa	LK-51	7.792772	81.486513	Eravur	PS-510104	7.715979	81.698757	7.808545	81.566328	Mawadiwembu Hospital, Sri Lanka	17.861302		මඩකලපුව	එරාවුර්	මාවඩිවේඹු රෝහල	மட்டக்களப்பு	ஏறாவூர்	மாவடிவெம்பு மருத்துவமனை	මාවඩිවේඹු රෝහල, ශ්‍රී ලංකාව	மாவடிவெம்பு மருத்துவமனை, இலங்கை
Batticaloa	Eravur	Eravur Hospital	False	False	BTTCLRVRRVRHSPTL		Batticaloa	LK-51	7.792772	81.486513	Eravur	PS-510104	7.715979	81.698757	7.783168	81.605999	QJM4+799, Eravur 30300, Sri Lanka	12.663585		මඩකලපුව	එරාවුර්	එරාවුර් රෝහල	மட்டக்களப்பு	ஏறாவூர்	ஏறாவூர் மருத்துவமனை	QJM4+799, එරාවුර් 30300, ශ්‍රී ලංකාව	QJM4+799, ஏறாவூர் 30300, இலங்கை
Batticaloa	Eravur	MOH Office - Chenkaladi	False	False	BTTCLRVRMHFFCCHNKLD		Batticaloa	LK-51	7.792772	81.486513	Eravur	PS-510104	7.715979	81.698757	7.783599	81.593367	Trincomalee Hwy, Chenkaladi 30350, Sri Lanka	13.837876		මඩකලපුව	එරාවුර්	MOH කාර්යාලය - චෙන්කලාඩි	மட்டக்களப்பு	ஏறாவூர்	MOH அலுவலகம் - செங்கலடி	ත්‍රිකුණාමලය හ්වි, චෙන්කලාඩි 30350, ශ්‍රී ලංකාව	திருகோணமலை Hwy, செங்கலடி 30350, இலங்கை
Batticaloa	Eravur	Chenkaladi Hospital	False	False	BTTCLRVRCHNKLDHSPTL		Batticaloa	LK-51	7.792772	81.486513	Eravur	PS-510104	7.715979	81.698757	7.783546	81.589961	Batticaloa Rd, Chenkaladi, Sri Lanka	14.151406		මඩකලපුව	එරාවුර්	චෙන්කලාඩි රෝහල	மட்டக்களப்பு	ஏறாவூர்	செங்கலடி மருத்துவமனை	මඩකලපුව පාර, චෙන්කලාඩි, ශ්‍රී ලංකාව	மட்டக்களப்பு வீதி, செங்கலடி, இலங்கை
Batticaloa	Karadiyanaru	Karadiyanaru Hospital	False	False	BTTCLKRDYNRKRDYNRHSPTL		Batticaloa	LK-51	7.792772	81.486513	Karadiyanaru	PS-510105	7.701992	81.537252	7.700216	81.539779	PG2Q+3WJ, Karadiyanaru, Sri Lanka	0.341482		මඩකලපුව	කරදියනාරු	කරදියනාරු රෝහල	மட்டக்களப்பு	கரடியனாறு	கரடியனாறு மருத்துவமனை	PG2Q+3WJ, කරදියනාරු, ශ්‍රී ලංකාව	PG2Q+3WJ, கரடியனாறு, இலங்கை
Ampara	Chavalakade	MOH Office - Navidanveli	False	False	MPRCHVLKDMHFFCNVDNVL		Ampara	LK-52	7.23699	81.550391	Chawalakade	PS-520125	7.413559	81.776822	7.420081	81.788401	B77, Sri Lanka	1.468805		අම්පාර	චවලකඩේ	MOH කාර්යාලය - නාවිදන්වේලි	அம்பாறை	சவளகடே	MOH அலுவலகம் - நாவிதன்வெளி	බී 77, ශ්‍රී ලංකාව	பி 77, இலங்கை
Ampara	Akkaraipattu	MOH Office – Addalachenai	False	False	MPRKKRPTTMHFFCDDLCHN		Ampara	LK-52	7.23699	81.550391	Akkaraipattu	PS-520126	7.216084	81.853254	7.260916	81.853493	7V63+999, Addalaichenai, Sri Lanka	4.986726		අම්පාර	අක්කරපත්තුව	MOH කාර්යාලය - අද්දලචේනයි	அம்பாறை	அக்கரைப்பற்று	MOH அலுவலகம் - ஆடலச்சேனை	7V63+999, අද්දලෙයිචේනෙයි, ශ්‍රී ලංකාව	7V63+999, அடிலைச்சேனை, இலங்கை
Ampara	Akkaraipattu	MOH Office - Akkaraipattu	False	False	MPRKKRPTTMHFFCKKRPTT		Ampara	LK-52	7.23699	81.550391	Akkaraipattu	PS-520126	7.216084	81.853254	7.228134	81.851123	6VH2+7C5, Akkaraipattu, Sri Lanka	1.360772		අම්පාර	අක්කරපත්තුව	MOH කාර්යාලය - අක්කරපත්තුව	அம்பாறை	அக்கரைப்பற்று	MOH அலுவலகம் - அக்கரைப்பற்று	6VH2+7C5, අක්කරපත්තුව, ශ්‍රී ලංකාව	6VH2+7C5, அக்கரைப்பற்று, இலங்கை
Ampara	Mangalagama	Mangalagama Vidyalaya	False	False	MPRMNGLGMMNGLGMVDYLY		Ampara	LK-52	7.23699	81.550391	Mangalagama	PS-520119	7.524533	81.539626	7.570744	81.382558	H9CM+72V, Mangalagama, Sri Lanka	18.065922		අම්පාර	මංගලගම	මංගලගම විද්‍යාලය	அம்பாறை	மங்களகம	மங்களகம வித்யாலயா	H9CM+72V, මංගලගම, ශ්‍රී ලංකාව	H9CM+72V, மங்களகம, இலங்கை
Ampara	Karaitivu	MOH Office – Karaitivu	False	False	MPRKRTVMHFFCKRTV		Ampara	LK-52	7.23699	81.550391	Karaitivu		9.744059	79.870587	7.377712	81.838796	Colombo-Ratnapura-Wellawaya-Batticaloa Highway, Karativu 32250, Sri Lanka	340.788666	#CenterFarFromPolice	අම්පාර	කාරතිව්	MOH කාර්යාලය - කරෙයිතිව්	அம்பாறை	காரைதீவு	MOH அலுவலகம் - காரைதீவு	කොළඹ-රත්නපුර-වැල්ලවාය-මඩකලපුව අධිවේගී මාර්ගය, කරතිවු 32250, ශ්‍රී ලංකාව	கொழும்பு-இரத்தினபுரி-வெள்ளவாயா-மட்டக்களப்பு நெடுஞ்சாலை, காரடிவு 32250, இலங்கை
Ampara	Kalmunai	Ashraff Memorial Hospital	False	False	MPRKLMNSHRFFMMRLHSPTL		Ampara	LK-52	7.23699	81.550391	Kalmunai	PS-520123	7.414289	81.825006	7.403172	81.831146	A4, Ashraff Memorial Base Hospital, A4 A4, Kalmunai 32300, Sri Lanka	1.409859		අම්පාර	කල්මුණේ	අෂ්රොෆ් අනුස්මරණ රෝහල	அம்பாறை	கல்முனை	அஷ்ரஃப் நினைவு மருத்துவமனை	ඒ 4, අෂ්රොෆ් අනුස්මරණ මූලික රෝහල, ඒ 4 ඒ 4, කල්මුණේ 32300, ශ්‍රී ලංකාව	A4, அஷ்ரஃப் மெமோரியல் பேஸ் ஹாஸ்பிடல், A4 A4, கல்முனை 32300, இலங்கை
Ampara	Kalmunai	MOH Office - Kalmunai South	False	False	MPRKLMNMHFFCKLMNSTH		Ampara	LK-52	7.23699	81.550391	Kalmunai	PS-520123	7.414289	81.825006	7.411712	81.838462	CR6Q+M9P, Kalmunai 32300, Sri Lanka	1.511625		අම්පාර	කල්මුණේ	MOH කාර්යාලය - කල්මුණේ දකුණ	அம்பாறை	கல்முனை	MOH அலுவலகம் - கல்முனை தெற்கு	CR6Q+M9P, කල්මුණේ 32300, ශ්‍රී ලංකාව	CR6Q+M9P, கல்முனை 32300, இலங்கை
Ampara	Kalmunai	Base Hospital - Kalmunai North	False	False	MPRKLMNBSHSPTLKLMNNRTH		Ampara	LK-52	7.23699	81.550391	Kalmunai	PS-520123	7.414289	81.825006	7.420034	81.82232	hospital near, Kalmunai 32300, Sri Lanka	0.704353		අම්පාර	කල්මුණේ	මූලික රෝහල - කල්මුණේ උතුර	அம்பாறை	கல்முனை	அடிப்படை மருத்துவமனை - கல்முனை வடக்கு	රෝහල අසල, කල්මුණේ 32300, ශ්‍රී ලංකාව	மருத்துவமனை அருகில், கல்முனை 32300, இலங்கை
Ampara	Kalmunai	MOH Office - Kalmunai North	False	False	MPRKLMNMHFFCKLMNNRTH		Ampara	LK-52	7.23699	81.550391	Kalmunai	PS-520123	7.414289	81.825006	7.411712	81.838462	CR6Q+M9P, Kalmunai 32300, Sri Lanka	1.511625		අම්පාර	කල්මුණේ	MOH කාර්යාලය - කල්මුණේ උතුර	அம்பாறை	கல்முனை	MOH அலுவலகம் - கல்முனை வடக்கு	CR6Q+M9P, කල්මුණේ 32300, ශ්‍රී ලංකාව	CR6Q+M9P, கல்முனை 32300, இலங்கை
Ampara	Thirukkovil	Thirukkovil Hospital	False	False	MPRTHRKKVLTHRKKVLHSPTL		Ampara	LK-52	7.23699	81.550391	Thirukkovil	PS-520127	7.113998	81.852219	7.115713	81.851887	4V82+7QJ, Thirukkovil, Sri Lanka	0.194247		අම්පාර	තිරුක්කෝවිල්	තිරුක්කෝවිල් රෝහල	அம்பாறை	திருக்கோவில்	திருக்கோவில் மருத்துவமனை	4V82+7QJ, තිරුක්කෝවිල්, ශ්‍රී ලංකාව	4V82+7QJ, திருக்கோவில், இலங்கை
Ampara	Thirukkovil	MOH Office – Thirukkovil	False	False	MPRTHRKKVLMHFFCTHRKKVL		Ampara	LK-52	7.23699	81.550391	Thirukkovil	PS-520127	7.113998	81.852219	7.111635	81.852892	Central Rd, Vinayagapuram, Sri Lanka	0.273131		අම්පාර	තිරුක්කෝවිල්	MOH කාර්යාලය - තිරුක්කෝවිල්	அம்பாறை	திருக்கோவில்	MOH அலுவலகம் - திருக்கோவில்	මධ්‍යම පාර, විනයාගපුරම්, ශ්‍රී ලංකාව	மத்திய வீதி, விநாயகபுரம், இலங்கை
Ampara	Sainthamarthu	MOH Office – Sainthamarthu	False	False	MPRSNTHMRTHMHFFCSNTHMRTH		Ampara	LK-52	7.23699	81.550391									#PoliceLocationUnknown	අම්පාර	සයින්දමර්තු	MOH කාර්යාලය - සයින්දමර්තු	அம்பாறை	சாய்ந்தமருது	MOH அலுவலகம் - சாய்ந்தமருது		
Ampara	Sainthamarthu	Saindamarthu Hospital	False	False	MPRSNTHMRTHSNDMRTHHSPTL		Ampara	LK-52	7.23699	81.550391									#PoliceLocationUnknown	අම්පාර	සයින්දමර්තු	සයින්දමාර්තු රෝහල	அம்பாறை	சாய்ந்தமருது	சைந்தமர்த்து மருத்துவமனை		
Ampara	Sammanthurai	Sammanthurai Base Hospital	False	False	MPRSMMNTHRSMMNTHRBSHSPTL		Ampara	LK-52	7.23699	81.550391	Samanthurai	PS-520124	7.365785	81.810859	7.368355	81.813042	9R96+MWM, Hospital Rd, Sammanthurai, Sri Lanka	0.373773		අම්පාර	සමන්තුරේ	සමන්තුරේ මූලික රෝහල	அம்பாறை	சம்மாந்துறை	சம்மாந்துறை அடிப்படை மருத்துவமனை	9R96+MWM, රෝහල් පාර, සමන්තුරේ, ශ්‍රී ලංකාව	9R96+MWM, மருத்துவமனை சாலை, சம்மாந்துறை, இலங்கை
Ampara	Sammanthurai	MOH Office – Nintavur	False	False	MPRSMMNTHRMHFFCNNTVR		Ampara	LK-52	7.23699	81.550391	Samanthurai	PS-520124	7.365785	81.810859	7.352821	81.856939	Hospital Rd, Nintavur 32340, Sri Lanka	5.283925		අම්පාර	සමන්තුරේ	එම්ඕඑච් කාර්යාලය - නින්දවූර්	அம்பாறை	சம்மாந்துறை	MOH அலுவலகம் - நிந்தவூர்	රෝහල පාර, නින්දවූර් 32340, ශ්‍රී ලංකාව	மருத்துவமனை Rd, நிந்தவூர் 32340, இலங்கை
Ampara	Sammanthurai	MOH Office - Sammanthurai	False	False	MPRSMMNTHRMHFFCSMMNTHR		Ampara	LK-52	7.23699	81.550391	Samanthurai	PS-520124	7.365785	81.810859	7.369857	81.812264	9R96+WWR, Sammanthurai, Sri Lanka	0.478712		අම්පාර	සමන්තුරේ	MOH කාර්යාලය - සම්මන්තුරේ	அம்பாறை	சம்மாந்துறை	MOH அலுவலகம் - சம்மாந்துறை	9R96+ඩබ්ලිව්ඩබ්ලිව්ආර්, සම්මන්තුරේ, ශ්‍රී ලංකාව	9R96+WWR, சம்மாந்துறை, இலங்கை
Ampara	Pottuvil	MOH Office - Pottuvil	False	False	MPRPTTVLMHFFCPTTVL		Ampara	LK-52	7.23699	81.550391	Pothuvil	PS-520128	6.878387	81.826859	6.877076	81.828969	B374, Pottuvil, Sri Lanka	0.274874		අම්පාර	පොතුවිල්	එම්ඕඑච් කාර්යාලය - පොතුවිල්	அம்பாறை	பொட்டுவில்	MOH அலுவலகம் - பொத்துவில்	බී 374, පොතුවිල්, ශ්‍රී ලංකාව	B374, பொத்துவில், இலங்கை
Ampara	Pottuvil	MOH Office - Lahugala	False	False	MPRPTTVLMHFFCLHGL		Ampara	LK-52	7.23699	81.550391	Pothuvil	PS-520128	6.878387	81.826859	6.880658	81.765015	VQJ8+726, Sangamuwa, Sri Lanka	6.834041		අම්පාර	පොතුවිල්	MOH කාර්යාලය - ලාහුගල	அம்பாறை	பொட்டுவில்	MOH அலுவலகம் - லஹுகலா	VQJ8+726, සංගමුව, ශ්‍රී ලංකාව	VQJ8+726, சங்கமுவா, இலங்கை
Ampara	Pottuvil	Al Munavira Viyalaya	False	False	MPRPTTVLLMNVRVYLY		Ampara	LK-52	7.23699	81.550391	Pothuvil	PS-520128	6.878387	81.826859	6.873537	81.823156	VRFF+C76, Pottuvil, Sri Lanka	0.676934		අම්පාර	පොතුවිල්	අල් මුනවිර විරිය	அம்பாறை	பொட்டுவில்	அல் முனவிரா வியாலயா	වීආර්එෆ්එෆ්+සී 76, පොතුවිල්, ශ්‍රී ලංකාව	VRFF+C76, பொத்துவில், இலங்கை
Ampara	Pottuvil	Al Sadik Vidyalaya	False	False	MPRPTTVLLSDKVDYLY		Ampara	LK-52	7.23699	81.550391	Pothuvil	PS-520128	6.878387	81.826859	6.875271	81.830633	Pottuvil, Sri Lanka	0.542048		අම්පාර	පොතුවිල්	අල් සාදික් විද්‍යාලය	அம்பாறை	பொட்டுவில்	அல் சாதிக் வித்யாலயா	පොතුවිල්, ශ්‍රී ලංකාව	பொத்துவில், இலங்கை
