district	police	center	dose1	dose2	fuzzy_key	alt_name	district_name_norm	district_id	district_lat	district_lng	ps_name_norm	ps_id	ps_lat	ps_lng	lat	lng	formatted_address	dis_center_to_police	tags
Colombo	Cinnamon Gardens	Viharamahadevi Park	False	False	CLMBCNNMNGRDNSVHRMHDVPRK		Colombo	LK-11	6.869636	80.019598	Cinnamon Garden	PS-110324	6.907289	79.863819	6.913391	79.86174	Viharamahadevi Park, Colombo, Sri Lanka	0.716497	
Colombo	Thalangama	Diyatha Uyana	False	False	CLMBTHLNGMDYTHYN		Colombo	LK-11	6.869636	80.019598	Thalangama	PS-110466	6.91089	79.929325	6.904575	79.909831	Diyatha Uyana, B240, Sri Jayawardenepura Kotte, Sri Lanka	2.264281	
Colombo	Thalangama	MOH Office - Battaramulla	False	False	CLMBTHLNGMMHFFCBTTRMLL		Colombo	LK-11	6.869636	80.019598	Thalangama	PS-110466	6.91089	79.929325	6.901538	79.919128	WW29+JM6, Battaramulla 10120, Sri Lanka	1.532936	
Colombo	Grandpass	Sugathadasa Outdoor Stadium	False	False	CLMBGRNDPSSSGTHDSTDRSTDM		Colombo	LK-11	6.869636	80.019598	Grandpass	PS-110215	6.949052	79.872983	6.94806	79.868842	Prince of Wales Ave, Colombo 01400, Sri Lanka	0.470345	
Colombo	Narahenpita	Army Hospital Narahenpita	False	False	CLMBNRHNPTRMYHSPTLNRHNPT		Colombo	LK-11	6.869636	80.019598	Narahenpita	PS-110321	6.891832	79.876715	6.900252	79.87618	08 Elvitigala Mawatha, Colombo 00800, Sri Lanka	0.938417	
Colombo	Narahenpita	Army Headquarters Mobile Team	False	False	CLMBNRHNPTRMYHDQRTRSMBLTM		Colombo	LK-11	6.869636	80.019598	Narahenpita	PS-110321	6.891832	79.876715					#CenterLocationUnknown
Colombo	Boralesgamuwa	Kotelawala Defence Hospital	False	False	CLMBBRLSGMWKTLWLDFNCHSPTL		Colombo	LK-11	6.869636	80.019598	Boralesgamuwa	PS-110464	6.841331	79.901255	6.82518	79.907167	RWG4+3VF, Boralesgamuwa, Sri Lanka	1.911444	
Colombo	Boralesgamuwa	MOH Office – Werahera	False	False	CLMBBRLSGMWMHFFCWRHR		Colombo	LK-11	6.869636	80.019598	Boralesgamuwa	PS-110464	6.841331	79.901255	6.833094	79.905583	RWM4+66P, Boralesgamuwa, Sri Lanka	1.033386	
Colombo	Homagama	Panagoda Bodhirajarama Viharaya	False	False	CLMBHMGMPNGDBDHRJRMVHRY		Colombo	LK-11	6.869636	80.019598	Homagama	PS-110470	6.836155	80.003474	6.929161	79.88265	Gnanawimala Rd, Colombo, Sri Lanka	16.883101	
Colombo	Mirihana	MOH Office - Beddagana	False	False	CLMBMRHNMHFFCBDDGN		Colombo	LK-11	6.869636	80.019598	Mirihana	PS-110462	6.873714	79.901724	6.885731	79.908328	Baddagana Rd, Sri Jayawardenepura Kotte 10100, Sri Lanka	1.522652	
Colombo	Maharagama	Ranmal Deniya Viharaya - Arawwala	False	False	CLMBMHRGMRNMLDNYVHRYRWWL		Colombo	LK-11	6.869636	80.019598	Maharagama	PS-110463	6.845422	79.928928	6.818648	79.998854	Magammana Vidyalaya Bus Stop, B452, Sri Lanka	8.276948	
Colombo	Maharagama	Vajiragnana Viharaya	False	False	CLMBMHRGMVJRGNNVHRY		Colombo	LK-11	6.869636	80.019598	Maharagama	PS-110463	6.845422	79.928928	6.840573	79.919106	Siri Vajiragnana Dharmayathanaya, Sri vajiragnana mawata, Dehiwala Rd, Maharagama 10280, Sri Lanka	1.211409	
Colombo	Mount Lavinia	Aththidiya Maternity Clinic	False	False	CLMBMNTLVNTHTHDYMTRNTYCLNC		Colombo	LK-11	6.869636	80.019598	Mount Lavinia	PS-110577	6.825006	79.87009	6.824371	79.872256	RVFC+PWR, Dehiwala-Mount Lavinia, Sri Lanka	0.249426	
Colombo	Dehiwala	S. De. S. Jayasinghe Hall	False	False	CLMBDHWLSDSJYSNGHHLL		Colombo	LK-11	6.869636	80.019598	Dehiwala	PS-110580	6.850088	79.871696	6.861489	79.865045	B11, Dehiwala-Mount Lavinia, Sri Lanka	1.465485	
Colombo	Maradana	National Hospital – Colombo	False	False	CLMBMRDNNTNLHSPTLCLMB		Colombo	LK-11	6.869636	80.019598	Maradana	PS-110107	6.927939	79.865471	6.918743	79.868992	Colombo 00700, Sri Lanka	1.094265	
Colombo	Fort	Navy Headquarters	False	False	CLMBFRTNVYHDQRTRS		Colombo	LK-11	6.869636	80.019598	Fort	PS-110105	6.9334	79.842895	6.936952	79.842104	WRPR+QRQ, Colombo, Sri Lanka	0.404627	
Colombo	Maligawatta	P.D. Sirisena Ground	False	False	CLMBMLGWTTPDSRSNGRND		Colombo	LK-11	6.869636	80.019598	Maligawatta	PS-110108	6.934132	79.856305	6.935206	79.868709	Pradeepa Rd, Colombo 01000, Sri Lanka	1.374802	
Colombo	Wellawatta	Roxy Gardens Premises	False	False	CLMBWLLWTTRXYGRDNSPRMSS		Colombo	LK-11	6.869636	80.019598	Wellawatta	PS-110320	6.873107	79.86167	6.863747	79.862088	Dehiwala Canal, Colombo, Sri Lanka	1.042134	
Colombo	Wellampitiya	MOH Office – Kolonnawa	False	False	CLMBWLLMPTYMHFFCKLNNW		Colombo	LK-11	6.869636	80.019598	Wellampitiya	PS-110465	6.937514	79.896298	6.922088	79.916237	Mandavila Rd, Kotikawatta, Sri Lanka	2.791266	
Colombo	Kaduwela	MOH Office – Kaduwela	False	False	CLMBKDWLMHFFCKDWL		Colombo	LK-11	6.869636	80.019598	Kaduwela		6.936234	79.970183	6.934127	79.984398	B263, Kaduwela, Sri Lanka	1.586964	
Colombo	Mulleriyawa	MOH Office - Gothatuwa	False	False	CLMBMLLRYWMHFFCGTHTW		Colombo	LK-11	6.869636	80.019598	Mulleriyawa	PS-110469	6.927187	79.929108	6.922088	79.916237	Mandavila Rd, Kotikawatta, Sri Lanka	1.530186	
Colombo	Kirulapana	Sithumina Hall	False	False	CLMBKRLPNSTHMNHLL		Colombo	LK-11	6.869636	80.019598	Kirulapone	PS-110319	6.878122	79.874159	6.876704	79.879161	00600, Mugalan Rd, Colombo 00600, Sri Lanka	0.574445	
Colombo	Fore shore	MOH Office - Jinthupitiya	False	False	CLMBFRSHRMHFFCJNTHPTY		Colombo	LK-11	6.869636	80.019598	Fore shore	PS-110210	6.949589	79.857355	6.943258	79.859238	No.27 Vivekananda Hill, Colombo 01300, Sri Lanka	0.734247	
Colombo	Modara	Bonavista Ground	False	False	CLMBMDRBNVSTGRND		Colombo	LK-11	6.869636	80.019598	Modara	PS-110211	6.964846	79.868544	6.966925	79.871153	Modara, Colombo, Sri Lanka	0.369394	
Colombo	Avissawella	Avissawella Hospital	False	False	CLMBVSSWLLVSSWLLHSPTL		Colombo	LK-11	6.869636	80.019598	Awissawella	PS-920226	6.947538	80.215422	6.957085	80.207381	Avissawella Rd, Avissawella, Sri Lanka	1.384155	
Colombo	Avissawella	Kiriwandala Tamil College	False	False	CLMBVSSWLLKRWNDLTMLCLLG		Colombo	LK-11	6.869636	80.019598	Awissawella	PS-920226	6.947538	80.215422	6.956526	80.204418	43 Kudagama Road, Avissawella, Sri Lanka	1.573413	
Colombo	Kosgama	Kosgama Hospital	False	False	CLMBKSGMKSGMHSPTL		Colombo	LK-11	6.869636	80.019598	Kosgama	PS-920227	6.946597	80.137869	6.940956	80.124888	Salawa-Akarawita, 10730, Sri Lanka	1.564606	
Gampaha	Minuwangoda	Katuwellegama Maternity Clinic	False	False	GMPHMNWNGDKTWLLGMMTRNTYCLNC		Gampaha	LK-12	7.123598	80.018508	Minuwangoda	PS-120238	7.174215	79.957874	7.172386	79.957553	Katunayake-Veyangoda Rd, Minuwangoda, Sri Lanka	0.206501	
Gampaha	Minuwangoda	MOH Office - Minuwangoda	False	False	GMPHMNWNGDMHFFCMNWNGD		Gampaha	LK-12	7.123598	80.018508	Minuwangoda	PS-120238	7.174215	79.957874	7.17227	79.956823	Katunayake-Veyangoda Rd, Minuwangoda, Sri Lanka	0.245525	
Gampaha	Minuwangoda	Yatiyana Vijewardhana Pirivena	False	False	GMPHMNWNGDYTYNVJWRDHNPRVN		Gampaha	LK-12	7.123598	80.018508	Minuwangoda	PS-120238	7.174215	79.957874	7.186771	79.926055	Yatiyana, Sri Lanka	3.779006	
Gampaha	Minuwangoda	Dewalapola Viharaya	False	False	GMPHMNWNGDDWLPLVHRY		Gampaha	LK-12	7.123598	80.018508	Minuwangoda	PS-120238	7.174215	79.957874	7.161204	79.991999	Dewalapola, Sri Lanka	4.03455	
Gampaha	Katana	MOH Office - Katana	False	False	GMPHKTNMHFFCKTN		Gampaha	LK-12	7.123598	80.018508	Katana	PS-120360	7.224796	79.880015	7.22436	79.88271	Katana, Negombo - Mirigama Rd, Negombo, Sri Lanka	0.301313	
Gampaha	Nittambuwa	Danowita Weragoda Viharaya	False	False	GMPHNTTMBWDNWTWRGDVHRY		Gampaha	LK-12	7.123598	80.018508	Nittambuwa	PS-120246	7.149726	80.10046	7.113799	80.135467	Nittambuwa - Ruwanwella Rd, Sri Lanka	5.558543	
Gampaha	Mirigama	Mugurugampola Viharaya	False	False	GMPHMRGMMGRGMPLVHRY		Gampaha	LK-12	7.123598	80.018508	Meerigama	PS-120248	7.245169	80.128647	7.24658	80.119978	Negombo - Mirigama Rd, Mirigama, Sri Lanka	0.969341	
Gampaha	Mirigama	Weweldeniya Viharaya	False	False	GMPHMRGMWWLDNYVHRY		Gampaha	LK-12	7.123598	80.018508	Meerigama	PS-120248	7.245169	80.128647	7.110015	79.989902	4X6Q+2X2, Gampaha, Sri Lanka	21.457918	#CenterFarFromPolice
Gampaha	Veyangoda	Raniswala Walagamba Vidyalaya	False	False	GMPHVYNGDRNSWLWLGMBVDYLY		Gampaha	LK-12	7.123598	80.018508	Weyangoda	PS-120247	7.144053	80.095511	7.119132	80.045944	429W+M94, Kalagedihena, Sri Lanka	6.132866	
Gampaha	Ganemulla	Galahitiyawa Central College	False	False	GMPHGNMLLGLHTYWCNTRLCLLG		Gampaha	LK-12	7.123598	80.018508	Ganemulla	PS-120242	7.066804	79.959751	7.069576	79.953719	Ganemulla-JaEla Road, Ganemulla 11020, Sri Lanka	0.733764	
Gampaha	Kadawata	Sooriyarachchi Vidyalaya	False	False	GMPHKDWTSRYRCHCHVDYLY		Gampaha	LK-12	7.123598	80.018508	Kadawatha	PS-120136	7.00152	79.95003	6.9983	79.987381	Gonahena Rd, Kadawatha 11940, Sri Lanka	4.139104	
Gampaha	Kadawata	Kirillawala Central College	False	False	GMPHKDWTKRLLWLCNTRLCLLG		Gampaha	LK-12	7.123598	80.018508	Kadawatha	PS-120136	7.00152	79.95003	7.015981	79.969223	2X89+9MX, Eldeniya, Sri Lanka	2.660247	
Gampaha	Biyagama	MOH Office – Biyagama	False	False	GMPHBYGMMHFFCBYGM		Gampaha	LK-12	7.123598	80.018508	Biyagama	PS-120131	6.962284	80.009037	6.946824	79.994052	Hospital Rd, Sri Lanka	2.386313	
Gampaha	Kiribathgoda	Hunupitiya Clinic	False	False	GMPHKRBTHGDHNPTYCLNC		Gampaha	LK-12	7.123598	80.018508	Kiribathgoda	PS-120135	6.978005	79.929433	6.980847	79.929943	XWJH+8XP, Kiribathgoda, Sri Lanka	0.321091	
Gampaha	Gampaha	MOH Office – Gampaha	False	False	GMPHGMPHMHFFCGMPH		Gampaha	LK-12	7.123598	80.018508	Gampaha	PS-120237	7.087765	80.01228	7.17227	79.956823	Katunayake-Veyangoda Rd, Minuwangoda, Sri Lanka	11.216745	
Gampaha	Gampaha	Makewita Viharaya	False	False	GMPHGMPHMKWTVHRY		Gampaha	LK-12	7.123598	80.018508	Gampaha	PS-120237	7.087765	80.01228	7.110015	79.989902	4X6Q+2X2, Gampaha, Sri Lanka	3.496563	
Gampaha	Yakkala	Arambagolla Viharaya	False	False	GMPHYKKLRMBGLLVHRY		Gampaha	LK-12	7.123598	80.018508	Yakkala	PS-120250	7.076621	80.020655	7.092749	80.033677	32VM+3FV, Yakkala, Sri Lanka	2.298734	
Gampaha	Pugoda	MOH Office – Dompe	False	False	GMPHPGDMHFFCDMP		Gampaha	LK-12	7.123598	80.018508	Pugoda	PS-120241	6.98283	80.111189	6.976767	80.117422	Dompe, Pugoda-Mandawala Rd, Pugoda, Sri Lanka	0.963513	
Gampaha	Pamunugama	Pamunugama Hospital	False	False	GMPHPMNGMPMNGMHSPTL		Gampaha	LK-12	7.123598	80.018508	Pamunugama	PS-120353	7.078892	79.859696	7.093543	79.850191	3VV2+C38, Negombo, Sri Lanka	1.938152	
Gampaha	Negombo	Town Hall - Negombo	False	False	GMPHNGMBTWNHLLNGMB		Gampaha	LK-12	7.123598	80.018508	Negombo	PS-120351	7.224796	79.880015	7.206667	79.851863	Negombo, Sri Lanka	3.703623	
Gampaha	Dungalpitiya	Pitipana Maternity Clinic	False	False	GMPHDNGLPTYPTPNMTRNTYCLNC		Gampaha	LK-12	7.123598	80.018508	Dungalpitiya	PS-120361	7.139226	79.833543	7.170735	79.824995	5RCF+7XX, Negombo, Sri Lanka	3.629353	
Gampaha	Kochchikade	Holy Spirit Church	False	False	GMPHKCHCHKDHLYSPRTCHRCH		Gampaha	LK-12	7.123598	80.018508	Kochchikade	PS-120352	7.265049	79.857026	7.265657	79.858517	7V85+7C6, Negombo, Sri Lanka	0.17787	
Gampaha	Kochchikade	Ethgala Maternity Clinic	False	False	GMPHKCHCHKDTHGLMTRNTYCLNC		Gampaha	LK-12	7.123598	80.018508	Kochchikade	PS-120352	7.265049	79.857026	7.255702	79.875884	Ethgala, Sri Lanka	2.326036	
Gampaha	Seeduwa	Hinatiya Maternity Clinic	False	False	GMPHSDWHNTYMTRNTYCLNC		Gampaha	LK-12	7.123598	80.018508	Seeduwa	PS-120356	7.128721	79.877371	7.131592	79.888974	4VJQ+JHQ, Seeduwa, Sri Lanka	1.319835	
Gampaha	Kotadeniyawa	Kotadeniyawa Central Dispensary	False	False	GMPHKTDNYWKTDNYWCNTRLDSPNSRY		Gampaha	LK-12	7.123598	80.018508	Kotadeniyawa	PS-120354	7.283643	80.06649	7.284487	80.063252	B322, Kotadeniyawa, Sri Lanka	0.369384	
Gampaha	Divulapitiya	MOH Office – Divulapitiya	False	False	GMPHDVLPTYMHFFCDVLPTY		Gampaha	LK-12	7.123598	80.018508	Diulapitiya	PS-120355	7.174215	79.957874	7.215486	80.013606	6287+5CX, Divulapitiya, Sri Lanka	7.67456	
Gampaha	Divulapitiya	Dunagaha Central Dispensary	False	False	GMPHDVLPTYDNGHCNTRLDSPNSRY		Gampaha	LK-12	7.123598	80.018508	Diulapitiya	PS-120355	7.174215	79.957874	7.230314	80.016474	Divulapitiya, Sri Lanka	8.986298	
Gampaha	Divulapitiya	Gnanodaya Maha Vidyalaya	False	False	GMPHDVLPTYGNNDYMHVDYLY		Gampaha	LK-12	7.123598	80.018508	Diulapitiya	PS-120355	7.174215	79.957874	7.222331	80.019709	62C9+WVP, Divulapitiya 11250, Sri Lanka	8.672135	
Gampaha	Ja Ela	MOH Office - Ja Ela	False	False	GMPHJLMHFFCJL		Gampaha	LK-12	7.123598	80.018508	Ja - Ela	PS-120133	7.081055	79.890504	7.075216	79.893879	60 Mount Kalvary Rd, Ja-Ela, Sri Lanka	0.748731	
Gampaha	Wattala	MOH Office – Wattala	False	False	GMPHWTTLMHFFCWTTL		Gampaha	LK-12	7.123598	80.018508	Wattala	PS-120128	6.993713	79.894506	6.995817	79.885793	301 Hendala Rd, Wattala, Sri Lanka	0.989991	
Gampaha	Ragama	MOH Office – Ragama	False	False	GMPHRGMMHFFCRGM		Gampaha	LK-12	7.123598	80.018508	Ragama	PS-120134	7.034975	79.924148	7.027386	79.920232	2WGC+X35, Ragama, Sri Lanka	0.948382	
Kalutara	Wadduwa	Dharmapala Vidyalaya	False	False	KLTRWDDWDHRMPLVDYLY		Kalutara	LK-13	6.577316	80.127363	Wadduwa	PS-130188	6.664403	79.929851	6.668381	79.930516	MW9J+962, Wadduwa, Sri Lanka	0.44853	
Kalutara	Millaniya	Boddelgoda Viharaya	False	False	KLTRMLLNYBDDLGDVHRY		Kalutara	LK-13	6.577316	80.127363	Millaniya	PS-130191	6.681692	80.020847	6.683006	80.021529	Morontuduwa Horana Rd, Tuttiripitiya, Sri Lanka	0.164382	
Kalutara	Millaniya	Pethigamuwa Community Hall	False	False	KLTRMLLNYPTHGMWCMMNTYHLL		Kalutara	LK-13	6.577316	80.127363	Millaniya	PS-130191	6.681692	80.020847	6.715589	80.062323	10 Horana - Anguruwatota - Mathugama - Aluthgama Road, Horana, Sri Lanka	5.933732	
Kalutara	Millaniya	Gangamuwa Viharaya	False	False	KLTRMLLNYGNGMWVHRY		Kalutara	LK-13	6.577316	80.127363	Millaniya	PS-130191	6.681692	80.020847	6.696055	80.030612	Lenawara Rajamaha Viharaya, Panadura - Anguruwatota Rd, Tuttiripitiya, Sri Lanka	1.927704	
Kalutara	Beruwala	Hettimulla Viharaya	False	False	KLTRBRWLHTTMLLVHRY		Kalutara	LK-13	6.577316	80.127363	Beruwala	PS-1302102	6.480329	79.983498	6.449296	80.000796	Kandavihara Yati Rd, Beruwala, Sri Lanka	3.945877	
Kalutara	Thebuwana	Divisional Hospital – Neboda	False	False	KLTRTHBWNDVSNLHSPTLNBD		Kalutara	LK-13	6.577316	80.127363	Thebuwana	PS-1302105	6.654997	80.058183	6.570354	80.073048	wellatha Neboda ., Neboda - Wellatha Rd, Sri Lanka	9.557015	
Kalutara	Agalawatta	Pimbura Hospital	False	False	KLTRGLWTTPMBRHSPTL		Kalutara	LK-13	6.577316	80.127363	Agalawatta		6.542566	80.157178	6.575949	80.158371	H5G5+98H, කළුතර, Sri Lanka	3.715525	
Kalutara	Agalawatta	Mihindu Vidyalaya	False	False	KLTRGLWTTMHNDVDYLY		Kalutara	LK-13	6.577316	80.127363	Agalawatta		6.542566	80.157178	6.541797	80.156439	Siri Mihidu Central College, Nagoda - Kalawellawa - Bellapitiya Rd, Agalawatta, Sri Lanka	0.118259	
Kalutara	Bulathsinhala	Ihala Welgama Viharaya	False	False	KLTRBLTHSNHLHLWLGMVHRY		Kalutara	LK-13	6.577316	80.127363	Bulathsinhala	PS-1302104	6.650425	80.17703	6.636399	80.180009	Welgama, Bulathsinhala, Bulathsinhala 12300, Sri Lanka	1.59434	
Kalutara	Bulathsinhala	Halwatura Estate Hospital	False	False	KLTRBLTHSNHLHLWTRSTTHSPTL		Kalutara	LK-13	6.577316	80.127363	Bulathsinhala	PS-1302104	6.650425	80.17703	6.717599	80.190296	Halwatura, Sri Lanka	7.614126	
Kalutara	Bulathsinhala	Millakanda Estate	False	False	KLTRBLTHSNHLMLLKNDSTT		Kalutara	LK-13	6.577316	80.127363	Bulathsinhala	PS-1302104	6.650425	80.17703	6.665079	80.156303	Bulathsinhala - Mathugama Rd, Egaloya, Sri Lanka	2.810779	
Kalutara	Bulathsinhala	Bulathsinhala Hospital	False	False	KLTRBLTHSNHLBLTHSNHLHSPTL		Kalutara	LK-13	6.577316	80.127363	Bulathsinhala	PS-1302104	6.650425	80.17703	6.644629	80.179311	Nagoda - Kalawellawa - Bellapitiya Rd, Bulathsinhala, Sri Lanka	0.692193	
Kalutara	Welipenan	Walagedara Maha Vidyalaya	False	False	KLTRWLPNNWLGDRMHVDYLY		Kalutara	LK-13	6.577316	80.127363									#PoliceLocationUnknown
Kalutara	Matugama	Katuhena Hospital	False	False	KLTRMTGMKTHNHSPTL		Kalutara	LK-13	6.577316	80.127363	Mathugama	PS-1302103	6.520881	80.117908	6.946064	79.860912	WVW6+99, 213 Jampettah St, Colombo 01300, Sri Lanka	55.159144	#CenterFarFromPolice
Kalutara	Matugama	Ananda Vidyalaya	False	False	KLTRMTGMNNDVDYLY		Kalutara	LK-13	6.577316	80.127363	Mathugama	PS-1302103	6.520881	80.117908	6.524298	80.116714	Ananda Sasthralaya Rd, Matugama, Sri Lanka	0.402325	
Kalutara	Matugama	Weththewa Hospital	False	False	KLTRMTGMWTHTHWHSPTL		Kalutara	LK-13	6.577316	80.127363	Mathugama	PS-1302103	6.520881	80.117908	6.523087	80.125192	District Hospital, Hospital Road,Weththewa,., Matugama, Sri Lanka	0.841523	
Kalutara	Matugama	Panthiya Vidyalaya	False	False	KLTRMTGMPNTHYVDYLY		Kalutara	LK-13	6.577316	80.127363	Mathugama	PS-1302103	6.520881	80.117908	6.527789	80.094924	Panthiya, Nagoda - Mathugama - Kalawellawa - Bellapitiya Road, Matugama, Sri Lanka	2.653629	
Kalutara	Payagala	Technical College – Kalamulla	False	False	KLTRPYGLTCHNCLCLLGKLMLL		Kalutara	LK-13	6.577316	80.127363	Payagala	PS-130298	6.541144	79.974855	6.551872	79.974403	ANGANGODA,PAYAGALA, Temple Rd, Katukurunda, Sri Lanka	1.194319	
Kalutara	Payagala	Katukurunda Roman Catholic College	False	False	KLTRPYGLKTKRNDRMNCTHLCCLLG		Kalutara	LK-13	6.577316	80.127363	Payagala	PS-130298	6.541144	79.974855	6.542146	79.971687	St.Mary's Church Kudapayagala payagala Srilanka, A2, Katukurunda, Sri Lanka	0.367395	
Kalutara	Payagala	Pothuvila Vidyalaya	False	False	KLTRPYGLPTHVLVDYLY		Kalutara	LK-13	6.577316	80.127363	Payagala	PS-130298	6.541144	79.974855	6.519721	79.991523	Yatadola Rd, Maggona, Sri Lanka	3.01179	
Kalutara	Dodangoda	Dodangoda Hospital	False	False	KLTRDDNGDDDNGDHSPTL		Kalutara	LK-13	6.577316	80.127363	Dodangoda	PS-130299	6.553375	80.023569	6.540961	80.036553	Wilpatha Rd, Sri Lanka	1.991373	
Kalutara	Kalutara	Nagoda District General Hospital	False	False	KLTRKLTRNGDDSTRCTGNRLHSPTL		Kalutara	LK-13	6.577316	80.127363	Kalutara South		6.584968	79.96102	6.563228	79.985261	Kalutara-Matugama Rd, Sri Lanka	3.608635	
Kalutara	Kalutara	NIHS	False	False	KLTRKLTRNHS		Kalutara	LK-13	6.577316	80.127363	Kalutara South		6.584968	79.96102	6.559269	79.973486	Janatha Ln, Kalutara, Sri Lanka	3.173081	
Kalutara	Kalutara	Dediyawala Clinic	False	False	KLTRKLTRDDYWLCLNC		Kalutara	LK-13	6.577316	80.127363	Kalutara South		6.584968	79.96102	6.615904	79.955894	Unnamed Road, Kalutara, Sri Lanka	3.487308	
Kalutara	Bandragama	Mahavil Primary School	False	False	KLTRBNDRGMMHVLPRMRYSCHL		Kalutara	LK-13	6.577316	80.127363	Bandaragama	PS-130189	6.715179	79.987674	6.709543	79.985581	Kalayathana Road, Bandaragama, Sri Lanka	0.668169	
Kalutara	Bandragama	District Hospital - Bandaragama	False	False	KLTRBNDRGMDSTRCTHSPTLBNDRGM		Kalutara	LK-13	6.577316	80.127363	Bandaragama	PS-130189	6.715179	79.987674	6.716162	79.991484	Horana Rd, Bandaragama, Sri Lanka	0.434849	
Kalutara	Bandragama	Weeragaha Viaharaya	False	False	KLTRBNDRGMWRGHVHRY		Kalutara	LK-13	6.577316	80.127363	Bandaragama	PS-130189	6.715179	79.987674	6.712917	80.00252	Southern Expy, Bandaragama, Sri Lanka	1.659181	
Kalutara	Bandragama	Batadombathuduwa Community Hall	False	False	KLTRBNDRGMBTDMBTHDWCMMNTYHLL		Kalutara	LK-13	6.577316	80.127363	Bandaragama	PS-130189	6.715179	79.987674	6.73582	79.979262	"301/B, ""Siri, Chandana, Bandaragama 12530, Sri Lanka"	2.476812	
Kalutara	Bandragama	Rerukana Maternity Clinic	False	False	KLTRBNDRGMRRKNMTRNTYCLNC		Kalutara	LK-13	6.577316	80.127363	Bandaragama	PS-130189	6.715179	79.987674	6.717718	80.061849	P396+3PQ, Horana, Sri Lanka	8.198716	
Kalutara	Bandragama	Kolamediriya Viharaya	False	False	KLTRBNDRGMKLMDRYVHRY		Kalutara	LK-13	6.577316	80.127363	Bandaragama	PS-130189	6.715179	79.987674	6.7075	79.991389	Kalutara Rd., Bandaragama., Waskaduwa - Bandaragama Rd, Bandaragama, Sri Lanka	0.947609	
Kalutara	Panadura South	Panadura Mahanama Vidyalaya	False	False	KLTRPNDRSTHPNDRMHNMVDYLY		Kalutara	LK-13	6.577316	80.127363	Panadura South	PS-130186	6.720941	79.907315	6.725866	79.907901	PWG5+85R, Panadura, Sri Lanka	0.551618	
Kalutara	Panadura South	Sumangala Boy's College	False	False	KLTRPNDRSTHSMNGLBYSCLLG		Kalutara	LK-13	6.577316	80.127363	Panadura South	PS-130186	6.720941	79.907315	6.710155	79.914215	Sri Sumangala College, Panadura 12500, Sri Lanka	1.421379	
Kurunegala	Kurunegala	Mobile Medical Team	False	False	KRNGLKRNGLMBLMDCLTM		Kurunegala	LK-61	7.66477	80.23677	Kurunegala	PS-610101	7.485852	80.364137					#CenterLocationUnknown
Kurunegala	Kurunegala	Maneloluwa Sri Sudarmaramaya	False	False	KRNGLKRNGLMNLLWSRSDRMRMY		Kurunegala	LK-61	7.66477	80.23677	Kurunegala	PS-610101	7.485852	80.364137	7.451406	80.395785	Maneloluwa Temple, Maneloluwa, Doratiyawa, Kurunegala, Sri Lanka	5.182881	
Kurunegala	Nikaweratiya	MOH Office – Nikaweratiya	False	False	KRNGLNKWRTYMHFFCNKWRTY		Kurunegala	LK-61	7.66477	80.23677	Nikaweratiya	PS-610320	7.742612	80.121177	7.748302	80.113107	MoH office, Nikaweratiya, Sri Lanka	1.091629	
Kurunegala	Gokarella	Polgolla Hospital	False	False	KRNGLGKRLLPLGLLHSPTL		Kurunegala	LK-61	7.66477	80.23677	Gokarella	PS-610108	7.59543	80.480081	7.585624	80.475057	A6, Gokarella, Sri Lanka	1.223315	
Kurunegala	Gokarella	Welagala Vidyalaya	False	False	KRNGLGKRLLWLGLVDYLY		Kurunegala	LK-61	7.66477	80.23677	Gokarella	PS-610108	7.59543	80.480081	7.608573	80.419193	wewelagama ibbagamuwa, Nikaweratiya, Sri Lanka	6.870372	
Kurunegala	Melsiripura	Walakumbura Maha Vidyalaya	False	False	KRNGLMLSRPRWLKMBRMHVDYLY		Kurunegala	LK-61	7.66477	80.23677									#PoliceLocationUnknown
Kurunegala	Melsiripura	Medamulla De Mel Maha Midyalaya	False	False	KRNGLMLSRPRMDMLLDMLMHMDYLY		Kurunegala	LK-61	7.66477	80.23677									#PoliceLocationUnknown
Kurunegala	Wellawa	Gane Viharaya	False	False	KRNGLWLLWGNVHRY		Kurunegala	LK-61	7.66477	80.23677	Wellawa	PS-610107	7.554523	80.368896	7.513944	80.370859	G97C+H8H, Kurunegala, Sri Lanka	4.518783	
Kurunegala	Inguruwatta	Meethenna Vidyalaya	False	False	KRNGLNGRWTTMTHNNVDYLY		Kurunegala	LK-61	7.66477	80.23677	Anguruwatota	PS-130190	6.654997	80.058183	7.494346	80.368997	Dambulla Rd, Kurunegala, Sri Lanka	99.464904	#CenterFarFromPolice
Kurunegala	Polgahawela	Al Irfan Vidyalaya	False	False	KRNGLPLGHWLLRFNVDYLY		Kurunegala	LK-61	7.66477	80.23677	Polgahawela	PS-610102	7.333281	80.300363	7.343407	80.30538	Ambepussa - Kurunegala - Trincomalee Hwy, Polgahawela, Sri Lanka	1.254854	
Kurunegala	Rideegama	Kelemulla Primary School	False	False	KRNGLRDGMKLMLLPRMRYSCHL		Kurunegala	LK-61	7.66477	80.23677	Rideegama	PS-610110	7.589247	80.61027	7.557805	80.473098	HF5F+46H, Kurunegala, Sri Lanka	15.523598	
Kurunegala	Rideegama	Dodangaslanada Maha Vidyalaya	False	False	KRNGLRDGMDDNGSLNDMHVDYLY		Kurunegala	LK-61	7.66477	80.23677	Rideegama	PS-610110	7.589247	80.61027	7.537105	80.490915	Ridee Vihara Rd, Ridigama, Sri Lanka	14.381743	
Kurunegala	Rideegama	Delwita Maha Vidyalaya	False	False	KRNGLRDGMDLWTMHVDYLY		Kurunegala	LK-61	7.66477	80.23677	Rideegama	PS-610110	7.589247	80.61027	7.536358	80.465316	GFP8+G4W, Kurunegala, Sri Lanka	17.031225	
Puttalam	Pallama	Wilpatha Anura Vidyalaya	False	False	PTTLMPLLMWLPTHNRVDYLY		Puttalam	LK-62	7.973531	79.913833	Pallama	PS-620132	7.691904	79.922555	7.750387	79.891732	QV2R+5M5, Wilpotha 61008, Sri Lanka	7.338784	
Puttalam	Pallama	Thomarkkulama Community Hall	False	False	PTTLMPLLMTHMRKKLMCMMNTYHLL		Puttalam	LK-62	7.973531	79.913833	Pallama	PS-620132	7.691904	79.922555	7.577257	79.798877	Sinhapura Rd, Chilaw, Sri Lanka	18.668791	
Puttalam	Dankotuwa	Bujjampola Vidyalaya	False	False	PTTLMDNKTWBJJMPLVDYLY		Puttalam	LK-62	7.973531	79.913833	Dankotuwa	PS-620246	7.300337	79.882595	7.321665	79.915334	Bujjampola, Dankotuwa-Hettirrippuwa Rd, Sri Lanka	4.321345	
Puttalam	Dankotuwa	Ceylon Catch	False	False	PTTLMDNKTWCYLNCTCH		Puttalam	LK-62	7.973531	79.913833	Dankotuwa	PS-620246	7.300337	79.882595	7.313127	79.916405	Aralugahawatta, Ihalamohottimulla, Bujjampola, Dankotuwa 61130, Sri Lanka	3.992222	
Puttalam	Dankotuwa	Hemas Factory	False	False	PTTLMDNKTWHMSFCTRY		Puttalam	LK-62	7.973531	79.913833	Dankotuwa	PS-620246	7.300337	79.882595	7.315172	79.917756	P.O. Box 01, Bujjampola, Sri Lanka	4.215553	
Puttalam	Koswatta	Al Hira Maha Vidyalaya	False	False	PTTLMKSWTTLHRMHVDYLY		Puttalam	LK-62	7.973531	79.913833	Koswatta	PS-620244	7.374528	79.898302	7.381293	79.873432	Toppuwa - Madampe Rd, Ihala Kottaramulla, Sri Lanka	2.844708	
Puttalam	Koswatta	Morakele Vidyalaya	False	False	PTTLMKSWTTMRKLVDYLY		Puttalam	LK-62	7.973531	79.913833	Koswatta	PS-620244	7.374528	79.898302	6.886762	80.121921	Morakele, Pinnawala, Sri Lanka	59.604116	#CenterFarFromPolice
Puttalam	Karuwalagaswewa	Anadarawewa Vidyalaya	False	False	PTTLMKRWLGSWWNDRWWVDYLY		Puttalam	LK-62	7.973531	79.913833	Karuwalagaswewa	PS-620135	8.055066	79.955817	8.056545	79.959532	Trincomalee Road, Karuwalagaswewa, Sri Lanka	0.440976	
Puttalam	Karuwalagaswewa	Nawagaththegama Hospital	False	False	PTTLMKRWLGSWWNWGTHTHGMHSPTL		Puttalam	LK-62	7.973531	79.913833	Karuwalagaswewa	PS-620135	8.055066	79.955817	8.056545	79.959532	Trincomalee Road, Karuwalagaswewa, Sri Lanka	0.440976	
Puttalam	Karuwalagaswewa	Kele Wewa Vidyalata	False	False	PTTLMKRWLGSWWKLWWVDYLT		Puttalam	LK-62	7.973531	79.913833	Karuwalagaswewa	PS-620135	8.055066	79.955817	8.025991	79.847127	Puttalam, Sri Lanka	12.39985	
Puttalam	Karuwalagaswewa	Konkawala Vidyalaya	False	False	PTTLMKRWLGSWWKNKWLVDYLY		Puttalam	LK-62	7.973531	79.913833	Karuwalagaswewa	PS-620135	8.055066	79.955817	8.056545	79.959532	Trincomalee Road, Karuwalagaswewa, Sri Lanka	0.440976	
Kandy	Hasalaka	Ranasingha Pemadasa National College	False	False	KNDYHSLKRNSNGHPMDSNTNLCLLG		Kandy	LK-21	7.27337	80.709602	Hasalaka	PS-210362	7.353096	80.95444	7.349827	80.950564	Kandy-Mahiyangane-Padiyatalawa Hwy, Hasalaka, Sri Lanka	0.561284	
Kandy	Wattegama	Wattegama Balika Vidyalaya	False	False	KNDYWTTGMWTTGMBLKVDYLY		Kandy	LK-21	7.27337	80.709602	Wattegama	PS-210357	7.350603	80.68335	7.351534	80.682953	Pitiyagedera - Wattegama - Iriyagastenne Rd, Wattegama, Sri Lanka	0.112435	
Kandy	Wattegama	Walala A.Rathnayake Central College	False	False	KNDYWTTGMWLLRTHNYKCNTRLCLLG		Kandy	LK-21	7.27337	80.709602	Wattegama	PS-210357	7.350603	80.68335	7.318909	80.693359	8M9V+H89, Menikhinna, Sri Lanka	3.694199	
Kandy	Nawalapitiya	Al Noor Vidyalaya	False	False	KNDYNWLPTYLNRVDYLY		Kandy	LK-21	7.27337	80.709602	Nawalapitiya	PS-210219	7.057355	80.536075	7.055504	80.572411	Nawalapitiya - Harangala Rd, Hapugastalawa, Sri Lanka	4.016315	
Kandy	Nawa Kuruduwatta	Kurunduwaththa Royal College	False	False	KNDYNWKRDWTTKRNDWTHTHRYLCLLG		Kandy	LK-21	7.27337	80.709602	Nawa Kurunduwatta	PS-210218	7.126357	80.530286	7.130783	80.533673	Gampola, Kurunduwaththa Rd, kurunduwaththa 20509, Sri Lanka	0.618148	
Kandy	Gampola	Udagama Saranapala Vidyalaya	False	False	KNDYGMPLDGMSRNPLVDYLY		Kandy	LK-21	7.27337	80.709602	Gampola	PS-210216	7.132941	80.56799	7.122536	80.566502	Udagama, Ulapane, Kandy Rd, Sri Lanka	1.168941	
Kandy	Gampola	Wickramabahu National College	False	False	KNDYGMPLWCKRMBHNTNLCLLG		Kandy	LK-21	7.27337	80.709602	Gampola	PS-210216	7.132941	80.56799	7.153925	80.563839	Nawalapitiya Road, Gampola 20500, Sri Lanka, Sri Lanka	2.378605	
Kandy	Hatharaliyadda	Hatharaliyadda Maha Vidyalaya	False	False	KNDYHTHRLYDDHTHRLYDDMHVDYLY		Kandy	LK-21	7.27337	80.709602	Hatharaliyadda	PS-210106	7.336886	80.471814	7.33578	80.471154	Hatharaliyadda, Sri Lanka	0.142952	
Kandy	Galagedara	Galagedara Primary School	False	False	KNDYGLGDRGLGDRPRMRYSCHL		Kandy	LK-21	7.27337	80.709602	Galagedara	PS-210105	7.373683	80.526154	7.372282	80.519196	B122, Galagedara, Sri Lanka	0.783198	
Kandy	Galagedara	Galagedara Sujatha Balika Vidyalaya	False	False	KNDYGLGDRGLGDRSJTHBLKVDYLY		Kandy	LK-21	7.27337	80.709602	Galagedara	PS-210105	7.373683	80.526154	7.372389	80.518839	B122, Galagedara, Sri Lanka	0.819655	
Kandy	Rattota	Hunugala Clinic	False	False	KNDYRTTTHNGLCLNC		Kandy	LK-21	7.27337	80.709602	Rattota	PS-220122	7.520684	80.678809	7.274443	80.611134	907 Peradeniya Rd, Kandy 20000, Sri Lanka	28.388374	#CenterFarFromPolice
Kandy	Rattota	Rattota Hospital	False	False	KNDYRTTTRTTTHSPTL		Kandy	LK-21	7.27337	80.709602	Rattota	PS-220122	7.520684	80.678809	7.518413	80.676557	GM9G+9J7, Rattota, Sri Lanka	0.35423	
Matale	Mahawela	Pallepola Hospital	False	False	MTLMHWLPLLPLHSPTL		Matale	LK-22	7.667587	80.731008	Mahawela	PS-220123	7.589247	80.61027	7.627907	80.606017	Pallepola 21000, Sri Lanka	4.325634	
Badulla	Passara	Passara National College	False	False	BDLLPSSRPSSRNTNLCLLG		Badulla	LK-81	7.074529	81.04486	Passara	PS-810102	6.934481	81.154796	6.940355	81.167392	Peradeniya-Badulla-Chenkaladi Hwy, Passara, Sri Lanka	1.536617	
Badulla	Mahiyanganaya	Dehigolla Vidyalaya	False	False	BDLLMHYNGNYDHGLLVDYLY		Badulla	LK-81	7.074529	81.04486	Mahiyangane	PS-810105	7.334975	80.993108	7.333521	81.02095	A26, Dehigolla, Sri Lanka	3.075778	
Badulla	Rideemaliyadda	MOH Office – Rideemaliyadda	False	False	BDLLRDMLYDDMHFFCRDMLYDD		Badulla	LK-81	7.074529	81.04486	Rideemaliyadda		7.214807	81.124613	7.236705	81.107802	B57, Uraniya, Sri Lanka	3.061673	
Badulla	Kahataruppa	Kahataruppa Hospital	False	False	BDLLKHTRPPKHTRPPHSPTL		Badulla	LK-81	7.074529	81.04486									#PoliceLocationUnknown
Badulla	Badulla	Base Hospital - Badulla	False	False	BDLLBDLLBSHSPTLBDLL		Badulla	LK-81	7.074529	81.04486	Badulla	PS-810101	6.991337	81.055246	6.991808	81.05235	Daya Gunasekara Mawatha, Badulla, Sri Lanka	0.32399	
Badulla	Haputale	Haputale Hospital	False	False	BDLLHPTLHPTLHSPTL		Badulla	LK-81	7.074529	81.04486	Haputale	PS-810215	6.767653	80.957218	6.772723	80.956317	Haputale -Bandarawela, Diyatalawa, Sri Lanka	0.57263	
Badulla	Haputale	Base Hospital Diyatalawa	False	False	BDLLHPTLBSHSPTLDYTLW		Badulla	LK-81	7.074529	81.04486	Haputale	PS-810215	6.767653	80.957218	6.80555	80.956366	12 Fair Rd, Diyatalawa, Sri Lanka	4.216327	
Badulla	Ella	MOH Office – Ella	False	False	BDLLLLMHFFCLL		Badulla	LK-81	7.074529	81.04486	Ella	PS-810211	6.876609	81.048276	6.779645	80.964114	QXH7+WC4, Badulla, Sri Lanka	14.237912	
Badulla	Ella	Demodara Hospital	False	False	BDLLLLDMDRHSPTL		Badulla	LK-81	7.074529	81.04486	Ella	PS-810211	6.876609	81.048276	6.900561	81.057232	W324+6VH, Demodara, Sri Lanka	2.841818	
Badulla	Haliela	Etampitiaya Hospital	False	False	BDLLHLLTMPTYHSPTL		Badulla	LK-81	7.074529	81.04486	Haliela	PS-810108	6.958216	81.034447	6.934746	80.989784	Etampitiya Rd, Sri Lanka	5.579755	
Badulla	Haliela	Bogoda Maha Vidyalaya	False	False	BDLLHLLBGDMHVDYLY		Badulla	LK-81	7.074529	81.04486	Haliela	PS-810108	6.958216	81.034447	7.003423	81.004783	2233+9W7, Ketawala, Sri Lanka	6.000782	
Badulla	Haliela	Wepaswela Maha Vidyalaya	False	False	BDLLHLLWPSWLMHVDYLY		Badulla	LK-81	7.074529	81.04486	Haliela	PS-810108	6.958216	81.034447	6.951162	81.03182	Bandarawela - Badulla Rd, Hali-ela, Sri Lanka	0.836511	
Badulla	Haliela	Spring Valley Hospital	False	False	BDLLHLLSPRNGVLLYHSPTL		Badulla	LK-81	7.074529	81.04486	Haliela	PS-810108	6.958216	81.034447					#CenterLocationUnknown
Badulla	Haliela	Haliela Sariputta Vidyalaya	False	False	BDLLHLLHLLSRPTTVDYLY		Badulla	LK-81	7.074529	81.04486	Haliela	PS-810108	6.958216	81.034447	6.947643	81.027144	Sri Lanka, Hali-ela, Sri Lanka	1.425915	
Badulla	Haldummulla	Haldummulla Hospital	False	False	BDLLHLDMMLLHLDMMLLHSPTL		Badulla	LK-81	7.074529	81.04486	Haldummulla		6.762216	80.885856	6.758168	80.879938	Colombo - Ratnapura - Wellawaya - Batticaloa Rd, Sri Lanka	0.793746	
Badulla	Haldummulla	District Hospital Koslanada	False	False	BDLLHLDMMLLDSTRCTHSPTLKSLND		Badulla	LK-81	7.074529	81.04486	Haldummulla		6.762216	80.885856	6.772723	80.956317	Haputale -Bandarawela, Diyatalawa, Sri Lanka	7.870127	
Badulla	Welimada	MOH Office - Welimada	False	False	BDLLWLMDMHFFCWLMD		Badulla	LK-81	7.074529	81.04486	Welimada	PS-810212	6.900481	80.905809	6.927934	80.896475	Udapussellawa-Welimada Road, Ambagasdowa, Sri Lanka	3.222841	
Badulla	Welimada	Bogahakumbura Hospital	False	False	BDLLWLMDBGHKMBRHSPTL		Badulla	LK-81	7.074529	81.04486	Welimada	PS-810212	6.900481	80.905809	6.862306	80.875527	B48, Sri Lanka	5.404861	
Badulla	Bandarawela	MOH Office - Bandarawela	False	False	BDLLBNDRWLMHFFCBNDRWL		Badulla	LK-81	7.074529	81.04486	Bandarawela	PS-810210	6.831526	80.986784	6.841272	80.98482	Hospital Junction Helamuduna Bus Stop, Etampitiya Rd, Bandarawela, Sri Lanka	1.105533	
Badulla	Bandarawela	Municipal Council - Bandarawela	False	False	BDLLBNDRWLMNCPLCNCLBNDRWL		Badulla	LK-81	7.074529	81.04486	Bandarawela	PS-810210	6.831526	80.986784	6.832052	80.987194	Esplanade Road Beragala-Hali Ela Highway, Bandarawela 90100, Sri Lanka	0.073982	
Badulla	Uva Paranagama	Uva Paranagama Hospital	False	False	BDLLVPRNGMVPRNGMHSPTL	Divisional Hospital - Uva Paranagama	Badulla	LK-81	7.074529	81.04486	Uvaparanagama	PS-810213	6.958341	80.930364	6.938076	80.890525	Rendapola-Galahagama-Ambagasdowa Rd, Himbiliyagahamadiththa, Sri Lanka	4.942648	
Moneragala	Bibila	Bibila Cultural Centre	False	False	MNRGLBBLBBLCLTRLCNTR		Moneragala	LK-82	6.787517	81.303744	Bibila	PS-820125	7.165232	81.225463	7.162409	81.22159	Bibile, Sri Lanka	0.530371	
Moneragala	Govidupura	Pallewela Maha Vidyalaya	False	False	MNRGLGVDPRPLLWLMHVDYLY		Moneragala	LK-82	6.787517	81.303744									#PoliceLocationUnknown
Moneragala	Ethimale	Vilaoya Maha Vidyalaya	False	False	MNRGLTHMLVLYMHVDYLY		Moneragala	LK-82	6.787517	81.303744	Athimale	PS-820124	6.907289	79.863819	6.823721	81.535717	Ethimale, Sri Lanka	184.865198	#CenterFarFromPolice
Moneragala	Dambagalla	Obbegoda Maha Vidyalaya	False	False	MNRGLDMBGLLBBGDMHVDYLY		Moneragala	LK-82	6.787517	81.303744	Dambagalla	PS-820123	6.978806	81.372037	6.925916	81.351185	W9G2+9F7, Monaragala, Sri Lanka	6.317411	
Moneragala	Dambagalla	Aralawinna Community Hall	False	False	MNRGLDMBGLLRLWNNCMMNTYHLL		Moneragala	LK-82	6.787517	81.303744	Dambagalla	PS-820123	6.978806	81.372037	6.974657	81.371953	Madulla,Monaragala, Sri Lanka	0.461586	
Moneragala	Dambagalla	Madulla Maha Vidyalaya	False	False	MNRGLDMBGLLMDLLMHVDYLY		Moneragala	LK-82	6.787517	81.303744	Dambagalla	PS-820123	6.978806	81.372037	6.961757	81.371229	X96C+PF5, Dambagalla, Sri Lanka	1.898455	
Galle	Yakkalamulla	Newungala Primary School	False	False	GLLYKKLMLLNWNGLPRMRYSCHL		Galle	LK-31	6.222805	80.251977	Yakkalamulla	PS-310125	6.106186	80.348152					#CenterLocationUnknown
Galle	Pitigala	Amugoda Maha Vidyalaya	False	False	GLLPTGLMGDMHVDYLY		Galle	LK-31	6.222805	80.251977	Pitigala	PS-310237	6.335202	80.221149	6.321661	80.218624	B14, Amugoda, Sri Lanka	1.531812	
Galle	Elpitiya	Aviththawa Nalanda Vidyalaya	False	False	GLLLPTYVTHTHWNLNDVDYLY		Galle	LK-31	6.222805	80.251977	Elpitiya	PS-310235	6.279163	80.142917	6.349446	80.151126	Avittava - Elpitiya Rd, Sri Lanka	7.870069	
Galle	Habaraduwa	Katukurunda Dharamika Maha Vidyalaya	False	False	GLLHBRDWKTKRNDDHRMKMHVDYLY		Galle	LK-31	6.222805	80.251977	Habaraduwa	PS-310127	5.9871	80.327098	6.002705	80.309994	Habaraduwa, Sri Lanka	2.567631	
Galle	Rathgama	Rathgama Sirisumana Vidyalaya	False	False	GLLRTHGMRTHGMSRSMNVDYLY		Galle	LK-31	6.222805	80.251977	Ratgama	PS-310121	6.145115	80.099693	6.091926	80.140349	A2, Rathgama, Sri Lanka	7.430887	
Galle	Galle	Piyadigama Sudarshanaramaya	False	False	GLLGLLPYDGMSDRSHNRMY		Galle	LK-31	6.222805	80.251977	Galle	PS-310120	6.032983	80.21714	6.05366	80.190853	Piyadigama, Kalegana Road, Galle, Sri Lanka	3.707285	
Galle	Ahangama	Siddhartha Maha Vidyalaya -Dikkumbura	False	False	GLLHNGMSDDHRTHMHVDYLYDKKMBR		Galle	LK-31	6.222805	80.251977	Ahangama	PS-310128	5.972267	80.365256	5.973975	80.362159	Ahangama, Sri Lanka	0.391757	
Galle	Ambalangoda	Hinatiya Rahula Vidyalaya	False	False	GLLMBLNGDHNTYRHLVDYLY		Galle	LK-31	6.222805	80.251977	Ambalangoda	PS-310243	6.244958	80.047598	6.24063	80.054715	A2, Ambalangoda, Sri Lanka	0.922499	
Galle	Bentota	Bentota Gamini National College	False	False	GLLBNTTBNTTGMNNTNLCLLG		Galle	LK-31	6.222805	80.251977	Bentota	PS-310246	6.422233	79.996897	6.420401	80.003591	Gamini Vidyala Mawatha, Bentota, Sri Lanka	0.767449	
Galle	Opatha	Opatha Maha Vidyalaya	False	False	GLLPTHPTHMHVDYLY		Galle	LK-31	6.222805	80.251977									#PoliceLocationUnknown
Galle	Hiniduma	Dammala Rewatha Viharaya	False	False	GLLHNDMDMMLRWTHVHRY		Galle	LK-31	6.222805	80.251977	Hiniduma	PS-310131	6.329517	80.322442	6.30799	80.358746	Hiniduma - Opatha - Pitabeddera Rd, Thalangalla, Sri Lanka	4.673543	
Galle	Waduramba	Waduramba National College	False	False	GLLWDRMBWDRMBNTNLCLLG		Galle	LK-31	6.222805	80.251977	Wanduramba	PS-310124	6.1257	80.252985	6.133267	80.252075	Wanduramba - Mapalagama Rd, Wanduramba, Sri Lanka	0.847672	
Galle	Nagoda	Unanwitiya Rewatha Vidyalaya	False	False	GLLNGDNNWTYRWTHVDYLY		Galle	LK-31	6.222805	80.251977	Nagoda	PS-310130	6.197616	80.274707	6.162235	80.251505	Nayapamulla - Unanwitiya - Nagoda Rd, Sri Lanka	4.697942	
Galle	Nagoda	Nagoda Royal College	False	False	GLLNGDNGDRYLCLLG		Galle	LK-31	6.222805	80.251977	Nagoda	PS-310130	6.197616	80.274707	6.193905	80.276953	B454, Nagoda, Sri Lanka	0.481733	
Matara	Dickwella	Walasgala Muchalindarama Viharaya	False	False	MTRDCKWLLWLSGLMCHLNDRMVHRY		Matara	LK-32	6.142734	80.539994	Dikwella	PS-320103	5.964296	80.693198	5.976726	80.699104	Beliatta Rd, Dikwella 81200, Sri Lanka	1.529191	
Matara	Malimbada	Akurugoda Senani Vidyalaya	False	False	MTRMLMBDKRGDSNNVDYLY		Matara	LK-32	6.142734	80.539994	Malimbada	PS-320117	6.010503	80.517438	6.011938	80.487855	2F6Q+Q4H, Palatuwa, Sri Lanka	3.276309	
Matara	Deniyaya	Sumeda Maha Vidyalaya	False	False	MTRDNYYSMDMHVDYLY		Matara	LK-32	6.142734	80.539994	Deniyaya	PS-320110	6.341435	80.558719	6.342802	80.560955	Deniyaya - Wiharahena Rd, Deniyaya, Sri Lanka	0.290209	
Matara	Matara	Navimana Girikanda Purana Viharaya	False	False	MTRMTRNVMNGRKNDPRNVHRY		Matara	LK-32	6.142734	80.539994	Matara	PS-320101	5.94904	80.533659	5.963463	80.565943	XH78+99P, Matara, Sri Lanka	3.915316	
Matara	Mawarala	Makandura National College	False	False	MTRMWRLMKNDRNTNLCLLG		Matara	LK-32	6.142734	80.539994	Mawarala	PS-320109	6.198061	80.587045	6.154714	80.603723	National School, Deiyandara, Sri Lanka	5.162189	
Matara	Hakmana	Gunasekara Maha Vidyalaya	False	False	MTRHKMNGNSKRMHVDYLY		Matara	LK-32	6.142734	80.539994	Hakmana	PS-320106	6.084824	80.643227	5.987584	80.422596	XCQF+22Q, Weligama, Sri Lanka	26.694085	#CenterFarFromPolice
Matara	Hakmana	Methodist College	False	False	MTRHKMNMTHDSTCLLG		Matara	LK-32	6.142734	80.539994	Hakmana	PS-320106	6.084824	80.643227	6.081853	80.651909	Hakmana, Sri Lanka	1.015532	
Matara	Thihagoda	Puhulwella Maha Vidyalaya	False	False	MTRTHHGDPHLWLLMHVDYLY		Matara	LK-32	6.142734	80.539994	Thihagoda	PS-320104	6.01331	80.567932	6.014342	80.565771	Sri Lanka, Thihagoda, シハゴダ - カンバーウピティヤ＝マワララ＝コタポラ・ロード	0.265177	
Matara	Thihagoda	Thihagoda Central College	False	False	MTRTHHGDTHHGDCNTRLCLLG		Matara	LK-32	6.142734	80.539994	Thihagoda	PS-320104	6.01331	80.567932	6.014367	80.56597	Sri Lanka, Thihagoda, シハゴダ - カンバーウピティヤ＝マワララ＝コタポラ・ロード	0.246831	
Matara	Kamburupitiya	Mobile Vaccination	False	False	MTRKMBRPTYMBLVCCNTN		Matara	LK-32	6.142734	80.539994	Kamburupitiya	PS-320105	6.073875	80.564579					#CenterLocationUnknown
Matara	Urubokka	Urubokka National College	False	False	MTRRBKKRBKKNTNLCLLG		Matara	LK-32	6.142734	80.539994	Urubokka	PS-320108	6.310257	80.629013	6.30653	80.63061	Urubokka, Sri Lanka	0.450586	
Matara	Gandara	Dapulsen Vidyalaya	False	False	MTRGNDRDPLSNVDYLY		Matara	LK-32	6.142734	80.539994	Gandara	PS-320102	5.941629	80.614037	5.953041	80.535295	Akuressa Rd, Matara 81000, Sri Lanka	8.803313	
Matara	Kosmodara	Pradeshiya Shabha – Kotapola	False	False	MTRKSMDRPRDSHYSHBHKTPL		Matara	LK-32	6.142734	80.539994	Kosmodara	PS-320116	6.290019	80.560337	6.340422	80.5593	Deniyaya - Wiharahena Rd, Deniyaya, Sri Lanka	5.607489	
Matara	Akuressa	Bodhiraja Viharaya	False	False	MTRKRSSBDHRJVHRY		Matara	LK-32	6.142734	80.539994	Akuressa	PS-320112	6.099044	80.4776	6.050673	80.458957	Thepudeniya, Kananke, Sri Lanka	5.761901	
Hambantota	Hambantota	Mobile Medical Team	False	False	HMBNTTHMBNTTMBLMDCLTM		Hambantota	LK-33	6.259779	81.098619	Hambantota	PS-330156	6.125872	81.12521					#CenterLocationUnknown
Hambantota	Walasmulla	Hadugala Viharaya	False	False	HMBNTTWLSMLLHDGLVHRY		Hambantota	LK-33	6.259779	81.098619	Walasmulla	PS-330151	6.154102	80.698256	6.146326	80.656854	Kitulagoda Pitadeniya Palle Kanda Road, Walasmulla 82450, Sri Lanka	4.65961	
Hambantota	Walasmulla	Egodabedda Viharaya	False	False	HMBNTTWLSMLLGDBDDVHRY		Hambantota	LK-33	6.259779	81.098619	Walasmulla	PS-330151	6.154102	80.698256	6.194762	80.94959	5WVX+WR4, Hambantota, Sri Lanka	28.159225	#CenterFarFromPolice
Hambantota	Walasmulla	MOH Office – Okewela	False	False	HMBNTTWLSMLLMHFFCKWL		Hambantota	LK-33	6.259779	81.098619	Walasmulla	PS-330151	6.154102	80.698256	6.098886	80.715898	Okewela, Sri Lanka	6.444136	
Hambantota	Weeraketiya	MOH Office – Weeraketiya	False	False	HMBNTTWRKTYMHFFCWRKTY		Hambantota	LK-33	6.259779	81.098619	Weeraketiya	PS-330149	6.153899	80.76737	6.144703	80.765287	4QV8+V4M, Weeraketiya, Sri Lanka	1.048488	
Hambantota	Weeraketiya	D. A. Rajapaksha Vidyalaya	False	False	HMBNTTWRKTYDRJPKSHVDYLY		Hambantota	LK-33	6.259779	81.098619	Weeraketiya	PS-330149	6.153899	80.76737	6.135024	80.77105	Tangalle - Weeraketiya Rd, Weeraketiya, Sri Lanka	2.138545	
Hambantota	Angunukolapelessa	MOH Office - Angunukolapelessa	False	False	HMBNTTNGNKLPLSSMHFFCNGNKLPLSS		Hambantota	LK-33	6.259779	81.098619	Angunakolapelessa	PS-330150	6.321993	80.844883	6.164691	80.898963	Unnamed Road, Agunukolapelessa, Sri Lanka	18.490258	
Hambantota	Tissamaharama	Menik Rajamaha Viharaya	False	False	HMBNTTTSSMHRMMNKRJMHVHRY		Hambantota	LK-33	6.259779	81.098619	Tissamaharamaya	PS-330158	6.26109	81.236724	6.28018	81.290077	Rubberwatte Rd, Tissamaharama, Sri Lanka	6.269468	
Hambantota	Beliatta	MOH Office – Beliatta	False	False	HMBNTTBLTTMHFFCBLTT		Hambantota	LK-33	6.259779	81.098619	Beliatta	PS-330152	6.046936	80.735408	6.051828	80.741735	3P2R+PMQ, Hambantota, Sri Lanka	0.886482	
Hambantota	Beliatta	Siri Sunandarama Viharaya	False	False	HMBNTTBLTTSRSNNDRMVHRY		Hambantota	LK-33	6.259779	81.098619	Beliatta	PS-330152	6.046936	80.735408	6.060624	80.488242	3F6Q+67X, Algiriya, Sri Lanka	27.38128	#CenterFarFromPolice
Hambantota	Tangalla	MOH Office – Tangalla	False	False	HMBNTTTNGLLMHFFCTNGLL		Hambantota	LK-33	6.259779	81.098619	Tangalle	PS-330147	6.023954	80.797255	6.02363	80.795742	2QFW+F75, Tangalle, Sri Lanka	0.171198	
Hambantota	Sooriyawewa	MOH Office – Sooriyawewa	False	False	HMBNTTSRYWWMHFFCSRYWW		Hambantota	LK-33	6.259779	81.098619	Sooriyawewa	PS-330155	6.306022	81.003873	6.304862	81.004768	8233+WWR, Sooriyawewa, Sri Lanka	0.1626	
Hambantota	Katuwana	MOH Office – Katuwana	False	False	HMBNTTKTWNMHFFCKTWN		Hambantota	LK-33	6.259779	81.098619	Katuwana	PS-330153	6.269722	80.690963	6.26627	80.693035	7M8V+G63, Katuwana, Sri Lanka	0.447115	
Rathnapura	Eheliyagoda	Kiriporuwa Hospital	False	False	RTHNPRHLYGDKRPRWHSPTL		Ratnapura	LK-91	6.586826	80.566158	Ehaliyagoda	PS-910113	6.854603	80.260446	7.087946	80.29275	kurugahavita Rd, Aguruwella, Sri Lanka	26.198612	#CenterFarFromPolice
Rathnapura	Eheliyagoda	Sirisamanpura Viharaya	False	False	RTHNPRHLYGDSRSMNPRVHRY		Ratnapura	LK-91	6.586826	80.566158	Ehaliyagoda	PS-910113	6.854603	80.260446	6.854023	80.255884	Unnamed Road, Eheliyagoda, Sri Lanka	0.507918	
Rathnapura	Pelmadulla	Mahinda Vidyalaya	False	False	RTHNPRPLMDLLMHNDVDYLY		Ratnapura	LK-91	6.586826	80.566158	Pelmadulla	PS-910117	6.632692	80.521315	6.630199	80.53881	Colombo - Batticaloa Hwy, Pelmadulla, Sri Lanka	1.952735	
Rathnapura	Pinnawala	Morahela Regional Health Centre	False	False	RTHNPRPNNWLMRHLRGNLHLTHCNTR		Ratnapura	LK-91	6.586826	80.566158	Pinnawala	PS-910115	7.299943	80.386604	6.705628	80.381296	P94J+7G3, Ratnapura, Sri Lanka	66.108156	#CenterFarFromPolice
Rathnapura	Pinnawala	Thorawela Kanada Vidyalaya	False	False	RTHNPRPNNWLTHRWLKNDVDYLY		Ratnapura	LK-91	6.586826	80.566158	Pinnawala	PS-910115	7.299943	80.386604	6.602628	80.734181	JP3M+3M3, Ratnapura, Sri Lanka	86.537019	#CenterFarFromPolice
Rathnapura	Pinnawala	Sisilton Estate Regional Health Centre	False	False	RTHNPRPNNWLSSLTNSTTRGNLHLTHCNTR		Ratnapura	LK-91	6.586826	80.566158	Pinnawala	PS-910115	7.299943	80.386604	6.686964	80.392318	M9PR+QWP, Ratnapura, Sri Lanka	68.18447	#CenterFarFromPolice
Rathnapura	Balangoda	Ampitiyawatta Community Hall	False	False	RTHNPRBLNGDMPTYWTTCMMNTYHLL		Ratnapura	LK-91	6.586826	80.566158	Balangoda	PS-910103	6.649474	80.700276	6.631371	80.724065	Kirimatithanna, Balangoda, Sri Lanka	3.310966	
Rathnapura	Balangoda	Mawela Community Hall	False	False	RTHNPRBLNGDMWLCMMNTYHLL		Ratnapura	LK-91	6.586826	80.566158	Balangoda	PS-910103	6.649474	80.700276	6.616174	80.705008	Mawela-Ellepola Rd, Balangoda, Sri Lanka	3.74067	
Rathnapura	Balangoda	Wawelage Viharaya	False	False	RTHNPRBLNGDWWLGVHRY		Ratnapura	LK-91	6.586826	80.566158	Balangoda	PS-910103	6.649474	80.700276	6.611237	80.594059	A4, Sri Lanka	12.4824	
Rathnapura	Balangoda	Massenna Community Hall	False	False	RTHNPRBLNGDMSSNNCMMNTYHLL		Ratnapura	LK-91	6.586826	80.566158	Balangoda	PS-910103	6.649474	80.700276	6.666861	80.704808	Balangoda, Sri Lanka	1.997716	
Rathnapura	Balangoda	Ellawatta Viharaya	False	False	RTHNPRBLNGDLLWTTVHRY		Ratnapura	LK-91	6.586826	80.566158	Balangoda	PS-910103	6.649474	80.700276	6.65499	80.698265	Colombo - Batticaloa Hwy, Balangoda, Sri Lanka	0.652533	
Rathnapura	Balangoda	Welage Viharaya	False	False	RTHNPRBLNGDWLGVHRY		Ratnapura	LK-91	6.586826	80.566158	Balangoda	PS-910103	6.649474	80.700276	6.666861	80.704808	Balangoda, Sri Lanka	1.997716	
Rathnapura	Samanalawewa	Pambahina Hospital	False	False	RTHNPRSMNLWWPMBHNHSPTL		Ratnapura	LK-91	6.586826	80.566158									#PoliceLocationUnknown
Rathnapura	Panamura	Mulediyawala Vidyalaya	False	False	RTHNPRPNMRMLDYWLVDYLY		Ratnapura	LK-91	6.586826	80.566158	Panamure	PS-910236	6.40194	80.687615	6.681597	80.40321	St.Aloysius' College , Church Road , Ratnapura , Srilanka, Cathedral Road, Ratnapura 70000, Sri Lanka	44.21917	#CenterFarFromPolice
Rathnapura	Panamura	Walalgoda Vidyalaya	False	False	RTHNPRPNMRWLLGDVDYLY		Ratnapura	LK-91	6.586826	80.566158	Panamure	PS-910236	6.40194	80.687615	6.32955	80.757703	Embilipitiya-Panamure-Urubokka Rd, Sri Lanka	11.174171	
Rathnapura	Panamura	Panamura Vidyalaya	False	False	RTHNPRPNMRPNMRVDYLY		Ratnapura	LK-91	6.586826	80.566158	Panamure	PS-910236	6.40194	80.687615	6.342085	80.776645	B115, Panamure, Sri Lanka	11.881996	
Rathnapura	Rathnapura	Bodhigiriya Viharaya	False	False	RTHNPRRTHNPRBDHGRYVHRY		Ratnapura	LK-91	6.586826	80.566158	Ratnapura	PS-910101	6.679456	80.40223	6.672074	80.419173	MCC9+RMF, Ratnapura, Sri Lanka	2.043966	
Rathnapura	Kiriella	Jinarathana Vidyalaya	False	False	RTHNPRKRLLJNRTHNVDYLY		Ratnapura	LK-91	6.586826	80.566158	Kiriella	PS-910114	6.735338	80.276481	6.763791	80.220493	Q67C+G59, Ratnapura, Sri Lanka	6.947129	
Rathnapura	Kolonna	Kaburugamuwa Vidyalaya	False	False	RTHNPRKLNNKBRGMWVDYLY		Ratnapura	LK-91	6.586826	80.566158	Kolonna	PS-910235	6.40194	80.687615	6.440955	80.759711	Pelmadulla - Embilipitiya Hwy, Ratnapura, Sri Lanka	9.074016	
Rathnapura	Kolonna	Thalagahawatta Vidyalaya	False	False	RTHNPRKLNNTHLGHWTTVDYLY		Ratnapura	LK-91	6.586826	80.566158	Kolonna	PS-910235	6.40194	80.687615	6.446144	80.658746	CMW5+FF5, Suriyakanda, Sri Lanka	5.861485	
Rathnapura	Ayagama	MOH Office – Ayagama	False	False	RTHNPRYGMMHFFCYGM		Ratnapura	LK-91	6.586826	80.566158	Ayagama	PS-910109	6.637727	80.312554	6.634742	80.314759	J8M7+VWR, Ayagama, Sri Lanka	0.411811	
Rathnapura	Godakawela	Demuwawatha Vidyalaya	False	False	RTHNPRGDKWLDMWWTHVDYLY		Ratnapura	LK-91	6.586826	80.566158	Godakawela	PS-910233	6.50224	80.655642	6.505873	80.640843	GJ4R+88W, Ratnapura, Sri Lanka	1.684679	
Rathnapura	Godakawela	Siddhartha Vidyalaya – Elpitiya	False	False	RTHNPRGDKWLSDDHRTHVDYLYLPTY		Ratnapura	LK-91	6.586826	80.566158	Godakawela	PS-910233	6.50224	80.655642	6.505195	80.645721	Godakawela, Sri Lanka	1.144617	
Rathnapura	Godakawela	Hiramadagama Vidyalaya	False	False	RTHNPRGDKWLHRMDGMVDYLY		Ratnapura	LK-91	6.586826	80.566158	Godakawela	PS-910233	6.50224	80.655642	6.53071	80.615995	GJJ8+79Q, Ratnapura, Sri Lanka	5.406022	
Rathnapura	Kuruwita	Bopath Asapuwa	False	False	RTHNPRKRWTBPTHSPW		Ratnapura	LK-91	6.586826	80.566158	Kuruwita	PS-910112	6.778839	80.364712	6.801762	80.369422	Agalawatta, Kuruwita, HiggasHena - Devipahala Road, Kuruwita, Sri Lanka	2.60225	
Rathnapura	Kuruwita	Kosgoda Community Hall	False	False	RTHNPRKRWTKSGDCMMNTYHLL		Ratnapura	LK-91	6.586826	80.566158	Kuruwita	PS-910112	6.778839	80.364712	6.335782	80.030182	Galle Rd, Kosgoda, Sri Lanka	61.604644	#CenterFarFromPolice
Rathnapura	Kuruwita	Lassakanada Viharaya	False	False	RTHNPRKRWTLSSKNDVHRY		Ratnapura	LK-91	6.586826	80.566158	Kuruwita	PS-910112	6.778839	80.364712	6.77558	80.35651	Q9G4+6JJ, Kuruwita, Sri Lanka	0.975765	
Rathnapura	Kahawatta	Borala Vidyalaya	False	False	RTHNPRKHWTTBRLVDYLY		Ratnapura	LK-91	6.586826	80.566158	Kahawatta	PS-910107	6.591434	80.56893	6.5771	80.574524	School Rd, Kahawatta, Sri Lanka	1.709993	
Rathnapura	Kahawatta	Poronuwa Vidyalaya	False	False	RTHNPRKHWTTPRNWVDYLY		Ratnapura	LK-91	6.586826	80.566158	Kahawatta	PS-910107	6.591434	80.56893	6.578537	80.540556	HGHR+C67, Ratnapura, Sri Lanka	3.447818	
Rathnapura	Kahawatta	Kattange Vidyalaya	False	False	RTHNPRKHWTTKTTNGVDYLY		Ratnapura	LK-91	6.586826	80.566158	Kahawatta	PS-910107	6.591434	80.56893	6.58556	80.598726	Kahawatta Opanayake Rd, Kattange, Sri Lanka	3.356521	
Kegalle	Bulathkohupitiya	MOH Office – Bulathkohupitiya	False	False	KGLLBLTHKHPTYMHFFCBLTHKHPTY		Kegalle	LK-92	7.104216	80.342866	Bulathkohupitiya	PS-920232	7.106684	80.3347	7.109127	80.334565	485M+MR4, Bulathkohupitiya, Sri Lanka	0.272143	
Kegalle	Kegalle	MOH Office - Galigamuwa	False	False	KGLLKGLLMHFFCGLGMW		Kegalle	LK-92	7.104216	80.342866	Kegalle	PS-920118	7.255928	80.353156	7.240448	80.300505	ballapana, galigamuwa town, Sri Lanka	6.059352	
Kegalle	Kegalle	MOH Office – Kegalle	False	False	KGLLKGLLMHFFCKGLL		Kegalle	LK-92	7.104216	80.342866	Kegalle	PS-920118	7.255928	80.353156	7.24797	80.343583	Kegalle-Bulathkohupitiya-Karawanella Hwy, Kegalle, Sri Lanka	1.378052	
Kegalle	Deraniyagala	Multi Task Centre - Deraniyagala	False	False	KGLLDRNYGLMLTTSKCNTRDRNYGL		Kegalle	LK-92	7.104216	80.342866	Deraniyagala	PS-920228	6.935815	80.334998	6.934076	80.336205	Deraniyagala Road, Deraniyagala, Sri Lanka	0.234896	
Kegalle	Mawanella	MOH Office – Mawanella	False	False	KGLLMWNLLMHFFCMWNLL		Kegalle	LK-92	7.104216	80.342866	Mawanella	PS-920122	7.256966	80.445912	7.253248	80.44561	Rambukkana-Mawanella Rd, Mawanella, Sri Lanka	0.414893	
Anuradhapura	Anuradhapura	Army Hospital Anuradhapura	False	False	NRDHPRNRDHPRRMYHSPTLNRDHPR		Anuradhapura	LK-71	8.39199	80.512958	Anuradapura	PS-710101	8.329752	80.407265	8.338302	80.407646	AB02, Anuradhapura, Sri Lanka	0.951939	
Anuradhapura	Hidogama	Aluthwewa Vidyalaya	False	False	NRDHPRHDGMLTHWWVDYLY		Anuradhapura	LK-71	8.39199	80.512958	Hidogama	PS-710102	8.31575	80.420358	8.285253	80.368805	Aluthwewa, Srawasthipura, A28, Anuradhapura, Sri Lanka	6.61088	
Anuradhapura	Hidogama	Kumara Vidyalaya	False	False	NRDHPRHDGMKMRVDYLY		Anuradhapura	LK-71	8.39199	80.512958	Hidogama	PS-710102	8.31575	80.420358	8.285253	80.368805	Aluthwewa, Srawasthipura, A28, Anuradhapura, Sri Lanka	6.61088	
Anuradhapura	Galenbindunuwewa	Thakshila Maha Vidyalaya	False	False	NRDHPRGLNBNDNWWTHKSHLMHVDYLY		Anuradhapura	LK-71	8.39199	80.512958	Galenbidunuwewa	PS-710121	8.29037	80.71501	8.305816	80.720368	Ganewelpola - Dachchahalmillewa Rd, Sri Lanka	1.816452	
Anuradhapura	Galenbindunuwewa	Getalawa Karuwalagaswewa Vidyalaya	False	False	NRDHPRGLNBNDNWWGTLWKRWLGSWWVDYLY		Anuradhapura	LK-71	8.39199	80.512958	Galenbidunuwewa	PS-710121	8.29037	80.71501	8.318262	80.774061	Getalawa, Sri Lanka	7.201858	
Anuradhapura	Galenbindunuwewa	MOH Office - Galenbindunuwewa	False	False	NRDHPRGLNBNDNWWMHFFCGLNBNDNWW		Anuradhapura	LK-71	8.39199	80.512958	Galenbidunuwewa	PS-710121	8.29037	80.71501	8.292134	80.717284	7PR8+VW3, Galenbindunuwewa, Sri Lanka	0.318033	
Anuradhapura	Horowpothana	Nebadawewa Community Hall	False	False	NRDHPRHRWPTHNNBDWWCMMNTYHLL		Anuradhapura	LK-71	8.39199	80.512958	Horowpathana	PS-710117	8.553878	80.830734	8.556976	80.831291	HR4J+QGV, Horowupotana, Sri Lanka	0.349994	
Anuradhapura	Horowpothana	Diyathittawewa Community Hall	False	False	NRDHPRHRWPTHNDYTHTTWWCMMNTYHLL		Anuradhapura	LK-71	8.39199	80.512958	Horowpathana	PS-710117	8.553878	80.830734	8.556976	80.831291	HR4J+QGV, Horowupotana, Sri Lanka	0.349994	
Anuradhapura	Mihintale	Mihintale Hospital	False	False	NRDHPRMHNTLMHNTLHSPTL		Anuradhapura	LK-71	8.39199	80.512958	Mihintale	PS-710104	8.360062	80.511889	8.35505	80.509287	Kandy Rd, Mihintale, Sri Lanka	0.626724	
Anuradhapura	Mihintale	MOH Office – Rambewa	False	False	NRDHPRMHNTLMHFFCRMBW		Anuradhapura	LK-71	8.39199	80.512958	Mihintale	PS-710104	8.360062	80.511889	8.438263	80.504725	CGQ3+8V5, Rambewa, Sri Lanka	8.733932	
Anuradhapura	Polonnaruwa	Thopawewa Maha Vidyalaya	False	False	NRDHPRPLNNRWTHPWWMHVDYLY		Anuradhapura	LK-71	8.39199	80.512958	Polonnaruwa	PS-720125	7.924307	81.036895	8.350062	80.414372	9C27+2PH, Anuradhapura, Sri Lanka	83.313756	#CenterFarFromPolice
Anuradhapura	Jaffna	Mobile Medical Team	False	False	NRDHPRJFFNMBLMDCLTM		Anuradhapura	LK-71	8.39199	80.512958	Jaffna	PS-410209	9.659919	80.010965					#CenterLocationUnknown
Jaffna	Jaffna	Perumal Kovil Hall  - Jaffna	False	False	JFFNJFFNPRMLKVLHLLJFFN		Jaffna	LK-41	9.691792	80.098594	Jaffna	PS-410209	9.659919	80.010965	9.670977	80.015856	Clock Tower Rd, Jaffna, Sri Lanka	1.341816	
Jaffna	Kopay	MOH Office - Kopay	False	False	JFFNKPYMHFFCKPY		Jaffna	LK-41	9.691792	80.098594	Kopai	PS-410216	9.686887	80.03856	9.706729	80.065433	B268, Jaffna, Sri Lanka	3.681313	
Jaffna	Chunnagam	MOH Office - Uduvil	False	False	JFFNCHNNGMMHFFCDVL		Jaffna	LK-41	9.691792	80.098594	Chunnakam	PS-410211	9.745309	80.029151	9.742938	80.035132	P2VP+53C, Chunnakam, Sri Lanka	0.706719	
Jaffna	Thelippalai	MOH Office – Thelippalai	False	False	JFFNTHLPPLMHFFCTHLPPL		Jaffna	LK-41	9.691792	80.098594	Thelippalay	PS-410104	6.933075	79.857181	9.785272	80.032899	Q2PM+452, Tellippalai, Sri Lanka	317.838063	#CenterFarFromPolice
Jaffna	Pallai	Kudaththanai AMTM School	False	False	JFFNPLLKDTHTHNMTMSCHL		Jaffna	LK-41	9.691792	80.098594	Palali	PS-410105	9.789552	80.06488	9.746573	80.27285	Kudaththanai Road, Pointpedro, Point Pedro, Sri Lanka	23.292955	#CenterFarFromPolice
Jaffna	Wadukkotte	MOH Office – Chankanai	False	False	JFFNWDKKTTMHFFCCHNKN		Jaffna	LK-41	9.691792	80.098594	Vaddukoddai		9.728886	79.947771	9.753617	79.976004	QX3G+CCR, Sri Lanka	4.140836	
Jaffna	Manipay	DH Manippai	False	False	JFFNMNPYDHMNPP		Jaffna	LK-41	9.691792	80.098594	Manippai	PS-410210	9.727151	79.996905	9.725097	79.99772	Sri Lanka, Manipay, Sri Lanka	0.245316	
Jaffna	Achchuveli	Achchuveli Hospital	False	False	JFFNCHCHVLCHCHVLHSPTL		Jaffna	LK-41	9.691792	80.098594	Achchuweli	PS-410103	6.934132	79.856305	9.772721	80.115501	Avarankal-Tondaimanar Rd, Sri Lanka	317.021383	#CenterFarFromPolice
Jaffna	Achchuveli	Kalaimahai Pre School – Puttur	False	False	JFFNCHCHVLKLMHPRSCHLPTTR		Jaffna	LK-41	9.691792	80.098594	Achchuweli	PS-410103	6.934132	79.856305	9.745655	80.104632	AB20 - Point Pedro Road Puttur west, Jaffna 40000, Sri Lanka	313.916871	#CenterFarFromPolice
Jaffna	Kayts	MOH Office – Karainagar	False	False	JFFNKYTSMHFFCKRNGR		Jaffna	LK-41	9.691792	80.098594	Kayts	PS-410212	9.728654	79.94775	9.725097	79.99772	Sri Lanka, Manipay, Sri Lanka	5.492521	
Jaffna	Kayts	MOH Office – Valanai	False	False	JFFNKYTSMHFFCVLN		Jaffna	LK-41	9.691792	80.098594	Kayts	PS-410212	9.728654	79.94775	9.636317	79.903777	Chatty vangkalvady road, Velanai, Sri Lanka	11.346015	
Jaffna	Kayts	DH Pandathirippu	False	False	JFFNKYTSDHPNDTHRPP		Jaffna	LK-41	9.691792	80.098594	Kayts	PS-410212	9.728654	79.94775	9.693036	79.868685	AB19, Kayts, Sri Lanka	9.530818	
Jaffna	Kayts	MOH Office – Kayts	False	False	JFFNKYTSMHFFCKYTS		Jaffna	LK-41	9.691792	80.098594	Kayts	PS-410212	9.728654	79.94775	9.697759	79.866366	Sri Lanka, Kayts, Sri Lanka	9.561445	
Jaffna	Chavakachcheri	Saraswathy Vidyalayam Velanai	False	False	JFFNCHVKCHCHRSRSWTHYVDYLYMVLN		Jaffna	LK-41	9.691792	80.098594	Chawakachcheri	PS-410215	9.666459	80.132384	9.63724	79.901078	JWP2+VCW, Velanai, Sri Lanka	25.571312	#CenterFarFromPolice
Kilinochchi	Kilinochchi	MOH Office – Kanadawala	False	False	KLNCHCHKLNCHCHMHFFCKNDWL		Kilinochchi	LK-45	9.415742	80.30358	Kilinochchi	PS-450131	9.392265	80.407846	9.396965	80.407782	Kandy - Jaffna Hwy, Kilinochchi, Sri Lanka	0.522827	
Kilinochchi	Kilinochchi	MOH Office - Karachchi	False	False	KLNCHCHKLNCHCHMHFFCKRCHCH		Kilinochchi	LK-45	9.415742	80.30358	Kilinochchi	PS-450131	9.392265	80.407846	9.396965	80.407782	Kandy - Jaffna Hwy, Kilinochchi, Sri Lanka	0.522827	
Kilinochchi	Kilinochchi	MOH Office - Punakar	False	False	KLNCHCHKLNCHCHMHFFCPNKR		Kilinochchi	LK-45	9.415742	80.30358	Kilinochchi	PS-450131	9.392265	80.407846	9.396965	80.407782	Kandy - Jaffna Hwy, Kilinochchi, Sri Lanka	0.522827	
Kilinochchi	Kilinochchi	MOH Office – Palai	False	False	KLNCHCHKLNCHCHMHFFCPL		Kilinochchi	LK-45	9.415742	80.30358	Kilinochchi	PS-450131	9.392265	80.407846	7.330938	80.29484	06 A6, Polgahawela, Sri Lanka	229.618032	#CenterFarFromPolice
Kilinochchi	Pooneryn	MOH Office – Pooneryn	False	False	KLNCHCHPNRYNMHFFCPNRYN		Kilinochchi	LK-45	9.415742	80.30358	Pooneryn		9.505717	80.21101	9.507968	80.208317	G655+58P, Pooneryn, Sri Lanka	0.387256	
Kilinochchi	Jayapuram	Jayapuram Hospital	False	False	KLNCHCHJYPRMJYPRMHSPTL		Kilinochchi	LK-45	9.415742	80.30358	Jayapuram		9.312838	80.159865	9.372728	80.411786	Ananthapuram, A9, Kilinochchi, Sri Lanka	28.440585	#CenterFarFromPolice
Kilinochchi	Mulankavil	Mulankavil Hospital	False	False	KLNCHCHMLNKVLMLNKVLHSPTL		Kilinochchi	LK-45	9.415742	80.30358	Mulankavil	PS-450135	9.254463	80.141528	9.243423	80.143894	Base Hospital Mulankavil, A32 Road, Mulankavil, Kumulamunai, Sri Lanka	1.255148	
Mullaitivu	Mankulam	Nattankandal Hospital	False	False	MLLTVMNKLMNTTNKNDLHSPTL		Mullaitivu	LK-44	9.167643	80.549091	Mankulam	PS-440147	9.124606	80.448404	9.12782	80.447093	A9, Mankulam, Sri Lanka	0.385396	
Mullaitivu	Mankulam	Mankulam Hospital	False	False	MLLTVMNKLMMNKLMHSPTL		Mullaitivu	LK-44	9.167643	80.549091	Mankulam	PS-440147	9.124606	80.448404	9.12782	80.447093	A9, Mankulam, Sri Lanka	0.385396	
Mullaitivu	Puthukudiyiruppu	Puthukudiyiruppu Bharathi Vidyalaya	False	False	MLLTVPTHKDYRPPPTHKDYRPPBHRTHVDYLY		Mullaitivu	LK-44	9.167643	80.549091	Pudukuduiruppu	PS-440149	7.00152	79.95003	9.31067	80.699589	8M6X+7R8, Puthukkudiyiruppu, Sri Lanka	269.778207	#CenterFarFromPolice
Mullaitivu	Puthukudiyiruppu	Mungilaru Primary School	False	False	MLLTVPTHKDYRPPMNGLRPRMRYSCHL		Mullaitivu	LK-44	9.167643	80.549091	Pudukuduiruppu	PS-440149	7.00152	79.95003	9.322944	80.702342	Puthukkudiyiruppu-Mathalan Rd, Puthukkudiyiruppu, Sri Lanka	271.170338	#CenterFarFromPolice
Mullaitivu	Puthukudiyiruppu	Devipuram Treatment Centre	False	False	MLLTVPTHKDYRPPDVPRMTRTMNTCNTR		Mullaitivu	LK-44	9.167643	80.549091	Pudukuduiruppu	PS-440149	7.00152	79.95003	9.313637	80.696168	Puthukudiyiruppu, Sri Lanka	269.977487	#CenterFarFromPolice
Mullaitivu	Puthukudiyiruppu	Sri Subramaniyam Vidyalaya	False	False	MLLTVPTHKDYRPPSRSBRMNYMVDYLY		Mullaitivu	LK-44	9.167643	80.549091	Pudukuduiruppu	PS-440149	7.00152	79.95003	9.314562	80.696594	8M7W+RJG, Puthukkudiyiruppu, Sri Lanka	270.089737	#CenterFarFromPolice
Mullaitivu	Mulliyawalai	Mulliyawalai Vattarapale Vidyalaya	False	False	MLLTVMLLYWLMLLYWLVTTRPLVDYLY		Mullaitivu	LK-44	9.167643	80.549091	Muliyaweli	PS-440150	6.915266	79.87829	9.216635	80.768422	6Q89+M93, Mulliyawalai, Sri Lanka	274.107051	#CenterFarFromPolice
Mullaitivu	Oddusuddan	MOH Office – Oddusuddan	False	False	MLLTVDDSDDNMHFFCDDSDDN		Mullaitivu	LK-44	9.167643	80.549091	Oddusudan	PS-440151	9.160983	80.652821	9.162816	80.661584	5M76+4JG, Oddusuddan, Sri Lanka	0.983634	
Mullaitivu	Mallavi	Anichchankulam Tamil Maha Vidyalaya	False	False	MLLTVMLLVNCHCHNKLMTMLMHVDYLY		Mullaitivu	LK-44	9.167643	80.549091	Mallavi	PS-440153	9.137878	80.307257	9.130417	80.307209	Hospital road mallavi mullaitivu, 42000, Sri Lanka	0.829903	
Mannar	Adampan	MOH Office – Adampan	False	False	MNNRDMPNMHFFCDMPN		Mannar	LK-42	8.877429	80.088628	Adampan		8.939451	80.002055	8.944842	79.996862	WXVW+WPQ, Adampan, Sri Lanka	0.827737	
Mannar	Mannar	St. Lawrence Church, Talaimannar	False	False	MNNRMNNRSTLWRNCCHRCHTLMNNR		Mannar	LK-42	8.877429	80.088628	Mannar	PS-420138	8.978123	79.911642	9.099467	79.705188	Talaimannar, Sri Lanka	26.391162	#CenterFarFromPolice
Mannar	Mannar	RCTM School	False	False	MNNRMNNRRCTMSCHL		Mannar	LK-42	8.877429	80.088628	Mannar	PS-420138	8.978123	79.911642	8.97968	79.919795	Pallimunai Rd, Mannar, Sri Lanka	0.912332	
Mannar	Madu	Pandivirichachan Maha Vidyalaya	False	False	MNNRMDPNDVRCHCHNMHVDYLY		Mannar	LK-42	8.877429	80.088628	Madu	PS-420144	6.914115	79.849048	8.85502	80.202842	Puliyadi Irakkamam, Madhu Road, Madu, Sri Lanka	219.377113	#CenterFarFromPolice
Mannar	Murunkan	St Anne’s Church	False	False	MNNRMRNKNSTNNSCHRCH		Mannar	LK-42	8.877429	80.088628	Murunkan	PS-420143	8.838186	80.038298	8.892308	79.932955	St.Anne's Church, South-Coast Rd, Vankalai 41000, Sri Lanka	13.048913	
Trincomalee	Muttur	MOH Office – Muttur	False	False	TRNCMLMTTRMHFFCMTTR		Trincomalee	LK-53	8.551241	81.092014	Mutur	PS-530138	8.461133	81.259371	8.453916	81.264494	1 Old Batticaloa Rd, Mutur, Sri Lanka	0.980859	
Trincomalee	Kinniya	MOH Office – Kurungnakeni	False	False	TRNCMLKNNYMHFFCKRNGNKN		Trincomalee	LK-53	8.551241	81.092014	Kinnia	PS-530140	6.907289	79.863819	7.484932	80.353119	F9M3+X6H, Kurunegala 60000, Sri Lanka	83.927094	#CenterFarFromPolice
Trincomalee	Kinniya	MOH Office – Kinniya	False	False	TRNCMLKNNYMHFFCKNNY		Trincomalee	LK-53	8.551241	81.092014	Kinnia	PS-530140	6.907289	79.863819	8.498696	81.179644	F5XH+FVC, Kinniya 31100, Sri Lanka	228.840304	#CenterFarFromPolice
Trincomalee	Sripura	MOH Office – Sripura	False	False	TRNCMLSRPRMHFFCSRPR		Trincomalee	LK-53	8.551241	81.092014	Sripura	PS-530136	8.929617	80.81428	8.926697	80.814799	Padavi Sripura, Padaviya - Sripura Road, Welioya, Sri Lanka	0.329869	
Trincomalee	Kuchchaveli	MOH Office – Kuchchaveli	False	False	TRNCMLKCHCHVLMHFFCKCHCHVL		Trincomalee	LK-53	8.551241	81.092014	Kuchchaweli	PS-530133	8.81895	81.100438	8.740082	81.161616	P5R6+2JQ, Kumpurupiddi, Sri Lanka	11.053646	
Trincomalee	Kuchchaveli	Divisional Hospital - Kuchchaveli	False	False	TRNCMLKCHCHVLDVSNLHSPTLKCHCHVL		Trincomalee	LK-53	8.551241	81.092014	Kuchchaweli	PS-530133	8.81895	81.100438	8.814795	81.102358	R472+WW9, Kuchchaveli, Sri Lanka	0.508064	
Trincomalee	Kuchchaveli	Divisional Hospital – Nilaveli	False	False	TRNCMLKCHCHVLDVSNLHSPTLNLVL		Trincomalee	LK-53	8.551241	81.092014	Kuchchaweli	PS-530133	8.81895	81.100438	8.681035	81.193632	M5JV+CF6, Nilaveli, Sri Lanka	18.44695	
Trincomalee	Pulmoddai	Base Hospital - Pulmoddai	False	False	TRNCMLPLMDDBSHSPTLPLMDD		Trincomalee	LK-53	8.551241	81.092014	Pulmudai	PS-530135	6.915266	79.87829	8.941204	80.983139	WXRM+F7J, Pulmoddai, Sri Lanka	256.112801	#CenterFarFromPolice
Trincomalee	Serunuwara	MOH Office – Serunuwara	False	False	TRNCMLSRNWRMHFFCSRNWR		Trincomalee	LK-53	8.551241	81.092014	Serunuwara	PS-530244	8.321863	81.299322	8.323143	81.299894	B10, Sri Lanka	0.155671	
Trincomalee	Sampur	Patalipuram Health Centre	False	False	TRNCMLSMPRPTLPRMHLTHCNTR		Trincomalee	LK-53	8.551241	81.092014									#PoliceLocationUnknown
Trincomalee	Harbour Police	MOH Office – Trincomalee	False	False	TRNCMLHRBRPLCMHFFCTRNCML		Trincomalee	LK-53	8.551241	81.092014	Trinco Harbour Police	PS-530131	8.56705	81.231407	8.598974	81.216963	MOH Office, Farm Rd, Trincomalee, Sri Lanka	3.890062	
Trincomalee	Harbour Police	Base Hospital – Trincomalee	False	False	TRNCMLHRBRPLCBSHSPTLTRNCML		Trincomalee	LK-53	8.551241	81.092014	Trinco Harbour Police	PS-530131	8.56705	81.231407	8.56486	81.239445	Hospital Ln, Trincomalee, Sri Lanka	0.917037	
Trincomalee	Uppuveli	MOH Office - Uppuveli	False	False	TRNCMLPPVLMHFFCPPVL		Trincomalee	LK-53	8.551241	81.092014	Uppuweli	PS-530134	8.593614	81.21743	8.607961	81.216512	Nilaveli Rd, Trincomalee, Sri Lanka	1.599005	
Trincomalee	Kantale	MOH Office - Kantale	False	False	TRNCMLKNTLMHFFCKNTL		Trincomalee	LK-53	8.551241	81.092014	Kantale	PS-530241	8.356129	81.007739	8.349617	81.009107	අග්‍රබෝධි මාවත, Kantale, Sri Lanka	0.739809	
Trincomalee	Ichchalampattu	MOH Office – Ichchalampattu	False	False	TRNCMLCHCHLMPTTMHFFCCHCHLMPTT	Eachchilampattu Hospital	Trincomalee	LK-53	8.551241	81.092014	Ichchalampattu		8.289549	81.359002	8.289644	81.358983	Highway, Ichchalampattu, Trincomalee, Sri Lanka	0.010772	
Trincomalee	Ichchalampattu	Sanpaha Vidyalaya	False	False	TRNCMLCHCHLMPTTSNPHVDYLY		Trincomalee	LK-53	8.551241	81.092014	Ichchalampattu		8.289549	81.359002	8.653949	81.21274	M637+H3H, Trincomalee, Sri Lanka	43.609409	#CenterFarFromPolice
Trincomalee	Thambalagamuwa	MOH Office - Thambalagamuwa	False	False	TRNCMLTHMBLGMWMHFFCTHMBLGMW		Trincomalee	LK-53	8.551241	81.092014	Thambalagamuva	PS-530243	6.907289	79.863819	8.563603	81.239584	Hospital Ln, Trincomalee, Sri Lanka	238.604889	#CenterFarFromPolice
Trincomalee	Gomarankadawala	MOH Office - Gomarankadawala	False	False	TRNCMLGMRNKDWLMHFFCGMRNKDWL		Trincomalee	LK-53	8.551241	81.092014	Gomarankadawala	PS-530248	8.674487	80.967555	8.674726	80.955691	Unnamed Road, Gomarankadawala, Sri Lanka	1.304806	
Batticaloa	Batticaloa	Mobile Medical Team	False	False	BTTCLBTTCLMBLMDCLTM		Batticaloa	LK-51	7.792772	81.486513	Batticaloa	PS-510101	7.717949	81.699294					#CenterLocationUnknown
Batticaloa	Batticaloa	MOH Office – Batticaloa	False	False	BTTCLBTTCLMHFFCBTTCL		Batticaloa	LK-51	7.792772	81.486513	Batticaloa	PS-510101	7.717949	81.699294	7.708253	81.691368	Hospital Rd, Batticaloa, Sri Lanka	1.387934	
Batticaloa	Kokkadicholai	MOH Office – Kokkadicholai	False	False	BTTCLKKKDCHLMHFFCKKKDCHL		Batticaloa	LK-51	7.792772	81.486513	Kokkadicholai	PS-510112	7.715979	81.698757	7.607311	81.712525	Kokkaddicholai, Batticaloa, Sri Lanka	12.18204	
Batticaloa	Vellawali	Kalaimagal Vidyalaya	False	False	BTTCLVLLWLKLMGLVDYLY		Batticaloa	LK-51	7.792772	81.486513	Vellavali	PS-510111	6.907289	79.863819	7.503251	81.730235	Ampilanturai-Veeramunai Rd, Sri Lanka	216.365388	#CenterFarFromPolice
Batticaloa	Valachchenai	Valachchenai Base Hospital	False	False	BTTCLVLCHCHNVLCHCHNBSHSPTL		Batticaloa	LK-51	7.792772	81.486513	Valachchanai	PS-510107	7.908015	81.533004	7.911315	81.533046	Valaichchenai-Nasuvantivu-Navaladi Road, Sri Lanka	0.367088	
Batticaloa	Valachchenai	MOH Office – Oddamavadi	False	False	BTTCLVLCHCHNMHFFCDDMVD		Batticaloa	LK-51	7.792772	81.486513	Valachchanai	PS-510107	7.908015	81.533004	7.912281	81.532775	WG6M+W46, Batticaloa, Sri Lanka	0.475177	
Batticaloa	Valachchenai	MOH Office - Koralepattu Central	False	False	BTTCLVLCHCHNMHFFCKRLPTTCNTRL		Batticaloa	LK-51	7.792772	81.486513	Valachchanai	PS-510107	7.908015	81.533004	7.922593	81.530022	Batticaloa, Sri Lanka	1.654455	
Batticaloa	Valachchenai	MOH Office - Koralepattu	False	False	BTTCLVLCHCHNMHFFCKRLPTT		Batticaloa	LK-51	7.792772	81.486513	Valachchanai	PS-510107	7.908015	81.533004	7.922593	81.530022	WGFJ+22J, Sri Lanka	1.654455	
Batticaloa	Valachchenai	Wakaneri Clinic	False	False	BTTCLVLCHCHNWKNRCLNC		Batticaloa	LK-51	7.792772	81.486513	Valachchanai	PS-510107	7.908015	81.533004	7.920433	81.531079	Valaichchenai, Nasuvantivu-Navaladi, Road, Sri Lanka	1.397439	
Batticaloa	Valachchenai	Wadamuna Uththuchenai Clinic	False	False	BTTCLVLCHCHNWDMNTHTHCHNCLNC		Batticaloa	LK-51	7.792772	81.486513	Valachchanai	PS-510107	7.908015	81.533004	7.920433	81.531079	Valaichchenai, Nasuvantivu-Navaladi, Road, Sri Lanka	1.397439	
Batticaloa	Valachchenai	MOH Office – Kiran	False	False	BTTCLVLCHCHNMHFFCKRN		Batticaloa	LK-51	7.792772	81.486513	Valachchanai	PS-510107	7.908015	81.533004	7.623441	81.717877	Muthalaikudah Kanchirankudah Rd, Sri Lanka	37.64378	#CenterFarFromPolice
Batticaloa	Vakarai	MOH Office - Vakarai	False	False	BTTCLVKRMHFFCVKR	Divisional Hospital Vakarai	Batticaloa	LK-51	7.792772	81.486513	Wakarai	PS-510109	6.934132	79.856305	8.134552	81.435328	Trincomalee Hwy, Vakarai, Sri Lanka	219.417822	#CenterFarFromPolice
Batticaloa	Vakarai	Sallativu Rural Development Society	False	False	BTTCLVKRSLLTVRRLDVLPMNTSCTY		Batticaloa	LK-51	7.792772	81.486513	Wakarai	PS-510109	6.934132	79.856305	8.597593	81.197232	Mihindapura, Trincomalee, Sri Lanka	236.797432	#CenterFarFromPolice
Batticaloa	Vakarai	Panichchankeni Vidyalaya	False	False	BTTCLVKRPNCHCHNKNVDYLY		Batticaloa	LK-51	7.792772	81.486513	Wakarai	PS-510109	6.934132	79.856305	8.066667	81.366667	Panichchankerni, Sri Lanka	208.830298	#CenterFarFromPolice
Batticaloa	Vakarai	Madurankarnikulam Vidyalaya	False	False	BTTCLVKRMDRNKRNKLMVDYLY		Batticaloa	LK-51	7.792772	81.486513	Wakarai	PS-510109	6.934132	79.856305	7.720143	81.700516	PPC2+362, Batticaloa, Sri Lanka	221.443724	#CenterFarFromPolice
Batticaloa	Vakarai	Kokuvil Rural Development Society	False	False	BTTCLVKRKKVLRRLDVLPMNTSCTY		Batticaloa	LK-51	7.792772	81.486513	Wakarai	PS-510109	6.934132	79.856305	9.690824	80.021143	Kokkuvil, Sri Lanka	307.162528	#CenterFarFromPolice
Batticaloa	Kaluwanchikudy	MOH Office – Kaluwanchikudy	False	False	BTTCLKLWNCHKDYMHFFCKLWNCHKDY	Medical Officer of Health Kaluwanchikudy	Batticaloa	LK-51	7.792772	81.486513	Kalawanchikudy	PS-510110	7.515908	81.787051	7.509333	81.79204	Colombo - Batticaloa Hwy, Kaluwanchikudy, Sri Lanka	0.915167	
Batticaloa	Kaluwanchikudy	Kaluwanchikudy Hospital	False	False	BTTCLKLWNCHKDYKLWNCHKDYHSPTL	Base Hospital - Kaluwanchikudy	Batticaloa	LK-51	7.792772	81.486513	Kalawanchikudy	PS-510110	7.515908	81.787051	7.51724	81.785184	GQ8P+V3V, Kaluwanchikudy, Sri Lanka	0.25365	
Batticaloa	Kaluwanchikudy	Kottakallar Maha Vidyalaya	False	False	BTTCLKLWNCHKDYKTTKLLRMHVDYLY		Batticaloa	LK-51	7.792772	81.486513	Kalawanchikudy	PS-510110	7.515908	81.787051	7.487461	81.807055	FRP4+XRM, Kaluwanchikudy, Sri Lanka	3.85724	
Batticaloa	Vavunathivu	MOH Office - Vavunathivu	False	False	BTTCLVVNTHVMHFFCVVNTHV		Batticaloa	LK-51	7.792772	81.486513	Vavunathive	PS-510102	6.933075	79.857181	7.708253	81.691368	Hospital Rd, Batticaloa, Sri Lanka	219.95575	#CenterFarFromPolice
Batticaloa	Kattankudy	MOH Office – Kattankudy	False	False	BTTCLKTTNKDYMHFFCKTTNKDY		Batticaloa	LK-51	7.792772	81.486513	Kaththankudi	PS-510103	7.715979	81.698757	7.683586	81.730767	MPMJ+C8J, Kattankudy, Sri Lanka	5.042961	
Batticaloa	Eravur	Sandiveli Hospital	False	False	BTTCLRVRSNDVLHSPTL		Batticaloa	LK-51	7.792772	81.486513	Eravur	PS-510104	7.715979	81.698757	7.777289	81.602853	Trincomalee Hwy, Eravur, Sri Lanka	12.578998	
Batticaloa	Eravur	MOH Office – Eravur	False	False	BTTCLRVRMHFFCRVR		Batticaloa	LK-51	7.792772	81.486513	Eravur	PS-510104	7.715979	81.698757	7.783664	81.605626	QJM4+F76, Eravur, Sri Lanka	12.729342	
Batticaloa	Eravur	MOH Office - Eravur	False	False	BTTCLRVRMHFFCRVR		Batticaloa	LK-51	7.792772	81.486513	Eravur	PS-510104	7.715979	81.698757	7.783664	81.605626	QJM4+F76, Eravur, Sri Lanka	12.729342	
Batticaloa	Eravur	Suhada Church	False	False	BTTCLRVRSHDCHRCH		Batticaloa	LK-51	7.792772	81.486513	Eravur	PS-510104	7.715979	81.698757	7.709935	81.6955	No 34A Central Road, Batticaloa 30000, Sri Lanka	0.762123	
Batticaloa	Eravur	Eravur Hospital	False	False	BTTCLRVRRVRHSPTL		Batticaloa	LK-51	7.792772	81.486513	Eravur	PS-510104	7.715979	81.698757	7.783168	81.605999	QJM4+799, Eravur 30300, Sri Lanka	12.663585	
Batticaloa	Eravur	Mawadiwembu Hospital	False	False	BTTCLRVRMWDWMBHSPTL		Batticaloa	LK-51	7.792772	81.486513	Eravur	PS-510104	7.715979	81.698757	7.808545	81.566328	Mawadiwembu Hospital, Sri Lanka	17.861302	
Batticaloa	Eravur	MOH Office – Chenkaladi	False	False	BTTCLRVRMHFFCCHNKLD		Batticaloa	LK-51	7.792772	81.486513	Eravur	PS-510104	7.715979	81.698757	7.783599	81.593367	Trincomalee Hwy, Chenkaladi 30350, Sri Lanka	13.837876	
Batticaloa	Eravur	Chenkaladi Hospital	False	False	BTTCLRVRCHNKLDHSPTL		Batticaloa	LK-51	7.792772	81.486513	Eravur	PS-510104	7.715979	81.698757	7.783546	81.589961	Batticaloa Rd, Chenkaladi, Sri Lanka	14.151406	
Batticaloa	Karadiyanaru	Karadiyanaru Hospital	False	False	BTTCLKRDYNRKRDYNRHSPTL		Batticaloa	LK-51	7.792772	81.486513	Karadiyanaru	PS-510105	7.701992	81.537252	7.700216	81.539779	PG2Q+3WJ, Karadiyanaru, Sri Lanka	0.341482	
Ampara	Ampara	Ds Senanayaka Vidyalaya	False	False	MPRMPRDSSNNYKVDYLY		Ampara	LK-52	7.23699	81.550391	Ampara	PS-520113	7.296771	81.677161	7.303531	81.671966	Dharmapala Mawatha, Ampara, Sri Lanka	0.945453	
Ampara	Ampara	Uhana Maha Vidyalaya	False	False	MPRMPRHNMHVDYLY		Ampara	LK-52	7.23699	81.550391	Ampara	PS-520113	7.296771	81.677161	7.36768	81.640838	Central Camp Rd, Sri Lanka	8.846763	
Ampara	Ampara	MOH Office – Eragama	False	False	MPRMPRMHFFCRGM		Ampara	LK-52	7.23699	81.550391	Ampara	PS-520113	7.296771	81.677161	7.027386	79.920232	2WGC+X35, Ragama, Sri Lanka	196.199345	#CenterFarFromPolice
Ampara	Ampara	MOH Office - Damana	False	False	MPRMPRMHFFCDMN		Ampara	LK-52	7.23699	81.550391	Ampara	PS-520113	7.296771	81.677161	7.197982	81.65538	5MX4+55R, Damana, Sri Lanka	11.248041	
Ampara	Chavalakade	MOH Office – Navidanveli	False	False	MPRCHVLKDMHFFCNVDNVL		Ampara	LK-52	7.23699	81.550391	Chawalakade	PS-520125	7.413559	81.776822	7.420081	81.788401	B77, Sri Lanka	1.468805	
Ampara	Chavalakade	5th Colony Health Centre	False	False	MPRCHVLKDTHCLNYHLTHCNTR		Ampara	LK-52	7.23699	81.550391	Chawalakade	PS-520125	7.413559	81.776822	7.418836	81.781436	Chavalakade, Sri Lanka	0.776867	
Ampara	Karaitivu	MOH Office – Karaitivu	False	False	MPRKRTVMHFFCKRTV		Ampara	LK-52	7.23699	81.550391	Karaitivu		9.744059	79.870587	7.377712	81.838796	Colombo-Ratnapura-Wellawaya-Batticaloa Highway, Karativu 32250, Sri Lanka	340.788666	#CenterFarFromPolice
Ampara	Karaitivu	Al Husen Vidyalaya	False	False	MPRKRTVLHSNVDYLY		Ampara	LK-52	7.23699	81.550391	Karaitivu		9.744059	79.870587	7.388044	81.841647	Maligaroad, Karaitivu, Kalmunai 32250, Sri Lanka	340.099835	#CenterFarFromPolice
Ampara	Kalmunai	Ashraff Memorial Hospital	False	False	MPRKLMNSHRFFMMRLHSPTL		Ampara	LK-52	7.23699	81.550391	Kalmunai	PS-520123	7.414289	81.825006	7.403172	81.831146	A4, Ashraff Memorial Base Hospital, A4 A4, Kalmunai 32300, Sri Lanka	1.409859	
Ampara	Kalmunai	MOH Office - Kalmunai North	False	False	MPRKLMNMHFFCKLMNNRTH		Ampara	LK-52	7.23699	81.550391	Kalmunai	PS-520123	7.414289	81.825006	7.411712	81.838462	CR6Q+M9P, Kalmunai 32300, Sri Lanka	1.511625	
Ampara	Kalmunai	Base Hospital - Kalmunai North	False	False	MPRKLMNBSHSPTLKLMNNRTH		Ampara	LK-52	7.23699	81.550391	Kalmunai	PS-520123	7.414289	81.825006	7.420034	81.82232	hospital near, Kalmunai 32300, Sri Lanka	0.704353	
Ampara	Kalmunai	MOH Office - Kalmunai South	False	False	MPRKLMNMHFFCKLMNSTH		Ampara	LK-52	7.23699	81.550391	Kalmunai	PS-520123	7.414289	81.825006	7.411712	81.838462	CR6Q+M9P, Kalmunai 32300, Sri Lanka	1.511625	
Ampara	Kalmunai	Al Bahariya National College	False	False	MPRKLMNLBHRYNTNLCLLG		Ampara	LK-52	7.23699	81.550391	Kalmunai	PS-520123	7.414289	81.825006	7.399481	81.839854	Zahira College Rd, Sainthamaruthu 32280, Sri Lanka	2.32275	
Ampara	Kalmunai	Al Manar Central College	False	False	MPRKLMNLMNRCNTRLCLLG		Ampara	LK-52	7.23699	81.550391	Kalmunai	PS-520123	7.414289	81.825006	7.436331	81.812701	Maruthamunai, Sri Lanka	2.802316	
Ampara	Kalmunai	Al Madina Vidyalaya	False	False	MPRKLMNLMDNVDYLY		Ampara	LK-52	7.23699	81.550391	Kalmunai	PS-520123	7.414289	81.825006	7.434363	81.817655	03 Mashoor Moulana Rd, Maruthamunai 32314, Sri Lanka	2.375481	
Ampara	Sainthamarthu	MOH Office – Sainthamarthu	False	False	MPRSNTHMRTHMHFFCSNTHMRTH		Ampara	LK-52	7.23699	81.550391									#PoliceLocationUnknown
Ampara	Sainthamarthu	Saindamarudu Hospital	False	False	MPRSNTHMRTHSNDMRDHSPTL		Ampara	LK-52	7.23699	81.550391									#PoliceLocationUnknown
Ampara	Sammanthurai	Sammanthurai Base Hospital	False	False	MPRSMMNTHRSMMNTHRBSHSPTL		Ampara	LK-52	7.23699	81.550391	Samanthurai	PS-520124	7.365785	81.810859	7.368355	81.813042	9R96+MWM, Hospital Rd, Sammanthurai, Sri Lanka	0.373773	
Ampara	Sammanthurai	MOH Office – Nintavur	False	False	MPRSMMNTHRMHFFCNNTVR		Ampara	LK-52	7.23699	81.550391	Samanthurai	PS-520124	7.365785	81.810859	7.352821	81.856939	Hospital Rd, Nintavur 32340, Sri Lanka	5.283925	
Ampara	Sammanthurai	Nintavur Hospital	False	False	MPRSMMNTHRNNTVRHSPTL		Ampara	LK-52	7.23699	81.550391	Samanthurai	PS-520124	7.365785	81.810859	7.353372	81.856852	Hospital Rd, Nintavur, Sri Lanka	5.258159	
Ampara	Sammanthurai	Darussalam Vidyalaya	False	False	MPRSMMNTHRDRSSLMVDYLY		Ampara	LK-52	7.23699	81.550391	Samanthurai	PS-520124	7.365785	81.810859	7.357562	81.802725	9R53+23H, Sammanthurai, Sri Lanka	1.281286	
Ampara	Sammanthurai	Kannahi Vidyalaya	False	False	MPRSMMNTHRKNNHVDYLY		Ampara	LK-52	7.23699	81.550391	Samanthurai	PS-520124	7.365785	81.810859	7.35018	81.80359	Kallarichchel 02, Sammanthurai, Sri Lanka	1.912014	
Ampara	Sammanthurai	Al Marjan Vidyalaya	False	False	MPRSMMNTHRLMRJNVDYLY		Ampara	LK-52	7.23699	81.550391	Samanthurai	PS-520124	7.365785	81.810859	7.363356	81.799869	9Q7X+8WX, Sammanthurai, Sri Lanka	1.242072	
Ampara	Thirukkovil	MOH Office – Thirukkovil	False	False	MPRTHRKKVLMHFFCTHRKKVL		Ampara	LK-52	7.23699	81.550391	Thirukkovil	PS-520127	7.113998	81.852219	7.111635	81.852892	Central Rd, Vinayagapuram, Sri Lanka	0.273131	
Ampara	Akkaraipattu	Akkaraipattu Nuraniya Church	False	False	MPRKKRPTTKKRPTTNRNYCHRCH		Ampara	LK-52	7.23699	81.550391	Akkaraipattu	PS-520126	7.216084	81.853254	7.217154	81.849717	Sagama Rd, Akkaraipattu, Sri Lanka	0.408046	
Ampara	Akkaraipattu	MOH Office – Akkaraipattu	False	False	MPRKKRPTTMHFFCKKRPTT		Ampara	LK-52	7.23699	81.550391	Akkaraipattu	PS-520126	7.216084	81.853254	7.228134	81.851123	6VH2+7C5, Akkaraipattu, Sri Lanka	1.360772	
Ampara	Akkaraipattu	MOH Office - Alayadivembu	False	False	MPRKKRPTTMHFFCLYDVMB		Ampara	LK-52	7.23699	81.550391	Akkaraipattu	PS-520126	7.216084	81.853254	7.228134	81.851123	6VH2+7C5, Akkaraipattu, Sri Lanka	1.360772	
Ampara	Akkaraipattu	MOH Office – Addalachenai	False	False	MPRKKRPTTMHFFCDDLCHN		Ampara	LK-52	7.23699	81.550391	Akkaraipattu	PS-520126	7.216084	81.853254	7.260916	81.853493	7V63+999, Addalaichenai, Sri Lanka	4.986726	
Ampara	Akkaraipattu	Badur Mosque	False	False	MPRKKRPTTBDRMSQ		Ampara	LK-52	7.23699	81.550391	Akkaraipattu	PS-520126	7.216084	81.853254	7.21798	81.859573	Deens Road, Akkaraipattu, Sri Lanka	0.728487	
Ampara	Pottuvil	Al Sadick Vidyalaya	False	False	MPRPTTVLLSDCKVDYLY		Ampara	LK-52	7.23699	81.550391	Pothuvil	PS-520128	6.878387	81.826859	6.875271	81.830633	Pottuvil, Sri Lanka	0.542048	
Ampara	Pottuvil	Inpektar Eththama Tamil College	False	False	MPRPTTVLNPKTRTHTHMTMLCLLG		Ampara	LK-52	7.23699	81.550391	Pothuvil	PS-520128	6.878387	81.826859	6.87931	81.834855	College Rd, Pottuvil, Sri Lanka	0.88894	
Ampara	Pottuvil	Pottuvil Hospital	False	False	MPRPTTVLPTTVLHSPTL		Ampara	LK-52	7.23699	81.550391	Pothuvil	PS-520128	6.878387	81.826859	6.876098	81.830463	Main Street Colombo - Batticaloa Hwy, Pottuvil 32500, Sri Lanka	0.47246	
