district	police	center	dose1	dose2	fuzzy_key	alt_name	district_name_norm	district_id	district_lat	district_lng	ps_name_norm	ps_id	ps_lat	ps_lng	lat	lng	formatted_address	dis_center_to_police	tags
Colombo	Cinnamon Gardens	Viharamahadevi Park	False	False	CLMBCNNMNGRDNSVHRMHDVPRK		Colombo	LK-11	6.869636	80.019598	Cinnamon Garden	PS-110324	6.907289	79.863819	6.913391	79.86174	Viharamahadevi Park, Colombo, Sri Lanka	0.716497	
Colombo	Thalangama	Diyatha Uyana	False	False	CLMBTHLNGMDYTHYN		Colombo	LK-11	6.869636	80.019598	Thalangama	PS-110466	6.91089	79.929325	6.904575	79.909831	Diyatha Uyana, B240, Sri Jayawardenepura Kotte, Sri Lanka	2.264281	
Colombo	Thalangama	MOH Office - Battaramulla	False	False	CLMBTHLNGMMHFFCBTTRMLL		Colombo	LK-11	6.869636	80.019598	Thalangama	PS-110466	6.91089	79.929325	6.901538	79.919128	WW29+JM6, Battaramulla 10120, Sri Lanka	1.532936	
Colombo	Grandpass	Sugathadasa Outdoor Stadium	False	False	CLMBGRNDPSSSGTHDSTDRSTDM		Colombo	LK-11	6.869636	80.019598	Grandpass	PS-110215	6.949052	79.872983	6.94806	79.868842	Prince of Wales Ave, Colombo 01400, Sri Lanka	0.470345	
Colombo	Narahenpita	Army Hospital Narahenpita	False	False	CLMBNRHNPTRMYHSPTLNRHNPT		Colombo	LK-11	6.869636	80.019598	Narahenpita	PS-110321	6.891832	79.876715	6.900252	79.87618	08 Elvitigala Mawatha, Colombo 00800, Sri Lanka	0.938417	
Colombo	Boralesgamuwa	Kotelawala Defence Hospital	False	False	CLMBBRLSGMWKTLWLDFNCHSPTL		Colombo	LK-11	6.869636	80.019598	Boralesgamuwa	PS-110464	6.841331	79.901255	6.82518	79.907167	RWG4+3VF, Boralesgamuwa, Sri Lanka	1.911444	
Colombo	Boralesgamuwa	MOH Office – Werahera	False	False	CLMBBRLSGMWMHFFCWRHR		Colombo	LK-11	6.869636	80.019598	Boralesgamuwa	PS-110464	6.841331	79.901255	6.833094	79.905583	RWM4+66P, Boralesgamuwa, Sri Lanka	1.033386	
Colombo	Mirihana	MOH Office - Beddagana	False	False	CLMBMRHNMHFFCBDDGN		Colombo	LK-11	6.869636	80.019598	Mirihana	PS-110462	6.873714	79.901724	6.885731	79.908328	Baddagana Rd, Sri Jayawardenepura Kotte 10100, Sri Lanka	1.522652	
Colombo	Nugegoda	Pegiriwatta Vivekaramaya	False	False	CLMBNGGDPGRWTTVVKRMY		Colombo	LK-11	6.869636	80.019598									#PoliceLocationUnknown
Colombo	Maradana	National Hospital – Colombo	False	False	CLMBMRDNNTNLHSPTLCLMB		Colombo	LK-11	6.869636	80.019598	Maradana	PS-110107	6.927939	79.865471	6.918743	79.868992	Colombo 00700, Sri Lanka	1.094265	
Colombo	Fort	Navy Headquarters	False	False	CLMBFRTNVYHDQRTRS		Colombo	LK-11	6.869636	80.019598	Fort	PS-110105	6.9334	79.842895	6.936952	79.842104	WRPR+QRQ, Colombo, Sri Lanka	0.404627	
Colombo	Maligawatta	Kettarama Viharaya	False	False	CLMBMLGWTTKTTRMVHRY		Colombo	LK-11	6.869636	80.019598	Maligawatta	PS-110108	6.934132	79.856305	6.939415	79.872034	Khettarama Temple Rd, Colombo 01000, Sri Lanka	1.833447	
Colombo	Wellawatta	Roxy Gardens Premises	False	False	CLMBWLLWTTRXYGRDNSPRMSS		Colombo	LK-11	6.869636	80.019598	Wellawatta	PS-110320	6.873107	79.86167	6.863747	79.862088	Dehiwala Canal, Colombo, Sri Lanka	1.042134	
Colombo	Wellampitiya	MOH Office – Kolonnawa	False	False	CLMBWLLMPTYMHFFCKLNNW		Colombo	LK-11	6.869636	80.019598	Wellampitiya	PS-110465	6.937514	79.896298	6.922088	79.916237	Mandavila Rd, Kotikawatta, Sri Lanka	2.791266	
Colombo	Kaduwela	MOH Office – Kaduwela	False	False	CLMBKDWLMHFFCKDWL		Colombo	LK-11	6.869636	80.019598	Kaduwela		6.936234	79.970183	6.934127	79.984398	B263, Kaduwela, Sri Lanka	1.586964	
Colombo	Mulleriyawa	MOH Office - Gothatuwa	False	False	CLMBMLLRYWMHFFCGTHTW		Colombo	LK-11	6.869636	80.019598	Mulleriyawa	PS-110469	6.927187	79.929108	6.922088	79.916237	Mandavila Rd, Kotikawatta, Sri Lanka	1.530186	
Colombo	Fore shore	MOH Office - Jinthupitiya	False	False	CLMBFRSHRMHFFCJNTHPTY		Colombo	LK-11	6.869636	80.019598	Fore shore	PS-110210	6.949589	79.857355	6.943258	79.859238	No.27 Vivekananda Hill, Colombo 01300, Sri Lanka	0.734247	
Colombo	Kosgama	Kosgama Hospital	False	False	CLMBKSGMKSGMHSPTL		Colombo	LK-11	6.869636	80.019598	Kosgama	PS-920227	6.946597	80.137869	6.940956	80.124888	Salawa-Akarawita, 10730, Sri Lanka	1.564606	
Gampaha	Minuwangoda	MOH Office - Minuwangoda	False	False	GMPHMNWNGDMHFFCMNWNGD		Gampaha	LK-12	7.123598	80.018508	Minuwangoda	PS-120238	7.174215	79.957874	7.17227	79.956823	Katunayake-Veyangoda Rd, Minuwangoda, Sri Lanka	0.245525	
Gampaha	Minuwangoda	Yakahatuwa Viharaya	False	False	GMPHMNWNGDYKHTWVHRY		Gampaha	LK-12	7.123598	80.018508	Minuwangoda	PS-120238	7.174215	79.957874	7.110015	79.989902	4X6Q+2X2, Gampaha, Sri Lanka	7.967951	
Gampaha	Nittambuwa	Al Azhar Central College	False	False	GMPHNTTMBWLZHRCNTRLCLLG		Gampaha	LK-12	7.123598	80.018508	Nittambuwa	PS-120246	7.149726	80.10046	7.121335	80.072386	43CC+GXJ, Kalagedihena, Sri Lanka	4.424148	
Gampaha	Nittambuwa	Ellalamulla Viharaya	False	False	GMPHNTTMBWLLLMLLVHRY		Gampaha	LK-12	7.123598	80.018508	Nittambuwa	PS-120246	7.149726	80.10046	7.113799	80.135467	Nittambuwa - Ruwanwella Rd, Sri Lanka	5.558543	
Gampaha	Mirigama	Waduwatta Viharaya	False	False	GMPHMRGMWDWTTVHRY		Gampaha	LK-12	7.123598	80.018508	Meerigama	PS-120248	7.245169	80.128647	7.255321	80.12423	744F+4MH, Mirigama, Sri Lanka	1.229893	
Gampaha	Dungalpitiya	Thalahena Maternity Clinic	False	False	GMPHDNGLPTYTHLHNMTRNTYCLNC		Gampaha	LK-12	7.123598	80.018508	Dungalpitiya	PS-120361	7.139226	79.833543	7.170735	79.824995	5RCF+7XX, Negombo, Sri Lanka	3.629353	
Gampaha	Kelaniya	Sri Dharmaloka Vidyalaya	False	False	GMPHKLNYSRDHRMLKVDYLY		Gampaha	LK-12	7.123598	80.018508	Kelaniya	PS-120126	6.950251	79.917459	6.961405	79.901248	Waragoda Road , Kelaniya, Peliyagoda, Sri Lanka	2.177817	
Gampaha	Meegahawatta	Mobile Vaccination	False	False	GMPHMGHWTTMBLVCCNTN		Gampaha	LK-12	7.123598	80.018508	Meegahawatta	PS-120132	6.988968	80.000356					#CenterLocationUnknown
Gampaha	Meegahawatta	Siyambalape Watta Viharaya	False	False	GMPHMGHWTTSYMBLPWTTVHRY		Gampaha	LK-12	7.123598	80.018508	Meegahawatta	PS-120132	6.988968	80.000356	6.97507	80.006678	Siyambalape Watta, Sri Lanka	1.696142	
Gampaha	Malwathuhiripitiya	Mobile Vaccination	False	False	GMPHMLWTHHRPTYMBLVCCNTN		Gampaha	LK-12	7.123598	80.018508	Malwathuhiripitiya	PS-120245	7.054288	80.069365					#CenterLocationUnknown
Gampaha	Gampaha	MOH Office – Gampaha	False	False	GMPHGMPHMHFFCGMPH		Gampaha	LK-12	7.123598	80.018508	Gampaha	PS-120237	7.087765	80.01228	7.17227	79.956823	Katunayake-Veyangoda Rd, Minuwangoda, Sri Lanka	11.216745	
Gampaha	Katana	MOH Office - Katana	False	False	GMPHKTNMHFFCKTN		Gampaha	LK-12	7.123598	80.018508	Katana	PS-120360	7.224796	79.880015	7.22436	79.88271	Katana, Negombo - Mirigama Rd, Negombo, Sri Lanka	0.301313	
Gampaha	Pugoda	MOH Office – Dompe	False	False	GMPHPGDMHFFCDMP		Gampaha	LK-12	7.123598	80.018508	Pugoda	PS-120241	6.98283	80.111189	6.976767	80.117422	Dompe, Pugoda-Mandawala Rd, Pugoda, Sri Lanka	0.963513	
Gampaha	Negombo	Town Hall - Negombo	False	False	GMPHNGMBTWNHLLNGMB		Gampaha	LK-12	7.123598	80.018508	Negombo	PS-120351	7.224796	79.880015	7.206667	79.851863	Negombo, Sri Lanka	3.703623	
Gampaha	Negombo	Mankuliya Church	False	False	GMPHNGMBMNKLYCHRCH		Gampaha	LK-12	7.123598	80.018508	Negombo	PS-120351	7.224796	79.880015	7.204207	79.830944	Mankuliya Rd, Negombo, Sri Lanka	5.879307	
Gampaha	Negombo	Our Lady of Snows' Church	False	False	GMPHNGMBRLDYFSNWSCHRCH		Gampaha	LK-12	7.123598	80.018508	Negombo	PS-120351	7.224796	79.880015	7.224492	79.845996	6RFW+Q9X, Negombo, Sri Lanka	3.754038	
Gampaha	Kochchikade	Siriambepura Community Hall	False	False	GMPHKCHCHKDSRMBPRCMMNTYHLL		Gampaha	LK-12	7.123598	80.018508	Kochchikade	PS-120352	7.265049	79.857026	7.264715	79.874089	64, Madampalle Road, Thoppuwa, Negombo 11500, Sri Lanka	1.883047	
Gampaha	Kochchikade	Pope Paul vi Maha Vidyalaya	False	False	GMPHKCHCHKDPPPLVMHVDYLY		Gampaha	LK-12	7.123598	80.018508	Kochchikade	PS-120352	7.265049	79.857026	7.259332	79.926791	B27, Sri Lanka	7.723921	
Gampaha	Kochchikade	Thoppuwa Tamil Maha Vidyalaya	False	False	GMPHKCHCHKDTHPPWTMLMHVDYLY		Gampaha	LK-12	7.123598	80.018508	Kochchikade	PS-120352	7.265049	79.857026	7.263295	79.855628	Maha Vidyalaya Road, Negombo 11540, Sri Lanka	0.248622	
Gampaha	Kochchikade	Bolagala Viharaya	False	False	GMPHKCHCHKDBLGLVHRY		Gampaha	LK-12	7.123598	80.018508	Kochchikade	PS-120352	7.265049	79.857026	7.110015	79.989902	4X6Q+2X2, Gampaha, Sri Lanka	22.636068	#CenterFarFromPolice
Gampaha	Pamunugama	Pamunugama Hospital	False	False	GMPHPMNGMPMNGMHSPTL		Gampaha	LK-12	7.123598	80.018508	Pamunugama	PS-120353	7.078892	79.859696	7.093543	79.850191	3VV2+C38, Negombo, Sri Lanka	1.938152	
Gampaha	Seeduwa	Raddolugama Community Hall	False	False	GMPHSDWRDDLGMCMMNTYHLL		Gampaha	LK-12	7.123598	80.018508	Seeduwa	PS-120356	7.128721	79.877371	7.141161	79.901472	Katunayake 11400, Sri Lanka	2.998414	
Gampaha	Divulapitiya	MOH Office – Divulapitiya	False	False	GMPHDVLPTYMHFFCDVLPTY		Gampaha	LK-12	7.123598	80.018508	Diulapitiya	PS-120355	7.174215	79.957874	7.215486	80.013606	6287+5CX, Divulapitiya, Sri Lanka	7.67456	
Gampaha	Divulapitiya	Gnanodaya Maha Vidyalaya	False	False	GMPHDVLPTYGNNDYMHVDYLY		Gampaha	LK-12	7.123598	80.018508	Diulapitiya	PS-120355	7.174215	79.957874	7.222331	80.019709	62C9+WVP, Divulapitiya 11250, Sri Lanka	8.672135	
Gampaha	Ja Ela	MOH Office - Ja Ela	False	False	GMPHJLMHFFCJL		Gampaha	LK-12	7.123598	80.018508	Ja - Ela	PS-120133	7.081055	79.890504	7.075216	79.893879	60 Mount Kalvary Rd, Ja-Ela, Sri Lanka	0.748731	
Gampaha	Wattala	MOH Office – Wattala	False	False	GMPHWTTLMHFFCWTTL		Gampaha	LK-12	7.123598	80.018508	Wattala	PS-120128	6.993713	79.894506	6.995817	79.885793	301 Hendala Rd, Wattala, Sri Lanka	0.989991	
Gampaha	Ragama	MOH Office – Ragama	False	False	GMPHRGMMHFFCRGM		Gampaha	LK-12	7.123598	80.018508	Ragama	PS-120134	7.034975	79.924148	7.027386	79.920232	2WGC+X35, Ragama, Sri Lanka	0.948382	
Kalutara	Ingiriya	Ingiriya Hospital	False	False	KLTRNGRYNGRYHSPTL		Kalutara	LK-13	6.577316	80.127363	Ingiriya	PS-130193	6.743614	80.175077	6.741133	80.162046	Panadura-Nambapana-Ratnapura Hwy, Ingiriya, Sri Lanka	1.465626	
Kalutara	Ingiriya	Kandanapitiya Clinic	False	False	KLTRNGRYKNDNPTYCLNC		Kalutara	LK-13	6.577316	80.127363	Ingiriya	PS-130193	6.743614	80.175077	6.805685	80.145879	R44W+79C, Handapangoda, Sri Lanka	7.620233	
Kalutara	Kalutara North	Jawatta Bodhirukkaramaya	False	False	KLTRKLTRNRTHJWTTBDHRKKRMY		Kalutara	LK-13	6.577316	80.127363	Kalutara North	PS-130297	6.602049	79.956042	6.701596	79.946726	Bodhi Rukkarama Road, Panadura, Sri Lanka	11.120329	
Kalutara	Anguruwatota	MOH Office – Madurawala	False	False	KLTRNGRWTTMHFFCMDRWL		Kalutara	LK-13	6.577316	80.127363	Anguruwatota	PS-130190	6.654997	80.058183	6.654814	80.057811	M335+W4F, Keselhenawa, Sri Lanka	0.045863	
Kalutara	Horana	Base Hospital - Horana	False	False	KLTRHRNBSHSPTLHRN		Kalutara	LK-13	6.577316	80.127363	Horana	PS-130192	6.714613	80.069091	6.710644	80.066589	Hospital Ln, Horana, Sri Lanka	0.520853	
Kalutara	Thebuwana	Divisional Hospital – Neboda	False	False	KLTRTHBWNDVSNLHSPTLNBD		Kalutara	LK-13	6.577316	80.127363	Thebuwana	PS-1302105	6.654997	80.058183	6.570354	80.073048	wellatha Neboda ., Neboda - Wellatha Rd, Sri Lanka	9.557015	
Kalutara	Dodangoda	MOH Office – Dodangoda	False	False	KLTRDDNGDMHFFCDDNGD	6.540366199937832,80.03661033076219	Kalutara	LK-13	6.577316	80.127363	Dodangoda	PS-130299	6.553375	80.023569	6.541731	80.04335	Dodangoda, Sri Lanka	2.540775	
Kalutara	Dodangoda	Dodangoda Hospital	False	False	KLTRDDNGDDDNGDHSPTL		Kalutara	LK-13	6.577316	80.127363	Dodangoda	PS-130299	6.553375	80.023569	6.540961	80.036553	Wilpatha Rd, Sri Lanka	1.991373	
Kalutara	Payagala	Munhena Vidyalaya	False	False	KLTRPYGLMNHNVDYLY		Kalutara	LK-13	6.577316	80.127363	Payagala	PS-130298	6.541144	79.974855	6.504882	80.005292	Munhena, Sri Lanka	5.251872	
Kalutara	Matugama	Weththewa Hospital	False	False	KLTRMTGMWTHTHWHSPTL		Kalutara	LK-13	6.577316	80.127363	Mathugama	PS-1302103	6.520881	80.117908	6.523087	80.125192	District Hospital, Hospital Road,Weththewa,., Matugama, Sri Lanka	0.841523	
Kalutara	Matugama	MOH Office – Matugama	False	False	KLTRMTGMMHFFCMTGM		Kalutara	LK-13	6.577316	80.127363	Mathugama	PS-1302103	6.520881	80.117908	6.523544	80.126443	G4FG+CH8, Matugama, Sri Lanka	0.988725	
Kalutara	Matugama	Katugahahena Hospital	False	False	KLTRMTGMKTGHHNHSPTL		Kalutara	LK-13	6.577316	80.127363	Mathugama	PS-1302103	6.520881	80.117908	6.489328	80.08471	F3QM+PVP, Bopitiya, Sri Lanka	5.077192	
Kalutara	Agalawatta	Pimbura Hospital	False	False	KLTRGLWTTPMBRHSPTL		Kalutara	LK-13	6.577316	80.127363	Agalawatta		6.542566	80.157178	6.575949	80.158371	H5G5+98H, කළුතර, Sri Lanka	3.715525	
Kalutara	Bulathsinhala	Molkawa Clinic	False	False	KLTRBLTHSNHLMLKWCLNC		Kalutara	LK-13	6.577316	80.127363	Bulathsinhala	PS-1302104	6.650425	80.17703	6.607514	80.236371	Bulathsinhala - Molkawa Rd, Molkawa, Sri Lanka	8.109701	
Kalutara	Meegahathenna	MOH Office - Meegahathenna	False	False	KLTRMGHTHNNMHFFCMGHTHNN		Kalutara	LK-13	6.577316	80.127363	Meegahathenna	PS-1302107	6.436941	80.1943	6.435016	80.198501	B158, Meegahathenna, Sri Lanka	0.511322	
Kalutara	Welipenna	Rahumaniya Maha Vidyalaya	False	False	KLTRWLPNNRHMNYMHVDYLY		Kalutara	LK-13	6.577316	80.127363	Welipanna	PS-1302101	6.467428	80.108313	6.465024	80.101427	Aluthgama - Mathugama Rd, Welipenna, Sri Lanka	0.806664	
Kalutara	Wadduwa	Dharmapala Vidyalaya	False	False	KLTRWDDWDHRMPLVDYLY		Kalutara	LK-13	6.577316	80.127363	Wadduwa	PS-130188	6.664403	79.929851	6.668381	79.930516	MW9J+962, Wadduwa, Sri Lanka	0.44853	
Kalutara	Ittapana	Ittapana Hospital	False	False	KLTRTTPNTTPNHSPTL		Kalutara	LK-13	6.577316	80.127363									#PoliceLocationUnknown
Kalutara	Millaniya	MOH Office - Millaniya	False	False	KLTRMLLNYMHFFCMLLNY		Kalutara	LK-13	6.577316	80.127363	Millaniya	PS-130191	6.681692	80.020847	6.724224	79.907284	A2, Panadura, Sri Lanka	13.407612	
Kalutara	Baduraliya	Peleda Sinhala Vidyalaya	False	False	KLTRBDRLYPLDSNHLVDYLY		Kalutara	LK-13	6.577316	80.127363	Baduraliya	PS-1302106	6.516756	80.226716	6.465384	80.10155	F482+5J3, Welipenna, Sri Lanka	14.966672	
Kalutara	Baduraliya	Baduraliya Hospital	False	False	KLTRBDRLYBDRLYHSPTL		Kalutara	LK-13	6.577316	80.127363	Baduraliya	PS-1302106	6.516756	80.226716	6.514727	80.232731	Tiruwanaketiya-Agalawatte Rd, Baduraliya, Sri Lanka	0.702098	
Kalutara	Beruwala	MOH Office – Beruwala	False	False	KLTRBRWLMHFFCBRWL		Kalutara	LK-13	6.577316	80.127363	Beruwala	PS-1302102	6.480329	79.983498	6.437559	79.999356	CXQX+2PH, Aluthgama, Sri Lanka	5.069893	
Kalutara	Beruwala	Walathara Vidyalaya	False	False	KLTRBRWLWLTHRVDYLY		Kalutara	LK-13	6.577316	80.127363	Beruwala	PS-1302102	6.480329	79.983498	6.476605	80.009614	Kiranthidiya Rd, Beruwala, Sri Lanka	2.9159	
Kalutara	Bandragama	Maithri Hall - Bandaragama	False	False	KLTRBNDRGMMTHRHLLBNDRGM		Kalutara	LK-13	6.577316	80.127363	Bandaragama	PS-130189	6.715179	79.987674	6.713508	79.990766	PX7R+C82, Bandaragama, Sri Lanka	0.388859	
Kalutara	Bandragama	Aluthgama Primary School	False	False	KLTRBNDRGMLTHGMPRMRYSCHL		Kalutara	LK-13	6.577316	80.127363	Bandaragama	PS-130189	6.715179	79.987674	6.433072	79.9964	CXMW+6HC, Aluthgama, Sri Lanka	31.393525	#CenterFarFromPolice
Kalutara	Bandragama	District Hospital Bandaragama	False	False	KLTRBNDRGMDSTRCTHSPTLBNDRGM		Kalutara	LK-13	6.577316	80.127363	Bandaragama	PS-130189	6.715179	79.987674	6.716162	79.991484	Horana Rd, Bandaragama, Sri Lanka	0.434849	
Kalutara	Panadura	Mahanama Vidyalaya	False	False	KLTRPNDRMHNMVDYLY		Kalutara	LK-13	6.577316	80.127363	Panadura North		6.756309	79.898939	6.725866	79.907901	PWG5+85R, Panadura, Sri Lanka	3.52791	
Kalutara	Pannala	Sandalankawa National College	False	False	KLTRPNNLSNDLNKWNTNLCLLG		Kalutara	LK-13	6.577316	80.127363	Pannala	PS-610214	7.327738	80.021761	7.327113	80.02619	Negombo-Kurunegala Rd, Pannala, Sri Lanka	0.49355	
Kurunegala	Polgahawela	Polpitiya Viharaya	False	False	KRNGLPLGHWLPLPTYVHRY		Kurunegala	LK-61	7.66477	80.23677	Polgahawela	PS-610102	7.333281	80.300363	7.37964	80.337503	98HQ+V22, Kuriyampola, Sri Lanka	6.58601	
Kurunegala	Pothuhera	Rewala Viharaya	False	False	KRNGLPTHHRRWLVHRY		Kurunegala	LK-61	7.66477	80.23677	Pothuhera	PS-610104	7.416243	80.327534	7.421672	80.329666	Pothuhera, Sri Lanka	0.648038	
Kurunegala	Kandanegedara	Welpalla Vidyalaya	False	False	KRNGLKNDNGDRWLPLLVDYLY		Kurunegala	LK-61	7.66477	80.23677									#PoliceLocationUnknown
Puttalam	Puttalam	Cement Lanka Ltd – Insee	False	False	PTTLMPTTLMCMNTLNKLTDNS		Puttalam	LK-62	7.973531	79.913833	Puttalam	PS-620130	8.029904	79.834396	7.987827	79.868184	XVQ9+47M, Puttalam, Sri Lanka	5.979426	
Puttalam	Marawila	MOH Office – Nattandiya	False	False	PTTLMMRWLMHFFCNTTNDY		Puttalam	LK-62	7.973531	79.913833	Marawila	PS-620243	7.415075	79.839776	7.423943	79.835277	M.O.H. Office, Marawila, Sri Lanka	1.104176	
Puttalam	Koswatta	Kirimetiyana Vidyalaya	False	False	PTTLMKSWTTKRMTYNVDYLY		Puttalam	LK-62	7.973531	79.913833	Koswatta	PS-620244	7.374528	79.898302	7.3289	79.862086	Kirimetiyana, Sri Lanka	6.459032	
Puttalam	Koswatta	Haldaduwana Vidyalaya	False	False	PTTLMKSWTTHLDDWNVDYLY		Puttalam	LK-62	7.973531	79.913833	Koswatta	PS-620244	7.374528	79.898302	8.028082	79.840608	Katugastota-Kurunegala-Puttalam Hwy, Puttalam, Sri Lanka	72.972333	#CenterFarFromPolice
Puttalam	Saliyawewa	Saliyawewa Model College	False	False	PTTLMSLYWWSLYWWMDLCLLG		Puttalam	LK-62	7.973531	79.913833	Saliyawewa	PS-620136	8.192614	80.09136	8.193408	80.093998	Saliyawewa, Sri Lanka	0.303561	
Puttalam	Nawagaththegama	Nawagaththegama Hospital	False	False	PTTLMNWGTHTHGMNWGTHTHGMHSPTL		Puttalam	LK-62	7.973531	79.913833	Nawagaththegama	PS-620133	8.002882	80.106543	8.002941	80.111598	2436+5JH, Nawagattegama, Sri Lanka	0.55683	
Puttalam	Dankotuwa	Katukenda Vidyalaya	False	False	PTTLMDNKTWKTKNDVDYLY		Puttalam	LK-62	7.973531	79.913833	Dankotuwa	PS-620246	7.300337	79.882595	7.306792	79.885598	Katukenda Cemetery, Dankotuwa, Sri Lanka	0.790744	
Puttalam	Dankotuwa	Pothuwatuna Vidyalaya	False	False	PTTLMDNKTWPTHWTNVDYLY		Puttalam	LK-62	7.973531	79.913833	Dankotuwa	PS-620246	7.300337	79.882595	7.297464	79.882188	Dankotuwa, Sri Lanka	0.322703	
Puttalam	Dankotuwa	MOH Office – Dankotuwa	False	False	PTTLMDNKTWMHFFCDNKTW		Puttalam	LK-62	7.973531	79.913833	Dankotuwa	PS-620246	7.300337	79.882595	7.29759	79.888187	146 Negombo-Kurunegala Rd, Dankotuwa, Sri Lanka	0.688474	
Kandy	Gampola	Wickramabahu National College	False	False	KNDYGMPLWCKRMBHNTNLCLLG		Kandy	LK-21	7.27337	80.709602	Gampola	PS-210216	7.132941	80.56799	7.153925	80.563839	Nawalapitiya Road, Gampola 20500, Sri Lanka, Sri Lanka	2.378605	
Kandy	Kandy	Pushpadana Girls' College	False	False	KNDYKNDYPSHPDNGRLSCLLG		Kandy	LK-21	7.27337	80.709602	Kandy	PS-210101	7.292948	80.642368	7.293989	80.633	16 Kandy Rd, Kandy 20000, Sri Lanka	1.040036	
Kandy	Kandy	Mahanama Vidyalaya	False	False	KNDYKNDYMHNMVDYLY		Kandy	LK-21	7.27337	80.709602	Kandy	PS-210101	7.292948	80.642368	7.272228	80.607279	396, 17 Peradeniya Rd, Kandy 20000, Sri Lanka	4.505525	
Kandy	Daulagala	Divisional Secretariat - Udunuwara	False	False	KNDYDLGLDVSNLSCRTRTDNWR		Kandy	LK-21	7.27337	80.709602	Daulagala	PS-210111	7.227283	80.574409	7.228235	80.578562	Daulagala, Sri Lanka	0.470342	
Kandy	Katugastota	St. Anthony's College	False	False	KNDYKTGSTTSTNTHNYSCLLG		Kandy	LK-21	7.27337	80.709602	Katugastota	PS-210103	7.332014	80.623006	7.31563	80.624014	548 Peradeniya - Halloluwa - Katugastota Rd, Katugastota, Sri Lanka	1.825779	
Kandy	Lunugala	MOH Office - Lunugala	False	False	KNDYLNGLMHFFCLNGL		Kandy	LK-21	7.27337	80.709602	Lunugala	PS-810104	7.047691	81.20339	7.030729	81.198808	Peradeniya-Badulla-Chenkaladi Hwy, Lunugala, Sri Lanka	1.953308	
Badulla	Badulla	Base Hospital – Badulla	False	False	BDLLBDLLBSHSPTLBDLL		Badulla	LK-81	7.074529	81.04486	Badulla	PS-810101	6.991337	81.055246	6.991808	81.05235	Daya Gunasekara Mawatha, Badulla, Sri Lanka	0.32399	
Monaragala	Siyambalanduwa	Siyambalanduwa Maha Vidyalaya	False	False	MNRGLSYMBLNDWSYMBLNDWMHVDYLY		Moneragala	LK-82	6.787517	81.303744	Siyambalanduwa	PS-820122	6.906851	81.547598	6.909655	81.561921	WH56+VQ7, Siyambalanduwa, Sri Lanka	1.612038	
Monaragala	Dambagalla	Galgamuwa Primary School	False	False	MNRGLDMBGLLGLGMWPRMRYSCHL		Moneragala	LK-82	6.787517	81.303744	Dambagalla	PS-820123	6.978806	81.372037	6.888323	81.329226	Kotigalhela road, Magandanamulla, Monaragala, Monaragala, Sri Lanka	11.119226	
Monaragala	Dambagalla	Dambagalla Maha Vidyalaya	False	False	MNRGLDMBGLLDMBGLLMHVDYLY		Moneragala	LK-82	6.787517	81.303744	Dambagalla	PS-820123	6.978806	81.372037	6.961757	81.371229	X96C+PF5, Dambagalla, Sri Lanka	1.898455	
Monaragala	Hambegamuwa	Kahapelessa Primary School	False	False	MNRGLHMBGMWKHPLSSPRMRYSCHL		Moneragala	LK-82	6.787517	81.303744	Hambegamuwa	PS-820132	6.545791	80.947866	6.539485	80.948994	Bodagama-Hambegamuwa-Kaltota Rd, Sri Lanka	0.712405	
Monaragala	Hambegamuwa	Aluthwewa Primary School	False	False	MNRGLHMBGMWLTHWWPRMRYSCHL		Moneragala	LK-82	6.787517	81.303744	Hambegamuwa	PS-820132	6.545791	80.947866	6.58493	80.92818	Bodagama-Hambegamuwa-Kaltota Rd, Sri Lanka	4.86665	
Moneragala	Bibila	Bulupitiya Vidyalaya	False	False	MNRGLBBLBLPTYVDYLY		Moneragala	LK-82	6.787517	81.303744	Bibila	PS-820125	7.165232	81.225463	7.25	81.333333	Bulupitiya, Sri Lanka	15.18537	
Moneragala	Ethimale	Kodayana Primary School	False	False	MNRGLTHMLKDYNPRMRYSCHL		Moneragala	LK-82	6.787517	81.303744	Athimale	PS-820124	6.907289	79.863819	6.909814	81.485557	WF5P+W6F, Monaragala, Sri Lanka	179.076183	#CenterFarFromPolice
Moneragala	Sewanagala	Kirthikumara Vidyalaya - Ginigalpelessa	False	False	MNRGLSWNGLKRTHKMRVDYLYGNGLPLSS		Moneragala	LK-82	6.787517	81.303744	Sewanagala	PS-910239	6.360663	80.918555	6.384167	80.888611	Ginigalpelessa, Sri Lanka	4.217995	
Moneragala	Sewanagala	MOH Office – Sewanagala	False	False	MNRGLSWNGLMHFFCSWNGL		Moneragala	LK-82	6.787517	81.303744	Sewanagala	PS-910239	6.360663	80.918555	6.359583	80.920368	B549, Sri Lanka	0.233663	
Moneragala	Hiniduma	Hiniduma Nila Piyasa	False	False	MNRGLHNDMHNDMNLPYS		Moneragala	LK-82	6.787517	81.303744	Hiniduma	PS-310131	6.329517	80.322442	6.329517	80.322442	88HC+RX4, Hiniduma, Sri Lanka	0.0	
Galle	Bentota	Resort Officer's Office - Bentota	False	False	GLLBNTTRSRTFFCRSFFCBNTT		Galle	LK-31	6.222805	80.251977	Bentota	PS-310246	6.422233	79.996897	6.418291	80.002403	Colombo-Galle-Hambantota-Wellawaya Hwy, Bentota, Sri Lanka	0.750091	
Matara	Hakmana	MOH Office – Hakmana	False	False	MTRHKMNMHFFCHKMN		Matara	LK-32	6.142734	80.539994	Hakmana	PS-320106	6.084824	80.643227	6.081379	80.641425	3JJR+HH3, Hakmana, Sri Lanka	0.431921	
Matara	Deiyandara	Batadola Primary School	False	False	MTRDYNDRBTDLPRMRYSCHL		Matara	LK-32	6.142734	80.539994	Deyyandara	PS-320119	6.198061	80.587045	6.154714	80.603723	National School, Deiyandara, Sri Lanka	5.162189	
Matara	Deiyandara	Pallawela Maha Vidyalaya	False	False	MTRDYNDRPLLWLMHVDYLY		Matara	LK-32	6.142734	80.539994	Deyyandara	PS-320119	6.198061	80.587045	6.132543	80.620086	4JMC+228, Matara, Sri Lanka	8.152262	
Matara	Dikwella	MOH Office – Dikwella	False	False	MTRDKWLLMHFFCDKWLL		Matara	LK-32	6.142734	80.539994	Dikwella	PS-320103	5.964296	80.693198	5.965922	80.689228	XM8Q+9M9, Batigama, Sri Lanka	0.474973	
Matara	Matara	Godagama	False	False	MTRMTRGDGM		Matara	LK-32	6.142734	80.539994	Matara	PS-320101	5.94904	80.533659	5.972577	80.51884	Godagama, Sri Lanka	3.088956	
Matara	Akuressa	Hikgoda Viharaya	False	False	MTRKRSSHKGDVHRY		Matara	LK-32	6.142734	80.539994	Akuressa	PS-320112	6.099044	80.4776	6.08173	80.559712	Akuressa - Kamburupitiya Rd, Kamburupitiya, Sri Lanka	9.2837	
Matara	Deniyaya	Deniyaya Central College	False	False	MTRDNYYDNYYCNTRLCLLG		Matara	LK-32	6.142734	80.539994	Deniyaya	PS-320110	6.341435	80.558719	6.345398	80.558605	Deniyaya Pallegama Road, Deniyaya, Sri Lanka	0.440984	
Hambantota	Ambalantota	MOH Office – Ambalantota	False	False	HMBNTTMBLNTTMHFFCMBLNTT		Hambantota	LK-33	6.259779	81.098619	Ambalantota	PS-330157	6.12516	81.023981	6.122767	81.005973	Walawa watta Road, Malpeththawa, Ambalantota, Sri Lanka	2.009195	
Hambantota	Hambantota	Pallemalala Vidyalaya	False	False	HMBNTTHMBNTTPLLMLLVDYLY		Hambantota	LK-33	6.259779	81.098619	Hambantota	PS-330156	6.125872	81.12521	6.192198	81.184574	Colombo - Galle - Hambantota - Wellawaya Hwy, Sri Lanka	9.875466	
Hambantota	Walasmulla	Modarawana Maha Vidyalaya	False	False	HMBNTTWLSMLLMDRWNMHVDYLY		Hambantota	LK-33	6.259779	81.098619	Walasmulla	PS-330151	6.154102	80.698256	6.109322	80.714402	Beliatta - Walasmulla Rd, Okewela, Sri Lanka	5.291276	
Hambantota	Weeraketiya	MOH Office – Weeraketiya	False	False	HMBNTTWRKTYMHFFCWRKTY		Hambantota	LK-33	6.259779	81.098619	Weeraketiya	PS-330149	6.153899	80.76737	6.144703	80.765287	4QV8+V4M, Weeraketiya, Sri Lanka	1.048488	
Hambantota	Agunukolapelessa	Gajanayaka Maha Vidyalaya	False	False	HMBNTTGNKLPLSSGJNYKMHVDYLY		Hambantota	LK-33	6.259779	81.098619	Angunakolapelessa	PS-330150	6.321993	80.844883	6.17617	80.811756	5RG6+FP6, Hambantota, Sri Lanka	16.628299	
Hambantota	Middeniya	Ulahitiyawa Community Hall	False	False	HMBNTTMDDNYLHTYWCMMNTYHLL		Hambantota	LK-33	6.259779	81.098619	Middeniya	PS-330154	6.248275	80.765018	6.249947	80.733914	Ulahitiyawa, Sri Lanka	3.44416	
Hambantota	Middeniya	Middeniya Primary School	False	False	HMBNTTMDDNYMDDNYPRMRYSCHL		Hambantota	LK-33	6.259779	81.098619	Middeniya	PS-330154	6.248275	80.765018	6.25259	80.764518	Panamura Rd, Middeniya, Sri Lanka	0.48313	
Hambantota	Middeniya	Kudagoda Maha Vidyalaya	False	False	HMBNTTMDDNYKDGDMHVDYLY		Hambantota	LK-33	6.259779	81.098619	Middeniya	PS-330154	6.248275	80.765018	6.262264	80.761986	B286, Sri Lanka	1.591699	
Hambantota	Beliatta	MOH Office – Beliatta	False	False	HMBNTTBLTTMHFFCBLTT		Hambantota	LK-33	6.259779	81.098619	Beliatta	PS-330152	6.046936	80.735408	6.051828	80.741735	3P2R+PMQ, Hambantota, Sri Lanka	0.886482	
Hambantota	Beliatta	Siri Sunandarama Viharaya	False	False	HMBNTTBLTTSRSNNDRMVHRY		Hambantota	LK-33	6.259779	81.098619	Beliatta	PS-330152	6.046936	80.735408	6.060624	80.488242	3F6Q+67X, Algiriya, Sri Lanka	27.38128	#CenterFarFromPolice
Hambantota	Tangalla	MOH Office – Tangalla	False	False	HMBNTTTNGLLMHFFCTNGLL		Hambantota	LK-33	6.259779	81.098619	Tangalle	PS-330147	6.023954	80.797255	6.02363	80.795742	2QFW+F75, Tangalle, Sri Lanka	0.171198	
Hambantota	Balangoda	Vidyaloka Vidyalaya	False	False	HMBNTTBLNGDVDYLKVDYLY		Hambantota	LK-33	6.259779	81.098619	Balangoda	PS-910103	6.649474	80.700276	6.648651	80.698377	Barns Rathwathta Mawatha, Balangoda 70100, Sri Lanka	0.228906	
Rathnapura	Balangoda	Welipathayaya Vidyalaya	False	False	RTHNPRBLNGDWLPTHYYVDYLY		Ratnapura	LK-91	6.586826	80.566158	Balangoda	PS-910103	6.649474	80.700276	6.619812	80.873754	Welipathayaya, Sri Lanka	19.448598	
Rathnapura	Kegalle	MOH Office – Kegalle	False	False	RTHNPRKGLLMHFFCKGLL		Ratnapura	LK-91	6.586826	80.566158	Kegalle	PS-920118	7.255928	80.353156	7.24797	80.343583	Kegalle-Bulathkohupitiya-Karawanella Hwy, Kegalle, Sri Lanka	1.378052	
Kegalle	Warakapola	MOH Office – Warakapola	False	False	KGLLWRKPLMHFFCWRKPL		Kegalle	LK-92	7.104216	80.342866	Wrakapola	PS-920119	7.227488	80.199696	7.226501	80.197818	65GX+J44, Warakapola, Sri Lanka	0.234514	
Anuradhapura	Anuradhapura	MOH Office - Nuwaragam Palatha Central	False	False	NRDHPRNRDHPRMHFFCNWRGMPLTHCNTRL		Anuradhapura	LK-71	8.39199	80.512958	Anuradapura	PS-710101	8.329752	80.407265	8.341215	80.374096	Unnamed Road, Anuradhapura, Sri Lanka	3.866675	
Anuradhapura	Anuradhapura	MOH Office - Nuwaragam Palatha East	False	False	NRDHPRNRDHPRMHFFCNWRGMPLTHST		Anuradhapura	LK-71	8.39199	80.512958	Anuradapura	PS-710101	8.329752	80.407265	8.341215	80.374096	Unnamed Road, Anuradhapura, Sri Lanka	3.866675	
Anuradhapura	Tirappanai	MOH Office – Tirappanai	False	False	NRDHPRTRPPNMHFFCTRPPN		Anuradhapura	LK-71	8.39199	80.512958									#PoliceLocationUnknown
Anuradhapura	Kahatagasdigiliya	MOH Office - Kahatagasdigiliya	False	False	NRDHPRKHTGSDGLYMHFFCKHTGSDGLY		Anuradhapura	LK-71	8.39199	80.512958	Kahatagasdigiliya	PS-710118	8.427328	80.688349	8.427329	80.689909	Puttalam - Anuradhapura - Trincomalee Hwy, Kahatagasdigiliya, Sri Lanka	0.171645	
Anuradhapura	Mihintale	MOH Office – Mihintale	False	False	NRDHPRMHNTLMHFFCMHNTL		Anuradhapura	LK-71	8.39199	80.512958	Mihintale	PS-710104	8.360062	80.511889	8.357612	80.509049	Puttalam - Anuradhapura - Trincomalee Hwy, Mihintale, Sri Lanka	0.41466	
Anuradhapura	Mihintale	MOH Office - Rambewa	False	False	NRDHPRMHNTLMHFFCRMBW		Anuradhapura	LK-71	8.39199	80.512958	Mihintale	PS-710104	8.360062	80.511889	8.438263	80.504725	CGQ3+8V5, Rambewa, Sri Lanka	8.733932	
Anuradhapura	Hingurakgoda	MOH Office – Hingurakgoda	False	False	NRDHPRHNGRKGDMHFFCHNGRKGD		Anuradhapura	LK-71	8.39199	80.512958	Hingurakgoda	PS-720129	8.048819	80.965751	8.046007	80.96576	2XW8+C82, Hingurakgoda, Sri Lanka	0.31278	
Anuradhapura	Bakamuna	Aththanakadawala Maha Vidyalaya	False	False	NRDHPRBKMNTHTHNKDWLMHVDYLY		Anuradhapura	LK-71	8.39199	80.512958	Bakamuna	PS-720132	7.778789	80.816102	7.883134	80.847254	Aththanakadawala, Sri Lanka	12.103273	
Anuradhapura	Medirigiriya	Medirigiriya Pasindu Garment	False	False	NRDHPRMDRGRYMDRGRYPSNDGRMNT		Anuradhapura	LK-71	8.39199	80.512958	Medirigiriya	PS-720130	8.150847	80.984493	8.140313	80.96414	Medirigiriya, Sri Lanka	2.528894	
Jaffna	Tellippalai	MOH Office – Tellippalai	False	False	JFFNTLLPPLMHFFCTLLPPL		Jaffna	LK-41	9.691792	80.098594	Thelippalay	PS-410104	6.933075	79.857181	9.785978	80.038383	Q2PQ+99R, Tellippalai, Sri Lanka	317.953715	#CenterFarFromPolice
Jaffna	Point Pedro	J/406 GS Office - Katkovalam	False	False	JFFNPNTPDRJGSFFCKTKVLM		Jaffna	LK-41	9.691792	80.098594	Point Pedro	PS-410106	9.827018	80.233187	9.804279	80.250253	Katkovalam, Sri Lanka	3.145817	
Jaffna	Point Pedro	J/408 GS Office - Puloli North	False	False	JFFNPNTPDRJGSFFCPLLNRTH		Jaffna	LK-41	9.691792	80.098594	Point Pedro	PS-410106	9.827018	80.233187	9.805751	80.223504	R64F+8C2, Point Pedro, Sri Lanka	2.592682	
Jaffna	Point Pedro	J/410 GS Office - Puloli West	False	False	JFFNPNTPDRJGSFFCPLLWST		Jaffna	LK-41	9.691792	80.098594	Point Pedro	PS-410106	9.827018	80.233187	9.805751	80.223504	R64F+8C2, Point Pedro, Sri Lanka	2.592682	
Jaffna	Point Pedro	Kandamurukeshanari Hall	False	False	JFFNPNTPDRKNDMRKSHNRHLL		Jaffna	LK-41	9.691792	80.098594	Point Pedro	PS-410106	9.827018	80.233187	9.817512	80.234047	Main Street, Puloly, Point Pedro 40000, Sri Lanka	1.061544	
Jaffna	Nelliyady	Thunnale Samurdhi Bank	False	False	JFFNNLLYDYTHNNLSMRDHBNK		Jaffna	LK-41	9.691792	80.098594	Nelliadi	PS-410108	9.778397	80.113303	9.798781	80.197441	14 Vigneswara Road, Karaveddi, Sri Lanka	9.497028	
Jaffna	Nelliyady	Karanavai East Sivan Kovil	False	False	JFFNNLLYDYKRNVSTSVNKVL		Jaffna	LK-41	9.691792	80.098594	Nelliadi	PS-410108	9.778397	80.113303	9.798093	80.18524	AB20, Moothavinayakar Kovilady, Nelliady, Sri Lanka	8.183747	
Jaffna	Wadukkotte	MOH Office – Chankanai	False	False	JFFNWDKKTTMHFFCCHNKN		Jaffna	LK-41	9.691792	80.098594	Vaddukoddai		9.728886	79.947771	9.753617	79.976004	QX3G+CCR, Sri Lanka	4.140836	
Jaffna	Kayts	MOH Office – Karainagar	False	False	JFFNKYTSMHFFCKRNGR		Jaffna	LK-41	9.691792	80.098594	Kayts	PS-410212	9.728654	79.94775	9.725097	79.99772	Sri Lanka, Manipay, Sri Lanka	5.492521	
Jaffna	Kayts	MOH Office – Valanai	False	False	JFFNKYTSMHFFCVLN		Jaffna	LK-41	9.691792	80.098594	Kayts	PS-410212	9.728654	79.94775	9.636317	79.903777	Chatty vangkalvady road, Velanai, Sri Lanka	11.346015	
Jaffna	Kayts	MOH Office – Kayts	False	False	JFFNKYTSMHFFCKYTS		Jaffna	LK-41	9.691792	80.098594	Kayts	PS-410212	9.728654	79.94775	9.697759	79.866366	Sri Lanka, Kayts, Sri Lanka	9.561445	
Jaffna	Chavakachcheri	Town Hall – Chavakachcheri	False	False	JFFNCHVKCHCHRTWNHLLCHVKCHCHR		Jaffna	LK-41	9.691792	80.098594	Chawakachcheri	PS-410215	9.666459	80.132384	9.659136	80.160946	M556+M94, Chavakachcheri, Sri Lanka	3.236063	
Kilinochchi	Kilinochchi	MOH Office - Karachchi	False	False	KLNCHCHKLNCHCHMHFFCKRCHCH		Kilinochchi	LK-45	9.415742	80.30358	Kilinochchi	PS-450131	9.392265	80.407846	9.396965	80.407782	Kandy - Jaffna Hwy, Kilinochchi, Sri Lanka	0.522827	
Kilinochchi	Kilinochchi	MOH Office – Palai	False	False	KLNCHCHKLNCHCHMHFFCPL		Kilinochchi	LK-45	9.415742	80.30358	Kilinochchi	PS-450131	9.392265	80.407846	7.330938	80.29484	06 A6, Polgahawela, Sri Lanka	229.618032	#CenterFarFromPolice
Kilinochchi	Pooneryn	MOH Office – Pooneryn	False	False	KLNCHCHPNRYNMHFFCPNRYN		Kilinochchi	LK-45	9.415742	80.30358	Pooneryn		9.505717	80.21101	9.507968	80.208317	G655+58P, Pooneryn, Sri Lanka	0.387256	
Kilinochchi	Mulankavil	Mulankavil Hospital	False	False	KLNCHCHMLNKVLMLNKVLHSPTL		Kilinochchi	LK-45	9.415742	80.30358	Mulankavil	PS-450135	9.254463	80.141528	9.243423	80.143894	Base Hospital Mulankavil, A32 Road, Mulankavil, Kumulamunai, Sri Lanka	1.255148	
Mullaitivu	Mallavi	Health Medical Superintendent Office - Mallavi	False	False	MLLTVMLLVHLTHMDCLSPRNTNDNTFFCMLLV		Mullaitivu	LK-44	9.167643	80.549091	Mallavi	PS-440153	9.137878	80.307257	9.134704	80.308726	48M5+VFQ, Mallavi, Sri Lanka	0.388156	
Mullaitivu	Mullaitivu	Divisional Hospital - Unnappilavu	False	False	MLLTVMLLTVDVSNLHSPTLNNPPLV		Mullaitivu	LK-44	9.167643	80.549091	Mullativu	PS-440148	9.212825	80.760159	9.26205	80.81366	Unnappulavu, Mullaitivu, Sri Lanka	8.029915	
Mullaitivu	Mullaitivu	Chemmalai Maha Vidyalaya	False	False	MLLTVMLLTVCHMMLMHVDYLY		Mullaitivu	LK-44	9.167643	80.549091	Mullativu	PS-440148	9.212825	80.760159	9.157434	80.86313	5V47+X7C, Mullaitivu, Sri Lanka	12.876275	
Mullaitivu	Mullaitivu	Divisional Hospital – Alampil	False	False	MLLTVMLLTVDVSNLHSPTLLMPL		Mullaitivu	LK-44	9.167643	80.549091	Mullativu	PS-440148	9.212825	80.760159	9.26205	80.81366	Unnappulavu, Mullaitivu, Sri Lanka	8.029915	
Mullaitivu	Puthukudiyiruppu	Mungilaru Primary School	False	False	MLLTVPTHKDYRPPMNGLRPRMRYSCHL		Mullaitivu	LK-44	9.167643	80.549091	Pudukuduiruppu	PS-440149	7.00152	79.95003	9.322944	80.702342	Puthukkudiyiruppu-Mathalan Rd, Puthukkudiyiruppu, Sri Lanka	271.170338	#CenterFarFromPolice
Mullaitivu	Oddusuddan	Health Medical Superintendent Office - Oddusuddan	False	False	MLLTVDDSDDNHLTHMDCLSPRNTNDNTFFCDDSDDN		Mullaitivu	LK-44	9.167643	80.549091	Oddusudan	PS-440151	9.160983	80.652821	9.153738	80.646338	Mankulam-Mullaitivu Hwy, Oddusuddan, Sri Lanka	1.075281	
Mannar	Mannar	Annai Theresa GTMS College	False	False	MNNRMNNRNNTHRSGTMSCLLG		Mannar	LK-42	8.877429	80.088628	Mannar	PS-420138	8.978123	79.911642	8.885503	80.276733	Northern Province, Sri Lanka	41.418266	#CenterFarFromPolice
Mannar	Mannar	Eruklampiddy Girl's College	False	False	MNNRMNNRRKLMPDDYGRLSCLLG		Mannar	LK-42	8.877429	80.088628	Mannar	PS-420138	8.978123	79.911642	9.033327	79.878889	2VMH+8HJ, Erukkalampiddy, Sri Lanka	7.116932	
Vavuniya	Vavuniya	Gamini Maha Vidyalaya	False	False	VVNYVVNYGMNMHVDYLY		Vavuniya	LK-43	8.852071	80.467404	Vavuniya	PS-430119	8.754431	80.498604	8.762035	80.49472	Vavuniya-Parayanalankulam Hwy, Vavuniya, Sri Lanka	0.947457	
Vavuniya	Vavuniya	Shiwaprakash Girls' College	False	False	VVNYVVNYSHWPRKSHGRLSCLLG		Vavuniya	LK-43	8.852071	80.467404	Vavuniya	PS-430119	8.754431	80.498604	8.751173	80.503888	QG23+FH6, Vavuniya, Sri Lanka	0.684662	
Vavuniya	Vavuniya	Tamil Central College	False	False	VVNYVVNYTMLCNTRLCLLG		Vavuniya	LK-43	8.852071	80.467404	Vavuniya	PS-430119	8.754431	80.498604	8.754203	80.498234	QF3X+M7Q, Vavuniya, Sri Lanka	0.047934	
Vavuniya	Vavuniya	Muslim Maha Vidyalaya	False	False	VVNYVVNYMSLMMHVDYLY		Vavuniya	LK-43	8.852071	80.467404	Vavuniya	PS-430119	8.754431	80.498604	8.76329	80.482611	Pattanichoor, Vavuniya-Parayanalankulam Hwy, Vavuniya, Sri Lanka	2.015462	
Vavuniya	Vavuniya	Vipulananda Maha Vidyalaya	False	False	VVNYVVNYVPLNNDMHVDYLY		Vavuniya	LK-43	8.852071	80.467404	Vavuniya	PS-430119	8.754431	80.498604	8.750324	80.497043	A9, Vavuniya 43000, Sri Lanka	0.48799	
Vavuniya	Nedunkeni	Public Health Service Offices - Nedunkeni	False	False	VVNYNDNKNPBLCHLTHSRVCFFCSNDNKN		Vavuniya	LK-43	8.852071	80.467404	Nedumkenrni	PS-430121	7.128721	79.877371	9.060607	80.66112	Old Post Office Road, Nedunkeni, Sri Lanka	231.566681	#CenterFarFromPolice
Vavuniya	Nedunkeni	Family Health Services Office - Nainamadu	False	False	VVNYNDNKNFMLYHLTHSRVCSFFCNNMD		Vavuniya	LK-43	8.852071	80.467404	Nedumkenrni	PS-430121	7.128721	79.877371					#CenterLocationUnknown
Vavuniya	Puvarissankulam	Puvarissankulam Hospital	False	False	VVNYPVRSSNKLMPVRSSNKLMHSPTL		Vavuniya	LK-43	8.852071	80.467404									#PoliceLocationUnknown
Vavuniya	Sidambarapuram	Sidambarapuram hospital	False	False	VVNYSDMBRPRMSDMBRPRMHSPTL		Vavuniya	LK-43	8.852071	80.467404									#PoliceLocationUnknown
Vavuniya	Omanthai	Omanthai Hospital	False	False	VVNYMNTHMNTHHSPTL		Vavuniya	LK-43	8.852071	80.467404	Omantha	PS-430123	8.84719	80.497841	8.864234	80.502119	VG72+MRX, Omanthai, Sri Lanka	1.953234	
Vavuniya	Omanthai	Nauvi Hospital	False	False	VVNYMNTHNVHSPTL		Vavuniya	LK-43	8.852071	80.467404	Omantha	PS-430123	8.84719	80.497841	8.864234	80.502119	VG72+MRX, Omanthai, Sri Lanka	1.953234	
Trincomalee	Muttur	MOH Office – Muttur	False	False	TRNCMLMTTRMHFFCMTTR		Trincomalee	LK-53	8.551241	81.092014	Mutur	PS-530138	8.461133	81.259371	8.453916	81.264494	1 Old Batticaloa Rd, Mutur, Sri Lanka	0.980859	
Trincomalee	Kinniya	MOH Office – Kurungnakeni	False	False	TRNCMLKNNYMHFFCKRNGNKN		Trincomalee	LK-53	8.551241	81.092014	Kinnia	PS-530140	6.907289	79.863819	7.484932	80.353119	F9M3+X6H, Kurunegala 60000, Sri Lanka	83.927094	#CenterFarFromPolice
Trincomalee	Kinniya	MOH Office – Kinniya	False	False	TRNCMLKNNYMHFFCKNNY		Trincomalee	LK-53	8.551241	81.092014	Kinnia	PS-530140	6.907289	79.863819	8.498696	81.179644	F5XH+FVC, Kinniya 31100, Sri Lanka	228.840304	#CenterFarFromPolice
Trincomalee	Sripura	MOH Office – Sripura	False	False	TRNCMLSRPRMHFFCSRPR		Trincomalee	LK-53	8.551241	81.092014	Sripura	PS-530136	8.929617	80.81428	8.926697	80.814799	Padavi Sripura, Padaviya - Sripura Road, Welioya, Sri Lanka	0.329869	
Trincomalee	Kuchchaveli	MOH Office – Kuchchaveli	False	False	TRNCMLKCHCHVLMHFFCKCHCHVL		Trincomalee	LK-53	8.551241	81.092014	Kuchchaweli	PS-530133	8.81895	81.100438	8.740082	81.161616	P5R6+2JQ, Kumpurupiddi, Sri Lanka	11.053646	
Trincomalee	Kuchchaveli	Divisional Hospital - Kuchchaveli	False	False	TRNCMLKCHCHVLDVSNLHSPTLKCHCHVL		Trincomalee	LK-53	8.551241	81.092014	Kuchchaweli	PS-530133	8.81895	81.100438	8.814795	81.102358	R472+WW9, Kuchchaveli, Sri Lanka	0.508064	
Trincomalee	Kuchchaveli	Divisional Hospital – Nilaveli	False	False	TRNCMLKCHCHVLDVSNLHSPTLNLVL		Trincomalee	LK-53	8.551241	81.092014	Kuchchaweli	PS-530133	8.81895	81.100438	8.681035	81.193632	M5JV+CF6, Nilaveli, Sri Lanka	18.44695	
Trincomalee	Pulmoddai	Base Hospital -Pulmoddai	False	False	TRNCMLPLMDDBSHSPTLPLMDD		Trincomalee	LK-53	8.551241	81.092014	Pulmudai	PS-530135	6.915266	79.87829	8.941204	80.983139	WXRM+F7J, Pulmoddai, Sri Lanka	256.112801	#CenterFarFromPolice
Trincomalee	Serunuwara	MOH Office – Serunuwara	False	False	TRNCMLSRNWRMHFFCSRNWR		Trincomalee	LK-53	8.551241	81.092014	Serunuwara	PS-530244	8.321863	81.299322	8.323143	81.299894	B10, Sri Lanka	0.155671	
Trincomalee	Harbour Police	MOH Office – Trincomalee	False	False	TRNCMLHRBRPLCMHFFCTRNCML		Trincomalee	LK-53	8.551241	81.092014	Trinco Harbour Police	PS-530131	8.56705	81.231407	8.598974	81.216963	MOH Office, Farm Rd, Trincomalee, Sri Lanka	3.890062	
Trincomalee	Harbour Police	Base Hospital – Trincomalee	False	False	TRNCMLHRBRPLCBSHSPTLTRNCML		Trincomalee	LK-53	8.551241	81.092014	Trinco Harbour Police	PS-530131	8.56705	81.231407	8.56486	81.239445	Hospital Ln, Trincomalee, Sri Lanka	0.917037	
Trincomalee	Uppuveli	MOH Office - Uppuveli	False	False	TRNCMLPPVLMHFFCPPVL		Trincomalee	LK-53	8.551241	81.092014	Uppuweli	PS-530134	8.593614	81.21743	8.607961	81.216512	Nilaveli Rd, Trincomalee, Sri Lanka	1.599005	
Trincomalee	Kantale	MOH Office - Kantale	False	False	TRNCMLKNTLMHFFCKNTL		Trincomalee	LK-53	8.551241	81.092014	Kantale	PS-530241	8.356129	81.007739	8.349617	81.009107	අග්‍රබෝධි මාවත, Kantale, Sri Lanka	0.739809	
Trincomalee	Ichchalampattu	MOH Office - Ichchalampattu	False	False	TRNCMLCHCHLMPTTMHFFCCHCHLMPTT	Eachchilampattu Hospital	Trincomalee	LK-53	8.551241	81.092014	Ichchalampattu		8.289549	81.359002	8.289644	81.358983	Highway, Ichchalampattu, Trincomalee, Sri Lanka	0.010772	
Trincomalee	Thambalagamuwa	MOH Office - Thambalagamuwa	False	False	TRNCMLTHMBLGMWMHFFCTHMBLGMW		Trincomalee	LK-53	8.551241	81.092014	Thambalagamuva	PS-530243	6.907289	79.863819	8.563603	81.239584	Hospital Ln, Trincomalee, Sri Lanka	238.604889	#CenterFarFromPolice
Trincomalee	Gomarankadawala	MOH Office - Gomarankadawala	False	False	TRNCMLGMRNKDWLMHFFCGMRNKDWL		Trincomalee	LK-53	8.551241	81.092014	Gomarankadawala	PS-530248	8.674487	80.967555	8.674726	80.955691	Unnamed Road, Gomarankadawala, Sri Lanka	1.304806	
Batticaloa	Batticaloa	MOH Office – Batticaloa	False	False	BTTCLBTTCLMHFFCBTTCL		Batticaloa	LK-51	7.792772	81.486513	Batticaloa	PS-510101	7.717949	81.699294	7.708253	81.691368	Hospital Rd, Batticaloa, Sri Lanka	1.387934	
Batticaloa	Kokkadicholai	MOH Office – Pattipala	False	False	BTTCLKKKDCHLMHFFCPTTPL		Batticaloa	LK-51	7.792772	81.486513	Kokkadicholai	PS-510112	7.715979	81.698757	7.023407	80.262082	A7, Karawanella, Sri Lanka	176.210764	#CenterFarFromPolice
Batticaloa	Vellawali	Palugamam Tamil Vidyalaya	False	False	BTTCLVLLWLPLGMMTMLVDYLY		Batticaloa	LK-51	7.792772	81.486513	Vellavali	PS-510111	6.907289	79.863819	7.543988	81.757324	GQV4+HWW, Batticaloa, Sri Lanka	220.616281	#CenterFarFromPolice
Batticaloa	Valachchenai	Valachchenai Base Hospital	False	False	BTTCLVLCHCHNVLCHCHNBSHSPTL		Batticaloa	LK-51	7.792772	81.486513	Valachchanai	PS-510107	7.908015	81.533004	7.911315	81.533046	Valaichchenai-Nasuvantivu-Navaladi Road, Sri Lanka	0.367088	
Batticaloa	Valachchenai	MOH Office – Oddamavadi	False	False	BTTCLVLCHCHNMHFFCDDMVD		Batticaloa	LK-51	7.792772	81.486513	Valachchanai	PS-510107	7.908015	81.533004	7.912281	81.532775	WG6M+W46, Batticaloa, Sri Lanka	0.475177	
Batticaloa	Valachchenai	MOH Office – Nawaladi	False	False	BTTCLVLCHCHNMHFFCNWLD	Primary Medical Care Unit, Navalady	Batticaloa	LK-51	7.792772	81.486513	Valachchanai	PS-510107	7.908015	81.533004	7.735244	81.709126	PPP5+3MR, Kallady, Sri Lanka	27.312365	#CenterFarFromPolice
Batticaloa	Valachchenai	MOH Office – Valachchenai	False	False	BTTCLVLCHCHNMHFFCVLCHCHN		Batticaloa	LK-51	7.792772	81.486513	Valachchanai	PS-510107	7.908015	81.533004	7.912281	81.532775	WG6M+W46, Batticaloa, Sri Lanka	0.475177	
Batticaloa	Valachchenai	Vinayagapuram Primary School	False	False	BTTCLVLCHCHNVNYGPRMPRMRYSCHL		Batticaloa	LK-51	7.792772	81.486513	Valachchanai	PS-510107	7.908015	81.533004	7.910804	81.524547	WG6F+8RF, Oddamavadi, Sri Lanka	0.982009	
Batticaloa	Vakarai	MOH Office – Vakarai	False	False	BTTCLVKRMHFFCVKR	Divisional Hospital Vakarai	Batticaloa	LK-51	7.792772	81.486513	Wakarai	PS-510109	6.934132	79.856305	8.134552	81.435328	Trincomalee Hwy, Vakarai, Sri Lanka	219.417822	#CenterFarFromPolice
Batticaloa	Kaluwanchikudy	MOH Office - Kaluwanchikudy	False	False	BTTCLKLWNCHKDYMHFFCKLWNCHKDY	Medical Officer of Health Kaluwanchikudy	Batticaloa	LK-51	7.792772	81.486513	Kalawanchikudy	PS-510110	7.515908	81.787051	7.509333	81.79204	Colombo - Batticaloa Hwy, Kaluwanchikudy, Sri Lanka	0.915167	
Batticaloa	Kaluwanchikudy	Base Hospital - Kaluwanchikudy	False	False	BTTCLKLWNCHKDYBSHSPTLKLWNCHKDY		Batticaloa	LK-51	7.792772	81.486513	Kalawanchikudy	PS-510110	7.515908	81.787051	7.51724	81.785184	GQ8P+V3V, Kaluwanchikudy, Sri Lanka	0.25365	
Batticaloa	Kattankudy	MOH Office – Kattankudy	False	False	BTTCLKTTNKDYMHFFCKTTNKDY		Batticaloa	LK-51	7.792772	81.486513	Kaththankudi	PS-510103	7.715979	81.698757	7.683586	81.730767	MPMJ+C8J, Kattankudy, Sri Lanka	5.042961	
Batticaloa	Kattankudy	MOH Office – Arayampathy	False	False	BTTCLKTTNKDYMHFFCRYMPTHY		Batticaloa	LK-51	7.792772	81.486513	Kaththankudi	PS-510103	7.715979	81.698757	7.672862	81.735019	MPFP+42R, Sri Lanka	6.243191	
Batticaloa	Eravur	Sandiveli Hospital	False	False	BTTCLRVRSNDVLHSPTL		Batticaloa	LK-51	7.792772	81.486513	Eravur	PS-510104	7.715979	81.698757	7.777289	81.602853	Trincomalee Hwy, Eravur, Sri Lanka	12.578998	
Batticaloa	Eravur	MOH Office – Eravur	False	False	BTTCLRVRMHFFCRVR		Batticaloa	LK-51	7.792772	81.486513	Eravur	PS-510104	7.715979	81.698757	7.783664	81.605626	QJM4+F76, Eravur, Sri Lanka	12.729342	
Batticaloa	Eravur	MOH Office - Eravur	False	False	BTTCLRVRMHFFCRVR		Batticaloa	LK-51	7.792772	81.486513	Eravur	PS-510104	7.715979	81.698757	7.783664	81.605626	QJM4+F76, Eravur, Sri Lanka	12.729342	
Batticaloa	Eravur	Eravur Hospital	False	False	BTTCLRVRRVRHSPTL		Batticaloa	LK-51	7.792772	81.486513	Eravur	PS-510104	7.715979	81.698757	7.783168	81.605999	QJM4+799, Eravur 30300, Sri Lanka	12.663585	
Batticaloa	Eravur	Abusali Thaikka Mosque	False	False	BTTCLRVRBSLTHKKMSQ		Batticaloa	LK-51	7.792772	81.486513	Eravur	PS-510104	7.715979	81.698757	7.781732	81.617006	Thaikka Road, Eravur, Sri Lanka	11.604841	
Batticaloa	Eravur	Sitthandi Central College	False	False	BTTCLRVRSTTHNDCNTRLCLLG		Batticaloa	LK-51	7.792772	81.486513	Eravur	PS-510104	7.715979	81.698757	7.785947	81.590295	Trincomalee Road, Chenkaladi, Sri Lanka	14.264135	
Batticaloa	Eravur	Chenkaladi Hospital	False	False	BTTCLRVRCHNKLDHSPTL		Batticaloa	LK-51	7.792772	81.486513	Eravur	PS-510104	7.715979	81.698757	7.783546	81.589961	Batticaloa Rd, Chenkaladi, Sri Lanka	14.151406	
Batticaloa	Eravur	MOH Office – Chenkaladi	False	False	BTTCLRVRMHFFCCHNKLD		Batticaloa	LK-51	7.792772	81.486513	Eravur	PS-510104	7.715979	81.698757	7.783599	81.593367	Trincomalee Hwy, Chenkaladi 30350, Sri Lanka	13.837876	
Ampara	Mangalagama	Mangalagama Vidyalaya	False	False	MPRMNGLGMMNGLGMVDYLY		Ampara	LK-52	7.23699	81.550391	Mangalagama	PS-520119	7.524533	81.539626	7.570744	81.382558	H9CM+72V, Mangalagama, Sri Lanka	18.065922	
Ampara	Karadiyanaru	Copaveli Clinic	False	False	MPRKRDYNRCPVLCLNC		Ampara	LK-52	7.23699	81.550391	Karadiyanaru	PS-510105	7.701992	81.537252	7.299019	81.689445	Dharmapala Mawatha, Ampara 32000, Sri Lanka	47.86182	#CenterFarFromPolice
Ampara	Karadiyanaru	Karadiyanaru Hospital	False	False	MPRKRDYNRKRDYNRHSPTL		Ampara	LK-52	7.23699	81.550391	Karadiyanaru	PS-510105	7.701992	81.537252	7.700216	81.539779	PG2Q+3WJ, Karadiyanaru, Sri Lanka	0.341482	
Ampara	Chavalakade	MOH Office – Navidanveli	False	False	MPRCHVLKDMHFFCNVDNVL		Ampara	LK-52	7.23699	81.550391	Chawalakade	PS-520125	7.413559	81.776822	7.420081	81.788401	B77, Sri Lanka	1.468805	
Ampara	Chavalakade	5th Colony Health Centre	False	False	MPRCHVLKDTHCLNYHLTHCNTR		Ampara	LK-52	7.23699	81.550391	Chawalakade	PS-520125	7.413559	81.776822	7.418836	81.781436	Chavalakade, Sri Lanka	0.776867	
Ampara	Karaitivu	MOH Office – Karaitivu	False	False	MPRKRTVMHFFCKRTV		Ampara	LK-52	7.23699	81.550391	Karaitivu		9.744059	79.870587	7.377712	81.838796	Colombo-Ratnapura-Wellawaya-Batticaloa Highway, Karativu 32250, Sri Lanka	340.788666	#CenterFarFromPolice
Ampara	Kalmunai	Ashraff Memorial Hospital	False	False	MPRKLMNSHRFFMMRLHSPTL		Ampara	LK-52	7.23699	81.550391	Kalmunai	PS-520123	7.414289	81.825006	7.403172	81.831146	A4, Ashraff Memorial Base Hospital, A4 A4, Kalmunai 32300, Sri Lanka	1.409859	
Ampara	Kalmunai	MOH Office - Kalmunai North	False	False	MPRKLMNMHFFCKLMNNRTH		Ampara	LK-52	7.23699	81.550391	Kalmunai	PS-520123	7.414289	81.825006	7.411712	81.838462	CR6Q+M9P, Kalmunai 32300, Sri Lanka	1.511625	
Ampara	Kalmunai	MOH Office - Kalmunai South	False	False	MPRKLMNMHFFCKLMNSTH		Ampara	LK-52	7.23699	81.550391	Kalmunai	PS-520123	7.414289	81.825006	7.411712	81.838462	CR6Q+M9P, Kalmunai 32300, Sri Lanka	1.511625	
Ampara	Kalmunai	Base Hospital - Kalmunai North	False	False	MPRKLMNBSHSPTLKLMNNRTH		Ampara	LK-52	7.23699	81.550391	Kalmunai	PS-520123	7.414289	81.825006	7.420034	81.82232	hospital near, Kalmunai 32300, Sri Lanka	0.704353	
Ampara	Sainthamarthu	MOH Office – Sainthamarthu	False	False	MPRSNTHMRTHMHFFCSNTHMRTH		Ampara	LK-52	7.23699	81.550391									#PoliceLocationUnknown
Ampara	Sainthamarthu	Saindamarudu Hospital	False	False	MPRSNTHMRTHSNDMRDHSPTL		Ampara	LK-52	7.23699	81.550391									#PoliceLocationUnknown
Ampara	Sammanthurai	Sammanthurai Base Hospital	False	False	MPRSMMNTHRSMMNTHRBSHSPTL		Ampara	LK-52	7.23699	81.550391	Samanthurai	PS-520124	7.365785	81.810859	7.368355	81.813042	9R96+MWM, Hospital Rd, Sammanthurai, Sri Lanka	0.373773	
Ampara	Sammanthurai	MOH Office – Nintavur	False	False	MPRSMMNTHRMHFFCNNTVR		Ampara	LK-52	7.23699	81.550391	Samanthurai	PS-520124	7.365785	81.810859	7.352821	81.856939	Hospital Rd, Nintavur 32340, Sri Lanka	5.283925	
Ampara	Sammanthurai	MOH Office - Sammanthurai	False	False	MPRSMMNTHRMHFFCSMMNTHR		Ampara	LK-52	7.23699	81.550391	Samanthurai	PS-520124	7.365785	81.810859	7.369857	81.812264	9R96+WWR, Sammanthurai, Sri Lanka	0.478712	
Ampara	Sammanthurai	Nintavur Hospital	False	False	MPRSMMNTHRNNTVRHSPTL		Ampara	LK-52	7.23699	81.550391	Samanthurai	PS-520124	7.365785	81.810859	7.353372	81.856852	Hospital Rd, Nintavur, Sri Lanka	5.258159	
Ampara	Sammanthurai	Kannahi Vidyalaya	False	False	MPRSMMNTHRKNNHVDYLY		Ampara	LK-52	7.23699	81.550391	Samanthurai	PS-520124	7.365785	81.810859	7.35018	81.80359	Kallarichchel 02, Sammanthurai, Sri Lanka	1.912014	
Ampara	Sammanthurai	Darussalam Vidyalaya	False	False	MPRSMMNTHRDRSSLMVDYLY		Ampara	LK-52	7.23699	81.550391	Samanthurai	PS-520124	7.365785	81.810859	7.357562	81.802725	9R53+23H, Sammanthurai, Sri Lanka	1.281286	
Ampara	Thirukkovil	MOH Office – Thirukkovil	False	False	MPRTHRKKVLMHFFCTHRKKVL		Ampara	LK-52	7.23699	81.550391	Thirukkovil	PS-520127	7.113998	81.852219	7.111635	81.852892	Central Rd, Vinayagapuram, Sri Lanka	0.273131	
Ampara	Akkaraipattu	MOH Office – Addalachenai	False	False	MPRKKRPTTMHFFCDDLCHN		Ampara	LK-52	7.23699	81.550391	Akkaraipattu	PS-520126	7.216084	81.853254	7.260916	81.853493	7V63+999, Addalaichenai, Sri Lanka	4.986726	
Ampara	Akkaraipattu	MOH Office – Akkaraipattu	False	False	MPRKKRPTTMHFFCKKRPTT		Ampara	LK-52	7.23699	81.550391	Akkaraipattu	PS-520126	7.216084	81.853254	7.228134	81.851123	6VH2+7C5, Akkaraipattu, Sri Lanka	1.360772	
Ampara	Akkaraipattu	MOH Office - Alayadivembu	False	False	MPRKKRPTTMHFFCLYDVMB		Ampara	LK-52	7.23699	81.550391	Akkaraipattu	PS-520126	7.216084	81.853254	7.228134	81.851123	6VH2+7C5, Akkaraipattu, Sri Lanka	1.360772	
Ampara	Pottuvil	MOH Office – Lahugala	False	False	MPRPTTVLMHFFCLHGL		Ampara	LK-52	7.23699	81.550391	Pothuvil	PS-520128	6.878387	81.826859	6.880658	81.765015	VQJ8+726, Sangamuwa, Sri Lanka	6.834041	
Ampara	Pottuvil	MOH Office – Pottuvil	False	False	MPRPTTVLMHFFCPTTVL		Ampara	LK-52	7.23699	81.550391	Pothuvil	PS-520128	6.878387	81.826859	6.877076	81.828969	B374, Pottuvil, Sri Lanka	0.274874	
