district	police	center	dose1	dose2	fuzzy_key	alt_name	district_name_norm	district_id	district_lat	district_lng	ps_name_norm	ps_id	ps_lat	ps_lng	lat	lng	formatted_address	dis_center_to_police	tags
Colombo	Padukka	Siripiyarathana Primary College	False	False	CLMBPDKKSRPYRTHNPRMRYCLLG		Colombo	LK-11	6.869636	80.019598	Padukka	PS-110473	6.842195	80.09247	6.840564	80.091778	pahala Polwatta Road, Padukka, Sri Lanka	0.196856	
Colombo	Cinnamon Gardens	Viharamahadevi Park	False	False	CLMBCNNMNGRDNSVHRMHDVPRK		Colombo	LK-11	6.869636	80.019598	Cinnamon Garden	PS-110324	6.907289	79.863819	6.913391	79.86174	Viharamahadevi Park, Colombo, Sri Lanka	0.716497	
Colombo	Thalangama	MOH Office - Battaramulla	False	False	CLMBTHLNGMMHFFCBTTRMLL		Colombo	LK-11	6.869636	80.019598	Thalangama	PS-110466	6.91089	79.929325	6.901538	79.919128	WW29+JM6, Battaramulla 10120, Sri Lanka	1.532936	
Colombo	Thalangama	Diyatha Uyana	False	False	CLMBTHLNGMDYTHYN		Colombo	LK-11	6.869636	80.019598	Thalangama	PS-110466	6.91089	79.929325	6.904575	79.909831	Diyatha Uyana, B240, Sri Jayawardenepura Kotte, Sri Lanka	2.264281	
Colombo	Grandpass	Sugathadasa Outdoor Stadium	False	False	CLMBGRNDPSSSGTHDSTDRSTDM		Colombo	LK-11	6.869636	80.019598	Grandpass	PS-110215	6.949052	79.872983	6.94806	79.868842	Prince of Wales Ave, Colombo 01400, Sri Lanka	0.470345	
Colombo	Narahenpita	Army Hospital Narahenpita	False	False	CLMBNRHNPTRMYHSPTLNRHNPT		Colombo	LK-11	6.869636	80.019598	Narahenpita	PS-110321	6.891832	79.876715	6.900252	79.87618	08 Elvitigala Mawatha, Colombo 00800, Sri Lanka	0.938417	
Colombo	Narahenpita	Army Headquarters Mobile Team 01	False	False	CLMBNRHNPTRMYHDQRTRSMBLTM		Colombo	LK-11	6.869636	80.019598	Narahenpita	PS-110321	6.891832	79.876715					#CenterLocationUnknown
Colombo	Dehiwala	MOH Office - Dehiwala	False	False	CLMBDHWLMHFFCDHWL		Colombo	LK-11	6.869636	80.019598	Dehiwala	PS-110580	6.850088	79.871696	6.861346	79.865943	VV68+G9P, Dehiwala-Mount Lavinia, Sri Lanka	1.404177	
Colombo	Boralesgamuwa	MOH Office - Verahera	False	False	CLMBBRLSGMWMHFFCVRHR		Colombo	LK-11	6.869636	80.019598	Boralesgamuwa	PS-110464	6.841331	79.901255	6.833094	79.905583	RWM4+66P, Boralesgamuwa, Sri Lanka	1.033386	
Colombo	Boralesgamuwa	Kotelawala Defence Hospital	False	False	CLMBBRLSGMWKTLWLDFNCHSPTL		Colombo	LK-11	6.869636	80.019598	Boralesgamuwa	PS-110464	6.841331	79.901255	6.82518	79.907167	RWG4+3VF, Boralesgamuwa, Sri Lanka	1.911444	
Colombo	Mulleriyawa	MOH Office - Gothatuwa	False	False	CLMBMLLRYWMHFFCGTHTW		Colombo	LK-11	6.869636	80.019598	Mulleriyawa	PS-110469	6.927187	79.929108	6.922088	79.916237	Mandavila Rd, Kotikawatta, Sri Lanka	1.530186	
Colombo	Maradana	National Hospital - Colombo	False	False	CLMBMRDNNTNLHSPTLCLMB		Colombo	LK-11	6.869636	80.019598	Maradana	PS-110107	6.927939	79.865471	6.918743	79.868992	Colombo 00700, Sri Lanka	1.094265	
Colombo	Homagama	Panagoda Bodhirajarama Viharaya	False	False	CLMBHMGMPNGDBDHRJRMVHRY		Colombo	LK-11	6.869636	80.019598	Homagama	PS-110470	6.836155	80.003474	6.929161	79.88265	Gnanawimala Rd, Colombo, Sri Lanka	16.883101	
Colombo	Wellampitiya	MOH Office - Kolonnawa	False	False	CLMBWLLMPTYMHFFCKLNNW		Colombo	LK-11	6.869636	80.019598	Wellampitiya	PS-110465	6.937514	79.896298	6.938303	79.889664	25 Pansalhena 1st Ln, 10600, Sri Lanka	0.737734	
Colombo	Kaduwela	MOH Office - Kaduwela	False	False	CLMBKDWLMHFFCKDWL		Colombo	LK-11	6.869636	80.019598	Kaduwela		6.936234	79.970183	6.934127	79.984398	B263, Kaduwela, Sri Lanka	1.586964	
Colombo	Fore shore	MOH Office - Jinthupitiya	False	False	CLMBFRSHRMHFFCJNTHPTY		Colombo	LK-11	6.869636	80.019598	Fore shore	PS-110210	6.949589	79.857355	6.943258	79.859238	No.27 Vivekananda Hill, Colombo 01300, Sri Lanka	0.734247	
Gampaha	Minuwangoda	MOH Office - Minuwangoda	False	False	GMPHMNWNGDMHFFCMNWNGD		Gampaha	LK-12	7.123598	80.018508	Minuwangoda	PS-120238	7.174215	79.957874	7.17227	79.956823	Katunayake-Veyangoda Rd, Minuwangoda, Sri Lanka	0.245525	
Gampaha	Gampaha	Army Headquarters Mobile Team 05	False	False	GMPHGMPHRMYHDQRTRSMBLTM		Gampaha	LK-12	7.123598	80.018508	Gampaha	PS-120237	7.087765	80.01228					#CenterLocationUnknown
Gampaha	Katana	MOH Office - Katana	False	False	GMPHKTNMHFFCKTN		Gampaha	LK-12	7.123598	80.018508	Katana	PS-120360	7.224796	79.880015	7.22436	79.88271	Katana, Negombo - Mirigama Rd, Negombo, Sri Lanka	0.301313	
Gampaha	Pamunugama	Pamunugama Hospital	False	False	GMPHPMNGMPMNGMHSPTL		Gampaha	LK-12	7.123598	80.018508	Pamunugama	PS-120353	7.078892	79.859696	7.093543	79.850191	3VV2+C38, Negombo, Sri Lanka	1.938152	
Gampaha	Divulapitiya	MOH Office - Divulapitiya	False	False	GMPHDVLPTYMHFFCDVLPTY		Gampaha	LK-12	7.123598	80.018508	Diulapitiya	PS-120355	7.174215	79.957874	7.215486	80.013606	6287+5CX, Divulapitiya, Sri Lanka	7.67456	
Gampaha	Ja Ela	MOH Office - Ja Ela	False	False	GMPHJLMHFFCJL		Gampaha	LK-12	7.123598	80.018508	Ja - Ela	PS-120133	7.081055	79.890504	7.075216	79.893879	60 Mount Kalvary Rd, Ja-Ela, Sri Lanka	0.748731	
Gampaha	Wattala	MOH Office – Wattala	False	False	GMPHWTTLMHFFCWTTL		Gampaha	LK-12	7.123598	80.018508	Wattala	PS-120128	6.993713	79.894506	6.995817	79.885793	301 Hendala Rd, Wattala, Sri Lanka	0.989991	
Gampaha	Ragama	MOH Office – Ragama	False	False	GMPHRGMMHFFCRGM		Gampaha	LK-12	7.123598	80.018508	Ragama	PS-120134	7.034975	79.924148	7.027386	79.920232	2WGC+X35, Ragama, Sri Lanka	0.948382	
Gampaha	Agalawatta	Pimbura Hospital	False	False	GMPHGLWTTPMBRHSPTL		Gampaha	LK-12	7.123598	80.018508	Agalawatta		6.542566	80.157178	6.575949	80.158371	H5G5+98H, කළුතර, Sri Lanka	3.715525	
Kalutara	Kalutara	Army Headquarters Mobile Team 04	False	False	KLTRKLTRRMYHDQRTRSMBLTM		Kalutara	LK-13	6.577316	80.127363	Kalutara South		6.584968	79.96102					#CenterLocationUnknown
Kalutara	Matugama	Weththewa Hospital	False	False	KLTRMTGMWTHTHWHSPTL		Kalutara	LK-13	6.577316	80.127363	Mathugama	PS-1302103	6.520881	80.117908	6.523087	80.125192	District Hospital, Hospital Road,Weththewa,., Matugama, Sri Lanka	0.841523	
Kurunegala	Rasnayakapura	Uanagolla Vidyalaya	False	False	KRNGLRSNYKPRNGLLVDYLY		Kurunegala	LK-61	7.66477	80.23677	Rasnayakapura	PS-610323	7.776658	80.012692	7.775358	80.021998	Q2GC+4QX, Puttalam, Sri Lanka	1.03573	
Kurunegala	Rasnayakapura	Kadigawa Central Dispensary	False	False	KRNGLRSNYKPRKDGWCNTRLDSPNSRY		Kurunegala	LK-61	7.66477	80.23677	Rasnayakapura	PS-610323	7.776658	80.012692	7.479682	80.359209	F9H5+VMG, Kurunegala, Sri Lanka	50.502837	#CenterFarFromPolice
Kurunegala	Kotawehera	Galkadawala Vidyalaya	False	False	KRNGLKTWHRGLKDWLVDYLY		Kurunegala	LK-61	7.66477	80.23677	Kotawehera	PS-610322	7.809001	80.077977	7.809001	80.077977	Kotawehera, Kurunegala, Sri Lanka	0.0	
Kurunegala	Kobeigane	Thelahera Vidyalaya	False	False	KRNGLKBGNTHLHRVDYLY		Kurunegala	LK-61	7.66477	80.23677	Kobeigane	PS-610321	7.656934	80.126283	7.700444	80.115879	hengamuwa ,kobeigane, Sri Lanka	4.973641	
Kurunegala	Kandy	Mahanama Vidyalaya	False	False	KRNGLKNDYMHNMVDYLY		Kurunegala	LK-61	7.66477	80.23677	Kandy	PS-210101	7.292948	80.642368	7.767878	80.392666	Madagalla Rd, Alutwegedara, Sri Lanka	59.571687	#CenterFarFromPolice
Kandy	Pallekele	BOI - Pallekele	False	False	KNDYPLLKLBPLLKL		Kandy	LK-21	7.27337	80.709602	Pallekele	PS-210109	7.279688	80.682945	7.2822	80.723134	Kandy Industrial Park, Pallekele, Sri Lanka	4.442965	
Kandy	Pupuressa	Panvilathenna Hospital	False	False	KNDYPPRSSPNVLTHNNHSPTL		Kandy	LK-21	7.27337	80.709602	Pupuressa		7.130291	80.663669	6.91776	79.875828	Dr Danister De Silva Mawatha, Colombo 00800, Sri Lanka	90.129136	#CenterFarFromPolice
Kandy	Pupuressa	4 Delta Estate Hospital	False	False	KNDYPPRSSDLTSTTHSPTL		Kandy	LK-21	7.27337	80.709602	Pupuressa		7.130291	80.663669	7.143589	80.671532	Pupuressa, Sri Lanka	1.714922	
Kandy	Thalathuoya	Gurudeniya Maha Vidyalaya	False	False	KNDYTHLTHYGRDNYMHVDYLY		Kandy	LK-21	7.27337	80.709602	Thalathuoya	PS-210107	7.25166	80.689528	7.272189	80.680297	7MCJ+V4F, Gurudeniya, Sri Lanka	2.500296	
Kandy	Agarapathana	Holbrook Tamil College	False	False	KNDYGRPTHNHLBRKTMLCLLG		Kandy	LK-21	7.27337	80.709602	Agarapathana	PS-230137	6.883809	80.692834	6.882209	80.691793	Dayagama Road, Holbrook Bazzar, Agarapathana, Sri Lanka	0.211866	
Badulla	Bandarawela	MOH Office - Bandarawela	False	False	BDLLBNDRWLMHFFCBNDRWL		Badulla	LK-81	7.074529	81.04486	Bandarawela	PS-810210	6.831526	80.986784	6.841272	80.98482	Hospital Junction Helamuduna Bus Stop, Etampitiya Rd, Bandarawela, Sri Lanka	1.105533	
Badulla	Haldummulla	Haldummulla Hospital	False	False	BDLLHLDMMLLHLDMMLLHSPTL		Badulla	LK-81	7.074529	81.04486	Haldummulla		6.762216	80.885856	6.758168	80.879938	Colombo - Ratnapura - Wellawaya - Batticaloa Rd, Sri Lanka	0.793746	
Badulla	Welimada	MOH Office - Welimada	False	False	BDLLWLMDMHFFCWLMD		Badulla	LK-81	7.074529	81.04486	Welimada	PS-810212	6.900481	80.905809	6.927934	80.896475	Udapussellawa-Welimada Road, Ambagasdowa, Sri Lanka	3.222841	
Badulla	Haputale	MOH Office - Haputale	False	False	BDLLHPTLMHFFCHPTL		Badulla	LK-81	7.074529	81.04486	Haputale	PS-810215	6.767653	80.957218	6.779645	80.964114	QXH7+WC4, Badulla, Sri Lanka	1.536024	
Badulla	Ella	MOH Office - Ella	False	False	BDLLLLMHFFCLL		Badulla	LK-81	7.074529	81.04486	Ella	PS-810211	6.876609	81.048276	6.988514	81.053232	Mediriya Road, Badulla, Sri Lanka	12.459198	
Monaragala	Dambagalla	Kossellpala Primary College	False	False	MNRGLDMBGLLKSSLLPLPRMRYCLLG		Moneragala	LK-82	6.787517	81.303744	Dambagalla	PS-820123	6.978806	81.372037	6.946822	81.342993	W8WV+P5H, Dambagalla, Sri Lanka	4.789518	
Monaragala	Dambagalla	Neelavabedda Primary College	False	False	MNRGLDMBGLLNLVBDDPRMRYCLLG		Moneragala	LK-82	6.787517	81.303744	Dambagalla	PS-820123	6.978806	81.372037	6.946822	81.342993	W8WV+P5H, Dambagalla, Sri Lanka	4.789518	
Monaragala	Badalkumbura	Ranugalla Maha Vidyalaya	False	False	MNRGLBDLKMBRRNGLLMHVDYLY		Moneragala	LK-82	6.787517	81.303744	Badalkumbura	PS-820128	6.889017	81.235441	6.859787	81.177161	V55G+WV7, Badalkumbura, Sri Lanka	7.210482	
Monaragala	Ethimale	Kotiyagala Primary College	False	False	MNRGLTHMLKTYGLPRMRYCLLG		Moneragala	LK-82	6.787517	81.303744	Athimale	PS-820124	6.907289	79.863819	6.772543	81.530065	QGFJ+228, මොණරාගල, Sri Lanka	184.626401	#CenterFarFromPolice
Monaragala	Mahakalugolla	Mahakalugolla Primary College	False	False	MNRGLMHKLGLLMHKLGLLPRMRYCLLG		Moneragala	LK-82	6.787517	81.303744	Mahakalugolla	PS-820133	6.752004	81.79349	6.876612	81.348211	Potuvile Road Colombo - Batticaloa Hwy, Monaragala, Sri Lanka	51.094232	#CenterFarFromPolice
Monaragala	Siyambalanduwa	Siyambalanduwa Maha Vidyalaya	False	False	MNRGLSYMBLNDWSYMBLNDWMHVDYLY		Moneragala	LK-82	6.787517	81.303744	Siyambalanduwa	PS-820122	6.906851	81.547598	6.909655	81.561921	WH56+VQ7, Siyambalanduwa, Sri Lanka	1.612038	
Monaragala	Siyambalanduwa	Dharmavijaya Primary College	False	False	MNRGLSYMBLNDWDHRMVJYPRMRYCLLG		Moneragala	LK-82	6.787517	81.303744	Siyambalanduwa	PS-820122	6.906851	81.547598	6.86108	81.33918	V86Q+CMM, Monaragala, Sri Lanka	23.571542	#CenterFarFromPolice
Matara	Deniyaya	MOH Office - Ketapola	False	False	MTRDNYYMHFFCKTPL		Matara	LK-32	6.142734	80.539994	Deniyaya	PS-320110	6.341435	80.558719	6.327334	80.556547	Deniyaya - Galle Main Rd, Deniyaya, Sri Lanka	1.586725	
Matara	Kekunadura	MOH Office - Kekunadura	False	False	MTRKKNDRMHFFCKKNDR		Matara	LK-32	6.142734	80.539994									#PoliceLocationUnknown
Matara	Matara	MOH Office - Matara	False	False	MTRMTRMHFFCMTR		Matara	LK-32	6.142734	80.539994	Matara	PS-320101	5.94904	80.533659	5.951832	80.538606	XG2Q+PCQ, Matara, Sri Lanka	0.629261	
Matara	Hakmana	MOH Office - Hakmana	False	False	MTRHKMNMHFFCHKMN		Matara	LK-32	6.142734	80.539994	Hakmana	PS-320106	6.084824	80.643227	6.081379	80.641425	3JJR+HH3, Hakmana, Sri Lanka	0.431921	
Matara	Mulatiyana	MOH Office - Mulatiyana	False	False	MTRMLTYNMHFFCMLTYN		Matara	LK-32	6.142734	80.539994									#PoliceLocationUnknown
Matara	Thihagoda	MOH Office - Kirinda	False	False	MTRTHHGDMHFFCKRND		Matara	LK-32	6.142734	80.539994	Thihagoda	PS-320104	6.01331	80.567932	6.046562	80.632236	B630, Sri Lanka	8.017094	
Matara	Kamburupitiya	MOH Office - Kamburupitiya	False	False	MTRKMBRPTYMHFFCKMBRPTY		Matara	LK-32	6.142734	80.539994	Kamburupitiya	PS-320105	6.073875	80.564579	6.06554	80.565998	3H88+699, මාතර, Sri Lanka	0.940292	
Hambantota	Hambantota	MOH Office - Hambantota	False	False	HMBNTTHMBNTTMHFFCHMBNTT		Hambantota	LK-33	6.259779	81.098619	Hambantota	PS-330156	6.125872	81.12521	6.171162	81.127	54CG+FQ9, Hambantota, Sri Lanka	5.041487	
Hambantota	Ambalantota	MOH Office - Ambalantota	False	False	HMBNTTMBLNTTMHFFCMBLNTT		Hambantota	LK-33	6.259779	81.098619	Ambalantota	PS-330157	6.12516	81.023981	6.122767	81.005973	Walawa watta Road, Malpeththawa, Ambalantota, Sri Lanka	2.009195	
Hambantota	Walasmulla	MOH Office - Walasmulla	False	False	HMBNTTWLSMLLMHFFCWLSMLL		Hambantota	LK-33	6.259779	81.098619	Walasmulla	PS-330151	6.154102	80.698256	6.150889	80.693718	Walasmulla, Sri Lanka	0.616099	
Hambantota	Weeraketiya	MOH Office - Weeraketiya	False	False	HMBNTTWRKTYMHFFCWRKTY		Hambantota	LK-33	6.259779	81.098619	Weeraketiya	PS-330149	6.153899	80.76737	6.144703	80.765287	4QV8+V4M, Weeraketiya, Sri Lanka	1.048488	
Hambantota	Katuwana	MOH Office - Katuwana	False	False	HMBNTTKTWNMHFFCKTWN		Hambantota	LK-33	6.259779	81.098619	Katuwana	PS-330153	6.269722	80.690963	6.26627	80.693035	7M8V+G63, Katuwana, Sri Lanka	0.447115	
Hambantota	Angunukolapelessa	MOH Office - Angunukolapelessa	False	False	HMBNTTNGNKLPLSSMHFFCNGNKLPLSS		Hambantota	LK-33	6.259779	81.098619	Angunakolapelessa	PS-330150	6.321993	80.844883	6.164691	80.898963	Unnamed Road, Agunukolapelessa, Sri Lanka	18.490258	
Hambantota	Sooriyawewa	MOH Office - Sooriyawewa	False	False	HMBNTTSRYWWMHFFCSRYWW		Hambantota	LK-33	6.259779	81.098619	Sooriyawewa	PS-330155	6.306022	81.003873	6.304862	81.004768	8233+WWR, Sooriyawewa, Sri Lanka	0.1626	
Hambantota	Beliatta	MOH Office – Beliatta	False	False	HMBNTTBLTTMHFFCBLTT		Hambantota	LK-33	6.259779	81.098619	Beliatta	PS-330152	6.046936	80.735408	6.051828	80.741735	3P2R+PMQ, Hambantota, Sri Lanka	0.886482	
Hambantota	Tangalla	MOH Office – Tangalla	False	False	HMBNTTTNGLLMHFFCTNGLL		Hambantota	LK-33	6.259779	81.098619	Tangalle	PS-330147	6.023954	80.797255	6.02363	80.795742	2QFW+F75, Tangalle, Sri Lanka	0.171198	
Rathnapura	Embilipitiya	Elpitiya Siddhartha Vidyalaya	False	False	RTHNPRMBLPTYLPTYSDDHRTHVDYLY		Ratnapura	LK-91	6.586826	80.566158	Embilipitiya	PS-910237	6.321993	80.844883	6.337086	80.845788	8RPW+R8M, Embilipitiya, Sri Lanka	1.681771	
Rathnapura	Embilipitiya	Hiramadagama Vidyalaya	False	False	RTHNPRMBLPTYHRMDGMVDYLY		Ratnapura	LK-91	6.586826	80.566158	Embilipitiya	PS-910237	6.321993	80.844883	6.543638	80.608191	Pelmadulla - Embilipitiya Hwy, Sri Lanka	35.947428	#CenterFarFromPolice
Rathnapura	Embilipitiya	Demuwawatha Vidyalaya	False	False	RTHNPRMBLPTYDMWWTHVDYLY		Ratnapura	LK-91	6.586826	80.566158	Embilipitiya	PS-910237	6.321993	80.844883	6.504468	80.5818	Demuwawatha Rd, Sri Lanka	35.462296	#CenterFarFromPolice
Rathnapura	Pelmadulla	Niralgala Vidyalaya	False	False	RTHNPRPLMDLLNRLGLVDYLY		Ratnapura	LK-91	6.586826	80.566158	Pelmadulla	PS-910117	6.632692	80.521315	6.620139	80.543979	JGCV+3H5, Pelmadulla, Sri Lanka	2.867044	
Rathnapura	Rathnapura	Bulugahathenna Vidyalaya	False	False	RTHNPRRTHNPRBLGHTHNNVDYLY		Ratnapura	LK-91	6.586826	80.566158	Ratnapura	PS-910101	6.679456	80.40223	6.639937	80.44868	JCQX+XFF, Ratnapura, Sri Lanka	6.757004	
Rathnapura	Rathnapura	Poththakanda Community Hall	False	False	RTHNPRRTHNPRPTHTHKNDCMMNTYHLL		Ratnapura	LK-91	6.586826	80.566158	Ratnapura	PS-910101	6.679456	80.40223	6.701381	80.367479	PNR Hwy, Ratnapura, Sri Lanka	4.548125	
Rathnapura	Rathnapura	Peralanda Vidyalaya	False	False	RTHNPRRTHNPRPRLNDVDYLY		Ratnapura	LK-91	6.586826	80.566158	Ratnapura	PS-910101	6.679456	80.40223	6.67386	80.405688	Ratnapura 70000, Sri Lanka	0.730326	
Rathnapura	Rathnapura	Thakshila Vidyalaya	False	False	RTHNPRRTHNPRTHKSHLVDYLY		Ratnapura	LK-91	6.586826	80.566158	Ratnapura	PS-910101	6.679456	80.40223	6.666509	80.422411	Hakamuwa Rd, Ratnapura, Sri Lanka	2.654174	
Rathnapura	Rathnapura	Marapana Vidyalaya	False	False	RTHNPRRTHNPRMRPNVDYLY		Ratnapura	LK-91	6.586826	80.566158	Ratnapura	PS-910101	6.679456	80.40223	6.658956	80.42987	Marapana, Sri Lanka	3.811006	
Rathnapura	Eheliyagoda	Meegaswala Viharaya	False	False	RTHNPRHLYGDMGSWLVHRY		Ratnapura	LK-91	6.586826	80.566158	Ehaliyagoda	PS-910113	6.854603	80.260446	6.837826	80.25932	R7Q5+4PP, Eheliyagoda, Sri Lanka	1.870242	
Rathnapura	Yatiyantota	Veeoya Vidyalaya	False	False	RTHNPRYTYNTTVYVDYLY		Ratnapura	LK-91	6.586826	80.566158	Yatiyantota	PS-920230	7.027207	80.290753	6.682615	80.39899	Vinisuru Mw, රත්නපුර 70000, Sri Lanka	40.149497	#CenterFarFromPolice
Kegalle	Yatiyantota	Parussella YNP Hotel	False	False	KGLLYTYNTTPRSSLLYNPHTL		Kegalle	LK-92	7.104216	80.342866	Yatiyantota	PS-920230	7.027207	80.290753	7.032767	80.313547	28M7+4C3, Pahala Parussella, Sri Lanka	2.591195	
Kegalle	Anuradhapura	Anuradhapura Army Hopital	False	False	KGLLNRDHPRNRDHPRRMYHPTL		Kegalle	LK-92	7.104216	80.342866	Anuradapura	PS-710101	8.329752	80.407265	8.338302	80.407646	AB02, Anuradhapura, Sri Lanka	0.951939	
Kegalle	Nelliyady	MOH Office - Karaveddy	False	False	KGLLNLLYDYMHFFCKRVDDY		Kegalle	LK-92	7.104216	80.342866	Nelliadi	PS-410108	9.778397	80.113303	9.792126	80.201799	Q6R2+VP3, Point Pedro, Sri Lanka	9.819656	
Jaffna	Point Pedro	MOH Office - Point Pedro	False	False	JFFNPNTPDRMHFFCPNTPDR		Jaffna	LK-41	9.691792	80.098594	Point Pedro	PS-410106	9.827018	80.233187	9.805763	80.222952	R64F+854, Point Pedro, Sri Lanka	2.616722	
Kilinochchi	Mulankavil	Mulankavil Hospital	False	False	KLNCHCHMLNKVLMLNKVLHSPTL		Kilinochchi	LK-45	9.415742	80.30358	Mulankavil	PS-450135	9.254463	80.141528	9.243423	80.143894	Base Hospital Mulankavil, A32 Road, Mulankavil, Kumulamunai, Sri Lanka	1.255148	
Kilinochchi	Pooneryn	MOH Office – Pooneryn	False	False	KLNCHCHPNRYNMHFFCPNRYN		Kilinochchi	LK-45	9.415742	80.30358	Pooneryn		9.505717	80.21101	9.507968	80.208317	G655+58P, Pooneryn, Sri Lanka	0.387256	
Kilinochchi	Kilinochchi	MOH Office – Karachchi	False	False	KLNCHCHKLNCHCHMHFFCKRCHCH		Kilinochchi	LK-45	9.415742	80.30358	Kilinochchi	PS-450131	9.392265	80.407846	7.683586	81.730767	MPMJ+C8J, Kattankudy, Sri Lanka	239.363691	#CenterFarFromPolice
Kilinochchi	Palei	MOH Office – Palei	False	False	KLNCHCHPLMHFFCPL		Kilinochchi	LK-45	9.415742	80.30358	Palei	PS-450132	6.900777	79.872638	9.610611	80.328165	Office of the Medical Officer for Health, Pallai Pradwshasaba, A9, Pachchilapalli, Sri Lanka	305.555993	#CenterFarFromPolice
Kilinochchi	Dharmapuram	MOH Office – Kandavalai	False	False	KLNCHCHDHRMPRMMHFFCKNDVL		Kilinochchi	LK-45	9.415742	80.30358	Dharmapuram	PS-450136	6.873107	79.86167	9.411006	80.516427	Parantan-Mullaitivu Hwy, Sri Lanka	291.349257	#CenterFarFromPolice
Trincomalee	Muttur	MOH Office – Muttur	False	False	TRNCMLMTTRMHFFCMTTR		Trincomalee	LK-53	8.551241	81.092014	Mutur	PS-530138	8.461133	81.259371	8.453916	81.264494	1 Old Batticaloa Rd, Mutur, Sri Lanka	0.980859	
Trincomalee	Kinniya	MOH Office - Kurungnakeni	False	False	TRNCMLKNNYMHFFCKRNGNKN		Trincomalee	LK-53	8.551241	81.092014	Kinnia	PS-530140	6.907289	79.863819	7.484932	80.353119	F9M3+X6H, Kurunegala 60000, Sri Lanka	83.927094	#CenterFarFromPolice
Trincomalee	Kinniya	Surangal Rural Health Medical Cente	False	False	TRNCMLKNNYSRNGLRRLHLTHMDCLCNT		Trincomalee	LK-53	8.551241	81.092014	Kinnia	PS-530140	6.907289	79.863819	8.56486	81.239445	Hospital Ln, Trincomalee, Sri Lanka	238.702981	#CenterFarFromPolice
Trincomalee	Kinniya	Base Hospital – Kinniya	False	False	TRNCMLKNNYBSHSPTLKNNY		Trincomalee	LK-53	8.551241	81.092014	Kinnia	PS-530140	6.907289	79.863819	8.501539	81.187539	Tampalakamam-Kinniya Rd, Kinniya 31100, Sri Lanka	229.636589	#CenterFarFromPolice
Trincomalee	Kinniya	MOH Office – Kinniya	False	False	TRNCMLKNNYMHFFCKNNY		Trincomalee	LK-53	8.551241	81.092014	Kinnia	PS-530140	6.907289	79.863819	8.498696	81.179644	F5XH+FVC, Kinniya 31100, Sri Lanka	228.840304	#CenterFarFromPolice
Trincomalee	Sripura	MOH Office – Sripura	False	False	TRNCMLSRPRMHFFCSRPR		Trincomalee	LK-53	8.551241	81.092014	Sripura	PS-530136	8.929617	80.81428	8.926697	80.814799	Padavi Sripura, Padaviya - Sripura Road, Welioya, Sri Lanka	0.329869	
Trincomalee	Kuchchaveli	MOH Office - Kuchchaveli	False	False	TRNCMLKCHCHVLMHFFCKCHCHVL		Trincomalee	LK-53	8.551241	81.092014	Kuchchaweli	PS-530133	8.81895	81.100438	8.740082	81.161616	P5R6+2JQ, Kumpurupiddi, Sri Lanka	11.053646	
Trincomalee	Kuchchaveli	Divisional Hospital - Kuchchaveli	False	False	TRNCMLKCHCHVLDVSNLHSPTLKCHCHVL		Trincomalee	LK-53	8.551241	81.092014	Kuchchaweli	PS-530133	8.81895	81.100438	8.814795	81.102358	R472+WW9, Kuchchaveli, Sri Lanka	0.508064	
Trincomalee	Kuchchaveli	Divisional Hospital - Nilaveli	False	False	TRNCMLKCHCHVLDVSNLHSPTLNLVL		Trincomalee	LK-53	8.551241	81.092014	Kuchchaweli	PS-530133	8.81895	81.100438	8.681035	81.193632	M5JV+CF6, Nilaveli, Sri Lanka	18.44695	
Trincomalee	Pulmoddai	Base Hospital - Pulmoddai	False	False	TRNCMLPLMDDBSHSPTLPLMDD		Trincomalee	LK-53	8.551241	81.092014	Pulmudai	PS-530135	6.915266	79.87829	8.941204	80.983139	WXRM+F7J, Pulmoddai, Sri Lanka	256.112801	#CenterFarFromPolice
Trincomalee	Serunuwara	MOH Office - Serunuwara	False	False	TRNCMLSRNWRMHFFCSRNWR		Trincomalee	LK-53	8.551241	81.092014	Serunuwara	PS-530244	8.321863	81.299322	8.323143	81.299894	B10, Sri Lanka	0.155671	
Trincomalee	Harbour Police	MOH Office - Trincomalee	False	False	TRNCMLHRBRPLCMHFFCTRNCML		Trincomalee	LK-53	8.551241	81.092014	Trinco Harbour Police	PS-530131	8.56705	81.231407	8.598974	81.216963	MOH Office, Farm Rd, Trincomalee, Sri Lanka	3.890062	
Trincomalee	Harbour Police	Base Hospital - Trincomalee	False	False	TRNCMLHRBRPLCBSHSPTLTRNCML		Trincomalee	LK-53	8.551241	81.092014	Trinco Harbour Police	PS-530131	8.56705	81.231407	8.56486	81.239445	Hospital Ln, Trincomalee, Sri Lanka	0.917037	
Trincomalee	Uppuveli	MOH Office - Uppuveli	False	False	TRNCMLPPVLMHFFCPPVL		Trincomalee	LK-53	8.551241	81.092014	Uppuweli	PS-530134	8.593614	81.21743	8.607961	81.216512	Nilaveli Rd, Trincomalee, Sri Lanka	1.599005	
Trincomalee	Kantale	MOH Office - Kantale	False	False	TRNCMLKNTLMHFFCKNTL		Trincomalee	LK-53	8.551241	81.092014	Kantale	PS-530241	8.356129	81.007739	8.349617	81.009107	අග්‍රබෝධි මාවත, Kantale, Sri Lanka	0.739809	
Trincomalee	Ichchalampattu	MOH Office - Ichchalampattu	False	False	TRNCMLCHCHLMPTTMHFFCCHCHLMPTT	Eachchilampattu Hospital	Trincomalee	LK-53	8.551241	81.092014	Ichchalampattu		8.289549	81.359002	8.289644	81.358983	Highway, Ichchalampattu, Trincomalee, Sri Lanka	0.010772	
Trincomalee	Thambalagamuwa	MOH Office - Thambalagamuwa	False	False	TRNCMLTHMBLGMWMHFFCTHMBLGMW		Trincomalee	LK-53	8.551241	81.092014	Thambalagamuva	PS-530243	6.907289	79.863819	8.563603	81.239584	Hospital Ln, Trincomalee, Sri Lanka	238.604889	#CenterFarFromPolice
Trincomalee	Vavunathivu	GTM Vidyalaya	False	False	TRNCMLVVNTHVGTMVDYLY		Trincomalee	LK-53	8.551241	81.092014	Vavunathive	PS-510102	6.933075	79.857181	8.603975	81.211514	School Ln, Trincomalee, Sri Lanka	238.366205	#CenterFarFromPolice
Trincomalee	Vavunathivu	Kannanakuda Maha Vidyalaya	False	False	TRNCMLVVNTHVKNNNKDMHVDYLY		Trincomalee	LK-53	8.551241	81.092014	Vavunathive	PS-510102	6.933075	79.857181	8.603975	81.211514	School Ln, Trincomalee, Sri Lanka	238.366205	#CenterFarFromPolice
Trincomalee	Vavunathivu	Karayakanthiuv Hanesar Vidyalaya	False	False	TRNCMLVVNTHVKRYKNTHVHNSRVDYLY		Trincomalee	LK-53	8.551241	81.092014	Vavunathive	PS-510102	6.933075	79.857181					#CenterLocationUnknown
Trincomalee	Eravur	MOH Office – Eravur	False	False	TRNCMLRVRMHFFCRVR		Trincomalee	LK-53	8.551241	81.092014	Eravur	PS-510104	7.715979	81.698757	7.783664	81.605626	QJM4+F76, Eravur, Sri Lanka	12.729342	
Trincomalee	Eravur	Eravur Hospital	False	False	TRNCMLRVRRVRHSPTL		Trincomalee	LK-53	8.551241	81.092014	Eravur	PS-510104	7.715979	81.698757	7.783168	81.605999	QJM4+799, Eravur 30300, Sri Lanka	12.663585	
Trincomalee	Eravur	MOH Office - Chenkaladi	False	False	TRNCMLRVRMHFFCCHNKLD		Trincomalee	LK-53	8.551241	81.092014	Eravur	PS-510104	7.715979	81.698757	7.783599	81.593367	Trincomalee Hwy, Chenkaladi 30350, Sri Lanka	13.837876	
Trincomalee	Eravur	MOH Office - Kiran	False	False	TRNCMLRVRMHFFCKRN		Trincomalee	LK-53	8.551241	81.092014	Eravur	PS-510104	7.715979	81.698757	7.502211	79.839254	GR2Q+VPJ, Madampe, Sri Lanka	206.38493	#CenterFarFromPolice
Ampara	Chavalakade	MOH Office - Navidanveli	False	False	MPRCHVLKDMHFFCNVDNVL		Ampara	LK-52	7.23699	81.550391	Chawalakade	PS-520125	7.413559	81.776822	7.420081	81.788401	B77, Sri Lanka	1.468805	
Ampara	Karaitivu	MOH Office – Karaitivu	False	False	MPRKRTVMHFFCKRTV		Ampara	LK-52	7.23699	81.550391	Karaitivu		9.744059	79.870587	7.377712	81.838796	Colombo-Ratnapura-Wellawaya-Batticaloa Highway, Karativu 32250, Sri Lanka	340.788666	#CenterFarFromPolice
Ampara	Kalmunai	Ashraff Memorial Hospital	False	False	MPRKLMNSHRFFMMRLHSPTL		Ampara	LK-52	7.23699	81.550391	Kalmunai	PS-520123	7.414289	81.825006	7.403172	81.831146	A4, Ashraff Memorial Base Hospital, A4 A4, Kalmunai 32300, Sri Lanka	1.409859	
Ampara	Kalmunai	MOH Office - Kalmunai North	False	False	MPRKLMNMHFFCKLMNNRTH		Ampara	LK-52	7.23699	81.550391	Kalmunai	PS-520123	7.414289	81.825006	7.411712	81.838462	CR6Q+M9P, Kalmunai 32300, Sri Lanka	1.511625	
Ampara	Kalmunai	MOH Office - Kalmunai South	False	False	MPRKLMNMHFFCKLMNSTH		Ampara	LK-52	7.23699	81.550391	Kalmunai	PS-520123	7.414289	81.825006	7.411712	81.838462	CR6Q+M9P, Kalmunai 32300, Sri Lanka	1.511625	
Ampara	Sainthamarthu	MOH Office – Sainthamarthu	False	False	MPRSNTHMRTHMHFFCSNTHMRTH		Ampara	LK-52	7.23699	81.550391									#PoliceLocationUnknown
Ampara	Sainthamarthu	Saindamarthu Hospital	False	False	MPRSNTHMRTHSNDMRTHHSPTL		Ampara	LK-52	7.23699	81.550391									#PoliceLocationUnknown
Ampara	Sammanthurai	Sammanthurai Base Hospital	False	False	MPRSMMNTHRSMMNTHRBSHSPTL		Ampara	LK-52	7.23699	81.550391	Samanthurai	PS-520124	7.365785	81.810859	7.368355	81.813042	9R96+MWM, Hospital Rd, Sammanthurai, Sri Lanka	0.373773	
Ampara	Sammanthurai	MOH Office – Nintavur	False	False	MPRSMMNTHRMHFFCNNTVR		Ampara	LK-52	7.23699	81.550391	Samanthurai	PS-520124	7.365785	81.810859	7.352821	81.856939	Hospital Rd, Nintavur 32340, Sri Lanka	5.283925	
Ampara	Sammanthurai	MOH Office - Sammanthurai	False	False	MPRSMMNTHRMHFFCSMMNTHR		Ampara	LK-52	7.23699	81.550391	Samanthurai	PS-520124	7.365785	81.810859	7.369857	81.812264	9R96+WWR, Sammanthurai, Sri Lanka	0.478712	
Ampara	Thirukkovil	MOH Office – Thirukkovil	False	False	MPRTHRKKVLMHFFCTHRKKVL		Ampara	LK-52	7.23699	81.550391	Thirukkovil	PS-520127	7.113998	81.852219	7.111635	81.852892	Central Rd, Vinayagapuram, Sri Lanka	0.273131	
Ampara	Thirukkovil	Thirukkovil Hospital	False	False	MPRTHRKKVLTHRKKVLHSPTL		Ampara	LK-52	7.23699	81.550391	Thirukkovil	PS-520127	7.113998	81.852219	7.115713	81.851887	4V82+7QJ, Thirukkovil, Sri Lanka	0.194247	
Ampara	Akkaraipattu	MOH Office – Addalachenai	False	False	MPRKKRPTTMHFFCDDLCHN		Ampara	LK-52	7.23699	81.550391	Akkaraipattu	PS-520126	7.216084	81.853254	7.260916	81.853493	7V63+999, Addalaichenai, Sri Lanka	4.986726	
Ampara	Akkaraipattu	MOH Office - Akkaraipattu	False	False	MPRKKRPTTMHFFCKKRPTT		Ampara	LK-52	7.23699	81.550391	Akkaraipattu	PS-520126	7.216084	81.853254	7.228134	81.851123	6VH2+7C5, Akkaraipattu, Sri Lanka	1.360772	
Ampara	Pottuvil	MOH Office - Lahugala	False	False	MPRPTTVLMHFFCLHGL		Ampara	LK-52	7.23699	81.550391	Pothuvil	PS-520128	6.878387	81.826859	6.880658	81.765015	VQJ8+726, Sangamuwa, Sri Lanka	6.834041	
Ampara	Pottuvil	MOH Office - Pottuvil	False	False	MPRPTTVLMHFFCPTTVL		Ampara	LK-52	7.23699	81.550391	Pothuvil	PS-520128	6.878387	81.826859	6.877076	81.828969	B374, Pottuvil, Sri Lanka	0.274874	
