district	police	center	dose1	dose2	fuzzy_key	alt_name	district_name_norm	district_id	district_lat	district_lng	ps_name_norm	ps_id	ps_lat	ps_lng	lat	lng	formatted_address	dis_center_to_police	tags
Colombo	Cinnamon Gardens	Viharamahadevi Park	False	False	CLMBCNNMNGRDNSVHRMHDVPRK		Colombo	LK-11	6.869636	80.019598	Cinnamon Garden	PS-110324	6.907289	79.863819	6.913391	79.86174	Viharamahadevi Park, Colombo, Sri Lanka	0.716497	
Colombo	Thalangama	Diyatha Uyana	False	False	CLMBTHLNGMDYTHYN		Colombo	LK-11	6.869636	80.019598	Thalangama	PS-110466	6.91089	79.929325	6.904575	79.909831	Diyatha Uyana, B240, Sri Jayawardenepura Kotte, Sri Lanka	2.264281	
Colombo	Grandpass	Sugathadasa Outdoor Stadium	False	False	CLMBGRNDPSSSGTHDSTDRSTDM		Colombo	LK-11	6.869636	80.019598	Grandpass	PS-110215	6.949052	79.872983	6.94806	79.868842	Prince of Wales Ave, Colombo 01400, Sri Lanka	0.470345	
Colombo	Narahenpita	Army Hospital Narahenpita	False	False	CLMBNRHNPTRMYHSPTLNRHNPT		Colombo	LK-11	6.869636	80.019598	Narahenpita	PS-110321	6.891832	79.876715	6.900252	79.87618	08 Elvitigala Mawatha, Colombo 00800, Sri Lanka	0.938417	
Colombo	Boralesgamuwa	Kotelawala Defence Hospital	False	False	CLMBBRLSGMWKTLWLDFNCHSPTL		Colombo	LK-11	6.869636	80.019598	Boralesgamuwa	PS-110464	6.841331	79.901255	6.82518	79.907167	RWG4+3VF, Boralesgamuwa, Sri Lanka	1.911444	
Colombo	Homagama	Panagoda Bodhirajarama Viharaya	False	False	CLMBHMGMPNGDBDHRJRMVHRY		Colombo	LK-11	6.869636	80.019598	Homagama	PS-110470	6.836155	80.003474	6.929161	79.88265	Gnanawimala Rd, Colombo, Sri Lanka	16.883101	
Colombo	Borella	Campbell Park	False	False	CLMBBRLLCMPBLLPRK		Colombo	LK-11	6.869636	80.019598	Borella	PS-110323	6.915266	79.87829	6.920163	79.877108	Campbell Park, Colombo, Sri Lanka	0.560111	
Colombo	Kirulapana	Shalika Hall	False	False	CLMBKRLPNSHLKHLL		Colombo	LK-11	6.869636	80.019598	Kirulapone	PS-110319	6.878122	79.874159	6.888367	79.87339	Park Rd, Colombo 00500, Sri Lanka	1.142709	
Colombo	Maradana	Forbes Road Community Hall	False	False	CLMBMRDNFRBSRDCMMNTYHLL		Colombo	LK-11	6.869636	80.019598	Maradana	PS-110107	6.927939	79.865471	6.876704	79.879161	00600, Mugalan Rd, Colombo 00600, Sri Lanka	5.895952	
Colombo	Maradana	National Hospital - Colombo	False	False	CLMBMRDNNTNLHSPTLCLMB		Colombo	LK-11	6.869636	80.019598	Maradana	PS-110107	6.927939	79.865471	6.918743	79.868992	Colombo 00700, Sri Lanka	1.094265	
Colombo	Fort	Navy Headquarters	False	False	CLMBFRTNVYHDQRTRS		Colombo	LK-11	6.869636	80.019598	Fort	PS-110105	6.9334	79.842895	6.936952	79.842104	WRPR+QRQ, Colombo, Sri Lanka	0.404627	
Colombo	Wellawatta	Roxy Gardens Premises	False	False	CLMBWLLWTTRXYGRDNSPRMSS		Colombo	LK-11	6.869636	80.019598	Wellawatta	PS-110320	6.873107	79.86167	6.863747	79.862088	Dehiwala Canal, Colombo, Sri Lanka	1.042134	
Colombo	Fore shore	MOH Office - Jinthupitiya	False	False	CLMBFRSHRMHFFCJNTHPTY		Colombo	LK-11	6.869636	80.019598	Fore shore	PS-110210	6.949589	79.857355	6.943258	79.859238	No.27 Vivekananda Hill, Colombo 01300, Sri Lanka	0.734247	
Colombo	Padukka	Padukka Health Centre	False	False	CLMBPDKKPDKKHLTHCNTR		Colombo	LK-11	6.869636	80.019598	Padukka	PS-110473	6.842195	80.09247	6.855303	80.089606	Avissawella Rd, Padukka, Sri Lanka	1.491913	
Colombo	Kosgama	Kosgama Hospital	False	False	CLMBKSGMKSGMHSPTL		Colombo	LK-11	6.869636	80.019598	Kosgama	PS-920227	6.946597	80.137869	6.940956	80.124888	Salawa-Akarawita, 10730, Sri Lanka	1.564606	
Gampaha	Minuwangoda	Minuwangoda Rajamaha Viharaya	False	False	GMPHMNWNGDMNWNGDRJMHVHRY		Gampaha	LK-12	7.123598	80.018508	Minuwangoda	PS-120238	7.174215	79.957874	7.169433	79.952577	5X93+Q2G, Minuwangoda, Sri Lanka	0.790346	
Gampaha	Kiribathgoda	Dalugama Clinic	False	False	GMPHKRBTHGDDLGMCLNC		Gampaha	LK-12	7.123598	80.018508	Kiribathgoda	PS-120135	6.978005	79.929433	6.980847	79.929943	XWJH+8XP, Kiribathgoda, Sri Lanka	0.321091	
Gampaha	Nittambuwa	Sangabodhi Central College	False	False	GMPHNTTMBWSNGBDHCNTRLCLLG		Gampaha	LK-12	7.123598	80.018508	Nittambuwa	PS-120246	7.149726	80.10046	7.132766	80.082302	A1, Nittambuwa, Sri Lanka	2.752256	
Gampaha	Nittambuwa	Urapola Central College	False	False	GMPHNTTMBWRPLCNTRLCLLG		Gampaha	LK-12	7.123598	80.018508	Nittambuwa	PS-120246	7.149726	80.10046	7.098949	80.144672	No. 280, Nittambuwa - Ruwanwella Rd, Urapola, Sri Lanka	7.463959	
Gampaha	Mirigama	Kadangamuwa Viharaya	False	False	GMPHMRGMKDNGMWVHRY		Gampaha	LK-12	7.123598	80.018508	Meerigama	PS-120248	7.245169	80.128647	7.255321	80.12423	744F+4MH, Mirigama, Sri Lanka	1.229893	
Gampaha	Gampaha	Pahalagama Viharaya	False	False	GMPHGMPHPHLGMVHRY		Gampaha	LK-12	7.123598	80.018508	Gampaha	PS-120237	7.087765	80.01228	7.08886	79.986232	Gampaha, Sri Lanka	2.877749	
Gampaha	Gampaha	MOH Office - Gampaha	False	False	GMPHGMPHMHFFCGMPH		Gampaha	LK-12	7.123598	80.018508	Gampaha	PS-120237	7.087765	80.01228	7.090643	80.002094	Colombo Rd, Gampaha, Sri Lanka	1.16901	
Gampaha	Pugoda	MOH Office – Dompe	False	False	GMPHPGDMHFFCDMP		Gampaha	LK-12	7.123598	80.018508	Pugoda	PS-120241	6.98283	80.111189	6.976767	80.117422	Dompe, Pugoda-Mandawala Rd, Pugoda, Sri Lanka	0.963513	
Gampaha	Raddolugama	Raddolugama Community Hall	False	False	GMPHRDDLGMRDDLGMCMMNTYHLL		Gampaha	LK-12	7.123598	80.018508	Raddolugama	PS-120357	7.140613	79.900249	7.141161	79.901472	Katunayake 11400, Sri Lanka	0.148149	
Gampaha	Katana	MOH Office - Katana	False	False	GMPHKTNMHFFCKTN		Gampaha	LK-12	7.123598	80.018508	Katana	PS-120360	7.224796	79.880015	7.22436	79.88271	Katana, Negombo - Mirigama Rd, Negombo, Sri Lanka	0.301313	
Gampaha	Kadawata	Kadawata Maha Vidyalaya	False	False	GMPHKDWTKDWTMHVDYLY		Gampaha	LK-12	7.123598	80.018508	Kadawatha	PS-120136	7.00152	79.95003	7.012507	79.953464	Kadawatha - Ganemulla Rd, Kadawatha, Sri Lanka	1.279535	
Gampaha	Weliweriya	Henegama Vidyalaya	False	False	GMPHWLWRYHNGMVDYLY		Gampaha	LK-12	7.123598	80.018508	Weliweriya	PS-120244	7.03451	80.026114	7.018723	80.048952	Weliweriya - Kirindiwela Rd, Henegama 11715, Sri Lanka	3.072438	
Gampaha	Negombo	Town Hall - Negombo	False	False	GMPHNGMBTWNHLLNGMB		Gampaha	LK-12	7.123598	80.018508	Negombo	PS-120351	7.224796	79.880015	7.206667	79.851863	Negombo, Sri Lanka	3.703623	
Gampaha	Negombo	Kamachchoda Community Hall	False	False	GMPHNGMBKMCHCHDCMMNTYHLL		Gampaha	LK-12	7.123598	80.018508	Negombo	PS-120351	7.224796	79.880015	7.146959	79.832955	4RWM+Q5P, Negombo, Sri Lanka	10.095905	
Gampaha	Divulapitiya	Gnanada Maha Vidyalaya	False	False	GMPHDVLPTYGNNDMHVDYLY		Gampaha	LK-12	7.123598	80.018508	Diulapitiya	PS-120355	7.174215	79.957874	7.224837	80.015468	B22, Divulapitiya, Sri Lanka	8.491111	
Gampaha	Divulapitiya	MOH Office - Divulapitiya	False	False	GMPHDVLPTYMHFFCDVLPTY		Gampaha	LK-12	7.123598	80.018508	Diulapitiya	PS-120355	7.174215	79.957874	7.215486	80.013606	6287+5CX, Divulapitiya, Sri Lanka	7.67456	
Gampaha	Ja Ela	MOH Office - Ja Ela	False	False	GMPHJLMHFFCJL		Gampaha	LK-12	7.123598	80.018508	Ja - Ela	PS-120133	7.081055	79.890504	7.075216	79.893879	60 Mount Kalvary Rd, Ja-Ela, Sri Lanka	0.748731	
Gampaha	Wattala	MOH Office – Wattala	False	False	GMPHWTTLMHFFCWTTL		Gampaha	LK-12	7.123598	80.018508	Wattala	PS-120128	6.993713	79.894506	6.995817	79.885793	301 Hendala Rd, Wattala, Sri Lanka	0.989991	
Gampaha	Ragama	MOH Office – Ragama	False	False	GMPHRGMMHFFCRGM		Gampaha	LK-12	7.123598	80.018508	Ragama	PS-120134	7.034975	79.924148	7.027386	79.920232	2WGC+X35, Ragama, Sri Lanka	0.948382	
Gampaha	Ingiriya	Ingiriya Hospital	False	False	GMPHNGRYNGRYHSPTL		Gampaha	LK-12	7.123598	80.018508	Ingiriya	PS-130193	6.743614	80.175077	6.741133	80.162046	Panadura-Nambapana-Ratnapura Hwy, Ingiriya, Sri Lanka	1.465626	
Gampaha	Thebuwana	Divisional Hospital - Neboda	False	False	GMPHTHBWNDVSNLHSPTLNBD		Gampaha	LK-12	7.123598	80.018508	Thebuwana	PS-1302105	6.654997	80.058183	6.570354	80.073048	wellatha Neboda ., Neboda - Wellatha Rd, Sri Lanka	9.557015	
Gampaha	Dodangoda	MOH Office - Dodangoda	False	False	GMPHDDNGDMHFFCDDNGD		Gampaha	LK-12	7.123598	80.018508	Dodangoda	PS-130299	6.553375	80.023569	6.540312	80.036609	G2RP+4JH, Sri Lanka	2.046366	
Gampaha	Dodangoda	Dodangoda Hospital	False	False	GMPHDDNGDDDNGDHSPTL		Gampaha	LK-12	7.123598	80.018508	Dodangoda	PS-130299	6.553375	80.023569	6.540961	80.036553	Wilpatha Rd, Sri Lanka	1.991373	
Gampaha	Matugama	MOH Office - Matugama	False	False	GMPHMTGMMHFFCMTGM		Gampaha	LK-12	7.123598	80.018508	Mathugama	PS-1302103	6.520881	80.117908	6.523544	80.126443	G4FG+CH8, Matugama, Sri Lanka	0.988725	
Gampaha	Matugama	Katugahahena Hospital	False	False	GMPHMTGMKTGHHNHSPTL		Gampaha	LK-12	7.123598	80.018508	Mathugama	PS-1302103	6.520881	80.117908	6.489328	80.08471	F3QM+PVP, Bopitiya, Sri Lanka	5.077192	
Gampaha	Agalawatta	Veyangalla Muslim Vidyalaya	False	False	GMPHGLWTTVYNGLLMSLMVDYLY		Gampaha	LK-12	7.123598	80.018508	Agalawatta		6.542566	80.157178	7.131975	80.090553	Orchard Watta Rd, Nittambuwa, Sri Lanka	65.971473	#CenterFarFromPolice
Gampaha	Agalawatta	Bodyline Garment - Pimbura	False	False	GMPHGLWTTBDYLNGRMNTPMBR		Gampaha	LK-12	7.123598	80.018508	Agalawatta		6.542566	80.157178	6.732091	80.106219	BODYLINE (PVT) LTD, Ratnapura Road, Horana 12400, Sri Lanka	21.819724	#CenterFarFromPolice
Gampaha	Meegahathenna	Meegahathenna Vidyarama Pirivena	False	False	GMPHMGHTHNNMGHTHNNVDYRMPRVN		Gampaha	LK-12	7.123598	80.018508	Meegahathenna	PS-1302107	6.436941	80.1943	6.439375	80.190739	C5QR+P7X, Meegahathenna, Sri Lanka	0.477714	
Gampaha	Wadduwa	Daladawatta Viharaya	False	False	GMPHWDDWDLDWTTVHRY		Gampaha	LK-12	7.123598	80.018508	Wadduwa	PS-130188	6.664403	79.929851	6.676675	79.930885	Thalpitiya, Wadduwa, Sri Lanka	1.369784	
Gampaha	Aluthgama	MOH Office - Aluthagama	False	False	GMPHLTHGMMHFFCLTHGM		Gampaha	LK-12	7.123598	80.018508	Aluthgama	PS-1302100	6.432842	79.998032	6.437559	79.999356	CXQX+2PH, Aluthgama, Sri Lanka	0.544697	
Gampaha	Moragahathenna	Kumbuka Primary School	False	False	GMPHMRGHTHNNKMBKPRMRYSCHL		Gampaha	LK-12	7.123598	80.018508	Moragahahena	PS-130194	6.78584	80.065221	7.213165	79.985085	6X7P+728, Gampaha, Sri Lanka	48.347616	#CenterFarFromPolice
Gampaha	Horana	Base Hospital - Horana	False	False	GMPHHRNBSHSPTLHRN		Gampaha	LK-12	7.123598	80.018508	Horana	PS-130192	6.714613	80.069091	6.710644	80.066589	Hospital Ln, Horana, Sri Lanka	0.520853	
Gampaha	Baduraliya	Baduraliya Hospital	False	False	GMPHBDRLYBDRLYHSPTL		Gampaha	LK-12	7.123598	80.018508	Baduraliya	PS-1302106	6.516756	80.226716	6.514727	80.232731	Tiruwanaketiya-Agalawatte Rd, Baduraliya, Sri Lanka	0.702098	
Gampaha	Baduraliya	Morapitiya Health Centre	False	False	GMPHBDRLYMRPTYHLTHCNTR		Gampaha	LK-12	7.123598	80.018508	Baduraliya	PS-1302106	6.516756	80.226716	6.913326	79.948755	106A Parakrama Mawatha, Malabe, Sri Lanka	53.745233	#CenterFarFromPolice
Gampaha	Bandragama	Maithri Hall - Bandaragama	False	False	GMPHBNDRGMMTHRHLLBNDRGM		Gampaha	LK-12	7.123598	80.018508	Bandaragama	PS-130189	6.715179	79.987674	6.713508	79.990766	PX7R+C82, Bandaragama, Sri Lanka	0.388859	
Gampaha	Panadura	Walana Mahanama Vidyalaya	False	False	GMPHPNDRWLNMHNMVDYLY		Gampaha	LK-12	7.123598	80.018508	Panadura North		6.756309	79.898939	6.725782	79.907808	PWG5+847, Panadura, Sri Lanka	3.534017	
Gampaha	Panadura	Sumangala Boys' School - Panadura	False	False	GMPHPNDRSMNGLBYSSCHLPNDR		Gampaha	LK-12	7.123598	80.018508	Panadura North		6.756309	79.898939	6.710155	79.914215	Sri Sumangala College, Panadura 12500, Sri Lanka	5.403916	
Gampaha	Panadura	Malamalla Viharaya	False	False	GMPHPNDRMLMLLVHRY		Gampaha	LK-12	7.123598	80.018508	Panadura North		6.756309	79.898939	7.113799	80.135467	Nittambuwa - Ruwanwella Rd, Sri Lanka	47.573192	#CenterFarFromPolice
Kurunegala	Rasnayakapura	Muti Task Centre - Halambe	False	False	KRNGLRSNYKPRMTTSKCNTRHLMB		Kurunegala	LK-61	7.66477	80.23677	Rasnayakapura	PS-610323	7.776658	80.012692	7.813648	80.025546	Halambe, Sri Lanka	4.351413	
Kurunegala	Polgahawela	MOH Office - Polgahawela	False	False	KRNGLPLGHWLMHFFCPLGHWL		Kurunegala	LK-61	7.66477	80.23677	Polgahawela	PS-610102	7.333281	80.300363	7.330938	80.29484	06 A6, Polgahawela, Sri Lanka	0.662694	
Kurunegala	Kobeigane	Pubbiliya Community Hall	False	False	KRNGLKBGNPBBLYCMMNTYHLL		Kurunegala	LK-61	7.66477	80.23677	Kobeigane	PS-610321	7.656934	80.126283	7.481465	80.35357	F9J3+HCP, Kurunegala, Sri Lanka	31.764319	#CenterFarFromPolice
Kurunegala	Kobeigane	Jiffy Coir Factory - Kobeigane	False	False	KRNGLKBGNJFFYCRFCTRYKBGN		Kurunegala	LK-61	7.66477	80.23677	Kobeigane	PS-610321	7.656934	80.126283	7.71226	80.121419	P46C+WH3, Nikaweratiya, Sri Lanka	6.177214	
Kurunegala	Giribawa	Hettiarachchigama Vidyalaya	False	False	KRNGLGRBWHTTRCHCHGMVDYLY		Kurunegala	LK-61	7.66477	80.23677	Giribawa	PS-610329	8.117314	80.189061	8.116653	80.192352	Mahagalkadawala - Warawewa, Pahala Giribawa, Sri Lanka	0.369773	
Kurunegala	Giribawa	Sagabopura Community Hall	False	False	KRNGLGRBWSGBPRCMMNTYHLL		Kurunegala	LK-61	7.66477	80.23677	Giribawa	PS-610329	8.117314	80.189061	8.080275	80.228091	36JH+464, Pahala Giribawa, Sri Lanka	5.953648	
Kurunegala	Alawwa	Kandegedara Vidyalaya	False	False	KRNGLLWWKNDGDRVDYLY		Kurunegala	LK-61	7.66477	80.23677	Alawwa	PS-610103	7.295909	80.24277	7.339004	80.215202	Mallehewa Road, Sri Lanka	5.676913	
Kurunegala	Alawwa	Hambaluwa Vidyalaya	False	False	KRNGLLWWHMBLWVDYLY		Kurunegala	LK-61	7.66477	80.23677	Alawwa	PS-610103	7.295909	80.24277	7.504174	80.173667	G53F+MF7, Kurunegala, Sri Lanka	24.387078	#CenterFarFromPolice
Kurunegala	Weerambugedara	MOH Office - Weerambugedara	False	False	KRNGLWRMBGDRMHFFCWRMBGDR		Kurunegala	LK-61	7.66477	80.23677	Weerambugedara	PS-610106	7.476107	80.242797	7.476373	80.244736	Kalugamuwa-Wariyapola Rd, Weerambugedara, Sri Lanka	0.215878	
Puttalam	Chilaw	Ilippadeniya Vidyalaya	False	False	PTTLMCHLWLPPDNYVDYLY		Puttalam	LK-62	7.973531	79.913833	Chilaw	PS-620241	7.576197	79.788003	7.570599	79.826873	Ilippadeniya, Sri Lanka	4.330785	
Puttalam	Arachchikattuwa	Vijayakatupotha Viharaya	False	False	PTTLMRCHCHKTTWVJYKTPTHVHRY		Puttalam	LK-62	7.973531	79.913833	Arachchikattuwa	PS-620247	7.65944	79.837772	7.580872	79.816733	Maha Devalayam, Wariyapola Road, Chilaw 61000, Sri Lanka	9.041683	
Puttalam	Arachchikattuwa	Veherabedi Kele Viharaya	False	False	PTTLMRCHCHKTTWVHRBDKLVHRY		Puttalam	LK-62	7.973531	79.913833	Arachchikattuwa	PS-620247	7.65944	79.837772	7.575734	79.796578	Colombo Road, Puttalam - Colombo Rd, Chilaw 61000, Sri Lanka	10.359207	
Puttalam	Anamaduwa	Maha Uswewa Rathanapana Vidyalaya	False	False	PTTLMNMDWMHSWWRTHNPNVDYLY		Puttalam	LK-62	7.973531	79.913833	Anamaduwa	PS-620131	7.874852	80.01316	7.95317	80.063286	X337+787, Miyallawa, Sri Lanka	10.314246	
Puttalam	Karuwalagawewa	DS Senanayaka Vidyalaya	False	False	PTTLMKRWLGWWDSSNNYKVDYLY		Puttalam	LK-62	7.973531	79.913833	Karuwalagaswewa	PS-620135	8.055066	79.955817	8.054145	79.949949	3W3X+MX4, Karuwalagaswewa, Sri Lanka	0.654327	
Puttalam	Puttalama	Sirmbiadiya Viharaya	False	False	PTTLMPTTLMSRMBDYVHRY		Puttalam	LK-62	7.973531	79.913833	Puttalam	PS-620130	8.029904	79.834396	7.907084	80.002377	Unnamed Road, Paramakanda, Sri Lanka	23.000671	#CenterFarFromPolice
Puttalam	Puttalama	Puttalam Zahira Vidyalaya	False	False	PTTLMPTTLMPTTLMZHRVDYLY		Puttalam	LK-62	7.973531	79.913833	Puttalam	PS-620130	8.029904	79.834396	8.039642	79.828624	Mannar Rd, Puttalam, Sri Lanka	1.255931	
Puttalam	Pallama	Angunuwila Sanasa Hall	False	False	PTTLMPLLMNGNWLSNSHLL		Puttalam	LK-62	7.973531	79.913833	Pallama	PS-620132	7.691904	79.922555	7.280276	79.861754	Thambarawila Rd, Sri Lanka	46.273697	#CenterFarFromPolice
Puttalam	Pallama	Adigama Vidyalaya	False	False	PTTLMPLLMDGMVDYLY		Puttalam	LK-62	7.973531	79.913833	Pallama	PS-620132	7.691904	79.922555	7.779019	79.948628	B45, Andigama, Sri Lanka	10.106936	
Puttalam	Mundalama	Madurankuliya Model College	False	False	PTTLMMNDLMMDRNKLYMDLCLLG		Puttalam	LK-62	7.973531	79.913833	Mundal	PS-620138	7.808859	79.825729	7.908066	79.82127	Madurankuli, Sri Lanka	11.04571	
Puttalam	Katugastota	St. Anthony's Boys' College	False	False	PTTLMKTGSTTSTNTHNYSBYSCLLG		Puttalam	LK-62	7.973531	79.913833	Katugastota	PS-210103	7.332014	80.623006	7.322313	80.626495	Katugastota Rd, Kandy 20000, Sri Lanka	1.145638	
Kandy	Passara	Palgahthenna Maha Vidyalaya	False	False	KNDYPSSRPLGHTHNNMHVDYLY		Kandy	LK-21	7.27337	80.709602	Passara	PS-810102	6.934481	81.154796	7.308703	80.874822	8V5F+FWP, Udadumbara, Sri Lanka	51.841036	#CenterFarFromPolice
Kandy	Galewela	Galewela Hospital	False	False	KNDYGLWLGLWLHSPTL		Kandy	LK-21	7.27337	80.709602	Galewela	PS-220129	7.763244	80.574149	7.760542	80.571552	QH6C+6J7, Galewela, Sri Lanka	0.415026	
Kandy	Rideemaliyadda	MOH Office - Rideemaliyadda	False	False	KNDYRDMLYDDMHFFCRDMLYDD		Kandy	LK-21	7.27337	80.709602	Rideemaliyadda		7.214807	81.124613	7.236705	81.107802	B57, Uraniya, Sri Lanka	3.061673	
Kandy	Rideemaliyadda	Akiriyankumbura Hospital	False	False	KNDYRDMLYDDKRYNKMBRHSPTL		Kandy	LK-21	7.27337	80.709602	Rideemaliyadda		7.214807	81.124613	7.298432	81.226013	76XG+9CC, Ekiriyankumbura, Sri Lanka	14.549886	
Kandy	Rideemaliyadda	Thissapura Hospital	False	False	KNDYRDMLYDDTHSSPRHSPTL		Kandy	LK-21	7.27337	80.709602	Rideemaliyadda		7.214807	81.124613	7.300002	81.692344	8M2R+2W5, Ampara, Sri Lanka	63.355407	#CenterFarFromPolice
Moneragala	Monaragala	Community Hall - Monaragala	False	False	MNRGLMNRGLCMMNTYHLLMNRGL		Moneragala	LK-82	6.787517	81.303744	Monaragala	PS-820121	6.869866	81.348106	6.86094	81.343078	Monaragala, Sri Lanka	1.137556	
Moneragala	Wellawaya	Handapanagala Sahasthra Garment	False	False	MNRGLWLLWYHNDPNGLSHSTHRGRMNT		Moneragala	LK-82	6.787517	81.303744	wellawaya	PS-820130	6.730804	81.100708	6.657339	81.121134	No. 02, Near The River, Wellawaya, Sri Lanka	8.477332	
Moneragala	Wellawaya	Hawal	False	False	MNRGLWLLWYHWL		Moneragala	LK-82	6.787517	81.303744	wellawaya	PS-820130	6.730804	81.100708	6.781414	81.085804	Alikote Ara, Sri Lanka	5.865122	
Moneragala	Bibila	Dodangolla Vidyalaya	False	False	MNRGLBBLDDNGLLVDYLY		Moneragala	LK-82	6.787517	81.303744	Bibila	PS-820125	7.165232	81.225463	7.031205	81.276445	Moneragala Road,Medagama, B56, Monaragala 91550, Sri Lanka	15.934508	
Moneragala	Buttala	Viharamahadevi Maha Vidyalaya	False	False	MNRGLBTTLVHRMHDVMHVDYLY		Moneragala	LK-82	6.787517	81.303744	Buttala	PS-820127	6.762499	81.250445	6.640574	81.189278	J5RQ+6PC, මොණරාගල, Sri Lanka	15.151837	
Moneragala	Buttala	Kukurampola Maha Vidyalaya	False	False	MNRGLBTTLKKRMPLMHVDYLY		Moneragala	LK-82	6.787517	81.303744	Buttala	PS-820127	6.762499	81.250445	6.716013	81.250856	Kataragama Rd, Thalakolawewa, Sri Lanka	5.170829	
Moneragala	Buttala	Divisional Hospital – Buttala	False	False	MNRGLBTTLDVSNLHSPTLBTTL		Moneragala	LK-82	6.787517	81.303744	Buttala	PS-820127	6.762499	81.250445	6.75781	81.239724	Colombo - Batticaloa Hwy, Buttala, Sri Lanka	1.293971	
Galle	Kosgoda	Yalegama Sunandarama Viharaya	False	False	GLLKSGDYLGMSNNDRMVHRY		Galle	LK-31	6.222805	80.251977	Kosgoda	PS-310245	6.335782	80.030182	6.383705	80.018559	Yalegama, Sri Lanka	5.483135	
Galle	Baddegama	Baddegama Vocational Training Centre	False	False	GLLBDDGMBDDGMVCTNLTRNNGCNTR		Galle	LK-31	6.222805	80.251977	Baddegama	PS-310239	6.172566	80.174966	6.163263	80.1754	Gothatuwa Road, Baddegama, Sri Lanka	1.035884	
Galle	Hiniduma	Kumburegoda Nila Piyasa	False	False	GLLHNDMKMBRGDNLPYS		Galle	LK-31	6.222805	80.251977	Hiniduma	PS-310131	6.329517	80.322442	6.309448	80.324096	Hiniduma, Sri Lanka	2.239748	
Galle	Elpitiya	Ananda Vidyalaya Rupa Karunatilake Hall	False	False	GLLLPTYNNDVDYLYRPKRNTLKHLL		Galle	LK-31	6.222805	80.251977	Elpitiya	PS-310235	6.279163	80.142917	6.06409	80.209473	3675+JQQ, Galle 80000, Sri Lanka	25.029158	#CenterFarFromPolice
Galle	Morawaka	MOH Office - Morawaka	False	False	GLLMRWKMHFFCMRWK		Galle	LK-31	6.222805	80.251977	Morawaka	PS-320107	6.256777	80.493654	6.243466	80.493022	Deniyaya Road, Kosnilgoda, Morawaka., Sri Lanka	1.482228	
Matara	Pasgoda	Pattigala Maha Vidyalaya	False	False	MTRPSGDPTTGLMHVDYLY		Matara	LK-32	6.142734	80.539994									#PoliceLocationUnknown
Hambantota	Walasmulla	Walasmulla Fair Premises	False	False	HMBNTTWLSMLLWLSMLLFRPRMSS		Hambantota	LK-33	6.259779	81.098619	Walasmulla	PS-330151	6.154102	80.698256	6.148552	80.697555	4MXX+C2F, Walasmulla, Sri Lanka	0.622174	
Hambantota	Walasmulla	South Kanumuldeniya Primary School	False	False	HMBNTTWLSMLLSTHKNMLDNYPRMRYSCHL		Hambantota	LK-33	6.259779	81.098619	Walasmulla	PS-330151	6.154102	80.698256	6.150889	80.693718	5M2V+9F4, Walasmulla, Sri Lanka	0.616099	
Hambantota	Beliatta	MOH Office – Beliatta	False	False	HMBNTTBLTTMHFFCBLTT		Hambantota	LK-33	6.259779	81.098619	Beliatta	PS-330152	6.046936	80.735408	6.051828	80.741735	3P2R+PMQ, Hambantota, Sri Lanka	0.886482	
Hambantota	Tangalla	MOH Office - Tangalla	False	False	HMBNTTTNGLLMHFFCTNGLL		Hambantota	LK-33	6.259779	81.098619	Tangalle	PS-330147	6.023954	80.797255	6.02363	80.795742	2QFW+F75, Tangalle, Sri Lanka	0.171198	
Hambantota	Katuwana	MOH Office - Katuwana	False	False	HMBNTTKTWNMHFFCKTWN		Hambantota	LK-33	6.259779	81.098619	Katuwana	PS-330153	6.269722	80.690963	6.26627	80.693035	7M8V+G63, Katuwana, Sri Lanka	0.447115	
Rathnapura	Opanayaka	Panan Tamil College	False	False	RTHNPRPNYKPNNTMLCLLG		Ratnapura	LK-91	6.586826	80.566158	Opanayaka	PS-910104	6.608519	80.619285	6.648995	80.67309	JMXF+H6W, Pettigala, Sri Lanka	7.457135	
Rathnapura	Opanayaka	Paragahamadintha Vidyalaya	False	False	RTHNPRPNYKPRGHMDNTHVDYLY		Ratnapura	LK-91	6.586826	80.566158	Opanayaka	PS-910104	6.608519	80.619285	6.580578	80.632245	opanayaka haththella, Sri Lanka	3.421961	
Rathnapura	Opanayaka	Welagapala Vidyalaya	False	False	RTHNPRPNYKWLGPLVDYLY		Ratnapura	LK-91	6.586826	80.566158	Opanayaka	PS-910104	6.608519	80.619285	6.574518	80.706607	HPF4+RJ5, Weligepola, Sri Lanka	10.363329	
Rathnapura	Pinnawala	Rai Hindu Vidyalaya	False	False	RTHNPRPNNWLRHNDVDYLY		Ratnapura	LK-91	6.586826	80.566158	Pinnawala	PS-910115	7.299943	80.386604	6.683533	80.399526	A4, Ratnapura, Sri Lanka	68.578022	#CenterFarFromPolice
Rathnapura	Pinnawala	Morahela Primary School	False	False	RTHNPRPNNWLMRHLPRMRYSCHL		Ratnapura	LK-91	6.586826	80.566158	Pinnawala	PS-910115	7.299943	80.386604	6.686707	80.693187	Morahela Olugantota - Pinnawala - Bogawantalawa Rd, Balangoda, Sri Lanka	76.146326	#CenterFarFromPolice
Rathnapura	Pinnawala	Pinnawala Hospital	False	False	RTHNPRPNNWLPNNWLHSPTL		Ratnapura	LK-91	6.586826	80.566158	Pinnawala	PS-910115	7.299943	80.386604	7.310162	80.388167	896Q+377, රඹුක්කන, Sri Lanka	1.149664	
Rathnapura	Balangoda	Vidyaloka Vidyalaya	False	False	RTHNPRBLNGDVDYLKVDYLY		Ratnapura	LK-91	6.586826	80.566158	Balangoda	PS-910103	6.649474	80.700276	6.648651	80.698377	Barns Rathwathta Mawatha, Balangoda 70100, Sri Lanka	0.228906	
Rathnapura	Balangoda	Batugammana Samurdhi Centre	False	False	RTHNPRBLNGDBTGMMNSMRDHCNTR		Ratnapura	LK-91	6.586826	80.566158	Balangoda	PS-910103	6.649474	80.700276	6.633759	80.796142	Watawala Mulgama, Balangoda Rd, Ratnapura, Sri Lanka	10.734868	
Rathnapura	Balangoda	Yahalewela Vidyalaya	False	False	RTHNPRBLNGDYHLWLVDYLY		Ratnapura	LK-91	6.586826	80.566158	Balangoda	PS-910103	6.649474	80.700276	6.641498	80.714138	JPR7+HMR, Balangoda, Sri Lanka	1.769912	
Rathnapura	Samanalawewa	Pambahinna Hospital	False	False	RTHNPRSMNLWWPMBHNNHSPTL		Ratnapura	LK-91	6.586826	80.566158									#PoliceLocationUnknown
Rathnapura	Kiriella	Dumbara Vidyalaya	False	False	RTHNPRKRLLDMBRVDYLY		Ratnapura	LK-91	6.586826	80.566158	Kiriella	PS-910114	6.735338	80.276481	6.726255	80.212907	Dumbara Rd, Sri Lanka	7.094889	
Rathnapura	Kiriella	Keppetipola Viharaya	False	False	RTHNPRKRLLKPPTPLVHRY		Ratnapura	LK-91	6.586826	80.566158	Kiriella	PS-910114	6.735338	80.276481	6.670085	80.395352	Gnanalankara Mawatha, Ratnapura, Sri Lanka	15.003981	
Rathnapura	Rathnapura	Demanagammana Community Hall	False	False	RTHNPRRTHNPRDMNGMMNCMMNTYHLL		Ratnapura	LK-91	6.586826	80.566158	Ratnapura	PS-910101	6.679456	80.40223	6.701381	80.367479	PNR Hwy, Ratnapura, Sri Lanka	4.548125	
Rathnapura	Rathnapura	Kottegoda Vidyalaya	False	False	RTHNPRRTHNPRKTTGDVDYLY		Ratnapura	LK-91	6.586826	80.566158	Ratnapura	PS-910101	6.679456	80.40223	6.63702	80.361769	Pannila,uda, Sri Lanka	6.500904	
Rathnapura	Rathnapura	Hungamuwa Vidyalaya	False	False	RTHNPRRTHNPRHNGMWVDYLY		Ratnapura	LK-91	6.586826	80.566158	Ratnapura	PS-910101	6.679456	80.40223	6.683533	80.399526	A4, Ratnapura, Sri Lanka	0.543031	
Rathnapura	Pelmadulla	Dippitigala Vidyalaya	False	False	RTHNPRPLMDLLDPPTGLVDYLY		Ratnapura	LK-91	6.586826	80.566158	Pelmadulla	PS-910117	6.632692	80.521315	6.650772	80.492757	MF2V+842, Pelmadulla, Sri Lanka	3.741583	
Rathnapura	Pelmadulla	Pathakada Buddhist College	False	False	RTHNPRPLMDLLPTHKDBDDHSTCLLG		Ratnapura	LK-91	6.586826	80.566158	Pelmadulla	PS-910117	6.632692	80.521315	6.637826	80.5078	Pathakada, Sri Lanka	1.598673	
Rathnapura	Kalawana	Sambuddha Jayanthi Viharaya	False	False	RTHNPRKLWNSMBDDHJYNTHVHRY		Ratnapura	LK-91	6.586826	80.566158	Kalawana	PS-910110	6.530738	80.390719	6.567208	80.158359	H585+V8Q, Pimbura, Sri Lanka	25.995179	#CenterFarFromPolice
Rathnapura	Kalawana	Kudawa Vidyalaya	False	False	RTHNPRKLWNKDWVDYLY		Ratnapura	LK-91	6.586826	80.566158	Kalawana	PS-910110	6.530738	80.390719	6.441419	80.421335	Veddagala-Kudawa Rd, Sri Lanka	10.495324	
Rathnapura	Kalawana	Gemi Diriya Community Hall	False	False	RTHNPRKLWNGMDRYCMMNTYHLL		Ratnapura	LK-91	6.586826	80.566158	Kalawana	PS-910110	6.530738	80.390719	6.58202	79.961991	Gregory Rd, Kalutara, Sri Lanka	47.71762	#CenterFarFromPolice
Rathnapura	Kalawana	Wembiyagoda Community Hall	False	False	RTHNPRKLWNWMBYGDCMMNTYHLL		Ratnapura	LK-91	6.586826	80.566158	Kalawana	PS-910110	6.530738	80.390719	6.531714	80.396482	Kalawana, Sri Lanka	0.646044	
Rathnapura	Kalawana	Weddegala Vidyalaya	False	False	RTHNPRKLWNWDDGLVDYLY		Ratnapura	LK-91	6.586826	80.566158	Kalawana	PS-910110	6.530738	80.390719	6.535423	80.401004	GCP2+5C6, Kalawana, Sri Lanka	1.25034	
Rathnapura	Kalawana	Kodippilikanda Vidyalaya	False	False	RTHNPRKLWNKDPPLKNDVDYLY		Ratnapura	LK-91	6.586826	80.566158	Kalawana	PS-910110	6.530738	80.390719	6.540754	80.318525	Kodippili Kanda, Sri Lanka	8.055351	
Rathnapura	Kalawana	Damsak Viharaya	False	False	RTHNPRKLWNDMSKVHRY		Ratnapura	LK-91	6.586826	80.566158	Kalawana	PS-910110	6.530738	80.390719	6.589509	80.371959	H9QC+RQ4, Ratnapura, Sri Lanka	6.857907	
Rathnapura	Kalawana	Delgoda Vidyalaya	False	False	RTHNPRKLWNDLGDVDYLY		Ratnapura	LK-91	6.586826	80.566158	Kalawana	PS-910110	6.530738	80.390719	6.504714	80.392248	G93R+VVQ, Kalawana, Sri Lanka	2.899573	
Rathnapura	Kalawana	Waturawa State College	False	False	RTHNPRKLWNWTRWSTTCLLG		Ratnapura	LK-91	6.586826	80.566158	Kalawana	PS-910110	6.530738	80.390719	6.498501	80.444539	FCXV+CR3, Delwala, Sri Lanka	6.944992	
Rathnapura	Embilipitiya	Modarawana Vidyalaya	False	False	RTHNPRMBLPTYMDRWNVDYLY		Ratnapura	LK-91	6.586826	80.566158	Embilipitiya	PS-910237	6.321993	80.844883	6.319833	80.832255	8R9J+WWJ, Embilipitiya, Sri Lanka	1.416594	
Rathnapura	Embilipitiya	Konkatuwa Vidyalaya	False	False	RTHNPRMBLPTYKNKTWVDYLY		Ratnapura	LK-91	6.586826	80.566158	Embilipitiya	PS-910237	6.321993	80.844883	6.332857	80.807845	B115, Sri Lanka	4.269191	
Rathnapura	Embilipitiya	Moraketiya Vidyalaya	False	False	RTHNPRMBLPTYMRKTYVDYLY		Ratnapura	LK-91	6.586826	80.566158	Embilipitiya	PS-910237	6.321993	80.844883	6.340635	80.880629	8VRJ+772, Embilipitiya, Sri Lanka	4.462745	
Rathnapura	Udawalawa	Bodhimaluwa Vidyalaya	False	False	RTHNPRDWLWBDHMLWVDYLY		Ratnapura	LK-91	6.586826	80.566158	Udawalawa	PS-910234	6.422661	80.814293	6.387546	80.813102	Ratnapura Road, kolabageAra, Sri Lanka	3.908054	
Rathnapura	Udawalawa	Adaluwa Community Hall	False	False	RTHNPRDWLWDLWCMMNTYHLL		Ratnapura	LK-91	6.586826	80.566158	Udawalawa	PS-910234	6.422661	80.814293	6.406389	80.801111	A18, Udawalawa 70200, Sri Lanka	2.323544	
Rathnapura	Udawalawa	Sankapala Vidyalaya	False	False	RTHNPRDWLWSNKPLVDYLY		Ratnapura	LK-91	6.586826	80.566158	Udawalawa	PS-910234	6.422661	80.814293	6.440955	80.759711	Pelmadulla - Embilipitiya Hwy, Ratnapura, Sri Lanka	6.366752	
Rathnapura	Kolonna	Wijeriya Vidyalaya	False	False	RTHNPRKLNNWJRYVDYLY		Ratnapura	LK-91	6.586826	80.566158	Kolonna	PS-910235	6.40194	80.687615	6.423524	80.653169	B115, Sri Lanka	4.50116	
Rathnapura	Kolonna	Omalpe Vidyalaya	False	False	RTHNPRKLNNMLPVDYLY		Ratnapura	LK-91	6.586826	80.566158	Kolonna	PS-910235	6.40194	80.687615	6.326763	80.69649	Omalpe, Sri Lanka	8.419282	
Rathnapura	Godakawela	Balavinna Vidyalaya	False	False	RTHNPRGDKWLBLVNNVDYLY		Ratnapura	LK-91	6.586826	80.566158	Godakawela	PS-910233	6.50224	80.655642	6.482314	80.694414	Balawinna, Pallebedda, Sri Lanka	4.824215	
Rathnapura	Godakawela	Welikeniyaya Vidyalaya	False	False	RTHNPRGDKWLWLKNYYVDYLY		Ratnapura	LK-91	6.586826	80.566158	Godakawela	PS-910233	6.50224	80.655642	6.505873	80.640843	GJ4R+88W, Ratnapura, Sri Lanka	1.684679	
Rathnapura	Godakawela	Niyangama Vidyalaya	False	False	RTHNPRGDKWLNYNGMVDYLY		Ratnapura	LK-91	6.586826	80.566158	Godakawela	PS-910233	6.50224	80.655642	6.505873	80.640843	GJ4R+88W, Ratnapura, Sri Lanka	1.684679	
Rathnapura	Godakawela	Thambalagamuwa Vidyalaya	False	False	RTHNPRGDKWLTHMBLGMWVDYLY		Ratnapura	LK-91	6.586826	80.566158	Godakawela	PS-910233	6.50224	80.655642	6.505873	80.640843	GJ4R+88W, Ratnapura, Sri Lanka	1.684679	
Rathnapura	Godakawela	Uthumpulliyagoda Vidyalaya	False	False	RTHNPRGDKWLTHMPLLYGDVDYLY		Ratnapura	LK-91	6.586826	80.566158	Godakawela	PS-910233	6.50224	80.655642	6.505873	80.640843	GJ4R+88W, Ratnapura, Sri Lanka	1.684679	
Rathnapura	Godakawela	Mahagama Health Centre	False	False	RTHNPRGDKWLMHGMHLTHCNTR		Ratnapura	LK-91	6.586826	80.566158	Godakawela	PS-910233	6.50224	80.655642	6.502044	80.657016	Pelmadulla - Embilipitiya Hwy, Godakawela, Sri Lanka	0.153404	
Rathnapura	Kahawatta	Demuwawatha Viharaya	False	False	RTHNPRKHWTTDMWWTHVHRY		Ratnapura	LK-91	6.586826	80.566158	Kahawatta	PS-910107	6.591434	80.56893	6.501917	80.580039	Digandala - Demuwawatha Rd, Sri Lanka	10.032351	
Rathnapura	Kahawatta	Andana Hospital	False	False	RTHNPRKHWTTNDNHSPTL		Ratnapura	LK-91	6.586826	80.566158	Kahawatta	PS-910107	6.591434	80.56893	6.578924	80.575179	A18, Kahawatta 70150, Sri Lanka	1.553386	
Rathnapura	Kahawatta	Bungiriya Vidyalaya	False	False	RTHNPRKHWTTBNGRYVDYLY		Ratnapura	LK-91	6.586826	80.566158	Kahawatta	PS-910107	6.591434	80.56893	6.555967	80.563288	Bungiriya, Sri Lanka	3.993946	
Rathnapura	Rakwana	Aslam Vidyalaya	False	False	RTHNPRRKWNSLMVDYLY		Ratnapura	LK-91	6.586826	80.566158	Rakwana	PS-910108	6.470133	80.613684	6.471933	80.610173	FJC6+Q3F, Rakwana, Sri Lanka	0.436647	
Rathnapura	Rakwana	Ubayathilakaramaya	False	False	RTHNPRRKWNBYTHLKRMY		Ratnapura	LK-91	6.586826	80.566158	Rakwana	PS-910108	6.470133	80.613684	6.464724	80.61604	Rakwana, Sri Lanka	0.655573	
Anuradhapura	Anuradhapura	Teaching Hospital - Anuradhapura	False	False	NRDHPRNRDHPRTCHNGHSPTLNRDHPR		Anuradhapura	LK-71	8.39199	80.512958	Anuradapura	PS-710101	8.329752	80.407265	8.324765	80.413968	Harischandra Mawatha, Anuradhapura, Sri Lanka	0.922993	
Anuradhapura	Anuradhapura	Walisinghe Harischandra Ground	False	False	NRDHPRNRDHPRWLSNGHHRSCHNDRGRND		Anuradhapura	LK-71	8.39199	80.512958	Anuradapura	PS-710101	8.329752	80.407265	8.337404	80.405697	8CP4+X78, Anuradhapura, Sri Lanka	0.868448	
Anuradhapura	Parasangaswewa	Gambirigaswewa Vidyalaya	False	False	NRDHPRPRSNGSWWGMBRGSWWVDYLY		Anuradhapura	LK-71	8.39199	80.512958	Parasangaswewa	PS-710123	8.650981	80.314759	8.458268	80.413765	FC57+8G2, Anuradhapura, Sri Lanka	24.043039	#CenterFarFromPolice
Anuradhapura	Parasangaswewa	Halambagaswewa Vidyalaya	False	False	NRDHPRPRSNGSWWHLMBGSWWVDYLY		Anuradhapura	LK-71	8.39199	80.512958	Parasangaswewa	PS-710123	8.650981	80.314759	8.335922	80.407513	Maithripala Senanayake Mawatha, Anuradhapura 50000, Sri Lanka	36.499283	#CenterFarFromPolice
Anuradhapura	Mahawilachchiya	Divisional Health Medical Office – Mahawilachchiya	False	False	NRDHPRMHWLCHCHYDVSNLHLTHMDCLFFCMHWLCHCHY		Anuradhapura	LK-71	8.39199	80.512958	Mahawilachchiya	PS-710120	8.484987	80.193911	8.494303	80.186519	F5VP+PJC, Mahawilachchiya, Sri Lanka	1.317298	
Anuradhapura	Hingurakgoda	Ananda Balika Vidyalaya	False	False	NRDHPRHNGRKGDNNDBLKVDYLY		Anuradhapura	LK-71	8.39199	80.512958	Hingurakgoda	PS-720129	8.048819	80.965751	8.036478	80.958439	B552, Hingurakgoda, Sri Lanka	1.591477	
Polonnaruwa	Hingurakgoda	Minneriya National College	False	False	PLNNRWHNGRKGDMNNRYNTNLCLLG		Polonnaruwa	LK-72	7.993659	81.026061	Hingurakgoda	PS-720129	8.048819	80.965751	8.032861	80.823596	2RMF+4CX, Polonnaruwa, Sri Lanka	15.756721	
Polonnaruwa	Hingurakgoda	Yodha Ela Vidyalaya	False	False	PLNNRWHNGRKGDYDHLVDYLY		Polonnaruwa	LK-72	7.993659	81.026061	Hingurakgoda	PS-720129	8.048819	80.965751	8.081108	80.962584	3XJ7+C2W, Yatiyalpathana, Sri Lanka	3.608396	
Polonnaruwa	Hingurakgoda	Kumaragama Vidyalaya	False	False	PLNNRWHNGRKGDKMRGMVDYLY		Polonnaruwa	LK-72	7.993659	81.026061	Hingurakgoda	PS-720129	8.048819	80.965751	8.064498	80.98987	Kumaragama, Sri Lanka	3.177614	
Polonnaruwa	Minneriya	Jayanthipura Vidyalaya	False	False	PLNNRWMNNRYJYNTHPRVDYLY		Polonnaruwa	LK-72	7.993659	81.026061	Minneriya	PS-720133	8.036341	80.904489	7.992943	80.964115	XXV7+5JH, Polonnaruwa, Sri Lanka	8.150599	
Polonnaruwa	Minneriya	Girithalegama Vidyalaya	False	False	PLNNRWMNNRYGRTHLGMVDYLY		Polonnaruwa	LK-72	7.993659	81.026061	Minneriya	PS-720133	8.036341	80.904489	7.989462	80.922947	Giritale, Polonnaruwa, Giritale 51000, Sri Lanka	5.596661	
Polonnaruwa	Minneriya	Nagalakanda Vidayalaya	False	False	PLNNRWMNNRYNGLKNDVDYLY		Polonnaruwa	LK-72	7.993659	81.026061	Minneriya	PS-720133	8.036341	80.904489	8.045802	80.908771	2WW5+8GC, Minneriya, Sri Lanka	1.153187	
Polonnaruwa	Habarana	Hathareskotuwa Vidyalaya	False	False	PLNNRWHBRNHTHRSKTWVDYLY		Polonnaruwa	LK-72	7.993659	81.026061	Habarana	PS-720131	8.039452	80.756682	7.957253	80.760037	Sigiriya, 8 Ela pahalawewa, Dambulla 21100, Sri Lanka	9.150446	
Polonnaruwa	Polonnaruwa	Thopa weva Vidyalaya	False	False	PLNNRWPLNNRWTHPWVVDYLY		Polonnaruwa	LK-72	7.993659	81.026061	Polonnaruwa	PS-720125	7.924307	81.036895	7.938857	81.003164	Thopawewa Maha Vidyalaya, Polonnaruwa, Sri Lanka	4.05313	
Jaffna	Jaffna	St. John's College	False	False	JFFNJFFNSTJHNSCLLG		Jaffna	LK-41	9.691792	80.098594	Jaffna	PS-410209	9.659919	80.010965	9.657495	80.026568	Main Street, Chundikuli-Columbuthurai Rd, section, Sri Lanka	1.732049	
Jaffna	Jaffna	MOH Office – Jaffna	False	False	JFFNJFFNMHFFCJFFN		Jaffna	LK-41	9.691792	80.098594	Jaffna	PS-410209	9.659919	80.010965	9.673947	80.027736	M2FH+H3H, Jaffna, Sri Lanka	2.411714	
Jaffna	Kopay	MOH Office- Nallur	False	False	JFFNKPYMHFFCNLLR		Jaffna	LK-41	9.691792	80.098594	Kopai	PS-410216	9.686887	80.03856	9.673947	80.027736	M2FH+H3H, Jaffna, Sri Lanka	1.865513	
Jaffna	Kopay	Puthur Somaskanda Vidyalaya	False	False	JFFNKPYPTHRSMSKNDVDYLY		Jaffna	LK-41	9.691792	80.098594	Kopai	PS-410216	9.686887	80.03856	9.745655	80.104632	AB20 - Point Pedro Road Puttur west, Jaffna 40000, Sri Lanka	9.75711	
Jaffna	Kopay	Uralu Ganesha Vidyalaya	False	False	JFFNKPYRLGNSHVDYLY		Jaffna	LK-41	9.691792	80.098594	Kopai	PS-410216	9.686887	80.03856	9.711206	80.059962	Kopay Base Hospital, Jaffna, Sri Lanka	3.580942	
Jaffna	Kopay	Kaddapirai General Hall	False	False	JFFNKPYKDDPRGNRLHLL		Jaffna	LK-41	9.691792	80.098594	Kopai	PS-410216	9.686887	80.03856	9.664467	80.010483	AB16, Jaffna, Sri Lanka	3.961884	
Jaffna	Kopay	Mobile Vaccination	False	False	JFFNKPYMBLVCCNTN		Jaffna	LK-41	9.691792	80.098594	Kopai	PS-410216	9.686887	80.03856					#CenterLocationUnknown
Jaffna	Chunnagam	MOH Office - Uduvil	False	False	JFFNCHNNGMMHFFCDVL		Jaffna	LK-41	9.691792	80.098594	Chunnakam	PS-410211	9.745309	80.029151	9.742938	80.035132	P2VP+53C, Chunnakam, Sri Lanka	0.706719	
Jaffna	Chunnagam	PMCU – Inuvil	False	False	JFFNCHNNGMPMCNVL		Jaffna	LK-41	9.691792	80.098594	Chunnakam	PS-410211	9.745309	80.029151	9.716491	80.018015	P289+H6R, Uduvil, Sri Lanka	3.430038	
Jaffna	Chunnagam	PMCU Punnale Kattuwan	False	False	JFFNCHNNGMPMCPNNLKTTWN		Jaffna	LK-41	9.691792	80.098594	Chunnakam	PS-410211	9.745309	80.029151	9.742231	80.026054	146 Jaffna-Kankesanturai Rd, Chunnakam 40000, Sri Lanka	0.482163	
Jaffna	Point Pedro	Wadu Hindu Girl's College	False	False	JFFNPNTPDRWDHNDGRLSCLLG		Jaffna	LK-41	9.691792	80.098594	Point Pedro	PS-410106	9.827018	80.233187	9.817623	80.23136	Vinayaga Muthaliyaar Veethy, Point Pedro, Sri Lanka	1.064016	
Jaffna	Nelliyady	MOH Office - Karaveddy	False	False	JFFNNLLYDYMHFFCKRVDDY		Jaffna	LK-41	9.691792	80.098594	Nelliadi	PS-410108	9.778397	80.113303	9.792126	80.201799	Q6R2+VP3, Point Pedro, Sri Lanka	9.819656	
Jaffna	Thelippalai	MOH Office - Thelippalai	False	False	JFFNTHLPPLMHFFCTHLPPL		Jaffna	LK-41	9.691792	80.098594	Thelippalay	PS-410104	6.933075	79.857181	9.785272	80.032899	Q2PM+452, Tellippalai, Sri Lanka	317.838063	#CenterFarFromPolice
Jaffna	Kodikaman	DH – Varani	False	False	JFFNKDKMNDHVRN		Jaffna	LK-41	9.691792	80.098594	Kodikamam	PS-410217	9.666459	80.132384	9.681381	80.219829	Kodikamam, Kandy - Jaffna Hwy, Sri Lanka	9.73078	
Jaffna	Kodikaman	DH – Kodikaman	False	False	JFFNKDKMNDHKDKMN		Jaffna	LK-41	9.691792	80.098594	Kodikamam	PS-410217	9.666459	80.132384	9.681381	80.219829	Kodikamam, Kandy - Jaffna Hwy, Sri Lanka	9.73078	
Jaffna	Ilavalai	Sillalai Roman Catholic College	False	False	JFFNLVLSLLLRMNCTHLCCLLG		Jaffna	LK-41	9.691792	80.098594	Ilavalai	PS-410102	9.775967	79.983146	9.7778	79.961368	QXH6+4GH, Pandatharippu, Sri Lanka	2.395873	
Jaffna	Ilavalai	Vilan Roman Catholic College	False	False	JFFNLVLVLNRMNCTHLCCLLG		Jaffna	LK-41	9.691792	80.098594	Ilavalai	PS-410102	9.775967	79.983146	9.795043	79.991203	College Lane, Ilavalai, Sri Lanka	2.298273	
Jaffna	Achchuveli	Somaskanda Vidyalaya	False	False	JFFNCHCHVLSMSKNDVDYLY		Jaffna	LK-41	9.691792	80.098594	Achchuweli	PS-410103	6.934132	79.856305	9.745655	80.104632	AB20 - Point Pedro Road Puttur west, Jaffna 40000, Sri Lanka	313.916871	#CenterFarFromPolice
Jaffna	Delft	RC Girl's College	False	False	JFFNDLFTRCGRLSCLLG		Jaffna	LK-41	9.691792	80.098594	Delft	PS-410213	9.526782	79.701964	9.51415	79.683887	Delft Island, Sri Lanka	2.430329	
Jaffna	Delft	Delft Subramaniam Vidyalaya	False	False	JFFNDLFTDLFTSBRMNMVDYLY		Jaffna	LK-41	9.691792	80.098594	Delft	PS-410213	9.526782	79.701964	9.525688	79.665765	Delft Island, Sri Lanka	3.972748	
Jaffna	Wadukkotte	MOH Office - Chankanai	False	False	JFFNWDKKTTMHFFCCHNKN		Jaffna	LK-41	9.691792	80.098594	Vaddukoddai		9.728886	79.947771	9.753617	79.976004	QX3G+CCR, Sri Lanka	4.140836	
Jaffna	Manippai	MOH Office - Sandilippai	False	False	JFFNMNPPMHFFCSNDLPP		Jaffna	LK-41	9.691792	80.098594	Manippai	PS-410210	9.727151	79.996905	9.749336	79.987383	Sandilipay, Sri Lanka	2.679343	
Jaffna	Manippai	Vilan RCTM Vidyalaya	False	False	JFFNMNPPVLNRCTMVDYLY		Jaffna	LK-41	9.691792	80.098594	Manippai	PS-410210	9.727151	79.996905	9.700946	80.003075	74 Kokkuvil - Vaddukoddai Rd, Kokuvil East, Sri Lanka	2.992242	
Jaffna	Kayts	MOH Office - Karainagar	False	False	JFFNKYTSMHFFCKRNGR		Jaffna	LK-41	9.691792	80.098594	Kayts	PS-410212	9.728654	79.94775	9.725097	79.99772	Sri Lanka, Manipay, Sri Lanka	5.492521	
Jaffna	Kayts	MOH Office – Valanai	False	False	JFFNKYTSMHFFCVLN		Jaffna	LK-41	9.691792	80.098594	Kayts	PS-410212	9.728654	79.94775	9.636317	79.903777	Chatty vangkalvady road, Velanai, Sri Lanka	11.346015	
Jaffna	Kayts	MOH Office – Kayts	False	False	JFFNKYTSMHFFCKYTS		Jaffna	LK-41	9.691792	80.098594	Kayts	PS-410212	9.728654	79.94775	9.697759	79.866366	Sri Lanka, Kayts, Sri Lanka	9.561445	
Jaffna	Chavakachcheri	Golden Jubilee Hall	False	False	JFFNCHVKCHCHRGLDNJBLHLL		Jaffna	LK-41	9.691792	80.098594	Chawakachcheri	PS-410215	9.666459	80.132384	9.659136	80.160946	M556+M94, Chavakachcheri, Sri Lanka	3.236063	
Jaffna	Pooneryn	MOH Office - Pooneryn	False	False	JFFNPNRYNMHFFCPNRYN		Jaffna	LK-41	9.691792	80.098594	Pooneryn		9.505717	80.21101	9.507968	80.208317	G655+58P, Pooneryn, Sri Lanka	0.387256	
Jaffna	Mulankavil	Mulankavil Hospital	False	False	JFFNMLNKVLMLNKVLHSPTL		Jaffna	LK-41	9.691792	80.098594	Mulankavil	PS-450135	9.254463	80.141528	9.243423	80.143894	Base Hospital Mulankavil, A32 Road, Mulankavil, Kumulamunai, Sri Lanka	1.255148	
Kilinochchi	Kilinochchi	MOH Office - Karachchi	False	False	KLNCHCHKLNCHCHMHFFCKRCHCH		Kilinochchi	LK-45	9.415742	80.30358	Kilinochchi	PS-450131	9.392265	80.407846	9.396965	80.407782	Kandy - Jaffna Hwy, Kilinochchi, Sri Lanka	0.522827	
Kilinochchi	Pudukudiruppu	MOH Office - Pudukudiruppu	False	False	KLNCHCHPDKDRPPMHFFCPDKDRPP		Kilinochchi	LK-45	9.415742	80.30358	Pudukuduiruppu	PS-440149	7.00152	79.95003	9.320965	80.683013	Parantan-Mullaitivu Hwy, Velikkandal, Sri Lanka	270.317914	#CenterFarFromPolice
Kilinochchi	Madu	Irana Iruppakulam Maha Vidyalaya	False	False	KLNCHCHMDRNRPPKLMMHVDYLY		Kilinochchi	LK-45	9.415742	80.30358	Madu	PS-420144	6.914115	79.849048	9.394954	80.409776	Vilson Rd, Kilinochchi 44400, Sri Lanka	282.764547	#CenterFarFromPolice
Trincomalee	Muttur	MOH Office – Muttur	False	False	TRNCMLMTTRMHFFCMTTR		Trincomalee	LK-53	8.551241	81.092014	Mutur	PS-530138	8.461133	81.259371	8.453916	81.264494	1 Old Batticaloa Rd, Mutur, Sri Lanka	0.980859	
Trincomalee	Muttur	Al Hamra Vidyalaya	False	False	TRNCMLMTTRLHMRVDYLY		Trincomalee	LK-53	8.551241	81.092014	Mutur	PS-530138	8.461133	81.259371	8.726266	81.172086	P5GC+GR4, Irrakkakandi, Sri Lanka	31.013792	#CenterFarFromPolice
Trincomalee	Muttur	Ralkuli Vidyalaya	False	False	TRNCMLMTTRRLKLVDYLY		Trincomalee	LK-53	8.551241	81.092014	Mutur	PS-530138	8.461133	81.259371	8.447261	81.243706	Ralkuli Bridge, Trincomalee Hwy, Sri Lanka	2.313261	
Trincomalee	Muttur	Pallekudiirippu Kale Mahal Vidyalaya	False	False	TRNCMLMTTRPLLKDRPPKLMHLVDYLY		Trincomalee	LK-53	8.551241	81.092014	Mutur	PS-530138	8.461133	81.259371	8.449646	81.26789	1 Old Batticaloa Rd, Mutur, Sri Lanka	1.584607	
Trincomalee	Muttur	Sampur Hospital	False	False	TRNCMLMTTRSMPRHSPTL		Trincomalee	LK-53	8.551241	81.092014	Mutur	PS-530138	8.461133	81.259371	8.481264	81.292795	F7JV+G43, Trincomalee, Sri Lanka	4.305295	
Trincomalee	Muttur	Al Hilal Maha Vidyalaya	False	False	TRNCMLMTTRLHLLMHVDYLY		Trincomalee	LK-53	8.551241	81.092014	Mutur	PS-530138	8.461133	81.259371	8.457062	81.268574	Mutur, Sri Lanka	1.109154	
Trincomalee	Kinniya	MOH Office - Kurunjankeni	False	False	TRNCMLKNNYMHFFCKRNJNKN		Trincomalee	LK-53	8.551241	81.092014	Kinnia	PS-530140	6.907289	79.863819	6.076039	80.275291	37GG+C47, Galle, Sri Lanka	103.037459	#CenterFarFromPolice
Trincomalee	Kinniya	MOH Office – Kinniya	False	False	TRNCMLKNNYMHFFCKNNY		Trincomalee	LK-53	8.551241	81.092014	Kinnia	PS-530140	6.907289	79.863819	8.498696	81.179644	F5XH+FVC, Kinniya 31100, Sri Lanka	228.840304	#CenterFarFromPolice
Trincomalee	Kinniya	Al Aksha Central College	False	False	TRNCMLKNNYLKSHCNTRLCLLG		Trincomalee	LK-53	8.551241	81.092014	Kinnia	PS-530140	6.907289	79.863819	8.496662	81.180256	F5WJ+M46, Kinniya 31100, Sri Lanka	228.708367	#CenterFarFromPolice
Trincomalee	Kinniya	Al Adan Vidyalaya	False	False	TRNCMLKNNYLDNVDYLY		Trincomalee	LK-53	8.551241	81.092014	Kinnia	PS-530140	6.907289	79.863819	8.502547	81.180383	Kinniya, Sri Lanka	229.222923	#CenterFarFromPolice
Trincomalee	Kinniya	Al Irfan Viyalaya	False	False	TRNCMLKNNYLRFNVYLY		Trincomalee	LK-53	8.551241	81.092014	Kinnia	PS-530140	6.907289	79.863819	8.481391	81.191368	F5JR+HG5, Kinniya, Sri Lanka	228.183186	#CenterFarFromPolice
Trincomalee	Kinniya	Base Hospital Kinniya	False	False	TRNCMLKNNYBSHSPTLKNNY		Trincomalee	LK-53	8.551241	81.092014	Kinnia	PS-530140	6.907289	79.863819	8.501539	81.187539	Tampalakamam-Kinniya Rd, Kinniya 31100, Sri Lanka	229.636589	#CenterFarFromPolice
Trincomalee	Sripura	MOH Office – Sripura	False	False	TRNCMLSRPRMHFFCSRPR		Trincomalee	LK-53	8.551241	81.092014	Sripura	PS-530136	8.929617	80.81428	8.926697	80.814799	Padavi Sripura, Padaviya - Sripura Road, Welioya, Sri Lanka	0.329869	
Trincomalee	Sripura	Sripura Hospital	False	False	TRNCMLSRPRSRPRHSPTL		Trincomalee	LK-53	8.551241	81.092014	Sripura	PS-530136	8.929617	80.81428	8.929308	80.813901	Padaviya - Sripura Road, Welioya, Sri Lanka	0.053996	
Trincomalee	Kuchchaveli	MOH Office - Kuchchaveli	False	False	TRNCMLKCHCHVLMHFFCKCHCHVL		Trincomalee	LK-53	8.551241	81.092014	Kuchchaweli	PS-530133	8.81895	81.100438	8.740082	81.161616	P5R6+2JQ, Kumpurupiddi, Sri Lanka	11.053646	
Trincomalee	Kuchchaveli	Divisional Hospital - Kuchchaveli	False	False	TRNCMLKCHCHVLDVSNLHSPTLKCHCHVL		Trincomalee	LK-53	8.551241	81.092014	Kuchchaweli	PS-530133	8.81895	81.100438	8.814795	81.102358	R472+WW9, Kuchchaveli, Sri Lanka	0.508064	
Trincomalee	Kuchchaveli	Divisional Hospital - Nilaveli	False	False	TRNCMLKCHCHVLDVSNLHSPTLNLVL		Trincomalee	LK-53	8.551241	81.092014	Kuchchaweli	PS-530133	8.81895	81.100438	8.681035	81.193632	M5JV+CF6, Nilaveli, Sri Lanka	18.44695	
Trincomalee	Pulmoddai	Base Hospital -Pulmoddai	False	False	TRNCMLPLMDDBSHSPTLPLMDD		Trincomalee	LK-53	8.551241	81.092014	Pulmudai	PS-530135	6.915266	79.87829	8.941204	80.983139	WXRM+F7J, Pulmoddai, Sri Lanka	256.112801	#CenterFarFromPolice
Trincomalee	Serunuwara	MOH Office - Serunuwara	False	False	TRNCMLSRNWRMHFFCSRNWR		Trincomalee	LK-53	8.551241	81.092014	Serunuwara	PS-530244	8.321863	81.299322	8.323143	81.299894	B10, Sri Lanka	0.155671	
Trincomalee	Harbour Police	MOH Office - Trincomalee	False	False	TRNCMLHRBRPLCMHFFCTRNCML		Trincomalee	LK-53	8.551241	81.092014	Trinco Harbour Police	PS-530131	8.56705	81.231407	8.598974	81.216963	MOH Office, Farm Rd, Trincomalee, Sri Lanka	3.890062	
Trincomalee	Harbour Police	Base Hospital - Trincomalee	False	False	TRNCMLHRBRPLCBSHSPTLTRNCML		Trincomalee	LK-53	8.551241	81.092014	Trinco Harbour Police	PS-530131	8.56705	81.231407	8.56486	81.239445	Hospital Ln, Trincomalee, Sri Lanka	0.917037	
Trincomalee	Uppuveli	MOH Office - Uppuveli	False	False	TRNCMLPPVLMHFFCPPVL		Trincomalee	LK-53	8.551241	81.092014	Uppuweli	PS-530134	8.593614	81.21743	8.607961	81.216512	Nilaveli Rd, Trincomalee, Sri Lanka	1.599005	
Trincomalee	Kantale	MOH Office – Kanatale	False	False	TRNCMLKNTLMHFFCKNTL		Trincomalee	LK-53	8.551241	81.092014	Kantale	PS-530241	8.356129	81.007739	8.599018	81.217151	H6X8+JV2, Trincomalee, Sri Lanka	35.505652	#CenterFarFromPolice
Trincomalee	Ichchalampattu	MOH Office - Ichchalampattu	False	False	TRNCMLCHCHLMPTTMHFFCCHCHLMPTT	Eachchilampattu Hospital	Trincomalee	LK-53	8.551241	81.092014	Ichchalampattu		8.289549	81.359002	8.289644	81.358983	Highway, Ichchalampattu, Trincomalee, Sri Lanka	0.010772	
Trincomalee	Thambalagamuwa	MOH Office - Thambalagamuwa	False	False	TRNCMLTHMBLGMWMHFFCTHMBLGMW		Trincomalee	LK-53	8.551241	81.092014	Thambalagamuva	PS-530243	6.907289	79.863819	8.563603	81.239584	Hospital Ln, Trincomalee, Sri Lanka	238.604889	#CenterFarFromPolice
Trincomalee	Gomarankadawala	MOH Office - Gomarankadawala	False	False	TRNCMLGMRNKDWLMHFFCGMRNKDWL		Trincomalee	LK-53	8.551241	81.092014	Gomarankadawala	PS-530248	8.674487	80.967555	8.674726	80.955691	Unnamed Road, Gomarankadawala, Sri Lanka	1.304806	
Batticaloa	Batticaloa	Batticaloa Prison	False	False	BTTCLBTTCLBTTCLPRSN		Batticaloa	LK-51	7.792772	81.486513	Batticaloa	PS-510101	7.717949	81.699294	7.708307	81.692696	Batticaloa, Sri Lanka	1.295804	
Batticaloa	Batticaloa	MOH Office - Batticaloa	False	False	BTTCLBTTCLMHFFCBTTCL		Batticaloa	LK-51	7.792772	81.486513	Batticaloa	PS-510101	7.717949	81.699294	7.708253	81.691368	Hospital Rd, Batticaloa, Sri Lanka	1.387934	
Batticaloa	Kokkadicholai	Mahiladithivu Vidyalaya	False	False	BTTCLKKKDCHLMHLDTHVVDYLY		Batticaloa	LK-51	7.792772	81.486513	Kokkadicholai	PS-510112	7.715979	81.698757	7.623008	81.719383	Muthalaikudah Kanchirankudah Rd, Batticaloa, Sri Lanka	10.588158	
Batticaloa	Kaluwanchikudy	Thetathivu Vidyalaya	False	False	BTTCLKLWNCHKDYTHTTHVVDYLY		Batticaloa	LK-51	7.792772	81.486513	Kalawanchikudy	PS-510110	7.515908	81.787051	7.559476	81.787989	HQ5Q+Q5X, Kaluwanchikudy, Sri Lanka	4.847165	
Batticaloa	Kaluwanchikudy	Settipama Maha Vidyalaya	False	False	BTTCLKLWNCHKDYSTTPMMHVDYLY		Batticaloa	LK-51	7.792772	81.486513	Kalawanchikudy	PS-510110	7.515908	81.787051	7.579554	81.784113	Kaluwanchikudy, Sri Lanka	7.086743	
Batticaloa	Vellawali	Mandur Vidyalaya	False	False	BTTCLVLLWLMNDRVDYLY		Batticaloa	LK-51	7.792772	81.486513	Vellavali	PS-510111	6.907289	79.863819	7.720143	81.700516	PPC2+362, Batticaloa, Sri Lanka	221.887623	#CenterFarFromPolice
Batticaloa	Vellawali	Pilaniwembu Vani Tamil College	False	False	BTTCLVLLWLPLNWMBVNTMLCLLG		Batticaloa	LK-51	7.792772	81.486513	Vellavali	PS-510111	6.907289	79.863819	8.12458	81.43356	4CFM+RCM, Sri Lanka	219.763448	#CenterFarFromPolice
Batticaloa	Valachchenai	Valachchenai Base Hospital	False	False	BTTCLVLCHCHNVLCHCHNBSHSPTL		Batticaloa	LK-51	7.792772	81.486513	Valachchanai	PS-510107	7.908015	81.533004	7.911315	81.533046	Valaichchenai-Nasuvantivu-Navaladi Road, Sri Lanka	0.367088	
Batticaloa	Valachchenai	MOH Office - Oddamavadi	False	False	BTTCLVLCHCHNMHFFCDDMVD		Batticaloa	LK-51	7.792772	81.486513	Valachchanai	PS-510107	7.908015	81.533004	7.912281	81.532775	WG6M+W46, Batticaloa, Sri Lanka	0.475177	
Batticaloa	Valachchenai	MOH Office - Koralepattu Central	False	False	BTTCLVLCHCHNMHFFCKRLPTTCNTRL		Batticaloa	LK-51	7.792772	81.486513	Valachchanai	PS-510107	7.908015	81.533004	7.922593	81.530022	Batticaloa, Sri Lanka	1.654455	
Batticaloa	Valachchenai	MOH Office - Koralepattu	False	False	BTTCLVLCHCHNMHFFCKRLPTT		Batticaloa	LK-51	7.792772	81.486513	Valachchanai	PS-510107	7.908015	81.533004	7.922593	81.530022	WGFJ+22J, Sri Lanka	1.654455	
Batticaloa	Valachchenai	MOH Office – Kiran	False	False	BTTCLVLCHCHNMHFFCKRN		Batticaloa	LK-51	7.792772	81.486513	Valachchanai	PS-510107	7.908015	81.533004	7.623441	81.717877	Muthalaikudah Kanchirankudah Rd, Sri Lanka	37.64378	#CenterFarFromPolice
Batticaloa	Vakarai	MOH Office - Vakarai	False	False	BTTCLVKRMHFFCVKR	Divisional Hospital Vakarai	Batticaloa	LK-51	7.792772	81.486513	Wakarai	PS-510109	6.934132	79.856305	8.134552	81.435328	Trincomalee Hwy, Vakarai, Sri Lanka	219.417822	#CenterFarFromPolice
Batticaloa	Kattankudy	Kattankudy Centarl College	False	False	BTTCLKTTNKDYKTTNKDYCNTRLCLLG		Batticaloa	LK-51	7.792772	81.486513	Kaththankudi	PS-510103	7.715979	81.698757	7.682761	81.736652	MPMP+4M2, Kattankudy, Sri Lanka	5.576699	
Batticaloa	Kattankudy	MOH Office - Arayampathy	False	False	BTTCLKTTNKDYMHFFCRYMPTHY		Batticaloa	LK-51	7.792772	81.486513	Kaththankudi	PS-510103	7.715979	81.698757	7.672862	81.735019	MPFP+42R, Sri Lanka	6.243191	
Batticaloa	Eravur	Sandiveli Hospital	False	False	BTTCLRVRSNDVLHSPTL		Batticaloa	LK-51	7.792772	81.486513	Eravur	PS-510104	7.715979	81.698757	7.777289	81.602853	Trincomalee Hwy, Eravur, Sri Lanka	12.578998	
Batticaloa	Eravur	MOH Office – Eravur	False	False	BTTCLRVRMHFFCRVR		Batticaloa	LK-51	7.792772	81.486513	Eravur	PS-510104	7.715979	81.698757	7.783664	81.605626	QJM4+F76, Eravur, Sri Lanka	12.729342	
Batticaloa	Eravur	Eravur Hospital	False	False	BTTCLRVRRVRHSPTL		Batticaloa	LK-51	7.792772	81.486513	Eravur	PS-510104	7.715979	81.698757	7.783168	81.605999	QJM4+799, Eravur 30300, Sri Lanka	12.663585	
Batticaloa	Eravur	Aisha Mosque	False	False	BTTCLRVRSHMSQ		Batticaloa	LK-51	7.792772	81.486513	Eravur	PS-510104	7.715979	81.698757	7.776897	81.604203	Eravur, Sri Lanka	12.430415	
Batticaloa	Eravur	Askar Vidyalaya	False	False	BTTCLRVRSKRVDYLY		Batticaloa	LK-51	7.792772	81.486513	Eravur	PS-510104	7.715979	81.698757	7.781715	81.601743	Eravur - 04, Chenkaladi, Sri Lanka	12.953304	
Batticaloa	Eravur	MOH Office - Chenkaladi	False	False	BTTCLRVRMHFFCCHNKLD		Batticaloa	LK-51	7.792772	81.486513	Eravur	PS-510104	7.715979	81.698757	7.783599	81.593367	Trincomalee Hwy, Chenkaladi 30350, Sri Lanka	13.837876	
Batticaloa	Eravur	Chenkaladi Hospital	False	False	BTTCLRVRCHNKLDHSPTL		Batticaloa	LK-51	7.792772	81.486513	Eravur	PS-510104	7.715979	81.698757	7.783546	81.589961	Batticaloa Rd, Chenkaladi, Sri Lanka	14.151406	
Batticaloa	Eravur	Arumuhathankudiyiruppu Primary School	False	False	BTTCLRVRRMHTHNKDYRPPPRMRYSCHL		Batticaloa	LK-51	7.792772	81.486513	Eravur	PS-510104	7.715979	81.698757	7.781715	81.601743	Eravur - 04, Chenkaladi, Sri Lanka	12.953304	
Batticaloa	Eravur	Mawadiwembu Hospital	False	False	BTTCLRVRMWDWMBHSPTL		Batticaloa	LK-51	7.792772	81.486513	Eravur	PS-510104	7.715979	81.698757	7.808545	81.566328	Mawadiwembu Hospital, Sri Lanka	17.861302	
Batticaloa	Karadiyanaru	Karadiyanaru Hospital	False	False	BTTCLKRDYNRKRDYNRHSPTL		Batticaloa	LK-51	7.792772	81.486513	Karadiyanaru	PS-510105	7.701992	81.537252	7.700216	81.539779	PG2Q+3WJ, Karadiyanaru, Sri Lanka	0.341482	
Batticaloa	Vavunathivu	Karaikantivu Ganeshwara Vidyalaya	False	False	BTTCLVVNTHVKRKNTVGNSHWRVDYLY		Batticaloa	LK-51	7.792772	81.486513	Vavunathive	PS-510102	6.933075	79.857181	7.720143	81.700516	PPC2+362, Batticaloa, Sri Lanka	221.401617	#CenterFarFromPolice
Batticaloa	Vavunathivu	Vilavettuwan Vinegar Vidyalaya	False	False	BTTCLVVNTHVVLVTTWNVNGRVDYLY		Batticaloa	LK-51	7.792772	81.486513	Vavunathive	PS-510102	6.933075	79.857181	7.720143	81.700516	PPC2+362, Batticaloa, Sri Lanka	221.401617	#CenterFarFromPolice
Batticaloa	Vavunathivu	MOH Office - Vavunathivu	False	False	BTTCLVVNTHVMHFFCVVNTHV		Batticaloa	LK-51	7.792772	81.486513	Vavunathive	PS-510102	6.933075	79.857181	7.708253	81.691368	Hospital Rd, Batticaloa, Sri Lanka	219.95575	#CenterFarFromPolice
Ampara	Ampara	Polwatta Vidyalaya - Inginiyagala	False	False	MPRMPRPLWTTVDYLYNGNYGL		Ampara	LK-52	7.23699	81.550391	Ampara	PS-520113	7.296771	81.677161	7.234046	81.568438	Inginiyagala Road, Polwatta, Sri Lanka	13.877481	
Ampara	Dehiattakandiya	Sadunpura Vidyalaya	False	False	MPRDHTTKNDYSDNPRVDYLY		Ampara	LK-52	7.23699	81.550391	Dehiaththakandiya	PS-520121	7.672072	81.044241	7.628748	81.044783	Lihiniyagama Road, Sandunpura, Sri Lanka	4.819292	
Ampara	Dehiattakandiya	MOH Office - Dehiattakandiya	False	False	MPRDHTTKNDYMHFFCDHTTKNDY		Ampara	LK-52	7.23699	81.550391	Dehiaththakandiya	PS-520121	7.672072	81.044241	7.67421	81.045286	Office of the Medical Officer of Health, Dehiattakandiya, Sri Lanka	0.264241	
Ampara	Dehiattakandiya	Lihiniyagama Vidyalaya	False	False	MPRDHTTKNDYLHNYGMVDYLY		Ampara	LK-52	7.23699	81.550391	Dehiaththakandiya	PS-520121	7.672072	81.044241	7.632293	81.027045	J2JG+WR7, Sandunpura, Sri Lanka	4.813603	
Ampara	Dehiattakandiya	Bakmeedeniya Vidyalaya	False	False	MPRDHTTKNDYBKMDNYVDYLY		Ampara	LK-52	7.23699	81.550391	Dehiaththakandiya	PS-520121	7.672072	81.044241	7.682795	81.023899	M2MF+4H6, Dehiattakandiya, Sri Lanka	2.539829	
Ampara	Dehiattakandiya	Rathmalkandura Vidyalaya	False	False	MPRDHTTKNDYRTHMLKNDRVDYLY		Ampara	LK-52	7.23699	81.550391	Dehiaththakandiya	PS-520121	7.672072	81.044241	7.710574	81.015578	P268+66G, Bandanagala, Sri Lanka	5.321921	
Ampara	Dehiattakandiya	Henanigala South Vidyalaya	False	False	MPRDHTTKNDYHNNGLSTHVDYLY		Ampara	LK-52	7.23699	81.550391	Dehiaththakandiya	PS-520121	7.672072	81.044241	7.588722	81.066877	H3Q8+FQJ, Sri Lanka	9.600995	
Ampara	Dehiattakandiya	Pahalagama Viharaya	False	False	MPRDHTTKNDYPHLGMVHRY		Ampara	LK-52	7.23699	81.550391	Dehiaththakandiya	PS-520121	7.672072	81.044241	7.594037	81.024321	H2VF+JP8, Diyawiddagama, Sri Lanka	8.953349	
Ampara	Dehiattakandiya	Nawamedagama Vidyalaya	False	False	MPRDHTTKNDYNWMDGMVDYLY		Ampara	LK-52	7.23699	81.550391	Dehiaththakandiya	PS-520121	7.672072	81.044241	7.533823	81.045377	G2MW+G5C, Diyawiddagama, Sri Lanka	15.377923	
Ampara	Dehiattakandiya	Diyawiddagama Community Hall	False	False	MPRDHTTKNDYDYWDDGMCMMNTYHLL		Ampara	LK-52	7.23699	81.550391	Dehiaththakandiya	PS-520121	7.672072	81.044241	7.668027	81.047433	M29W+6X7, Dehiattakandiya, Sri Lanka	0.571178	
Ampara	Karaitivu	MOH Office – Karaitivu	False	False	MPRKRTVMHFFCKRTV		Ampara	LK-52	7.23699	81.550391	Karaitivu		9.744059	79.870587	7.377712	81.838796	Colombo-Ratnapura-Wellawaya-Batticaloa Highway, Karativu 32250, Sri Lanka	340.788666	#CenterFarFromPolice
Ampara	Karaitivu	Sanmuha Vidyalaya	False	False	MPRKRTVSNMHVDYLY		Ampara	LK-52	7.23699	81.550391	Karaitivu		9.744059	79.870587	7.368576	81.84344	Shanmuga Maha Vidyalaya, Karaitivu 32250, Sri Lanka	341.89962	#CenterFarFromPolice
Ampara	Karaitivu	RKM Vidyalaya	False	False	MPRKRTVRKMVDYLY		Ampara	LK-52	7.23699	81.550391	Karaitivu		9.744059	79.870587	7.382042	81.843013	Central Rd, Karaitivu 32250, Sri Lanka	340.711182	#CenterFarFromPolice
Ampara	Karaitivu	Al Husen Vidyalaya	False	False	MPRKRTVLHSNVDYLY		Ampara	LK-52	7.23699	81.550391	Karaitivu		9.744059	79.870587	7.388044	81.841647	Maligaroad, Karaitivu, Kalmunai 32250, Sri Lanka	340.099835	#CenterFarFromPolice
Ampara	Pottuvil	Mobile Vaccination	False	False	MPRPTTVLMBLVCCNTN		Ampara	LK-52	7.23699	81.550391	Pothuvil	PS-520128	6.878387	81.826859					#CenterLocationUnknown
Ampara	Panama	Panama Maha Vidyalaya	False	False	MPRPNMPNMMHVDYLY		Ampara	LK-52	7.23699	81.550391	Panama	PS-520129	6.752004	81.79349	6.75636	81.805024	Panama Beach Rd, Panama, Sri Lanka	1.363043	
