district	police	center	dose1	dose2	fuzzy_key	alt_name	district_name_norm	district_id	district_lat	district_lng	ps_name_norm	ps_id	ps_lat	ps_lng	lat	lng	formatted_address	dis_center_to_police	tags
Colombo	Cinnamon Gardens	Viharamahadevi Park	True	True	CLMBCNNMNGRDNSVHRMHDVPRK		Colombo	LK-11	6.869636	80.019598	Cinnamon Garden	PS-110324	6.907289	79.863819	6.913391	79.86174	Viharamahadevi Park, Colombo, Sri Lanka	0.716497	
Colombo	Narahenpita	Army Hospital Narahenpita	False	False	CLMBNRHNPTRMYHSPTLNRHNPT		Colombo	LK-11	6.869636	80.019598	Narahenpita	PS-110321	6.891832	79.876715	6.900252	79.87618	08 Elvitigala Mawatha, Colombo 00800, Sri Lanka	0.938417	
Colombo	Narahenpita	Army Headquarters Mobile Team	False	False	CLMBNRHNPTRMYHDQRTRSMBLTM		Colombo	LK-11	6.869636	80.019598	Narahenpita	PS-110321	6.891832	79.876715					#CenterLocationUnknown
Colombo	Maradana	Mobile Medical Team	False	False	CLMBMRDNMBLMDCLTM		Colombo	LK-11	6.869636	80.019598	Maradana	PS-110107	6.927939	79.865471					#CenterLocationUnknown
Colombo	Boralesgamuwa	Kotelawala Defence Hospital	False	True	CLMBBRLSGMWKTLWLDFNCHSPTL		Colombo	LK-11	6.869636	80.019598	Boralesgamuwa	PS-110464	6.841331	79.901255	6.82518	79.907167	RWG4+3VF, Boralesgamuwa, Sri Lanka	1.911444	
Colombo	Thalangama	Diyatha Uyana	True	True	CLMBTHLNGMDYTHYN		Colombo	LK-11	6.869636	80.019598	Thalangama	PS-110466	6.91089	79.929325	6.904575	79.909831	Diyatha Uyana, B240, Sri Jayawardenepura Kotte, Sri Lanka	2.264281	
Colombo	Grandpass	Sugathadasa Outdoor Stadium	False	False	CLMBGRNDPSSSGTHDSTDRSTDM		Colombo	LK-11	6.869636	80.019598	Grandpass	PS-110215	6.949052	79.872983	6.94806	79.868842	Prince of Wales Ave, Colombo 01400, Sri Lanka	0.470345	
Colombo	Borella	St. Luke's Church – Borella	False	False	CLMBBRLLSTLKSCHRCHBRLL		Colombo	LK-11	6.869636	80.019598	Borella	PS-110323	6.915266	79.87829	6.918035	79.874548	1091 Gnanartha Pradeepa Mawatha, Colombo 00800, Sri Lanka	0.515354	
Colombo	Fore shore	MOH Office - Jinthupitiya	False	False	CLMBFRSHRMHFFCJNTHPTY		Colombo	LK-11	6.869636	80.019598	Fore shore	PS-110210	6.949589	79.857355	6.943258	79.859238	No.27 Vivekananda Hill, Colombo 01300, Sri Lanka	0.734247	
Gampaha	Gampaha Katunayaka	Mobile Medical Team	True	True	GMPHGMPHKTNYKMBLMDCLTM		Gampaha	LK-12	7.123598	80.018508									#CenterLocationUnknown
Gampaha	Gampaha Katunayaka	BOI - Katunayaka - CCL	False	False	GMPHGMPHKTNYKBKTNYKCCL		Gampaha	LK-12	7.123598	80.018508									#PoliceLocationUnknown
Gampaha	Kadawata	Pinnameda Clinic	False	False	GMPHKDWTPNNMDCLNC		Gampaha	LK-12	7.123598	80.018508	Kadawatha	PS-120136	7.00152	79.95003	7.001164	79.950362	2X22+F49, Kadawatha, Sri Lanka	0.053958	
Gampaha	Kadawata	MOH Office – Mahara	False	False	GMPHKDWTMHFFCMHR		Gampaha	LK-12	7.123598	80.018508	Kadawatha	PS-120136	7.00152	79.95003	7.020757	79.973481	Mahara, Eldeniya, Sri Lanka	3.358732	
Gampaha	Kadawata	Eldeniya Clinic	False	False	GMPHKDWTLDNYCLNC		Gampaha	LK-12	7.123598	80.018508	Kadawatha	PS-120136	7.00152	79.95003	7.012321	79.967061	2X68+WRF, Eldeniya, Sri Lanka	2.231261	
Gampaha	Divulapitiya	MOH Office - Divulapitiya	False	False	GMPHDVLPTYMHFFCDVLPTY		Gampaha	LK-12	7.123598	80.018508	Diulapitiya	PS-120355	7.174215	79.957874	7.215486	80.013606	6287+5CX, Divulapitiya, Sri Lanka	7.67456	
Gampaha	Mirigama	NOH Office - Mirigama	False	False	GMPHMRGMNHFFCMRGM		Gampaha	LK-12	7.123598	80.018508	Meerigama	PS-120248	7.245169	80.128647	7.256795	80.135158	744P+P37, Mirigama, Sri Lanka	1.479322	
Gampaha	Biyagama	MOH Office - Biyagama	False	False	GMPHBYGMMHFFCBYGM		Gampaha	LK-12	7.123598	80.018508	Biyagama	PS-120131	6.962284	80.009037	6.946824	79.994052	Hospital Rd, Sri Lanka	2.386313	
Gampaha	Ja Ela	MOH Office - Ja Ela	False	False	GMPHJLMHFFCJL		Gampaha	LK-12	7.123598	80.018508	Ja - Ela	PS-120133	7.081055	79.890504	7.075216	79.893879	60 Mount Kalvary Rd, Ja-Ela, Sri Lanka	0.748731	
Gampaha	Wattala	MOH Office - Wattala	False	False	GMPHWTTLMHFFCWTTL		Gampaha	LK-12	7.123598	80.018508	Wattala	PS-120128	6.993713	79.894506	6.995817	79.885793	301 Hendala Rd, Wattala, Sri Lanka	0.989991	
Gampaha	Ragama	MOH Office - Ragama	False	False	GMPHRGMMHFFCRGM		Gampaha	LK-12	7.123598	80.018508	Ragama	PS-120134	7.034975	79.924148	7.027386	79.920232	2WGC+X35, Ragama, Sri Lanka	0.948382	
Kalutara	Kalutara South	Mobile Medical Team	True	True	KLTRKLTRSTHMBLMDCLTM		Kalutara	LK-13	6.577316	80.127363	Kalutara South	PS-130296	6.58486	79.961043					#CenterLocationUnknown
Kalutara	Kalutara South	NIHS	False	False	KLTRKLTRSTHNHS		Kalutara	LK-13	6.577316	80.127363	Kalutara South	PS-130296	6.58486	79.961043	6.55864	79.977416	HX5G+FX3, Katukurunda, Sri Lanka	3.432035	
Kalutara	Wadduwa	Diyabedda Gunawardhana Primary School	False	False	KLTRWDDWDYBDDGNWRDHNPRMRYSCHL		Kalutara	LK-13	6.577316	80.127363	Wadduwa	PS-130188	6.664403	79.929851	6.699146	79.923055	48 Dibbadda - Mahawila Road, Panadura, Sri Lanka	3.936713	
Kalutara	Beruwala	MOH Office - Beruwala	False	False	KLTRBRWLMHFFCBRWL		Kalutara	LK-13	6.577316	80.127363	Beruwala	PS-1302102	6.480329	79.983498	6.437559	79.999356	CXQX+2PH, Aluthgama, Sri Lanka	5.069893	
Kalutara	Agalawatta	Pimbura Hospital	False	False	KLTRGLWTTPMBRHSPTL		Kalutara	LK-13	6.577316	80.127363	Agalawatta		6.542566	80.157178	6.575949	80.158371	H5G5+98H, කළුතර, Sri Lanka	3.715525	
Kurunegala	Kurunegala	Mobile Medical Team	False	False	KRNGLKRNGLMBLMDCLTM		Kurunegala	LK-61	7.66477	80.23677	Kurunegala	PS-610101	7.485852	80.364137					#CenterLocationUnknown
Kurunegala	Kotawehera	Thimbiriyawa Clinic	False	False	KRNGLKTWHRTHMBRYWCLNC		Kurunegala	LK-61	7.66477	80.23677	Kotawehera	PS-610322	7.809001	80.077977	7.809001	80.077977	Kotawehera, Kurunegala, Sri Lanka	0.0	
Kurunegala	Kotawehera	Halambagala Vidyalaya	False	False	KRNGLKTWHRHLMBGLVDYLY		Kurunegala	LK-61	7.66477	80.23677	Kotawehera	PS-610322	7.809001	80.077977	7.809001	80.077977	Kotawehera, Kurunegala, Sri Lanka	0.0	
Kurunegala	Mawathagama	Yatiwilla Viharaya	False	False	KRNGLMWTHGMYTWLLVHRY		Kurunegala	LK-61	7.66477	80.23677	Mawathagama	PS-610109	7.432976	80.449904	7.537105	80.490915	Ridee Vihara Rd, Ridigama, Sri Lanka	12.433947	
Kurunegala	Mawathagama	Pothubowa Vidyalaya	False	False	KRNGLMWTHGMPTHBWVDYLY		Kurunegala	LK-61	7.66477	80.23677	Mawathagama	PS-610109	7.432976	80.449904	7.463828	80.446001	FC7W+GCJ, Kurunegala, Sri Lanka	3.458556	
Kurunegala	Nikaweratiya	Kaluwennawa Viharaya	False	False	KRNGLNKWRTYKLWNNWVHRY		Kurunegala	LK-61	7.66477	80.23677	Nikaweratiya	PS-610320	7.742612	80.121177	7.762989	80.093623	Q37V+5CX, Nikaweratiya, Sri Lanka	3.789378	
Kurunegala	Nikaweratiya	Magallegama Vidyalaya	False	False	KRNGLNKWRTYMGLLGMVDYLY		Kurunegala	LK-61	7.66477	80.23677	Nikaweratiya	PS-610320	7.742612	80.121177	7.733244	80.131075	Katugastota-Kurunegala-Puttalam Hwy, Nikaweratiya, Sri Lanka	1.508605	
Kurunegala	Nikaweratiya	Millagoda Vidyalaya	False	False	KRNGLNKWRTYMLLGDVDYLY		Kurunegala	LK-61	7.66477	80.23677	Nikaweratiya	PS-610320	7.742612	80.121177	7.730681	80.116811	P4J8+7PF, Nikaweratiya, Sri Lanka	1.411634	
Kurunegala	Nikaweratiya	Talagodahena Viharaya	False	False	KRNGLNKWRTYTLGDHNVHRY		Kurunegala	LK-61	7.66477	80.23677	Nikaweratiya	PS-610320	7.742612	80.121177	7.762989	80.093623	Q37V+5CX, Nikaweratiya, Sri Lanka	3.789378	
Kurunegala	Nikaweratiya	Hulogedara Vidyalaya	False	False	KRNGLNKWRTYHLGDRVDYLY		Kurunegala	LK-61	7.66477	80.23677	Nikaweratiya	PS-610320	7.742612	80.121177	7.790582	80.190743	Nikaweratiya-Maho Rd, Hulogedara, Sri Lanka	9.34077	
Kurunegala	Marawila	St. Xavier's Central College	False	False	KRNGLMRWLSTXVRSCNTRLCLLG		Kurunegala	LK-61	7.66477	80.23677	Marawila	PS-620243	7.415075	79.839776	7.415554	79.830995	A3, Marawila, Sri Lanka	0.970005	
Kurunegala	Marawila	Thalawila Primary School	False	False	KRNGLMRWLTHLWLPRMRYSCHL		Kurunegala	LK-61	7.66477	80.23677	Marawila	PS-620243	7.415075	79.839776	7.60632	80.079752	J34H+GWC, Kurunegala, Sri Lanka	33.953196	#CenterFarFromPolice
Kurunegala	Marawila	Walahapitiya Maha Vidyalaya	False	False	KRNGLMRWLWLHPTYMHVDYLY		Kurunegala	LK-61	7.66477	80.23677	Marawila	PS-620243	7.415075	79.839776	7.45141	79.866063	FV28+HC8, Madampe, Sri Lanka	4.973943	
Kandy	Kandy	Mobile Medical Team	False	False	KNDYKNDYMBLMDCLTM		Kandy	LK-21	7.27337	80.709602	Kandy	PS-210101	7.292948	80.642368					#CenterLocationUnknown
Kandy	Kandy	Pushpadhana Balika Vidyalaya	False	False	KNDYKNDYPSHPDHNBLKVDYLY		Kandy	LK-21	7.27337	80.709602	Kandy	PS-210101	7.292948	80.642368	7.293989	80.633	16 Kandy Rd, Kandy 20000, Sri Lanka	1.040036	
Kandy	Panvila	Hulugaga Cosma Maha Vidyalaya	False	False	KNDYPNVLHLGGCSMMHVDYLY		Kandy	LK-21	7.27337	80.709602	Panwila	PS-210361	7.362355	80.713731	7.401187	80.742098	Katugastota - Madawala - Bambarella Rd, Huluganga, Sri Lanka	5.333616	
Kandy	Kadugannawa	Pilimathalawa Central College	False	False	KNDYKDGNNWPLMTHLWCNTRLCLLG		Kandy	LK-21	7.27337	80.709602	Kadugannawa	PS-210112	7.256285	80.516908	7.265915	80.550553	Colombo - Kandy Rd, Pilimathalawa 20450, Sri Lanka	3.86376	
Kandy	Peththapitiya	Menikdiwela Maha Vidyalaya	False	False	KNDYPTHTHPTYMNKDWLMHVDYLY		Kandy	LK-21	7.27337	80.709602	Peththapitiya		7.287977	80.493449	7.293262	80.490241	5 Poththapitiya - Hatharaliyadda Rd, Kandy 20000, Sri Lanka	0.686179	
Kandy	Peththapitiya	Dodamwala Maha Vidyalaya	False	False	KNDYPTHTHPTYDDMWLMHVDYLY		Kandy	LK-21	7.27337	80.709602	Peththapitiya		7.287977	80.493449	7.28447	80.550963	Dodanwala Natha Dewale Rd, Dodamwala, Sri Lanka	6.357593	
Kandy	Galewela	Galewela Hospital	False	False	KNDYGLWLGLWLHSPTL		Kandy	LK-21	7.27337	80.709602	Galewela	PS-220129	7.763244	80.574149	7.760542	80.571552	QH6C+6J7, Galewela, Sri Lanka	0.415026	
Kandy	Dambulla	Rangiri Dambulla Central College	False	False	KNDYDMBLLRNGRDMBLLCNTRLCLLG		Kandy	LK-21	7.27337	80.709602	Dambulla	PS-220128	7.86208	80.649166	7.855404	80.651345	Kandy - Jaffna Hwy, Dambulla, Sri Lanka	0.78042	
Kandy	Sigiriya	Inamaluwa Vidyalaya	False	False	KNDYSGRYNMLWVDYLY		Kandy	LK-21	7.27337	80.709602	Sigiriya	PS-220130	7.94243	80.732502	7.293976	80.636139	Yatinuwara St, Kandy, Sri Lanka	72.905645	#CenterFarFromPolice
Badulla	Badulla	Mobile Medical Team	False	False	BDLLBDLLMBLMDCLTM		Badulla	LK-81	7.074529	81.04486	Badulla	PS-810101	6.991337	81.055246					#CenterLocationUnknown
Moneragala	Monaragala	Mobile Medical Team	False	False	MNRGLMNRGLMBLMDCLTM		Moneragala	LK-82	6.787517	81.303744	Monaragala	PS-820121	6.869866	81.348106					#CenterLocationUnknown
Moneragala	Sewanagala	Somadevi Vidyalaya	False	False	MNRGLSWNGLSMDVVDYLY		Moneragala	LK-82	6.787517	81.303744	Sewanagala	PS-910239	6.360663	80.918555	6.308406	80.940472	Sewanagala, Sri Lanka	6.297319	
Moneragala	Thanamalwila	Kahakurullanpelessa Vidyalaya	False	False	MNRGLTHNMLWLKHKRLLNPLSSVDYLY		Moneragala	LK-82	6.787517	81.303744	Thanamalwila	PS-820131	6.437696	81.131051	6.51246	81.007289	Bodagama-Hambegamuwa-Kaltota Rd, Sri Lanka	16.007783	
Moneragala	Badalkumbura	Lunugala Yodawewa Maha Vidyalaya	False	False	MNRGLBDLKMBRLNGLYDWWMHVDYLY		Moneragala	LK-82	6.787517	81.303744	Badalkumbura	PS-820128	6.889017	81.235441	6.89796	81.24123	Passara-Moneragala, Highway, Badalkumbura, Sri Lanka	1.182426	
Moneragala	Badalkumbura	Pallampara Viharaya	False	False	MNRGLBDLKMBRPLLMPRVHRY		Moneragala	LK-82	6.787517	81.303744	Badalkumbura	PS-820128	6.889017	81.235441	6.894987	81.239959	මොණරාගල පාර. බඩල්කුඹුර ,Monaragala Road, Passara-Moneragala Hwy, Badalkumbura 91070, Sri Lanka	0.830511	
Moneragala	Dambagalla	Elpitiya Maha Vidyalaya	False	False	MNRGLDMBGLLLPTYMHVDYLY		Moneragala	LK-82	6.787517	81.303744	Dambagalla	PS-820123	6.978806	81.372037	7.08556	81.433739	3CPM+6FH, Monaragala, Sri Lanka	13.689175	
Moneragala	Dambagalla	Dambagalla Maha Vidyalaya	False	False	MNRGLDMBGLLDMBGLLMHVDYLY		Moneragala	LK-82	6.787517	81.303744	Dambagalla	PS-820123	6.978806	81.372037	6.961757	81.371229	X96C+PF5, Dambagalla, Sri Lanka	1.898455	
Moneragala	Bibila	Samadhi Resort	False	False	MNRGLBBLSMDHRSRT		Moneragala	LK-82	6.787517	81.303744	Bibila	PS-820125	7.165232	81.225463	7.158847	81.19934	No.96A, Bibile 91500, Sri Lanka	2.969174	
Moneragala	Bibila	Wegama Vidyalaya	False	False	MNRGLBBLWGMVDYLY		Moneragala	LK-82	6.787517	81.303744	Bibila	PS-820125	7.165232	81.225463	7.031205	81.276445	Moneragala Road,Medagama, B56, Monaragala 91550, Sri Lanka	15.934508	
Moneragala	Bibila	Pitakumbura Vidyalaya	False	False	MNRGLBBLPTKMBRVDYLY		Moneragala	LK-82	6.787517	81.303744	Bibila	PS-820125	7.165232	81.225463	7.178052	81.291569	57HR+6JG, Pitakumbura, Sri Lanka	7.433488	
Moneragala	Medagama	Bakinigahawela Muslim College	False	False	MNRGLMDGMBKNGHWLMSLMCLLG		Moneragala	LK-82	6.787517	81.303744	Medagama	PS-820126	7.033608	81.276708	6.997455	81.284793	X7WM+XWM, Sri Lanka	4.119157	
Moneragala	Medagama	Amunekumbura Vidyalaya	False	False	MNRGLMDGMMNKMBRVDYLY		Moneragala	LK-82	6.787517	81.303744	Medagama	PS-820126	7.033608	81.276708	7.031205	81.276445	Moneragala Road,Medagama, B56, Monaragala 91550, Sri Lanka	0.268858	
Moneragala	Siyambalanduwa	Siyambalanduwa Maha Vidyalaya	False	False	MNRGLSYMBLNDWSYMBLNDWMHVDYLY		Moneragala	LK-82	6.787517	81.303744	Siyambalanduwa	PS-820122	6.906851	81.547598	6.906464	81.561014	Siyambalanduwa, Sri Lanka	1.482056	
Moneragala	Siyambalanduwa	03th Mile Post,  Primary School	False	False	MNRGLSYMBLNDWTHMLPSTPRMRYSCHL		Moneragala	LK-82	6.787517	81.303744	Siyambalanduwa	PS-820122	6.906851	81.547598	6.906464	81.561014	Siyambalanduwa, Sri Lanka	1.482056	
Moneragala	Ethimale	Ethimale Maha Vidyalaya	False	False	MNRGLTHMLTHMLMHVDYLY		Moneragala	LK-82	6.787517	81.303744	Athimale	PS-820124	6.907289	79.863819	6.824897	81.453991	Ethimale Tank, Sri Lanka	175.844945	#CenterFarFromPolice
Moneragala	Ethimale	Wijepura Primary School	False	False	MNRGLTHMLWJPRPRMRYSCHL		Moneragala	LK-82	6.787517	81.303744	Athimale	PS-820124	6.907289	79.863819	6.429588	81.012337	B427, Sri Lanka	137.561035	#CenterFarFromPolice
Galle	Galle	Mobile Medical Team	False	False	GLLGLLMBLMDCLTM		Galle	LK-31	6.222805	80.251977	Galle	PS-310120	6.032983	80.21714					#CenterLocationUnknown
Galle	Rathgama	Mahegoda Sri Nigrodharamaya	False	False	GLLRTHGMMHGDSRNGRDHRMY		Galle	LK-31	6.222805	80.251977	Ratgama	PS-310121	6.145115	80.099693	6.093003	80.167915	35V9+653, Boossa, Sri Lanka	9.514552	
Galle	Matara	Mobile Medical Team	False	False	GLLMTRMBLMDCLTM		Galle	LK-31	6.222805	80.251977	Matara	PS-320101	5.94904	80.533659					#CenterLocationUnknown
Matara	Hakmana	Denagama Maha Vidyalaya	False	False	MTRHKMNDNGMMHVDYLY		Matara	LK-32	6.142734	80.539994	Hakmana	PS-320106	6.084824	80.643227	6.107686	80.647779	Hakmana - Mulatiyana Rd, Sri Lanka	2.592295	
Hambantota	Hambanthota	Mobile Medical Team	False	False	HMBNTTHMBNTHTMBLMDCLTM		Hambantota	LK-33	6.259779	81.098619	Hambantota	PS-330156	6.125872	81.12521					#CenterLocationUnknown
Hambantota	Beliatta	MOH Office - Beliatta	False	False	HMBNTTBLTTMHFFCBLTT		Hambantota	LK-33	6.259779	81.098619	Beliatta	PS-330152	6.046936	80.735408	6.051828	80.741735	3P2R+PMQ, Hambantota, Sri Lanka	0.886482	
Hambantota	Katuwana	MOH Office - Katuwana	False	False	HMBNTTKTWNMHFFCKTWN		Hambantota	LK-33	6.259779	81.098619	Katuwana	PS-330153	6.269722	80.690963	6.26627	80.693035	7M8V+G63, Katuwana, Sri Lanka	0.447115	
Hambantota	Tangalle	MOH Office - Tangalle	False	False	HMBNTTTNGLLMHFFCTNGLL		Hambantota	LK-33	6.259779	81.098619	Tangalle	PS-330147	6.023954	80.797255	6.02363	80.795742	2QFW+F75, Tangalle, Sri Lanka	0.171198	
Hambantota	Walasmulla	Modarawana Maha Vidyalaya	False	False	HMBNTTWLSMLLMDRWNMHVDYLY		Hambantota	LK-33	6.259779	81.098619	Walasmulla	PS-330151	6.154102	80.698256	6.109322	80.714402	Beliatta - Walasmulla Rd, Okewela, Sri Lanka	5.291276	
Rathnapura	Pinnawala	Ihala Galagama Vidyalaya	False	False	RTHNPRPNNWLHLGLGMVDYLY		Ratnapura	LK-91	6.586826	80.566158	Pinnawala	PS-910115	7.299943	80.386604	6.720736	80.769491	PQC9+7QX, Belihuloya, Sri Lanka	77.054112	#CenterFarFromPolice
Rathnapura	Udawalawa	Kolamba gdeara Vidyalaya	False	False	RTHNPRDWLWKLMBGDRVDYLY		Ratnapura	LK-91	6.586826	80.566158	Udawalawa	PS-910234	6.422661	80.814293	6.418483	80.823938	Udawalawa, Sri Lanka	1.162969	
Rathnapura	Udawalawa	Bodhimaluwa Vidyalaya	False	False	RTHNPRDWLWBDHMLWVDYLY		Ratnapura	LK-91	6.586826	80.566158	Udawalawa	PS-910234	6.422661	80.814293	6.387546	80.813102	Ratnapura Road, kolabageAra, Sri Lanka	3.908054	
Rathnapura	Udawalawa	Panahaduwa Vidyalaya	False	False	RTHNPRDWLWPNHDWVDYLY		Ratnapura	LK-91	6.586826	80.566158	Udawalawa	PS-910234	6.422661	80.814293	6.467973	80.79348	Panahaduwa, Sri Lanka	5.540206	
Rathnapura	Ayagama	Sinhalagoda Vidyalaya	False	False	RTHNPRYGMSNHLGDVDYLY		Ratnapura	LK-91	6.586826	80.566158	Ayagama	PS-910109	6.637727	80.312554	6.684109	80.29352	M7MV+JCR, Ratnapura, Sri Lanka	5.57117	
Rathnapura	Ayagama	Vithanagama Vidyalaya	False	False	RTHNPRYGMVTHNGMVDYLY		Ratnapura	LK-91	6.586826	80.566158	Ayagama	PS-910109	6.637727	80.312554	6.658231	80.313703	M857+7FW, Ayagama, Sri Lanka	2.284187	
Anuradhapura	Anuradhapura Kekirawa	Army Hospital Anuradhapura	False	False	NRDHPRNRDHPRKKRWRMYHSPTLNRDHPR		Anuradhapura	LK-71	8.39199	80.512958									#PoliceLocationUnknown
Anuradhapura	Anuradhapura Kekirawa	62 DIV	False	False	NRDHPRNRDHPRKKRWDV		Anuradhapura	LK-71	8.39199	80.512958									#PoliceLocationUnknown
Anuradhapura	Anuradhapura Kekirawa	Army Hospital Anuradhapura	False	False	NRDHPRNRDHPRKKRWRMYHSPTLNRDHPR		Anuradhapura	LK-71	8.39199	80.512958									#PoliceLocationUnknown
Anuradhapura	Anuradhapura Kekirawa	Maradankadawala Hospital	False	False	NRDHPRNRDHPRKKRWMRDNKDWLHSPTL		Anuradhapura	LK-71	8.39199	80.512958									#PoliceLocationUnknown
Anuradhapura	Anuradhapura Kekirawa	kekirawa Hospital	False	False	NRDHPRNRDHPRKKRWKKRWHSPTL		Anuradhapura	LK-71	8.39199	80.512958									#PoliceLocationUnknown
Polonnaruwa	Polonnaruwa	Mobile Medical Team	False	False	PLNNRWPLNNRWMBLMDCLTM		Polonnaruwa	LK-72	7.993659	81.026061	Polonnaruwa	PS-720125	7.924307	81.036895					#CenterLocationUnknown
Polonnaruwa	Polonnaruwa	Thopawewa Vidyalaya	False	False	PLNNRWPLNNRWTHPWWVDYLY		Polonnaruwa	LK-72	7.993659	81.026061	Polonnaruwa	PS-720125	7.924307	81.036895	7.938857	81.003164	Thopawewa Maha Vidyalaya, Polonnaruwa, Sri Lanka	4.05313	
Polonnaruwa	Welikanda	Welikanda Central College	False	False	PLNNRWWLKNDWLKNDCNTRLCLLG		Polonnaruwa	LK-72	7.993659	81.026061	Welikanda	PS-720127	7.946441	81.245381	7.948861	81.248377	Maradankadawala-Habarana-Thirukkondaiadimadu Hwy, Welikanda, Sri Lanka	0.425893	
Polonnaruwa	Welikanda	MOH Office - Siripura	False	False	PLNNRWWLKNDMHFFCSRPR		Polonnaruwa	LK-72	7.993659	81.026061	Welikanda	PS-720127	7.946441	81.245381	7.67421	81.045286	Office of the Medical Officer of Health, Dehiattakandiya, Sri Lanka	37.457917	#CenterFarFromPolice
Polonnaruwa	Hingurakgoda Medirigiriya Bakamuna	Tharuka Pavilion	False	False	PLNNRWHNGRKGDMDRGRYBKMNTHRKPVLN		Polonnaruwa	LK-72	7.993659	81.026061									#PoliceLocationUnknown
Polonnaruwa	Hingurakgoda Medirigiriya Bakamuna	Medirigiriya Vidyalaya	False	False	PLNNRWHNGRKGDMDRGRYBKMNMDRGRYVDYLY		Polonnaruwa	LK-72	7.993659	81.026061									#PoliceLocationUnknown
Polonnaruwa	Hingurakgoda Medirigiriya Bakamuna	Segala Vidyalaya	False	False	PLNNRWHNGRKGDMDRGRYBKMNSGLVDYLY		Polonnaruwa	LK-72	7.993659	81.026061									#PoliceLocationUnknown
Polonnaruwa	Hingurakgoda Medirigiriya Bakamuna	Sirikadu yaya Viharaya	False	False	PLNNRWHNGRKGDMDRGRYBKMNSRKDYYVHRY		Polonnaruwa	LK-72	7.993659	81.026061									#PoliceLocationUnknown
Polonnaruwa	Jaffna	Mobile Medical Team	False	False	PLNNRWJFFNMBLMDCLTM		Polonnaruwa	LK-72	7.993659	81.026061	Jaffna	PS-410209	9.659919	80.010965					#CenterLocationUnknown
Jaffna	Jaffna	Mobile Medical Team	False	False	JFFNJFFNMBLMDCLTM		Jaffna	LK-41	9.691792	80.098594	Jaffna	PS-410209	9.659919	80.010965					#CenterLocationUnknown
Kilinochchi	Kilinochchi	Mobile Medical Team	False	False	KLNCHCHKLNCHCHMBLMDCLTM		Kilinochchi	LK-45	9.415742	80.30358	Kilinochchi	PS-450131	9.392265	80.407846					#CenterLocationUnknown
Mannar	Mannar	Mobile Medical Team	False	False	MNNRMNNRMBLMDCLTM		Mannar	LK-42	8.877429	80.088628	Mannar	PS-420138	8.978123	79.911642					#CenterLocationUnknown
Vavuniya	Vavuniya	Mobile Medical Team	False	False	VVNYVVNYMBLMDCLTM		Vavuniya	LK-43	8.852071	80.467404	Vavuniya	PS-430119	8.754431	80.498604					#CenterLocationUnknown
Trincomalee	Trincomalee	Mobile Medical Team	False	False	TRNCMLTRNCMLMBLMDCLTM		Trincomalee	LK-53	8.551241	81.092014	Trincomalee	PS-530130	8.563946	81.234023					#CenterLocationUnknown
Trincomalee	Mutur	MOH Office – Mutur	False	False	TRNCMLMTRMHFFCMTR		Trincomalee	LK-53	8.551241	81.092014	Mutur	PS-530138	8.461133	81.259371	8.453916	81.264494	1 Old Batticaloa Rd, Mutur, Sri Lanka	0.980859	
Trincomalee	Kinniya	MOH Office - Kuruggankeni	False	False	TRNCMLKNNYMHFFCKRGGNKN		Trincomalee	LK-53	8.551241	81.092014	Kinnia	PS-530140	6.907289	79.863819	8.498696	81.179644	F5XH+FVC, Kinniya 31100, Sri Lanka	228.840304	#CenterFarFromPolice
Trincomalee	Kinniya	MOH Office – Kinniya	False	False	TRNCMLKNNYMHFFCKNNY		Trincomalee	LK-53	8.551241	81.092014	Kinnia	PS-530140	6.907289	79.863819	8.498696	81.179644	F5XH+FVC, Kinniya 31100, Sri Lanka	228.840304	#CenterFarFromPolice
Trincomalee	Sripura	MOH Office – Sripura	False	False	TRNCMLSRPRMHFFCSRPR		Trincomalee	LK-53	8.551241	81.092014	Sripura	PS-530136	8.929617	80.81428	8.926697	80.814799	Padavi Sripura, Padaviya - Sripura Road, Welioya, Sri Lanka	0.329869	
Trincomalee	Kuchchaveli	MOH Office - Kuchchaveli	False	False	TRNCMLKCHCHVLMHFFCKCHCHVL		Trincomalee	LK-53	8.551241	81.092014	Kuchchaweli	PS-530133	8.81895	81.100438	8.740082	81.161616	P5R6+2JQ, Kumpurupiddi, Sri Lanka	11.053646	
Trincomalee	Kuchchaveli	Divisional Hospital - Kuchchaveli	False	False	TRNCMLKCHCHVLDVSNLHSPTLKCHCHVL		Trincomalee	LK-53	8.551241	81.092014	Kuchchaweli	PS-530133	8.81895	81.100438	8.814795	81.102358	R472+WW9, Kuchchaveli, Sri Lanka	0.508064	
Trincomalee	Kuchchaveli	Divisional Hospital - Nilaveli	False	False	TRNCMLKCHCHVLDVSNLHSPTLNLVL		Trincomalee	LK-53	8.551241	81.092014	Kuchchaweli	PS-530133	8.81895	81.100438	8.681035	81.193632	M5JV+CF6, Nilaveli, Sri Lanka	18.44695	
Trincomalee	Kantale	MOH Office – Kantale	False	False	TRNCMLKNTLMHFFCKNTL		Trincomalee	LK-53	8.551241	81.092014	Kantale	PS-530241	8.356129	81.007739	8.349617	81.009107	අග්‍රබෝධි මාවත, Kantale, Sri Lanka	0.739809	
Trincomalee	Pulmoddai	Pulmoddai Base Hospital	False	False	TRNCMLPLMDDPLMDDBSHSPTL	Base Hospital - Pulmoddai	Trincomalee	LK-53	8.551241	81.092014	Pulmudai	PS-530135	6.915266	79.87829	8.941204	80.983139	WXRM+F7J, Pulmoddai, Sri Lanka	256.112801	#CenterFarFromPolice
Trincomalee	Serunuwara	MOH Office - Serunuwara	False	False	TRNCMLSRNWRMHFFCSRNWR		Trincomalee	LK-53	8.551241	81.092014	Serunuwara	PS-530244	8.321863	81.299322	8.323143	81.299894	B10, Sri Lanka	0.155671	
Trincomalee	Harbour Police	MOH Office - Trincomalee	False	False	TRNCMLHRBRPLCMHFFCTRNCML		Trincomalee	LK-53	8.551241	81.092014	Trinco Harbour Police	PS-530131	8.56705	81.231407	8.598974	81.216963	MOH Office, Farm Rd, Trincomalee, Sri Lanka	3.890062	
Trincomalee	Uppuveli	MOH Office - Uppuveli	False	False	TRNCMLPPVLMHFFCPPVL		Trincomalee	LK-53	8.551241	81.092014	Uppuweli	PS-530134	8.593614	81.21743	8.607961	81.216512	Nilaveli Rd, Trincomalee, Sri Lanka	1.599005	
Trincomalee	Ichchalampattu	MOH Office - Ichchalampattu	False	False	TRNCMLCHCHLMPTTMHFFCCHCHLMPTT	Eachchilampattu Hospital	Trincomalee	LK-53	8.551241	81.092014	Ichchalampattu		8.289549	81.359002	8.289644	81.358983	Highway, Ichchalampattu, Trincomalee, Sri Lanka	0.010772	
Trincomalee	Thambalagamuwa	Thambalagamuwa Kulakoddan Vidyalaya	False	False	TRNCMLTHMBLGMWTHMBLGMWKLKDDNVDYLY		Trincomalee	LK-53	8.551241	81.092014	Thambalagamuva	PS-530243	6.907289	79.863819	8.499625	81.094502	Kandy Road, Sri Lanka	223.092723	#CenterFarFromPolice
Trincomalee	Thambalagamuwa	No 96 Sinhala Maha Vidyalaya	False	False	TRNCMLTHMBLGMWNSNHLMHVDYLY		Trincomalee	LK-53	8.551241	81.092014	Thambalagamuva	PS-530243	6.907289	79.863819	8.446541	81.06047	Mollipothana - Soorangal Rd, Mullipotana, Sri Lanka	216.130357	#CenterFarFromPolice
Trincomalee	Thambalagamuwa	Mollipathana Medical Centre	False	False	TRNCMLTHMBLGMWMLLPTHNMDCLCNTR		Trincomalee	LK-53	8.551241	81.092014	Thambalagamuva	PS-530243	6.907289	79.863819	8.366638	81.004746	Ambepussa - Kurunegala - Trincomalee Hwy, Kantale, Sri Lanka	205.349382	#CenterFarFromPolice
Trincomalee	Thambalagamuwa	Siraj Nagar Muslim College	False	False	TRNCMLTHMBLGMWSRJNGRMSLMCLLG		Trincomalee	LK-53	8.551241	81.092014	Thambalagamuva	PS-530243	6.907289	79.863819	8.465601	81.082906	Siraj Nagar,, Trincomalee, Sri Lanka	219.318228	#CenterFarFromPolice
Trincomalee	Thambalagamuwa	Gantalawa Medical Centre	False	False	TRNCMLTHMBLGMWGNTLWMDCLCNTR		Trincomalee	LK-53	8.551241	81.092014	Thambalagamuva	PS-530243	6.907289	79.863819	8.366638	81.004746	Ambepussa - Kurunegala - Trincomalee Hwy, Kantale, Sri Lanka	205.349382	#CenterFarFromPolice
Trincomalee	Gomarankadawala	GH - Mahadivulwewa	False	False	TRNCMLGMRNKDWLGHMHDVLWW		Trincomalee	LK-53	8.551241	81.092014	Gomarankadawala	PS-530248	8.674487	80.967555	8.617386	80.964277	JX87+XP2, Mahadivul Wewa, Sri Lanka	6.361556	
Trincomalee	Gomarankadawala	MOH Office - Gomarankadawala	False	False	TRNCMLGMRNKDWLMHFFCGMRNKDWL		Trincomalee	LK-53	8.551241	81.092014	Gomarankadawala	PS-530248	8.674487	80.967555	8.674726	80.955691	Unnamed Road, Gomarankadawala, Sri Lanka	1.304806	
Trincomalee	Batticaloa	Mobile Medical Team	False	False	TRNCMLBTTCLMBLMDCLTM		Trincomalee	LK-53	8.551241	81.092014	Batticaloa	PS-510101	7.717949	81.699294					#CenterLocationUnknown
Trincomalee	Batticaloa	MOH Office - Batticaloa	False	False	TRNCMLBTTCLMHFFCBTTCL		Trincomalee	LK-53	8.551241	81.092014	Batticaloa	PS-510101	7.717949	81.699294	7.708253	81.691368	Hospital Rd, Batticaloa, Sri Lanka	1.387934	
Trincomalee	Vavunathivu	MOH Office - Vavunathivu	False	False	TRNCMLVVNTHVMHFFCVVNTHV		Trincomalee	LK-53	8.551241	81.092014	Vavunathive	PS-510102	6.933075	79.857181	7.708253	81.691368	Hospital Rd, Batticaloa, Sri Lanka	219.95575	#CenterFarFromPolice
Ampara	Chavalakade	5th Colony Health Centre	False	False	MPRCHVLKDTHCLNYHLTHCNTR		Ampara	LK-52	7.23699	81.550391	Chawalakade	PS-520125	7.413559	81.776822	7.418836	81.781436	Chavalakade, Sri Lanka	0.776867	
Ampara	Karaitivu	MOH Office – Karaitivu	False	False	MPRKRTVMHFFCKRTV		Ampara	LK-52	7.23699	81.550391	Karaitivu		9.744059	79.870587	7.377712	81.838796	Colombo-Ratnapura-Wellawaya-Batticaloa Highway, Karativu 32250, Sri Lanka	340.788666	#CenterFarFromPolice
Ampara	Karaitivu	Mavadipalli Health Centre	False	False	MPRKRTVMVDPLLHLTHCNTR		Ampara	LK-52	7.23699	81.550391	Karaitivu		9.744059	79.870587	7.372549	81.824772	Karativu-Ampara Hwy, Karaitivu, Sri Lanka	340.256929	#CenterFarFromPolice
Ampara	Thirukkovil	MOH Office - Thirukkovil	False	False	MPRTHRKKVLMHFFCTHRKKVL		Ampara	LK-52	7.23699	81.550391	Thirukkovil	PS-520127	7.113998	81.852219	7.111635	81.852892	Central Rd, Vinayagapuram, Sri Lanka	0.273131	
Ampara	Thirukkovil	MOH Office - Alayadiwembu	False	False	MPRTHRKKVLMHFFCLYDWMB		Ampara	LK-52	7.23699	81.550391	Thirukkovil	PS-520127	7.113998	81.852219	7.413484	81.826588	Colombo - Batticaloa Hwy, Kalmunai 32300, Sri Lanka	33.431608	#CenterFarFromPolice
Ampara	Eragama	MOH Office - Eragama	False	False	MPRRGMMHFFCRGM		Ampara	LK-52	7.23699	81.550391									#PoliceLocationUnknown
Ampara	Damana	MOH Office - Damana	False	False	MPRDMNMHFFCDMN		Ampara	LK-52	7.23699	81.550391	Damana	PS-520114	7.200465	81.654653	7.197982	81.65538	5MX4+55R, Damana, Sri Lanka	0.2876	
Ampara	Pottuvil	MOH Office - Pottuvil	False	False	MPRPTTVLMHFFCPTTVL		Ampara	LK-52	7.23699	81.550391	Pothuvil	PS-520128	6.878387	81.826859	6.877076	81.828969	B374, Pottuvil, Sri Lanka	0.274874	
Ampara	Akkaraipattu	MOH Office - Alayadiwembu	False	False	MPRKKRPTTMHFFCLYDWMB		Ampara	LK-52	7.23699	81.550391	Akkaraipattu	PS-520126	7.216084	81.853254	7.413484	81.826588	Colombo - Batticaloa Hwy, Kalmunai 32300, Sri Lanka	22.152981	#CenterFarFromPolice
Ampara	Kalmunai	MOH Office - Kalmunai North	False	False	MPRKLMNMHFFCKLMNNRTH		Ampara	LK-52	7.23699	81.550391	Kalmunai	PS-520123	7.414289	81.825006	7.411712	81.838462	CR6Q+M9P, Kalmunai 32300, Sri Lanka	1.511625	
Ampara	Kalmunai	Mobile Vaccination	False	False	MPRKLMNMBLVCCNTN		Ampara	LK-52	7.23699	81.550391	Kalmunai	PS-520123	7.414289	81.825006					#CenterLocationUnknown
Ampara	Kalmunai	Periyani Lawana Clinic	False	False	MPRKLMNPRYNLWNCLNC		Ampara	LK-52	7.23699	81.550391	Kalmunai	PS-520123	7.414289	81.825006	7.420034	81.82232	hospital near, Kalmunai 32300, Sri Lanka	0.704353	
Ampara	Kalmunai	Maruthamunai Almanar Central College	False	False	MPRKLMNMRTHMNLMNRCNTRLCLLG		Ampara	LK-52	7.23699	81.550391	Kalmunai	PS-520123	7.414289	81.825006	7.436331	81.812701	Maruthamunai, Sri Lanka	2.802316	
Ampara	Kalmunai	Kalmunai Al Misbah Maha Vidyalaya	False	False	MPRKLMNKLMNLMSBHMHVDYLY		Ampara	LK-52	7.23699	81.550391	Kalmunai	PS-520123	7.414289	81.825006	7.401673	81.840708	Kalmunai 32300, Sri Lanka	2.22909	
Ampara	Kalmunai	Narappattimunai Al Ashka Maha Vidyalaya	False	False	MPRKLMNNRPPTTMNLSHKMHVDYLY		Ampara	LK-52	7.23699	81.550391	Kalmunai	PS-520123	7.414289	81.825006	7.414638	81.81151	CR76+VJ2, Kalmunai, Sri Lanka	1.489112	
Ampara	Sainthamaruthu	APC Clinic	False	False	MPRSNTHMRTHPCCLNC		Ampara	LK-52	7.23699	81.550391									#PoliceLocationUnknown
Ampara	Sainthamaruthu	Sainthamaruthu Hospital	False	False	MPRSNTHMRTHSNTHMRTHHSPTL		Ampara	LK-52	7.23699	81.550391									#PoliceLocationUnknown
Ampara	Sainthamaruthu	MOH Office - Sainthamaruthu	False	False	MPRSNTHMRTHMHFFCSNTHMRTH		Ampara	LK-52	7.23699	81.550391									#PoliceLocationUnknown
Ampara	Sammanthurai	Miranagar Health Centre	False	False	MPRSMMNTHRMRNGRHLTHCNTR		Ampara	LK-52	7.23699	81.550391	Samanthurai	PS-520124	7.365785	81.810859	7.359802	81.793874	Vilinaiyadi Rd, Sammanthurai, Sri Lanka	1.988336	
Ampara	Sammanthurai	Vavalodai Health Centre	False	False	MPRSMMNTHRVVLDHLTHCNTR		Ampara	LK-52	7.23699	81.550391	Samanthurai	PS-520124	7.365785	81.810859	7.359802	81.793874	Vilinaiyadi Rd, Sammanthurai, Sri Lanka	1.988336	
Ampara	Sammanthurai	Arasady Health Centre	False	False	MPRSMMNTHRRSDYHLTHCNTR		Ampara	LK-52	7.23699	81.550391	Samanthurai	PS-520124	7.365785	81.810859	7.368169	81.812056	Hospital Rd, Sammanthurai, Sri Lanka	0.296229	
Ampara	Sammanthurai	Attapalam Health Centre	False	False	MPRSMMNTHRTTPLMHLTHCNTR		Ampara	LK-52	7.23699	81.550391	Samanthurai	PS-520124	7.365785	81.810859	7.359802	81.793874	Vilinaiyadi Rd, Sammanthurai, Sri Lanka	1.988336	
Ampara	Sammanthurai	Sammanthurai Base Hospital	False	False	MPRSMMNTHRSMMNTHRBSHSPTL		Ampara	LK-52	7.23699	81.550391	Samanthurai	PS-520124	7.365785	81.810859	7.368355	81.813042	9R96+MWM, Hospital Rd, Sammanthurai, Sri Lanka	0.373773	
Ampara	Sammanthurai	Town Hall - Sammanthurai	False	False	MPRSMMNTHRTWNHLLSMMNTHR		Ampara	LK-52	7.23699	81.550391	Samanthurai	PS-520124	7.365785	81.810859	7.363356	81.804123	9R73+8JX, Sammanthurai, Sri Lanka	0.790657	
Ampara	Sammanthurai	Malwatta Hospital	False	False	MPRSMMNTHRMLWTTHSPTL		Ampara	LK-52	7.23699	81.550391	Samanthurai	PS-520124	7.365785	81.810859	7.368355	81.813042	9R96+MWM, Hospital Rd, Sammanthurai, Sri Lanka	0.373773	
Ampara	Sammanthurai	Al -Arshath College - Sammanthurai	False	False	MPRSMMNTHRLRSHTHCLLGSMMNTHR		Ampara	LK-52	7.23699	81.550391	Samanthurai	PS-520124	7.365785	81.810859	7.35018	81.80359	Kallarichchel 02, Sammanthurai, Sri Lanka	1.912014	
Ampara	Sammanthurai	Al-Azhar Maha Vidyalaya - Sammanthurai	False	False	MPRSMMNTHRLZHRMHVDYLYSMMNTHR		Ampara	LK-52	7.23699	81.550391	Samanthurai	PS-520124	7.365785	81.810859	7.35018	81.80359	Kallarichchel 02, Sammanthurai, Sri Lanka	1.912014	
