district	police	center	dose1	dose2	fuzzy_key	alt_name	district_name_norm	district_id	district_lat	district_lng	ps_name_norm	ps_id	ps_lat	ps_lng	lat	lng	formatted_address	dis_center_to_police	tags
Colombo	Cinnamon Gardens	Viharamahadevi Park	True	True	CLMBCNNMNGRDNSVHRMHDVPRK		Colombo	LK-11	6.869636	80.019598	Cinnamon Garden	PS-110324	6.907289	79.863819	6.913391	79.86174	Viharamahadevi Park, Colombo, Sri Lanka	0.716497	
Colombo	Narahenpita	Army Hospital Narahenpita	False	False	CLMBNRHNPTRMYHSPTLNRHNPT		Colombo	LK-11	6.869636	80.019598	Narahenpita	PS-110321	6.891832	79.876715	6.900252	79.87618	08 Elvitigala Mawatha, Colombo 00800, Sri Lanka	0.938417	
Colombo	Narahenpita	Army Headquarters Mobitel Team	True	True	CLMBNRHNPTRMYHDQRTRSMBTLTM		Colombo	LK-11	6.869636	80.019598	Narahenpita	PS-110321	6.891832	79.876715	6.92129	79.881222	148, 15 Leslie Ranagala Mawatha, Colombo 00800, Sri Lanka	3.314188	
Colombo	Thalangama	Diyatha Uyana	True	True	CLMBTHLNGMDYTHYN		Colombo	LK-11	6.869636	80.019598	Thalangama	PS-110466	6.91089	79.929325	6.904575	79.909831	Diyatha Uyana, B240, Sri Jayawardenepura Kotte, Sri Lanka	2.264281	
Colombo	Maradana	Mobitel Team	True	True	CLMBMRDNMBTLTM		Colombo	LK-11	6.869636	80.019598	Maradana	PS-110107	6.927939	79.865471	6.933703	79.850412	Colombo Fort Station, Colombo, Sri Lanka	1.782092	
Colombo	Boralesgamuwa	Kotelawala Defence Hospital	False	True	CLMBBRLSGMWKTLWLDFNCHSPTL		Colombo	LK-11	6.869636	80.019598	Boralesgamuwa	PS-110464	6.841331	79.901255	6.82518	79.907167	RWG4+3VF, Boralesgamuwa, Sri Lanka	1.911444	
Colombo	Boralesgamuwa	MOH Office - Werahera	False	False	CLMBBRLSGMWMHFFCWRHR		Colombo	LK-11	6.869636	80.019598	Boralesgamuwa	PS-110464	6.841331	79.901255	6.833094	79.905583	RWM4+66P, Boralesgamuwa, Sri Lanka	1.033386	
Colombo	Grandpass	Sugathadasa Outdoor Stadium	False	False	CLMBGRNDPSSSGTHDSTDRSTDM		Colombo	LK-11	6.869636	80.019598	Grandpass	PS-110215	6.949052	79.872983	6.94806	79.868842	Prince of Wales Ave, Colombo 01400, Sri Lanka	0.470345	
Colombo	Dehiwala	MOH Office - Dehiwala	False	False	CLMBDHWLMHFFCDHWL		Colombo	LK-11	6.869636	80.019598	Dehiwala	PS-110580	6.850088	79.871696	6.861346	79.865943	VV68+G9P, Dehiwala-Mount Lavinia, Sri Lanka	1.404177	
Colombo	Padukka	MOH Office - Padukka	False	False	CLMBPDKKMHFFCPDKK		Colombo	LK-11	6.869636	80.019598	Padukka	PS-110473	6.842195	80.09247	6.840164	80.093288	Galagedera - Horana Rd, Padukka, Sri Lanka	0.243301	
Colombo	Fort	Navy Headquarters	False	False	CLMBFRTNVYHDQRTRS		Colombo	LK-11	6.869636	80.019598	Fort	PS-110105	6.9334	79.842895	6.936952	79.842104	WRPR+QRQ, Colombo, Sri Lanka	0.404627	
Colombo	Avissawella	Puwakpitiya Tamil College	False	False	CLMBVSSWLLPWKPTYTMLCLLG		Colombo	LK-11	6.869636	80.019598	Awissawella	PS-920226	6.947538	80.215422	6.941689	80.198194	Farnham Division Rd, Avissawella, Sri Lanka	2.010387	
Colombo	Fore shore	MOH Office - Jinthupitiya	False	False	CLMBFRSHRMHFFCJNTHPTY		Colombo	LK-11	6.869636	80.019598	Fore shore	PS-110210	6.949589	79.857355	6.943258	79.859238	No.27 Vivekananda Hill, Colombo 01300, Sri Lanka	0.734247	
Gampaha	Gampaha	Mobile Medical Team	True	True	GMPHGMPHMBLMDCLTM		Gampaha	LK-12	7.123598	80.018508	Gampaha	PS-120237	7.087765	80.01228					#CenterLocationUnknown
Gampaha	Gampaha	MOH Office – Gampaha	False	False	GMPHGMPHMHFFCGMPH		Gampaha	LK-12	7.123598	80.018508	Gampaha	PS-120237	7.087765	80.01228	7.17227	79.956823	Katunayake-Veyangoda Rd, Minuwangoda, Sri Lanka	11.216745	
Gampaha	Kadawata	Webada Vidyalaya	False	False	GMPHKDWTWBDVDYLY		Gampaha	LK-12	7.123598	80.018508	Kadawatha	PS-120136	7.00152	79.95003	7.012507	79.953464	Kadawatha - Ganemulla Rd, Kadawatha, Sri Lanka	1.279535	
Gampaha	Pugoda	MOH Office – Dompe	False	False	GMPHPGDMHFFCDMP		Gampaha	LK-12	7.123598	80.018508	Pugoda	PS-120241	6.98283	80.111189	6.976767	80.117422	Dompe, Pugoda-Mandawala Rd, Pugoda, Sri Lanka	0.963513	
Gampaha	Nittambuwa	Urapola Central College	False	False	GMPHNTTMBWRPLCNTRLCLLG		Gampaha	LK-12	7.123598	80.018508	Nittambuwa	PS-120246	7.149726	80.10046	7.098949	80.144672	No. 280, Nittambuwa - Ruwanwella Rd, Urapola, Sri Lanka	7.463959	
Gampaha	Nittambuwa	Al Azhar Central College	False	False	GMPHNTTMBWLZHRCNTRLCLLG		Gampaha	LK-12	7.123598	80.018508	Nittambuwa	PS-120246	7.149726	80.10046	7.121335	80.072386	43CC+GXJ, Kalagedihena, Sri Lanka	4.424148	
Gampaha	Minuwangoda	MOH Office – Minuwangoda	False	False	GMPHMNWNGDMHFFCMNWNGD		Gampaha	LK-12	7.123598	80.018508	Minuwangoda	PS-120238	7.174215	79.957874	7.17227	79.956823	Katunayake-Veyangoda Rd, Minuwangoda, Sri Lanka	0.245525	
Gampaha	Weliweriya	Nedungamuwa Siri Sivali Vidyalaya	False	False	GMPHWLWRYNDNGMWSRSVLVDYLY		Gampaha	LK-12	7.123598	80.018508	Weliweriya	PS-120244	7.03451	80.026114	7.049755	80.024105	22XF+WJ5, Gampaha, Sri Lanka	1.71025	
Gampaha	Ja Ela	MOH Office - Ja Ela	False	False	GMPHJLMHFFCJL		Gampaha	LK-12	7.123598	80.018508	Ja - Ela	PS-120133	7.081055	79.890504	7.075216	79.893879	60 Mount Kalvary Rd, Ja-Ela, Sri Lanka	0.748731	
Gampaha	Wattala	MOH Office – Wattala	False	False	GMPHWTTLMHFFCWTTL		Gampaha	LK-12	7.123598	80.018508	Wattala	PS-120128	6.993713	79.894506	6.995817	79.885793	301 Hendala Rd, Wattala, Sri Lanka	0.989991	
Gampaha	Ragama	MOH Office – Ragama	False	False	GMPHRGMMHFFCRGM		Gampaha	LK-12	7.123598	80.018508	Ragama	PS-120134	7.034975	79.924148	7.027386	79.920232	2WGC+X35, Ragama, Sri Lanka	0.948382	
Gampaha	Ragama	Maharanugegoda Jaya Sumanaramaya	False	False	GMPHRGMMHRNGGDJYSMNRMY		Gampaha	LK-12	7.123598	80.018508	Ragama	PS-120134	7.034975	79.924148	7.026382	79.950576	Maharanugegoda, Kadawatha, Sri Lanka	3.070054	
Kalutara	Kalutara	Mobile Medical Team	True	True	KLTRKLTRMBLMDCLTM		Kalutara	LK-13	6.577316	80.127363	Kalutara South		6.584968	79.96102					#CenterLocationUnknown
Kalutara	Kalutara	NIHS	False	False	KLTRKLTRNHS		Kalutara	LK-13	6.577316	80.127363	Kalutara South		6.584968	79.96102	6.559269	79.973486	Janatha Ln, Kalutara, Sri Lanka	3.173081	
Kalutara	Aluthgama	MOH Office – Beruwala	False	False	KLTRLTHGMMHFFCBRWL		Kalutara	LK-13	6.577316	80.127363	Aluthgama	PS-1302100	6.432842	79.998032	6.437559	79.999356	CXQX+2PH, Aluthgama, Sri Lanka	0.544697	
Kalutara	Agalawatta	Pimbura Hospital	False	False	KLTRGLWTTPMBRHSPTL		Kalutara	LK-13	6.577316	80.127363	Agalawatta		6.542566	80.157178	6.575949	80.158371	H5G5+98H, කළුතර, Sri Lanka	3.715525	
Kalutara	Matugama	MOH Office - Matugama	False	False	KLTRMTGMMHFFCMTGM		Kalutara	LK-13	6.577316	80.127363	Mathugama	PS-1302103	6.520881	80.117908	6.523544	80.126443	G4FG+CH8, Matugama, Sri Lanka	0.988725	
Kalutara	Matugama	Horawala Primary School	False	False	KLTRMTGMHRWLPRMRYSCHL		Kalutara	LK-13	6.577316	80.127363	Mathugama	PS-1302103	6.520881	80.117908	6.487275	80.12671	F4PG+WM8, Horawala, Sri Lanka	3.862378	
Kalutara	Baduraliya	Baduraliya Hospital	False	False	KLTRBDRLYBDRLYHSPTL		Kalutara	LK-13	6.577316	80.127363	Baduraliya	PS-1302106	6.516756	80.226716	6.514727	80.232731	Tiruwanaketiya-Agalawatte Rd, Baduraliya, Sri Lanka	0.702098	
Kalutara	Panadura	Walana Maha Vidyalaya	False	False	KLTRPNDRWLNMHVDYLY		Kalutara	LK-13	6.577316	80.127363	Panadura North		6.756309	79.898939	6.713086	79.907765	PW75+64J, Panadura, Sri Lanka	4.905544	
Kalutara	Ingiriya	Maha Ingiriya Cinic	False	False	KLTRNGRYMHNGRYCNC		Kalutara	LK-13	6.577316	80.127363	Ingiriya	PS-130193	6.743614	80.175077	6.743291	80.18617	Parevithota (පරෙවිතොට), Paravithota Rd, Ingiriya, Sri Lanka	1.225863	
Kurunegala	Kurunegala	Kurunegala	False	False	KRNGLKRNGLKRNGL		Kurunegala	LK-61	7.66477	80.23677	Kurunegala	PS-610101	7.485852	80.364137	7.48177	80.360888	Kurunegala, Sri Lanka	0.578391	
Puttalam	Kalpitiya	District Hospital - Kalpitiya	False	False	PTTLMKLPTYDSTRCTHSPTLKLPTY		Puttalam	LK-62	7.973531	79.913833	Kalpitiya	PS-620137	8.235145	79.764567	8.235596	79.766951	6QP8+6QP, Kalpitiya, Sri Lanka	0.267189	
Puttalam	Norochcholai	Norochcholai Muslim Maha Vidyalaya	False	False	PTTLMNRCHCHLNRCHCHLMSLMMHVDYLY		Puttalam	LK-62	7.973531	79.913833	Norochcholey	PS-620139	6.900777	79.872638	8.050195	79.736044	3P2P+3CF, Norochcholai, Sri Lanka	128.73397	#CenterFarFromPolice
Puttalam	Wennappuwa	Lunuvila Primary School	False	False	PTTLMWNNPPWLNVLPRMRYSCHL		Puttalam	LK-62	7.973531	79.913833	Wennappuwa	PS-620245	7.339623	79.843017	7.350001	79.863107	Sirigampala Para, Sri Lanka	2.498874	
Puttalam	Wennappuwa	Sirigampola St. Anne's College	False	False	PTTLMWNNPPWSRGMPLSTNNSCLLG		Puttalam	LK-62	7.973531	79.913833	Wennappuwa	PS-620245	7.339623	79.843017	7.314871	79.861441	8V86+5PV, Puttalam, Sri Lanka	3.422164	
Puttalam	Wennappuwa	Bandirippuwa Galawatta Church	False	False	PTTLMWNNPPWBNDRPPWGLWTTCHRCH		Puttalam	LK-62	7.973531	79.913833	Wennappuwa	PS-620245	7.339623	79.843017	7.325399	79.866462	8VG8+5H4, Bandirippuwa, Sri Lanka	3.031981	
Puttalam	Dankotuwa	Dankotuwa Balika Vidyalaya	False	False	PTTLMDNKTWDNKTWBLKVDYLY		Puttalam	LK-62	7.973531	79.913833	Dankotuwa	PS-620246	7.300337	79.882595	7.29238	79.878239	Toppuwa - Madampe Rd, Dankotuwa, Sri Lanka	1.007122	
Puttalam	Dankotuwa	Matikotuwa Viharaya	False	False	PTTLMDNKTWMTKTWVHRY		Puttalam	LK-62	7.973531	79.913833	Dankotuwa	PS-620246	7.300337	79.882595	7.284867	79.891825	Metikotuwa Sri Surendrarama Purana Viharaya, Matikotuwa Road, Dankotuwa, Sri Lanka	1.999481	
Puttalam	Dankotuwa	Wekada Maha Vidyalaya	False	False	PTTLMDNKTWWKDMHVDYLY		Puttalam	LK-62	7.973531	79.913833	Dankotuwa	PS-620246	7.300337	79.882595	7.294468	79.928811	7WVH+QGM, Puttalam, Sri Lanka	5.140579	
Puttalam	Koswatta	Kirimetiyana Balika Vidyalaya	False	False	PTTLMKSWTTKRMTYNBLKVDYLY		Puttalam	LK-62	7.973531	79.913833	Koswatta	PS-620244	7.374528	79.898302	7.35784	79.883943	Toppuwa - Madampe Rd, Sri Lanka	2.440173	
Puttalam	Marawila	President's College - Nattandiya	False	False	PTTLMMRWLPRSDNTSCLLGNTTNDY		Puttalam	LK-62	7.973531	79.913833	Marawila	PS-620243	7.415075	79.839776	7.410105	79.862237	Marawila - Udubaddawa Rd, Nattandiya, Sri Lanka	2.538382	
Puttalam	Chilaw	Kakkapalliya Siri Sujatha Vidyalaya	False	False	PTTLMCHLWKKKPLLYSRSJTHVDYLY		Puttalam	LK-62	7.973531	79.913833	Chilaw	PS-620241	7.576197	79.788003	7.533774	79.819538	A3, Sri Lanka	5.861481	
Puttalam	Chilaw	Savarana School	False	False	PTTLMCHLWSVRNSCHL		Puttalam	LK-62	7.973531	79.913833	Chilaw	PS-620241	7.576197	79.788003	7.580259	79.795395	HQJW+452, Chilaw, Sri Lanka	0.931982	
Puttalam	Chilaw	Kokkawila Primary School	False	False	PTTLMCHLWKKKWLPRMRYSCHL		Puttalam	LK-62	7.973531	79.913833	Chilaw	PS-620241	7.576197	79.788003					#CenterLocationUnknown
Puttalam	Arachchikattuwa	Battuluoya Vidyalaya	False	False	PTTLMRCHCHKTTWBTTLYVDYLY		Puttalam	LK-62	7.973531	79.913833	Arachchikattuwa	PS-620247	7.65944	79.837772	8.025991	79.847127	Puttalam, Sri Lanka	40.784547	#CenterFarFromPolice
Puttalam	Arachchikattuwa	Mangala Eliya Viharaya	False	False	PTTLMRCHCHKTTWMNGLLYVHRY		Puttalam	LK-62	7.973531	79.913833	Arachchikattuwa	PS-620247	7.65944	79.837772	7.851253	79.821942	Puttalam Road, Puttalam, Sri Lanka	21.406543	#CenterFarFromPolice
Puttalam	Arachchikattuwa	Vijayakatupatha Viharaya	False	False	PTTLMRCHCHKTTWVJYKTPTHVHRY		Puttalam	LK-62	7.973531	79.913833	Arachchikattuwa	PS-620247	7.65944	79.837772	7.576948	79.796615	HQGW+QJH, Chilaw, Sri Lanka	10.236202	
Puttalam	Madampe	Medagama Abhaya Maha Vidyalaya	False	False	PTTLMMDMPMDGMBHYMHVDYLY		Puttalam	LK-62	7.973531	79.913833	Madampe	PS-620242	7.49496	79.840268	7.534061	79.87694	Kakkapalliya-Medagama Rd, Sri Lanka	5.938802	
Puttalam	Puttalam	Puttalam Base Hospital	False	False	PTTLMPTTLMPTTLMBSHSPTL		Puttalam	LK-62	7.973531	79.913833	Puttalam	PS-620130	8.029904	79.834396	8.027902	79.83874	Katugastota-Kurunegala-Puttalam Hwy, Puttalam, Sri Lanka	0.527729	
Puttalam	Puttalam	Divisional Secretariat - Puttalam	False	False	PTTLMPTTLMDVSNLSCRTRTPTTLM		Puttalam	LK-62	7.973531	79.913833	Puttalam	PS-620130	8.029904	79.834396	8.030562	79.835452	2RJP+65G, Puttalam, Sri Lanka	0.137419	
Puttalam	Puttalam	Palaviya Navodya Maha Vidyalaya	False	False	PTTLMPTTLMPLVYNVDYMHVDYLY		Puttalam	LK-62	7.973531	79.913833	Puttalam	PS-620130	8.029904	79.834396	8.02116	79.838263	2RCQ+F86, Puttalam, Sri Lanka	1.061763	
Puttalam	Wanathavilluwa	Bandaranayakapura Vidyalaya	False	False	PTTLMWNTHVLLWBNDRNYKPRVDYLY		Puttalam	LK-62	7.973531	79.913833	Wanathawilluwa	PS-620134	8.188137	79.858447	8.20616	79.859043	Mannar Rd, Wanathavillu, Sri Lanka	2.005769	
Puttalam	Wanathavilluwa	Serukkuliya Vidyalaya	False	False	PTTLMWNTHVLLWSRKKLYVDYLY		Puttalam	LK-62	7.973531	79.913833	Wanathawilluwa	PS-620134	8.188137	79.858447	8.028082	79.840608	Katugastota-Kurunegala-Puttalam Hwy, Puttalam, Sri Lanka	17.91094	
Puttalam	Mundalama	MOH Office - Mundalama	False	False	PTTLMMNDLMMHFFCMNDLM		Puttalam	LK-62	7.973531	79.913833	Mundal	PS-620138	7.808859	79.825729	7.78892	79.82751	Puttalam - Colombo Rd, Sri Lanka	2.226479	
Puttalam	Karuwalagaswewa	DS Senanayaka Vidyalaya	False	False	PTTLMKRWLGSWWDSSNNYKVDYLY		Puttalam	LK-62	7.973531	79.913833	Karuwalagaswewa	PS-620135	8.055066	79.955817	8.054145	79.949949	3W3X+MX4, Karuwalagaswewa, Sri Lanka	0.654327	
Puttalam	Saliyawewa	Adarsha Maha Vidyalaya	False	False	PTTLMSLYWWDRSHMHVDYLY		Puttalam	LK-62	7.973531	79.913833	Saliyawewa	PS-620136	8.192614	80.09136	7.341361	79.892557	8VRV+G2V, Kirimatiyana Junction, Sri Lanka	97.186598	#CenterFarFromPolice
Puttalam	Nawagattegama	Nawagattegama  Maha Vidyalaya	False	False	PTTLMNWGTTGMNWGTTGMMHVDYLY		Puttalam	LK-62	7.973531	79.913833	Nawagaththegama	PS-620133	8.002882	80.106543	8.004238	80.112651	2437+M3R, Nawagattegama, Sri Lanka	0.689474	
Puttalam	Anamaduwa	Kannangara Maha Vidyalaya	False	False	PTTLMNMDWKNNNGRMHVDYLY		Puttalam	LK-62	7.973531	79.913833	Anamaduwa	PS-620131	7.874852	80.01316	7.872754	80.014672	V2F7+4V3, Anamaduwa, Sri Lanka	0.286724	
Puttalam	Anamaduwa	Thalgaswewa Maha Vidyalaya	False	False	PTTLMNMDWTHLGSWWMHVDYLY		Puttalam	LK-62	7.973531	79.913833	Anamaduwa	PS-620131	7.874852	80.01316	7.876981	80.014181	V2G7+QMV, Anamaduwa, Sri Lanka	0.26217	
Puttalam	Anamaduwa	Kottukachchiya Navodya Vidyalaya	False	False	PTTLMNMDWKTTKCHCHYNVDYVDYLY		Puttalam	LK-62	7.973531	79.913833	Anamaduwa	PS-620131	7.874852	80.01316	7.940691	79.94725	Kottukachchiya, Sri Lanka	10.313116	
Puttalam	Pallama	Galkuliya Vidyalaya	False	False	PTTLMPLLMGLKLYVDYLY		Puttalam	LK-62	7.973531	79.913833	Pallama	PS-620132	7.691904	79.922555	7.684519	79.918904	Puttalam, Sri Lanka	0.914722	
Puttalam	Pallama	Serukele Vidyalaya	False	False	PTTLMPLLMSRKLVDYLY		Puttalam	LK-62	7.973531	79.913833	Pallama	PS-620132	7.691904	79.922555	7.684519	79.918904	Puttalam, Sri Lanka	0.914722	
Puttalam	Mahakumbukkadawala	Mahakumbukkadawala Vidyalaya	False	False	PTTLMMHKMBKKDWLMHKMBKKDWLVDYLY		Puttalam	LK-62	7.973531	79.913833	Mahakumbukkadawala		7.848668	79.903132	7.848816	79.90352	RWX3+GCC, Mahakumbukkadawala, Sri Lanka	0.045813	
Kandy	Kandy	Mobile Medical Team	False	False	KNDYKNDYMBLMDCLTM		Kandy	LK-21	7.27337	80.709602	Kandy	PS-210101	7.292948	80.642368					#CenterLocationUnknown
Kandy	Hatharaliyadda	Hatharaliyadda Maha Vidyalaya	False	False	KNDYHTHRLYDDHTHRLYDDMHVDYLY		Kandy	LK-21	7.27337	80.709602	Hatharaliyadda	PS-210106	7.336886	80.471814	7.33578	80.471154	Hatharaliyadda, Sri Lanka	0.142952	
Kandy	Wattegama	Madawala Madina Vidyalaya	False	False	KNDYWTTGMMDWLMDNVDYLY		Kandy	LK-21	7.27337	80.709602	Wattegama	PS-210357	7.350603	80.68335	7.327038	80.668348	Katugastota - Madawala - Bambarella Rd, Jambugahapitiya, Sri Lanka	3.099896	
Kandy	Wattegama	Paranagama Maha Vidyalaya	False	False	KNDYWTTGMPRNGMMHVDYLY		Kandy	LK-21	7.27337	80.709602	Wattegama	PS-210357	7.350603	80.68335	7.351534	80.682953	Pitiyagedera - Wattegama - Iriyagastenne Rd, Wattegama, Sri Lanka	0.112435	
Kandy	Wattegama	Wattegama Balika Vidyalaya	False	False	KNDYWTTGMWTTGMBLKVDYLY		Kandy	LK-21	7.27337	80.709602	Wattegama	PS-210357	7.350603	80.68335	7.351534	80.682953	Pitiyagedera - Wattegama - Iriyagastenne Rd, Wattegama, Sri Lanka	0.112435	
Kandy	Katugastota	St. Anthony's College	False	False	KNDYKTGSTTSTNTHNYSCLLG		Kandy	LK-21	7.27337	80.709602	Katugastota	PS-210103	7.332014	80.623006	7.31563	80.624014	548 Peradeniya - Halloluwa - Katugastota Rd, Katugastota, Sri Lanka	1.825779	
Kandy	Katugastota	Gohagoda Dharmavijaya Vidyalaya	False	False	KNDYKTGSTTGHGDDHRMVJYVDYLY		Kandy	LK-21	7.27337	80.709602	Katugastota	PS-210103	7.332014	80.623006	7.305057	80.618816	Gohagoda, Katugastota, Sri Lanka	3.033846	
Kandy	Udadumbara	Medamahanuwara Central College	False	False	KNDYDDMBRMDMHNWRCNTRLCLLG		Kandy	LK-21	7.27337	80.709602	Ududumbara	PS-210358	7.318133	80.8791	7.286062	80.813902	A26, Medamahanuwara, Sri Lanka	8.029113	
Kandy	Galagedara	Galagedara Sujatha Balika Vidyalaya	False	False	KNDYGLGDRGLGDRSJTHBLKVDYLY		Kandy	LK-21	7.27337	80.709602	Galagedara	PS-210105	7.373683	80.526154	7.372389	80.518839	B122, Galagedara, Sri Lanka	0.819655	
Kandy	Alawatugoda	Akurana Zahira College	False	False	KNDYLWTGDKRNZHRCLLG		Kandy	LK-21	7.27337	80.709602	Alawathugoda	PS-210113	7.38828	80.618824	7.37133	80.609801	Akurana, Kandy, Sri Lanka, Kasawattha Road, Akurana, Sri Lanka	2.131942	
Kandy	Alawatugoda	Dunuwila Rathnapala Vidyalaya	False	False	KNDYLWTGDDNWLRTHNPLVDYLY		Kandy	LK-21	7.27337	80.709602	Alawathugoda	PS-210113	7.38828	80.618824	7.409661	80.609795	Alawatugoda, Sri Lanka	2.578321	
Kandy	Panwila	Panwila Rajasingha Vidyalaya	False	False	KNDYPNWLPNWLRJSNGHVDYLY		Kandy	LK-21	7.27337	80.709602	Panwila	PS-210361	7.362355	80.713731	7.35866	80.708571	Kudugala-Wattegama Rd, Panwila 20830, Sri Lanka	0.702085	
Kandy	Nawalapitiya	Westhall Tamil School	False	False	KNDYNWLPTYWSTHLLTMLSCHL		Kandy	LK-21	7.27337	80.709602	Nawalapitiya	PS-210219	7.057355	80.536075	7.003823	80.572917	2H3F+G5F, Sri Lanka	7.21081	
Kandy	Gampola	Wickramabahu National College	False	False	KNDYGMPLWCKRMBHNTNLCLLG		Kandy	LK-21	7.27337	80.709602	Gampola	PS-210216	7.132941	80.56799	7.153925	80.563839	Nawalapitiya Road, Gampola 20500, Sri Lanka, Sri Lanka	2.378605	
Kandy	Gampola	National Heritage Centre	False	False	KNDYGMPLNTNLHRTGCNTR		Kandy	LK-21	7.27337	80.709602	Gampola	PS-210216	7.132941	80.56799	7.162374	80.574165	Hindagala-Naranwita-Gampola Rd, Gampola, Sri Lanka	3.344009	
Kandy	Pussellawa	Town Hall – Pussellawa	False	False	KNDYPSSLLWTWNHLLPSSLLW		Kandy	LK-21	7.27337	80.709602	Pussellawa	PS-210217	7.115334	80.635553	7.106515	80.636264	Peradeniya - Badulla - Chenkaladi Hwy, Pussellawa, Sri Lanka	0.98407	
Kandy	Nawa Kurunduwatta	Kurunduwatta Royal College	False	False	KNDYNWKRNDWTTKRNDWTTRYLCLLG		Kandy	LK-21	7.27337	80.709602	Nawa Kurunduwatta	PS-210218	7.126357	80.530286	7.130783	80.533673	Gampola, Kurunduwaththa Rd, kurunduwaththa 20509, Sri Lanka	0.618148	
Kandy	Nawa Kurunduwatta	Udagama Saranapala Vidyalaya	False	False	KNDYNWKRNDWTTDGMSRNPLVDYLY		Kandy	LK-21	7.27337	80.709602	Nawa Kurunduwatta	PS-210218	7.126357	80.530286	7.122536	80.566502	Udagama, Ulapane, Kandy Rd, Sri Lanka	4.019729	
Kandy	Nawa Kurunduwatta	Ulapane Rathnawali Vidyalaya	False	False	KNDYNWKRNDWTTLPNRTHNWLVDYLY		Kandy	LK-21	7.27337	80.709602	Nawa Kurunduwatta	PS-210218	7.126357	80.530286	7.126357	80.530286	Kurunduwaththa Rd, Sri Lanka	0.0	
Kandy	Nawa Kurunduwatta	Cray Head Tamil College	False	False	KNDYNWKRNDWTTCRYHDTMLCLLG		Kandy	LK-21	7.27337	80.709602	Nawa Kurunduwatta	PS-210218	7.126357	80.530286	7.126357	80.530286	Kurunduwaththa Rd, Sri Lanka	0.0	
Nuwara Eliya	Nuwara Eliya	Mobile Medical Team	False	False	NWRLYNWRLYMBLMDCLTM		Nuwara Eliya	LK-23	6.97423	80.711222	Nuwaraeliya	PS-230131	6.974148	80.767627					#CenterLocationUnknown
Nuwara Eliya	Hanguranketa	Diyathilaka Centarl College	False	False	NWRLYHNGRNKTDYTHLKCNTRLCLLG		Nuwara Eliya	LK-23	6.97423	80.711222	Hanguranketha	PS-210108	7.176511	80.777388	7.180385	80.771148	B413, Hanguranketa, Sri Lanka	0.812339	
Nuwara Eliya	Walapane	Walapane Hospital	False	False	NWRLYWLPNWLPNHSPTL		Nuwara Eliya	LK-23	6.97423	80.711222	Walapone	PS-230141	7.093348	80.862513	7.102424	80.858882	Tennekumbura - Rikillagaskada - Ragala, Walapane, Sri Lanka	1.086167	
Nuwara Eliya	Walapane	Batapola Pussellawa Vidyalaya	False	False	NWRLYWLPNBTPLPSSLLWVDYLY		Nuwara Eliya	LK-23	6.97423	80.711222	Walapone	PS-230141	7.093348	80.862513	6.973742	80.768537	Old Uda Pussellawa Rd, Nuwara Eliya 22200, Sri Lanka	16.870548	
Matale	Mathale	Mobile Medical Team	False	False	MTLMTHLMBLMDCLTM		Matale	LK-22	7.667587	80.731008	Matale	PS-220121	7.462789	80.626211					#CenterLocationUnknown
Badulla	Badulla	Mobile Medical Team	False	False	BDLLBDLLMBLMDCLTM		Badulla	LK-81	7.074529	81.04486	Badulla	PS-810101	6.991337	81.055246					#CenterLocationUnknown
Badulla	Uva Paranagama	Uva Paranagama Hospital	False	False	BDLLVPRNGMVPRNGMHSPTL	Divisional Hospital - Uva Paranagama	Badulla	LK-81	7.074529	81.04486	Uvaparanagama	PS-810213	6.958341	80.930364	6.938076	80.890525	Rendapola-Galahagama-Ambagasdowa Rd, Himbiliyagahamadiththa, Sri Lanka	4.942648	
Badulla	Bandarawela	MOH Office - Bandarawela	False	False	BDLLBNDRWLMHFFCBNDRWL		Badulla	LK-81	7.074529	81.04486	Bandarawela	PS-810210	6.831526	80.986784	6.841272	80.98482	Hospital Junction Helamuduna Bus Stop, Etampitiya Rd, Bandarawela, Sri Lanka	1.105533	
Badulla	Welimada	MOH Office – Welimada	False	False	BDLLWLMDMHFFCWLMD		Badulla	LK-81	7.074529	81.04486	Welimada	PS-810212	6.900481	80.905809	6.927934	80.896475	Udapussellawa-Welimada Road, Ambagasdowa, Sri Lanka	3.222841	
Badulla	Haputale	Diyatalawa Base Hospital	False	False	BDLLHPTLDYTLWBSHSPTL		Badulla	LK-81	7.074529	81.04486	Haputale	PS-810215	6.767653	80.957218	6.80555	80.956366	12 Fair Rd, Diyatalawa, Sri Lanka	4.216327	
Moneragala	Monaragala	Mobile Medical Team	False	False	MNRGLMNRGLMBLMDCLTM		Moneragala	LK-82	6.787517	81.303744	Monaragala	PS-820121	6.869866	81.348106					#CenterLocationUnknown
Galle	Galle	Mobile Medical Team	False	False	GLLGLLMBLMDCLTM		Galle	LK-31	6.222805	80.251977	Galle	PS-310120	6.032983	80.21714					#CenterLocationUnknown
Galle	Habaraduwa	Unawatuna Maha Vidyalaya	False	False	GLLHBRDWNWTNMHVDYLY		Galle	LK-31	6.222805	80.251977	Habaraduwa	PS-310127	5.9871	80.327098	6.020558	80.249382	Maharamba Rd, Unawatuna, Sri Lanka	9.367862	
Galle	Elpitiya	Ganegoda Maha Vidyalaya	False	False	GLLLPTYGNGDMHVDYLY		Galle	LK-31	6.222805	80.251977	Elpitiya	PS-310235	6.279163	80.142917	6.313479	80.163267	Avittava - Elpitiya Rd, 80440, Sri Lanka	4.430704	
Galle	Elpitiya	Vaihena Vidyavashanthi Pirivena Viharaya	False	False	GLLLPTYVHNVDYVSHNTHPRVNVHRY		Galle	LK-31	6.222805	80.251977	Elpitiya	PS-310235	6.279163	80.142917	6.288903	80.165387	75Q8+H56, Elpitiya, Sri Lanka	2.710266	
Galle	Akmeemana	Manawila Upananda Vidyalaya	False	False	GLLKMMNMNWLPNNDVDYLY		Galle	LK-31	6.222805	80.251977	Akmeemana	PS-310123	6.073453	80.276627	6.063186	80.263601	Manawila, Galle, Sri Lanka	1.838464	
Galle	Hikkaduwa	Thiranagama International Buddhist Centre	False	False	GLLHKKDWTHRNGMNTRNTNLBDDHSTCNTR		Galle	LK-31	6.222805	80.251977	Hikkaduwa	PS-310122	6.145115	80.099693	6.119512	80.118489	'Malima' Palakatiyawatta Thiranagama, Hikkaduwa 80240, Sri Lanka	3.525778	
Galle	Ambalangoda	Powatta Agbodhi Viharaya	False	False	GLLMBLNGDPWTTGBDHVHRY		Galle	LK-31	6.222805	80.251977	Ambalangoda	PS-310243	6.244958	80.047598	6.245269	80.057509	Dhirakkanda Buddhist Temple, Dhirakkanda Mawatha, Kaluwadumulla, Ambalangada., Ambalangoda 80300, Sri Lanka	1.096403	
Matara	Matara	Mobile Medical Team	False	False	MTRMTRMBLMDCLTM		Matara	LK-32	6.142734	80.539994	Matara	PS-320101	5.94904	80.533659					#CenterLocationUnknown
Matara	Matara	Ilma Vidyalaya	False	False	MTRMTRLMVDYLY		Matara	LK-32	6.142734	80.539994	Matara	PS-320101	5.94904	80.533659	5.945678	80.554636	Ilma College, Matara, Matara, Sri Lanka	2.350646	
Matara	Matara	Parawahera Veluwanaramaya	False	False	MTRMTRPRWHRVLWNRMY		Matara	LK-32	6.142734	80.539994	Matara	PS-320101	5.94904	80.533659	5.969413	80.617133	Parawahera Rd, Kekanadura, Sri Lanka	9.508598	
Matara	Malimbada	Kirimetimulla Sri Wardhanaramaya	False	False	MTRMLMBDKRMTMLLSRWRDHNRMY		Matara	LK-32	6.142734	80.539994	Malimbada	PS-320117	6.010503	80.517438	6.056356	80.509189	Akuressa - Malimbada Rd, Sri Lanka	5.1812	
Matara	Malimbada	Dampella Maha Vidyalaya	False	False	MTRMLMBDDMPLLMHVDYLY		Matara	LK-32	6.142734	80.539994	Malimbada	PS-320117	6.010503	80.517438	6.04717	80.502418	Dampella maha vidyalaya Dampella, Sri Lanka	4.403888	
Matara	Malimbada	Malimbada Maha College	False	False	MTRMLMBDMLMBDMHCLLG		Matara	LK-32	6.142734	80.539994	Malimbada	PS-320117	6.010503	80.517438	6.00944	80.51813	Malimbada, Matara 81000, Sri Lanka	0.140853	
Matara	Kotawila	Sultanagoda Gunaratana Vivekarama Viharaya	False	False	MTRKTWLSLTNGDGNRTNVVKRMVHRY		Matara	LK-32	6.142734	80.539994	Kotawila	PS-320115	5.967553	80.493921	5.953038	80.575286	Weherahena Rd, Matara, Sri Lanka	9.144936	
Matara	Kotawila	Akuregoda Nagarukkaramaya	False	False	MTRKTWLKRGDNGRKKRMY		Matara	LK-32	6.142734	80.539994	Kotawila	PS-320115	5.967553	80.493921	6.893724	79.948649	Akuregoda, Sri Jayawardenepura Kotte, Sri Lanka	119.35215	#CenterFarFromPolice
Matara	Akuressa	Thepuldeniya Sri Bodhiraja Viharaya	False	False	MTRKRSSTHPLDNYSRBDHRJVHRY		Matara	LK-32	6.142734	80.539994	Akuressa	PS-320112	6.099044	80.4776	6.050673	80.458957	Thepudeniya, Kananke, Sri Lanka	5.761901	
Matara	Akuressa	Maramba Sewa Piyasa	False	False	MTRKRSSMRMBSWPYS		Matara	LK-32	6.142734	80.539994	Akuressa	PS-320112	6.099044	80.4776	6.127018	80.493368	4FGV+R85, Matara, Sri Lanka	3.566915	
Hambantota	Hambantota	Mobile Medical Team	False	False	HMBNTTHMBNTTMBLMDCLTM		Hambantota	LK-33	6.259779	81.098619	Hambantota	PS-330156	6.125872	81.12521					#CenterLocationUnknown
Hambantota	Tissamaharama	Beralihela Maha Vidyalaya	False	False	HMBNTTTSSMHRMBRLHLMHVDYLY		Hambantota	LK-33	6.259779	81.098619	Tissamaharamaya	PS-330158	6.26109	81.236724	6.334298	81.286427	Tissamaharama, Beralihela Rd, Beralihela, Sri Lanka	9.823599	
Hambantota	Lunugamvehera	Lunugamvehera Hospital	False	False	HMBNTTLNGMVHRLNGMVHRHSPTL		Hambantota	LK-33	6.259779	81.098619	Lunugamwehera	PS-330160	6.341544	81.202699	6.34652	81.196527	85WW+JJ2, Hambantota, Sri Lanka	0.878568	
Hambantota	Lunugamvehera	Ranawarnawa Primary School	False	False	HMBNTTLNGMVHRRNWRNWPRMRYSCHL		Hambantota	LK-33	6.259779	81.098619	Lunugamwehera	PS-330160	6.341544	81.202699	6.34061	81.203129	86R3+67R, Hambantota, Sri Lanka	0.114248	
Hambantota	Tangalle	MOH Office – Tangalle	False	False	HMBNTTTNGLLMHFFCTNGLL		Hambantota	LK-33	6.259779	81.098619	Tangalle	PS-330147	6.023954	80.797255	6.02363	80.795742	2QFW+F75, Tangalle, Sri Lanka	0.171198	
Hambantota	Katuwana	MOH Office – Katuwana	False	False	HMBNTTKTWNMHFFCKTWN		Hambantota	LK-33	6.259779	81.098619	Katuwana	PS-330153	6.269722	80.690963	6.26627	80.693035	7M8V+G63, Katuwana, Sri Lanka	0.447115	
Hambantota	Agunukolapelessa	MOH Office - Agunukolapelessa	False	False	HMBNTTGNKLPLSSMHFFCGNKLPLSS		Hambantota	LK-33	6.259779	81.098619	Angunakolapelessa	PS-330150	6.321993	80.844883	6.164691	80.898963	Unnamed Road, Agunukolapelessa, Sri Lanka	18.490258	
Hambantota	Sooriyawewa	Weliwewa Vidyalaya	False	False	HMBNTTSRYWWWLWWVDYLY		Hambantota	LK-33	6.259779	81.098619	Sooriyawewa	PS-330155	6.306022	81.003873	6.340181	81.020679	82RC+37F, Hambantota, Sri Lanka	4.229396	
Hambantota	Sooriyawewa	Ranmuthuwewa Vidyalaya	False	False	HMBNTTSRYWWRNMTHWWVDYLY		Hambantota	LK-33	6.259779	81.098619	Sooriyawewa	PS-330155	6.306022	81.003873	6.07308	80.704144	Hakmana - Beliatte - Tangalle Rd, Sri Lanka	42.070026	#CenterFarFromPolice
Hambantota	Beliatta	MOH Office – Beliatta	False	False	HMBNTTBLTTMHFFCBLTT		Hambantota	LK-33	6.259779	81.098619	Beliatta	PS-330152	6.046936	80.735408	6.051828	80.741735	3P2R+PMQ, Hambantota, Sri Lanka	0.886482	
Rathnapura	Pinnawala	Naluwela Viharaya	False	False	RTHNPRPNNWLNLWLVHRY		Ratnapura	LK-91	6.586826	80.566158	Pinnawala	PS-910115	7.299943	80.386604	6.677689	80.718117	MPH9+36H, Ratnapura, Sri Lanka	78.294483	#CenterFarFromPolice
Rathnapura	Kolonna	Kella Maha Vidyalaya	False	False	RTHNPRKLNNKLLMHVDYLY		Ratnapura	LK-91	6.586826	80.566158	Kolonna	PS-910235	6.40194	80.687615	6.365273	80.699386	9M8X+4Q2, Kaella, Sri Lanka	4.280994	
Rathnapura	Nivithigala	Mobile Vaccination	False	False	RTHNPRNVTHGLMBLVCCNTN		Ratnapura	LK-91	6.586826	80.566158	Nivithigala	PS-910111	6.592765	80.459492					#CenterLocationUnknown
Rathnapura	Rathnapura	MOH Office - Rathnapura	False	False	RTHNPRRTHNPRMHFFCRTHNPR		Ratnapura	LK-91	6.586826	80.566158	Ratnapura	PS-910101	6.679456	80.40223	6.687915	80.393434	M9QV+597, Ratnapura, Sri Lanka	1.352603	
Rathnapura	Rathnapura	Mobile Vaccination	False	False	RTHNPRRTHNPRMBLVCCNTN		Ratnapura	LK-91	6.586826	80.566158	Ratnapura	PS-910101	6.679456	80.40223					#CenterLocationUnknown
Rathnapura	Ayagama	MOH Office – Ayagama	False	False	RTHNPRYGMMHFFCYGM		Ratnapura	LK-91	6.586826	80.566158	Ayagama	PS-910109	6.637727	80.312554	6.634742	80.314759	J8M7+VWR, Ayagama, Sri Lanka	0.411811	
Kegalle	Warakapola	MOH Office - Warakapola	False	False	KGLLWRKPLMHFFCWRKPL		Kegalle	LK-92	7.104216	80.342866	Wrakapola	PS-920119	7.227488	80.199696	7.226501	80.197818	65GX+J44, Warakapola, Sri Lanka	0.234514	
Kegalle	Mawanella	Aluthnuwara Medical Clinic	False	False	KGLLMWNLLLTHNWRMDCLCLNC		Kegalle	LK-92	7.104216	80.342866	Mawanella	PS-920122	7.256966	80.445912	7.249469	80.455696	A1, Mawanella, Sri Lanka	1.364123	
Kegalle	Kegalle	MOH Office – Kegalle	False	False	KGLLKGLLMHFFCKGLL		Kegalle	LK-92	7.104216	80.342866	Kegalle	PS-920118	7.255928	80.353156	7.24797	80.343583	Kegalle-Bulathkohupitiya-Karawanella Hwy, Kegalle, Sri Lanka	1.378052	
Kegalle	Bulathkohupitiya	MOH Office - Bulathkohupitiya	False	False	KGLLBLTHKHPTYMHFFCBLTHKHPTY		Kegalle	LK-92	7.104216	80.342866	Bulathkohupitiya	PS-920232	7.106684	80.3347	7.109127	80.334565	485M+MR4, Bulathkohupitiya, Sri Lanka	0.272143	
Kegalle	Puwakpitiya	Puwakpitiya Tamail College	False	False	KGLLPWKPTYPWKPTYTMLCLLG		Kegalle	LK-92	7.104216	80.342866	Puwakpitiya		6.936275	80.193714	6.941689	80.198194	Farnham Division Rd, Avissawella, Sri Lanka	0.779314	
Kegalle	Avissawella	MOH Office – Dehiowita	False	False	KGLLVSSWLLMHFFCDHWT		Kegalle	LK-92	7.104216	80.342866	Awissawella	PS-920226	6.947538	80.215422	6.963895	80.264191	X777+HM4, Talduwa, Sri Lanka	5.683709	
Anuradhapura	Anuradhapura	Army Hospital Anuradhapura	False	False	NRDHPRNRDHPRRMYHSPTLNRDHPR		Anuradhapura	LK-71	8.39199	80.512958	Anuradapura	PS-710101	8.329752	80.407265	8.338302	80.407646	AB02, Anuradhapura, Sri Lanka	0.951939	
Anuradhapura	Anuradhapura	62 DIV	False	False	NRDHPRNRDHPRDV		Anuradhapura	LK-71	8.39199	80.512958	Anuradapura	PS-710101	8.329752	80.407265	8.311352	80.403651	Anuradhapura, Sri Lanka	2.084922	
Anuradhapura	Anuradhapura	Pothahenagama Vidyalaya	False	False	NRDHPRNRDHPRPTHHNGMVDYLY		Anuradhapura	LK-71	8.39199	80.512958	Anuradapura	PS-710101	8.329752	80.407265	8.32659	80.375949	89GG+J9P, Anuradhapura, Sri Lanka	3.46444	
Anuradhapura	Mihintale	Mihintale Base Hospital	False	False	NRDHPRMHNTLMHNTLBSHSPTL		Anuradhapura	LK-71	8.39199	80.512958	Mihintale	PS-710104	8.360062	80.511889	8.35505	80.509287	Kandy Rd, Mihintale, Sri Lanka	0.626724	
Anuradhapura	Mahawilachchiya	MOH Office - Mahawilachchiya	False	False	NRDHPRMHWLCHCHYMHFFCMHWLCHCHY		Anuradhapura	LK-71	8.39199	80.512958	Mahawilachchiya	PS-710120	8.484987	80.193911	8.494303	80.186519	F5VP+PJC, Mahawilachchiya, Sri Lanka	1.317298	
Anuradhapura	Elayapattuwa	Mahabulankulama Vidyalaya	False	False	NRDHPRLYPTTWMHBLNKLMVDYLY		Anuradhapura	LK-71	8.39199	80.512958									#PoliceLocationUnknown
Anuradhapura	Galenbindunuwewa	MOH Office - Galenbindunuwewa	False	False	NRDHPRGLNBNDNWWMHFFCGLNBNDNWW		Anuradhapura	LK-71	8.39199	80.512958	Galenbidunuwewa	PS-710121	8.29037	80.71501	8.292134	80.717284	7PR8+VW3, Galenbindunuwewa, Sri Lanka	0.318033	
Jaffna	Jaffna	Mobile Medical Team	False	False	JFFNJFFNMBLMDCLTM		Jaffna	LK-41	9.691792	80.098594	Jaffna	PS-410209	9.659919	80.010965					#CenterLocationUnknown
Jaffna	Jaffna	Mobile Medical Team	False	False	JFFNJFFNMBLMDCLTM		Jaffna	LK-41	9.691792	80.098594	Jaffna	PS-410209	9.659919	80.010965					#CenterLocationUnknown
Jaffna	Kayts	MOH Office - Karainagar	False	False	JFFNKYTSMHFFCKRNGR		Jaffna	LK-41	9.691792	80.098594	Kayts	PS-410212	9.728654	79.94775	9.725097	79.99772	Sri Lanka, Manipay, Sri Lanka	5.492521	
Jaffna	Wadukkotte	MOH Office - Chankanai	False	False	JFFNWDKKTTMHFFCCHNKN		Jaffna	LK-41	9.691792	80.098594	Vaddukoddai		9.728886	79.947771	9.753617	79.976004	QX3G+CCR, Sri Lanka	4.140836	
Jaffna	Kodikamam	Varani Base Hospital	False	False	JFFNKDKMMVRNBSHSPTL		Jaffna	LK-41	9.691792	80.098594	Kodikamam	PS-410217	9.666459	80.132384	9.677952	80.236663	M6HP+5MM, Jaffna, Sri Lanka	11.505299	
Jaffna	Chavakachcheri	Town Hall - Chavakachcheri	False	False	JFFNCHVKCHCHRTWNHLLCHVKCHCHR		Jaffna	LK-41	9.691792	80.098594	Chawakachcheri	PS-410215	9.666459	80.132384	9.659136	80.160946	M556+M94, Chavakachcheri, Sri Lanka	3.236063	
Kilinochchi	Kilinochchi	Mobile Medical Team	False	False	KLNCHCHKLNCHCHMBLMDCLTM		Kilinochchi	LK-45	9.415742	80.30358	Kilinochchi	PS-450131	9.392265	80.407846					#CenterLocationUnknown
Kilinochchi	Pooneryn	MOH Office - Pooneryn	False	False	KLNCHCHPNRYNMHFFCPNRYN		Kilinochchi	LK-45	9.415742	80.30358	Pooneryn		9.505717	80.21101	9.507968	80.208317	G655+58P, Pooneryn, Sri Lanka	0.387256	
Mullaitivu	Mullaitivu	Mobile Medical Team	False	False	MLLTVMLLTVMBLMDCLTM		Mullaitivu	LK-44	9.167643	80.549091	Mullativu	PS-440148	9.212825	80.760159					#CenterLocationUnknown
Mullaitivu	Iyankulam	Mobile Vaccination	False	False	MLLTVYNKLMMBLVCCNTN		Mullaitivu	LK-44	9.167643	80.549091	Mankulam	PS-440147	9.124606	80.448404					#CenterLocationUnknown
Mullaitivu	Mankulam	MOH Office - Mankulam	False	False	MLLTVMNKLMMHFFCMNKLM		Mullaitivu	LK-44	9.167643	80.549091	Mankulam	PS-440147	9.124606	80.448404	9.136526	80.307948	48P5+J58, Mallavi, Sri Lanka	15.481822	
Mullaitivu	Oddusuddan	MOH Office - Oddusuddan	False	False	MLLTVDDSDDNMHFFCDDSDDN		Mullaitivu	LK-44	9.167643	80.549091	Oddusudan	PS-440151	9.160983	80.652821	9.162816	80.661584	5M76+4JG, Oddusuddan, Sri Lanka	0.983634	
Mullaitivu	Pudukudiruppu	MOH Office - Pudukudiruppu	False	False	MLLTVPDKDRPPMHFFCPDKDRPP		Mullaitivu	LK-44	9.167643	80.549091	Pudukuduiruppu	PS-440149	7.00152	79.95003	9.320965	80.683013	Parantan-Mullaitivu Hwy, Velikkandal, Sri Lanka	270.317914	#CenterFarFromPolice
Mullaitivu	Mulliyawalai	PMCU - Mulliyawalai Neeravipiddy	False	False	MLLTVMLLYWLPMCMLLYWLNRVPDDY		Mullaitivu	LK-44	9.167643	80.549091	Muliyaweli	PS-440150	6.915266	79.87829	9.219215	80.764395	Mulliyawalai, Sri Lanka	274.216834	#CenterFarFromPolice
Mannar	Mannar	Mobile Medical Team	False	False	MNNRMNNRMBLMDCLTM		Mannar	LK-42	8.877429	80.088628	Mannar	PS-420138	8.978123	79.911642					#CenterLocationUnknown
Mannar	Murunkan	Murunkan Rural Health Service Offices	False	False	MNNRMRNKNMRNKNRRLHLTHSRVCFFCS		Mannar	LK-42	8.877429	80.088628	Murunkan	PS-420143	8.838186	80.038298	8.844353	80.02639	DIE's office, murunkan, Sri Lanka	1.477652	
Mannar	Murunkan	Nanattan Hospital	False	False	MNNRMRNKNNNTTNHSPTL		Mannar	LK-42	8.877429	80.088628	Murunkan	PS-420143	8.838186	80.038298	8.834257	79.97851	Murunkan - Nanattan Rd, Sri Lanka	6.585797	
Mannar	Murunkan	Madukarai Clinic	False	False	MNNRMRNKNMDKRCLNC		Mannar	LK-42	8.877429	80.088628	Murunkan	PS-420143	8.838186	80.038298	8.836678	80.038164	Divisional Hospital Murunkan, Mannar, Sri Lanka	0.16838	
Vavuniya	Vavuniya	Mobile Medical Team	False	False	VVNYVVNYMBLMDCLTM		Vavuniya	LK-43	8.852071	80.467404	Vavuniya	PS-430119	8.754431	80.498604					#CenterLocationUnknown
Trincomalee	Trincomalee	Mobile Medical Team	False	False	TRNCMLTRNCMLMBLMDCLTM		Trincomalee	LK-53	8.551241	81.092014	Trincomalee	PS-530130	8.563946	81.234023					#CenterLocationUnknown
Trincomalee	Muttur	MOH Office – Muttur	False	False	TRNCMLMTTRMHFFCMTTR		Trincomalee	LK-53	8.551241	81.092014	Mutur	PS-530138	8.461133	81.259371	8.453916	81.264494	1 Old Batticaloa Rd, Mutur, Sri Lanka	0.980859	
Trincomalee	Kinniya	MOH Office - Kuruggankeni	False	False	TRNCMLKNNYMHFFCKRGGNKN		Trincomalee	LK-53	8.551241	81.092014	Kinnia	PS-530140	6.907289	79.863819	8.498696	81.179644	F5XH+FVC, Kinniya 31100, Sri Lanka	228.840304	#CenterFarFromPolice
Trincomalee	Kinniya	MOH Office – Kinniya	False	False	TRNCMLKNNYMHFFCKNNY		Trincomalee	LK-53	8.551241	81.092014	Kinnia	PS-530140	6.907289	79.863819	8.498696	81.179644	F5XH+FVC, Kinniya 31100, Sri Lanka	228.840304	#CenterFarFromPolice
Trincomalee	Sripura	MOH Office – Sripura	False	False	TRNCMLSRPRMHFFCSRPR		Trincomalee	LK-53	8.551241	81.092014	Sripura	PS-530136	8.929617	80.81428	8.926697	80.814799	Padavi Sripura, Padaviya - Sripura Road, Welioya, Sri Lanka	0.329869	
Trincomalee	Kuchchaveli	MOH Office - Kuchchaveli	False	False	TRNCMLKCHCHVLMHFFCKCHCHVL		Trincomalee	LK-53	8.551241	81.092014	Kuchchaweli	PS-530133	8.81895	81.100438	8.740082	81.161616	P5R6+2JQ, Kumpurupiddi, Sri Lanka	11.053646	
Trincomalee	Kuchchaveli	Divisional Hospital - Kuchchaveli	False	False	TRNCMLKCHCHVLDVSNLHSPTLKCHCHVL		Trincomalee	LK-53	8.551241	81.092014	Kuchchaweli	PS-530133	8.81895	81.100438	8.814795	81.102358	R472+WW9, Kuchchaveli, Sri Lanka	0.508064	
Trincomalee	Kuchchaveli	Divisional Hospital - Nilaveli	False	False	TRNCMLKCHCHVLDVSNLHSPTLNLVL		Trincomalee	LK-53	8.551241	81.092014	Kuchchaweli	PS-530133	8.81895	81.100438	8.681035	81.193632	M5JV+CF6, Nilaveli, Sri Lanka	18.44695	
Trincomalee	Kantale	MOH Office – Kantale	False	False	TRNCMLKNTLMHFFCKNTL		Trincomalee	LK-53	8.551241	81.092014	Kantale	PS-530241	8.356129	81.007739	8.349617	81.009107	අග්‍රබෝධි මාවත, Kantale, Sri Lanka	0.739809	
Trincomalee	Pulmoddai	Pulmoddai Base Hospital	False	False	TRNCMLPLMDDPLMDDBSHSPTL	Base Hospital - Pulmoddai	Trincomalee	LK-53	8.551241	81.092014	Pulmudai	PS-530135	6.915266	79.87829	8.941204	80.983139	WXRM+F7J, Pulmoddai, Sri Lanka	256.112801	#CenterFarFromPolice
Trincomalee	Serunuwara	MOH Office - Serunuwara	False	False	TRNCMLSRNWRMHFFCSRNWR		Trincomalee	LK-53	8.551241	81.092014	Serunuwara	PS-530244	8.321863	81.299322	8.323143	81.299894	B10, Sri Lanka	0.155671	
Trincomalee	Harbour Police	MOH Office - Trincomalee	False	False	TRNCMLHRBRPLCMHFFCTRNCML		Trincomalee	LK-53	8.551241	81.092014	Trinco Harbour Police	PS-530131	8.56705	81.231407	8.598974	81.216963	MOH Office, Farm Rd, Trincomalee, Sri Lanka	3.890062	
Trincomalee	Uppuveli	MOH Office - Uppuveli	False	False	TRNCMLPPVLMHFFCPPVL		Trincomalee	LK-53	8.551241	81.092014	Uppuweli	PS-530134	8.593614	81.21743	8.607961	81.216512	Nilaveli Rd, Trincomalee, Sri Lanka	1.599005	
Trincomalee	Ichchalampattu	MOH Office - Ichchalampattu	False	False	TRNCMLCHCHLMPTTMHFFCCHCHLMPTT		Trincomalee	LK-53	8.551241	81.092014	Ichchalampattu		8.289549	81.359002	6.788131	79.883651	Station Road, Rawathawaththa, Moratuwa, Lunawa Station Rd, Moratuwa 10400, Sri Lanka	233.14046	#CenterFarFromPolice
Trincomalee	Thambalagamuwa	MOH Office - Thambalagamuwa	False	False	TRNCMLTHMBLGMWMHFFCTHMBLGMW		Trincomalee	LK-53	8.551241	81.092014	Thambalagamuva	PS-530243	6.907289	79.863819	8.563603	81.239584	Hospital Ln, Trincomalee, Sri Lanka	238.604889	#CenterFarFromPolice
Trincomalee	Gomarankadawala	MOH Office - Gomarankadawala	False	False	TRNCMLGMRNKDWLMHFFCGMRNKDWL		Trincomalee	LK-53	8.551241	81.092014	Gomarankadawala	PS-530248	8.674487	80.967555	8.674726	80.955691	Unnamed Road, Gomarankadawala, Sri Lanka	1.304806	
Batticaloa	Batticaloa	Mobile Medical Team	False	False	BTTCLBTTCLMBLMDCLTM		Batticaloa	LK-51	7.792772	81.486513	Batticaloa	PS-510101	7.717949	81.699294					#CenterLocationUnknown
Batticaloa	Batticaloa	Methodist Vidyalaya	False	False	BTTCLBTTCLMTHDSTVDYLY		Batticaloa	LK-51	7.792772	81.486513	Batticaloa	PS-510101	7.717949	81.699294	7.711534	81.697756	PM6X+J46, Batticaloa, Sri Lanka	0.733401	
Batticaloa	Batticaloa	YMCA Hall	False	False	BTTCLBTTCLYMCHLL		Batticaloa	LK-51	7.792772	81.486513	Batticaloa	PS-510101	7.717949	81.699294	7.719116	81.695091	Boundary Rd S, Batticaloa, Sri Lanka	0.481105	
Batticaloa	Batticaloa	Arasadi Pillayar	False	False	BTTCLBTTCLRSDPLLYR		Batticaloa	LK-51	7.792772	81.486513	Batticaloa	PS-510101	7.717949	81.699294	7.717285	81.699849	Trinco Rd, Batticaloa, Sri Lanka	0.095901	
Batticaloa	Batticaloa	Pudunagar Wigneswara Vidyalaya	False	False	BTTCLBTTCLPDNGRWGNSWRVDYLY		Batticaloa	LK-51	7.792772	81.486513	Batticaloa	PS-510101	7.717949	81.699294	7.720987	81.697673	PMCX+93V, Batticaloa, Sri Lanka	0.382244	
Batticaloa	Kokkadichcholai	MOH Office - Pattipola	False	False	BTTCLKKKDCHCHLMHFFCPTTPL		Batticaloa	LK-51	7.792772	81.486513	Kokkadicholai	PS-510112	7.715979	81.698757	6.943236	80.777788	Blackpool-Ambewela-Pattipola-Horton Plain Rd, Nuwara Eliya, Sri Lanka	133.081143	#CenterFarFromPolice
Batticaloa	Vellawali	MOH Office - Vellawali	False	False	BTTCLVLLWLMHFFCVLLWL		Batticaloa	LK-51	7.792772	81.486513	Vellavali	PS-510111	6.907289	79.863819	7.290886	80.643784	No. 20000, 163 Sangaraja Mawatha, Kandy 20000, Sri Lanka	96.083396	#CenterFarFromPolice
Batticaloa	Kaluwanchikudy	MOH Office - Kaluwanchikudy	False	False	BTTCLKLWNCHKDYMHFFCKLWNCHKDY	Medical Officer of Health Kaluwanchikudy	Batticaloa	LK-51	7.792772	81.486513	Kalawanchikudy	PS-510110	7.515908	81.787051	7.509333	81.79204	Colombo - Batticaloa Hwy, Kaluwanchikudy, Sri Lanka	0.915167	
Batticaloa	Valachchenai	MOH Office - Valachchenai	False	False	BTTCLVLCHCHNMHFFCVLCHCHN		Batticaloa	LK-51	7.792772	81.486513	Valachchanai	PS-510107	7.908015	81.533004	7.912281	81.532775	WG6M+W46, Batticaloa, Sri Lanka	0.475177	
Batticaloa	Valachchenai	Mobile Vaccination	False	False	BTTCLVLCHCHNMBLVCCNTN		Batticaloa	LK-51	7.792772	81.486513	Valachchanai	PS-510107	7.908015	81.533004					#CenterLocationUnknown
Batticaloa	Valachchenai	Valachchenai Base Hospital	False	False	BTTCLVLCHCHNVLCHCHNBSHSPTL		Batticaloa	LK-51	7.792772	81.486513	Valachchanai	PS-510107	7.908015	81.533004	7.911315	81.533046	Valaichchenai-Nasuvantivu-Navaladi Road, Sri Lanka	0.367088	
Batticaloa	Vakarai	MOH Office - Vakarai	False	False	BTTCLVKRMHFFCVKR	Divisional Hospital Vakarai	Batticaloa	LK-51	7.792772	81.486513	Wakarai	PS-510109	6.934132	79.856305	8.134552	81.435328	Trincomalee Hwy, Vakarai, Sri Lanka	219.417822	#CenterFarFromPolice
Batticaloa	Kattankudy	MOH Office - Kattankudy	False	False	BTTCLKTTNKDYMHFFCKTTNKDY		Batticaloa	LK-51	7.792772	81.486513	Kaththankudi	PS-510103	7.715979	81.698757	7.683586	81.730767	MPMJ+C8J, Kattankudy, Sri Lanka	5.042961	
Batticaloa	Eravur	Eravur Hospital	False	False	BTTCLRVRRVRHSPTL		Batticaloa	LK-51	7.792772	81.486513	Eravur	PS-510104	7.715979	81.698757	7.783168	81.605999	QJM4+799, Eravur 30300, Sri Lanka	12.663585	
Batticaloa	Eravur	MOH Office – Eravur	False	False	BTTCLRVRMHFFCRVR		Batticaloa	LK-51	7.792772	81.486513	Eravur	PS-510104	7.715979	81.698757	7.783664	81.605626	QJM4+F76, Eravur, Sri Lanka	12.729342	
Batticaloa	Eravur	MOH Office - Chenkaladi	False	False	BTTCLRVRMHFFCCHNKLD		Batticaloa	LK-51	7.792772	81.486513	Eravur	PS-510104	7.715979	81.698757	7.783599	81.593367	Trincomalee Hwy, Chenkaladi 30350, Sri Lanka	13.837876	
Batticaloa	Eravur	Chenkaladi Hospital	False	False	BTTCLRVRCHNKLDHSPTL		Batticaloa	LK-51	7.792772	81.486513	Eravur	PS-510104	7.715979	81.698757	7.783546	81.589961	Batticaloa Rd, Chenkaladi, Sri Lanka	14.151406	
Batticaloa	Eravur	Mawadivembu Hospital	False	False	BTTCLRVRMWDVMBHSPTL		Batticaloa	LK-51	7.792772	81.486513	Eravur	PS-510104	7.715979	81.698757	7.911315	81.533046	Valaichchenai-Nasuvantivu-Navaladi Road, Sri Lanka	28.381861	#CenterFarFromPolice
Batticaloa	Eravur	Mobile Vaccination	False	False	BTTCLRVRMBLVCCNTN		Batticaloa	LK-51	7.792772	81.486513	Eravur	PS-510104	7.715979	81.698757					#CenterLocationUnknown
Batticaloa	Vavunathivu	District Secretariat - Vavunathivu	False	False	BTTCLVVNTHVDSTRCTSCRTRTVVNTHV		Batticaloa	LK-51	7.792772	81.486513	Vavunathive	PS-510102	6.933075	79.857181	7.711424	81.702051	PP62+HR7, Batticaloa, Sri Lanka	221.17762	#CenterFarFromPolice
Batticaloa	Vavunathivu	Navatkadu Hospital	False	False	BTTCLVVNTHVNVTKDHSPTL		Batticaloa	LK-51	7.792772	81.486513	Vavunathive	PS-510102	6.933075	79.857181	7.713686	81.640546	Navatladu, Batticaloa, Sri Lanka	215.05111	#CenterFarFromPolice
Batticaloa	Vavunathivu	Kayamaduwa Vidyalaya	False	False	BTTCLVVNTHVKYMDWVDYLY		Batticaloa	LK-51	7.792772	81.486513	Vavunathive	PS-510102	6.933075	79.857181	7.720143	81.700516	PPC2+362, Batticaloa, Sri Lanka	221.401617	#CenterFarFromPolice
Batticaloa	Vavunathivu	Pavakkodichenai Vinayager Vidyalaya	False	False	BTTCLVVNTHVPVKKDCHNVNYGRVDYLY		Batticaloa	LK-51	7.792772	81.486513	Vavunathive	PS-510102	6.933075	79.857181	7.720547	81.70115	PPC2+6F6, Batticaloa, Sri Lanka	221.483543	#CenterFarFromPolice
Batticaloa	Vavunathivu	Mandapathadi Hospital	False	False	BTTCLVVNTHVMNDPTHDHSPTL		Batticaloa	LK-51	7.792772	81.486513	Vavunathive	PS-510102	6.933075	79.857181	7.719015	81.701193	91 Pioneer Rd, Batticaloa, Sri Lanka	221.420894	#CenterFarFromPolice
Ampara	Chavalakade	MOH Office - Navidanveli	False	False	MPRCHVLKDMHFFCNVDNVL		Ampara	LK-52	7.23699	81.550391	Chawalakade	PS-520125	7.413559	81.776822	7.420081	81.788401	B77, Sri Lanka	1.468805	
Ampara	Karaitivu	MOH Office – Karaitivu	False	False	MPRKRTVMHFFCKRTV		Ampara	LK-52	7.23699	81.550391	Karaitivu		9.744059	79.870587	7.377712	81.838796	Colombo-Ratnapura-Wellawaya-Batticaloa Highway, Karativu 32250, Sri Lanka	340.788666	#CenterFarFromPolice
