district	police	center	dose1	dose2	fuzzy_key	alt_name	district_name_norm	district_id	district_lat	district_lng	ps_name_norm	ps_id	ps_lat	ps_lng	lat	lng	formatted_address	dis_center_to_police	tags	district_si	police_si	center_si	district_ta	police_ta	center_ta	formatted_address_si	formatted_address_ta
Colombo	Cinnamon Gardens	Viharamahadevi Park	True	True	CLMBCNNMNGRDNSVHRMHDVPRK		Colombo	LK-11	6.869636	80.019598	Cinnamon Garden	PS-110324	6.907289	79.863819	6.913391	79.86174	Viharamahadevi Park, Colombo, Sri Lanka	0.716497		කොළඹ	කුරුඳු උද්‍යාන	විහාරමහාදේවි උද්‍යානය	கொழும்பு	இலவங்கப்பட்டை தோட்டங்கள்	விஹாரமஹாதேவி பூங்கா	විහාරමහාදේවි උද්‍යානය, කොළඹ, ශ්‍රී ලංකාව	விஹாரமஹாதேவி பூங்கா, கொழும்பு, இலங்கை
Colombo	Narahenpita	Army Hospital Narahenpita	False	False	CLMBNRHNPTRMYHSPTLNRHNPT		Colombo	LK-11	6.869636	80.019598	Narahenpita	PS-110321	6.891832	79.876715	6.900252	79.87618	08 Elvitigala Mawatha, Colombo 00800, Sri Lanka	0.938417		කොළඹ	නාරාහේන්පිට	නාරාහේන්පිට හමුදා රෝහල	கொழும்பு	நரஹேன்பிட்ட	இராணுவ மருத்துவமனை நாரஹேன்பிட்ட	08 ඇල්විටිගල මාවත, කොළඹ 00800, ශ්‍රී ලංකාව	08 எல்விட்டிகல மாவத்தை, கொழும்பு 00800, இலங்கை
Colombo	Narahenpita	MOH Office – Narahenpita	False	False	CLMBNRHNPTMHFFCNRHNPT		Colombo	LK-11	6.869636	80.019598	Narahenpita	PS-110321	6.891832	79.876715	6.891268	79.878754	75 Narahenpita Rd, Colombo 00500, Sri Lanka	0.233735		කොළඹ	නාරාහේන්පිට	MOH කාර්යාලය - නාරාහේන්පිට	கொழும்பு	நரஹேன்பிட்ட	MOH அலுவலகம் - நாரஹேன்பிட்ட	75 නාරාහේන්පිට පාර, කොළඹ 00500, ශ්‍රී ලංකාව	75 நாரஹேன்பிட்ட சாலை, கொழும்பு 00500, இலங்கை
Colombo	Grandpass	Sugathadasa Outdoor Stadium	False	True	CLMBGRNDPSSSGTHDSTDRSTDM		Colombo	LK-11	6.869636	80.019598	Grandpass	PS-110215	6.949052	79.872983	6.94806	79.868842	Prince of Wales Ave, Colombo 01400, Sri Lanka	0.470345		කොළඹ	ග්‍රෑන්ඩ්පාස්	සුගතදාස එළිමහන් ක්‍රීඩාංගනය	கொழும்பு	கிராண்ட்பாஸ்	சுகததாச வெளிப்புற அரங்கம்	වේල්ස් කුමර මාවත, කොළඹ 01400, ශ්‍රී ලංකාව	பிரின்ஸ் ஆஃப் வேல்ஸ் அவே, கொழும்பு 01400, இலங்கை
Colombo	Thalangama	Diyatha Uyana	True	True	CLMBTHLNGMDYTHYN		Colombo	LK-11	6.869636	80.019598	Thalangama	PS-110466	6.91089	79.929325	6.904575	79.909831	Diyatha Uyana, B240, Sri Jayawardenepura Kotte, Sri Lanka	2.264281		කොළඹ	තලංගම	දියත උයන	கொழும்பு	தலங்கம	தியாத உயனா	දියත උයන, බී 240, ශ්‍රී ජයවර්ධනපුර කෝට්ටේ, ශ්‍රී ලංකාව	தியாத உயனா, B240, ஸ்ரீ ஜெயவர்தனபுர கோட்டே, இலங்கை
Colombo	Maradana	Army Headquarters Mobitel Team	True	True	CLMBMRDNRMYHDQRTRSMBTLTM		Colombo	LK-11	6.869636	80.019598	Maradana	PS-110107	6.927939	79.865471	6.92129	79.881222	148, 15 Leslie Ranagala Mawatha, Colombo 00800, Sri Lanka	1.889916		කොළඹ	මරදාන	යුද හමුදා මූලස්ථාන මොබිටෙල් කණ්ඩායම	கொழும்பு	மரதானா	இராணுவ தலைமையகம் மொபிடெல் குழு	148, 15 ලෙස්ලි රණගල මාවත, කොළඹ 00800, ශ්‍රී ලංකාව	148, 15 லெஸ்லி ரணகல மாவத்தை, கொழும்பு 00800, இலங்கை
Colombo	Maradana	Railway Headquarters	False	False	CLMBMRDNRLWYHDQRTRS		Colombo	LK-11	6.869636	80.019598	Maradana	PS-110107	6.927939	79.865471	6.931669	79.860172	Olcott Mawatha, Colombo 01000, Sri Lanka	0.717269		කොළඹ	මරදාන	දුම්රිය මූලස්ථානය	கொழும்பு	மரதானா	ரயில்வே தலைமையகம்	ඕල්කට් මාවත, කොළඹ 01000, ශ්‍රී ලංකාව	ஓல்காட் மாவத்தை, கொழும்பு 01000, இலங்கை
Colombo	Boralesgamuwa	Kotelawala Defence Hospital	False	True	CLMBBRLSGMWKTLWLDFNCHSPTL		Colombo	LK-11	6.869636	80.019598	Boralesgamuwa	PS-110464	6.841331	79.901255	6.82518	79.907167	RWG4+3VF, Boralesgamuwa, Sri Lanka	1.911444		කොළඹ	බොරලැස්ගමුව	කොතලාවල ආරක්‍ෂක රෝහල	கொழும்பு	பொரலஸ்கமுவா	கொத்தலாவல பாதுகாப்பு மருத்துவமனை	RWG4+3VF, බොරලැස්ගමුව, ශ්‍රී ලංකාව	RWG4+3VF, பொரலஸ்கமுவா, இலங்கை
Colombo	Boralesgamuwa	MOH Office - Werahera	False	False	CLMBBRLSGMWMHFFCWRHR		Colombo	LK-11	6.869636	80.019598	Boralesgamuwa	PS-110464	6.841331	79.901255	6.833094	79.905583	RWM4+66P, Boralesgamuwa, Sri Lanka	1.033386		කොළඹ	බොරලැස්ගමුව	MOH කාර්යාලය - වේරහැර	கொழும்பு	பொரலஸ்கமுவா	MOH அலுவலகம் - வெரஹெரா	RWM4+66P, බොරලැස්ගමුව, ශ්‍රී ලංකාව	RWM4+66P, பொரலஸ்கமுவா, இலங்கை
Colombo	Avissawella	Avissawella Base Hospital	False	False	CLMBVSSWLLVSSWLLBSHSPTL		Colombo	LK-11	6.869636	80.019598	Awissawella	PS-920226	6.947538	80.215422	6.957085	80.207381	Avissawella Rd, Avissawella, Sri Lanka	1.384155		කොළඹ	අවිස්සාවේල්ල	අවිස්සාවේල්ල මූලික රෝහල	கொழும்பு	அவிசாவெல்லா	அவிசாவளை அடிப்படை மருத்துவமனை	අවිස්සාවේල්ල පාර, අවිස්සාවේල්ල, ශ්‍රී ලංකාව	அவிசாவெல்லா சாலை, அவிசாவல்லா, இலங்கை
Colombo	Mt Lavinia	Wedikanda St. Mary's Church	False	False	CLMBMTLVNWDKNDSTMRYSCHRCH		Colombo	LK-11	6.869636	80.019598	Mount Lavinia	PS-110577	6.825006	79.87009	6.859708	79.864858	Colombo, Sri Lanka	3.902906		කොළඹ	ගල්කිස්ස	වෙදිකන්ද ශාන්ත මරියා දේවස්ථානය	கொழும்பு	கல்கிசை	வெடிகண்ட புனித மேரி தேவாலயம்	කොළඹ, ශ්‍රී ලංකාව	கொழும்பு, இலங்கை
Colombo	Padukka	MOH Office – Padukka	False	False	CLMBPDKKMHFFCPDKK		Colombo	LK-11	6.869636	80.019598	Padukka	PS-110473	6.842195	80.09247	6.840164	80.093288	Galagedera - Horana Rd, Padukka, Sri Lanka	0.243301		කොළඹ	පාදුක්ක	MOH කාර්යාලය - පාදුක්ක	கொழும்பு	பாதுக்கா	MOH அலுவலகம் - பாதுக்கா	ගලගෙදර - හොරණ පාර, පාදුක්ක, ශ්‍රී ලංකාව	கலகெடெரா - ஹொரானா வீதி, பாதுக்கா, இலங்கை
Colombo	Fort	Navy Headquarters	False	False	CLMBFRTNVYHDQRTRS		Colombo	LK-11	6.869636	80.019598	Fort	PS-110105	6.9334	79.842895	6.936952	79.842104	WRPR+QRQ, Colombo, Sri Lanka	0.404627		කොළඹ	කොටුව	නාවික හමුදා මූලස්ථානය	கொழும்பு	கோட்டை	கடற்படை தலைமையகம்	WRPR+QRQ, කොළඹ, ශ්‍රී ලංකාව	WRPR+QRQ, கொழும்பு, இலங்கை
Colombo	Borella	Castle Hospital	False	False	CLMBBRLLCSTLHSPTL		Colombo	LK-11	6.869636	80.019598	Borella	PS-110323	6.915266	79.87829	6.910641	79.884768	Castle St, Colombo 00800, Sri Lanka	0.881086		කොළඹ	බොරැල්ල	කාසල් රෝහල	கொழும்பு	பொரெல்லா	கோட்டை மருத்துவமனை	කාසල් ශාන්ත, කොළඹ 00800, ශ්‍රී ලංකාව	கோட்டை செயின்ட், கொழும்பு 00800, இலங்கை
Colombo	Wellawatta	MOH Office – Wellawatta	False	False	CLMBWLLWTTMHFFCWLLWTT		Colombo	LK-11	6.869636	80.019598	Wellawatta	PS-110320	6.873107	79.86167	6.861346	79.865943	VV68+G9P, Dehiwala-Mount Lavinia, Sri Lanka	1.390678		කොළඹ	වැල්ලවත්ත	MOH කාර්යාලය - වැල්ලවත්ත	கொழும்பு	வெள்ளவத்தை	MOH அலுவலகம் - வெள்ளவத்தை	VV68+G9P, දෙහිවල-ගල්කිස්ස, ශ්‍රී ලංකාව	VV68+G9P, தெஹிவளை-கல்கிசை, இலங்கை
Colombo	Kosgama	Kosgama Salawa Hospital	False	False	CLMBKSGMKSGMSLWHSPTL		Colombo	LK-11	6.869636	80.019598	Kosgama	PS-920227	6.946597	80.137869	6.940956	80.124888	Salawa-Akarawita, 10730, Sri Lanka	1.564606		කොළඹ	කොස්ගම	කොස්ගම සාලාව රෝහල	கொழும்பு	கொஸ்கம	கொஸ்கம சலவா மருத்துவமனை	සාලාව-අකරවිට, 10730, ශ්‍රී ලංකාව	சலாவா-அகரவிட, 10730, இலங்கை
Colombo	Wellampitiya	MOH Office – Kolonnawa	False	False	CLMBWLLMPTYMHFFCKLNNW		Colombo	LK-11	6.869636	80.019598	Wellampitiya	PS-110465	6.937514	79.896298	6.922088	79.916237	Mandavila Rd, Kotikawatta, Sri Lanka	2.791266		කොළඹ	වැල්ලම්පිටිය	MOH කාර්යාලය - කොළොන්නාව	கொழும்பு	வெல்லம்பிட்டிய	MOH அலுவலகம் - கொலன்னாவா	මණ්ඩවිල පාර, කොටිකාවත්ත, ශ්‍රී ලංකාව	மண்டவில வீதி, கொட்டிகாவத்த, இலங்கை
Colombo	Mulleriyawa	MOH Office - Gothatuwa	False	False	CLMBMLLRYWMHFFCGTHTW		Colombo	LK-11	6.869636	80.019598	Mulleriyawa	PS-110469	6.927187	79.929108	6.922088	79.916237	Mandavila Rd, Kotikawatta, Sri Lanka	1.530186		කොළඹ	මුල්ලේරියාව	MOH කාර්යාලය - ගොතටුව	கொழும்பு	முல்லேரியாவா	MOH அலுவலகம் - கோததுவா	මණ්ඩවිල පාර, කොටිකාවත්ත, ශ්‍රී ලංකාව	மண்டவில வீதி, கொட்டிகாவத்த, இலங்கை
Colombo	Kaduwela	MOH Office – Kaduwela	False	False	CLMBKDWLMHFFCKDWL		Colombo	LK-11	6.869636	80.019598	Kaduwela		6.936234	79.970183	6.934127	79.984398	B263, Kaduwela, Sri Lanka	1.586964		කොළඹ	කඩුවෙල	MOH කාර්යාලය - කඩුවෙල	கொழும்பு	கடுவெல	MOH அலுவலகம் - கடுவெல	බී 263, කඩුවෙල, ශ්‍රී ලංකාව	பி 263, கடுவெல, இலங்கை
Colombo	Fore shore	MOH Office - Jinthupitiya	False	False	CLMBFRSHRMHFFCJNTHPTY		Colombo	LK-11	6.869636	80.019598	Fore shore	PS-110210	6.949589	79.857355	6.943258	79.859238	No.27 Vivekananda Hill, Colombo 01300, Sri Lanka	0.734247		කොළඹ	ඉදිරිපස වෙරළ	MOH කාර්යාලය - ජින්තුපිටිය	கொழும்பு	முன் கரை	MOH அலுவலகம் - ஜிந்துபிடியா	අංක 27 විවේකානන්ද කන්ද, කොළඹ 01300, ශ්‍රී ලංකාව	எண் .27 விவேகானந்த மலை, கொழும்பு 01300, இலங்கை
Gampaha	Gampaha	Mobile Medical Team	True	True	GMPHGMPHMBLMDCLTM		Gampaha	LK-12	7.123598	80.018508	Gampaha	PS-120237	7.087765	80.01228					#CenterLocationUnknown	ගම්පහ	ගම්පහ	ජංගම වෛද්‍ය කණ්ඩායම	கம்பஹா	கம்பஹா	மொபைல் மருத்துவ குழு		
Gampaha	Gampaha	MOH Office – Gampaha	False	False	GMPHGMPHMHFFCGMPH		Gampaha	LK-12	7.123598	80.018508	Gampaha	PS-120237	7.087765	80.01228	7.17227	79.956823	Katunayake-Veyangoda Rd, Minuwangoda, Sri Lanka	11.216745		ගම්පහ	ගම්පහ	MOH කාර්යාලය - ගම්පහ	கம்பஹா	கம்பஹா	MOH அலுவலகம் - கம்பஹா	කටුනායක-වේයන්ගොඩ පාර, මිනුවන්ගොඩ, ශ්‍රී ලංකාව	கட்டுநாயக்க-வெயங்கொட வீதி, மினுவாங்கொட, இலங்கை
Gampaha	Yakkala	Ranaviru Appetal - Yakkala	False	True	GMPHYKKLRNVRPPTLYKKL		Gampaha	LK-12	7.123598	80.018508	Yakkala	PS-120250	7.076621	80.020655	7.078261	80.037053	Ranaviru Apparel Mawatha, Yakkala, Sri Lanka	1.819218		ගම්පහ	යක්කල	රණවිරු අභියාචනය - යක්කල	கம்பஹா	யக்கல	ரணவிரு அப்பெடல் - யக்கல	රණවිරු ඇපරල් මාවත, යක්කල, ශ්‍රී ලංකාව	ரணவிரு அப்பரல் மாவத்தை, யக்கல, இலங்கை
Gampaha	Kadawata	MOH Office - Mahara	False	False	GMPHKDWTMHFFCMHR		Gampaha	LK-12	7.123598	80.018508	Kadawatha	PS-120136	7.00152	79.95003	7.020757	79.973481	Mahara, Eldeniya, Sri Lanka	3.358732		ගම්පහ	කඩවත	MOH කාර්යාලය - මහර	கம்பஹா	கடவாடா	MOH அலுவலகம் - மஹாரா	මහර, ඇල්දෙනිය, ශ්‍රී ලංකාව	மஹாரா, எல்டெனியா, இலங்கை
Gampaha	Pugoda	MOH Office – Dompe	False	False	GMPHPGDMHFFCDMP		Gampaha	LK-12	7.123598	80.018508	Pugoda	PS-120241	6.98283	80.111189	6.976767	80.117422	Dompe, Pugoda-Mandawala Rd, Pugoda, Sri Lanka	0.963513		ගම්පහ	පූගොඩ	MOH කාර්යාලය - දොම්පේ	கம்பஹா	புகோடா	MOH அலுவலகம் - Dompe	දොම්පේ, පූගොඩ-මණ්ඩාවල පාර, පූගොඩ, ශ්‍රී ලංකාව	டோம்பே, புகோடா-மண்டவாலா சாலை, புகோடா, இலங்கை
Gampaha	Sapugaskanda	Gonawala Clinic	False	False	GMPHSPGSKNDGNWLCLNC		Gampaha	LK-12	7.123598	80.018508	Sapugaskanda	PS-120130	6.970586	79.953588	6.967145	79.916819	328/E Old Kandy Rd, Kelaniya, Sri Lanka	4.077598		ගම්පහ	සපුගස්කන්ද	ගෝනවල සායනය	கம்பஹா	சபுகஸ்கந்தா	கோனாவாலா கிளினிக்	328/ඊ පරණ මහනුවර පාර, කැලණිය, ශ්‍රී ලංකාව	328/E பழைய கண்டி சாலை, களனி, இலங்கை
Gampaha	Sapugaskanda	Makola Clinic	False	False	GMPHSPGSKNDMKLCLNC		Gampaha	LK-12	7.123598	80.018508	Sapugaskanda	PS-120130	6.970586	79.953588	6.975057	79.950937	Makola - Udupila Rd, Gonawala, Sri Lanka	0.577047		ගම්පහ	සපුගස්කන්ද	මාකොල සායනය	கம்பஹா	சபுகஸ்கந்தா	மகோலா கிளினிக்	මාකොල - උඩුපිල පාර, ගෝනවල, ශ්‍රී ලංකාව	மகோலா - உடுபில வீதி, கோனாவாலா, இலங்கை
Gampaha	Kelaniya	MOH Office – Kelaniya	False	False	GMPHKLNYMHFFCKLNY		Gampaha	LK-12	7.123598	80.018508	Kelaniya	PS-120126	6.950251	79.917459	6.954921	79.919116	XW39+XJ9, Peliyagoda, Sri Lanka	0.55072		ගම්පහ	කැලණිය	MOH කාර්යාලය - කැලණිය	கம்பஹா	களனி	MOH அலுவலகம் - களனி	XW39+XJ9, පෑලියගොඩ, ශ්‍රී ලංකාව	XW39+XJ9, பேலியகொட, இலங்கை
Gampaha	Kiribathgoda	Mobile Vaccination	False	False	GMPHKRBTHGDMBLVCCNTN		Gampaha	LK-12	7.123598	80.018508	Kiribathgoda	PS-120135	6.978005	79.929433					#CenterLocationUnknown	ගම්පහ	කිරිබත්ගොඩ	ජංගම එන්නත	கம்பஹா	கிரிபத்கோடா	மொபைல் தடுப்பூசி		
Gampaha	Ja Ela	MOH Office - Ja Ela	False	False	GMPHJLMHFFCJL		Gampaha	LK-12	7.123598	80.018508	Ja - Ela	PS-120133	7.081055	79.890504	7.075216	79.893879	60 Mount Kalvary Rd, Ja-Ela, Sri Lanka	0.748731		ගම්පහ	ජා ඇල	MOH කාර්යාලය - ජා ඇල	கம்பஹா	ஜா எல	MOH அலுவலகம் - ஜா எல	60 කල්වාරි පාර, ජා-ඇල, ශ්‍රී ලංකාව	60 மவுண்ட் கல்வாரி சாலை, ஜா-எல, இலங்கை
Gampaha	Wattala	MOH Office – Wattala	False	False	GMPHWTTLMHFFCWTTL		Gampaha	LK-12	7.123598	80.018508	Wattala	PS-120128	6.993713	79.894506	6.995817	79.885793	301 Hendala Rd, Wattala, Sri Lanka	0.989991		ගම්පහ	වත්තල	MOH කාර්යාලය - වත්තල	கம்பஹா	வத்தளை	MOH அலுவலகம் - வத்தளை	301 හැඳල පාර, වත්තල, ශ්‍රී ලංකාව	301 ஹெந்தலா சாலை, வத்தளை, இலங்கை
Gampaha	Ragama	MOH Office – Ragama	False	False	GMPHRGMMHFFCRGM		Gampaha	LK-12	7.123598	80.018508	Ragama	PS-120134	7.034975	79.924148	7.027386	79.920232	2WGC+X35, Ragama, Sri Lanka	0.948382		ගම්පහ	රාගම	MOH කාර්යාලය - රාගම	கம்பஹா	ராகம	MOH அலுவலகம் - ராகம	2WGC+X35, රාගම, ශ්‍රී ලංකාව	2WGC+X35, ராகம, இலங்கை
Gampaha	Divulapitiya	MOH Office – Divulapitiya	False	False	GMPHDVLPTYMHFFCDVLPTY		Gampaha	LK-12	7.123598	80.018508	Diulapitiya	PS-120355	7.174215	79.957874	7.215486	80.013606	6287+5CX, Divulapitiya, Sri Lanka	7.67456		ගම්පහ	දිවුලපිටිය	එම්ඕඑච් කාර්යාලය - දිවුලපිටිය	கம்பஹா	திவுலபிட்டிய	MOH அலுவலகம் - திவுலபிட்டிய	6287+5CX, දිවුලපිටිය, ශ්‍රී ලංකාව	6287+5CX, திவுலபிட்டிய, இலங்கை
Gampaha	Negombo	Town Hall – Negombo	False	False	GMPHNGMBTWNHLLNGMB		Gampaha	LK-12	7.123598	80.018508	Negombo	PS-120351	7.224796	79.880015	7.206667	79.851863	Negombo, Sri Lanka	3.703623		ගම්පහ	මීගමුව	පුරහල - මීගමුව	கம்பஹா	நீர்கொழும்பு	டவுன் ஹால் - நீர்கொழும்பு	මීගමුව, ශ්‍රී ලංකාව	நீர்கொழும்பு, இலங்கை
Gampaha	Negombo	Pitipana Clinic	False	False	GMPHNGMBPTPNCLNC		Gampaha	LK-12	7.123598	80.018508	Negombo	PS-120351	7.224796	79.880015	7.186997	79.82092	Pitipana, Negombo, Sri Lanka	7.759058		ගම්පහ	මීගමුව	පිටිපන සායනය	கம்பஹா	நீர்கொழும்பு	பிடிபனா கிளினிக்	පිටිපන, මීගමුව, ශ්‍රී ලංකාව	பிடிபனா, நீர்கொழும்பு, இலங்கை
Gampaha	Katana	MOH Office – Katana	False	False	GMPHKTNMHFFCKTN		Gampaha	LK-12	7.123598	80.018508	Katana	PS-120360	7.224796	79.880015	7.22436	79.88271	Katana, Negombo - Mirigama Rd, Negombo, Sri Lanka	0.301313		ගම්පහ	කටාන	MOH කාර්යාලය - කටාන	கம்பஹா	கட்டானா	MOH அலுவலகம் - கட்டானா	කටාන, මීගමුව - මීරිගම පාර, මීගමුව, ශ්‍රී ලංකාව	கட்டானா, நீர்கொழும்பு - மீரிகம வீதி, நீர்கொழும்பு, இலங்கை
Gampaha	Seeduwa	MOH Office – Seeduwa	False	False	GMPHSDWMHFFCSDW		Gampaha	LK-12	7.123598	80.018508	Seeduwa	PS-120356	7.128721	79.877371	7.131527	79.879964	24 Kotugoda Rd, Katunayake 11410, Sri Lanka	0.423459		ගම්පහ	සීදුව	MOH කාර්යාලය - සීදුව	கம்பஹா	சீதுவா	MOH அலுவலகம் - சீதுவா	24 කොටුගොඩ පාර, කටුනායක 11410, ශ්‍රී ලංකාව	24 கொடுகொட வீதி, கட்டுநாயக்க 11410, இலங்கை
Kalutara	Kalutara South	Mobile Medical Team	True	True	KLTRKLTRSTHMBLMDCLTM		Kalutara	LK-13	6.577316	80.127363	Kalutara South	PS-130296	6.58486	79.961043					#CenterLocationUnknown	කළුතර	කළුතර දකුණ	ජංගම වෛද්‍ය කණ්ඩායම	களுத்துறை	களுத்துறை தெற்கு	மொபைல் மருத்துவ குழு		
Kalutara	Kalutara South	NIHS	False	False	KLTRKLTRSTHNHS		Kalutara	LK-13	6.577316	80.127363	Kalutara South	PS-130296	6.58486	79.961043	6.55864	79.977416	HX5G+FX3, Katukurunda, Sri Lanka	3.432035		කළුතර	කළුතර දකුණ	NIHS	களுத்துறை	களுத்துறை தெற்கு	என்ஐஎச்எஸ்	HX5G+FX3, කටුකුරුන්ද, ශ්‍රී ලංකාව	HX5G+FX3, கட்டுக்குருந்தா, இலங்கை
Kalutara	Thebuwana	Nebada Hospital	False	False	KLTRTHBWNNBDHSPTL		Kalutara	LK-13	6.577316	80.127363	Thebuwana	PS-1302105	6.654997	80.058183	6.563228	79.985261	Kalutara-Matugama Rd, Sri Lanka	13.004249		කළුතර	තෙබුවන	නෙබාඩා රෝහල	களுத்துறை	தேபுவானா	நெபாடா மருத்துவமனை	කළුතර මතුගම පාර, ශ්‍රී ලංකාව	களுத்துறை-மத்துகம வீதி, இலங்கை
Kalutara	Agalawatta	Pimbura Hospital	False	False	KLTRGLWTTPMBRHSPTL		Kalutara	LK-13	6.577316	80.127363	Agalawatta		6.542566	80.157178	6.575949	80.158371	H5G5+98H, කළුතර, Sri Lanka	3.715525		කළුතර	අගලවත්ත	පිඹුර රෝහල	களுத்துறை	அகலவத்தை	பிம்புரா மருத்துவமனை	H5G5+98H, කළුතර, ශ්‍රී ලංකාව	H5G5+98H, கருப்புதர, இலங்கை
Kalutara	Agalawatta	Omatta Colony Primary School	False	False	KLTRGLWTTMTTCLNYPRMRYSCHL		Kalutara	LK-13	6.577316	80.127363	Agalawatta		6.542566	80.157178	6.542279	80.157504	Omatta Road, Agalawatta 12200, Sri Lanka	0.048134		කළුතර	අගලවත්ත	ඕමත්ත ජනපද ප්‍රාථමික විද්‍යාලය	களுத்துறை	அகலவத்தை	ஓமட்டா காலனி தொடக்கப்பள்ளி	ඕමත්ත පාර, අගලවත්ත 12200, ශ්‍රී ලංකාව	ஓமட்டா சாலை, அகலவத்தை 12200, இலங்கை
Kalutara	Ingiriya	Rathmalgoda Clinic	False	False	KLTRNGRYRTHMLGDCLNC		Kalutara	LK-13	6.577316	80.127363	Ingiriya	PS-130193	6.743614	80.175077	6.741114	80.162065	Ratnapura - Horana - Panadura Hwy, Ingiriya, Sri Lanka	1.463965		කළුතර	ඉංගිරිය	රත්මල්ගොඩ සායනය	களுத்துறை	இங்கிரிய	ரத்மல்கொட கிளினிக்	රත්නපුර - හොරණ - පානදුර හ්වි, ඉංගිරිය, ශ්‍රී ලංකාව	இரத்தினபுரி - ஹொரணை - பாணாதுரா ஹ்வி, இங்கிரிய, இலங்கை
Kalutara	Millaniya	MOH Office – Millaniya	False	False	KLTRMLLNYMHFFCMLLNY		Kalutara	LK-13	6.577316	80.127363	Millaniya	PS-130191	6.681692	80.020847	6.724224	79.907284	A2, Panadura, Sri Lanka	13.407612		කළුතර	මිල්ලනිය	MOH කාර්යාලය - මිල්ලනිය	களுத்துறை	மில்லனியா	MOH அலுவலகம் - மில்லனியா	ඒ 2, පානදුර, ශ්‍රී ලංකාව	ஏ 2, பாணந்துரா, இலங்கை
Kalutara	Anguruwatota	MOH Office – Anguruwatota	False	False	KLTRNGRWTTMHFFCNGRWTT		Kalutara	LK-13	6.577316	80.127363	Anguruwatota	PS-130190	6.654997	80.058183	6.649886	80.076617	Madurawala Pradeshiya Sabha Sub Office, B157, Anguruwatota, Sri Lanka	2.114568		කළුතර	අඟුරුවාතොට	MOH කාර්යාලය - අඟුරුවාතොට	களுத்துறை	அங்குருவடோட்டா	MOH அலுவலகம் - அங்குருவத்தோட்ட	මදුරාවල ප්‍රාදේශීය සභා උප කාර්යාලය, බී 157, අඟුරුවාතොට, ශ්‍රී ලංකාව	மதுரவல பிரதேச சபை துணை அலுவலகம், பி 157, அங்குருவடோட்டா, இலங்கை
Kurunegala	Kurunegala	Kurunegala	False	False	KRNGLKRNGLKRNGL		Kurunegala	LK-61	7.66477	80.23677	Kurunegala	PS-610101	7.485852	80.364137	7.48177	80.360888	Kurunegala, Sri Lanka	0.578391		කුරුණෑගල	කුරුණෑගල	කුරුණෑගල	குருநாகல்	குருநாகல்	குருநாகல்	කුරුණෑගල, ශ්‍රී ලංකාව	குருநாகல், இலங்கை
Kandy	Davulagala	MOH Office - Doluwa	False	False	KNDYDVLGLMHFFCDLW		Kandy	LK-21	7.27337	80.709602	Daulagala	PS-210111	7.227283	80.574409	7.183635	80.602303	5JM2+FW3, Doluwa, Sri Lanka	5.748624		මහනුවර	දවුලගල	MOH කාර්යාලය - දොළුව	கண்டி	தாவுலகலா	MOH அலுவலகம் - Doluwa	5JM2+FW3, දොළුව, ශ්‍රී ලංකාව	5JM2+FW3, டோலுவா, இலங்கை
Kandy	Davulagala	Dinu As Siraj College	False	False	KNDYDVLGLDNSSRJCLLG		Kandy	LK-21	7.27337	80.709602	Daulagala	PS-210111	7.227283	80.574409	7.209458	80.589466	268 Dellanga Rd, Gelioya, Sri Lanka	2.586816		මහනුවර	දවුලගල	දිනූ සිරාජ් විද්‍යාලය	கண்டி	தாவுலகலா	தினு சிராஜ் கல்லூரியாக	268 දෙල්ලංග පාර, ගෙලිඔය, ශ්‍රී ලංකාව	268 டெல்லங்கா சாலை, கெலியோயா, இலங்கை
Kandy	Hatharaliyadda	Hatharaliyadda Maha Vidyalaya	False	False	KNDYHTHRLYDDHTHRLYDDMHVDYLY		Kandy	LK-21	7.27337	80.709602	Hatharaliyadda	PS-210106	7.336886	80.471814	7.33578	80.471154	Hatharaliyadda, Sri Lanka	0.142952		මහනුවර	හතරලියද්ද	හතරලියද්ද මහා විද්‍යාලය	கண்டி	ஹதரலியத்த	ஹதரலியத்த மகா வித்தியாலயம்	හතරලියද්ද, ශ්‍රී ලංකාව	ஹதரலியத்த, இலங்கை
Kandy	Poojapitiya	Poojapitiya Primary School	False	False	KNDYPJPTYPJPTYPRMRYSCHL		Kandy	LK-21	7.27337	80.709602	Poojapitiya	PS-210115	7.372938	80.587619	7.365084	80.601755	Ahalagashinna, Poojapitiya Road, Pujapitiya, Sri Lanka	1.787489		මහනුවර	පූජාපිටිය	පූජාපිටිය ප්‍රාථමික විද්‍යාලය	கண்டி	பூஜாபிட்டிய	பூஜாபிட்டிய தொடக்கப்பள்ளி	අහලගස්හින්න, පූජාපිටිය පාර, පූජාපිටිය, ශ්‍රී ලංකාව	அலகாகசின்னா, பூஜாபிட்டிய சாலை, பூஜாபிட்டிய, இலங்கை
Kandy	Wattegama	Walala A.Rathnayake Central College	False	False	KNDYWTTGMWLLRTHNYKCNTRLCLLG		Kandy	LK-21	7.27337	80.709602	Wattegama	PS-210357	7.350603	80.68335	7.318909	80.693359	8M9V+H89, Menikhinna, Sri Lanka	3.694199		මහනුවර	වත්තේගම	වලල ඒ. රත්නායක මධ්‍ය මහා විද්‍යාලය	கண்டி	வட்டேகம	வாலாலா ஏ.ரத்நாயக்க மத்திய கல்லூரி	8 එම් 9 වී+එච් 89, මැණික්හින්න, ශ්‍රී ලංකාව	8M9V+H89, மெனிகின்னா, இலங்கை
Kandy	Wattegama	Paranagama Maha Vidyalaya	False	False	KNDYWTTGMPRNGMMHVDYLY		Kandy	LK-21	7.27337	80.709602	Wattegama	PS-210357	7.350603	80.68335	7.351534	80.682953	Pitiyagedera - Wattegama - Iriyagastenne Rd, Wattegama, Sri Lanka	0.112435		මහනුවර	වත්තේගම	පරණගම මහා විද්‍යාලය	கண்டி	வட்டேகம	பரணகம மகா வித்தியாலயம்	පිටියගෙදර - වත්තේගම - ඊරියගස්තැන්න පාර, වත්තේගම, ශ්‍රී ලංකාව	பிட்டியகெடெரா - வட்டேகம - இரியாகஸ்டென் சாலை, வட்டேகம, இலங்கை
Kandy	Wattegama	Wattegama Balika Vidyalaya	False	False	KNDYWTTGMWTTGMBLKVDYLY		Kandy	LK-21	7.27337	80.709602	Wattegama	PS-210357	7.350603	80.68335	7.351534	80.682953	Pitiyagedera - Wattegama - Iriyagastenne Rd, Wattegama, Sri Lanka	0.112435		මහනුවර	වත්තේගම	වත්තේගම බාලිකා විද්‍යාලය	கண்டி	வட்டேகம	வட்டேகம பாலிகா வித்தியாலயம்	පිටියගෙදර - වත්තේගම - ඊරියගස්තැන්න පාර, වත්තේගම, ශ්‍රී ලංකාව	பிட்டியகெடெரா - வட்டேகம - இரியாகஸ்டென் சாலை, வட்டேகம, இலங்கை
Kandy	Katugastota	Nugawela Maha Vidyalaya	False	False	KNDYKTGSTTNGWLMHVDYLY		Kandy	LK-21	7.27337	80.709602	Katugastota	PS-210103	7.332014	80.623006	7.326749	80.586953	8HGP+MQW, Nugawela, Sri Lanka	4.020285		මහනුවර	කටුගස්තොට	නුගවෙල මහා විද්‍යාලය	கண்டி	கட்டுகஸ்தோட்டா	நுகவெல மகா வித்தியாலயம்	8HGP+MQW, නුගවෙල, ශ්‍රී ලංකාව	8HGP+MQW, நுகவேலா, இலங்கை
Kandy	Katugastota	Gohagoda Dharmavijaya Vidyalaya	False	False	KNDYKTGSTTGHGDDHRMVJYVDYLY		Kandy	LK-21	7.27337	80.709602	Katugastota	PS-210103	7.332014	80.623006	7.305057	80.618816	Gohagoda, Katugastota, Sri Lanka	3.033846		මහනුවර	කටුගස්තොට	ගොහාගොඩ ධර්මවිජය විද්‍යාලය	கண்டி	கட்டுகஸ்தோட்டா	கோஹகொட தர்மவிஜய வித்யாலயா	ගොහාගොඩ, කටුගස්තොට, ශ්‍රී ලංකාව	கோஹகொட, கட்டுகஸ்தோட்டா, இலங்கை
Kandy	Ankumbura	Ankumbura Parakrama Maha Vidyalaya	False	False	KNDYNKMBRNKMBRPRKRMMHVDYLY		Kandy	LK-21	7.27337	80.709602	Ankumbura	PS-210104	7.438826	80.571939	7.438119	80.57279	Alawatugoda-Ankumbura-Keppetigala Rd, Ankumbura, Sri Lanka	0.122449		මහනුවර	අංකුඹුර	අංකුඹුර පරාක්‍රම මහා විද්‍යාලය	கண்டி	அங்கும்புரா	அங்கும்புர பராக்கிரம மகா வித்தியாலயம்	අලවතුගොඩ-අංකුඹුර-කැප්පෙටිගල පාර, අංකුඹුර, ශ්‍රී ලංකාව	அலவத்துகொட-அன்கும்புரா-கெப்பெட்டிகல சாலை, அன்கும்புரா, இலங்கை
Kandy	Galagedara	Galagedara Sujatha Balika Vidyalaya	False	False	KNDYGLGDRGLGDRSJTHBLKVDYLY		Kandy	LK-21	7.27337	80.709602	Galagedara	PS-210105	7.373683	80.526154	7.372389	80.518839	B122, Galagedara, Sri Lanka	0.819655		මහනුවර	ගලගෙදර	ගලගෙදර සුජාතා බාලිකා විද්‍යාලය	கண்டி	கலகெதரா	கலகெதர சுஜாதா பாலிகா வித்யாலயா	බී 122, ගලගෙදර, ශ්‍රී ලංකාව	பி 122, கலகெதரா, இலங்கை
Kandy	Rangala	Amupitiya National College	False	False	KNDYRNGLMPTYNTNLCLLG		Kandy	LK-21	7.27337	80.709602	Rangala	PS-210360	7.3309	80.773559	7.328709	80.774641	8QHF+FVJ, Rangala, Sri Lanka	0.271368		මහනුවර	රංගල	අමුපිටිය ජාතික විද්‍යාලය	கண்டி	ரங்கலா	அமுபிட்டிய தேசிய கல்லூரி	8QHF+FVJ, රංගල, ශ්‍රී ලංකාව	8QHF+FVJ, ரங்கலா, இலங்கை
Kandy	Welambada	Wattappala Maha Vidyalaya	False	False	KNDYWLMBDWTTPPLMHVDYLY		Kandy	LK-21	7.27337	80.709602	Welambada	PS-210114	7.201768	80.544166	7.200964	80.548012	Welamboda, Sri Lanka	0.433735		මහනුවර	වෙලම්බඩ	වට්ටප්පල මහා විද්‍යාලය	கண்டி	வேலம்பாடா	வட்டப்பல மகா வித்தியாலயம்	වෙලම්බොඩ, ශ්‍රී ලංකාව	வெலம்போடா, இலங்கை
Kandy	Kadugannawa	Kurukuththala Maha Vidyalaya	False	False	KNDYKDGNNWKRKTHTHLMHVDYLY		Kandy	LK-21	7.27337	80.709602	Kadugannawa	PS-210112	7.256285	80.516908	7.254973	80.51884	7G39+XGP, Kadugannawa, Sri Lanka	0.258404		මහනුවර	කඩුගන්නාව	කුරුකුත්තල මහා විද්‍යාලය	கண்டி	கடுகன்னாவா	குருகுத்தால மகா வித்தியாலயம்	7G39+XGP, කඩුගන්නාව, ශ්‍රී ලංකාව	7G39+XGP, கடுகன்னாவா, இலங்கை
Kandy	Peradeniya	Gelioya Maha Vidyalaya	False	False	KNDYPRDNYGLYMHVDYLY		Kandy	LK-21	7.27337	80.709602	Peradeniya	PS-210110	7.267283	80.601901	7.266783	80.601296	Galaha Rd, Peradeniya, Sri Lanka	0.086885		මහනුවර	පේරාදෙණිය	ගෙලිඔය මහා විද්‍යාලය	கண்டி	பேராதனை	கெலிஓயா மகா வித்தியாலயம்	ගලහ පාර, පේරාදෙණිය, ශ්‍රී ලංකාව	கலஹா சாலை, பேராதனை, இலங்கை
Kandy	Pallekele	Bandaranayaka Maha Vidyalaya - Warapitiya	False	False	KNDYPLLKLBNDRNYKMHVDYLYWRPTY		Kandy	LK-21	7.27337	80.709602	Pallekele	PS-210109	7.279688	80.682945	7.280986	80.687993	A26, Kundasale 20168, Sri Lanka	0.57537		මහනුවර	පල්ලෙකැලේ	බණ්ඩාරනායක මහා විද්‍යාලය - වරාපිටිය	கண்டி	பல்லேகலே	பண்டாரநாயக்க மகா வித்தியாலயம் - வாராபிட்டிய	ඒ 26, කුණ්ඩසාලේ 20168, ශ්‍රී ලංකාව	A26, குண்டசலே 20168, இலங்கை
Kandy	Kandy	Kandy Girls' High School	False	False	KNDYKNDYKNDYGRLSHGHSCHL		Kandy	LK-21	7.27337	80.709602	Kandy	PS-210101	7.292948	80.642368	7.286871	80.626752	7JPG+PPR, Kandy, Sri Lanka	1.850775		මහනුවර	මහනුවර	මහනුවර උසස් බාලිකා විද්‍යාලය	கண்டி	கண்டி	கண்டி பெண்கள் மேல்நிலைப்பள்ளி	7JPG+PPR, මහනුවර, ශ්‍රී ලංකාව	7JPG+PPR, கண்டி, இலங்கை
Kandy	Nawalapitiya	Anurudda Kumara Primary School	False	False	KNDYNWLPTYNRDDKMRPRMRYSCHL		Kandy	LK-21	7.27337	80.709602	Nawalapitiya	PS-210219	7.057355	80.536075	7.053484	80.527436	Nawalapitiya - Ginigathena Rd, Nawalapitiya, Sri Lanka	1.046335		මහනුවර	නාවලපිටිය	අනුරුද්ධ කුමාර ප්‍රාථමික විද්‍යාලය	கண்டி	நாவலப்பிட்டி	அனுருத்த குமார தொடக்கப் பள்ளி	නාවලපිටිය - ගිනිගත්හේන පාර, නාවලපිටිය, ශ්‍රී ලංකාව	நாவலப்பிட்டிய - கினிகத்தேனா வீதி, நாவலப்பிட்டி, இலங்கை
Kandy	Nawalapitiya	Nawalapitiya Central College	False	False	KNDYNWLPTYNWLPTYCNTRLCLLG		Kandy	LK-21	7.27337	80.709602	Nawalapitiya	PS-210219	7.057355	80.536075	7.046305	80.537454	Weligampola Road, Nawalapitiya, Sri Lanka	1.238481		මහනුවර	නාවලපිටිය	නාවලපිටිය මධ්‍ය මහා විද්‍යාලය	கண்டி	நாவலப்பிட்டி	நாவலப்பிட்டி மத்திய கல்லூரி	වැලිගම්පොල පාර, නාවලපිටිය, ශ්‍රී ලංකාව	வெலிகம்பொல வீதி, நாவலப்பிட்டி, இலங்கை
Kandy	Pupuressa	Panvilatenna Ranasingharama Viharaya	False	False	KNDYPPRSSPNVLTNNRNSNGHRMVHRY		Kandy	LK-21	7.27337	80.709602	Pupuressa		7.130291	80.663669	7.293609	80.641325	Sri Dalada Veediya, Kandy 20000, Sri Lanka	18.332402		මහනුවර	පුපුරැස්ස	පන්විලතැන්න රණසිංහාරාම විහාරය	கண்டி	புபுரெஸ்ஸா	பன்விலடென்ன ரணசிங்கராம விகாரை	ශ්‍රී දළදා වීදිය, මහනුවර 20000, ශ්‍රී ලංකාව	ஸ்ரீ தலதா வீதி, கண்டி 20000, இலங்கை
Kandy	Galaha	Kolabissa Viharaya	False	False	KNDYGLHKLBSSVHRY		Kandy	LK-21	7.27337	80.709602	Galaha	PS-210220	7.196074	80.669961	7.178548	80.7408	5PHR+C87, Deltota, Sri Lanka	8.05689		මහනුවර	ගලහා	කොළබිස්ස විහාරය	கண்டி	கலஹா	கோலாபிஸ்ஸ விஹாராயா	5 පීඑච්ආර්+සී 87, දෙල්තොට, ශ්‍රී ලංකාව	5PHR+C87, டெல்டோட்டா, இலங்கை
Kandy	Gampola	Wickramabahu National College	False	False	KNDYGMPLWCKRMBHNTNLCLLG		Kandy	LK-21	7.27337	80.709602	Gampola	PS-210216	7.132941	80.56799	7.153925	80.563839	Nawalapitiya Road, Gampola 20500, Sri Lanka, Sri Lanka	2.378605		මහනුවර	ගම්පොල	වික්‍රමබාහු ජාතික විද්‍යාලය	கண்டி	கம்போலா	விக்கிரமபாகு தேசிய கல்லூரி	නාවලපිටිය පාර, ගම්පොල 20500, ශ්‍රී ලංකාව, ශ්‍රී ලංකාව	நாவலப்பிட்டி சாலை, கம்போலா 20500, இலங்கை, இலங்கை
Kandy	Gampola	Udagama Saranapala Vidyalaya	False	False	KNDYGMPLDGMSRNPLVDYLY		Kandy	LK-21	7.27337	80.709602	Gampola	PS-210216	7.132941	80.56799	7.122536	80.566502	Udagama, Ulapane, Kandy Rd, Sri Lanka	1.168941		මහනුවර	ගම්පොල	උඩගම සරණපාල විද්‍යාලය	கண்டி	கம்போலா	உடகம சரணபால வித்தியாலயம்	උඩගම, උලපනේ, මහනුවර පාර, ශ්‍රී ලංකාව	உதகம, உலபனே, கண்டி வீதி, இலங்கை
Kandy	Gampola	Ulapane Rathnawali Vidyalaya	False	False	KNDYGMPLLPNRTHNWLVDYLY		Kandy	LK-21	7.27337	80.709602	Gampola	PS-210216	7.132941	80.56799	7.145143	80.536914	Gampola - Dolosbage Rd, Sri Lanka	3.688558		මහනුවර	ගම්පොල	උලපනේ රත්නාවලී විද්‍යාලය	கண்டி	கம்போலா	உலாபனே ரத்னாவலி வித்யாலயா	ගම්පොල - දොලොස්බාගේ පාර, ශ්‍රී ලංකාව	கம்போலா - டோலோஸ்பேஜ் சாலை, இலங்கை
Kandy	Pussellawa	Town Hall – Pussellawa	False	False	KNDYPSSLLWTWNHLLPSSLLW		Kandy	LK-21	7.27337	80.709602	Pussellawa	PS-210217	7.115334	80.635553	7.106515	80.636264	Peradeniya - Badulla - Chenkaladi Hwy, Pussellawa, Sri Lanka	0.98407		මහනුවර	පුස්සැල්ලාව	නගර ශාලාව - පුස්සැල්ලාව	கண்டி	புசெல்லவா	டவுன் ஹால் - புஸ்ஸல்லாவ	පේරාදෙණිය - බදුල්ල - චෙන්කලාඩි හ්වි, පුස්සැල්ලාව, ශ්‍රී ලංකාව	பேராதனை - பதுளை - செங்கலடி ஹ்வி, புஸ்ஸல்லவா, இலங்கை
Kandy	Nawa Kurunduwatta	Kurunduwatta Royal College	False	False	KNDYNWKRNDWTTKRNDWTTRYLCLLG		Kandy	LK-21	7.27337	80.709602	Nawa Kurunduwatta	PS-210218	7.126357	80.530286	7.130783	80.533673	Gampola, Kurunduwaththa Rd, kurunduwaththa 20509, Sri Lanka	0.618148		මහනුවර	නව කුරුඳුවත්ත	කුරුඳුවත්ත රාජකීය විද්‍යාලය	கண்டி	நவ குருந்துவத்த	குருந்துவத்த ராயல் கல்லூரி	ගම්පොල, කුරුඳුවත්ත පාර, කුරුඳුවත්ත 20509, ශ්‍රී ලංකාව	கம்போலா, குருந்துவத்த வீதி, குருந்துவத்த 20509, இலங்கை
Kandy	Nawa Kurunduwatta	Cray Head Tamil College	False	False	KNDYNWKRNDWTTCRYHDTMLCLLG		Kandy	LK-21	7.27337	80.709602	Nawa Kurunduwatta	PS-210218	7.126357	80.530286	7.126357	80.530286	Kurunduwaththa Rd, Sri Lanka	0.0		මහනුවර	නව කුරුඳුවත්ත	ක්‍රේ හෙඩ් දෙමළ විද්‍යාලය	கண்டி	நவ குருந்துவத்த	க்ரே ஹெட் தமிழ் கல்லூரி	කුරුඳුවත්ත පාර, ශ්‍රී ලංකාව	குருந்துவத்த சாலை, இலங்கை
Badulla	Ella	Demodara Hospital	False	False	BDLLLLDMDRHSPTL		Badulla	LK-81	7.074529	81.04486	Ella	PS-810211	6.876609	81.048276	6.900561	81.057232	W324+6VH, Demodara, Sri Lanka	2.841818		බදුල්ල	ඇලා	දෙමෝදර රෝහල	பதுளை	எல்ல	தெமோதரா மருத்துவமனை	ඩබ්ලිව් 324+6 වීඑච්, දෙමෝදර, ශ්‍රී ලංකාව	W324+6VH, தெமோதரா, இலங்கை
Badulla	Ella	Balakotuwa Hospital	False	False	BDLLLLBLKTWHSPTL		Badulla	LK-81	7.074529	81.04486	Ella	PS-810211	6.876609	81.048276	6.874718	81.048151	Ella, Sri Lanka	0.210788		බදුල්ල	ඇලා	බලකොටුව රෝහල	பதுளை	எல்ல	பாலகொட்டுவா மருத்துவமனை	ඇල්ල, ශ්‍රී ලංකාව	எல்ல, இலங்கை
Badulla	Uva Paranagama	Uva Paranagama Hospital	False	False	BDLLVPRNGMVPRNGMHSPTL	Divisional Hospital - Uva Paranagama	Badulla	LK-81	7.074529	81.04486	Uvaparanagama	PS-810213	6.958341	80.930364	6.938076	80.890525	Rendapola-Galahagama-Ambagasdowa Rd, Himbiliyagahamadiththa, Sri Lanka	4.942648		බදුල්ල	Vaව පරණගම	ප්‍රාදේශීය රෝහල - vaව පරණගම	பதுளை	ஊவ பரணகம	பிரதேச மருத்துவமனை - ஊவா பரணகம	රෙන්ඳපොල-ගලහගම-අඹගස්දෝව පාර, හිම්බිලියගහමදිත්ත, ශ්‍රී ලංකාව	ரெண்டபொல-கலஹகம-அம்பகஸ்தோவ வீதி, ஹிம்பிலியகஹமாதித்த, இலங்கை
Moneragala	Bibila	Divisional Secretariat - Bibila	False	False	MNRGLBBLDVSNLSCRTRTBBL		Moneragala	LK-82	6.787517	81.303744	Bibila	PS-820125	7.165232	81.225463	7.156706	81.224646	Peradeniya-Badulla-Chenkaladi Hwy, Bibile, Sri Lanka	0.952622		මොණරාගල	බිබිල	ප්‍රාදේශීය ලේකම් කාර්යාලය - බිබිල	மொனராகலை	பிபிலா	பிரதேச செயலகம் - பிபிலா	පේරාදෙණිය-බදුල්ල-චෙන්කලාඩි හ්වි, බිබිලේ, ශ්‍රී ලංකාව	பேராதனை-பதுளை-செங்கலடி ஹ்வி, பிபிலே, இலங்கை
Galle	Galle	Galle	False	False	GLLGLLGLL		Galle	LK-31	6.222805	80.251977	Galle	PS-310120	6.032983	80.21714	6.053519	80.220977	Galle, Sri Lanka	2.323201		ගාල්ල	ගාල්ල	ගාල්ල	காலி	காலி	காலி	ගාල්ල, ශ්‍රී ලංකාව	காலி, இலங்கை
Galle	Elpitiya	Waturawila Dhamma School	False	False	GLLLPTYWTRWLDHMMSCHL		Galle	LK-31	6.222805	80.251977	Elpitiya	PS-310235	6.279163	80.142917	6.228271	80.229604	66HH+8R5, Kahaduwa, Sri Lanka	11.131579		ගාල්ල	ඇල්පිටිය	වතුරවිල දහම් පාසල	காலி	எல்பிட்டிய	வதுரவில தம்ம பள்ளி	66HH+8R5, කහදූව, ශ්‍රී ලංකාව	66HH+8R5, கஹடுவா, இலங்கை
Galle	Elpitiya	Miriswatta Primary School	False	False	GLLLPTYMRSWTTPRMRYSCHL		Galle	LK-31	6.222805	80.251977	Elpitiya	PS-310235	6.279163	80.142917	6.22676	80.186059	Yakkatuwa-Kahaduwa Road, Sri Lanka	7.53185		ගාල්ල	ඇල්පිටිය	මිරිස්වත්ත ප්‍රාථමික විද්‍යාලය	காலி	எல்பிட்டிய	மிரிஸ்வத்த ஆரம்பப் பள்ளி	යක්කටුව-කහදූව පාර, ශ්‍රී ලංකාව	யக்கத்துவ-கஹடுவா சாலை, இலங்கை
Matara	Matara	Matara	False	False	MTRMTRMTR		Matara	LK-32	6.142734	80.539994	Matara	PS-320101	5.94904	80.533659	5.95492	80.554956	Matara, Sri Lanka	2.445184		මාතර	මාතර	මාතර	மாத்தறை	மாத்தறை	மாத்தறை	මාතර, ශ්‍රී ලංකාව	மாத்தறை, இலங்கை
Matara	Kosmodara	MOH Office – Kotapola	False	False	MTRKSMDRMHFFCKTPL		Matara	LK-32	6.142734	80.539994	Kosmodara	PS-320116	6.290019	80.560337	6.327334	80.556547	Deniyaya - Galle Main Rd, Deniyaya, Sri Lanka	4.171638		මාතර	කොස්මෝදර	MOH කාර්යාලය - කොටපොළ	மாத்தறை	கோஸ்மோதரா	MOH அலுவலகம் - கொட்டபொல	දෙනියාය - ගාල්ල ප්‍රධාන පාර, දෙනියාය, ශ්‍රී ලංකාව	தெனியாயா - காலி மெயின் சாலை, தெனியாயா, இலங்கை
Matara	Pitabeddara	Thittamaluwa Viharaya – Siyambalagoda	False	False	MTRPTBDDRTHTTMLWVHRYSYMBLGD		Matara	LK-32	6.142734	80.539994	Pitabeddara	PS-320114	6.203675	80.475004	6.183286	80.521804	Gombaddala Rd, Sri Lanka	5.650276		මාතර	පිටබැද්දර	තිත්තමළුව විහාරය - සියඹලාගොඩ	மாத்தறை	பிடபெத்தர	திட்டமாலுவா விஹாராயா - சியம்பலகொட	ගොම්බද්දල පාර, ශ්‍රී ලංකාව	கோம்பத்தலா சாலை, இலங்கை
Matara	Pitabeddara	Dehigasp National College	False	False	MTRPTBDDRDHGSPNTNLCLLG		Matara	LK-32	6.142734	80.539994	Pitabeddara	PS-320114	6.203675	80.475004	6.207077	80.463245	6F47+R7Q, Pitabeddara, Sri Lanka	1.35423		මාතර	පිටබැද්දර	දෙහිගස්ප් ජාතික විද්‍යාලය	மாத்தறை	பிடபெத்தர	தெஹிகாஸ்ப் தேசியக் கல்லூரி	6F47+R7Q, පිටබැද්දර, ශ්‍රී ලංකාව	6F47+R7Q, பிடபெத்தர, இலங்கை
Matara	Pitabeddara	Morawaka Buddhist Maha Vidyalaya	False	False	MTRPTBDDRMRWKBDDHSTMHVDYLY		Matara	LK-32	6.142734	80.539994	Pitabeddara	PS-320114	6.203675	80.475004	6.248154	80.496699	6FXW+7M8, Matara, Sri Lanka	5.498309		මාතර	පිටබැද්දර	මොරවක බෞද්ධ මහා විද්‍යාලය	மாத்தறை	பிடபெத்தர	மொரவாகா ப Buddhistத்த மகா வித்தியாலயம்	6FXW+7M8, මාතර, ශ්‍රී ලංකාව	6FXW+7M8, மாத்தறை, இலங்கை
Matara	Pitabeddara	Alapaladeniya National College	False	False	MTRPTBDDRLPLDNYNTNLCLLG		Matara	LK-32	6.142734	80.539994	Pitabeddara	PS-320114	6.203675	80.475004	6.278102	80.457483	Kalubovitiyana - Neluwa Rd, Sri Lanka	8.502138		මාතර	පිටබැද්දර	අලපලාදෙණිය ජාතික විද්‍යාලය	மாத்தறை	பிடபெத்தர	அலபலதெனிய தேசிய கல்லூரி	කළුබෝවිටියාන - නෙළුව පාර, ශ්‍රී ලංකාව	களுபோவியானா - நெலுவா வீதி, இலங்கை
Hambantota	Hambantota	Hambantota	False	False	HMBNTTHMBNTTHMBNTT		Hambantota	LK-33	6.259779	81.098619	Hambantota	PS-330156	6.125872	81.12521	6.142883	81.121231	Hambantota, Sri Lanka	1.942628		හම්බන්තොට	හම්බන්තොට	හම්බන්තොට	அம்பாந்தோட்டை	அம்பாந்தோட்டை	அம்பாந்தோட்டை	හම්බන්තොට, ශ්‍රී ලංකාව	அம்பாந்தோட்டை, இலங்கை
Hambantota	Tangalle	MOH Office – Tangalle	False	False	HMBNTTTNGLLMHFFCTNGLL		Hambantota	LK-33	6.259779	81.098619	Tangalle	PS-330147	6.023954	80.797255	6.02363	80.795742	2QFW+F75, Tangalle, Sri Lanka	0.171198		හම්බන්තොට	තංගල්ල	MOH කාර්යාලය - තංගල්ල	அம்பாந்தோட்டை	தங்காலை	MOH அலுவலகம் - தங்காலை	2QFW+F75, තංගල්ල, ශ්‍රී ලංකාව	2QFW+F75, தங்காலை, இலங்கை
Hambantota	Katuwana	MOH Office – Katuwana	False	False	HMBNTTKTWNMHFFCKTWN		Hambantota	LK-33	6.259779	81.098619	Katuwana	PS-330153	6.269722	80.690963	6.26627	80.693035	7M8V+G63, Katuwana, Sri Lanka	0.447115		හම්බන්තොට	කටුවන	MOH කාර්යාලය - කටුවන	அம்பாந்தோட்டை	கட்டுவானா	MOH அலுவலகம் - கட்டுவானா	7 එම් 8 වී+ජී 63, කටුවන, ශ්‍රී ලංකාව	7M8V+G63, கட்டுவானா, இலங்கை
Hambantota	Agunukolapelessa	MOH Office – Agunukolapelessa	False	False	HMBNTTGNKLPLSSMHFFCGNKLPLSS		Hambantota	LK-33	6.259779	81.098619	Angunakolapelessa	PS-330150	6.321993	80.844883	6.164691	80.898963	Unnamed Road, Agunukolapelessa, Sri Lanka	18.490258		හම්බන්තොට	අගුණුකොලපැලැස්ස	MOH කාර්යාලය - අගුණුකොලපැලැස්ස	அம்பாந்தோட்டை	அகுணுகோலாபெலெஸ்ஸா	MOH அலுவலகம் - அகுணுகோலபெலஸ்ஸா	නම් නොකළ පාර, අගුණුකොලපැලැස්ස, ශ්‍රී ලංකාව	பெயரிடப்படாத சாலை, அகுனுகோலபெலஸ்ஸா, இலங்கை
Hambantota	Sooriyawewa	Habarathwala Viharaya	False	False	HMBNTTSRYWWHBRTHWLVHRY		Hambantota	LK-33	6.259779	81.098619	Sooriyawewa	PS-330155	6.306022	81.003873	6.194762	80.94959	5WVX+WR4, Hambantota, Sri Lanka	13.7541		හම්බන්තොට	සූරියවැව	හබරත්වල විහාරය	அம்பாந்தோட்டை	சூரியவெவ	ஹபரத்வாலா விஹாராயா	5WVX+WR4, හම්බන්තොට, ශ්‍රී ලංකාව	5WVX+WR4, ஹம்பாந்தோட்டை, இலங்கை
Hambantota	Sooriyawewa	Beddewela Viharaya	False	False	HMBNTTSRYWWBDDWLVHRY		Hambantota	LK-33	6.259779	81.098619	Sooriyawewa	PS-330155	6.306022	81.003873	6.319364	81.002363	Sooriyawewa, Sri Lanka	1.493388		හම්බන්තොට	සූරියවැව	බැද්දේවෙල විහාරය	அம்பாந்தோட்டை	சூரியவெவ	பெத்தேவெல விஹாராயா	සූරියවැව, ශ්‍රී ලංකාව	சூரியவெவ, இலங்கை
Hambantota	Beliatta	MOH Office – Beliatta	False	False	HMBNTTBLTTMHFFCBLTT		Hambantota	LK-33	6.259779	81.098619	Beliatta	PS-330152	6.046936	80.735408	6.051828	80.741735	3P2R+PMQ, Hambantota, Sri Lanka	0.886482		හම්බන්තොට	බෙලිඅත්ත	MOH කාර්යාලය - බෙලිඅත්ත	அம்பாந்தோட்டை	பெலியாட்டா	MOH அலுவலகம் - பெலியாட்ட	3P2R+PMQ, හම්බන්තොට, ශ්‍රී ලංකාව	3P2R+PMQ, ஹம்பாந்தோட்டை, இலங்கை
Rathnapura	Balangoda	Vidyaloka Maha Vidyalaya	False	False	RTHNPRBLNGDVDYLKMHVDYLY		Ratnapura	LK-91	6.586826	80.566158	Balangoda	PS-910103	6.649474	80.700276	6.648651	80.698377	Barns Rathwathta Mawatha, Balangoda 70100, Sri Lanka	0.228906		රත්නපුර	බලන්ගොඩ	විද්යාලෝක මහා විද්යාලය	இரத்தினபுரி	பலாங்கொடை	வித்யாலோக மகா வித்தியாலயம்	බාන්ස් රත්වත්ත මාවත, බලංගොඩ 70100, ශ්‍රී ලංකාව	பார்ன்ஸ் ரத்வத்த மாவத்தை, பலாங்கொட 70100, இலங்கை
Rathnapura	Weligepola	MOH Office – Weligepola	False	False	RTHNPRWLGPLMHFFCWLGPL		Ratnapura	LK-91	6.586826	80.566158	Weligepola	PS-910106	6.596426	80.723695	6.581292	80.70718	Galgoda - Weligepola Rd, Weligepola, Sri Lanka	2.482674		රත්නපුර	වැලිගෙපොළ	MOH කාර්යාලය - වැලිගෙපොල	இரத்தினபுரி	வெலிகெபொல	MOH அலுவலகம் - வெலிகெபொல	ගල්ගොඩ - වැලිගෙපොල පාර, වැලිගෙපොල, ශ්‍රී ලංකාව	கல்கொட - வெலிகெபொல வீதி, வெலிகெபொல, இலங்கை
Rathnapura	Nivithigala	MOH Office – Nivithigala	False	False	RTHNPRNVTHGLMHFFCNVTHGL		Ratnapura	LK-91	6.586826	80.566158	Nivithigala	PS-910111	6.592765	80.459492	6.58377	80.41817	HCM9+G73, Karawita, Sri Lanka	4.674222		රත්නපුර	නිවිතිගල	MOH කාර්යාලය - නිවිතිගල	இரத்தினபுரி	நிவித்திகலா	MOH அலுவலகம் - நிவிதிகலா	HCM9+G73, කරාවිට, ශ්‍රී ලංකාව	HCM9+G73, கரவிட்டா, இலங்கை
Rathnapura	Rathnapura	MOH Office – Rathnapura	False	False	RTHNPRRTHNPRMHFFCRTHNPR		Ratnapura	LK-91	6.586826	80.566158	Ratnapura	PS-910101	6.679456	80.40223	6.687915	80.393434	M9QV+597, Ratnapura, Sri Lanka	1.352603		රත්නපුර	රත්නපුර	MOH කාර්යාලය - රත්නපුර	இரத்தினபுரி	இரத்தினபுரி	MOH அலுவலகம் - இரத்தினபுரி	M9QV+597, රත්නපුර, ශ්‍රී ලංකාව	M9QV+597, இரத்தினபுரி, இலங்கை
Rathnapura	Rathnapura	MOH Office – Elapatha	False	False	RTHNPRRTHNPRMHFFCLPTH		Ratnapura	LK-91	6.586826	80.566158	Ratnapura	PS-910101	6.679456	80.40223	6.662472	80.385003	Hangamuwa Road, Sri Lanka	2.681587		රත්නපුර	රත්නපුර	එම්ඕඑච් කාර්යාලය - ඇලපාත	இரத்தினபுரி	இரத்தினபுரி	MOH அலுவலகம் - எலபாதா	හංගමුව පාර, ශ්‍රී ලංකාව	ஹங்கமுவா சாலை, இலங்கை
Rathnapura	Kahawatta	Mobile Vaccination	False	False	RTHNPRKHWTTMBLVCCNTN		Ratnapura	LK-91	6.586826	80.566158	Kahawatta	PS-910107	6.591434	80.56893					#CenterLocationUnknown	රත්නපුර	කහවත්ත	ජංගම එන්නත	இரத்தினபுரி	கஹவத்த	மொபைல் தடுப்பூசி		
Kegalle	Warakapola	MOH Office – Warakapola	False	False	KGLLWRKPLMHFFCWRKPL		Kegalle	LK-92	7.104216	80.342866	Wrakapola	PS-920119	7.227488	80.199696	7.226501	80.197818	65GX+J44, Warakapola, Sri Lanka	0.234514		කෑගල්ල	වරකාපොල	MOH කාර්යාලය - වරකාපොල	கேகாலை	வாரகபொல	MOH அலுவலகம் - வாரகபொல	65GX+J44, වරකාපොල, ශ්‍රී ලංකාව	65GX+J44, வராகபொல, இலங்கை
Kegalle	Mawanella	MOH Office – Mawanella	False	False	KGLLMWNLLMHFFCMWNLL		Kegalle	LK-92	7.104216	80.342866	Mawanella	PS-920122	7.256966	80.445912	7.253248	80.44561	Rambukkana-Mawanella Rd, Mawanella, Sri Lanka	0.414893		කෑගල්ල	මාවනැල්ල	MOH කාර්යාලය - මාවනැල්ල	கேகாலை	மாவனெல்லா	MOH அலுவலகம் - மாவனெல்லா	රඹුක්කන-මාවනැල්ල පාර, මාවනැල්ල, ශ්‍රී ලංකාව	ரம்புக்கான-மாவனெல்லா சாலை, மாவனெல்லா, இலங்கை
Kegalle	Kegalle	MOH Office – Kegalle	False	False	KGLLKGLLMHFFCKGLL		Kegalle	LK-92	7.104216	80.342866	Kegalle	PS-920118	7.255928	80.353156	7.24797	80.343583	Kegalle-Bulathkohupitiya-Karawanella Hwy, Kegalle, Sri Lanka	1.378052		කෑගල්ල	කෑගල්ල	MOH කාර්යාලය - කෑගල්ල	கேகாலை	கேகாலை	MOH அலுவலகம் - கேகாலை	කෑගල්ල-බුලත්කොහුපිටිය-කරවනැල්ල හ්වි, කෑගල්ල, ශ්‍රී ලංකාව	கேகாலை-புலத்கோஹுபிட்டிய-கரவனெல்லா ஹ்வி, கேகாலை, இலங்கை
Kegalle	Kegalle	Deewela Vidyalaya	False	False	KGLLKGLLDWLVDYLY		Kegalle	LK-92	7.104216	80.342866	Kegalle	PS-920118	7.255928	80.353156	7.25115	80.350116	Vidyalaya Rd, Kegalle, Sri Lanka	0.628459		කෑගල්ල	කෑගල්ල	දීවෙල විද්‍යාලය	கேகாலை	கேகாலை	தீவெல வித்யாலயா	විද්‍යාලය පාර, කෑගල්ල, ශ්‍රී ලංකාව	வித்தியாலய வீதி, கேகாலை, இலங்கை
Kegalle	Kegalle	Avunugalla Community Hall	False	False	KGLLKGLLVNGLLCMMNTYHLL		Kegalle	LK-92	7.104216	80.342866	Kegalle	PS-920118	7.255928	80.353156	7.254688	80.352612	7933+V2H, Kegalle, Sri Lanka	0.15042		කෑගල්ල	කෑගල්ල	අවුනුගල්ල ප්‍රජා ශාලාව	கேகாலை	கேகாலை	அவுணுகல்லா சமுதாய கூடம்	7933+වී 2 එච්, කෑගල්ල, ශ්‍රී ලංකාව	7933+V2H, கேகாலை, இலங்கை
Kegalle	Kegalle	Minuwangamuwa Viharaya	False	False	KGLLKGLLMNWNGMWVHRY		Kegalle	LK-92	7.104216	80.342866	Kegalle	PS-920118	7.255928	80.353156	7.209312	80.374216	Minuwangamuwa, Sri Lanka	5.682032		කෑගල්ල	කෑගල්ල	මිනුවන්ගමුව විහාරය	கேகாலை	கேகாலை	மினுவங்கமுவா விஹாராயா	මිනුවන්ගමුව, ශ්‍රී ලංකාව	மினுவங்கமுவா, இலங்கை
Kegalle	Kegalle	Meepitiya Community Hall	False	False	KGLLKGLLMPTYCMMNTYHLL		Kegalle	LK-92	7.104216	80.342866	Kegalle	PS-920118	7.255928	80.353156	7.254688	80.352612	7933+V2H, Kegalle, Sri Lanka	0.15042		කෑගල්ල	කෑගල්ල	මීපිටිය ප්‍රජා ශාලාව	கேகாலை	கேகாலை	மீபிட்டிய சமுதாயக் கூடம்	7933+වී 2 එච්, කෑගල්ල, ශ්‍රී ලංකාව	7933+V2H, கேகாலை, இலங்கை
Kegalle	Kegalle	Habudugala Primary School	False	False	KGLLKGLLHBDGLPRMRYSCHL		Kegalle	LK-92	7.104216	80.342866	Kegalle	PS-920118	7.255928	80.353156	6.39881	80.048518	Haburugala - Uragasmanhandiya Rd, Bentota, Sri Lanka	101.099431	#CenterFarFromPolice	කෑගල්ල	කෑගල්ල	හබුදුගල ප්‍රාථමික විද්‍යාලය	கேகாலை	கேகாலை	ஹபுடுகல ஆரம்பப் பள்ளி	හබුරුගල - raරගස්මංහන්දිය පාර, බෙන්තොට, ශ්‍රී ලංකාව	ஹபுருகலா - உரகஸ்மன்ஹந்தியா சாலை, பென்டோட்டா, இலங்கை
Kegalle	Kegalle	Mihirihella Primary School	False	False	KGLLKGLLMHRHLLPRMRYSCHL		Kegalle	LK-92	7.104216	80.342866	Kegalle	PS-920118	7.255928	80.353156	7.260148	80.350785	Swarna Jayanthi Road, Kegalle, Sri Lanka	0.537371		කෑගල්ල	කෑගල්ල	මිහිරිහෙල්ල ප්‍රාථමික විද්‍යාලය	கேகாலை	கேகாலை	மிஹிரிஹெல்லா ஆரம்பப் பள்ளி	ස්වර්ණ ජයන්ති පාර, කෑගල්ල, ශ්‍රී ලංකාව	ஸ்வர்ணா ஜெயந்தி சாலை, கேகாலை, இலங்கை
Anuradhapura	Anuradhapura	Army Hospital Anuradhapura	False	False	NRDHPRNRDHPRRMYHSPTLNRDHPR		Anuradhapura	LK-71	8.39199	80.512958	Anuradapura	PS-710101	8.329752	80.407265	8.338302	80.407646	AB02, Anuradhapura, Sri Lanka	0.951939		අනුරාධපුර	අනුරාධපුර	අනුරාධපුර හමුදා රෝහල	அனுராதபுரம்	அனுராதபுரம்	அனுராதபுரம் இராணுவ மருத்துவமனை	ඒබී 02, අනුරාධපුර, ශ්‍රී ලංකාව	ஏபி 02, அனுராதபுரம், இலங்கை
Anuradhapura	Anuradhapura	62 DIV	False	False	NRDHPRNRDHPRDV		Anuradhapura	LK-71	8.39199	80.512958	Anuradapura	PS-710101	8.329752	80.407265	8.311352	80.403651	Anuradhapura, Sri Lanka	2.084922		අනුරාධපුර	අනුරාධපුර	62 DIV	அனுராதபுரம்	அனுராதபுரம்	62 DIV	අනුරාධපුර, ශ්‍රී ලංකාව	அனுராதபுரம், இலங்கை
Anuradhapura	Anuradhapura	Walisinghe Harischandra Vidyalaya	False	False	NRDHPRNRDHPRWLSNGHHRSCHNDRVDYLY		Anuradhapura	LK-71	8.39199	80.512958	Anuradapura	PS-710101	8.329752	80.407265	8.333249	80.405004	A12, Anuradhapura, Sri Lanka	0.461755		අනුරාධපුර	අනුරාධපුර	වලිසිංහ හරිශ්චන්ද්‍ර විද්‍යාලය	அனுராதபுரம்	அனுராதபுரம்	வாலிசிங்க ஹரிச்சந்திர வித்யாலயா	ඒ 12, අනුරාධපුර, ශ්‍රී ලංකාව	ஏ 12, அனுராதபுரம், இலங்கை
Anuradhapura	Mihintale	MOH Office - Mihintale	False	False	NRDHPRMHNTLMHFFCMHNTL		Anuradhapura	LK-71	8.39199	80.512958	Mihintale	PS-710104	8.360062	80.511889	8.357612	80.509049	Puttalam - Anuradhapura - Trincomalee Hwy, Mihintale, Sri Lanka	0.41466		අනුරාධපුර	මිහින්තලය	MOH කාර්යාලය - මිහින්තලය	அனுராதபுரம்	மிஹிந்தலை	MOH அலுவலகம் - மிஹிந்தலை	පුත්තලම - අනුරාධපුර - ත්‍රිකුණාමලය හ්වි, මිහින්තලය, ශ්‍රී ලංකාව	புத்தளம் - அனுராதபுரம் - திருகோணமலை Hwy, மிஹிந்தலை, இலங்கை
Anuradhapura	Tirappane	Tirappane Manakkulama Vidyalaya	False	False	NRDHPRTRPPNTRPPNMNKKLMVDYLY		Anuradhapura	LK-71	8.39199	80.512958	Thirappone	PS-710106	6.907289	79.863819	8.205926	80.545063	Ulagalla Walawwa, Thirippane Ulagalla Road Anuradhapura 50072 LK, Ulagalla Rd, Tirappane, Sri Lanka	162.81042	#CenterFarFromPolice	අනුරාධපුර	තිරප්පනේ	තිරප්පනේ මනක්කුලම විද්‍යාලය	அனுராதபுரம்	திறப்பனே	திறப்பனே மணக்குலமா வித்யாலயா	උලගල්ල වලව්ව, තිරිප්පනේ උලගල්ල පාර, අනුරාධපුර 50072 එල්කේ, උලගල්ල පාර, තිරප්පනේ, ශ්‍රී ලංකාව	உலகல்ல வலவ்வா, திருப்பனே உலகல்லா சாலை அனுராதபுரம் 50072 LK, உலகல்லா சாலை, திறப்பனே, இலங்கை
Anuradhapura	Galenbindunuwewa	21 Colany Thakshila Maha Vidyalaya	False	False	NRDHPRGLNBNDNWWCLNYTHKSHLMHVDYLY		Anuradhapura	LK-71	8.39199	80.512958	Galenbidunuwewa	PS-710121	8.29037	80.71501	8.305816	80.720368	Ganewelpola - Dachchahalmillewa Rd, Sri Lanka	1.816452		අනුරාධපුර	ගලෙන්බිඳුණුවැව	21 කොලනි තක්ෂිලා මහා විද්‍යාලය	அனுராதபுரம்	கலென்பிந்துனுவேவா	21 காலனி தக்ஷிலா மகா வித்தியாலயம்	ගනේවැල්පොල - දච්චහල්මිල්ලෑව පාර, ශ්‍රී ලංකාව	கேன்வெல்பொல - டச்சஹால்மில்லேவா சாலை, இலங்கை
Jaffna	Jaffna	Mobile Medical Team	False	False	JFFNJFFNMBLMDCLTM		Jaffna	LK-41	9.691792	80.098594	Jaffna	PS-410209	9.659919	80.010965					#CenterLocationUnknown	යාපනය	යාපනය	ජංගම වෛද්‍ය කණ්ඩායම	யாழ்	யாழ்	மொபைல் மருத்துவ குழு		
Jaffna	Jaffna	Jaffna	False	False	JFFNJFFNJFFN		Jaffna	LK-41	9.691792	80.098594	Jaffna	PS-410209	9.659919	80.010965	9.661498	80.025546	Jaffna, Sri Lanka	1.60846		යාපනය	යාපනය	යාපනය	யாழ்	யாழ்	யாழ்	යාපනය, ශ්‍රී ලංකාව	யாழ்ப்பாணம், இலங்கை
Jaffna	Kayts	MOH Office – Karainagar	False	False	JFFNKYTSMHFFCKRNGR		Jaffna	LK-41	9.691792	80.098594	Kayts	PS-410212	9.728654	79.94775	9.725097	79.99772	Sri Lanka, Manipay, Sri Lanka	5.492521		යාපනය	කයිට්ස්	MOH කාර්යාලය - කරෙයිනගර්	யாழ்	ஊர்காவற்துறையினர்	MOH அலுவலகம் - காரைநகர்	ශ්‍රී ලංකාව, මනිපායි, ශ්‍රී ලංකාව	இலங்கை, மானிப்பாய், இலங்கை
Jaffna	Wadukkotte	MOH Office – Chankanai	False	False	JFFNWDKKTTMHFFCCHNKN		Jaffna	LK-41	9.691792	80.098594	Vaddukoddai		9.728886	79.947771	9.753617	79.976004	QX3G+CCR, Sri Lanka	4.140836		යාපනය	වඩුක්කෝට්ටේ	MOH කාර්යාලය - චංකනායි	யாழ்	வட்டுக்கோட்டை	MOH அலுவலகம் - சங்கனை	QX3G+CCR, ශ්‍රී ලංකාව	QX3G+CCR, இலங்கை
Jaffna	Manippai	Manippai Base Hospital	False	False	JFFNMNPPMNPPBSHSPTL		Jaffna	LK-41	9.691792	80.098594	Manippai	PS-410210	9.727151	79.996905	9.729106	79.992545	Manipay, Sri Lanka	0.525128		යාපනය	මනිප්පායි	මානිප්පායි මූලික රෝහල	யாழ்	மணிப்பை	மணிப்பை அடிப்படை மருத்துவமனை	මනිපායි, ශ්‍රී ලංකාව	மானிப்பாய், இலங்கை
Jaffna	Manippai	Sandilippai Tamil College	False	False	JFFNMNPPSNDLPPTMLCLLG		Jaffna	LK-41	9.691792	80.098594	Manippai	PS-410210	9.727151	79.996905	9.729106	79.992545	Manipay, Sri Lanka	0.525128		යාපනය	මනිප්පායි	සන්දිලිප්පායි දෙමළ විද්‍යාලය	யாழ்	மணிப்பை	சண்டிலிப்பாய் தமிழ் கல்லூரி	මනිපායි, ශ්‍රී ලංකාව	மானிப்பாய், இலங்கை
Jaffna	Manippai	Sandilippai Manimekan Pre School	False	False	JFFNMNPPSNDLPPMNMKNPRSCHL		Jaffna	LK-41	9.691792	80.098594	Manippai	PS-410210	9.727151	79.996905	9.727464	80.000402	Uduvil Rd, Manipay 40000, Sri Lanka	0.384956		යාපනය	මනිප්පායි	සඳිලිප්පෙයි මනිමේකන් පෙර පාසල	யாழ்	மணிப்பை	சண்டிலிப்பாய் மணிமேகான் முன்பள்ளி	උඩුවිල් පාර, මනිපායි 40000, ශ්‍රී ලංකාව	உடுவில் சாலை, மானிப்பாய் 40000, இலங்கை
Jaffna	Kodikamam	Varani Base Hospital	False	False	JFFNKDKMMVRNBSHSPTL		Jaffna	LK-41	9.691792	80.098594	Kodikamam	PS-410217	9.666459	80.132384	9.677952	80.236663	M6HP+5MM, Jaffna, Sri Lanka	11.505299		යාපනය	කොඩිකාමම්	වාරානි මූලික රෝහල	யாழ்	கொடிகாமம்	வரணி அடிப்படை மருத்துவமனை	M6HP+5MM, යාපනය, ශ්‍රී ලංකාව	M6HP+5MM, யாழ்ப்பாணம், இலங்கை
Jaffna	Maruthankerny	MOH Office - Maruthankerny	False	False	JFFNMRTHNKRNYMHFFCMRTHNKRNY		Jaffna	LK-41	9.691792	80.098594	Maruthankerny		9.62311	80.397326	7.023407	80.262082	A7, Karawanella, Sri Lanka	289.547303	#CenterFarFromPolice	යාපනය	මරුතන්කර්නි	MOH කාර්යාලය - මරුතන්කර්නි	யாழ்	மருதன்கேர்னி	MOH அலுவலகம் - மருதன்கேர்னி	ඒ 7, කරවනැල්ල, ශ්‍රී ලංකාව	A7, கரவனெல்லா, இலங்கை
Jaffna	Chavakachcheri	Town Hall – Chavakachcheri	False	False	JFFNCHVKCHCHRTWNHLLCHVKCHCHR		Jaffna	LK-41	9.691792	80.098594	Chawakachcheri	PS-410215	9.666459	80.132384	9.659136	80.160946	M556+M94, Chavakachcheri, Sri Lanka	3.236063		යාපනය	චාවකච්චේරි	නගර ශාලාව - චාවකච්චේරි	யாழ்	சாவகச்சேரி	டவுன் ஹால் - சாவகச்சேரி	එම් 556+එම් 94, චාවකච්චේරි, ශ්‍රී ලංකාව	M556+M94, சாவகச்சேரி, இலங்கை
Kilinochchi	Kilinochchi	Mobile Vaccination	False	False	KLNCHCHKLNCHCHMBLVCCNTN		Kilinochchi	LK-45	9.415742	80.30358	Kilinochchi	PS-450131	9.392265	80.407846					#CenterLocationUnknown	කිලිනොච්චි	කිලිනොච්චි	ජංගම එන්නත	கிளிநொச்சி	கிளிநொச்சி	மொபைல் தடுப்பூசி		
Kilinochchi	Jayapuram	Jayapuram Maha Vidyalaya	False	False	KLNCHCHJYPRMJYPRMMHVDYLY		Kilinochchi	LK-45	9.415742	80.30358	Jayapuram		9.312838	80.159865	9.311436	80.17598	856G+H9H, Pallawarayankaddu, Sri Lanka	1.775707		කිලිනොච්චි	ජයපුරම්	ජයපුරම් මහා විද්‍යාලය	கிளிநொச்சி	ஜெயபுரம்	ஜெயபுரம் மகா வித்தியாலயம்	856 ජී+එච් 9 එච්, පල්ලවාරයන්කඩු, ශ්‍රී ලංකාව	856G+H9H, பல்லவராயன்கட்டு, இலங்கை
Kilinochchi	Pooneryn	Gnanimadam Primary school	False	False	KLNCHCHPNRYNGNNMDMPRMRYSCHL		Kilinochchi	LK-45	9.415742	80.30358	Pooneryn		9.505717	80.21101	9.503311	80.211216	Pooneryn, Sri Lanka	0.268571		කිලිනොච්චි	පුනරීන්	ඥානිමාදම් ප්‍රාථමික විද්‍යාලය	கிளிநொச்சி	பூனெரின்	ஞானமடம் தொடக்கப்பள்ளி	පුනරීන්, ශ්‍රී ලංකාව	பூனெரின், இலங்கை
Mullaitivu	Mullaitivu	Mobile Medical Team	False	False	MLLTVMLLTVMBLMDCLTM		Mullaitivu	LK-44	9.167643	80.549091	Mullativu	PS-440148	9.212825	80.760159					#CenterLocationUnknown	මුලතිව්	මුලතිව්	ජංගම වෛද්‍ය කණ්ඩායම	முல்லைத்தீவு	முல்லைத்தீவு	மொபைல் மருத்துவ குழு		
Mullaitivu	Mallavi	Mobile Vaccination	False	False	MLLTVMLLVMBLVCCNTN		Mullaitivu	LK-44	9.167643	80.549091	Mallavi	PS-440153	9.137878	80.307257					#CenterLocationUnknown	මුලතිව්	මල්ලාවි	ජංගම එන්නත	முல்லைத்தீவு	மல்லவி	மொபைல் தடுப்பூசி		
Mullaitivu	Mallavi	MOH Office – Mallavi	False	False	MLLTVMLLVMHFFCMLLV		Mullaitivu	LK-44	9.167643	80.549091	Mallavi	PS-440153	9.137878	80.307257	9.136526	80.307948	48P5+J58, Mallavi, Sri Lanka	0.168444		මුලතිව්	මල්ලාවි	MOH කාර්යාලය - මල්ලාවි	முல்லைத்தீவு	மல்லவி	MOH அலுவலகம் - மல்லாவி	48 පී 5+ජේ 58, මල්ලාවි, ශ්‍රී ලංකාව	48P5+J58, மல்லாவி, இலங்கை
Mullaitivu	Mankulam	Mobile Vaccination	False	False	MLLTVMNKLMMBLVCCNTN		Mullaitivu	LK-44	9.167643	80.549091	Mankulam	PS-440147	9.124606	80.448404					#CenterLocationUnknown	මුලතිව්	මාන්කුලම්	ජංගම එන්නත	முல்லைத்தீவு	மாங்குளம்	மொபைல் தடுப்பூசி		
Mullaitivu	Mankulam	MOH Office – Mankulam	False	False	MLLTVMNKLMMHFFCMNKLM		Mullaitivu	LK-44	9.167643	80.549091	Mankulam	PS-440147	9.124606	80.448404	9.136526	80.307948	48P5+J58, Mallavi, Sri Lanka	15.481822		මුලතිව්	මාන්කුලම්	MOH කාර්යාලය - මාන්කුලම්	முல்லைத்தீவு	மாங்குளம்	MOH அலுவலகம் - மாங்குளம்	48 පී 5+ජේ 58, මල්ලාවි, ශ්‍රී ලංකාව	48P5+J58, மல்லாவி, இலங்கை
Mullaitivu	Oddusuddan	MO Office – Oddusuddan	False	False	MLLTVDDSDDNMFFCDDSDDN		Mullaitivu	LK-44	9.167643	80.549091	Oddusudan	PS-440151	9.160983	80.652821	9.153738	80.646338	Mankulam-Mullaitivu Hwy, Oddusuddan, Sri Lanka	1.075281		මුලතිව්	ඔඩ්ඩුසුඩාන්	MO කාර්යාලය - ඔඩ්ඩුසුඩාන්	முல்லைத்தீவு	ஒட்டுசுட்டான்	MO அலுவலகம் - ஒட்டுசுட்டான்	මාන්කුලම්-මුලතිව් හ්වි, ඔඩ්ඩුසුඩාන්, ශ්‍රී ලංකාව	மாங்குளம்-முல்லைத்தீவு Hwy, ஒட்டுசுட்டான், இலங்கை
Mullaitivu	Pudukudiruppu	MOH Office – Pudukudiruppu	False	False	MLLTVPDKDRPPMHFFCPDKDRPP		Mullaitivu	LK-44	9.167643	80.549091	Pudukuduiruppu	PS-440149	7.00152	79.95003	9.320965	80.683013	Parantan-Mullaitivu Hwy, Velikkandal, Sri Lanka	270.317914	#CenterFarFromPolice	මුලතිව්	පුදුකුඩිරුප්පු	එම්ඕඑච් කාර්යාලය - පුදුකුඩිරුප්පු	முல்லைத்தீவு	புதுக்குடியிருப்பு	MOH அலுவலகம் - புதுக்குடியிருப்பு	පරන්තන්-මුලතිව් හ්වි, වේලිකන්දල්, ශ්‍රී ලංකාව	பரந்தன்-முல்லைத்தீவு Hwy, வேலிக்கண்டல், இலங்கை
Mullaitivu	Mulliyawalai	PMCU - Mulliyawalai Neeravipiddy	False	False	MLLTVMLLYWLPMCMLLYWLNRVPDDY		Mullaitivu	LK-44	9.167643	80.549091	Muliyaweli	PS-440150	6.915266	79.87829	9.219215	80.764395	Mulliyawalai, Sri Lanka	274.216834	#CenterFarFromPolice	මුලතිව්	මුල්ලියාවලෙයි	PMCU - මුල්ලියවලෙයි නීරවිපිඩ්ඩි	முல்லைத்தீவு	முள்ளியவளை	PMCU - முள்ளியவளை நீராவிப்பிடி	මුල්ලියාවලෙයි, ශ්‍රී ලංකාව	முள்ளியவளை, இலங்கை
Mannar	Mannar	Mobile Medical Team	False	False	MNNRMNNRMBLMDCLTM		Mannar	LK-42	8.877429	80.088628	Mannar	PS-420138	8.978123	79.911642					#CenterLocationUnknown	මන්නාරම	මන්නාරම	ජංගම වෛද්‍ය කණ්ඩායම	மன்னார்	மன்னார்	மொபைல் மருத்துவ குழு		
Vavuniya	Vavuniya	Mobile Medical Team	False	False	VVNYVVNYMBLMDCLTM		Vavuniya	LK-43	8.852071	80.467404	Vavuniya	PS-430119	8.754431	80.498604					#CenterLocationUnknown	වවුනියාව	වවුනියාව	ජංගම වෛද්‍ය කණ්ඩායම	வவுனியா	வவுனியா	மொபைல் மருத்துவ குழு		
Trincomalee	Trincomalee	Trincomalee	False	False	TRNCMLTRNCMLTRNCML		Trincomalee	LK-53	8.551241	81.092014	Trincomalee	PS-530130	8.563946	81.234023	8.587364	81.215212	Trincomalee, Sri Lanka	3.326476		ත්රිකුණාමලය	ත්රිකුණාමලය	ත්රිකුණාමලය	திருகோணமலை	திருகோணமலை	திருகோணமலை	ත්‍රිකුණාමලය, ශ්‍රී ලංකාව	திருகோணமலை, இலங்கை
Trincomalee	Muttur	MOH Office – Muttur	False	False	TRNCMLMTTRMHFFCMTTR		Trincomalee	LK-53	8.551241	81.092014	Mutur	PS-530138	8.461133	81.259371	8.453916	81.264494	1 Old Batticaloa Rd, Mutur, Sri Lanka	0.980859		ත්රිකුණාමලය	මුතූර්	MOH කාර්යාලය - මුතූර්	திருகோணமலை	மூதூர்	MOH அலுவலகம் - மூதூர்	1 පරණ මඩකලපුව පාර, මුතූර්, ශ්‍රී ලංකාව	1 பழைய மட்டக்களப்பு வீதி, மூதூர், இலங்கை
Trincomalee	Kinniya	MOH Office - Kuruggankeni	False	False	TRNCMLKNNYMHFFCKRGGNKN		Trincomalee	LK-53	8.551241	81.092014	Kinnia	PS-530140	6.907289	79.863819	8.498696	81.179644	F5XH+FVC, Kinniya 31100, Sri Lanka	228.840304	#CenterFarFromPolice	ත්රිකුණාමලය	කින්නියා	MOH කාර්යාලය - කුරුගන්කේනි	திருகோணமலை	கிண்ணியா	MOH அலுவலகம் - குருக்கன்கேணி	F5XH+FVC, කින්නියා 31100, ශ්‍රී ලංකාව	F5XH+FVC, கிண்ணியா 31100, இலங்கை
Trincomalee	Kinniya	MOH Office – Kinniya	False	False	TRNCMLKNNYMHFFCKNNY		Trincomalee	LK-53	8.551241	81.092014	Kinnia	PS-530140	6.907289	79.863819	8.498696	81.179644	F5XH+FVC, Kinniya 31100, Sri Lanka	228.840304	#CenterFarFromPolice	ත්රිකුණාමලය	කින්නියා	MOH කාර්යාලය - කින්නියා	திருகோணமலை	கிண்ணியா	MOH அலுவலகம் - கிண்ணியா	F5XH+FVC, කින්නියා 31100, ශ්‍රී ලංකාව	F5XH+FVC, கிண்ணியா 31100, இலங்கை
Trincomalee	Sripura	MOH Office – Sripura	False	False	TRNCMLSRPRMHFFCSRPR		Trincomalee	LK-53	8.551241	81.092014	Sripura	PS-530136	8.929617	80.81428	8.926697	80.814799	Padavi Sripura, Padaviya - Sripura Road, Welioya, Sri Lanka	0.329869		ත්රිකුණාමලය	ශ්‍රීපුර	MOH කාර්යාලය - ශ්‍රීපුර	திருகோணமலை	ஸ்ரீபுரா	MOH அலுவலகம் - ஸ்ரீபுரா	පදවි ශ්‍රීපුර, පදවිය - ශ්‍රීපුර පාර, වැලිඔය, ශ්‍රී ලංකාව	படவி ஸ்ரீபுரா, படாவியா - ஸ்ரீபுரா சாலை, வெலிஓயா, இலங்கை
Trincomalee	Kuchchaveli	MOH Office - Kuchchaveli	False	False	TRNCMLKCHCHVLMHFFCKCHCHVL		Trincomalee	LK-53	8.551241	81.092014	Kuchchaweli	PS-530133	8.81895	81.100438	8.740082	81.161616	P5R6+2JQ, Kumpurupiddi, Sri Lanka	11.053646		ත්රිකුණාමලය	කුච්චවේලි	MOH කාර්යාලය - කුච්චවේලි	திருகோணமலை	குச்சவெளி	MOH அலுவலகம் - குச்சவெளி	P5R6+2JQ, කුඹුරුපිඩි, ශ්‍රී ලංකාව	P5R6+2JQ, கும்புறுப்பிடி, இலங்கை
Trincomalee	Kuchchaveli	Divisional Hospital - Kuchchaveli	False	False	TRNCMLKCHCHVLDVSNLHSPTLKCHCHVL		Trincomalee	LK-53	8.551241	81.092014	Kuchchaweli	PS-530133	8.81895	81.100438	8.814795	81.102358	R472+WW9, Kuchchaveli, Sri Lanka	0.508064		ත්රිකුණාමලය	කුච්චවේලි	ප්‍රාදේශීය රෝහල - කුච්චවේලි	திருகோணமலை	குச்சவெளி	பிரதேச மருத்துவமனை - குச்சவெளி	ආර් 472+WW9, කුච්චවේලි, ශ්‍රී ලංකාව	R472+WW9, குச்சவெளி, இலங்கை
Trincomalee	Kuchchaveli	Divisional Hospital - Nilaveli	False	False	TRNCMLKCHCHVLDVSNLHSPTLNLVL		Trincomalee	LK-53	8.551241	81.092014	Kuchchaweli	PS-530133	8.81895	81.100438	8.681035	81.193632	M5JV+CF6, Nilaveli, Sri Lanka	18.44695		ත්රිකුණාමලය	කුච්චවේලි	ප්‍රාදේශීය රෝහල - නිලාවේලි	திருகோணமலை	குச்சவெளி	பிரதேச மருத்துவமனை - நிலாவெளி	M5JV+CF6, නිලාවේලි, ශ්‍රී ලංකාව	M5JV+CF6, நிலவேலி, இலங்கை
Trincomalee	Kantale	MOH Office – Kantale	False	False	TRNCMLKNTLMHFFCKNTL		Trincomalee	LK-53	8.551241	81.092014	Kantale	PS-530241	8.356129	81.007739	8.349617	81.009107	අග්‍රබෝධි මාවත, Kantale, Sri Lanka	0.739809		ත්රිකුණාමලය	කන්තලේ	MOH කාර්යාලය - කන්තලේ	திருகோணமலை	கந்தலே	MOH அலுவலகம் - கந்தலே	වැඩි දියුණු කිරීම මාවත, කන්තලේ, ශ්‍රී ලංකාව	தீவிரப்படுத்தி மாவத்த, கந்தலே, இலங்கை
Trincomalee	Pulmoddai	Pulmoddai Base Hospital	False	False	TRNCMLPLMDDPLMDDBSHSPTL	Base Hospital - Pulmoddai	Trincomalee	LK-53	8.551241	81.092014	Pulmudai	PS-530135	6.915266	79.87829	8.941204	80.983139	WXRM+F7J, Pulmoddai, Sri Lanka	256.112801	#CenterFarFromPolice	ත්රිකුණාමලය	පුල්මොඩෙයි	මූලික රෝහල - පුල්මොඩෙයි	திருகோணமலை	புல்மோட்டை	அடிப்படை மருத்துவமனை - புல்மோட்டை	ඩබ්ලිව්එක්ස්ආර්එම්+එෆ් 7 ජේ, පුල්මොඩෙයි, ශ්‍රී ලංකාව	WXRM+F7J, புல்மோடை, இலங்கை
Trincomalee	Serunuwara	MOH Office - Serunuwara	False	False	TRNCMLSRNWRMHFFCSRNWR		Trincomalee	LK-53	8.551241	81.092014	Serunuwara	PS-530244	8.321863	81.299322	8.323143	81.299894	B10, Sri Lanka	0.155671		ත්රිකුණාමලය	සේරුනුවර	MOH කාර්යාලය - සේරුනුවර	திருகோணமலை	சேருநுவரா	MOH அலுவலகம் - சேருநுவரா	බී 10, ශ්‍රී ලංකාව	பி 10, இலங்கை
Trincomalee	Harbour Police	MOH Office - Trincomalee	False	False	TRNCMLHRBRPLCMHFFCTRNCML		Trincomalee	LK-53	8.551241	81.092014	Trinco Harbour Police	PS-530131	8.56705	81.231407	8.598974	81.216963	MOH Office, Farm Rd, Trincomalee, Sri Lanka	3.890062		ත්රිකුණාමලය	වරාය පොලිසිය	එම්ඕඑච් කාර්යාලය - ත්‍රිකුණාමලය	திருகோணமலை	துறைமுக காவல்துறை	MOH அலுவலகம் - திருகோணமலை	එම්ඕඑච් කාර්යාලය, ගොවිපල පාර, ත්‍රිකුණාමලය, ශ්‍රී ලංකාව	MOH அலுவலகம், பண்ணை சாலை, திருகோணமலை, இலங்கை
Trincomalee	Uppuveli	MOH Office - Uppuveli	False	False	TRNCMLPPVLMHFFCPPVL		Trincomalee	LK-53	8.551241	81.092014	Uppuweli	PS-530134	8.593614	81.21743	8.607961	81.216512	Nilaveli Rd, Trincomalee, Sri Lanka	1.599005		ත්රිකුණාමලය	උප්පුවේලි	MOH කාර්යාලය - උප්පුවේලි	திருகோணமலை	உப்புவேலி	MOH அலுவலகம் - உப்புவேலி	නිලාවේලි පාර, ත්‍රිකුණාමලය, ශ්‍රී ලංකාව	நிலவேலி வீதி, திருகோணமலை, இலங்கை
Trincomalee	Thambalagamuwa	MOH Office - Thambalagamuwa	False	False	TRNCMLTHMBLGMWMHFFCTHMBLGMW		Trincomalee	LK-53	8.551241	81.092014	Thambalagamuva	PS-530243	6.907289	79.863819	8.563603	81.239584	Hospital Ln, Trincomalee, Sri Lanka	238.604889	#CenterFarFromPolice	ත්රිකුණාමලය	තඹලගමුව	MOH කාර්යාලය - තඹලගමුව	திருகோணமலை	தம்பலகாமுவா	MOH அலுவலகம் - தம்பலகமுவ	රෝහල, ත්‍රිකුණාමලය, ශ්‍රී ලංකාව	மருத்துவமனை Ln, திருகோணமலை, இலங்கை
Trincomalee	Gomarankadawala	MOH Office - Gomarankadawala	False	False	TRNCMLGMRNKDWLMHFFCGMRNKDWL		Trincomalee	LK-53	8.551241	81.092014	Gomarankadawala	PS-530248	8.674487	80.967555	8.674726	80.955691	Unnamed Road, Gomarankadawala, Sri Lanka	1.304806		ත්රිකුණාමලය	ගෝමරන්කඩවල	එම්ඕඑච් කාර්යාලය - ගෝමරන්කඩවල	திருகோணமலை	கோமரன்கடவாலா	MOH அலுவலகம் - கோமரன்கடவாலா	නම් නොකළ පාර, ගෝමරන්කඩවල, ශ්‍රී ලංකාව	பெயரிடப்படாத சாலை, கோமரன்கடவாலா, இலங்கை
Batticaloa	Batticaloa	Batticaloa	False	False	BTTCLBTTCLBTTCL		Batticaloa	LK-51	7.792772	81.486513	Batticaloa	PS-510101	7.717949	81.699294	7.730997	81.674729	Batticaloa, Sri Lanka	3.071917		මඩකලපුව	මඩකලපුව	මඩකලපුව	மட்டக்களப்பு	மட்டக்களப்பு	மட்டக்களப்பு	මඩකලපුව, ශ්‍රී ලංකාව	மட்டக்களப்பு, இலங்கை
Batticaloa	Batticaloa	Urani Saraswathi Vidyalaya	False	False	BTTCLBTTCLRNSRSWTHVDYLY		Batticaloa	LK-51	7.792772	81.486513	Batticaloa	PS-510101	7.717949	81.699294	7.731928	81.678315	PMJH+Q8G, Batticaloa, Sri Lanka	2.786477		මඩකලපුව	මඩකලපුව	යුරේනි සරස්වතී විද්‍යාලය	மட்டக்களப்பு	மட்டக்களப்பு	ஊரணி சரஸ்வதி வித்யாலயா	PMJH+Q8G, මඩකලපුව, ශ්‍රී ලංකාව	PMJH+Q8G, மட்டக்களப்பு, இலங்கை
Batticaloa	Batticaloa	Karuappankeni Vipulananda Vidyalaya	False	False	BTTCLBTTCLKRPPNKNVPLNNDVDYLY		Batticaloa	LK-51	7.792772	81.486513	Batticaloa	PS-510101	7.717949	81.699294	7.718067	81.712712	PP97+63G, Kallady, Sri Lanka	1.47902		මඩකලපුව	මඩකලපුව	කරුඅප්පන්කේනි විපුලානන්ද විද්‍යාලය	மட்டக்களப்பு	மட்டக்களப்பு	கருப்பன்கேணி விபுலானந்தா வித்தியாலயம்	පීපී 97+63 ජී, කල්ලඩි, ශ්‍රී ලංකාව	பிபி 97+63 ஜி, கல்லடி, இலங்கை
Batticaloa	Batticaloa	Sisiliya Balika Vidyalaya	False	False	BTTCLBTTCLSSLYBLKVDYLY		Batticaloa	LK-51	7.792772	81.486513	Batticaloa	PS-510101	7.717949	81.699294	7.71171	81.694749	Mahilady Rd, Batticaloa, Sri Lanka	0.855891		මඩකලපුව	මඩකලපුව	සිසිලිය බාලිකා විද්‍යාලය	மட்டக்களப்பு	மட்டக்களப்பு	சிசிலியா பாலிகா வித்யாலயா	මහිලාඩි පාර, මඩකලපුව, ශ්‍රී ලංකාව	மகிழடி வீதி, மட்டக்களப்பு, இலங்கை
Batticaloa	Kokkadichcholai	Mahaladithivu Hospital	False	False	BTTCLKKKDCHCHLMHLDTHVHSPTL		Batticaloa	LK-51	7.792772	81.486513	Kokkadicholai	PS-510112	7.715979	81.698757	7.623207	81.718327	Muthalaikudah Kanchirankudah Rd, Sri Lanka	10.542105		මඩකලපුව	කොක්කඩිච්චෝලේ	මහලදිතිව් රෝහල	மட்டக்களப்பு	கொக்கட்டிச்சோலை	மகாலடித்தீவு மருத்துவமனை	මුතලෙයිකුඩා කාංචිරන්කුඩා පාර, ශ්‍රී ලංකාව	முத்தலைக்கூடா காஞ்சிரங்குடா சாலை, இலங்கை
Batticaloa	Vellawali	MOH Office - Vellawali	False	False	BTTCLVLLWLMHFFCVLLWL		Batticaloa	LK-51	7.792772	81.486513	Vellavali	PS-510111	6.907289	79.863819	7.290886	80.643784	No. 20000, 163 Sangaraja Mawatha, Kandy 20000, Sri Lanka	96.083396	#CenterFarFromPolice	මඩකලපුව	වෙල්ලවාලි	MOH කාර්යාලය - වෙල්ලවාලි	மட்டக்களப்பு	வெல்லவாலி	MOH அலுவலகம் - வெள்ளாவலி	අංක 20000, 163 සංඝරාජ මාවත, මහනුවර 20000, ශ්‍රී ලංකාව	எண் 20000, 163 சங்கராஜா மாவத்தை, கண்டி 20000, இலங்கை
Batticaloa	Kaluwanchikudy	MOH Office - Kaluwanchikudy	False	False	BTTCLKLWNCHKDYMHFFCKLWNCHKDY	Medical Officer of Health Kaluwanchikudy	Batticaloa	LK-51	7.792772	81.486513	Kalawanchikudy	PS-510110	7.515908	81.787051	7.509333	81.79204	Colombo - Batticaloa Hwy, Kaluwanchikudy, Sri Lanka	0.915167		මඩකලපුව	කළුවන්චිකුඩි	කළුවන්චිකුඩි සෞඛ්‍ය වෛද්‍ය නිලධාරී	மட்டக்களப்பு	களுவாஞ்சிக்குடி	சுகாதார மருத்துவ அதிகாரி களுவாஞ்சிக்குடி	කොළඹ - මඩකලපුව හ්වි, කලුවාංචිකුඩි, ශ්‍රී ලංකාව	கொழும்பு - மட்டக்களப்பு Hwy, களுவாஞ்சிக்குடி, இலங்கை
Batticaloa	Valachchenai	MOH Office - Valachchenai	False	False	BTTCLVLCHCHNMHFFCVLCHCHN		Batticaloa	LK-51	7.792772	81.486513	Valachchanai	PS-510107	7.908015	81.533004	7.912281	81.532775	WG6M+W46, Batticaloa, Sri Lanka	0.475177		මඩකලපුව	වාලච්චේන	MOH කාර්යාලය - වාලච්චේන	மட்டக்களப்பு	வாலாச்சேனை	MOH அலுவலகம் - வாலாச்சேனை	WG6M+W46, මඩකලපුව, ශ්‍රී ලංකාව	WG6M+W46, மட்டக்களப்பு, இலங்கை
Batticaloa	Valachchenai	MOH Office - Oddamavadi	False	False	BTTCLVLCHCHNMHFFCDDMVD		Batticaloa	LK-51	7.792772	81.486513	Valachchanai	PS-510107	7.908015	81.533004	7.912281	81.532775	WG6M+W46, Batticaloa, Sri Lanka	0.475177		මඩකලපුව	වාලච්චේන	එම්ඕඑච් කාර්යාලය - ඔද්දමවඩි	மட்டக்களப்பு	வாலாச்சேனை	MOH அலுவலகம் - ஓட்டமாவடி	WG6M+W46, මඩකලපුව, ශ්‍රී ලංකාව	WG6M+W46, மட்டக்களப்பு, இலங்கை
Batticaloa	Valachchenai	MOH Office - Nawaladi	False	False	BTTCLVLCHCHNMHFFCNWLD	Primary Medical Care Unit, Navalady	Batticaloa	LK-51	7.792772	81.486513	Valachchanai	PS-510107	7.908015	81.533004	7.735244	81.709126	PPP5+3MR, Kallady, Sri Lanka	27.312365	#CenterFarFromPolice	මඩකලපුව	වාලච්චේන	ප්‍රාථමික වෛද්‍ය සේවා ඒකකය, නාවලඩි	மட்டக்களப்பு	வாலாச்சேனை	ஆரம்ப மருத்துவ பராமரிப்பு பிரிவு, நாவலடி	පීපීපී 5+3 එම්ආර්, කල්ලඩි, ශ්‍රී ලංකාව	PPP5+3MR, கல்லடி, இலங்கை
Batticaloa	Valachchenai	Mobile Vaccination	False	False	BTTCLVLCHCHNMBLVCCNTN		Batticaloa	LK-51	7.792772	81.486513	Valachchanai	PS-510107	7.908015	81.533004					#CenterLocationUnknown	මඩකලපුව	වාලච්චේන	ජංගම එන්නත	மட்டக்களப்பு	வாலாச்சேனை	மொபைல் தடுப்பூசி		
Batticaloa	Valachchenai	Valachchenai Base Hospital	False	False	BTTCLVLCHCHNVLCHCHNBSHSPTL		Batticaloa	LK-51	7.792772	81.486513	Valachchanai	PS-510107	7.908015	81.533004	7.911315	81.533046	Valaichchenai-Nasuvantivu-Navaladi Road, Sri Lanka	0.367088		මඩකලපුව	වාලච්චේන	වාලච්චේන මූලික රෝහල	மட்டக்களப்பு	வாலாச்சேனை	வாலாச்சேனை ஆதார மருத்துவமனை	වාලච්චේනයි-නසුවන්ටිව්-නවාලාඩි පාර, ශ්‍රී ලංකාව	வாழைச்சேனை-நசுவந்திவு-நாவலடி சாலை, இலங்கை
Batticaloa	Vakarai	MOH Office - Vakarai	False	False	BTTCLVKRMHFFCVKR	Divisional Hospital Vakarai	Batticaloa	LK-51	7.792772	81.486513	Wakarai	PS-510109	6.934132	79.856305	8.134552	81.435328	Trincomalee Hwy, Vakarai, Sri Lanka	219.417822	#CenterFarFromPolice	මඩකලපුව	වාකරේ	වාකරේ ප්‍රාදේශීය රෝහල	மட்டக்களப்பு	வாகரை	வாகரை பிரதேச மருத்துவமனை	ත්‍රිකුණාමලය හ්වි, වාකරේ, ශ්‍රී ලංකාව	திருகோணமலை Hwy, வாகரை, இலங்கை
Batticaloa	Kattankudy	Kalladi Vipulananda Vidyalaya	False	False	BTTCLKTTNKDYKLLDVPLNNDVDYLY		Batticaloa	LK-51	7.792772	81.486513	Kaththankudi	PS-510103	7.715979	81.698757	7.718067	81.712712	PP97+63G, Kallady, Sri Lanka	1.555589		මඩකලපුව	කාත්තන්කුඩි	කල්ලඩි විපුලානන්ද විද්‍යාලය	மட்டக்களப்பு	காத்தான்குடி	கல்லடி விபுலானந்தா வித்தியாலயம்	පීපී 97+63 ජී, කල්ලඩි, ශ්‍රී ලංකාව	பிபி 97+63 ஜி, கல்லடி, இலங்கை
Batticaloa	Kattankudy	MOH Office - Kattankudy	False	False	BTTCLKTTNKDYMHFFCKTTNKDY		Batticaloa	LK-51	7.792772	81.486513	Kaththankudi	PS-510103	7.715979	81.698757	7.683586	81.730767	MPMJ+C8J, Kattankudy, Sri Lanka	5.042961		මඩකලපුව	කාත්තන්කුඩි	MOH කාර්යාලය - කාත්තන්කුඩි	மட்டக்களப்பு	காத்தான்குடி	MOH அலுவலகம் - காத்தான்குடி	එම්පීඑම්ජේ+සී 8 ජේ, කාත්තන්කුඩි, ශ්‍රී ලංකාව	MPMJ+C8J, காத்தான்குடி, இலங்கை
Batticaloa	Kattankudy	Navalkuda Sarada Vidyalaya	False	False	BTTCLKTTNKDYNVLKDSRDVDYLY		Batticaloa	LK-51	7.792772	81.486513	Kaththankudi	PS-510103	7.715979	81.698757	7.682761	81.736652	MPMP+4M2, Kattankudy, Sri Lanka	5.576699		මඩකලපුව	කාත්තන්කුඩි	නවාල්කුඩ සාරද විද්‍යාලය	மட்டக்களப்பு	காத்தான்குடி	நாவல்குடா சாரதா வித்யாலயா	එම්පීඑම්පී+4 එම් 2, කාත්තන්කුඩි, ශ්‍රී ලංකාව	MPMP+4M2, காத்தான்குடி, இலங்கை
Batticaloa	Eravur	Eravur Hospital	False	False	BTTCLRVRRVRHSPTL		Batticaloa	LK-51	7.792772	81.486513	Eravur	PS-510104	7.715979	81.698757	7.783168	81.605999	QJM4+799, Eravur 30300, Sri Lanka	12.663585		මඩකලපුව	එරාවුර්	එරාවුර් රෝහල	மட்டக்களப்பு	ஏறாவூர்	ஏறாவூர் மருத்துவமனை	QJM4+799, එරාවුර් 30300, ශ්‍රී ලංකාව	QJM4+799, ஏறாவூர் 30300, இலங்கை
Batticaloa	Eravur	MOH Office – Eravur	False	False	BTTCLRVRMHFFCRVR		Batticaloa	LK-51	7.792772	81.486513	Eravur	PS-510104	7.715979	81.698757	7.783664	81.605626	QJM4+F76, Eravur, Sri Lanka	12.729342		මඩකලපුව	එරාවුර්	MOH කාර්යාලය - එරාවුර්	மட்டக்களப்பு	ஏறாவூர்	MOH அலுவலகம் - ஏறாவூர்	QJM4+F76, එරාවුර්, ශ්‍රී ලංකාව	QJM4+F76, ஏறாவூர், இலங்கை
Batticaloa	Eravur	MOH Office - Chenkaladi	False	False	BTTCLRVRMHFFCCHNKLD		Batticaloa	LK-51	7.792772	81.486513	Eravur	PS-510104	7.715979	81.698757	7.783599	81.593367	Trincomalee Hwy, Chenkaladi 30350, Sri Lanka	13.837876		මඩකලපුව	එරාවුර්	MOH කාර්යාලය - චෙන්කලාඩි	மட்டக்களப்பு	ஏறாவூர்	MOH அலுவலகம் - செங்கலடி	ත්‍රිකුණාමලය හ්වි, චෙන්කලාඩි 30350, ශ්‍රී ලංකාව	திருகோணமலை Hwy, செங்கலடி 30350, இலங்கை
Batticaloa	Eravur	Mawadivembu Hospital	False	False	BTTCLRVRMWDVMBHSPTL		Batticaloa	LK-51	7.792772	81.486513	Eravur	PS-510104	7.715979	81.698757	7.911315	81.533046	Valaichchenai-Nasuvantivu-Navaladi Road, Sri Lanka	28.381861	#CenterFarFromPolice	මඩකලපුව	එරාවුර්	මාවඩිවෙම්බු රෝහල	மட்டக்களப்பு	ஏறாவூர்	மாவடிவேம்பு மருத்துவமனை	වාලච්චේනයි-නසුවන්ටිව්-නවාලාඩි පාර, ශ්‍රී ලංකාව	வாழைச்சேனை-நசுவந்திவு-நாவலடி சாலை, இலங்கை
Batticaloa	Eravur	Sandiveli Hospital	False	False	BTTCLRVRSNDVLHSPTL		Batticaloa	LK-51	7.792772	81.486513	Eravur	PS-510104	7.715979	81.698757	7.777289	81.602853	Trincomalee Hwy, Eravur, Sri Lanka	12.578998		මඩකලපුව	එරාවුර්	සඳිවේලි රෝහල	மட்டக்களப்பு	ஏறாவூர்	சண்டிவேலி மருத்துவமனை	ත්‍රිකුණාමලය හ්වි, එරාවුර්, ශ්‍රී ලංකාව	திருகோணமலை Hwy, ஏறாவூர், இலங்கை
Batticaloa	Eravur	Mobile Vaccination	False	False	BTTCLRVRMBLVCCNTN		Batticaloa	LK-51	7.792772	81.486513	Eravur	PS-510104	7.715979	81.698757					#CenterLocationUnknown	මඩකලපුව	එරාවුර්	ජංගම එන්නත	மட்டக்களப்பு	ஏறாவூர்	மொபைல் தடுப்பூசி		
Batticaloa	Vavunathivu	Kurungnamunai Kamachchi Vidyalaya	False	False	BTTCLVVNTHVKRNGNMNKMCHCHVDYLY		Batticaloa	LK-51	7.792772	81.486513	Vavunathive	PS-510102	6.933075	79.857181	7.720143	81.700516	PPC2+362, Batticaloa, Sri Lanka	221.401617	#CenterFarFromPolice	මඩකලපුව	වවුනතිව්	කුරුංග්ණමුනායි කාමච්චි විද්‍යාලය	மட்டக்களப்பு	வவுணதீவு	குருங்கமுனை காமாச்சி வித்யாலயா	පීපීසී 2+362, මඩකලපුව, ශ්‍රී ලංකාව	PPC2+362, மட்டக்களப்பு, இலங்கை
Batticaloa	Vavunathivu	MOH Office – Vavunathivu	False	False	BTTCLVVNTHVMHFFCVVNTHV		Batticaloa	LK-51	7.792772	81.486513	Vavunathive	PS-510102	6.933075	79.857181	7.708253	81.691368	Hospital Rd, Batticaloa, Sri Lanka	219.95575	#CenterFarFromPolice	මඩකලපුව	වවුනතිව්	MOH කාර්යාලය - වවුනතිව්	மட்டக்களப்பு	வவுணதீவு	MOH அலுவலகம் - வவுணதீவு	රෝහල පාර, මඩකලපුව, ශ්‍රී ලංකාව	மருத்துவமனை சாலை, மட்டக்களப்பு, இலங்கை
