district	police	center	dose1	dose2	fuzzy_key	alt_name	district_name_norm	district_id	district_lat	district_lng	ps_name_norm	ps_id	ps_lat	ps_lng	lat	lng	formatted_address	dis_center_to_police	tags
Colombo	Cinnamon Gardens	Viharamahadevi Park	False	False	CLMBCNNMNGRDNSVHRMHDVPRK		Colombo	LK-11	6.869636	80.019598	Cinnamon Garden	PS-110324	6.907289	79.863819	6.913391	79.86174	Viharamahadevi Park, Colombo, Sri Lanka	0.716497	
Colombo	Thalangama	Diyatha Uyana	False	False	CLMBTHLNGMDYTHYN		Colombo	LK-11	6.869636	80.019598	Thalangama	PS-110466	6.91089	79.929325	6.904575	79.909831	Diyatha Uyana, B240, Sri Jayawardenepura Kotte, Sri Lanka	2.264281	
Colombo	Grandpass	Sugathadasa Outdoor Stadium	False	False	CLMBGRNDPSSSGTHDSTDRSTDM		Colombo	LK-11	6.869636	80.019598	Grandpass	PS-110215	6.949052	79.872983	6.94806	79.868842	Prince of Wales Ave, Colombo 01400, Sri Lanka	0.470345	
Colombo	Narahenpita	Army Hospital Narahenpita	False	False	CLMBNRHNPTRMYHSPTLNRHNPT		Colombo	LK-11	6.869636	80.019598	Narahenpita	PS-110321	6.891832	79.876715	6.900252	79.87618	08 Elvitigala Mawatha, Colombo 00800, Sri Lanka	0.938417	
Colombo	Narahenpita	Army Headquarters Mobile Team	False	False	CLMBNRHNPTRMYHDQRTRSMBLTM		Colombo	LK-11	6.869636	80.019598	Narahenpita	PS-110321	6.891832	79.876715					#CenterLocationUnknown
Colombo	Boralesgamuwa	Kotelawala Defence Hospital	False	False	CLMBBRLSGMWKTLWLDFNCHSPTL		Colombo	LK-11	6.869636	80.019598	Boralesgamuwa	PS-110464	6.841331	79.901255	6.82518	79.907167	RWG4+3VF, Boralesgamuwa, Sri Lanka	1.911444	
Colombo	Boralesgamuwa	MOH Office – Werahera	False	False	CLMBBRLSGMWMHFFCWRHR		Colombo	LK-11	6.869636	80.019598	Boralesgamuwa	PS-110464	6.841331	79.901255	6.833094	79.905583	RWM4+66P, Boralesgamuwa, Sri Lanka	1.033386	
Colombo	Homagama	Panagoda Bodhirajarama Viharaya	False	False	CLMBHMGMPNGDBDHRJRMVHRY		Colombo	LK-11	6.869636	80.019598	Homagama	PS-110470	6.836155	80.003474	6.929161	79.88265	Gnanawimala Rd, Colombo, Sri Lanka	16.883101	
Colombo	Homagama	Katuwana Pimbima Viharaya	False	False	CLMBHMGMKTWNPMBMVHRY		Colombo	LK-11	6.869636	80.019598	Homagama	PS-110470	6.836155	80.003474	6.833932	79.998989	Katuwana, Homagama, Sri Lanka	0.553509	
Colombo	Mirihana	Pegiriwatta Vivekaramaya	False	False	CLMBMRHNPGRWTTVVKRMY		Colombo	LK-11	6.869636	80.019598	Mirihana	PS-110462	6.873714	79.901724	6.870742	79.90777	Old Kottawa Rd, Nugegoda 10100, Sri Lanka	0.74502	
Colombo	Kotahena	Wiwekananda Vidyalaya	False	False	CLMBKTHNWWKNNDVDYLY		Colombo	LK-11	6.869636	80.019598	Kotahena	PS-110212	6.950879	79.862496	6.943047	79.860046	55-57, Colombo 01300, Sri Lanka	0.912186	
Colombo	Kirulapana	Sithumina Community Hall	False	False	CLMBKRLPNSTHMNCMMNTYHLL		Colombo	LK-11	6.869636	80.019598	Kirulapone	PS-110319	6.878122	79.874159	6.876704	79.879161	00600, Mugalan Rd, Colombo 00600, Sri Lanka	0.574445	
Colombo	Maradana	Forbes Road Community Hall	False	False	CLMBMRDNFRBSRDCMMNTYHLL		Colombo	LK-11	6.869636	80.019598	Maradana	PS-110107	6.927939	79.865471	6.876704	79.879161	00600, Mugalan Rd, Colombo 00600, Sri Lanka	5.895952	
Colombo	Maradana	National Hospital – Colombo	False	False	CLMBMRDNNTNLHSPTLCLMB		Colombo	LK-11	6.869636	80.019598	Maradana	PS-110107	6.927939	79.865471	6.918743	79.868992	Colombo 00700, Sri Lanka	1.094265	
Colombo	Fort	Navy Headquarters	False	False	CLMBFRTNVYHDQRTRS		Colombo	LK-11	6.869636	80.019598	Fort	PS-110105	6.9334	79.842895	6.936952	79.842104	WRPR+QRQ, Colombo, Sri Lanka	0.404627	
Colombo	Wellawatta	Roxy Gardens Premises	False	False	CLMBWLLWTTRXYGRDNSPRMSS		Colombo	LK-11	6.869636	80.019598	Wellawatta	PS-110320	6.873107	79.86167	6.863747	79.862088	Dehiwala Canal, Colombo, Sri Lanka	1.042134	
Colombo	Wellampitiya	MOH Office – Kolonnawa	False	False	CLMBWLLMPTYMHFFCKLNNW		Colombo	LK-11	6.869636	80.019598	Wellampitiya	PS-110465	6.937514	79.896298	6.922088	79.916237	Mandavila Rd, Kotikawatta, Sri Lanka	2.791266	
Colombo	Mulleriyawa	MOH Office - Gothatuwa	False	False	CLMBMLLRYWMHFFCGTHTW		Colombo	LK-11	6.869636	80.019598	Mulleriyawa	PS-110469	6.927187	79.929108	6.922088	79.916237	Mandavila Rd, Kotikawatta, Sri Lanka	1.530186	
Colombo	Kottawa	Rukmalgama Community Hall	False	False	CLMBKTTWRKMLGMCMMNTYHLL		Colombo	LK-11	6.869636	80.019598	Kottawa	PS-110471	6.841333	79.963553	6.855958	79.986274	Athurugiriya Rd, Pannipitiya, Sri Lanka	2.990394	
Colombo	Fore shore	MOH Office - Jinthupitiya	False	False	CLMBFRSHRMHFFCJNTHPTY		Colombo	LK-11	6.869636	80.019598	Fore shore	PS-110210	6.949589	79.857355	6.943258	79.859238	No.27 Vivekananda Hill, Colombo 01300, Sri Lanka	0.734247	
Colombo	Padukka	MOH Office – Padukka	False	False	CLMBPDKKMHFFCPDKK		Colombo	LK-11	6.869636	80.019598	Padukka	PS-110473	6.842195	80.09247	6.840164	80.093288	Galagedera - Horana Rd, Padukka, Sri Lanka	0.243301	
Colombo	Avissawella	Avissawella Hospital	False	False	CLMBVSSWLLVSSWLLHSPTL		Colombo	LK-11	6.869636	80.019598	Awissawella	PS-920226	6.947538	80.215422	6.957085	80.207381	Avissawella Rd, Avissawella, Sri Lanka	1.384155	
Colombo	Kosgama	Kosgama Hospital	False	False	CLMBKSGMKSGMHSPTL		Colombo	LK-11	6.869636	80.019598	Kosgama	PS-920227	6.946597	80.137869	6.940956	80.124888	Salawa-Akarawita, 10730, Sri Lanka	1.564606	
Gampaha	Minuwangoda	Mabodala Maha Vidyalaya	False	False	GMPHMNWNGDMBDLMHVDYLY		Gampaha	LK-12	7.123598	80.018508	Minuwangoda	PS-120238	7.174215	79.957874	7.161204	79.991999	Dewalapola, Sri Lanka	4.03455	
Gampaha	Minuwangoda	Divisional Hospital – Minuwangoda	False	False	GMPHMNWNGDDVSNLHSPTLMNWNGD		Gampaha	LK-12	7.123598	80.018508	Minuwangoda	PS-120238	7.174215	79.957874	7.172257	79.956152	Veyangoda Rd, Minuwangoda 11550, Sri Lanka	0.289044	
Gampaha	Katana	MOH Office - Katana	False	False	GMPHKTNMHFFCKTN		Gampaha	LK-12	7.123598	80.018508	Katana	PS-120360	7.224796	79.880015	7.22436	79.88271	Katana, Negombo - Mirigama Rd, Negombo, Sri Lanka	0.301313	
Gampaha	Nittambuwa	Walgammulla Viharaya	False	False	GMPHNTTMBWWLGMMLLVHRY		Gampaha	LK-12	7.123598	80.018508	Nittambuwa	PS-120246	7.149726	80.10046	7.142563	80.085532	344/1, Vivekarama, Temple Rd, Nittambuwa, Sri Lanka	1.830078	
Gampaha	Nittambuwa	Meewitiya Clinic	False	False	GMPHNTTMBWMWTYCLNC		Gampaha	LK-12	7.123598	80.018508	Nittambuwa	PS-120246	7.149726	80.10046	7.146549	80.088866	43WQ+JG9, Nittambuwa, Sri Lanka	1.327475	
Gampaha	Nittambuwa	Mathalana Viharaya	False	False	GMPHNTTMBWMTHLNVHRY		Gampaha	LK-12	7.123598	80.018508	Nittambuwa	PS-120246	7.149726	80.10046	7.113799	80.135467	Nittambuwa - Ruwanwella Rd, Sri Lanka	5.558543	
Gampaha	Veyangoda	President's College Veyangoda	False	False	GMPHVYNGDPRSDNTSCLLGVYNGD		Gampaha	LK-12	7.123598	80.018508	Weyangoda	PS-120247	7.144053	80.095511	7.153809	80.05681	President's College Veyangoda, Mihindu Mawatha, Veyangoda 11100, Sri Lanka	4.406934	
Gampaha	Mirigama	Maladeniya Viharaya	False	False	GMPHMRGMMLDNYVHRY	Maladeniya Temple	Gampaha	LK-12	7.123598	80.018508	Meerigama	PS-120248	7.245169	80.128647	7.288053	80.111975	Sri Lanka	5.112395	
Gampaha	Mirigama	Thalagama Clinic	False	False	GMPHMRGMTHLGMCLNC		Gampaha	LK-12	7.123598	80.018508	Meerigama	PS-120248	7.245169	80.128647	7.257804	80.135425	Wilwatta Railway Station, AB29, Mirigama, Sri Lanka	1.591996	
Gampaha	Gampaha	Rathupaswala Bodhiraja Vidyalaya	False	False	GMPHGMPHRTHPSWLBDHRJVDYLY		Gampaha	LK-12	7.123598	80.018508	Gampaha	PS-120237	7.087765	80.01228	7.05988	80.01523	3258+X35, Mudungoda, Sri Lanka	3.11869	
Gampaha	Gampaha	Brandiyamulla Vidyasekara Pirivena	False	False	GMPHGMPHBRNDYMLLVDYSKRPRVN		Gampaha	LK-12	7.123598	80.018508	Gampaha	PS-120237	7.087765	80.01228	7.086041	80.008827	32P5+CG8, Gampaha, Sri Lanka	0.426663	
Gampaha	Pugoda	MOH Office – Dompe	False	False	GMPHPGDMHFFCDMP		Gampaha	LK-12	7.123598	80.018508	Pugoda	PS-120241	6.98283	80.111189	6.976767	80.117422	Dompe, Pugoda-Mandawala Rd, Pugoda, Sri Lanka	0.963513	
Gampaha	Kirindiwela	Divisional Secretariat – Kirindiwela	False	False	GMPHKRNDWLDVSNLSCRTRTKRNDWL		Gampaha	LK-12	7.123598	80.018508	Kirindiwela	PS-120239	7.043011	80.120449	7.0293	80.132553	Hanwella - Kirindiwela - Urapola Rd, Sri Lanka	2.027619	
Gampaha	Pamunugama	Pamunugama Hospital	False	False	GMPHPMNGMPMNGMHSPTL		Gampaha	LK-12	7.123598	80.018508	Pamunugama	PS-120353	7.078892	79.859696	7.093543	79.850191	3VV2+C38, Negombo, Sri Lanka	1.938152	
Gampaha	Pamunugama	Uswetakeiyawa Dispensary	False	False	GMPHPMNGMSWTKYWDSPNSRY		Gampaha	LK-12	7.123598	80.018508	Pamunugama	PS-120353	7.078892	79.859696	6.980847	79.929943	XWJH+8XP, Kiribathgoda, Sri Lanka	13.381623	
Gampaha	Katunayaka	Adiambalama Veluvanaramaya	False	False	GMPHKTNYKDMBLMVLVNRMY		Gampaha	LK-12	7.123598	80.018508	Katunayaka	PS-120358	7.165898	79.882607	7.188569	79.904024	Andiambalama, Katunayake, Sri Lanka	3.456192	
Gampaha	Negombo	Town Hall - Negombo	False	False	GMPHNGMBTWNHLLNGMB		Gampaha	LK-12	7.123598	80.018508	Negombo	PS-120351	7.224796	79.880015	7.206667	79.851863	Negombo, Sri Lanka	3.703623	
Gampaha	Dungalapitiya	Thalahena Maternity Clinic	False	False	GMPHDNGLPTYTHLHNMTRNTYCLNC		Gampaha	LK-12	7.123598	80.018508	Dungalpitiya	PS-120361	7.139226	79.833543	7.170735	79.824995	5RCF+7XX, Negombo, Sri Lanka	3.629353	
Gampaha	Seeduwa	MOH Office – Seeduwa	False	False	GMPHSDWMHFFCSDW		Gampaha	LK-12	7.123598	80.018508	Seeduwa	PS-120356	7.128721	79.877371	7.131527	79.879964	24 Kotugoda Rd, Katunayake 11410, Sri Lanka	0.423459	
Gampaha	Divulapitiya	MOH Office – Divulapitiya	False	False	GMPHDVLPTYMHFFCDVLPTY		Gampaha	LK-12	7.123598	80.018508	Diulapitiya	PS-120355	7.174215	79.957874	7.215486	80.013606	6287+5CX, Divulapitiya, Sri Lanka	7.67456	
Gampaha	Divulapitiya	Gnanodaya Maha Vidyalaya	False	False	GMPHDVLPTYGNNDYMHVDYLY		Gampaha	LK-12	7.123598	80.018508	Diulapitiya	PS-120355	7.174215	79.957874	7.222331	80.019709	62C9+WVP, Divulapitiya 11250, Sri Lanka	8.672135	
Gampaha	Ja Ela	MOH Office - Ja Ela	False	False	GMPHJLMHFFCJL		Gampaha	LK-12	7.123598	80.018508	Ja - Ela	PS-120133	7.081055	79.890504	7.075216	79.893879	60 Mount Kalvary Rd, Ja-Ela, Sri Lanka	0.748731	
Gampaha	Wattala	MOH Office – Wattala	False	False	GMPHWTTLMHFFCWTTL		Gampaha	LK-12	7.123598	80.018508	Wattala	PS-120128	6.993713	79.894506	6.995817	79.885793	301 Hendala Rd, Wattala, Sri Lanka	0.989991	
Gampaha	Ragama	MOH Office – Ragama	False	False	GMPHRGMMHFFCRGM		Gampaha	LK-12	7.123598	80.018508	Ragama	PS-120134	7.034975	79.924148	7.027386	79.920232	2WGC+X35, Ragama, Sri Lanka	0.948382	
Gampaha	Kadawata	Kirillawala Central College	False	False	GMPHKDWTKRLLWLCNTRLCLLG		Gampaha	LK-12	7.123598	80.018508	Kadawatha	PS-120136	7.00152	79.95003	7.015981	79.969223	2X89+9MX, Eldeniya, Sri Lanka	2.660247	
Gampaha	Weliweriya	Henegama Maha Bodhi Vidyalaya	False	False	GMPHWLWRYHNGMMHBDHVDYLY		Gampaha	LK-12	7.123598	80.018508	Weliweriya	PS-120244	7.03451	80.026114	7.023448	80.047474	22FW+9XH Sangabodhi Jr School, Weliweriya - Kirindiwela Rd, Matara, Sri Lanka	2.659731	
Gampaha	Sapugaskanda	Obawatta Sri Dirananda Viharaya	False	False	GMPHSPGSKNDBWTTSRDRNNDVHRY		Gampaha	LK-12	7.123598	80.018508	Sapugaskanda	PS-120130	6.970586	79.953588	6.982805	79.976103	Sri Sudarshanarama Road, Gonawala, Sri Lanka	2.833088	
Gampaha	Peliyagoda	Peliyagoda Nawaloka Community Hall	False	False	GMPHPLYGDPLYGDNWLKCMMNTYHLL		Gampaha	LK-12	7.123598	80.018508	Peliyagoda	PS-120125	6.955193	79.88612	6.972784	79.921464	88 Colombo - Kandy Rd, Kelaniya 11300, Sri Lanka	4.365368	
Kalutara	Ingiriya	Ingiriya Hospital	False	False	KLTRNGRYNGRYHSPTL		Kalutara	LK-13	6.577316	80.127363	Ingiriya	PS-130193	6.743614	80.175077	6.741133	80.162046	Panadura-Nambapana-Ratnapura Hwy, Ingiriya, Sri Lanka	1.465626	
Kalutara	Ingiriya	Poruwadanda Thilakarama Viharaya	False	False	KLTRNGRYPRWDNDTHLKRMVHRY		Kalutara	LK-13	6.577316	80.127363	Ingiriya	PS-130193	6.743614	80.175077	6.734825	80.117154	P4M8+WVC, Poruwadanda, Sri Lanka	6.472503	
Kalutara	Anguruwatota	MOH Office – Madurawala	False	False	KLTRNGRWTTMHFFCMDRWL		Kalutara	LK-13	6.577316	80.127363	Anguruwatota	PS-130190	6.654997	80.058183	6.654814	80.057811	M335+W4F, Keselhenawa, Sri Lanka	0.045863	
Kalutara	Horana	Base Hospital - Horana	False	False	KLTRHRNBSHSPTLHRN		Kalutara	LK-13	6.577316	80.127363	Horana	PS-130192	6.714613	80.069091	6.710644	80.066589	Hospital Ln, Horana, Sri Lanka	0.520853	
Kalutara	Horana	Ilimba Viharaya	False	False	KLTRHRNLMBVHRY		Kalutara	LK-13	6.577316	80.127363	Horana	PS-130192	6.714613	80.069091	6.706943	80.102584	P443+Q2G, Horana, Sri Lanka	3.796982	
Kalutara	Horana	Bellapitiya Mangalasiripura Viharaya	False	False	KLTRHRNBLLPTYMNGLSRPRVHRY		Kalutara	LK-13	6.577316	80.127363	Horana	PS-130192	6.714613	80.069091	6.623019	80.067244	Uduwara Anguruwatota, Begamuwa- Yatawara Rd, Sri Lanka	10.189917	
Kalutara	Thebuwana	Divisional Hospital – Neboda	False	False	KLTRTHBWNDVSNLHSPTLNBD		Kalutara	LK-13	6.577316	80.127363	Thebuwana	PS-1302105	6.654997	80.058183	6.570354	80.073048	wellatha Neboda ., Neboda - Wellatha Rd, Sri Lanka	9.557015	
Kalutara	Dodangoda	MOH Office – Dodangoda	False	False	KLTRDDNGDMHFFCDDNGD	6.540366199937832,80.03661033076219	Kalutara	LK-13	6.577316	80.127363	Dodangoda	PS-130299	6.553375	80.023569	6.541731	80.04335	Dodangoda, Sri Lanka	2.540775	
Kalutara	Dodangoda	Dodangoda Hospital	False	False	KLTRDDNGDDDNGDHSPTL		Kalutara	LK-13	6.577316	80.127363	Dodangoda	PS-130299	6.553375	80.023569	6.540961	80.036553	Wilpatha Rd, Sri Lanka	1.991373	
Kalutara	Dodangoda	Bombuwala Mankada Viharaya	False	False	KLTRDDNGDBMBWLMNKDVHRY		Kalutara	LK-13	6.577316	80.127363	Dodangoda	PS-130299	6.553375	80.023569	6.575407	80.01428	Bombuwala, Sri Lanka	2.656896	
Kalutara	Dodangoda	Miriswatta National College	False	False	KLTRDDNGDMRSWTTNTNLCLLG		Kalutara	LK-13	6.577316	80.127363	Dodangoda	PS-130299	6.553375	80.023569	6.549825	80.029992	G2XH+WXH, Kalutara, Sri Lanka	0.812209	
Kalutara	Matugama	MOH Office - Matugama	False	False	KLTRMTGMMHFFCMTGM		Kalutara	LK-13	6.577316	80.127363	Mathugama	PS-1302103	6.520881	80.117908	6.523544	80.126443	G4FG+CH8, Matugama, Sri Lanka	0.988725	
Kalutara	Matugama	Sirikandura State permises	False	False	KLTRMTGMSRKNDRSTTPRMSS		Kalutara	LK-13	6.577316	80.127363	Mathugama	PS-1302103	6.520881	80.117908	6.509835	80.135693	Sirikandura Estate, Sirikadura Rd, Matugama, Sri Lanka	2.317875	
Kalutara	Matugama	Ananda Shasthralaya National College	False	False	KLTRMTGMNNDSHSTHRLYNTNLCLLG		Kalutara	LK-13	6.577316	80.127363	Mathugama	PS-1302103	6.520881	80.117908	6.524298	80.116714	Ananda Sasthralaya Rd, Matugama, Sri Lanka	0.402325	
Kalutara	Matugama	Katugahahena Hospital	False	False	KLTRMTGMKTGHHNHSPTL		Kalutara	LK-13	6.577316	80.127363	Mathugama	PS-1302103	6.520881	80.117908	6.489328	80.08471	F3QM+PVP, Bopitiya, Sri Lanka	5.077192	
Kalutara	Agalawatta	Bellana Maha Vidyalaya	False	False	KLTRGLWTTBLLNMHVDYLY		Kalutara	LK-13	6.577316	80.127363	Agalawatta		6.542566	80.157178	6.521895	80.17809	Tiruwanaketiya-Agalawatte Rd, Bellana, Sri Lanka	3.259893	
Kalutara	Agalawatta	Pimbura Hospital	False	False	KLTRGLWTTPMBRHSPTL		Kalutara	LK-13	6.577316	80.127363	Agalawatta		6.542566	80.157178	6.575949	80.158371	H5G5+98H, කළුතර, Sri Lanka	3.715525	
Kalutara	Meegahathenna	Meegahathenna Primary School	False	False	KLTRMGHTHNNMGHTHNNPRMRYSCHL		Kalutara	LK-13	6.577316	80.127363	Meegahathenna	PS-1302107	6.436941	80.1943	6.437225	80.191542	C5PR+VJM, Migahatenna, Sri Lanka	0.30647	
Kalutara	Wadduwa	Prime Minister's College – Wadduwa	False	False	KLTRWDDWPRMMNSTRSCLLGWDDW		Kalutara	LK-13	6.577316	80.127363	Wadduwa	PS-130188	6.664403	79.929851	6.660266	79.936966	Wadduwa, Sri Lanka	0.91084	
Kalutara	Wadduwa	Gonaduwa Hospital	False	False	KLTRWDDWGNDWHSPTL		Kalutara	LK-13	6.577316	80.127363	Wadduwa	PS-130188	6.664403	79.929851	6.671445	79.972598	Hospital Bus Stop, Waskaduwa - Bandaragama Rd, Maha Gonaduwa, Sri Lanka	4.787096	
Kalutara	Payagala	Hirigalgoda Vidyalaya	False	False	KLTRPYGLHRGLGDVDYLY		Kalutara	LK-13	6.577316	80.127363	Payagala	PS-130298	6.541144	79.974855	6.519709	79.991532	Yatadola Rd, Maggona, Sri Lanka	3.013454	
Kalutara	Payagala	Halkadawila Vidyalaya	False	False	KLTRPYGLHLKDWLVDYLY		Kalutara	LK-13	6.577316	80.127363	Payagala	PS-130298	6.541144	79.974855	6.519709	79.991532	Yatadola Rd, Maggona, Sri Lanka	3.013454	
Kalutara	Kalutara South	Palatota Gangaramaya	False	False	KLTRKLTRSTHPLTTGNGRMY		Kalutara	LK-13	6.577316	80.127363	Kalutara South	PS-130296	6.58486	79.961043	6.59577	79.963203	HXW7+874, Wadduwa, Sri Lanka	1.236765	
Kalutara	Millaniya	MOH Office – Millaniya	False	False	KLTRMLLNYMHFFCMLLNY		Kalutara	LK-13	6.577316	80.127363	Millaniya	PS-130191	6.681692	80.020847	6.724224	79.907284	A2, Panadura, Sri Lanka	13.407612	
Kalutara	Baduraliya	Baduraliya Hospital	False	False	KLTRBDRLYBDRLYHSPTL		Kalutara	LK-13	6.577316	80.127363	Baduraliya	PS-1302106	6.516756	80.226716	6.514727	80.232731	Tiruwanaketiya-Agalawatte Rd, Baduraliya, Sri Lanka	0.702098	
Kalutara	Baduraliya	Morapitiya Veediya Bandara Maha Vidyalaya	False	False	KLTRBDRLYMRPTYVDYBNDRMHVDYLY		Kalutara	LK-13	6.577316	80.127363	Baduraliya	PS-1302106	6.516756	80.226716	6.537873	80.268623	Rathnapura Road,Morapitiya,, Sri Lanka	5.192745	
Kalutara	Bandragama	Maithri Hall - Bandaragama	False	False	KLTRBNDRGMMTHRHLLBNDRGM		Kalutara	LK-13	6.577316	80.127363	Bandaragama	PS-130189	6.715179	79.987674	6.713508	79.990766	PX7R+C82, Bandaragama, Sri Lanka	0.388859	
Kalutara	Bandragama	Bandaragama Hospital	False	False	KLTRBNDRGMBNDRGMHSPTL		Kalutara	LK-13	6.577316	80.127363	Bandaragama	PS-130189	6.715179	79.987674	6.716162	79.991484	Horana Rd, Bandaragama, Sri Lanka	0.434849	
Kalutara	Bandragama	Maha Arukbogoda Viharaya	False	False	KLTRBNDRGMMHRKBGDVHRY		Kalutara	LK-13	6.577316	80.127363	Bandaragama	PS-130189	6.715179	79.987674	6.7075	79.991389	Kalutara Rd., Bandaragama., Waskaduwa - Bandaragama Rd, Bandaragama, Sri Lanka	0.947609	
Kalutara	Bandragama	Gammanpila Viharaya	False	False	KLTRBNDRGMGMMNPLVHRY		Kalutara	LK-13	6.577316	80.127363	Bandaragama	PS-130189	6.715179	79.987674	6.713096	79.995265	Atulugama Rd, Bandaragama, Sri Lanka	0.869974	
Kalutara	Panadura South	Walana Mahanama Vidyalaya	False	False	KLTRPNDRSTHWLNMHNMVDYLY		Kalutara	LK-13	6.577316	80.127363	Panadura South	PS-130186	6.720941	79.907315	6.725866	79.907901	PWG5+85R, Panadura, Sri Lanka	0.551618	
Kalutara	Panadura South	Sumangala Boys' School - Panadura	False	False	KLTRPNDRSTHSMNGLBYSSCHLPNDR		Kalutara	LK-13	6.577316	80.127363	Panadura South	PS-130186	6.720941	79.907315	6.710155	79.914215	Sri Sumangala College, Panadura 12500, Sri Lanka	1.421379	
Kalutara	Panadura South	Keselwatta Jilan Vidyalaya	False	False	KLTRPNDRSTHKSLWTTJLNVDYLY		Kalutara	LK-13	6.577316	80.127363	Panadura South	PS-130186	6.720941	79.907315	6.752794	79.903778	50 Thakshala Rd, Panadura 12500, Sri Lanka	3.564481	
Kurunegala	Rasnayakapura	Abokkagama Vidyalaya	False	False	KRNGLRSNYKPRBKKGMVDYLY		Kurunegala	LK-61	7.66477	80.23677	Rasnayakapura	PS-610323	7.776658	80.012692	7.775358	80.021998	Q2GC+4QX, Puttalam, Sri Lanka	1.03573	
Kurunegala	Rasnayakapura	Unagolla Vidyalaya	False	False	KRNGLRSNYKPRNGLLVDYLY		Kurunegala	LK-61	7.66477	80.23677	Rasnayakapura	PS-610323	7.776658	80.012692	7.775358	80.021998	Q2GC+4QX, Puttalam, Sri Lanka	1.03573	
Kurunegala	Nikaweratiya	Nikaweratiya Fair Premises	False	False	KRNGLNKWRTYNKWRTYFRPRMSS		Kurunegala	LK-61	7.66477	80.23677	Nikaweratiya	PS-610320	7.742612	80.121177	7.746386	80.131693	Nikaweratiya, Sri Lanka	1.232701	
Kurunegala	Galgamuwa	Meegalewa Hospital	False	False	KRNGLGLGMWMGLWHSPTL		Kurunegala	LK-61	7.66477	80.23677	Galgamuwa	PS-610327	8.000932	80.277867	8.057144	80.355761	3944+V82, Meegalewa, Sri Lanka	10.615833	
Kurunegala	Alawwa	Akbowa Maha Vidyalaya	False	False	KRNGLLWWKBWMHVDYLY		Kurunegala	LK-61	7.66477	80.23677	Alawwa	PS-610103	7.295909	80.24277	7.301775	80.237185	Alawwa-Dampelessa Rd, Alawwa 60280, Sri Lanka	0.897444	
Kurunegala	Maho	Thisnampalaga Vidyalaya	False	False	KRNGLMHTHSNMPLGVDYLY		Kurunegala	LK-61	7.66477	80.23677	Maho	PS-610324	7.824001	80.28038	7.826372	80.268023	Nikaweratiya - Moragollagama - Siyambalangamuwa, Maho 60600, Sri Lanka	1.386972	
Kurunegala	Pothuhera	Arambepola Vidyalaya	False	False	KRNGLPTHHRRMBPLVDYLY		Kurunegala	LK-61	7.66477	80.23677	Pothuhera	PS-610104	7.416243	80.327534	7.400738	80.339804	Arambepola, Pothuhera, Sri Lanka	2.192257	
Kurunegala	Pothuhera	Wimalasurendra Vidyalaya Wadakada	False	False	KRNGLPTHHRWMLSRNDRVDYLYWDKD		Kurunegala	LK-61	7.66477	80.23677	Pothuhera	PS-610104	7.416243	80.327534	7.39575	80.266257	97W8+7GR, Kurunegala, Sri Lanka	7.132987	
Kurunegala	Pothuhera	Hiripathwewa Viharaya	False	False	KRNGLPTHHRHRPTHWWVHRY		Kurunegala	LK-61	7.66477	80.23677	Pothuhera	PS-610104	7.416243	80.327534	7.48751	80.370935	F9QC+293, Kurunegala, Sri Lanka	9.260141	
Kurunegala	Mawatagama	Ilukewela Viharaya	False	False	KRNGLMWTGMLKWLVHRY		Kurunegala	LK-61	7.66477	80.23677	Mawathagama	PS-610109	7.432976	80.449904	7.458741	80.451416	Arampola - Thalgaspitiya Rd, Mawathagama, Sri Lanka	2.870684	
Kurunegala	Mawatagama	Pilessa Maha Vidyalaya	False	False	KRNGLMWTGMPLSSMHVDYLY		Kurunegala	LK-61	7.66477	80.23677	Mawathagama	PS-610109	7.432976	80.449904	7.453153	80.418221	Pilessa,Kurunegala, Sri Lanka	4.153029	
Puttalam	Chilaw	Ananda National College	False	False	PTTLMCHLWNNDNTNLCLLG		Puttalam	LK-62	7.973531	79.913833	Chilaw	PS-620241	7.576197	79.788003	7.571297	79.799123	Puttalam - Colombo Rd, Chilaw, Sri Lanka	1.341767	
Puttalam	Wennappuwa	Joshep Vas Colleg	False	False	PTTLMWNNPPWJSHPVSCLLG		Puttalam	LK-62	7.973531	79.913833	Wennappuwa	PS-620245	7.339623	79.843017	7.338961	79.841754	Puttalam Road, Wennappuwa, Sri Lanka	0.157593	
Puttalam	Wennappuwa	Thambaravila Primary School	False	False	PTTLMWNNPPWTHMBRVLPRMRYSCHL		Puttalam	LK-62	7.973531	79.913833	Wennappuwa	PS-620245	7.339623	79.843017	7.496326	79.856808	Kurunegala-Narammala-Madampe Rd, Madampe, Sri Lanka	17.496298	
Puttalam	Wennappuwa	Dummaladeniya Viharaya	False	False	PTTLMWNNPPWDMMLDNYVHRY		Puttalam	LK-62	7.973531	79.913833	Wennappuwa	PS-620245	7.339623	79.843017	7.324478	79.849106	Nainamadama, Sri Lanka	1.813569	
Puttalam	Wennappuwa	Bandirippuwa Primary School	False	False	PTTLMWNNPPWBNDRPPWPRMRYSCHL		Puttalam	LK-62	7.973531	79.913833	Wennappuwa	PS-620245	7.339623	79.843017	7.324791	79.870284	Bandirippuwa East, Sri Lanka	3.430801	
Puttalam	Dankotuwa	Wekada Maha Vidyalaya	False	False	PTTLMDNKTWWKDMHVDYLY		Puttalam	LK-62	7.973531	79.913833	Dankotuwa	PS-620246	7.300337	79.882595	7.294468	79.928811	7WVH+QGM, Puttalam, Sri Lanka	5.140579	
Puttalam	Koswatta	Pothuwatawana Vidyalaya	False	False	PTTLMKSWTTPTHWTWNVDYLY		Puttalam	LK-62	7.973531	79.913833	Koswatta	PS-620244	7.374528	79.898302	7.358541	79.916471	Lihiriyagama Rd, Sri Lanka	2.679392	
Puttalam	Marawila	Katuneriya Primary School	False	False	PTTLMMRWLKTNRYPRMRYSCHL		Puttalam	LK-62	7.973531	79.913833	Marawila	PS-620243	7.415075	79.839776	7.364706	79.832758	9R7M+V4J, Katuneriya, Sri Lanka	5.655765	
Puttalam	Nawagattegama	Multi Task Centre - Nawagattegama	False	False	PTTLMNWGTTGMMLTTSKCNTRNWGTTGM		Puttalam	LK-62	7.973531	79.913833	Nawagaththegama	PS-620133	8.002882	80.106543	8.00654	80.112149	Nawagattegama, Sri Lanka	0.73948	
Puttalam	Wanathwilluwa	Banadaranayakapura Vidyalaya	False	False	PTTLMWNTHWLLWBNDRNYKPRVDYLY		Puttalam	LK-62	7.973531	79.913833	Wanathawilluwa	PS-620134	8.188137	79.858447	8.028082	79.840608	Katugastota-Kurunegala-Puttalam Hwy, Puttalam, Sri Lanka	17.91094	
Puttalam	Wanathwilluwa	Watitakandal Vidyalaya	False	False	PTTLMWNTHWLLWWTTKNDLVDYLY		Puttalam	LK-62	7.973531	79.913833	Wanathawilluwa	PS-620134	8.188137	79.858447	7.341361	79.892557	8VRV+G2V, Kirimatiyana Junction, Sri Lanka	94.261743	#CenterFarFromPolice
Puttalam	Wanathwilluwa	Wijayapura Primary School	False	False	PTTLMWNTHWLLWWJYPRPRMRYSCHL		Puttalam	LK-62	7.973531	79.913833	Wanathawilluwa	PS-620134	8.188137	79.858447	8.025991	79.847127	Puttalam, Sri Lanka	18.078388	
Puttalam	Wanathwilluwa	Pallama Ground	False	False	PTTLMWNTHWLLWPLLMGRND		Puttalam	LK-62	7.973531	79.913833	Wanathawilluwa	PS-620134	8.188137	79.858447	8.025991	79.847127	Puttalam, Sri Lanka	18.078388	
Puttalam	Anamaduwa	MOH Office - Anamaduwa	False	False	PTTLMNMDWMHFFCNMDW		Puttalam	LK-62	7.973531	79.913833	Anamaduwa	PS-620131	7.874852	80.01316	7.889992	80.010421	V2Q6+X5V, Anamaduwa, Sri Lanka	1.710846	
Puttalam	Mundalama	Mundalama Maha Vidyalaya	False	False	PTTLMMNDLMMNDLMMHVDYLY		Puttalam	LK-62	7.973531	79.913833	Mundal	PS-620138	7.808859	79.825729	7.79154	79.82809	Puttlam Road, mundalama, Sri Lanka	1.943881	
Puttalam	Kadugannawa	MOH Office – Yatinuwara	False	False	PTTLMKDGNNWMHFFCYTNWR		Puttalam	LK-62	7.973531	79.913833	Kadugannawa	PS-210112	7.256285	80.516908	7.261486	80.533248	750 Colombo - Kandy Rd, Henawala, Sri Lanka	1.893468	
Kandy	Daulagala	Bambaradeniya Hospital	False	False	KNDYDLGLBMBRDNYHSPTL		Kandy	LK-21	7.27337	80.709602	Daulagala	PS-210111	7.227283	80.574409	7.203751	80.565657	Daulagala-Watadeniya Rd, Sri Lanka	2.78995	
Nuwara Eliya	Talawakelle	Watagoda Tamil College	False	False	NWRLYTLWKLLWTGDTMLCLLG		Nuwara Eliya	LK-23	6.97423	80.711222	Thalawakale	PS-230136	6.938198	80.662105	6.908287	80.680199	Nagasena Watagoda, Sri Lanka	3.880796	
Nuwara Eliya	Nuwara Eliya	Municipal Council - Nuwara Eliya	False	False	NWRLYNWRLYMNCPLCNCLNWRLY		Nuwara Eliya	LK-23	6.97423	80.711222	Nuwaraeliya	PS-230131	6.974148	80.767627	6.97305	80.768352	Old Uda Pussellawa Rd, Nuwara Eliya 22200, Sri Lanka	0.146024	
Nuwara Eliya	Pudaluoya	jayahela National College	False	False	NWRLYPDLYJYHLNTNLCLLG		Nuwara Eliya	LK-23	6.97423	80.711222	Pudalu oya	PS-230132	6.907289	79.863819	7.01668	80.668529	2M89+MCC, Pundaluoya, Sri Lanka	89.677066	#CenterFarFromPolice
Nuwara Eliya	Kothmale	MOH Office – Kothmale	False	False	NWRLYKTHMLMHFFCKTHML		Nuwara Eliya	LK-23	6.97423	80.711222	Kotmale	PS-230134	7.063602	80.685054	7.062013	80.685533	3M6P+R63, Kothmale New Town, Sri Lanka	0.184484	
Nuwara Eliya	Udupussellawa	Rupaha Sadhananda Maha Vidyalaya	False	False	NWRLYDPSSLLWRPHSDHNNDMHVDYLY		Nuwara Eliya	LK-23	6.97423	80.711222	Udupussellawa	PS-230143	6.958254	80.930291	7.03093	80.907786	Rupaha Road, Walapane, Sri Lanka	8.456954	
Nuwara Eliya	Udupussellawa	Madulla Vidyalaya	False	False	NWRLYDPSSLLWMDLLVDYLY		Nuwara Eliya	LK-23	6.97423	80.711222	Udupussellawa	PS-230143	6.958254	80.930291	7.053575	80.927879	Madulla, C343, Sri Lanka	10.605882	
Nuwara Eliya	Udupussellawa	Kurupanawela Vidyalaya	False	False	NWRLYDPSSLLWKRPNWLVDYLY		Nuwara Eliya	LK-23	6.97423	80.711222	Udupussellawa	PS-230143	6.958254	80.930291	6.999782	80.906566	Udapussellawa-Welimada Road, Udupussellawa, Sri Lanka	5.31015	
Matale	Galewela	Galewela Hospital	False	False	MTLGLWLGLWLHSPTL		Matale	LK-22	7.667587	80.731008	Galewela	PS-220129	7.763244	80.574149	7.760542	80.571552	QH6C+6J7, Galewela, Sri Lanka	0.415026	
Matale	Galewela	Madipola Hospital	False	False	MTLGLWLMDPLHSPTL		Matale	LK-22	7.667587	80.731008	Galewela	PS-220129	7.763244	80.574149	7.685835	80.576848	MHPG+8PQ, Madipola, Sri Lanka	8.615328	
Matale	Galewela	Thalakiriyagama Buddajanthi Viharaya	False	False	MTLGLWLTHLKRYGMBDDJNTHVHRY		Matale	LK-22	7.667587	80.731008	Galewela	PS-220129	7.763244	80.574149	7.855404	80.651345	Kandy - Jaffna Hwy, Dambulla, Sri Lanka	13.320981	
Matale	Galewela	Makulugaswewa Vidyalaya	False	False	MTLGLWLMKLGSWWVDYLY		Matale	LK-22	7.667587	80.731008	Galewela	PS-220129	7.763244	80.574149	7.842251	80.579391	RHRH+WQ2, Makulugaswewa, Sri Lanka	8.806901	
Matale	Dambulla	Lenagedra Hospital	False	False	MTLDMBLLLNGDRHSPTL		Matale	LK-22	7.667587	80.731008	Dambulla	PS-220128	7.86208	80.649166	7.846353	80.654133	A9, Dambulla, Sri Lanka	1.832928	
Matale	Dambulla	Kalundawa Dispensary	False	False	MTLDMBLLKLNDWDSPNSRY		Matale	LK-22	7.667587	80.731008	Dambulla	PS-220128	7.86208	80.649166	7.808265	80.658615	Kalundawa Road, Dambulla 21100, Sri Lanka	6.075714	
Matale	Dambulla	Sigiriya Maha Vidyalaya	False	False	MTLDMBLLSGRYMHVDYLY		Matale	LK-22	7.667587	80.731008	Dambulla	PS-220128	7.86208	80.649166	7.957253	80.760037	Sigiriya, 8 Ela pahalawewa, Dambulla 21100, Sri Lanka	16.163764	
Matale	Dambulla	DS Senanayaka Vidyalaya – Kandalama	False	False	MTLDMBLLDSSNNYKVDYLYKNDLM		Matale	LK-22	7.667587	80.731008	Dambulla	PS-220128	7.86208	80.649166	7.858174	80.68972	Kandalama Tank Acess Rd, Dambulla, Sri Lanka	4.489507	
Matale	Dambulla	Digampathana Viharaya	False	False	MTLDMBLLDGMPTHNVHRY		Matale	LK-22	7.667587	80.731008	Dambulla	PS-220128	7.86208	80.649166	7.855404	80.651345	Kandy - Jaffna Hwy, Dambulla, Sri Lanka	0.78042	
Matale	Naula	Adawala Viharaya	False	False	MTLNLDWLVHRY		Matale	LK-22	7.667587	80.731008	Naula	PS-220126	7.692051	80.64963	7.669749	80.645856	Gedige Rd, Matale, Sri Lanka	2.51529	
Matale	Naula	Opalagama Vidyalaya	False	False	MTLNLPLGMVDYLY		Matale	LK-22	7.667587	80.731008	Naula	PS-220126	7.692051	80.64963	7.706636	80.656564	Elahera Road, Naula, Sri Lanka	1.793319	
Matale	Akuressa	Pahala Maliduwa Viharaya	False	False	MTLKRSSPHLMLDWVHRY		Matale	LK-22	7.667587	80.731008	Akuressa	PS-320112	6.099044	80.4776	6.121173	80.420134	Pahala Maliduwa, Sri Lanka	6.815603	
Matara	Weligama	Kokmaduwa Primary School	False	False	MTRWLGMKKMDWPRMRYSCHL		Matara	LK-32	6.142734	80.539994	Weligama	PS-320111	5.973301	80.426455	6.023787	80.429393	Kokmaduwa Kananke Weligama Road, Sri Lanka	5.62494	
Matara	Weligama	Denipitiya Maha Vidyalaya	False	False	MTRWLGMDNPTYMHVDYLY		Matara	LK-32	6.142734	80.539994	Weligama	PS-320111	5.973301	80.426455	5.979963	80.454755	Polathumodara, Polwathumodara - Denipitiya Rd, Denipitiya, Sri Lanka	3.217195	
Badulla	Passara	MOH Office – Badulla	False	False	BDLLPSSRMHFFCBDLL		Badulla	LK-81	7.074529	81.04486	Passara	PS-810102	6.934481	81.154796	6.988514	81.053232	Mediriya Road, Badulla, Sri Lanka	12.722709	
Badulla	Haputale	Diyatalawa Hospital	False	False	BDLLHPTLDYTLWHSPTL		Badulla	LK-81	7.074529	81.04486	Haputale	PS-810215	6.767653	80.957218	6.80555	80.956366	12 Fair Rd, Diyatalawa, Sri Lanka	4.216327	
Badulla	Haliela	Haliela Central College	False	False	BDLLHLLHLLCNTRLCLLG		Badulla	LK-81	7.074529	81.04486	Haliela	PS-810108	6.958216	81.034447	6.96042	81.034923	Peradeniya-Badulla-Chenkaladi Hwy, Hali-ela, Sri Lanka	0.250721	
Badulla	Haliela	District Hospital - Atampitiya	False	False	BDLLHLLDSTRCTHSPTLTMPTY		Badulla	LK-81	7.074529	81.04486	Haliela	PS-810108	6.958216	81.034447	6.934746	80.989784	Etampitiya Rd, Sri Lanka	5.579755	
Badulla	Haliela	Wewelhinna Primary School	False	False	BDLLHLLWWLHNNPRMRYSCHL		Badulla	LK-81	7.074529	81.04486	Haliela	PS-810108	6.958216	81.034447	6.947643	81.027144	Sri Lanka, Hali-ela, Sri Lanka	1.425915	
Badulla	Haliela	Spring Valley Hospital	False	False	BDLLHLLSPRNGVLLYHSPTL		Badulla	LK-81	7.074529	81.04486	Haliela	PS-810108	6.958216	81.034447					#CenterLocationUnknown
Monaragala	Wellawaya	Army Camp - Warnagama	False	False	MNRGLWLLWYRMYCMPWRNGM		Moneragala	LK-82	6.787517	81.303744	wellawaya	PS-820130	6.730804	81.100708	6.73774	81.10306	D.S. Gama, Wellawaya 91200, Sri Lanka	0.814062	
Monaragala	Kudaoya	Dorn Lanka	False	False	MNRGLKDYDRNLNK		Moneragala	LK-82	6.787517	81.303744	Kudaoya	PS-820134	6.523777	81.123696	6.531545	81.122881	Kuda Oya Cottages, Uva, Kuda Oya, Kuda Oya, 91000, Kuda Oya 91000, Sri Lanka	0.868715	
Moneragala	Bibila	Radaliyadda Viharaya	False	False	MNRGLBBLRDLYDDVHRY		Moneragala	LK-82	6.787517	81.303744	Bibila	PS-820125	7.165232	81.225463	7.183482	81.232146	Peradeniya-Badulla-Chenkaladi Hwy, Radaliyadda, Sri Lanka	2.159774	
Moneragala	Bibila	Cultural Centre – Bibila	False	False	MNRGLBBLCLTRLCNTRBBL		Moneragala	LK-82	6.787517	81.303744	Bibila	PS-820125	7.165232	81.225463	7.157124	81.223758	564F+RGR, Bibile, Sri Lanka	0.921273	
Moneragala	Bibila	Wellassa National College	False	False	MNRGLBBLWLLSSNTNLCLLG		Moneragala	LK-82	6.787517	81.303744	Bibila	PS-820125	7.165232	81.225463	7.134962	81.219121	Peradeniya-Badulla-Chenkaladi Hwy, Bibile, Sri Lanka	3.43891	
Moneragala	Buttala	Janasanka Primary School	False	False	MNRGLBTTLJNSNKPRMRYSCHL		Moneragala	LK-82	6.787517	81.303744	Buttala	PS-820127	6.762499	81.250445	6.748647	81.234839	Puhul Kotuwa Rd, Buttala, Sri Lanka	2.312016	
Moneragala	Buttala	Ranjan Wijerathna Maha Vidyalaya	False	False	MNRGLBTTLRNJNWJRTHNMHVDYLY		Moneragala	LK-82	6.787517	81.303744	Buttala	PS-820127	6.762499	81.250445	6.720947	81.214921	P6C7+9XF, Pelwatta, Sri Lanka	6.062926	
Moneragala	Buttala	Buttala Hospital	False	False	MNRGLBTTLBTTLHSPTL		Moneragala	LK-82	6.787517	81.303744	Buttala	PS-820127	6.762499	81.250445	6.75781	81.239724	Colombo - Batticaloa Hwy, Buttala, Sri Lanka	1.293971	
Moneragala	Buttala	Unawatuna Primary School	False	False	MNRGLBTTLNWTNPRMRYSCHL		Moneragala	LK-82	6.787517	81.303744	Buttala	PS-820127	6.762499	81.250445	6.753178	81.217737	Q639+73H, Buttala, Sri Lanka	3.758754	
Galle	Galle	Mobile Medical Team	False	False	GLLGLLMBLMDCLTM		Galle	LK-31	6.222805	80.251977	Galle	PS-310120	6.032983	80.21714					#CenterLocationUnknown
Galle	Galle	Sanghamitta Balika Vidyalaya	False	False	GLLGLLSNGHMTTBLKVDYLY		Galle	LK-31	6.222805	80.251977	Galle	PS-310120	6.032983	80.21714	6.047235	80.212517	Wakwella Rd, Galle 80000, Sri Lanka	1.665683	
Galle	Kosgoda	Gamini Maha Vidayalaya	False	False	GLLKSGDGMNMHVDYLY		Galle	LK-31	6.222805	80.251977	Kosgoda	PS-310245	6.335782	80.030182	6.325317	80.034296	Hegalla Vidyalaya, Galle Rd, Kosgoda, Sri Lanka	1.249718	
Galle	Kosgoda	Hegalla Maha Vidyalaya	False	False	GLLKSGDHGLLMHVDYLY		Galle	LK-31	6.222805	80.251977	Kosgoda	PS-310245	6.335782	80.030182	6.325317	80.034296	Hegalla Vidyalaya, Galle Rd, Kosgoda, Sri Lanka	1.249718	
Galle	Meetiyagala	kahawa Rathanasara Vidyalaya	False	False	GLLMTYGLKHWRTHNSRVDYLY		Galle	LK-31	6.222805	80.251977	Meetiyagoda	PS-310241	6.189422	80.094722	6.190006	80.141616	54RR+2J5, Aluthwala, Sri Lanka	5.186011	
Galle	Elpitiya	Ananda Vidyalaya Rupa Karunatilake Hall	False	False	GLLLPTYNNDVDYLYRPKRNTLKHLL		Galle	LK-31	6.222805	80.251977	Elpitiya	PS-310235	6.279163	80.142917	6.06409	80.209473	3675+JQQ, Galle 80000, Sri Lanka	25.029158	#CenterFarFromPolice
Galle	Elpitiya	St. Teresa's Primary School	False	False	GLLLPTYSTTRSSPRMRYSCHL		Galle	LK-31	6.222805	80.251977	Elpitiya	PS-310235	6.279163	80.142917	6.277414	80.14249	Ambalangoda - Elpitiya - Pitigala Rd, Sri Lanka	0.200187	
Galle	Karandeniya	Karandeniya Samaraweera Ground	False	False	GLLKRNDNYKRNDNYSMRWRGRND		Galle	LK-31	6.222805	80.251977	Karandeniya	PS-310238	6.271732	80.08479	6.269634	80.10128	Borakanda, Karandeniya, Karandeniya, Sri Lanka	1.83808	
Galle	Pitigala	Weihena Vidyashanthi Pirivena	False	False	GLLPTGLWHNVDYSHNTHPRVN		Galle	LK-31	6.222805	80.251977	Pitigala	PS-310237	6.335202	80.221149	6.30778	80.23492	Weihena, Sri Lanka	3.408986	
Galle	Ambalagoda	Sri Wijayarama Viharaya	False	False	GLLMBLGDSRWJYRMVHRY		Galle	LK-31	6.222805	80.251977	Ambalangoda	PS-310243	6.244958	80.047598	6.245269	80.057509	Dhirakkanda Buddhist Temple, Dhirakkanda Mawatha, Kaluwadumulla, Ambalangada., Ambalangoda 80300, Sri Lanka	1.096403	
Galle	Hiniduma	Abinawarama Viharaya	False	False	GLLHNDMBNWRMVHRY		Galle	LK-31	6.222805	80.251977	Hiniduma	PS-310131	6.329517	80.322442	6.299397	80.314804	78X7+QW3, Galle, Sri Lanka	3.455021	
Galle	Neluwa	Dellawa Maha Vidyalaya	False	False	GLLNLWDLLWMHVDYLY		Galle	LK-31	6.222805	80.251977	Neluwa	PS-310132	6.379651	80.358956	6.32396	80.43865	Sri Lanka	10.769716	
Galle	Neluwa	Neluwa National College	False	False	GLLNLWNLWNTNLCLLG		Galle	LK-31	6.222805	80.251977	Neluwa	PS-310132	6.379651	80.358956	6.37678	80.358703	B411, Neluwa, Sri Lanka	0.320563	
Galle	Wanduramba	Urala Primary School	False	False	GLLWNDRMBRLPRMRYSCHL		Galle	LK-31	6.222805	80.251977	Wanduramba	PS-310124	6.1257	80.252985	6.139319	80.242057	Pahala Lelwala, Wanduramba, Sri Lanka	1.937876	
Galle	Wanduramba	Wanduramba Gamini Maha Vidyalaya	False	False	GLLWNDRMBWNDRMBGMNMHVDYLY		Galle	LK-31	6.222805	80.251977	Wanduramba	PS-310124	6.1257	80.252985	6.133267	80.252075	Wanduramba - Mapalagama Rd, Wanduramba, Sri Lanka	0.847672	
Galle	Wanduramba	Dolahena Primary School	False	False	GLLWNDRMBDLHNPRMRYSCHL		Galle	LK-31	6.222805	80.251977	Wanduramba	PS-310124	6.1257	80.252985					#CenterLocationUnknown
Galle	Wanduramba	Mabotuwana Primary School	False	False	GLLWNDRMBMBTWNPRMRYSCHL		Galle	LK-31	6.222805	80.251977	Wanduramba	PS-310124	6.1257	80.252985	6.12833	80.273204	Wanduramba - Yakkalamulla Rd, Sri Lanka	2.255163	
Galle	Rathgama	Imbulgoda Dhammodayaramaya	False	False	GLLRTHGMMBLGDDHMMDYRMY		Galle	LK-31	6.222805	80.251977	Ratgama	PS-310121	6.145115	80.099693	7.087046	80.01751	Imbulgoda, Gampaha, Sri Lanka	105.163572	#CenterFarFromPolice
Galle	Akmeemana	Labuduwa Siridhamma Vidyalaya	False	False	GLLKMMNLBDWSRDHMMVDYLY		Galle	LK-31	6.222805	80.251977	Akmeemana	PS-310123	6.073453	80.276627	6.071463	80.232066	සිරිධම්ම විද්‍යාලය, සිරිධම්ම මාවත, ගාල්ල 80090, Sri Lanka	4.933669	
Galle	Akmeemana	Wijaya Primary School	False	False	GLLKMMNWJYPRMRYSCHL		Galle	LK-31	6.222805	80.251977	Akmeemana	PS-310123	6.073453	80.276627	6.076547	80.258231	37G5+J79, Rathjambugaha, Sri Lanka	2.063592	
Galle	Akmeemana	President's Girls' College Akmeemana	False	False	GLLKMMNPRSDNTSGRLSCLLGKMMN		Galle	LK-31	6.222805	80.251977	Akmeemana	PS-310123	6.073453	80.276627	6.08641	80.242064	Ganegoda,Akmeemana., Wanduramba - Mapalagama Rd, 80090, Sri Lanka	4.085458	
Galle	Ahangama	Pelessa Siri Vimalasiri Maha Vidyalaya	False	False	GLLHNGMPLSSSRVMLSRMHVDYLY		Galle	LK-31	6.222805	80.251977	Ahangama	PS-310128	5.972267	80.365256	6.005927	80.335236	Pelessa, Sri Lanka	5.004582	
Galle	Ahangama	Nakanda Kumara Vidyalaya	False	False	GLLHNGMNKNDKMRVDYLY		Galle	LK-31	6.222805	80.251977	Ahangama	PS-310128	5.972267	80.365256	5.985926	80.373817	Ranaviru Captain Rohitha Mawatha, Ahangama, Sri Lanka	1.790295	
Galle	Imaduwa	Howpe Welhenawatta	False	False	GLLMDWHWPWLHNWTT		Galle	LK-31	6.222805	80.251977	Imaduwa	PS-310134	6.034389	80.391055	6.038266	80.390916	Imaduwa, Sri Lanka	0.431512	
Matara	Dickwella	Siri Niketharamaya	False	False	MTRDCKWLLSRNKTHRMY		Matara	LK-32	6.142734	80.539994	Dikwella	PS-320103	5.964296	80.693198	5.970342	80.631913	Rathmale Rd, Sri Lanka	6.813054	
Matara	Dickwella	Dematapitiya Maha Vidyalaya	False	False	MTRDCKWLLDMTPTYMHVDYLY		Matara	LK-32	6.142734	80.539994	Dikwella	PS-320103	5.964296	80.693198	5.965899	80.694907	XM8V+9X3, Dikwella, Sri Lanka	0.259877	
Matara	Hakmana	Narawelpita Uththara Maha Vidyalaya	False	False	MTRHKMNNRWLPTTHTHRMHVDYLY		Matara	LK-32	6.142734	80.539994	Hakmana	PS-320106	6.084824	80.643227	6.090854	80.61892	B309, Sri Lanka	2.77082	
Matara	Hakmana	Ellewela Ashokaramaya	False	False	MTRHKMNLLWLSHKRMY		Matara	LK-32	6.142734	80.539994	Hakmana	PS-320106	6.084824	80.643227	6.096667	80.598056	Ellewela Wewa, Sri Lanka	5.166748	
Matara	Kamburupitiya	Ullala Maha Vidyalaya	False	False	MTRKMBRPTYLLLMHVDYLY		Matara	LK-32	6.142734	80.539994	Kamburupitiya	PS-320105	6.073875	80.564579	6.06449	80.583592	Akkara 50 Rd, Sri Lanka	2.347796	
Matara	Kamburupitiya	Mapalana Bodhiya	False	False	MTRKMBRPTYMPLNBDHY		Matara	LK-32	6.142734	80.539994	Kamburupitiya	PS-320105	6.073875	80.564579	6.055376	80.562551	Sri Lanka, 티하고다 - 캄부루피티야-마와랄라-코타폴라 로드	2.069831	
Matara	Matara	Uyanwatta Ground	False	False	MTRMTRYNWTTGRND		Matara	LK-32	6.142734	80.539994	Matara	PS-320101	5.94904	80.533659	5.949299	80.549097	WGXX+PJ9, Matara, Sri Lanka	1.708161	
Matara	Thihagoda	Pahala Vitiyala Vidyalaya	False	False	MTRTHHGDPHLVTYLVDYLY		Matara	LK-32	6.142734	80.539994	Thihagoda	PS-320104	6.01331	80.567932	6.038122	80.540214	2GQR+63W, Pahala Vitiyala, Sri Lanka	4.125197	
Matara	Thihagoda	Naimbala Maha Vidyalaya	False	False	MTRTHHGDNMBLMHVDYLY		Matara	LK-32	6.142734	80.539994	Thihagoda	PS-320104	6.01331	80.567932	5.998448	80.55614	Matara - Hakmana Road, Thihagoda, Sri Lanka	2.105766	
Matara	Gandara	Thalalla Mandalaramaya	False	False	MTRGNDRTHLLLMNDLRMY		Matara	LK-32	6.142734	80.539994	Gandara	PS-320102	5.941629	80.614037	6.045496	80.631391	B630, Sri Lanka	11.71152	
Hambantota	Hambantota	Mobile Medical Team	False	False	HMBNTTHMBNTTMBLMDCLTM		Hambantota	LK-33	6.259779	81.098619	Hambantota	PS-330156	6.125872	81.12521					#CenterLocationUnknown
Hambantota	Hambantota	MOH Office – Hambantota	False	False	HMBNTTHMBNTTMHFFCHMBNTT		Hambantota	LK-33	6.259779	81.098619	Hambantota	PS-330156	6.125872	81.12521	6.171162	81.127	54CG+FQ9, Hambantota, Sri Lanka	5.041487	
Hambantota	Walasmulla	Walasmulla Fair Premises	False	False	HMBNTTWLSMLLWLSMLLFRPRMSS		Hambantota	LK-33	6.259779	81.098619	Walasmulla	PS-330151	6.154102	80.698256	6.148552	80.697555	4MXX+C2F, Walasmulla, Sri Lanka	0.622174	
Hambantota	Walasmulla	MOH Office – Okewela	False	False	HMBNTTWLSMLLMHFFCKWL		Hambantota	LK-33	6.259779	81.098619	Walasmulla	PS-330151	6.154102	80.698256	6.098886	80.715898	Okewela, Sri Lanka	6.444136	
Hambantota	Agunukolapelessa	Binkama Maha Vidyalaya	False	False	HMBNTTGNKLPLSSBNKMMHVDYLY		Hambantota	LK-33	6.259779	81.098619	Angunakolapelessa	PS-330150	6.321993	80.844883	6.194315	80.895005	Angunakolapessa Rd, Sri Lanka	15.244629	
Hambantota	Agunukolapelessa	Wetiya Dharmapala Maha Vidyalaya	False	False	HMBNTTGNKLPLSSWTYDHRMPLMHVDYLY		Hambantota	LK-33	6.259779	81.098619	Angunakolapelessa	PS-330150	6.321993	80.844883	6.165569	80.903117	Agunukolapelessa, Sri Lanka	18.55224	
Hambantota	Middeniya	Talawa Hospital	False	False	HMBNTTMDDNYTLWHSPTL		Hambantota	LK-33	6.259779	81.098619	Middeniya	PS-330154	6.248275	80.765018	8.233797	80.348381	68MX+G96, Talawa, Sri Lanka	225.582995	#CenterFarFromPolice
Hambantota	Weeraketiya	Mandaduwa Maha Vidyalaya	False	False	HMBNTTWRKTYMNDDWMHVDYLY		Hambantota	LK-33	6.259779	81.098619	Weeraketiya	PS-330149	6.153899	80.76737	6.152753	80.767945	Weeraketiya - Middeniya Rd, Weeraketiya, Sri Lanka	0.14245	
Hambantota	Beliatta	Palapotha Maha Vidyalaya	False	False	HMBNTTBLTTPLPTHMHVDYLY		Hambantota	LK-33	6.259779	81.098619	Beliatta	PS-330152	6.046936	80.735408	6.023506	80.747169	Tangalle-Kadurupokuna-Beliatta Rd, Sri Lanka	2.912771	
Hambantota	Beliatta	Kudahilla Maha Vidyalaya	False	False	HMBNTTBLTTKDHLLMHVDYLY		Hambantota	LK-33	6.259779	81.098619	Beliatta	PS-330152	6.046936	80.735408	6.056995	80.750125	3Q42+Q3R, Hambantota, Sri Lanka	1.975372	
Hambantota	Beliatta	Sitinamaluwa Primary School	False	False	HMBNTTBLTTSTNMLWPRMRYSCHL		Hambantota	LK-33	6.259779	81.098619	Beliatta	PS-330152	6.046936	80.735408					#CenterLocationUnknown
Hambantota	Beliatta	Galagama Maha Vidyalaya	False	False	HMBNTTBLTTGLGMMHVDYLY		Hambantota	LK-33	6.259779	81.098619	Beliatta	PS-330152	6.046936	80.735408	6.006329	80.71096	Galagama Road, Sri Lanka	5.264314	
Hambantota	Beliatta	MOH Office – Beliatta	False	False	HMBNTTBLTTMHFFCBLTT		Hambantota	LK-33	6.259779	81.098619	Beliatta	PS-330152	6.046936	80.735408	6.051828	80.741735	3P2R+PMQ, Hambantota, Sri Lanka	0.886482	
Hambantota	Tangalla	Netolpitiya Gemunu Maha Vidyalaya	False	False	HMBNTTTNGLLNTLPTYGMNMHVDYLY		Hambantota	LK-33	6.259779	81.098619	Tangalle	PS-330147	6.023954	80.797255	6.066529	80.83693	3R8P+JQ7, Netolpitiya, Sri Lanka	6.456389	
Hambantota	Hungama	Kattakaduwa Maha Vidyalaya	False	False	HMBNTTHNGMKTTKDWMHVDYLY		Hambantota	LK-33	6.259779	81.098619	Hungama	PS-330148	6.111262	80.932642	6.128818	80.891993	4VHR+GQH, Hungama, Sri Lanka	4.901405	
Hambantota	Hungama	Multi Task Centre - Wigamuwa	False	False	HMBNTTHNGMMLTTSKCNTRWGMW		Hambantota	LK-33	6.259779	81.098619	Hungama	PS-330148	6.111262	80.932642	6.100065	80.84901	4R2X+2JC, Hambantota, Sri Lanka	9.333076	
Hambantota	Ambalatota	Mamadama Maha Vidyalaya	False	False	HMBNTTMBLTTMMDMMHVDYLY		Hambantota	LK-33	6.259779	81.098619	Ambalantota	PS-330157	6.12516	81.023981	6.15621	80.974631	5X4F+FVJ, Mamadala, Sri Lanka	6.458669	
Hambantota	Sooriyawewa	Mahapelessa Pre School	False	False	HMBNTTSRYWWMHPLSSPRSCHL		Hambantota	LK-33	6.259779	81.098619	Sooriyawewa	PS-330155	6.306022	81.003873	6.307631	80.998212	8X5X+374, Sooriyawewa, Sri Lanka	0.650947	
Hambantota	Sooriyawewa	Bedigamthota Vidyalaya	False	False	HMBNTTSRYWWBDGMTHTVDYLY		Hambantota	LK-33	6.259779	81.098619	Sooriyawewa	PS-330155	6.306022	81.003873	6.07308	80.704144	Hakmana - Beliatte - Tangalle Rd, Sri Lanka	42.070026	#CenterFarFromPolice
Hambantota	Sooriyawewa	Hathporuwa Viharaya	False	False	HMBNTTSRYWWHTHPRWVHRY		Hambantota	LK-33	6.259779	81.098619	Sooriyawewa	PS-330155	6.306022	81.003873	6.288525	80.953136	alioluara,, Sooriyawewa, Sri Lanka	5.937441	
Hambantota	Sooriyawewa	Viharagala Vidyalaya	False	False	HMBNTTSRYWWVHRGLVDYLY		Hambantota	LK-33	6.259779	81.098619	Sooriyawewa	PS-330155	6.306022	81.003873	6.277872	80.959495	7XH5+4QX, Sooriyawewa, Sri Lanka	5.820387	
Hambantota	Tissamaharama	Vidyartha Maha Vidyalaya	False	False	HMBNTTTSSMHRMVDYRTHMHVDYLY		Hambantota	LK-33	6.259779	81.098619	Tissamaharamaya	PS-330158	6.26109	81.236724	6.268602	81.250606	7792+C6X, Hambantota, Sri Lanka	1.747566	
Hambantota	Lunugamwehara	MOH Office – Lunugamwehera	False	False	HMBNTTLNGMWHRMHFFCLNGMWHR		Hambantota	LK-33	6.259779	81.098619	Lunugamwehera	PS-330160	6.341544	81.202699	6.346093	81.196977	85WW+CQQ, Mattala, Sri Lanka	0.810032	
Hambantota	Lunugamwehara	Lunugamwehera Hospital	False	False	HMBNTTLNGMWHRLNGMWHRHSPTL		Hambantota	LK-33	6.259779	81.098619	Lunugamwehera	PS-330160	6.341544	81.202699	6.346521	81.196711	Mattala - Lunugamwehera Old Rd, Mattala, Sri Lanka	0.862938	
Hambantota	Katuwana	Siyarapitiya Maha Vidyalaya	False	False	HMBNTTKTWNSYRPTYMHVDYLY		Hambantota	LK-33	6.259779	81.098619	Katuwana	PS-330153	6.269722	80.690963	6.290408	80.693009	7MRV+566, Hambantota, Sri Lanka	2.311993	
Rathnapura	Opanayaka	Near Malmikanda Bodhiya	False	False	RTHNPRPNYKNRMLMKNDBDHY		Ratnapura	LK-91	6.586826	80.566158	Opanayaka	PS-910104	6.608519	80.619285	6.440955	80.759711	Pelmadulla - Embilipitiya Hwy, Ratnapura, Sri Lanka	24.252898	#CenterFarFromPolice
Rathnapura	Opanayaka	Wallaketiya Viharaya	False	False	RTHNPRPNYKWLLKTYVHRY		Ratnapura	LK-91	6.586826	80.566158	Opanayaka	PS-910104	6.608519	80.619285	6.611237	80.594059	A4, Sri Lanka	2.803581	
Rathnapura	Opanayaka	Udawela Vidyalaya	False	False	RTHNPRPNYKDWLVDYLY		Ratnapura	LK-91	6.586826	80.566158	Opanayaka	PS-910104	6.608519	80.619285	6.606694	80.637221	Kahawatta Opanayake Rd, Udawela, Sri Lanka	1.992136	
Rathnapura	Pinnawala	Divisional Secretariat - Imbulpe	False	False	RTHNPRPNNWLDVSNLSCRTRTMBLP		Ratnapura	LK-91	6.586826	80.566158	Pinnawala	PS-910115	7.299943	80.386604	6.732373	80.674305	Pinnawala, Sri Lanka	70.670072	#CenterFarFromPolice
Rathnapura	Pinnawala	Primary Health Unit - Denagama	False	False	RTHNPRPNNWLPRMRYHLTHNTDNGM		Ratnapura	LK-91	6.586826	80.566158	Pinnawala	PS-910115	7.299943	80.386604	6.702167	80.72453	Nelliwala Rd, Sri Lanka	76.241744	#CenterFarFromPolice
Rathnapura	Pinnawala	Marathenna Hospital	False	False	RTHNPRPNNWLMRTHNNHSPTL		Ratnapura	LK-91	6.586826	80.566158	Pinnawala	PS-910115	7.299943	80.386604	6.739118	80.698827	PMQX+JGW, Ratnapura, Sri Lanka	71.269702	#CenterFarFromPolice
Rathnapura	Balangoda	Balangoda Vidyaloka Vidyalaya	False	False	RTHNPRBLNGDBLNGDVDYLKVDYLY		Ratnapura	LK-91	6.586826	80.566158	Balangoda	PS-910103	6.649474	80.700276	6.648651	80.698377	Barns Rathwathta Mawatha, Balangoda 70100, Sri Lanka	0.228906	
Rathnapura	Weligepola	Pragahamadiththa Community Hall	False	False	RTHNPRWLGPLPRGHMDTHTHCMMNTYHLL		Ratnapura	LK-91	6.586826	80.566158	Weligepola	PS-910106	6.596426	80.723695	6.583202	80.711558	Galgoda - Weligepola Rd, Weligepola, Sri Lanka	1.990489	
Rathnapura	Weligepola	Weligepola Viharaya	False	False	RTHNPRWLGPLWLGPLVHRY		Ratnapura	LK-91	6.586826	80.566158	Weligepola	PS-910106	6.596426	80.723695	6.580929	80.730893	pollamura, Sri Lanka	1.898371	
Rathnapura	Weligepola	Pollamura Viharaya	False	False	RTHNPRWLGPLPLLMRVHRY		Ratnapura	LK-91	6.586826	80.566158	Weligepola	PS-910106	6.596426	80.723695	6.580929	80.730893	pollamura, Sri Lanka	1.898371	
Rathnapura	Kiriella	Galawathura Vidyalaya	False	False	RTHNPRKRLLGLWTHRVDYLY		Ratnapura	LK-91	6.586826	80.566158	Kiriella	PS-910114	6.735338	80.276481	6.736827	80.272908	Idangoda, Kiriella-Nadurana-Eheliyagoda Rd, Sri Lanka	0.428023	
Rathnapura	Kiriella	Dumbara Viharaya	False	False	RTHNPRKRLLDMBRVHRY		Ratnapura	LK-91	6.586826	80.566158	Kiriella	PS-910114	6.735338	80.276481	6.721764	80.221942	P6CC+PQ4, Ratnapura, Sri Lanka	6.210892	
Rathnapura	Rathnapura	Rahula Vidyalaya	False	False	RTHNPRRTHNPRRHLVDYLY		Ratnapura	LK-91	6.586826	80.566158	Ratnapura	PS-910101	6.679456	80.40223	6.726152	80.332768	Millakade Dodampe, Ratnapura - Horana - Panadura Hwy, Millakade, Sri Lanka	9.266021	
Rathnapura	Rathnapura	Dippitiya Vidyalaya	False	False	RTHNPRRTHNPRDPPTYVDYLY		Ratnapura	LK-91	6.586826	80.566158	Ratnapura	PS-910101	6.679456	80.40223	7.174959	80.456001	B278, Dippitiya, Sri Lanka	55.433591	#CenterFarFromPolice
Rathnapura	Rathnapura	Bodhirajaramaya	False	False	RTHNPRRTHNPRBDHRJRMY		Ratnapura	LK-91	6.586826	80.566158	Ratnapura	PS-910101	6.679456	80.40223	6.679281	80.406471	Warakatota Rd, Ratnapura 70000, Sri Lanka	0.468928	
Rathnapura	Rathnapura	Mudduwa Pirivena	False	False	RTHNPRRTHNPRMDDWPRVN		Ratnapura	LK-91	6.586826	80.566158	Ratnapura	PS-910101	6.679456	80.40223	6.674151	80.401313	MCF2+MG8, Ratnapura, Sri Lanka	0.598707	
Rathnapura	Rathnapura	Sivali Central College	False	False	RTHNPRRTHNPRSVLCNTRLCLLG		Ratnapura	LK-91	6.586826	80.566158	Ratnapura	PS-910101	6.679456	80.40223	6.713215	80.385002	70000, 70000 A4, Ratnapura, Sri Lanka	4.209679	
Rathnapura	Rathnapura	Elapatha Vidayalaya	False	False	RTHNPRRTHNPRLPTHVDYLY		Ratnapura	LK-91	6.586826	80.566158	Ratnapura	PS-910101	6.679456	80.40223	6.662647	80.373694	M97F+6JV, B390, Elapatha, Sri Lanka	3.665283	
Rathnapura	Pelmadulla	Mahinda Vidyalaya	False	False	RTHNPRPLMDLLMHNDVDYLY		Ratnapura	LK-91	6.586826	80.566158	Pelmadulla	PS-910117	6.632692	80.521315	6.630199	80.53881	Colombo - Batticaloa Hwy, Pelmadulla, Sri Lanka	1.952735	
Rathnapura	Pelmadulla	Nidangala Bodhiya	False	False	RTHNPRPLMDLLNDNGLBDHY		Ratnapura	LK-91	6.586826	80.566158	Pelmadulla	PS-910117	6.632692	80.521315	6.621538	80.552147	JHC2+JV6, Pelmadulla, Sri Lanka	3.625415	
Rathnapura	Kalawana	Panapola Vidyalaya	False	False	RTHNPRKLWNPNPLVDYLY		Ratnapura	LK-91	6.586826	80.566158	Kalawana	PS-910110	6.530738	80.390719	6.430037	80.44934	Panapola, Sri Lanka	12.939687	
Rathnapura	Kalawana	Meepagama Vidyalaya	False	False	RTHNPRKLWNMPGMVDYLY		Ratnapura	LK-91	6.586826	80.566158	Kalawana	PS-910110	6.530738	80.390719	6.536341	80.356644	G9P4+GMJ, Ratnapura, Sri Lanka	3.816766	
Rathnapura	Kalawana	Kudumiriya Vidyalaya	False	False	RTHNPRKLWNKDMRYVDYLY		Ratnapura	LK-91	6.586826	80.566158	Kalawana	PS-910110	6.530738	80.390719	6.535423	80.401004	GCP2+5C6, Kalawana, Sri Lanka	1.25034	
Rathnapura	Kuruwita	Mudunkotuwa Vidyalaya	False	False	RTHNPRKRWTMDNKTWVDYLY		Ratnapura	LK-91	6.586826	80.566158	Kuruwita	PS-910112	6.778839	80.364712	6.776404	80.305578	Mudunkotuwa E Rd, Ratnapura, Sri Lanka	6.537113	
Rathnapura	Kuruwita	Ranasinharama Viharaya	False	False	RTHNPRKRWTRNSNHRMVHRY		Ratnapura	LK-91	6.586826	80.566158	Kuruwita	PS-910112	6.778839	80.364712	6.77558	80.35651	Q9G4+6JJ, Kuruwita, Sri Lanka	0.975765	
Rathnapura	Kuruwita	Lellagoda Vidyalaya	False	False	RTHNPRKRWTLLLGDVDYLY		Ratnapura	LK-91	6.586826	80.566158	Kuruwita	PS-910112	6.778839	80.364712	6.788828	80.33233	Sri Sumanatissa Mawatha, Kuruwita, Sri Lanka	3.74523	
Rathnapura	Kahawatta	Gajanayaka Vidyalaya	False	False	RTHNPRKHWTTGJNYKVDYLY		Ratnapura	LK-91	6.586826	80.566158	Kahawatta	PS-910107	6.591434	80.56893	6.579766	80.579587	Kahawatta Opanayake Rd, Kahawatta, Sri Lanka	1.752426	
Rathnapura	Kahawatta	Kalalella Vidyalaya	False	False	RTHNPRKHWTTKLLLLVDYLY		Ratnapura	LK-91	6.586826	80.566158	Kahawatta	PS-910107	6.591434	80.56893	6.529789	80.577421	GHHG+WX7, Kahawatta, Sri Lanka	6.920676	
Rathnapura	Kahawatta	Keththarama Viharaya	False	False	RTHNPRKHWTTKTHTHRMVHRY		Ratnapura	LK-91	6.586826	80.566158	Kahawatta	PS-910107	6.591434	80.56893	6.533996	80.570457	Unnamed Road, Sri Lanka	6.391047	
Rathnapura	Kahawatta	Musgimi Vidyalaya	False	False	RTHNPRKHWTTMSGMVDYLY		Ratnapura	LK-91	6.586826	80.566158	Kahawatta	PS-910107	6.591434	80.56893	6.564863	80.577528	HH7H+W2R, Weladura, Sri Lanka	3.104435	
Rathnapura	Rakwana	GalawattaVidyalaya	False	False	RTHNPRRKWNGLWTTVDYLY		Ratnapura	LK-91	6.586826	80.566158	Rakwana	PS-910108	6.470133	80.613684	6.48015	80.61832	Masimbula Road, Rakwana 70300, Sri Lanka	1.226353	
Rathnapura	Eheliyagoda	MOH Office – Eheliyagoda	False	False	RTHNPRHLYGDMHFFCHLYGD		Ratnapura	LK-91	6.586826	80.566158	Ehaliyagoda	PS-910113	6.854603	80.260446	6.848679	80.264764	R7X7+FWC, Eheliyagoda, Sri Lanka	0.813375	
Rathnapura	Bulathkohupitiya	MOH Office – Bulathkohupitiya	False	False	RTHNPRBLTHKHPTYMHFFCBLTHKHPTY		Ratnapura	LK-91	6.586826	80.566158	Bulathkohupitiya	PS-920232	7.106684	80.3347	7.109127	80.334565	485M+MR4, Bulathkohupitiya, Sri Lanka	0.272143	
Anuradhapura	Anuradhapura	Army Hospital Anuradhapura	False	False	NRDHPRNRDHPRRMYHSPTLNRDHPR		Anuradhapura	LK-71	8.39199	80.512958	Anuradapura	PS-710101	8.329752	80.407265	8.338302	80.407646	AB02, Anuradhapura, Sri Lanka	0.951939	
Anuradhapura	Anuradhapura	Teaching Hospital – Anuradhapura	False	False	NRDHPRNRDHPRTCHNGHSPTLNRDHPR		Anuradhapura	LK-71	8.39199	80.512958	Anuradapura	PS-710101	8.329752	80.407265	8.324765	80.413968	Harischandra Mawatha, Anuradhapura, Sri Lanka	0.922993	
Anuradhapura	Anuradhapura	Thammanakulam Community Hall	False	False	NRDHPRNRDHPRTHMMNKLMCMMNTYHLL		Anuradhapura	LK-71	8.39199	80.512958	Anuradapura	PS-710101	8.329752	80.407265	8.315625	80.396482	898W+7H5, Anuradhapura, Sri Lanka	1.969142	
Anuradhapura	Anuradhapura	MOH Office - Nuwaragampalatha East	False	False	NRDHPRNRDHPRMHFFCNWRGMPLTHST		Anuradhapura	LK-71	8.39199	80.512958	Anuradapura	PS-710101	8.329752	80.407265	8.324809	80.412262	Kandy Rd, Anuradhapura, Sri Lanka	0.777651	
Anuradhapura	Anuradhapura	Walisinghe Harischandra Ground	False	False	NRDHPRNRDHPRWLSNGHHRSCHNDRGRND		Anuradhapura	LK-71	8.39199	80.512958	Anuradapura	PS-710101	8.329752	80.407265	8.337404	80.405697	8CP4+X78, Anuradhapura, Sri Lanka	0.868448	
Anuradhapura	Thirappane	Kattamurichchana Vidyalaya	False	False	NRDHPRTHRPPNKTTMRCHCHNVDYLY		Anuradhapura	LK-71	8.39199	80.512958	Thirappone	PS-710106	6.907289	79.863819	8.192501	80.58221	5HVJ+2V4, Anuradhapura, Sri Lanka	163.433069	#CenterFarFromPolice
Anuradhapura	Mahawilachchiya	MOH Office – Mahawilachchiya	False	False	NRDHPRMHWLCHCHYMHFFCMHWLCHCHY		Anuradhapura	LK-71	8.39199	80.512958	Mahawilachchiya	PS-710120	8.484987	80.193911	8.494303	80.186519	F5VP+PJC, Mahawilachchiya, Sri Lanka	1.317298	
Anuradhapura	Mihintale	Mihintale Hospital	False	False	NRDHPRMHNTLMHNTLHSPTL		Anuradhapura	LK-71	8.39199	80.512958	Mihintale	PS-710104	8.360062	80.511889	8.35505	80.509287	Kandy Rd, Mihintale, Sri Lanka	0.626724	
Anuradhapura	Mihintale	Mihintale Vidyalaya	False	False	NRDHPRMHNTLMHNTLVDYLY		Anuradhapura	LK-71	8.39199	80.512958	Mihintale	PS-710104	8.360062	80.511889	8.356948	80.508134	9G45+Q7C, Mihintale, Sri Lanka	0.539196	
Anuradhapura	Hidogama	Kaluwila Sena Maha Vidyalaya	False	False	NRDHPRHDGMKLWLSNMHVDYLY		Anuradhapura	LK-71	8.39199	80.512958	Hidogama	PS-710102	8.31575	80.420358	8.252403	80.423959	Kaluwila, Sri Lanka	7.057216	
Anuradhapura	Parasangaswewa	Asirikgama Vidyalaya	False	False	NRDHPRPRSNGSWWSRKGMVDYLY		Anuradhapura	LK-71	8.39199	80.512958	Parasangaswewa	PS-710123	8.650981	80.314759	8.335922	80.407513	Maithripala Senanayake Mawatha, Anuradhapura 50000, Sri Lanka	36.499283	#CenterFarFromPolice
Anuradhapura	Parasangaswewa	Aluthgama Vidyalaya	False	False	NRDHPRPRSNGSWWLTHGMVDYLY		Anuradhapura	LK-71	8.39199	80.512958	Parasangaswewa	PS-710123	8.650981	80.314759	8.422674	80.45927	A20, Sri Lanka	29.959317	#CenterFarFromPolice
Polonnaruwa	Polonnaruwa	Bendiweva Maha vidyalaya	False	False	PLNNRWPLNNRWBNDWVMHVDYLY		Polonnaruwa	LK-72	7.993659	81.026061	Polonnaruwa	PS-720125	7.924307	81.036895	7.954439	81.024595	Somawathiya Rd, Polonnaruwa, Sri Lanka	3.615125	
Polonnaruwa	Polonnaruwa	Bdiwewa Maha Vidyalaya	False	False	PLNNRWPLNNRWBDWWMHVDYLY		Polonnaruwa	LK-72	7.993659	81.026061	Polonnaruwa	PS-720125	7.924307	81.036895	7.954439	81.024595	Somawathiya Rd, Polonnaruwa, Sri Lanka	3.615125	
Polonnaruwa	Polonnaruwa	Kaduruwela Jayanthi Maha vidyalaya	False	False	PLNNRWPLNNRWKDRWLJYNTHMHVDYLY		Polonnaruwa	LK-72	7.993659	81.026061	Polonnaruwa	PS-720125	7.924307	81.036895	7.927939	81.036362	W2HP+5GH, Polonnaruwa, Sri Lanka	0.408232	
Polonnaruwa	Medirigiriya	Medirigiriya National College	False	False	PLNNRWMDRGRYMDRGRYNTNLCLLG		Polonnaruwa	LK-72	7.993659	81.026061	Medirigiriya	PS-720130	8.150847	80.984493	8.143379	80.968732	Rohala street, මැදිරිගිරිය, Sri Lanka	1.923959	
Polonnaruwa	Medirigiriya	Divulankadawala National College	False	False	PLNNRWMDRGRYDVLNKDWLNTNLCLLG		Polonnaruwa	LK-72	7.993659	81.026061	Medirigiriya	PS-720130	8.150847	80.984493	8.110764	80.952098	Thissa Amuna, Sri Lanka	5.709776	
Polonnaruwa	Bakamuna	Segala Central College	False	False	PLNNRWBKMNSGLCNTRLCLLG		Polonnaruwa	LK-72	7.993659	81.026061	Bakamuna	PS-720132	7.778789	80.816102	7.780602	80.818401	Bakamuna, Sri Lanka	0.323821	
Polonnaruwa	Bakamuna	Bakamuna Mahasen Vidyalaya	False	False	PLNNRWBKMNBKMNMHSNVDYLY		Polonnaruwa	LK-72	7.993659	81.026061	Bakamuna	PS-720132	7.778789	80.816102	7.775622	80.819812	Dambulla - Bakamuna - Kalugahawela Road, Bakamuna, Sri Lanka	0.539688	
Jaffna	Jaffna	Mobile Medical Team	False	False	JFFNJFFNMBLMDCLTM		Jaffna	LK-41	9.691792	80.098594	Jaffna	PS-410209	9.659919	80.010965					#CenterLocationUnknown
Jaffna	Jaffna	St. John's College	False	False	JFFNJFFNSTJHNSCLLG		Jaffna	LK-41	9.691792	80.098594	Jaffna	PS-410209	9.659919	80.010965	9.657495	80.026568	Main Street, Chundikuli-Columbuthurai Rd, section, Sri Lanka	1.732049	
Jaffna	Jaffna	Kevil GTM Vidyalaya	False	False	JFFNJFFNKVLGTMVDYLY		Jaffna	LK-41	9.691792	80.098594	Jaffna	PS-410209	9.659919	80.010965	9.678516	80.012338	M2H6+CW4, Jaffna, Sri Lanka	2.074012	
Jaffna	Jaffna	Mobile Vaccination	False	False	JFFNJFFNMBLVCCNTN		Jaffna	LK-41	9.691792	80.098594	Jaffna	PS-410209	9.659919	80.010965					#CenterLocationUnknown
Jaffna	Kopay	MOH Office- Nallur	False	False	JFFNKPYMHFFCNLLR		Jaffna	LK-41	9.691792	80.098594	Kopai	PS-410216	9.686887	80.03856	9.673947	80.027736	M2FH+H3H, Jaffna, Sri Lanka	1.865513	
Jaffna	Kopay	Irubalai Kandaveli Tamil College	False	False	JFFNKPYRBLKNDVLTMLCLLG		Jaffna	LK-41	9.691792	80.098594	Kopai	PS-410216	9.686887	80.03856	9.686982	80.048279	M2PX+Q8R, Jaffna, Sri Lanka	1.065681	
Jaffna	Kopay	Urumbirai Hindu College	False	False	JFFNKPYRMBRHNDCLLG		Jaffna	LK-41	9.691792	80.098594	Kopai	PS-410216	9.686887	80.03856	9.72601	80.047054	P2GW+CR3, Jaffna, Sri Lanka	4.450175	
Jaffna	Kopay	Mobile Vaccination	False	False	JFFNKPYMBLVCCNTN		Jaffna	LK-41	9.691792	80.098594	Kopai	PS-410216	9.686887	80.03856					#CenterLocationUnknown
Jaffna	Chunnagam	MOH Office - Uduvil	False	False	JFFNCHNNGMMHFFCDVL		Jaffna	LK-41	9.691792	80.098594	Chunnakam	PS-410211	9.745309	80.029151	9.742938	80.035132	P2VP+53C, Chunnakam, Sri Lanka	0.706719	
Jaffna	Chunnagam	Ellale Divya Community Hall	False	False	JFFNCHNNGMLLLDVYCMMNTYHLL		Jaffna	LK-41	9.691792	80.098594	Chunnakam	PS-410211	9.745309	80.029151	9.664467	80.010483	AB16, Jaffna, Sri Lanka	9.222033	
Jaffna	Point Pedro	Wadu Hindu Girl's College	False	False	JFFNPNTPDRWDHNDGRLSCLLG		Jaffna	LK-41	9.691792	80.098594	Point Pedro	PS-410106	9.827018	80.233187	9.817623	80.23136	Vinayaga Muthaliyaar Veethy, Point Pedro, Sri Lanka	1.064016	
Jaffna	Nelliyady	MOH Office – Karaveddy	False	False	JFFNNLLYDYMHFFCKRVDDY		Jaffna	LK-41	9.691792	80.098594	Nelliadi	PS-410108	9.778397	80.113303	9.792126	80.201799	Q6R2+VP3, Point Pedro, Sri Lanka	9.819656	
Jaffna	Thelippalai	MOH Office – Thelippalai	False	False	JFFNTHLPPLMHFFCTHLPPL		Jaffna	LK-41	9.691792	80.098594	Thelippalay	PS-410104	6.933075	79.857181	9.785272	80.032899	Q2PM+452, Tellippalai, Sri Lanka	317.838063	#CenterFarFromPolice
Jaffna	Kodikaman	DH – Varani	False	False	JFFNKDKMNDHVRN		Jaffna	LK-41	9.691792	80.098594	Kodikamam	PS-410217	9.666459	80.132384	9.681381	80.219829	Kodikamam, Kandy - Jaffna Hwy, Sri Lanka	9.73078	
Jaffna	Achchuveli	Somaskanda Vidyalaya	False	False	JFFNCHCHVLSMSKNDVDYLY		Jaffna	LK-41	9.691792	80.098594	Achchuweli	PS-410103	6.934132	79.856305	9.745655	80.104632	AB20 - Point Pedro Road Puttur west, Jaffna 40000, Sri Lanka	313.916871	#CenterFarFromPolice
Jaffna	Wadukkotte	MOH Office – Chankanai	False	False	JFFNWDKKTTMHFFCCHNKN		Jaffna	LK-41	9.691792	80.098594	Vaddukoddai		9.728886	79.947771	9.753617	79.976004	QX3G+CCR, Sri Lanka	4.140836	
Jaffna	Manippai	MOH Office – Sandilippai	False	False	JFFNMNPPMHFFCSNDLPP		Jaffna	LK-41	9.691792	80.098594	Manippai	PS-410210	9.727151	79.996905	9.749336	79.987383	Sandilipay, Sri Lanka	2.679343	
Jaffna	Kayts	MOH Office – Karainagar	False	False	JFFNKYTSMHFFCKRNGR		Jaffna	LK-41	9.691792	80.098594	Kayts	PS-410212	9.728654	79.94775	9.725097	79.99772	Sri Lanka, Manipay, Sri Lanka	5.492521	
Jaffna	Kayts	MOH Office – Valanai	False	False	JFFNKYTSMHFFCVLN		Jaffna	LK-41	9.691792	80.098594	Kayts	PS-410212	9.728654	79.94775	9.636317	79.903777	Chatty vangkalvady road, Velanai, Sri Lanka	11.346015	
Jaffna	Kayts	MOH Office – Kayts	False	False	JFFNKYTSMHFFCKYTS		Jaffna	LK-41	9.691792	80.098594	Kayts	PS-410212	9.728654	79.94775	9.697759	79.866366	Sri Lanka, Kayts, Sri Lanka	9.561445	
Jaffna	Chavakachcheri	Navatkiri AMTM Vidyalaya	False	False	JFFNCHVKCHCHRNVTKRMTMVDYLY		Jaffna	LK-41	9.691792	80.098594	Chawakachcheri	PS-410215	9.666459	80.132384	9.679424	80.095274	M3HW+Q46, Chavakachcheri, Sri Lanka	4.317041	
Jaffna	Chavakachcheri	Golden Jubilee Hall	False	False	JFFNCHVKCHCHRGLDNJBLHLL		Jaffna	LK-41	9.691792	80.098594	Chawakachcheri	PS-410215	9.666459	80.132384	9.659136	80.160946	M556+M94, Chavakachcheri, Sri Lanka	3.236063	
Kilinochchi	Kilinochchi	Mobile Medical Team	False	False	KLNCHCHKLNCHCHMBLMDCLTM		Kilinochchi	LK-45	9.415742	80.30358	Kilinochchi	PS-450131	9.392265	80.407846					#CenterLocationUnknown
Kilinochchi	Kilinochchi	MOH Office – Kanadawala	False	False	KLNCHCHKLNCHCHMHFFCKNDWL		Kilinochchi	LK-45	9.415742	80.30358	Kilinochchi	PS-450131	9.392265	80.407846	9.396965	80.407782	Kandy - Jaffna Hwy, Kilinochchi, Sri Lanka	0.522827	
Kilinochchi	Kilinochchi	MOH Office - Karachchi	False	False	KLNCHCHKLNCHCHMHFFCKRCHCH		Kilinochchi	LK-45	9.415742	80.30358	Kilinochchi	PS-450131	9.392265	80.407846	9.396965	80.407782	Kandy - Jaffna Hwy, Kilinochchi, Sri Lanka	0.522827	
Kilinochchi	Kilinochchi	MOH Office - Punakar	False	False	KLNCHCHKLNCHCHMHFFCPNKR		Kilinochchi	LK-45	9.415742	80.30358	Kilinochchi	PS-450131	9.392265	80.407846	9.396965	80.407782	Kandy - Jaffna Hwy, Kilinochchi, Sri Lanka	0.522827	
Kilinochchi	Kilinochchi	MOH Office – Palai	False	False	KLNCHCHKLNCHCHMHFFCPL		Kilinochchi	LK-45	9.415742	80.30358	Kilinochchi	PS-450131	9.392265	80.407846	7.330938	80.29484	06 A6, Polgahawela, Sri Lanka	229.618032	#CenterFarFromPolice
Kilinochchi	Pooneryn	MOH Office – Pooneryn	False	False	KLNCHCHPNRYNMHFFCPNRYN		Kilinochchi	LK-45	9.415742	80.30358	Pooneryn		9.505717	80.21101	9.507968	80.208317	G655+58P, Pooneryn, Sri Lanka	0.387256	
Kilinochchi	Mulankavil	Mulankavil Hospital	False	False	KLNCHCHMLNKVLMLNKVLHSPTL		Kilinochchi	LK-45	9.415742	80.30358	Mulankavil	PS-450135	9.254463	80.141528	9.243423	80.143894	Base Hospital Mulankavil, A32 Road, Mulankavil, Kumulamunai, Sri Lanka	1.255148	
Mullaitivu	Welioya	MOH Office – Sampathnuwara	False	False	MLLTVWLYMHFFCSMPTHNWR		Mullaitivu	LK-44	9.167643	80.549091	Welioya	PS-440152	8.980582	80.773572	8.981127	80.771815	XQJC+FP4, Welioya, Sri Lanka	0.20233	
Mullaitivu	Welioya	Sampathnuwara Hospital	False	False	MLLTVWLYSMPTHNWRHSPTL		Mullaitivu	LK-44	9.167643	80.549091	Welioya	PS-440152	8.980582	80.773572	8.98045	80.772558	XQJF+52F, Welioya, Sri Lanka	0.112368	
Mullaitivu	Mullaitivu	Anichchamkulam Tamil College	False	False	MLLTVMLLTVNCHCHMKLMTMLCLLG		Mullaitivu	LK-44	9.167643	80.549091	Mullativu	PS-440148	9.212825	80.760159	9.224412	80.782443	6QFJ+QX8, Mulliyawalai, Sri Lanka	2.765333	
Mullaitivu	Mankulam	Nattankandal Primary School	False	False	MLLTVMNKLMNTTNKNDLPRMRYSCHL		Mullaitivu	LK-44	9.167643	80.549091	Mankulam	PS-440147	9.124606	80.448404	9.376223	80.551326	9HG2+FGP, Visuvamadu, Sri Lanka	30.18211	#CenterFarFromPolice
Mullaitivu	Puthukudiyiruppu	Puthukudiyiruppu Bharathi Vidyalaya	False	False	MLLTVPTHKDYRPPPTHKDYRPPBHRTHVDYLY		Mullaitivu	LK-44	9.167643	80.549091	Pudukuduiruppu	PS-440149	7.00152	79.95003	9.31067	80.699589	8M6X+7R8, Puthukkudiyiruppu, Sri Lanka	269.778207	#CenterFarFromPolice
Mullaitivu	Puthukudiyiruppu	Mungilaru Primary School	False	False	MLLTVPTHKDYRPPMNGLRPRMRYSCHL		Mullaitivu	LK-44	9.167643	80.549091	Pudukuduiruppu	PS-440149	7.00152	79.95003	9.322944	80.702342	Puthukkudiyiruppu-Mathalan Rd, Puthukkudiyiruppu, Sri Lanka	271.170338	#CenterFarFromPolice
Mullaitivu	Puthukudiyiruppu	Devipuram Treatment Centre	False	False	MLLTVPTHKDYRPPDVPRMTRTMNTCNTR		Mullaitivu	LK-44	9.167643	80.549091	Pudukuduiruppu	PS-440149	7.00152	79.95003	9.313637	80.696168	Puthukudiyiruppu, Sri Lanka	269.977487	#CenterFarFromPolice
Mullaitivu	Puthukudiyiruppu	Sri Subramaniyam Vidyalaya	False	False	MLLTVPTHKDYRPPSRSBRMNYMVDYLY		Mullaitivu	LK-44	9.167643	80.549091	Pudukuduiruppu	PS-440149	7.00152	79.95003	9.314562	80.696594	8M7W+RJG, Puthukkudiyiruppu, Sri Lanka	270.089737	#CenterFarFromPolice
Mullaitivu	Mullaitivu	Unnapilavu Hospital – Mullaitivu	False	False	MLLTVMLLTVNNPLVHSPTLMLLTV		Mullaitivu	LK-44	9.167643	80.549091	Mullativu	PS-440148	9.212825	80.760159	9.26205	80.81366	Unnappulavu, Mullaitivu, Sri Lanka	8.029915	
Mullaitivu	Mulliyawalai	Mulliyawalai Vidyanada Vidyalaya	False	False	MLLTVMLLYWLMLLYWLVDYNDVDYLY		Mullaitivu	LK-44	9.167643	80.549091	Muliyaweli	PS-440150	6.915266	79.87829	9.224239	80.774541	6QFF+MRV, Tanniyutttu, Sri Lanka	275.137621	#CenterFarFromPolice
Mullaitivu	Oddusuddan	MOH Office – Oddusuddan	False	False	MLLTVDDSDDNMHFFCDDSDDN		Mullaitivu	LK-44	9.167643	80.549091	Oddusudan	PS-440151	9.160983	80.652821	9.162816	80.661584	5M76+4JG, Oddusuddan, Sri Lanka	0.983634	
Trincomalee	Muttur	MOH Office – Muttur	False	False	TRNCMLMTTRMHFFCMTTR		Trincomalee	LK-53	8.551241	81.092014	Mutur	PS-530138	8.461133	81.259371	8.453916	81.264494	1 Old Batticaloa Rd, Mutur, Sri Lanka	0.980859	
Trincomalee	Muttur	Kalemahal Vidyalaya	False	False	TRNCMLMTTRKLMHLVDYLY		Trincomalee	LK-53	8.551241	81.092014	Mutur	PS-530138	8.461133	81.259371	8.574433	81.234967	Dockyard Rd, Trincomalee, Sri Lanka	12.885068	
Trincomalee	Muttur	Pallekudiirippu Kale Mahal Vidyalaya	False	False	TRNCMLMTTRPLLKDRPPKLMHLVDYLY		Trincomalee	LK-53	8.551241	81.092014	Mutur	PS-530138	8.461133	81.259371	8.449646	81.26789	1 Old Batticaloa Rd, Mutur, Sri Lanka	1.584607	
Trincomalee	Muttur	Ralkuli Vidyalaya	False	False	TRNCMLMTTRRLKLVDYLY		Trincomalee	LK-53	8.551241	81.092014	Mutur	PS-530138	8.461133	81.259371	8.447261	81.243706	Ralkuli Bridge, Trincomalee Hwy, Sri Lanka	2.313261	
Trincomalee	Kinniya	MOH Office – Kurungnakeni	False	False	TRNCMLKNNYMHFFCKRNGNKN		Trincomalee	LK-53	8.551241	81.092014	Kinnia	PS-530140	6.907289	79.863819	7.484932	80.353119	F9M3+X6H, Kurunegala 60000, Sri Lanka	83.927094	#CenterFarFromPolice
Trincomalee	Kinniya	MOH Office – Kinniya	False	False	TRNCMLKNNYMHFFCKNNY		Trincomalee	LK-53	8.551241	81.092014	Kinnia	PS-530140	6.907289	79.863819	8.498696	81.179644	F5XH+FVC, Kinniya 31100, Sri Lanka	228.840304	#CenterFarFromPolice
Trincomalee	Kinniya	Kinniya Hospital	False	False	TRNCMLKNNYKNNYHSPTL		Trincomalee	LK-53	8.551241	81.092014	Kinnia	PS-530140	6.907289	79.863819	8.501539	81.187539	Tampalakamam-Kinniya Rd, Kinniya 31100, Sri Lanka	229.636589	#CenterFarFromPolice
Trincomalee	Kinniya	Base Hospital Kinniya	False	False	TRNCMLKNNYBSHSPTLKNNY		Trincomalee	LK-53	8.551241	81.092014	Kinnia	PS-530140	6.907289	79.863819	8.501539	81.187539	Tampalakamam-Kinniya Rd, Kinniya 31100, Sri Lanka	229.636589	#CenterFarFromPolice
Trincomalee	Sripura	MOH Office – Sripura	False	False	TRNCMLSRPRMHFFCSRPR		Trincomalee	LK-53	8.551241	81.092014	Sripura	PS-530136	8.929617	80.81428	8.926697	80.814799	Padavi Sripura, Padaviya - Sripura Road, Welioya, Sri Lanka	0.329869	
Trincomalee	Kuchchaveli	MOH Office – Kuchchaveli	False	False	TRNCMLKCHCHVLMHFFCKCHCHVL		Trincomalee	LK-53	8.551241	81.092014	Kuchchaweli	PS-530133	8.81895	81.100438	8.740082	81.161616	P5R6+2JQ, Kumpurupiddi, Sri Lanka	11.053646	
Trincomalee	Kuchchaveli	Divisional Hospital – Kuchchaveli	False	False	TRNCMLKCHCHVLDVSNLHSPTLKCHCHVL		Trincomalee	LK-53	8.551241	81.092014	Kuchchaweli	PS-530133	8.81895	81.100438	8.814795	81.102358	R472+WW9, Kuchchaveli, Sri Lanka	0.508064	
Trincomalee	Kuchchaveli	Divisional Hospital – Nilaveli	False	False	TRNCMLKCHCHVLDVSNLHSPTLNLVL		Trincomalee	LK-53	8.551241	81.092014	Kuchchaweli	PS-530133	8.81895	81.100438	8.681035	81.193632	M5JV+CF6, Nilaveli, Sri Lanka	18.44695	
Trincomalee	Pulmoddai	Base Hospital -Pulmoddai	False	False	TRNCMLPLMDDBSHSPTLPLMDD		Trincomalee	LK-53	8.551241	81.092014	Pulmudai	PS-530135	6.915266	79.87829	8.941204	80.983139	WXRM+F7J, Pulmoddai, Sri Lanka	256.112801	#CenterFarFromPolice
Trincomalee	Serunuwara	MOH Office – Serunuwara	False	False	TRNCMLSRNWRMHFFCSRNWR		Trincomalee	LK-53	8.551241	81.092014	Serunuwara	PS-530244	8.321863	81.299322	8.323143	81.299894	B10, Sri Lanka	0.155671	
Trincomalee	Harbour Police	MOH Office – Trincomalee	False	False	TRNCMLHRBRPLCMHFFCTRNCML		Trincomalee	LK-53	8.551241	81.092014	Trinco Harbour Police	PS-530131	8.56705	81.231407	8.598974	81.216963	MOH Office, Farm Rd, Trincomalee, Sri Lanka	3.890062	
Trincomalee	Harbour Police	Base Hospital – Trincomalee	False	False	TRNCMLHRBRPLCBSHSPTLTRNCML		Trincomalee	LK-53	8.551241	81.092014	Trinco Harbour Police	PS-530131	8.56705	81.231407	8.56486	81.239445	Hospital Ln, Trincomalee, Sri Lanka	0.917037	
Trincomalee	Uppuveli	MOH Office - Uppuveli	False	False	TRNCMLPPVLMHFFCPPVL		Trincomalee	LK-53	8.551241	81.092014	Uppuweli	PS-530134	8.593614	81.21743	8.607961	81.216512	Nilaveli Rd, Trincomalee, Sri Lanka	1.599005	
Trincomalee	Kantale	MOH Office - Kantale	False	False	TRNCMLKNTLMHFFCKNTL		Trincomalee	LK-53	8.551241	81.092014	Kantale	PS-530241	8.356129	81.007739	8.349617	81.009107	අග්‍රබෝධි මාවත, Kantale, Sri Lanka	0.739809	
Trincomalee	Ichchalampattu	MOH Office – Ichchalampattu	False	False	TRNCMLCHCHLMPTTMHFFCCHCHLMPTT	Eachchilampattu Hospital	Trincomalee	LK-53	8.551241	81.092014	Ichchalampattu		8.289549	81.359002	8.289644	81.358983	Highway, Ichchalampattu, Trincomalee, Sri Lanka	0.010772	
Trincomalee	Thambalagamuwa	MOH Office - Thambalagamuwa	False	False	TRNCMLTHMBLGMWMHFFCTHMBLGMW		Trincomalee	LK-53	8.551241	81.092014	Thambalagamuva	PS-530243	6.907289	79.863819	8.563603	81.239584	Hospital Ln, Trincomalee, Sri Lanka	238.604889	#CenterFarFromPolice
Batticaloa	Batticaloa	Mobile Medical Team	False	False	BTTCLBTTCLMBLMDCLTM		Batticaloa	LK-51	7.792772	81.486513	Batticaloa	PS-510101	7.717949	81.699294					#CenterLocationUnknown
Batticaloa	Kokkadicholai	Mahiladithivu Vidyalaya	False	False	BTTCLKKKDCHLMHLDTHVVDYLY		Batticaloa	LK-51	7.792772	81.486513	Kokkadicholai	PS-510112	7.715979	81.698757	7.623008	81.719383	Muthalaikudah Kanchirankudah Rd, Batticaloa, Sri Lanka	10.588158	
Batticaloa	Vellawali	Thikkodaya Tamil College	False	False	BTTCLVLLWLTHKKDYTMLCLLG		Batticaloa	LK-51	7.792772	81.486513	Vellavali	PS-510111	6.907289	79.863819	8.12458	81.43356	4CFM+RCM, Sri Lanka	219.763448	#CenterFarFromPolice
Batticaloa	Vellawali	Thumpankeni Tamil College	False	False	BTTCLVLLWLTHMPNKNTMLCLLG		Batticaloa	LK-51	7.792772	81.486513	Vellavali	PS-510111	6.907289	79.863819	7.505166	81.784614	GQ4M+3R9, Kaluwanchikudy, Sri Lanka	222.148428	#CenterFarFromPolice
Batticaloa	Vellawali	Kovil Portivu Tamil College	False	False	BTTCLVLLWLKVLPRTVTMLCLLG		Batticaloa	LK-51	7.792772	81.486513	Vellavali	PS-510111	6.907289	79.863819	7.5182	81.75479	kovilporathivu, Sri Lanka	219.452145	#CenterFarFromPolice
Batticaloa	Valachchenai	Valachchenai Base Hospital	False	False	BTTCLVLCHCHNVLCHCHNBSHSPTL		Batticaloa	LK-51	7.792772	81.486513	Valachchanai	PS-510107	7.908015	81.533004	7.911315	81.533046	Valaichchenai-Nasuvantivu-Navaladi Road, Sri Lanka	0.367088	
Batticaloa	Valachchenai	MOH Office – Oddamavadi	False	False	BTTCLVLCHCHNMHFFCDDMVD		Batticaloa	LK-51	7.792772	81.486513	Valachchanai	PS-510107	7.908015	81.533004	7.912281	81.532775	WG6M+W46, Batticaloa, Sri Lanka	0.475177	
Batticaloa	Valachchenai	MOH Office - Koralepattu Central	False	False	BTTCLVLCHCHNMHFFCKRLPTTCNTRL		Batticaloa	LK-51	7.792772	81.486513	Valachchanai	PS-510107	7.908015	81.533004	7.922593	81.530022	Batticaloa, Sri Lanka	1.654455	
Batticaloa	Valachchenai	MOH Office - Koralepattu	False	False	BTTCLVLCHCHNMHFFCKRLPTT		Batticaloa	LK-51	7.792772	81.486513	Valachchanai	PS-510107	7.908015	81.533004	7.922593	81.530022	WGFJ+22J, Sri Lanka	1.654455	
Batticaloa	Valachchenai	MOH Office – Kiran	False	False	BTTCLVLCHCHNMHFFCKRN		Batticaloa	LK-51	7.792772	81.486513	Valachchanai	PS-510107	7.908015	81.533004	7.623441	81.717877	Muthalaikudah Kanchirankudah Rd, Sri Lanka	37.64378	#CenterFarFromPolice
Batticaloa	Vakarai	MOH Office - Vakarai	False	False	BTTCLVKRMHFFCVKR	Divisional Hospital Vakarai	Batticaloa	LK-51	7.792772	81.486513	Wakarai	PS-510109	6.934132	79.856305	8.134552	81.435328	Trincomalee Hwy, Vakarai, Sri Lanka	219.417822	#CenterFarFromPolice
Batticaloa	Eravur	Sandiveli Hospital	False	False	BTTCLRVRSNDVLHSPTL		Batticaloa	LK-51	7.792772	81.486513	Eravur	PS-510104	7.715979	81.698757	7.777289	81.602853	Trincomalee Hwy, Eravur, Sri Lanka	12.578998	
Batticaloa	Eravur	MOH Office – Eravur	False	False	BTTCLRVRMHFFCRVR		Batticaloa	LK-51	7.792772	81.486513	Eravur	PS-510104	7.715979	81.698757	7.783664	81.605626	QJM4+F76, Eravur, Sri Lanka	12.729342	
Batticaloa	Eravur	Eravur Hospital	False	False	BTTCLRVRRVRHSPTL		Batticaloa	LK-51	7.792772	81.486513	Eravur	PS-510104	7.715979	81.698757	7.783168	81.605999	QJM4+799, Eravur 30300, Sri Lanka	12.663585	
Batticaloa	Eravur	Badurdeen Vidyalaya	False	False	BTTCLRVRBDRDNVDYLY		Batticaloa	LK-51	7.792772	81.486513	Eravur	PS-510104	7.715979	81.698757	7.792395	81.60168	QJR2+XM3, Eravur, Sri Lanka	13.664435	
Batticaloa	Eravur	Mobile Vaccination	False	False	BTTCLRVRMBLVCCNTN		Batticaloa	LK-51	7.792772	81.486513	Eravur	PS-510104	7.715979	81.698757					#CenterLocationUnknown
Batticaloa	Eravur	Mawadiwembu Hospital	False	False	BTTCLRVRMWDWMBHSPTL		Batticaloa	LK-51	7.792772	81.486513	Eravur	PS-510104	7.715979	81.698757	7.808545	81.566328	Mawadiwembu Hospital, Sri Lanka	17.861302	
Batticaloa	Eravur	MOH Office – Chenkaladi	False	False	BTTCLRVRMHFFCCHNKLD		Batticaloa	LK-51	7.792772	81.486513	Eravur	PS-510104	7.715979	81.698757	7.783599	81.593367	Trincomalee Hwy, Chenkaladi 30350, Sri Lanka	13.837876	
Batticaloa	Eravur	Chenkaladi Hospital	False	False	BTTCLRVRCHNKLDHSPTL		Batticaloa	LK-51	7.792772	81.486513	Eravur	PS-510104	7.715979	81.698757	7.783546	81.589961	Batticaloa Rd, Chenkaladi, Sri Lanka	14.151406	
Batticaloa	Karadiyanaru	Karadiyanaru Hospital	False	False	BTTCLKRDYNRKRDYNRHSPTL		Batticaloa	LK-51	7.792772	81.486513	Karadiyanaru	PS-510105	7.701992	81.537252	7.700216	81.539779	PG2Q+3WJ, Karadiyanaru, Sri Lanka	0.341482	
Ampara	Ampara	Ampara Hospital	False	False	MPRMPRMPRHSPTL		Ampara	LK-52	7.23699	81.550391	Ampara	PS-520113	7.296771	81.677161	7.298334	81.690841	Dharmapala Mawatha, Ampara, Sri Lanka	1.519279	
Ampara	Chavalakade	MOH Office – Navidanveli	False	False	MPRCHVLKDMHFFCNVDNVL		Ampara	LK-52	7.23699	81.550391	Chawalakade	PS-520125	7.413559	81.776822	7.420081	81.788401	B77, Sri Lanka	1.468805	
Ampara	Dehiattakandiya	MOH Office – Dehiattakandiya	False	False	MPRDHTTKNDYMHFFCDHTTKNDY		Ampara	LK-52	7.23699	81.550391	Dehiaththakandiya	PS-520121	7.672072	81.044241	7.67421	81.045286	Office of the Medical Officer of Health, Dehiattakandiya, Sri Lanka	0.264241	
Ampara	Karaitivu	MOH Office – Karaitivu	False	False	MPRKRTVMHFFCKRTV		Ampara	LK-52	7.23699	81.550391	Karaitivu		9.744059	79.870587	7.377712	81.838796	Colombo-Ratnapura-Wellawaya-Batticaloa Highway, Karativu 32250, Sri Lanka	340.788666	#CenterFarFromPolice
Ampara	Karaitivu	Sanmuha Vidyalaya	False	False	MPRKRTVSNMHVDYLY		Ampara	LK-52	7.23699	81.550391	Karaitivu		9.744059	79.870587	7.368576	81.84344	Shanmuga Maha Vidyalaya, Karaitivu 32250, Sri Lanka	341.89962	#CenterFarFromPolice
Ampara	Karaitivu	RKM Vidyalaya	False	False	MPRKRTVRKMVDYLY		Ampara	LK-52	7.23699	81.550391	Karaitivu		9.744059	79.870587	7.382042	81.843013	Central Rd, Karaitivu 32250, Sri Lanka	340.711182	#CenterFarFromPolice
Ampara	Karaitivu	Al Husen Vidyalaya	False	False	MPRKRTVLHSNVDYLY		Ampara	LK-52	7.23699	81.550391	Karaitivu		9.744059	79.870587	7.388044	81.841647	Maligaroad, Karaitivu, Kalmunai 32250, Sri Lanka	340.099835	#CenterFarFromPolice
Ampara	Kalmunai	Ashraff Memorial Hospital	False	False	MPRKLMNSHRFFMMRLHSPTL		Ampara	LK-52	7.23699	81.550391	Kalmunai	PS-520123	7.414289	81.825006	7.403172	81.831146	A4, Ashraff Memorial Base Hospital, A4 A4, Kalmunai 32300, Sri Lanka	1.409859	
Ampara	Kalmunai	Ramakrishna Mission College	False	False	MPRKLMNRMKRSHNMSSNCLLG		Ampara	LK-52	7.23699	81.550391	Kalmunai	PS-520123	7.414289	81.825006	7.412373	81.828629	Udyar Rd, Kalmunai 32300, Sri Lanka	0.452893	
Ampara	Kalmunai	Base Hospital - Kalmunai North	False	False	MPRKLMNBSHSPTLKLMNNRTH		Ampara	LK-52	7.23699	81.550391	Kalmunai	PS-520123	7.414289	81.825006	7.420034	81.82232	hospital near, Kalmunai 32300, Sri Lanka	0.704353	
Ampara	Kalmunai	MOH Office - Kalmunai South	False	False	MPRKLMNMHFFCKLMNSTH		Ampara	LK-52	7.23699	81.550391	Kalmunai	PS-520123	7.414289	81.825006	7.411712	81.838462	CR6Q+M9P, Kalmunai 32300, Sri Lanka	1.511625	
Ampara	Kalmunai	Al Bahariya National College	False	False	MPRKLMNLBHRYNTNLCLLG		Ampara	LK-52	7.23699	81.550391	Kalmunai	PS-520123	7.414289	81.825006	7.399481	81.839854	Zahira College Rd, Sainthamaruthu 32280, Sri Lanka	2.32275	
Ampara	Kalmunai	Al Manar Central College	False	False	MPRKLMNLMNRCNTRLCLLG		Ampara	LK-52	7.23699	81.550391	Kalmunai	PS-520123	7.414289	81.825006	7.436331	81.812701	Maruthamunai, Sri Lanka	2.802316	
Ampara	Kalmunai	Al Madina Vidyalaya	False	False	MPRKLMNLMDNVDYLY		Ampara	LK-52	7.23699	81.550391	Kalmunai	PS-520123	7.414289	81.825006	7.434363	81.817655	03 Mashoor Moulana Rd, Maruthamunai 32314, Sri Lanka	2.375481	
Ampara	Kalmunai	MOH Office - Kalmunai North	False	False	MPRKLMNMHFFCKLMNNRTH		Ampara	LK-52	7.23699	81.550391	Kalmunai	PS-520123	7.414289	81.825006	7.411712	81.838462	CR6Q+M9P, Kalmunai 32300, Sri Lanka	1.511625	
Ampara	Sainthamarthu	MOH Office – Sainthamarthu	False	False	MPRSNTHMRTHMHFFCSNTHMRTH		Ampara	LK-52	7.23699	81.550391									#PoliceLocationUnknown
Ampara	Sainthamarthu	Saindamarudu Hospital	False	False	MPRSNTHMRTHSNDMRDHSPTL		Ampara	LK-52	7.23699	81.550391									#PoliceLocationUnknown
Ampara	Sammanthurai	Sammanthurai Base Hospital	False	False	MPRSMMNTHRSMMNTHRBSHSPTL		Ampara	LK-52	7.23699	81.550391	Samanthurai	PS-520124	7.365785	81.810859	7.368355	81.813042	9R96+MWM, Hospital Rd, Sammanthurai, Sri Lanka	0.373773	
Ampara	Sammanthurai	MOH Office – Nintavur	False	False	MPRSMMNTHRMHFFCNNTVR		Ampara	LK-52	7.23699	81.550391	Samanthurai	PS-520124	7.365785	81.810859	7.352821	81.856939	Hospital Rd, Nintavur 32340, Sri Lanka	5.283925	
Ampara	Sammanthurai	Nintavur Hospital	False	False	MPRSMMNTHRNNTVRHSPTL		Ampara	LK-52	7.23699	81.550391	Samanthurai	PS-520124	7.365785	81.810859	7.353372	81.856852	Hospital Rd, Nintavur, Sri Lanka	5.258159	
Ampara	Sammanthurai	Al Maskar Balika Vidyalaya	False	False	MPRSMMNTHRLMSKRBLKVDYLY		Ampara	LK-52	7.23699	81.550391	Samanthurai	PS-520124	7.365785	81.810859	7.357484	81.795105	Sammanthurai, Sri Lanka	1.967921	
Ampara	Sammanthurai	Darussalam Vidyalaya	False	False	MPRSMMNTHRDRSSLMVDYLY		Ampara	LK-52	7.23699	81.550391	Samanthurai	PS-520124	7.365785	81.810859	7.357562	81.802725	9R53+23H, Sammanthurai, Sri Lanka	1.281286	
Ampara	Sammanthurai	Madina Vidyalaya	False	False	MPRSMMNTHRMDNVDYLY		Ampara	LK-52	7.23699	81.550391	Samanthurai	PS-520124	7.365785	81.810859	7.35018	81.80359	Kallarichchel 02, Sammanthurai, Sri Lanka	1.912014	
Ampara	Sammanthurai	Kannahi Vidyalaya	False	False	MPRSMMNTHRKNNHVDYLY		Ampara	LK-52	7.23699	81.550391	Samanthurai	PS-520124	7.365785	81.810859	7.35018	81.80359	Kallarichchel 02, Sammanthurai, Sri Lanka	1.912014	
Ampara	Sammanthurai	Al Marjan Vidyalaya	False	False	MPRSMMNTHRLMRJNVDYLY		Ampara	LK-52	7.23699	81.550391	Samanthurai	PS-520124	7.365785	81.810859	7.363356	81.799869	9Q7X+8WX, Sammanthurai, Sri Lanka	1.242072	
Ampara	Thirukkovil	MOH Office – Thirukkovil	False	False	MPRTHRKKVLMHFFCTHRKKVL		Ampara	LK-52	7.23699	81.550391	Thirukkovil	PS-520127	7.113998	81.852219	7.111635	81.852892	Central Rd, Vinayagapuram, Sri Lanka	0.273131	
Ampara	Akkaraipattu	Akkaraipattu Nuraniya Church	False	False	MPRKKRPTTKKRPTTNRNYCHRCH		Ampara	LK-52	7.23699	81.550391	Akkaraipattu	PS-520126	7.216084	81.853254	7.217154	81.849717	Sagama Rd, Akkaraipattu, Sri Lanka	0.408046	
Ampara	Akkaraipattu	Nuraniya Mosque	False	False	MPRKKRPTTNRNYMSQ		Ampara	LK-52	7.23699	81.550391	Akkaraipattu	PS-520126	7.216084	81.853254	7.223051	81.842753	6RFV+64C, Akkaraipattu, Sri Lanka	1.39401	
Ampara	Akkaraipattu	Kovil Vinayagar Vidayalaya	False	False	MPRKKRPTTKVLVNYGRVDYLY		Ampara	LK-52	7.23699	81.550391	Akkaraipattu	PS-520126	7.216084	81.853254	7.198526	81.849358	Akkaraipattu-Sagamam Rd, Sri Lanka	1.999736	
Ampara	Akkaraipattu	Palamuna Muslim Vidyalaya	False	False	MPRKKRPTTPLMNMSLMVDYLY		Ampara	LK-52	7.23699	81.550391	Akkaraipattu	PS-520126	7.216084	81.853254	7.225665	81.838179	MCC Road, Akkaraipattu-06, Akkaraipattu 32400, Sri Lanka	1.975577	
Ampara	Akkaraipattu	Oluwil Hamra Vidyalaya	False	False	MPRKKRPTTLWLHMRVDYLY		Ampara	LK-52	7.23699	81.550391	Akkaraipattu	PS-520126	7.216084	81.853254	7.290277	81.857414	7VR4+4X7, Oluvil, Sri Lanka	8.265231	
Ampara	Akkaraipattu	Badur Mosque	False	False	MPRKKRPTTBDRMSQ		Ampara	LK-52	7.23699	81.550391	Akkaraipattu	PS-520126	7.216084	81.853254	7.21798	81.859573	Deens Road, Akkaraipattu, Sri Lanka	0.728487	
Ampara	Akkaraipattu	Alsiraj Vidyalaya	False	False	MPRKKRPTTLSRJVDYLY		Ampara	LK-52	7.23699	81.550391	Akkaraipattu	PS-520126	7.216084	81.853254	7.219333	81.85313	Akkaraipattu, Sri Lanka	0.361645	
Ampara	Akkaraipattu	MOH Office – Addalachenai	False	False	MPRKKRPTTMHFFCDDLCHN		Ampara	LK-52	7.23699	81.550391	Akkaraipattu	PS-520126	7.216084	81.853254	7.260916	81.853493	7V63+999, Addalaichenai, Sri Lanka	4.986726	
Ampara	Akkaraipattu	Addalachenai Hospital	False	False	MPRKKRPTTDDLCHNHSPTL		Ampara	LK-52	7.23699	81.550391	Akkaraipattu	PS-520126	7.216084	81.853254	7.253287	81.853598	Colombo - Batticaloa Hwy, Addalachchena, Sri Lanka	4.138258	
Ampara	Akkaraipattu	Addalachenai National College	False	False	MPRKKRPTTDDLCHNNTNLCLLG		Ampara	LK-52	7.23699	81.550391	Akkaraipattu	PS-520126	7.216084	81.853254	7.248937	81.857951	Addalaichenai, Sri Lanka	3.690806	
Ampara	Akkaraipattu	MOH Office - Alayadivembu	False	False	MPRKKRPTTMHFFCLYDVMB		Ampara	LK-52	7.23699	81.550391	Akkaraipattu	PS-520126	7.216084	81.853254	7.228134	81.851123	6VH2+7C5, Akkaraipattu, Sri Lanka	1.360772	
Ampara	Pottuvil	Hidayapuram Health Centre	False	False	MPRPTTVLHDYPRMHLTHCNTR		Ampara	LK-52	7.23699	81.550391	Pothuvil	PS-520128	6.878387	81.826859	6.869819	81.831263	Panama Rd, Pottuvil, Sri Lanka	1.069936	
Ampara	Pottuvil	Base Hospital – Pottuvil	False	False	MPRPTTVLBSHSPTLPTTVL		Ampara	LK-52	7.23699	81.550391	Pothuvil	PS-520128	6.878387	81.826859	6.876098	81.830463	Main Street Colombo - Batticaloa Hwy, Pottuvil 32500, Sri Lanka	0.47246	
Ampara	Pottuvil	Pottuvil Central College	False	False	MPRPTTVLPTTVLCNTRLCLLG		Ampara	LK-52	7.23699	81.550391	Pothuvil	PS-520128	6.878387	81.826859	6.879508	81.835585	Pottuvil, Sri Lanka	0.971748	
Ampara	Pottuvil	Bahiriya Vidyalaya	False	False	MPRPTTVLBHRYVDYLY		Ampara	LK-52	7.23699	81.550391	Pothuvil	PS-520128	6.878387	81.826859	6.86413	81.834297	VR7M+MP3, Pottuvil, Sri Lanka	1.785902	
Ampara	Pottuvil	Al Huda Vidyalaya	False	False	MPRPTTVLLHDVDYLY		Ampara	LK-52	7.23699	81.550391	Pothuvil	PS-520128	6.878387	81.826859	7.244244	81.745885	Irakkamam, Eragama, Sri Lanka	41.664323	#CenterFarFromPolice
Ampara	Panama	Panama Health Centre	False	False	MPRPNMPNMHLTHCNTR		Ampara	LK-52	7.23699	81.550391	Panama	PS-520129	6.752004	81.79349	6.755913	81.804416	Panama-Kumbukkana Rd, Panama, Sri Lanka	1.282797	
