district	police	center	dose1	dose2	fuzzy_key	alt_name	district_name_norm	district_id	district_lat	district_lng	ps_name_norm	ps_id	ps_lat	ps_lng	lat	lng	formatted_address	dis_center_to_police	tags
Colombo	Cinnamon Gardens	Viharamahadevi Park	True	True	CLMBCNNMNGRDNSVHRMHDVPRK		Colombo	LK-11	6.869636	80.019598	Cinnamon Garden	PS-110324	6.907289	79.863819	6.913391	79.86174	Viharamahadevi Park, Colombo, Sri Lanka	0.716497	
Colombo	Grandpass	Sugathadasa Outdoor Stadium	False	True	CLMBGRNDPSSSGTHDSTDRSTDM		Colombo	LK-11	6.869636	80.019598	Grandpass	PS-110215	6.949052	79.872983	6.94806	79.868842	Prince of Wales Ave, Colombo 01400, Sri Lanka	0.470345	
Colombo	Boralesgamuwa	Kotelawala Defence Hospital	False	True	CLMBBRLSGMWKTLWLDFNCHSPTL		Colombo	LK-11	6.869636	80.019598	Boralesgamuwa	PS-110464	6.841331	79.901255	6.82518	79.907167	RWG4+3VF, Boralesgamuwa, Sri Lanka	1.911444	
Colombo	Narahenpita	Army Hospital Narahenpita	False	False	CLMBNRHNPTRMYHSPTLNRHNPT		Colombo	LK-11	6.869636	80.019598	Narahenpita	PS-110321	6.891832	79.876715	6.900252	79.87618	08 Elvitigala Mawatha, Colombo 00800, Sri Lanka	0.938417	
Colombo	Boralesgamuwa	MOH Office - Werahera	False	False	CLMBBRLSGMWMHFFCWRHR		Colombo	LK-11	6.869636	80.019598	Boralesgamuwa	PS-110464	6.841331	79.901255	6.833094	79.905583	RWM4+66P, Boralesgamuwa, Sri Lanka	1.033386	
Colombo	Maradana	Colombo National Hospital	False	False	CLMBMRDNCLMBNTNLHSPTL		Colombo	LK-11	6.869636	80.019598	Maradana	PS-110107	6.927939	79.865471	6.918743	79.868992	Colombo 00700, Sri Lanka	1.094265	
Colombo	Borella	St. Luke's Church - Borella	False	False	CLMBBRLLSTLKSCHRCHBRLL		Colombo	LK-11	6.869636	80.019598	Borella	PS-110323	6.915266	79.87829	6.918035	79.874548	1091 Gnanartha Pradeepa Mawatha, Colombo 00800, Sri Lanka	0.515354	
Colombo	Wellawatta	MOH Office - Wellawatta	False	False	CLMBWLLWTTMHFFCWLLWTT		Colombo	LK-11	6.869636	80.019598	Wellawatta	PS-110320	6.873107	79.86167	6.874483	79.861558	235 Galle Rd, Colombo, Sri Lanka	0.153551	
Colombo	Fore shore	MOH Office - Jinthupitiya	False	False	CLMBFRSHRMHFFCJNTHPTY		Colombo	LK-11	6.869636	80.019598	Fore shore	PS-110210	6.949589	79.857355	6.943258	79.859238	No.27 Vivekananda Hill, Colombo 01300, Sri Lanka	0.734247	
Colombo	Fort	Navy Headquarters	False	False	CLMBFRTNVYHDQRTRS		Colombo	LK-11	6.869636	80.019598	Fort	PS-110105	6.9334	79.842895	6.936952	79.842104	WRPR+QRQ, Colombo, Sri Lanka	0.404627	
Colombo	Wellampitiya	MOH Office - Kolonnawa	False	False	CLMBWLLMPTYMHFFCKLNNW		Colombo	LK-11	6.869636	80.019598	Wellampitiya	PS-110465	6.937514	79.896298	6.938303	79.889664	25 Pansalhena 1st Ln, 10600, Sri Lanka	0.737734	
Colombo	Nawagamuwa	MOH Office - Kaduwela	False	False	CLMBNWGMWMHFFCKDWL		Colombo	LK-11	6.869636	80.019598	Nawagamuwa	PS-110468	6.925169	80.017207	6.934127	79.984398	B263, Kaduwela, Sri Lanka	3.75721	
Gampaha	Katunayaka	MOH Office - Seeduwa	False	False	GMPHKTNYKMHFFCSDW		Gampaha	LK-12	7.123598	80.018508	Katunayaka	PS-120358	7.165898	79.882607	7.131527	79.879964	24 Kotugoda Rd, Katunayake 11410, Sri Lanka	3.834192	
Gampaha	Gampaha	MOH Office - Gampaha	False	False	GMPHGMPHMHFFCGMPH		Gampaha	LK-12	7.123598	80.018508	Gampaha	PS-120237	7.087765	80.01228	7.090643	80.002094	Colombo Rd, Gampaha, Sri Lanka	1.16901	
Gampaha	Nittambuwa	Kiththammahara Vidyalaya	False	False	GMPHNTTMBWKTHTHMMHRVDYLY		Gampaha	LK-12	7.123598	80.018508	Nittambuwa	PS-120246	7.149726	80.10046	7.132516	80.106428	44M4+2H3, Nittambuwa, Sri Lanka	2.024416	
Gampaha	Nittambuwa	Ranpokunagama Maha Vidyalaya	False	False	GMPHNTTMBWRNPKNGMMHVDYLY		Gampaha	LK-12	7.123598	80.018508	Nittambuwa	PS-120246	7.149726	80.10046	7.132516	80.106428	44M4+2H3, Nittambuwa, Sri Lanka	2.024416	
Gampaha	Nittambuwa	Kahatowita Albadriya College	False	False	GMPHNTTMBWKHTWTLBDRYCLLG		Gampaha	LK-12	7.123598	80.018508	Nittambuwa	PS-120246	7.149726	80.10046	7.097455	80.112239	Kahatowita, Sri Lanka	5.957672	
Gampaha	Nittambuwa	Ellakkala Maha Vidyalaya	False	False	GMPHNTTMBWLLKKLMHVDYLY		Gampaha	LK-12	7.123598	80.018508	Nittambuwa	PS-120246	7.149726	80.10046	7.132287	80.137212	Pasyala - Attanagalla Rd, Allalamulla, Sri Lanka	4.496156	
Gampaha	Divulapitiya	MOH Office - Divulapitiya	False	False	GMPHDVLPTYMHFFCDVLPTY		Gampaha	LK-12	7.123598	80.018508	Diulapitiya	PS-120355	7.174215	79.957874	7.215486	80.013606	6287+5CX, Divulapitiya, Sri Lanka	7.67456	
Gampaha	Katana	MOH Office - Katana	False	False	GMPHKTNMHFFCKTN		Gampaha	LK-12	7.123598	80.018508	Katana	PS-120360	7.224796	79.880015	7.22436	79.88271	Katana, Negombo - Mirigama Rd, Negombo, Sri Lanka	0.301313	
Gampaha	Negombo	Town Hall - Negombo	False	False	GMPHNGMBTWNHLLNGMB		Gampaha	LK-12	7.123598	80.018508	Negombo	PS-120351	7.224796	79.880015	7.206667	79.851863	Negombo, Sri Lanka	3.703623	
Gampaha	Biyagama	Makola Community Hall	False	False	GMPHBYGMMKLCMMNTYHLL		Gampaha	LK-12	7.123598	80.018508	Biyagama	PS-120131	6.962284	80.009037	6.978008	79.936628	336 Makola Rd, Kiribathgoda, Sri Lanka	8.183596	
Gampaha	Biyagama	Daranagama Maternity Clinic	False	False	GMPHBYGMDRNGMMTRNTYCLNC		Gampaha	LK-12	7.123598	80.018508	Biyagama	PS-120131	6.962284	80.009037	6.977261	79.997929	609, Kumarapeli Mawatha, Daranagama, 11700, Sri Lanka	2.06864	
Gampaha	Ja Ela	MOH Office - Ja Ela	False	False	GMPHJLMHFFCJL		Gampaha	LK-12	7.123598	80.018508	Ja - Ela	PS-120133	7.081055	79.890504	7.075216	79.893879	60 Mount Kalvary Rd, Ja-Ela, Sri Lanka	0.748731	
Gampaha	Wattala	MOH Office - Wattala	False	False	GMPHWTTLMHFFCWTTL		Gampaha	LK-12	7.123598	80.018508	Wattala	PS-120128	6.993713	79.894506	6.995817	79.885793	301 Hendala Rd, Wattala, Sri Lanka	0.989991	
Gampaha	Ragama	MOH Office - Ragama	False	False	GMPHRGMMHFFCRGM		Gampaha	LK-12	7.123598	80.018508	Ragama	PS-120134	7.034975	79.924148	7.027386	79.920232	2WGC+X35, Ragama, Sri Lanka	0.948382	
Kalutara	Aluthgama	Al Pathiatul Nasria Balika Maha Vidyalaya	False	True	KLTRLTHGMLPTHTLNSRBLKMHVDYLY	Al Fasiyathul Nasriya Muslim Balika Navodaya School	Kalutara	LK-13	6.577316	80.127363	Aluthgama	PS-1302100	6.432842	79.998032	6.465274	79.975427	12/7 Maradana Rd, Beruwala, Sri Lanka	4.388118	
Kalutara	Kalutara South	Mobile Medical Team - Kalutara	True	True	KLTRKLTRSTHMBLMDCLTMKLTR		Kalutara	LK-13	6.577316	80.127363	Kalutara South	PS-130296	6.58486	79.961043					#CenterLocationUnknown
Kalutara	Kalutara South	NIHS	False	False	KLTRKLTRSTHNHS		Kalutara	LK-13	6.577316	80.127363	Kalutara South	PS-130296	6.58486	79.961043	6.55864	79.977416	HX5G+FX3, Katukurunda, Sri Lanka	3.432035	
Kalutara	Kalutara South	General Hospital Nagoda – Kalutara	False	False	KLTRKLTRSTHGNRLHSPTLNGDKLTR		Kalutara	LK-13	6.577316	80.127363	Kalutara South	PS-130296	6.58486	79.961043	6.563228	79.985261	Kalutara-Matugama Rd, Sri Lanka	3.598706	
Kalutara	Beruwala	MOH Office - Beruwala	False	False	KLTRBRWLMHFFCBRWL		Kalutara	LK-13	6.577316	80.127363	Beruwala	PS-1302102	6.480329	79.983498	6.437559	79.999356	CXQX+2PH, Aluthgama, Sri Lanka	5.069893	
Kalutara	Dodangoda	MOH Office – Dodangoda	False	False	KLTRDDNGDMHFFCDDNGD	6.540366199937832,80.03661033076219	Kalutara	LK-13	6.577316	80.127363	Dodangoda	PS-130299	6.553375	80.023569	6.541731	80.04335	Dodangoda, Sri Lanka	2.540775	
Kalutara	Dodangoda	Dodangoda Hospital	False	False	KLTRDDNGDDDNGDHSPTL		Kalutara	LK-13	6.577316	80.127363	Dodangoda	PS-130299	6.553375	80.023569	6.540961	80.036553	Wilpatha Rd, Sri Lanka	1.991373	
Kalutara	Wadduwa	Gonaduwa Hospital	False	False	KLTRWDDWGNDWHSPTL		Kalutara	LK-13	6.577316	80.127363	Wadduwa	PS-130188	6.664403	79.929851	6.671445	79.972598	Hospital Bus Stop, Waskaduwa - Bandaragama Rd, Maha Gonaduwa, Sri Lanka	4.787096	
Kalutara	Matugama	MOH Office - Matugama	False	False	KLTRMTGMMHFFCMTGM		Kalutara	LK-13	6.577316	80.127363	Mathugama	PS-1302103	6.520881	80.117908	6.523544	80.126443	G4FG+CH8, Matugama, Sri Lanka	0.988725	
Kalutara	Baduraliya	Vipulasiri Primary School	False	False	KLTRBDRLYVPLSRPRMRYSCHL		Kalutara	LK-13	6.577316	80.127363	Baduraliya	PS-1302106	6.516756	80.226716	6.514948	80.234482	G67M+XQH, Baduraliya, Sri Lanka	0.881478	
Kalutara	Baduraliya	Magura Primary School	False	False	KLTRBDRLYMGRPRMRYSCHL		Kalutara	LK-13	6.577316	80.127363	Baduraliya	PS-1302106	6.516756	80.226716	6.48815	80.236711	F6QP+7M4, කළුතර, Sri Lanka	3.36812	
Kalutara	Baduraliya	Baduraliya Hospital	False	False	KLTRBDRLYBDRLYHSPTL		Kalutara	LK-13	6.577316	80.127363	Baduraliya	PS-1302106	6.516756	80.226716	6.514727	80.232731	Tiruwanaketiya-Agalawatte Rd, Baduraliya, Sri Lanka	0.702098	
Kalutara	Thebuwana	Nebada Hospital	False	False	KLTRTHBWNNBDHSPTL		Kalutara	LK-13	6.577316	80.127363	Thebuwana	PS-1302105	6.654997	80.058183	6.563228	79.985261	Kalutara-Matugama Rd, Sri Lanka	13.004249	
Kalutara	Agalawatta	Pimbura Hospital	False	False	KLTRGLWTTPMBRHSPTL		Kalutara	LK-13	6.577316	80.127363	Agalawatta		6.542566	80.157178	6.575949	80.158371	H5G5+98H, කළුතර, Sri Lanka	3.715525	
Kalutara	Bulathsinhala	MOH Office - Bulathsinhala	False	False	KLTRBLTHSNHLMHFFCBLTHSNHL		Kalutara	LK-13	6.577316	80.127363	Bulathsinhala	PS-1302104	6.650425	80.17703	6.644683	80.179607	J5VH+VRH, Bulathsinhala, Sri Lanka	0.699369	
Kalutara	Panadura	Panadura Hospital	False	False	KLTRPNDRPNDRHSPTL	Base Hospital Panadura	Kalutara	LK-13	6.577316	80.127363	Panadura North		6.756309	79.898939	6.721556	79.906851	A2, Panadura, Sri Lanka	3.963137	
Kalutara	Panadura	Panadura Mahanama Vidyalaya	False	False	KLTRPNDRPNDRMHNMVDYLY		Kalutara	LK-13	6.577316	80.127363	Panadura North		6.756309	79.898939	6.725866	79.907901	PWG5+85R, Panadura, Sri Lanka	3.52791	
Kalutara	Bandaragama	Mobile Vaccination	False	False	KLTRBNDRGMMBLVCCNTN		Kalutara	LK-13	6.577316	80.127363	Bandaragama	PS-130189	6.715179	79.987674					#CenterLocationUnknown
Kurunegala	Giribawa	Sadagala Society Hall	False	False	KRNGLGRBWSDGLSCTYHLL		Kurunegala	LK-61	7.66477	80.23677	Giribawa	PS-610329	8.117314	80.189061	7.472535	80.319098	B247, Kurunegala, Sri Lanka	73.13633	#CenterFarFromPolice
Kurunegala	Nikaweratiya	MOH Office - Nikaweratiya	False	False	KRNGLNKWRTYMHFFCNKWRTY		Kurunegala	LK-61	7.66477	80.23677	Nikaweratiya	PS-610320	7.742612	80.121177	7.7475	80.115183	Nikaweratiya-Heelogama Rd, Nikaweratiya, Sri Lanka	0.855589	
Kurunegala	Girilla	Girilla Vidyalaya	False	False	KRNGLGRLLGRLLVDYLY		Kurunegala	LK-61	7.66477	80.23677	Giriulla	PS-610215	7.334527	80.125021	7.829249	80.138325	R4HQ+M8W, Kurunegala, Sri Lanka	55.047393	#CenterFarFromPolice
Kurunegala	Kotawehera	Unale Viharaya	False	False	KRNGLKTWHRNLVHRY		Kurunegala	LK-61	7.66477	80.23677	Kotawehera	PS-610322	7.809001	80.077977	7.537105	80.490915	Ridee Vihara Rd, Ridigama, Sri Lanka	54.650438	#CenterFarFromPolice
Kurunegala	Kotawehera	Digannea Vidyalaya	False	False	KRNGLKTWHRDGNNVDYLY		Kurunegala	LK-61	7.66477	80.23677	Kotawehera	PS-610322	7.809001	80.077977	7.809001	80.077977	Kotawehera, Kurunegala, Sri Lanka	0.0	
Puttalam	Chilaw	Ambakadawila Vidyalaya	False	False	PTTLMCHLWMBKDWLVDYLY		Puttalam	LK-62	7.973531	79.913833	Chilaw	PS-620241	7.576197	79.788003	7.527563	79.793632	Ambakandawila, Sri Lanka	5.445043	
Puttalam	Chilaw	Aluthwatta Church	False	False	PTTLMCHLWLTHWTTCHRCH		Puttalam	LK-62	7.973531	79.913833	Chilaw	PS-620241	7.576197	79.788003	7.561989	79.801657	HR62+QMV, Chilaw, Sri Lanka	2.182669	
Puttalam	Chilaw	Medawatta Churach	False	False	PTTLMCHLWMDWTTCHRCH		Puttalam	LK-62	7.973531	79.913833	Chilaw	PS-620241	7.576197	79.788003	7.55716	79.789132	Ambakandawila Rd, Chilaw, Sri Lanka	2.121138	
Puttalam	Chilaw	Weralabada South College	False	False	PTTLMCHLWWRLBDSTHCLLG		Puttalam	LK-62	7.973531	79.913833	Chilaw	PS-620241	7.576197	79.788003	7.571297	79.799123	Puttalam - Colombo Rd, Chilaw, Sri Lanka	1.341767	
Puttalam	Chilaw	Wella Church	False	False	PTTLMCHLWWLLCHRCH		Puttalam	LK-62	7.973531	79.913833	Chilaw	PS-620241	7.576197	79.788003	7.588391	79.798495	HQQX+995, Chilaw, Sri Lanka	1.782661	
Puttalam	Chilaw	Kurusapaduwa Church	False	False	PTTLMCHLWKRSPDWCHRCH		Puttalam	LK-62	7.973531	79.913833	Chilaw	PS-620241	7.576197	79.788003	8.1255	79.726198	4PGG+5FW, Puttalam, Sri Lanka	61.477237	#CenterFarFromPolice
Puttalam	Chilaw	Iranawila Catholic Church	False	False	PTTLMCHLWRNWLCTHLCCHRCH		Puttalam	LK-62	7.973531	79.913833	Chilaw	PS-620241	7.576197	79.788003	7.495154	79.807481	Iranawila Rd, Sri Lanka	9.266744	
Puttalam	Puttalam	Veppamadu Muslim Vidyalaya	False	False	PTTLMPTTLMVPPMDMSLMVDYLY		Puttalam	LK-62	7.973531	79.913833	Puttalam	PS-620130	8.029904	79.834396	8.074579	79.837711	Mannar Rd, Puttalam 61300, Sri Lanka	4.982587	
Puttalam	Puttalam	Attavilluwa Kanishta Vidyalaya	False	False	PTTLMPTTLMTTVLLWKNSHTVDYLY		Puttalam	LK-62	7.973531	79.913833	Puttalam	PS-620130	8.029904	79.834396					#CenterLocationUnknown
Puttalam	Puttalam	Thilladi Muslim Maha Vidyalaya	False	False	PTTLMPTTLMTHLLDMSLMMHVDYLY		Puttalam	LK-62	7.973531	79.913833	Puttalam	PS-620130	8.029904	79.834396	8.004413	79.844478	2R3V+QQ9, Puttalam, Sri Lanka	3.045059	
Puttalam	Puttalam	Ananda National College	False	False	PTTLMPTTLMNNDNTNLCLLG		Puttalam	LK-62	7.973531	79.913833	Puttalam	PS-620130	8.029904	79.834396	7.571297	79.799123	Puttalam - Colombo Rd, Chilaw, Sri Lanka	51.158667	#CenterFarFromPolice
Puttalam	Puttalam	Fathima National School	False	False	PTTLMPTTLMFTHMNTNLSCHL		Puttalam	LK-62	7.973531	79.913833	Puttalam	PS-620130	8.029904	79.834396	8.032756	79.832857	37 Poles Rd, Puttalam 61300, Sri Lanka	0.359673	
Puttalam	Puttalam	Visadarrama Viharaya	False	False	PTTLMPTTLMVSDRRMVHRY		Puttalam	LK-62	7.973531	79.913833	Puttalam	PS-620130	8.029904	79.834396	8.028546	79.853854	2VH3+CG9, Puttalam, Sri Lanka	2.14841	
Puttalam	Puttalam	Manalgundu Muslim Vidyalaya	False	False	PTTLMPTTLMMNLGNDMSLMVDYLY		Puttalam	LK-62	7.973531	79.913833	Puttalam	PS-620130	8.029904	79.834396	7.951082	79.806461	Puluthivayal Rd, Puluthivayal, Sri Lanka	9.291648	
Puttalam	Puttalam	Palavi Sinhala Vidyalaya	False	False	PTTLMPTTLMPLVSNHLVDYLY		Puttalam	LK-62	7.973531	79.913833	Puttalam	PS-620130	8.029904	79.834396	8.02676	79.838078	Puttalam South, Sri Lanka	0.535493	
Puttalam	Puttalam	Divisional Secretariat Office - Puttalam	False	False	PTTLMPTTLMDVSNLSCRTRTFFCPTTLM		Puttalam	LK-62	7.973531	79.913833	Puttalam	PS-620130	8.029904	79.834396	8.030562	79.835452	2RJP+65G, Puttalam, Sri Lanka	0.137419	
Puttalam	Udappu	Udappuwa Hospital	False	False	PTTLMDPPDPPWHSPTL		Puttalam	LK-62	7.973531	79.913833	Udappuwa	PS-620140	7.759695	79.788518	7.75967	79.789379	QQ5Q+VQ6, Udappu, Sri Lanka	0.094933	
Puttalam	Mundalama	Andimunei Vidyalaya	False	False	PTTLMMNDLMNDMNVDYLY		Puttalam	LK-62	7.973531	79.913833	Mundal	PS-620138	7.808859	79.825729	8.028082	79.840608	Katugastota-Kurunegala-Puttalam Hwy, Puttalam, Sri Lanka	24.439173	#CenterFarFromPolice
Puttalam	Mundalama	Pandalaya	False	False	PTTLMMNDLMPNDLY		Puttalam	LK-62	7.973531	79.913833	Mundal	PS-620138	7.808859	79.825729	7.819828	79.835277	Mundalama, Sri Lanka	1.611098	
Puttalam	Mundalama	Kandathoduwawa	False	False	PTTLMMNDLMKNDTHDWW		Puttalam	LK-62	7.973531	79.913833	Mundal	PS-620138	7.808859	79.825729	7.891957	79.766623	Kandathoduwawa, Sri Lanka	11.307004	
Puttalam	Mundalama	Mukku Thoduwawa	False	False	PTTLMMNDLMMKKTHDWW		Puttalam	LK-62	7.973531	79.913833	Mundal	PS-620138	7.808859	79.825729	7.485903	79.803058	Thoduwawa, Sri Lanka	36.009179	#CenterFarFromPolice
Puttalam	Arachchikattuwa	Karukapanai Churach	False	False	PTTLMRCHCHKTTWKRKPNCHRCH		Puttalam	LK-62	7.973531	79.913833	Arachchikattuwa	PS-620247	7.65944	79.837772	7.591399	79.827877	Chilaw-Munneswarama-Tissogama, Sri Lanka	7.646406	
Puttalam	Arachchikattuwa	Muthupalliya Churach	False	False	PTTLMRCHCHKTTWMTHPLLYCHRCH		Puttalam	LK-62	7.973531	79.913833	Arachchikattuwa	PS-620247	7.65944	79.837772	7.591399	79.827877	Chilaw-Munneswarama-Tissogama, Sri Lanka	7.646406	
Puttalam	Arachchikattuwa	Arachchikattuwa Viharaya	False	False	PTTLMRCHCHKTTWRCHCHKTTWVHRY		Puttalam	LK-62	7.973531	79.913833	Arachchikattuwa	PS-620247	7.65944	79.837772	7.461124	79.842169	FR6R+CVV, Madampe, Sri Lanka	22.063983	#CenterFarFromPolice
Puttalam	Arachchikattuwa	Kottapitiya Churach	False	False	PTTLMRCHCHKTTWKTTPTYCHRCH		Puttalam	LK-62	7.973531	79.913833	Arachchikattuwa	PS-620247	7.65944	79.837772	7.656449	79.838078	Rajakadaluwa, Sri Lanka	0.334394	
Puttalam	Arachchikattuwa	Nalladarankattuwa Viharaya	False	False	PTTLMRCHCHKTTWNLLDRNKTTWVHRY		Puttalam	LK-62	7.973531	79.913833	Arachchikattuwa	PS-620247	7.65944	79.837772	7.669298	79.835761	Puttalam - Colombo Rd, Nalladarankattuwa, Sri Lanka	1.118689	
Puttalam	Arachchikattuwa	Anavilundawa Churach	False	False	PTTLMRCHCHKTTWNVLNDWCHRCH		Puttalam	LK-62	7.973531	79.913833	Arachchikattuwa	PS-620247	7.65944	79.837772	7.663717	79.839303	Nalladarankattuwa, Sri Lanka	0.50478	
Puttalam	Kalpitiya	District Hospital - Kalpitiya	False	False	PTTLMKLPTYDSTRCTHSPTLKLPTY		Puttalam	LK-62	7.973531	79.913833	Kalpitiya	PS-620137	8.235145	79.764567	8.235596	79.766951	6QP8+6QP, Kalpitiya, Sri Lanka	0.267189	
Puttalam	Kalpitiya	Al Aksha National School - Kalpitiya	False	False	PTTLMKLPTYLKSHNTNLSCHLKLPTY		Puttalam	LK-62	7.973531	79.913833	Kalpitiya	PS-620137	8.235145	79.764567	8.231092	79.76204	Al Aqsa School Rd, Kalpitiya, Sri Lanka	0.529734	
Puttalam	Kalpitiya	Kandakkuliya Sinhala Vidyalaya	False	False	PTTLMKLPTYKNDKKLYSNHLVDYLY		Puttalam	LK-62	7.973531	79.913833	Kalpitiya	PS-620137	8.235145	79.764567	8.237069	79.760536	6QP6+R6F, Kalpitiya, Sri Lanka	0.492653	
Puttalam	Kalpitiya	St. Peter's College - Palakudawa	False	False	PTTLMKLPTYSTPTRSCLLGPLKDW		Puttalam	LK-62	7.973531	79.913833	Kalpitiya	PS-620137	8.235145	79.764567					#CenterLocationUnknown
Puttalam	Kalpitiya	Musalpitiya Muslim Maha Vidyalaya	False	False	PTTLMKLPTYMSLPTYMSLMMHVDYLY		Puttalam	LK-62	7.973531	79.913833	Kalpitiya	PS-620137	8.235145	79.764567	8.102367	79.73026	Etalai, Sri Lanka	15.244252	
Puttalam	Norochcholai	Daluwa St. Anthony's College	False	False	PTTLMNRCHCHLDLWSTNTHNYSCLLG		Puttalam	LK-62	7.973531	79.913833	Norochcholey	PS-620139	6.900777	79.872638	7.979176	79.755536	XQH4+M6F, Puttalam, Sri Lanka	120.643455	#CenterFarFromPolice
Puttalam	Norochcholai	Ulukkapallama Muslim College	False	False	PTTLMNRCHCHLLKKPLLMMSLMCLLG		Puttalam	LK-62	7.973531	79.913833	Norochcholey	PS-620139	6.900777	79.872638	8.050195	79.736044	3P2P+3CF, Norochcholai, Sri Lanka	128.73397	#CenterFarFromPolice
Puttalam	Norochcholai	Norochcholai Centarl College	False	False	PTTLMNRCHCHLNRCHCHLCNTRLCLLG		Puttalam	LK-62	7.973531	79.913833	Norochcholey	PS-620139	6.900777	79.872638	8.050195	79.736044	3P2P+3CF, Norochcholai, Sri Lanka	128.73397	#CenterFarFromPolice
Puttalam	Norochcholai	Narakkalliya Roman Catholic College	False	False	PTTLMNRCHCHLNRKKLLYRMNCTHLCCLLG		Puttalam	LK-62	7.973531	79.913833	Norochcholey	PS-620139	6.900777	79.872638	8.018727	79.731575	Narakkalliya, Sri Lanka	125.318804	#CenterFarFromPolice
Puttalam	Wennappuwa	Ulhitiyawa St. Xavier Catholic Church	False	False	PTTLMWNNPPWLHTYWSTXVRCTHLCCHRCH		Puttalam	LK-62	7.973531	79.913833	Wennappuwa	PS-620245	7.339623	79.843017	7.345648	79.831869	8RWJ+7P5, Wennappuwa, Sri Lanka	1.400563	
Puttalam	Wennappuwa	Fransis Xaviour College	False	False	PTTLMWNNPPWFRNSSXVRCLLG		Puttalam	LK-62	7.973531	79.913833	Wennappuwa	PS-620245	7.339623	79.843017	7.345183	79.83172	Ulhitiyawa Government School, Wennappuwa, Wennappuwa, Sri Lanka	1.391269	
Puttalam	Marawila	Sebastian Primary School - Katuneriya	False	False	PTTLMMRWLSBSTNPRMRYSCHLKTNRY		Puttalam	LK-62	7.973531	79.913833	Marawila	PS-620243	7.415075	79.839776	7.364706	79.832758	9R7M+V4J, Katuneriya, Sri Lanka	5.655765	
Puttalam	Marawila	At St. Anthony's Church, Thoduwawa	False	False	PTTLMMRWLTSTNTHNYSCHRCHTHDWW		Puttalam	LK-62	7.973531	79.913833	Marawila	PS-620243	7.415075	79.839776	7.476679	79.804902	FRG3+MXC, Thoduwawa, Sri Lanka	7.857917	
Kandy	Theldeniya	Theldeniya National College	False	False	KNDYTHLDNYTHLDNYNTNLCLLG		Kandy	LK-21	7.27337	80.709602	Theldeniya	PS-210356	7.309853	80.76426	7.308862	80.762491	8Q56+GXX, Karalliyadda, Sri Lanka	0.224144	
Kandy	Poojapitiya	Poojapitiya Maha Vidyalaya	False	False	KNDYPJPTYPJPTYMHVDYLY		Kandy	LK-21	7.27337	80.709602	Poojapitiya	PS-210115	7.372938	80.587619	7.371519	80.593387	Poojapitiya Road, Poojapitiya, Sri Lanka	0.655554	
Kandy	Wattegama	Walala A.Rathnayake Central College	False	False	KNDYWTTGMWLLRTHNYKCNTRLCLLG		Kandy	LK-21	7.27337	80.709602	Wattegama	PS-210357	7.350603	80.68335	7.318909	80.693359	8M9V+H89, Menikhinna, Sri Lanka	3.694199	
Kandy	Galaha	Nillambe Maha Vidyalaya	False	False	KNDYGLHNLLMBMHVDYLY		Kandy	LK-21	7.27337	80.709602	Galaha	PS-210220	7.196074	80.669961	7.191434	80.635919	5JRP+H9F, Galaha, Sri Lanka	3.792076	
Kandy	Galaha	DH - Galaha	False	False	KNDYGLHDHGLH		Kandy	LK-21	7.27337	80.709602	Galaha	PS-210220	7.196074	80.669961	7.196844	80.671532	Galaha, Sri Lanka	0.193368	
Kandy	Katugastota	Nugawela Maha Vidyalaya	False	False	KNDYKTGSTTNGWLMHVDYLY		Kandy	LK-21	7.27337	80.709602	Katugastota	PS-210103	7.332014	80.623006	7.326749	80.586953	8HGP+MQW, Nugawela, Sri Lanka	4.020285	
Kandy	Katugastota	Kandy Ananda College - Gonigoda	False	False	KNDYKTGSTTKNDYNNDCLLGGNGD		Kandy	LK-21	7.27337	80.709602	Katugastota	PS-210103	7.332014	80.623006	7.346769	80.580787	B206, Medawala, Sri Lanka	4.938236	
Kandy	Ankumbura	Gilihinna Primary School	False	False	KNDYNKMBRGLHNNPRMRYSCHL		Kandy	LK-21	7.27337	80.709602	Ankumbura	PS-210104	7.438826	80.571939	7.380409	80.543718	Henegama, Harankahawa, Kandy, Galagedara, Sri Lanka	7.204848	
Kandy	Gampola	Doluwa Maha Vidyalaya	False	False	KNDYGMPLDLWMHVDYLY		Kandy	LK-21	7.27337	80.709602	Gampola	PS-210216	7.132941	80.56799	7.18627	80.608269	5JP5+G82, Doluwa, Sri Lanka	7.412597	
Kandy	Udadumbara	Udadumbara Secondary College	False	False	KNDYDDMBRDDMBRSCNDRYCLLG		Kandy	LK-21	7.27337	80.709602	Ududumbara	PS-210358	7.318133	80.8791	7.316615	80.878515	Udadumbara - Madiwaka Rd, Udadumbara, Sri Lanka	0.180761	
Kandy	Udadumbara	Mahinda Primary School	False	False	KNDYDDMBRMHNDPRMRYSCHL		Kandy	LK-21	7.27337	80.709602	Ududumbara	PS-210358	7.318133	80.8791	7.306372	80.903558	8W43+GCV, Udadumbara, Sri Lanka	2.998721	
Kandy	Kandy	Mahanama Vidyalaya	False	False	KNDYKNDYMHNMVDYLY		Kandy	LK-21	7.27337	80.709602	Kandy	PS-210101	7.292948	80.642368	7.272228	80.607279	396, 17 Peradeniya Rd, Kandy 20000, Sri Lanka	4.505525	
Kandy	Kandy	Gurudeniya Central College	False	False	KNDYKNDYGRDNYCNTRLCLLG		Kandy	LK-21	7.27337	80.709602	Kandy	PS-210101	7.292948	80.642368	7.252506	80.690643	Talatuoya-Gurudeniya, Thalathuoya, Sri Lanka	6.971798	
Kandy	Kandy	Mahamaya Balika Vidyalaya	False	False	KNDYKNDYMHMYBLKVDYLY		Kandy	LK-21	7.27337	80.709602	Kandy	PS-210101	7.292948	80.642368	7.286638	80.64566	Sangaraja Mawatha, Kandy, Sri Lanka	0.790271	
Nuwara Eliya	Kotmale	Kotmale Hospital	False	False	NWRLYKTMLKTMLHSPTL		Nuwara Eliya	LK-23	6.97423	80.711222	Kotmale	PS-230134	7.063602	80.685054	7.062436	80.685675	Ramboda - Sangilipalama Rd, Kothmale New Town, Sri Lanka	0.146696	
Nuwara Eliya	Nanuoya	Pradeshiya Shabha - Nanuoya	False	False	NWRLYNNYPRDSHYSHBHNNY		Nuwara Eliya	LK-23	6.97423	80.711222	Nanuoya	PS-230133	6.939692	80.744185	6.942	80.745395	Nanuoya Rd, Nanuoya, Sri Lanka	0.289402	
Matale	Dambulla	Sigiriya National College	False	False	MTLDMBLLSGRYNTNLCLLG		Matale	LK-22	7.667587	80.731008	Dambulla	PS-220128	7.86208	80.649166	7.957253	80.760037	Sigiriya, 8 Ela pahalawewa, Dambulla 21100, Sri Lanka	16.163764	
Matale	Galewela	Galewela Hospital	False	False	MTLGLWLGLWLHSPTL		Matale	LK-22	7.667587	80.731008	Galewela	PS-220129	7.763244	80.574149	7.760542	80.571552	QH6C+6J7, Galewela, Sri Lanka	0.415026	
Matale	Galewela	Nilagama Viharaya - Bambaragaswewa	False	False	MTLGLWLNLGMVHRYBMBRGSWW		Matale	LK-22	7.667587	80.731008	Galewela	PS-220129	7.763244	80.574149	7.777961	80.536053	Nilagama, Moragolla - Dambagahamula Rd, Sri Lanka	4.506275	
Matale	Naula	Sri Naga National College	False	False	MTLNLSRNGNTNLCLLG		Matale	LK-22	7.667587	80.731008	Naula	PS-220126	7.692051	80.64963	7.706636	80.656564	Elahera Road, Naula, Sri Lanka	1.793319	
Matale	Naula	Nalanda Hospital	False	False	MTLNLNLNDHSPTL		Matale	LK-22	7.667587	80.731008	Naula	PS-220126	7.692051	80.64963	7.664927	80.636821	Nalanda, Kandy - Jaffna Hwy, Sri Lanka	3.331055	
Matale	Naula	Kongahwela Hospital	False	False	MTLNLKNGHWLHSPTL		Matale	LK-22	7.667587	80.731008	Naula	PS-220126	7.692051	80.64963	7.682647	80.712102	MPM6+3R5, Kongahawela, Sri Lanka	6.965289	
Matale	Rattota	Kaikawala Central College	False	False	MTLRTTTKKWLCNTRLCLLG		Matale	LK-22	7.667587	80.731008	Rattota	PS-220122	7.520684	80.678809	7.505709	80.663587	B274, kaikawela, Sri Lanka	2.364775	
Matale	Matale	Aluvihara Aloka Rajamaha Viharaya	False	False	MTLMTLLVHRLKRJMHVHRY		Matale	LK-22	7.667587	80.731008	Matale	PS-220121	7.462789	80.626211	7.497726	80.621784	FJXC+3PV, Thotagamuwa, Sri Lanka	3.916586	
Matale	Matale	St. Thomas College	False	False	MTLMTLSTTHMSCLLG		Matale	LK-22	7.667587	80.731008	Matale	PS-220121	7.462789	80.626211	7.470517	80.621246	Kings St, Matale, Sri Lanka	1.019177	
Matale	Matale	Katudeniya Primary School	False	False	MTLMTLKTDNYPRMRYSCHL		Matale	LK-22	7.667587	80.731008	Matale	PS-220121	7.462789	80.626211	7.509599	80.647679	GJ5X+R3M, Matale, Sri Lanka	5.719667	
Matale	Matale	Leliabe Vidyalaya	False	False	MTLMTLLLBVDYLY		Matale	LK-22	7.667587	80.731008	Matale	PS-220121	7.462789	80.626211	7.475768	80.620534	Harasgama Rd, Matale, Sri Lanka	1.573571	
Matale	Matale	Thenna Maha Vidyalaya	False	False	MTLMTLTHNNMHVDYLY		Matale	LK-22	7.667587	80.731008	Matale	PS-220121	7.462789	80.626211	7.437811	80.609941	Mt/Sri Saranankara Maha Vidyalaya, Udupihilla, Matale 21000, Sri Lanka	3.307405	
Matale	Mahawela	Pallepola Hospital	False	False	MTLMHWLPLLPLHSPTL		Matale	LK-22	7.667587	80.731008	Mahawela	PS-220123	7.589247	80.61027	7.627907	80.606017	Pallepola 21000, Sri Lanka	4.325634	
Matale	Mahawela	Millawana Vidyalaya	False	False	MTLMHWLMLLWNVDYLY		Matale	LK-22	7.667587	80.731008	Mahawela	PS-220123	7.589247	80.61027	7.64828	80.575953	JHXG+898, Millawana, Sri Lanka	7.578214	
Matale	Yatawatta	Dullewa Maha Vidyalaya	False	False	MTLYTWTTDLLWMHVDYLY		Matale	LK-22	7.667587	80.731008	Yatawatta	PS-220124	7.563527	80.567967	7.507898	80.597512	GH5X+522, Matale, Sri Lanka	6.992881	
Matale	Yatawatta	Udasgiriya Vidyalaya	False	False	MTLYTWTTDSGRYVDYLY		Matale	LK-22	7.667587	80.731008	Yatawatta	PS-220124	7.563527	80.567967	7.539384	80.578578	GHQH+QC4, Matale, Sri Lanka	2.92924	
Matale	Laggala	Mahakotuwa Vidyalaya	False	False	MTLLGGLMHKTWVDYLY		Matale	LK-22	7.667587	80.731008	Laggala	PS-220125	7.549634	80.835428	7.509599	80.647679	GJ5X+R3M, Matale, Sri Lanka	21.176714	#CenterFarFromPolice
Matale	Laggala	Puwakpitiya Vidyalaya	False	False	MTLLGGLPWKPTYVDYLY		Matale	LK-22	7.667587	80.731008	Laggala	PS-220125	7.549634	80.835428	7.588247	80.754967	Puwakpitiya, Illukkumbura 21406, Sri Lanka	9.856629	
Matale	Wilgamuwa	Hettipola Hospital	False	False	MTLWLGMWHTTPLHSPTL		Matale	LK-22	7.667587	80.731008	Wilgamuwa	PS-220127	7.542012	80.916496	7.540274	80.914435	GWR7+4Q3, Hettipola, Sri Lanka	0.298362	
Matale	Wilgamuwa	Handungamuwa Hospital	False	False	MTLWLGMWHNDNGMWHSPTL		Matale	LK-22	7.667587	80.731008	Wilgamuwa	PS-220127	7.542012	80.916496	7.631848	80.927985	JWJH+P5Q, Matale, Sri Lanka	10.072414	
Matale	Wilgamuwa	Nugagolla Centarl College	False	False	MTLWLGMWNGGLLCNTRLCLLG		Matale	LK-22	7.667587	80.731008	Wilgamuwa	PS-220127	7.542012	80.916496	7.632376	80.927241	JWJG+XV5, Matale, Sri Lanka	10.12075	
Badulla	Badulla	Army Base Hospital - Badulla	False	True	BDLLBDLLRMYBSHSPTLBDLL		Badulla	LK-81	7.074529	81.04486	Badulla	PS-810101	6.991337	81.055246	6.991808	81.05235	Daya Gunasekara Mawatha, Badulla, Sri Lanka	0.32399	
Badulla	Uva Paranagama	Uva Paranagama Hospital	False	False	BDLLVPRNGMVPRNGMHSPTL	Divisional Hospital - Uva Paranagama	Badulla	LK-81	7.074529	81.04486	Uvaparanagama	PS-810213	6.958341	80.930364	6.938076	80.890525	Rendapola-Galahagama-Ambagasdowa Rd, Himbiliyagahamadiththa, Sri Lanka	4.942648	
Badulla	Haldummulla	Ohio Udaweriya College	False	False	BDLLHLDMMLLHDWRYCLLG		Badulla	LK-81	7.074529	81.04486	Haldummulla		6.762216	80.885856					#CenterLocationUnknown
Badulla	Haldummulla	Ella Halpe Tea Factory	False	False	BDLLHLDMMLLLLHLPTFCTRY		Badulla	LK-81	7.074529	81.04486	Haldummulla		6.762216	80.885856	6.889288	81.034507	Uva Halpewatte Tea Factory, Badulla Road, Hela Halpe, Ella, Sri Lanka 90090, Sri Lanka	21.663355	#CenterFarFromPolice
Badulla	Haputale	MOH Office - Haputale	False	False	BDLLHPTLMHFFCHPTL		Badulla	LK-81	7.074529	81.04486	Haputale	PS-810215	6.767653	80.957218	6.779645	80.964114	QXH7+WC4, Badulla, Sri Lanka	1.536024	
Moneragala	Bibila	Bibila Cultural Centre	False	False	MNRGLBBLBBLCLTRLCNTR		Moneragala	LK-82	6.787517	81.303744	Bibila	PS-820125	7.165232	81.225463	7.162409	81.22159	Bibile, Sri Lanka	0.530371	
Galle	Elpitiya	Elpitiya Base Hospital	False	False	GLLLPTYLPTYBSHSPTL		Galle	LK-31	6.222805	80.251977	Elpitiya	PS-310235	6.279163	80.142917	6.2933	80.164066	Elpitiya 80400, Sri Lanka	2.817811	
Galle	Elpitiya	MOH Office - Elpitiya	False	False	GLLLPTYMHFFCLPTY		Galle	LK-31	6.222805	80.251977	Elpitiya	PS-310235	6.279163	80.142917	6.295308	80.164521	75W7+4RC, Elpitiya, Sri Lanka	2.98833	
Galle	Ambalangoda	Manana Community Hall	False	False	GLLMBLNGDMNNCMMNTYHLL		Galle	LK-31	6.222805	80.251977	Ambalangoda	PS-310243	6.244958	80.047598	6.239826	80.052609	Main St, Ambalangoda, Sri Lanka	0.795512	
Matara	Weligama	Weligama Marriott Hotel	False	False	MTRWLGMWLGMMRRTTHTL		Matara	LK-32	6.142734	80.539994	Weligama	PS-320111	5.973301	80.426455	5.972906	80.438992	700 Matara Rd, Weligama 81700, Sri Lanka	1.387613	
Matara	Deniyaya	MOH Office - Kotapola	False	False	MTRDNYYMHFFCKTPL		Matara	LK-32	6.142734	80.539994	Deniyaya	PS-320110	6.341435	80.558719	6.327334	80.556547	Deniyaya - Galle Main Rd, Deniyaya, Sri Lanka	1.586725	
Hambantota	Walasmulla	MOH Office - Walasmulla	False	False	HMBNTTWLSMLLMHFFCWLSMLL		Hambantota	LK-33	6.259779	81.098619	Walasmulla	PS-330151	6.154102	80.698256	6.150889	80.693718	Walasmulla, Sri Lanka	0.616099	
Hambantota	Lunugamvehera	Pahala Maththala Primary School	False	False	HMBNTTLNGMVHRPHLMTHTHLPRMRYSCHL		Hambantota	LK-33	6.259779	81.098619	Lunugamwehera	PS-330160	6.341544	81.202699	6.310806	81.106907	Mattala - Lunugamwehera Old Rd, Mattala, Sri Lanka	11.128277	
Hambantota	Tangalle	MOH Office - Tangalle	False	False	HMBNTTTNGLLMHFFCTNGLL		Hambantota	LK-33	6.259779	81.098619	Tangalle	PS-330147	6.023954	80.797255	6.02363	80.795742	2QFW+F75, Tangalle, Sri Lanka	0.171198	
Hambantota	Katuwana	Katuwana Primary School	False	False	HMBNTTKTWNKTWNPRMRYSCHL		Hambantota	LK-33	6.259779	81.098619	Katuwana	PS-330153	6.269722	80.690963					#CenterLocationUnknown
Hambantota	Agunukolapelessa	MH Office - Agunukolapelessa	False	False	HMBNTTGNKLPLSSMHFFCGNKLPLSS		Hambantota	LK-33	6.259779	81.098619	Angunakolapelessa	PS-330150	6.321993	80.844883	6.146942	80.896312	Ranna - Ebilipitiya Rd, Agunukolapelessa, Sri Lanka	20.284309	#CenterFarFromPolice
Hambantota	Sooriyawewa	Andawewa Viharaya	False	False	HMBNTTSRYWWNDWWVHRY		Hambantota	LK-33	6.259779	81.098619	Sooriyawewa	PS-330155	6.306022	81.003873	6.194762	80.94959	5WVX+WR4, Hambantota, Sri Lanka	13.7541	
Hambantota	Sooriyawewa	Thelawilla Sri Pushparamaya	False	False	HMBNTTSRYWWTHLWLLSRPSHPRMY		Hambantota	LK-33	6.259779	81.098619	Sooriyawewa	PS-330155	6.306022	81.003873	6.227191	81.042228	62GR+VVH, Hambantota, Sri Lanka	9.740015	
Hambantota	Beliatta	MOH Office - Beliatta	False	False	HMBNTTBLTTMHFFCBLTT		Hambantota	LK-33	6.259779	81.098619	Beliatta	PS-330152	6.046936	80.735408	6.051828	80.741735	3P2R+PMQ, Hambantota, Sri Lanka	0.886482	
Rathnapura	Balangoda	Polwathugoda Viharaya	False	False	RTHNPRBLNGDPLWTHGDVHRY		Ratnapura	LK-91	6.586826	80.566158	Balangoda	PS-910103	6.649474	80.700276	6.668931	80.638581	Massenne Waththa, Massenna, Balangoda., Meddekanda Rd, Sri Lanka	7.151363	
Rathnapura	Balangoda	Vikiliya Tea Factory	False	False	RTHNPRBLNGDVKLYTFCTRY		Ratnapura	LK-91	6.586826	80.566158	Balangoda	PS-910103	6.649474	80.700276	6.628321	80.714799	Randola Road, Balangoda, Sri Lanka	2.847892	
Rathnapura	Balangoda	Boskomibe Tea Factory	False	False	RTHNPRBLNGDBSKMBTFCTRY		Ratnapura	LK-91	6.586826	80.566158	Balangoda	PS-910103	6.649474	80.700276	6.628321	80.714799	Randola Road, Balangoda, Sri Lanka	2.847892	
Rathnapura	Balangoda	Wewewatta Tea Factory	False	False	RTHNPRBLNGDWWWTTTFCTRY		Ratnapura	LK-91	6.586826	80.566158	Balangoda	PS-910103	6.649474	80.700276	6.628321	80.714799	Randola Road, Balangoda, Sri Lanka	2.847892	
Rathnapura	Balangoda	Asiri Tea Factory	False	False	RTHNPRBLNGDSRTFCTRY		Ratnapura	LK-91	6.586826	80.566158	Balangoda	PS-910103	6.649474	80.700276	6.668818	80.715813	Ellearawa Pinnawala Bogawantalawa Rd, Balangoda, Sri Lanka	2.752513	
Rathnapura	Imbulpe	Ratmalawinna Vidyalaya	False	False	RTHNPRMBLPRTMLWNNVDYLY		Ratnapura	LK-91	6.586826	80.566158	Imbulpe		6.688314	80.743773	6.676503	80.7256	Ratmalawinna, Sri Lanka	2.399281	
Rathnapura	Rathnapura	Sumana Balika Vidyalaya	False	False	RTHNPRRTHNPRSMNBLKVDYLY		Ratnapura	LK-91	6.586826	80.566158	Ratnapura	PS-910101	6.679456	80.40223	6.679009	80.391964	212 Pothgul Vihara Mawatha, Ratnapura, Sri Lanka	1.135225	
Rathnapura	Kolonna	Nandanagama Viharaya	False	False	RTHNPRKLNNNNDNGMVHRY		Ratnapura	LK-91	6.586826	80.566158	Kolonna	PS-910235	6.40194	80.687615	6.440955	80.759711	Pelmadulla - Embilipitiya Hwy, Ratnapura, Sri Lanka	9.074016	
Rathnapura	Godakawela	Siddhartha Vidyalaya	False	False	RTHNPRGDKWLSDDHRTHVDYLY		Ratnapura	LK-91	6.586826	80.566158	Godakawela	PS-910233	6.50224	80.655642	6.504312	80.645764	Godakawela, Sri Lanka	1.115721	
Rathnapura	Godakawela	Demuwatha Vidyalaya	False	False	RTHNPRGDKWLDMWTHVDYLY		Ratnapura	LK-91	6.586826	80.566158	Godakawela	PS-910233	6.50224	80.655642	6.504468	80.5818	Demuwawatha Rd, Sri Lanka	8.164344	
Rathnapura	Kuttigala	Gunanandarama Viharaya	False	False	RTHNPRKTTGLGNNNDRMVHRY		Ratnapura	LK-91	6.586826	80.566158	Kuttigala	PS-910238	6.260475	80.907389	6.278259	80.888278	In front of Gunanandarama Temple, Embilipitiya 70205, Sri Lanka	2.894501	
Rathnapura	Kuruwita	Pohorabawa Vidyalaya	False	False	RTHNPRKRWTPHRBWVDYLY		Ratnapura	LK-91	6.586826	80.566158	Kuruwita	PS-910112	6.778839	80.364712	6.799357	80.312954	Pohorabawa, Sri Lanka	6.155385	
Rathnapura	Kuruwita	Mudunkattuwa East Vidyalaya	False	False	RTHNPRKRWTMDNKTTWSTVDYLY		Ratnapura	LK-91	6.586826	80.566158	Kuruwita	PS-910112	6.778839	80.364712	6.776404	80.305578	Mudunkotuwa E Rd, Ratnapura, Sri Lanka	6.537113	
Rathnapura	Kuruwita	Walandura Viharaya	False	False	RTHNPRKRWTWLNDRVHRY		Ratnapura	LK-91	6.586826	80.566158	Kuruwita	PS-910112	6.778839	80.364712	6.778114	80.366735	Kuruwita Erathna Rd, Kuruwita, Sri Lanka	0.237552	
Rathnapura	Kuruwita	Bosath Asapuwa Viharaya	False	False	RTHNPRKRWTBSTHSPWVHRY		Ratnapura	LK-91	6.586826	80.566158	Kuruwita	PS-910112	6.778839	80.364712	6.796899	80.364714	Agalawatta, HiggasHena - Devipahala Road, Kuruwita, Sri Lanka	2.008811	
Rathnapura	Nivithigala	Brighton Tamil College	False	False	RTHNPRNVTHGLBRGHTNTMLCLLG		Ratnapura	LK-91	6.586826	80.566158	Nivithigala	PS-910111	6.592765	80.459492	6.596655	80.456909	Tiruwanaketiya-Agalawatte Rd, Nivithigala, Sri Lanka	0.518275	
Rathnapura	Nivithigala	Udakarawita Primary School	False	False	RTHNPRNVTHGLDKRWTPRMRYSCHL		Ratnapura	LK-91	6.586826	80.566158	Nivithigala	PS-910111	6.592765	80.459492	6.583294	80.41945	Karawita, Sri Lanka	4.54814	
Rathnapura	Kalawana	Sisiliya Tea Factory	False	False	RTHNPRKLWNSSLYTFCTRY		Ratnapura	LK-91	6.586826	80.566158	Kalawana	PS-910110	6.530738	80.390719	6.534753	80.383675	G9MM+WF3, Thapassarakanda, Sri Lanka	0.897425	
Rathnapura	Kalawana	Galaxy Tea Factory	False	False	RTHNPRKLWNGLXYTFCTRY		Ratnapura	LK-91	6.586826	80.566158	Kalawana	PS-910110	6.530738	80.390719	6.531714	80.396482	nawalakanda, Kalawana 70469, Sri Lanka	0.646044	
Rathnapura	Kalawana	Kalawana Tea Factory	False	False	RTHNPRKLWNKLWNTFCTRY		Ratnapura	LK-91	6.586826	80.566158	Kalawana	PS-910110	6.530738	80.390719	6.531766	80.38899	G9JQ+PH5, Kalawana 70450, Sri Lanka	0.222669	
Rathnapura	Ayagama	Seelarathana Vidyalaya	False	False	RTHNPRYGMSLRTHNVDYLY		Ratnapura	LK-91	6.586826	80.566158	Ayagama	PS-910109	6.637727	80.312554	6.57224	80.358545	Ayagama-Kukulegama Rd, Nikagoda, Sri Lanka	8.881502	
Rathnapura	Kiriella	Epitawela Maha Vidyalaya	False	False	RTHNPRKRLLPTWLMHVDYLY		Ratnapura	LK-91	6.586826	80.566158	Kiriella	PS-910114	6.735338	80.276481	6.743776	80.240076	P6VR+G28, Ratnapura, Sri Lanka	4.129415	
Rathnapura	Kiriella	Dumbara Tea Factory	False	False	RTHNPRKRLLDMBRTFCTRY		Ratnapura	LK-91	6.586826	80.566158	Kiriella	PS-910114	6.735338	80.276481	6.695043	80.227281	Dumbara Manana, Sri Lanka	7.044659	
Rathnapura	Kiriella	Dumbara Rubber Factory	False	False	RTHNPRKRLLDMBRRBBRFCTRY		Ratnapura	LK-91	6.586826	80.566158	Kiriella	PS-910114	6.735338	80.276481	6.74486	80.248221	Kiriella, Hadunkanda Rd, Sri Lanka	3.296412	
Rathnapura	Kiriella	Dumbara Vidyalaya	False	False	RTHNPRKRLLDMBRVDYLY		Ratnapura	LK-91	6.586826	80.566158	Kiriella	PS-910114	6.735338	80.276481	6.726255	80.212907	Dumbara Rd, Sri Lanka	7.094889	
Rathnapura	Kahawatta	Bungiriya Vidyalaya	False	False	RTHNPRKHWTTBNGRYVDYLY		Ratnapura	LK-91	6.586826	80.566158	Kahawatta	PS-910107	6.591434	80.56893	6.555967	80.563288	Bungiriya, Sri Lanka	3.993946	
Rathnapura	Kahawatta	Pilana Vidyalaya	False	False	RTHNPRKHWTTPLNVDYLY		Ratnapura	LK-91	6.586826	80.566158	Kahawatta	PS-910107	6.591434	80.56893	6.594629	80.579426	HHVH+VQ3, රත්නපුර, Sri Lanka	1.212975	
Rathnapura	Kahawatta	Kotakethana Vidyalaya	False	False	RTHNPRKHWTTKTKTHNVDYLY		Ratnapura	LK-91	6.586826	80.566158	Kahawatta	PS-910107	6.591434	80.56893	6.5726	80.587007	Kotakethana, kahawatta., Pelmadulla - Embilipitiya Hwy, Sri Lanka	2.894474	
Rathnapura	Kahawatta	Nawalakanda Vidyalaya	False	False	RTHNPRKHWTTNWLKNDVDYLY		Ratnapura	LK-91	6.586826	80.566158	Kahawatta	PS-910107	6.591434	80.56893	6.54544	80.540911	Manandola - Endana Rd, Kahawatta 70154, Sri Lanka	5.979822	
Rathnapura	Wewelwatta	Galabada Tamil College	False	False	RTHNPRWWLWTTGLBDTMLCLLG		Ratnapura	LK-91	6.586826	80.566158	Wewalwatta	PS-910102	6.707202	80.555569	6.70638	80.46859	Ratnapura-Wewelwatte Rd, Galabada, Sri Lanka	9.608889	
Rathnapura	Panamura	Walalgoda Vidyalaya	False	False	RTHNPRPNMRWLLGDVDYLY		Ratnapura	LK-91	6.586826	80.566158	Panamure	PS-910236	6.40194	80.687615	6.32955	80.757703	Embilipitiya-Panamure-Urubokka Rd, Sri Lanka	11.174171	
Rathnapura	Panamura	Panamura Rajamaha Viharaya	False	False	RTHNPRPNMRPNMRRJMHVHRY		Ratnapura	LK-91	6.586826	80.566158	Panamure	PS-910236	6.40194	80.687615	6.34411	80.775471	B115, Panamure, Sri Lanka	11.648932	
Kegalle	Warakapola	MOH Office - Warakapola	False	False	KGLLWRKPLMHFFCWRKPL		Kegalle	LK-92	7.104216	80.342866	Wrakapola	PS-920119	7.227488	80.199696	7.226501	80.197818	65GX+J44, Warakapola, Sri Lanka	0.234514	
Kegalle	Yatiyantota	Ganepalla Primary School	False	False	KGLLYTYNTTGNPLLPRMRYSCHL		Kegalle	LK-92	7.104216	80.342866	Yatiyantota	PS-920230	7.027207	80.290753	7.012132	80.351944	Ganepalla, Sri Lanka	6.960243	
Kegalle	Yatiyantota	Gonagamuwa Viharaya	False	False	KGLLYTYNTTGNGMWVHRY		Kegalle	LK-92	7.104216	80.342866	Yatiyantota	PS-920230	7.027207	80.290753	7.08313	80.429741	3CMH+7V5, Kegalle, Sri Lanka	16.55555	
Kegalle	Yatiyantota	Paramalathenna Viharaya	False	False	KGLLYTYNTTPRMLTHNNVHRY		Kegalle	LK-92	7.104216	80.342866	Yatiyantota	PS-920230	7.027207	80.290753	7.099956	80.386783	39XP+XPM, Kegalle, Sri Lanka	13.335862	
Kegalle	Yatiyantota	Kirikohuthenna Community Hall	False	False	KGLLYTYNTTKRKHTHNNCMMNTYHLL		Kegalle	LK-92	7.104216	80.342866	Yatiyantota	PS-920230	7.027207	80.290753					#CenterLocationUnknown
Kegalle	Rambukkana	MOH Office - Rambukkana	False	False	KGLLRMBKKNMHFFCRMBKKN		Kegalle	LK-92	7.104216	80.342866	Rambukkana	PS-920123	7.324319	80.387808	7.327307	80.394886	89GV+WXC, Rambukkana, Sri Lanka	0.848646	
Kegalle	Hemmathagama	Nagaragiri Maha Vidyalaya	False	False	KGLLHMMTHGMNGRGRMHVDYLY		Kegalle	LK-92	7.104216	80.342866	Hemmathagama	PS-920125	7.175402	80.500292	7.172829	80.499212	Horewala - Hemmathagama Rd, Hemmathagama, Sri Lanka	0.310021	
Kegalle	Mawanella	MOH Office - Mawanella	False	False	KGLLMWNLLMHFFCMWNLL		Kegalle	LK-92	7.104216	80.342866	Mawanella	PS-920122	7.256966	80.445912	7.253248	80.44561	Rambukkana-Mawanella Rd, Mawanella, Sri Lanka	0.414893	
Kegalle	Mawanella	Uthuwanakandha Ishan Hotel	False	False	KGLLMWNLLTHWNKNDHSHNHTL		Kegalle	LK-92	7.104216	80.342866	Mawanella	PS-920122	7.256966	80.445912	7.256484	80.405741	Colombo - Kandy Rd, Molagoda, Sri Lanka	4.432748	
Kegalle	Mawanella	Aluthnuwara Vidyalaya	False	False	KGLLMWNLLLTHNWRVDYLY		Kegalle	LK-92	7.104216	80.342866	Mawanella	PS-920122	7.256966	80.445912	7.226113	80.481714	Mawanella - Aluthnuwara Rd, Sri Lanka	5.232917	
Kegalle	Mawanella	Balawathgama Maha Vidyalaya	False	False	KGLLMWNLLBLWTHGMMHVDYLY		Kegalle	LK-92	7.104216	80.342866	Mawanella	PS-920122	7.256966	80.445912	7.20502	80.494198	Mawanella - Hemmaththagama - Singhapitiya, Sri Lanka	7.859618	
Kegalle	Mawanella	Ganethenna Vidyalaya	False	False	KGLLMWNLLGNTHNNVDYLY		Kegalle	LK-92	7.104216	80.342866	Mawanella	PS-920122	7.256966	80.445912	7.247264	80.489941	H 36 Ganethenna - Mahanthegama Rd, Sri Lanka	4.976575	
Kegalle	Mawanella	Dehimadulla Maha Vidyalaya	False	False	KGLLMWNLLDHMDLLMHVDYLY		Kegalle	LK-92	7.104216	80.342866	Mawanella	PS-920122	7.256966	80.445912	7.248421	80.464111	Colombo - Kandy Rd, Mawanella, Sri Lanka	2.221652	
Kegalle	Kegalle	MOH Office - Kegalle	False	False	KGLLKGLLMHFFCKGLL		Kegalle	LK-92	7.104216	80.342866	Kegalle	PS-920118	7.255928	80.353156	7.24797	80.343583	Kegalle-Bulathkohupitiya-Karawanella Hwy, Kegalle, Sri Lanka	1.378052	
Kegalle	Kegalle	MOH Office - Galigamuwa	False	False	KGLLKGLLMHFFCGLGMW		Kegalle	LK-92	7.104216	80.342866	Kegalle	PS-920118	7.255928	80.353156	7.240448	80.300505	ballapana, galigamuwa town, Sri Lanka	6.059352	
Kegalle	Aranayaka	MOH Office - Aranayaka	False	False	KGLLRNYKMHFFCRNYK		Kegalle	LK-92	7.104216	80.342866	Aranayaka	PS-920120	7.186505	80.455273	7.177667	80.457992	5FH5+359, Dippitiya, Sri Lanka	1.027824	
Kegalle	Aranayaka	Viyan Eliya Viharaya	False	False	KGLLRNYKVYNLYVHRY		Kegalle	LK-92	7.104216	80.342866	Aranayaka	PS-920120	7.186505	80.455273	7.149665	80.464983	Aranayaka, Sri Lanka	4.235508	
Kegalle	Rawanwella	Imbulana Sri Sena Vidyalaya	False	False	KGLLRWNWLLMBLNSRSNVDYLY		Kegalle	LK-92	7.104216	80.342866	Ruwanwella	PS-920229	7.046189	80.254174	7.071095	80.254427	Ruwanwella, Warakapola Road, Sri Lanka	2.770431	
Kegalle	Rawanwella	Galapitamada Walagamba Vidyalaya	False	False	KGLLRWNWLLGLPTMDWLGMBVDYLY		Kegalle	LK-92	7.104216	80.342866	Ruwanwella	PS-920229	7.046189	80.254174	7.14118	80.234662	galapitamada, Ruwanwella Rd, Sri Lanka	10.783101	
Kegalle	Rawanwella	Moraliya Proja Shakthi Centre	False	False	KGLLRWNWLLMRLYPRJSHKTHCNTR		Kegalle	LK-92	7.104216	80.342866	Ruwanwella	PS-920229	7.046189	80.254174	7.045873	80.253706	Ruwanwella, Sri Lanka	0.062423	
Kegalle	Rawanwella	DH - Gonagaldeniya	False	False	KGLLRWNWLLDHGNGLDNY		Kegalle	LK-92	7.104216	80.342866	Ruwanwella	PS-920229	7.046189	80.254174	7.261771	80.449296	14/7 Rambukkana-Mawanella Rd, Sri Lanka	32.229344	#CenterFarFromPolice
Kegalle	Rawanwella	Amithirigala Maha Vidyalaya	False	False	KGLLRWNWLLMTHRGLMHVDYLY		Kegalle	LK-92	7.104216	80.342866	Ruwanwella	PS-920229	7.046189	80.254174	7.187842	80.201629	Weligalla Rd, Sri Lanka	16.789504	
Kegalle	Rawanwella	Gonagala Clinic	False	False	KGLLRWNWLLGNGLCLNC		Kegalle	LK-92	7.104216	80.342866	Ruwanwella	PS-920229	7.046189	80.254174	7.235941	80.311561	68P6+9JF, Galigamuwa, Sri Lanka	22.035917	#CenterFarFromPolice
Anuradhapura	Anuradhapura	Army Hospital - Anuradhapura	False	True	NRDHPRNRDHPRRMYHSPTLNRDHPR		Anuradhapura	LK-71	8.39199	80.512958	Anuradapura	PS-710101	8.329752	80.407265	8.338302	80.407646	AB02, Anuradhapura, Sri Lanka	0.951939	
Anuradhapura	Anuradhapura	Anuradhapra Teaching Hospital	False	False	NRDHPRNRDHPRNRDHPRTCHNGHSPTL		Anuradhapura	LK-71	8.39199	80.512958	Anuradapura	PS-710101	8.329752	80.407265	8.324765	80.413968	Harischandra Mawatha, Anuradhapura, Sri Lanka	0.922993	
Anuradhapura	Mihintale	MAS Garment - Mihintale	False	False	NRDHPRMHNTLMSGRMNTMHNTL		Anuradhapura	LK-71	8.39199	80.512958	Mihintale	PS-710104	8.360062	80.511889	8.36903	80.509467	9G95+JQ8, Mihintale, Sri Lanka	1.032504	
Anuradhapura	Kahatagasdigiliya	Ranpathwila Viharaya	False	False	NRDHPRKHTGSDGLYRNPTHWLVHRY		Anuradhapura	LK-71	8.39199	80.512958	Kahatagasdigiliya	PS-710118	8.427328	80.688349	8.416327	80.672495	Puttalam - Anuradhapura - Trincomalee Hwy, Sri Lanka	2.130734	
Anuradhapura	Kahatagasdigiliya	Kekulewa Viharaya	False	False	NRDHPRKHTGSDGLYKKLWVHRY		Anuradhapura	LK-71	8.39199	80.512958	Kahatagasdigiliya	PS-710118	8.427328	80.688349	8.416327	80.672495	Puttalam - Anuradhapura - Trincomalee Hwy, Sri Lanka	2.130734	
Anuradhapura	Galenbindunuwewa	MOH Office - Galenbindunuwewa	False	False	NRDHPRGLNBNDNWWMHFFCGLNBNDNWW		Anuradhapura	LK-71	8.39199	80.512958	Galenbidunuwewa	PS-710121	8.29037	80.71501	8.292134	80.717284	7PR8+VW3, Galenbindunuwewa, Sri Lanka	0.318033	
Jaffna	Wadukkotte	MOH Office - Karainagar	False	False	JFFNWDKKTTMHFFCKRNGR		Jaffna	LK-41	9.691792	80.098594	Vaddukoddai		9.728886	79.947771	9.725097	79.99772	Sri Lanka, Manipay, Sri Lanka	5.492143	
Jaffna	Kayts	MOH Office – Kayts	False	False	JFFNKYTSMHFFCKYTS		Jaffna	LK-41	9.691792	80.098594	Kayts	PS-410212	9.728654	79.94775	9.697759	79.866366	Sri Lanka, Kayts, Sri Lanka	9.561445	
Jaffna	Kayts	MOH Office - Velanai	False	False	JFFNKYTSMHFFCVLN		Jaffna	LK-41	9.691792	80.098594	Kayts	PS-410212	9.728654	79.94775	9.636317	79.903777	Chatty vangkalvady road, Velanai, Sri Lanka	11.346015	
Jaffna	Thelippalai	MOH Office - Thelippalai	False	False	JFFNTHLPPLMHFFCTHLPPL		Jaffna	LK-41	9.691792	80.098594	Thelippalay	PS-410104	6.933075	79.857181	9.785272	80.032899	Q2PM+452, Tellippalai, Sri Lanka	317.838063	#CenterFarFromPolice
Jaffna	Chavakachcheri	Town Hall - Chavakachcheri	False	False	JFFNCHVKCHCHRTWNHLLCHVKCHCHR		Jaffna	LK-41	9.691792	80.098594	Chawakachcheri	PS-410215	9.666459	80.132384	9.659136	80.160946	M556+M94, Chavakachcheri, Sri Lanka	3.236063	
Jaffna	Manippai	MOH Office - Chankanai	False	False	JFFNMNPPMHFFCCHNKN		Jaffna	LK-41	9.691792	80.098594	Manippai	PS-410210	9.727151	79.996905	9.753617	79.976004	QX3G+CCR, Sri Lanka	3.730425	
Jaffna	Nelliadi	MOH Office - Karaveddy	False	False	JFFNNLLDMHFFCKRVDDY		Jaffna	LK-41	9.691792	80.098594	Nelliadi	PS-410108	9.778397	80.113303	9.792126	80.201799	Q6R2+VP3, Point Pedro, Sri Lanka	9.819656	
Jaffna	Kopay	MOH Office - Kopay	False	False	JFFNKPYMHFFCKPY		Jaffna	LK-41	9.691792	80.098594	Kopai	PS-410216	9.686887	80.03856	9.706729	80.065433	B268, Jaffna, Sri Lanka	3.681313	
Jaffna	Kopay	MOH Office- Nallur	False	False	JFFNKPYMHFFCNLLR		Jaffna	LK-41	9.691792	80.098594	Kopai	PS-410216	9.686887	80.03856	9.673947	80.027736	M2FH+H3H, Jaffna, Sri Lanka	1.865513	
Jaffna	Chunnakam	MOH Office - Uduvil	False	False	JFFNCHNNKMMHFFCDVL		Jaffna	LK-41	9.691792	80.098594	Chunnakam	PS-410211	9.745309	80.029151	9.742938	80.035132	P2VP+53C, Chunnakam, Sri Lanka	0.706719	
Jaffna	Point Pedro	MOH Office - Point Pedro	False	False	JFFNPNTPDRMHFFCPNTPDR		Jaffna	LK-41	9.691792	80.098594	Point Pedro	PS-410106	9.827018	80.233187	9.805763	80.222952	R64F+854, Point Pedro, Sri Lanka	2.616722	
Kilinochchi	Kilinochchi	Army Base Hospital - Kilinochchi	False	True	KLNCHCHKLNCHCHRMYBSHSPTLKLNCHCH		Kilinochchi	LK-45	9.415742	80.30358	Kilinochchi	PS-450131	9.392265	80.407846	9.372728	80.411786	Ananthapuram, A9, Kilinochchi, Sri Lanka	2.215695	
Kilinochchi	Kilinochchi	MOH Office - Kilinochchi	False	False	KLNCHCHKLNCHCHMHFFCKLNCHCH		Kilinochchi	LK-45	9.415742	80.30358	Kilinochchi	PS-450131	9.392265	80.407846	9.396965	80.407782	Kandy - Jaffna Hwy, Kilinochchi, Sri Lanka	0.522827	
Kilinochchi	Pooneryn	MOH Office - Pooneryn	False	False	KLNCHCHPNRYNMHFFCPNRYN		Kilinochchi	LK-45	9.415742	80.30358	Pooneryn		9.505717	80.21101	9.507968	80.208317	G655+58P, Pooneryn, Sri Lanka	0.387256	
Kilinochchi	Dharmapuram	MOH Office - Dharmapuram	False	False	KLNCHCHDHRMPRMMHFFCDHRMPRM		Kilinochchi	LK-45	9.415742	80.30358	Dharmapuram	PS-450136	6.873107	79.86167	9.410652	80.523364	CG6F+789, Kilinochchi, Sri Lanka	291.501054	#CenterFarFromPolice
Mullaitivu	Mullaitivu	Army Base Hospital - Mullaitivu	False	True	MLLTVMLLTVRMYBSHSPTLMLLTV		Mullaitivu	LK-44	9.167643	80.549091	Mullativu	PS-440148	9.212825	80.760159	9.259639	80.766401	7Q58+VH2, Mullaitivu, Sri Lanka	5.252015	
Mullaitivu	Mallavi	Nattakandal Hospital	False	False	MLLTVMLLVNTTKNDLHSPTL		Mullaitivu	LK-44	9.167643	80.549091	Mallavi	PS-440153	9.137878	80.307257	9.134704	80.308726	48M5+VFQ, Mallavi, Sri Lanka	0.388156	
Mullaitivu	Pudukudiruppu	MOH Office - Pudukudiruppu	False	False	MLLTVPDKDRPPMHFFCPDKDRPP		Mullaitivu	LK-44	9.167643	80.549091	Pudukuduiruppu	PS-440149	7.00152	79.95003	9.320965	80.683013	Parantan-Mullaitivu Hwy, Velikkandal, Sri Lanka	270.317914	#CenterFarFromPolice
Mannar	Adampan	Pallamadu Hospital	False	False	MNNRDMPNPLLMDHSPTL		Mannar	LK-42	8.877429	80.088628	Adampan		8.939451	80.002055	8.981662	79.904574	Thalvupadu - Mannar Rd, Mannar 41000, Sri Lanka	11.69437	
Mannar	Adampan	DH - Vedithalathivu	False	True	MNNRDMPNDHVDTHLTHV		Mannar	LK-42	8.877429	80.088628	Adampan		8.939451	80.002055	8.945073	79.996994	WXWW+2QH, Adampan, Sri Lanka	0.836828	
Mannar	Mannar	RDHS Office - Mannar	False	True	MNNRMNNRRDHSFFCMNNR		Mannar	LK-42	8.877429	80.088628	Mannar	PS-420138	8.978123	79.911642	8.983382	79.902565	Thalvupadu - Mannar Rd, Mannar 41000, Sri Lanka	1.156155	
Mannar	Mannar	Educational Training Center - Mannar	False	True	MNNRMNNRDCTNLTRNNGCNTRMNNR		Mannar	LK-42	8.877429	80.088628	Mannar	PS-420138	8.978123	79.911642	8.983627	79.916777	new steet, Uppukulam Mosque, Mannar, Sri Lanka	0.832514	
Mannar	Madu	Iranail Iruppukullam Maha Vidyalaya	False	True	MNNRMDRNLRPPKLLMMHVDYLY		Mannar	LK-42	8.877429	80.088628	Madu	PS-420144	6.914115	79.849048	8.85502	80.202842	Puliyadi Irakkamam, Madhu Road, Madu, Sri Lanka	219.377113	#CenterFarFromPolice
Trincomalee	Muttur	MOH Office – Muttur	False	False	TRNCMLMTTRMHFFCMTTR		Trincomalee	LK-53	8.551241	81.092014	Mutur	PS-530138	8.461133	81.259371	8.453916	81.264494	1 Old Batticaloa Rd, Mutur, Sri Lanka	0.980859	
Trincomalee	Kinniya	MOH Office - Kuruggankeni	False	False	TRNCMLKNNYMHFFCKRGGNKN		Trincomalee	LK-53	8.551241	81.092014	Kinnia	PS-530140	6.907289	79.863819	8.498696	81.179644	F5XH+FVC, Kinniya 31100, Sri Lanka	228.840304	#CenterFarFromPolice
Trincomalee	Kinniya	MOH Office – Kinniya	False	False	TRNCMLKNNYMHFFCKNNY		Trincomalee	LK-53	8.551241	81.092014	Kinnia	PS-530140	6.907289	79.863819	8.498696	81.179644	F5XH+FVC, Kinniya 31100, Sri Lanka	228.840304	#CenterFarFromPolice
Trincomalee	Sripura	MOH Office – Sripura	False	False	TRNCMLSRPRMHFFCSRPR		Trincomalee	LK-53	8.551241	81.092014	Sripura	PS-530136	8.929617	80.81428	8.926697	80.814799	Padavi Sripura, Padaviya - Sripura Road, Welioya, Sri Lanka	0.329869	
Trincomalee	Kantale	MOH Office – Kantale	False	False	TRNCMLKNTLMHFFCKNTL		Trincomalee	LK-53	8.551241	81.092014	Kantale	PS-530241	8.356129	81.007739	8.349617	81.009107	අග්‍රබෝධි මාවත, Kantale, Sri Lanka	0.739809	
Trincomalee	Kuchchaveli	MOH Office - Kuchchaveli	False	False	TRNCMLKCHCHVLMHFFCKCHCHVL		Trincomalee	LK-53	8.551241	81.092014	Kuchchaweli	PS-530133	8.81895	81.100438	8.740082	81.161616	P5R6+2JQ, Kumpurupiddi, Sri Lanka	11.053646	
Trincomalee	Kuchchaveli	Divisional Hospital - Kuchchaveli	False	False	TRNCMLKCHCHVLDVSNLHSPTLKCHCHVL		Trincomalee	LK-53	8.551241	81.092014	Kuchchaweli	PS-530133	8.81895	81.100438	8.814795	81.102358	R472+WW9, Kuchchaveli, Sri Lanka	0.508064	
Trincomalee	Kuchchaveli	Divisional Hospital - Nilaveli	False	False	TRNCMLKCHCHVLDVSNLHSPTLNLVL		Trincomalee	LK-53	8.551241	81.092014	Kuchchaweli	PS-530133	8.81895	81.100438	8.681035	81.193632	M5JV+CF6, Nilaveli, Sri Lanka	18.44695	
Trincomalee	Pulmoddai	Pulmoddai Base Hospital	False	False	TRNCMLPLMDDPLMDDBSHSPTL	Base Hospital - Pulmoddai	Trincomalee	LK-53	8.551241	81.092014	Pulmudai	PS-530135	6.915266	79.87829	8.941204	80.983139	WXRM+F7J, Pulmoddai, Sri Lanka	256.112801	#CenterFarFromPolice
Trincomalee	Harbour Police	MOH Office - Trincomalee	False	False	TRNCMLHRBRPLCMHFFCTRNCML		Trincomalee	LK-53	8.551241	81.092014	Trinco Harbour Police	PS-530131	8.56705	81.231407	8.598974	81.216963	MOH Office, Farm Rd, Trincomalee, Sri Lanka	3.890062	
Trincomalee	Uppuveli	MOH Office - Uppuveli	False	False	TRNCMLPPVLMHFFCPPVL		Trincomalee	LK-53	8.551241	81.092014	Uppuweli	PS-530134	8.593614	81.21743	8.607961	81.216512	Nilaveli Rd, Trincomalee, Sri Lanka	1.599005	
Trincomalee	Gomarankadawala	MOH Office - Gomarankadawala	False	False	TRNCMLGMRNKDWLMHFFCGMRNKDWL		Trincomalee	LK-53	8.551241	81.092014	Gomarankadawala	PS-530248	8.674487	80.967555	8.674726	80.955691	Unnamed Road, Gomarankadawala, Sri Lanka	1.304806	
Trincomalee	Thambalagamuwa	MOH Office - Thambalagamuwa	False	False	TRNCMLTHMBLGMWMHFFCTHMBLGMW		Trincomalee	LK-53	8.551241	81.092014	Thambalagamuva	PS-530243	6.907289	79.863819	8.563603	81.239584	Hospital Ln, Trincomalee, Sri Lanka	238.604889	#CenterFarFromPolice
Trincomalee	Serunuwara	MOH Office - Serunuwara	False	False	TRNCMLSRNWRMHFFCSRNWR		Trincomalee	LK-53	8.551241	81.092014	Serunuwara	PS-530244	8.321863	81.299322	8.323143	81.299894	B10, Sri Lanka	0.155671	
Batticaloa	Kokkadichcholai	MOH Office - Mahaladithivu	False	False	BTTCLKKKDCHCHLMHFFCMHLDTHV		Batticaloa	LK-51	7.792772	81.486513	Kokkadicholai	PS-510112	7.715979	81.698757	5.940664	80.533126	WGRM+776, Matara, Sri Lanka	235.721187	#CenterFarFromPolice
Batticaloa	Kaluwanchikudy	Kaluwanchikudy Hospital	False	False	BTTCLKLWNCHKDYKLWNCHKDYHSPTL	Base Hospital - Kaluwanchikudy	Batticaloa	LK-51	7.792772	81.486513	Kalawanchikudy	PS-510110	7.515908	81.787051	7.51724	81.785184	GQ8P+V3V, Kaluwanchikudy, Sri Lanka	0.25365	
Batticaloa	Valachchenai	MOH Office - Valachchenai	False	False	BTTCLVLCHCHNMHFFCVLCHCHN		Batticaloa	LK-51	7.792772	81.486513	Valachchanai	PS-510107	7.908015	81.533004	7.912281	81.532775	WG6M+W46, Batticaloa, Sri Lanka	0.475177	
Batticaloa	Valachchenai	MOH Office - Oddamavadi	False	False	BTTCLVLCHCHNMHFFCDDMVD		Batticaloa	LK-51	7.792772	81.486513	Valachchanai	PS-510107	7.908015	81.533004	7.912281	81.532775	WG6M+W46, Batticaloa, Sri Lanka	0.475177	
Batticaloa	Valachchenai	MOH Office - Nawaladi	False	False	BTTCLVLCHCHNMHFFCNWLD		Batticaloa	LK-51	7.792772	81.486513	Valachchanai	PS-510107	7.908015	81.533004	6.862775	79.901065	Delakada Plaza, Delkada, Nugegoda, Sri Lanka	214.291922	#CenterFarFromPolice
Batticaloa	Valachchenai	Mobile Vaccination	False	False	BTTCLVLCHCHNMBLVCCNTN		Batticaloa	LK-51	7.792772	81.486513	Valachchanai	PS-510107	7.908015	81.533004					#CenterLocationUnknown
Batticaloa	Valachchenai	Valachchenai Base Hospital	False	False	BTTCLVLCHCHNVLCHCHNBSHSPTL		Batticaloa	LK-51	7.792772	81.486513	Valachchanai	PS-510107	7.908015	81.533004	7.911315	81.533046	Valaichchenai-Nasuvantivu-Navaladi Road, Sri Lanka	0.367088	
Batticaloa	Vavunathivu	MOH Office - Vavunathivu	False	False	BTTCLVVNTHVMHFFCVVNTHV		Batticaloa	LK-51	7.792772	81.486513	Vavunathive	PS-510102	6.933075	79.857181	7.708253	81.691368	Hospital Rd, Batticaloa, Sri Lanka	219.95575	#CenterFarFromPolice
Ampara	Kalmunai	MOH Office - Kalmunai North	False	False	MPRKLMNMHFFCKLMNNRTH		Ampara	LK-52	7.23699	81.550391	Kalmunai	PS-520123	7.414289	81.825006	7.411712	81.838462	CR6Q+M9P, Kalmunai 32300, Sri Lanka	1.511625	
Ampara	Karaitivu	MOH Office – Karaitivu	False	False	MPRKRTVMHFFCKRTV		Ampara	LK-52	7.23699	81.550391	Karaitivu		9.744059	79.870587	7.377712	81.838796	Colombo-Ratnapura-Wellawaya-Batticaloa Highway, Karativu 32250, Sri Lanka	340.788666	#CenterFarFromPolice
Ampara	Sammanthurai	MOH Office - Sammanthurai	False	False	MPRSMMNTHRMHFFCSMMNTHR		Ampara	LK-52	7.23699	81.550391	Samanthurai	PS-520124	7.365785	81.810859	7.369857	81.812264	9R96+WWR, Sammanthurai, Sri Lanka	0.478712	
Ampara	Akkaraipattu	MOH Office - Akkaraipattu	False	False	MPRKKRPTTMHFFCKKRPTT		Ampara	LK-52	7.23699	81.550391	Akkaraipattu	PS-520126	7.216084	81.853254	7.228134	81.851123	6VH2+7C5, Akkaraipattu, Sri Lanka	1.360772	
