district	police	center	dose1	dose2	fuzzy_key	alt_name	district_name_norm	district_id	district_lat	district_lng	ps_name_norm	ps_id	ps_lat	ps_lng	lat	lng	formatted_address	dis_center_to_police	tags
Colombo	Cinnamon Gardens	Viharamahadevi Park	False	False	CLMBCNNMNGRDNSVHRMHDVPRK		Colombo	LK-11	6.869636	80.019598	Cinnamon Garden	PS-110324	6.907289	79.863819	6.913391	79.86174	Viharamahadevi Park, Colombo, Sri Lanka	0.716497	
Colombo	Thalangama	MOH Office – Battaramulla	False	False	CLMBTHLNGMMHFFCBTTRMLL		Colombo	LK-11	6.869636	80.019598	Thalangama	PS-110466	6.91089	79.929325	6.901538	79.919128	WW29+JM6, Battaramulla 10120, Sri Lanka	1.532936	
Colombo	Thalangama	Diyatha Uyana	False	False	CLMBTHLNGMDYTHYN		Colombo	LK-11	6.869636	80.019598	Thalangama	PS-110466	6.91089	79.929325	6.904575	79.909831	Diyatha Uyana, B240, Sri Jayawardenepura Kotte, Sri Lanka	2.264281	
Colombo	Narahenpita	Army Hospital- Narahenpita	False	False	CLMBNRHNPTRMYHSPTLNRHNPT		Colombo	LK-11	6.869636	80.019598	Narahenpita	PS-110321	6.891832	79.876715	6.900252	79.87618	08 Elvitigala Mawatha, Colombo 00800, Sri Lanka	0.938417	
Colombo	Narahenpita	Army Headquarters Mobile Team	False	False	CLMBNRHNPTRMYHDQRTRSMBLTM		Colombo	LK-11	6.869636	80.019598	Narahenpita	PS-110321	6.891832	79.876715					#CenterLocationUnknown
Colombo	Boralesgamuwa	Kotelawala Defence Hospital	False	False	CLMBBRLSGMWKTLWLDFNCHSPTL		Colombo	LK-11	6.869636	80.019598	Boralesgamuwa	PS-110464	6.841331	79.901255	6.82518	79.907167	RWG4+3VF, Boralesgamuwa, Sri Lanka	1.911444	
Colombo	Boralesgamuwa	MOH Office – Werahera	False	False	CLMBBRLSGMWMHFFCWRHR		Colombo	LK-11	6.869636	80.019598	Boralesgamuwa	PS-110464	6.841331	79.901255	6.833094	79.905583	RWM4+66P, Boralesgamuwa, Sri Lanka	1.033386	
Colombo	Dehiwala	MOH Office – Dehiwala	False	False	CLMBDHWLMHFFCDHWL		Colombo	LK-11	6.869636	80.019598	Dehiwala	PS-110580	6.850088	79.871696	6.861346	79.865943	VV68+G9P, Dehiwala-Mount Lavinia, Sri Lanka	1.404177	
Colombo	Mirihana	MOH Office – Beddagana	False	False	CLMBMRHNMHFFCBDDGN		Colombo	LK-11	6.869636	80.019598	Mirihana	PS-110462	6.873714	79.901724	6.885731	79.908328	Baddagana Rd, Sri Jayawardenepura Kotte 10100, Sri Lanka	1.522652	
Colombo	Maradana	National Hospital – Colombo	False	False	CLMBMRDNNTNLHSPTLCLMB		Colombo	LK-11	6.869636	80.019598	Maradana	PS-110107	6.927939	79.865471	6.918743	79.868992	Colombo 00700, Sri Lanka	1.094265	
Colombo	Padukka	Siri Piyarathana Primary School	False	False	CLMBPDKKSRPYRTHNPRMRYSCHL		Colombo	LK-11	6.869636	80.019598	Padukka	PS-110473	6.842195	80.09247	6.838859	80.088899	Padukka Rd, Padukka, Sri Lanka	0.541497	
Colombo	Homagama	Panagoda Bodhirajarama Viharaya	False	False	CLMBHMGMPNGDBDHRJRMVHRY		Colombo	LK-11	6.869636	80.019598	Homagama	PS-110470	6.836155	80.003474	6.929161	79.88265	Gnanawimala Rd, Colombo, Sri Lanka	16.883101	
Colombo	Borella	St. Luke's Church – Borella	False	False	CLMBBRLLSTLKSCHRCHBRLL		Colombo	LK-11	6.869636	80.019598	Borella	PS-110323	6.915266	79.87829	6.918035	79.874548	1091 Gnanartha Pradeepa Mawatha, Colombo 00800, Sri Lanka	0.515354	
Colombo	Mulleriyawa	MOH Office - Gothatuwa	False	False	CLMBMLLRYWMHFFCGTHTW		Colombo	LK-11	6.869636	80.019598	Mulleriyawa	PS-110469	6.927187	79.929108	6.922088	79.916237	Mandavila Rd, Kotikawatta, Sri Lanka	1.530186	
Colombo	Wellampitiya	MOH Office – Kolonnawa	False	False	CLMBWLLMPTYMHFFCKLNNW		Colombo	LK-11	6.869636	80.019598	Wellampitiya	PS-110465	6.937514	79.896298	6.922088	79.916237	Mandavila Rd, Kotikawatta, Sri Lanka	2.791266	
Colombo	Kaduwela	MOH Office – Kaduwela	False	False	CLMBKDWLMHFFCKDWL		Colombo	LK-11	6.869636	80.019598	Kaduwela		6.936234	79.970183	6.934127	79.984398	B263, Kaduwela, Sri Lanka	1.586964	
Colombo	Kosgama	Kosgama Hospital	False	False	CLMBKSGMKSGMHSPTL		Colombo	LK-11	6.869636	80.019598	Kosgama	PS-920227	6.946597	80.137869	6.940956	80.124888	Salawa-Akarawita, 10730, Sri Lanka	1.564606	
Gampaha	Gampaha	Army Headquarters Mobile Team	False	False	GMPHGMPHRMYHDQRTRSMBLTM		Gampaha	LK-12	7.123598	80.018508	Gampaha	PS-120237	7.087765	80.01228					#CenterLocationUnknown
Gampaha	Gampaha	MOH Pffice – Gampaha	False	False	GMPHGMPHMHPFFCGMPH		Gampaha	LK-12	7.123598	80.018508	Gampaha	PS-120237	7.087765	80.01228	7.17227	79.956823	Katunayake-Veyangoda Rd, Minuwangoda, Sri Lanka	11.216745	
Gampaha	Divulapitiya	MOH Office – Divulapitiya	False	False	GMPHDVLPTYMHFFCDVLPTY		Gampaha	LK-12	7.123598	80.018508	Diulapitiya	PS-120355	7.174215	79.957874	7.215486	80.013606	6287+5CX, Divulapitiya, Sri Lanka	7.67456	
Gampaha	Negombo	Municipal Council – Negombo	False	False	GMPHNGMBMNCPLCNCLNGMB		Gampaha	LK-12	7.123598	80.018508	Negombo	PS-120351	7.224796	79.880015	7.20614	79.851928	Colombo Rd, Negombo, Sri Lanka	3.729901	
Gampaha	Pamunugama	Pamunugama Hospital	False	False	GMPHPMNGMPMNGMHSPTL		Gampaha	LK-12	7.123598	80.018508	Pamunugama	PS-120353	7.078892	79.859696	7.093543	79.850191	3VV2+C38, Negombo, Sri Lanka	1.938152	
Gampaha	Nittambuwa	Al-Azhar College	False	False	GMPHNTTMBWLZHRCLLG		Gampaha	LK-12	7.123598	80.018508	Nittambuwa	PS-120246	7.149726	80.10046	7.121335	80.072386	43CC+GXJ, Kalagedihena, Sri Lanka	4.424148	
Gampaha	Mirigama	Abepussa Maternity Clinic	False	False	GMPHMRGMBPSSMTRNTYCLNC		Gampaha	LK-12	7.123598	80.018508	Meerigama	PS-120248	7.245169	80.128647	7.262234	80.172161	Abepussa, Sri Lanka	5.162905	
Gampaha	Pallewela	Kaleliya Maternity Clinic	False	False	GMPHPLLWLKLLYMTRNTYCLNC		Gampaha	LK-12	7.123598	80.018508	Pallewela	PS-120249	7.197365	80.094856	7.197393	80.094227	Kaleliya - Medagampitiya Rd, Pallewela, Sri Lanka	0.069482	
Gampaha	Kadawata	MOH Office - Mahara	False	False	GMPHKDWTMHFFCMHR		Gampaha	LK-12	7.123598	80.018508	Kadawatha	PS-120136	7.00152	79.95003	7.020757	79.973481	Mahara, Eldeniya, Sri Lanka	3.358732	
Gampaha	Biyagama	MOH Office – Biyagama	False	False	GMPHBYGMMHFFCBYGM		Gampaha	LK-12	7.123598	80.018508	Biyagama	PS-120131	6.962284	80.009037	6.946824	79.994052	Hospital Rd, Sri Lanka	2.386313	
Gampaha	Pugoda	MOH Office – Dompe	False	False	GMPHPGDMHFFCDMP		Gampaha	LK-12	7.123598	80.018508	Pugoda	PS-120241	6.98283	80.111189	6.976767	80.117422	Dompe, Pugoda-Mandawala Rd, Pugoda, Sri Lanka	0.963513	
Gampaha	Minuwangoda	MOH Office - Minuwangoda	False	False	GMPHMNWNGDMHFFCMNWNGD		Gampaha	LK-12	7.123598	80.018508	Minuwangoda	PS-120238	7.174215	79.957874	7.17227	79.956823	Katunayake-Veyangoda Rd, Minuwangoda, Sri Lanka	0.245525	
Gampaha	Ja Ela	MOH Office – Ja Ela	False	False	GMPHJLMHFFCJL		Gampaha	LK-12	7.123598	80.018508	Ja - Ela	PS-120133	7.081055	79.890504	7.075216	79.893879	60 Mount Kalvary Rd, Ja-Ela, Sri Lanka	0.748731	
Gampaha	Wattala	MOH Office – Wattala	False	False	GMPHWTTLMHFFCWTTL		Gampaha	LK-12	7.123598	80.018508	Wattala	PS-120128	6.993713	79.894506	6.995817	79.885793	301 Hendala Rd, Wattala, Sri Lanka	0.989991	
Gampaha	Ragama	MOH Office – Ragama	False	False	GMPHRGMMHFFCRGM		Gampaha	LK-12	7.123598	80.018508	Ragama	PS-120134	7.034975	79.924148	7.027386	79.920232	2WGC+X35, Ragama, Sri Lanka	0.948382	
Kalutara	Kalutara	Army Headquarters Mobile Team	False	False	KLTRKLTRRMYHDQRTRSMBLTM		Kalutara	LK-13	6.577316	80.127363	Kalutara South		6.584968	79.96102					#CenterLocationUnknown
Kalutara	Baduraliya	Baduraliya Hospital	False	False	KLTRBDRLYBDRLYHSPTL		Kalutara	LK-13	6.577316	80.127363	Baduraliya	PS-1302106	6.516756	80.226716	6.514727	80.232731	Tiruwanaketiya-Agalawatte Rd, Baduraliya, Sri Lanka	0.702098	
Kalutara	Payagala	Mobile Vaccination	False	False	KLTRPYGLMBLVCCNTN		Kalutara	LK-13	6.577316	80.127363	Payagala	PS-130298	6.541144	79.974855					#CenterLocationUnknown
Kalutara	Panadura	Panadura Hospital	False	False	KLTRPNDRPNDRHSPTL	Base Hospital Panadura	Kalutara	LK-13	6.577316	80.127363	Panadura North		6.756309	79.898939	6.721556	79.906851	A2, Panadura, Sri Lanka	3.963137	
Kalutara	Bandaragama	MOH Office - Bandaragama	False	False	KLTRBNDRGMMHFFCBNDRGM		Kalutara	LK-13	6.577316	80.127363	Bandaragama	PS-130189	6.715179	79.987674	6.713351	79.991671	Library Path, Bandaragama, Sri Lanka	0.486104	
Kalutara	Dodangoda	Wilpatha Hospital	False	False	KLTRDDNGDWLPTHHSPTL		Kalutara	LK-13	6.577316	80.127363	Dodangoda	PS-130299	6.553375	80.023569	6.540961	80.036553	Wilpatha Rd, Sri Lanka	1.991373	
Kalutara	Dodangoda	MOH Office – Dodangoda	False	False	KLTRDDNGDMHFFCDDNGD	6.540366199937832,80.03661033076219	Kalutara	LK-13	6.577316	80.127363	Dodangoda	PS-130299	6.553375	80.023569	6.541731	80.04335	Dodangoda, Sri Lanka	2.540775	
Kalutara	Thebuwana	Ayurvedic Hospital Neboda	False	False	KLTRTHBWNYRVDCHSPTLNBD		Kalutara	LK-13	6.577316	80.127363	Thebuwana	PS-1302105	6.654997	80.058183	6.569839	80.072812	wellatha , Neboda, Neboda - Wellatha Rd, 12030, Sri Lanka	9.609031	
Kalutara	Meegahathenna	MOH Office - Meegahathenna	False	False	KLTRMGHTHNNMHFFCMGHTHNN		Kalutara	LK-13	6.577316	80.127363	Meegahathenna	PS-1302107	6.436941	80.1943	6.435016	80.198501	B158, Meegahathenna, Sri Lanka	0.511322	
Kalutara	Horana	Base Hospital Horana	False	False	KLTRHRNBSHSPTLHRN		Kalutara	LK-13	6.577316	80.127363	Horana	PS-130192	6.714613	80.069091	6.710644	80.066589	Hospital Ln, Horana, Sri Lanka	0.520853	
Kalutara	Ingiriya	Ingiriya Hospital	False	False	KLTRNGRYNGRYHSPTL		Kalutara	LK-13	6.577316	80.127363	Ingiriya	PS-130193	6.743614	80.175077	6.741133	80.162046	Panadura-Nambapana-Ratnapura Hwy, Ingiriya, Sri Lanka	1.465626	
Kalutara	Anguruwatota	MOH Office – Madurawala	False	False	KLTRNGRWTTMHFFCMDRWL		Kalutara	LK-13	6.577316	80.127363	Anguruwatota	PS-130190	6.654997	80.058183	6.654814	80.057811	M335+W4F, Keselhenawa, Sri Lanka	0.045863	
Kalutara	Agalawatta	Pimbura Hospital	False	False	KLTRGLWTTPMBRHSPTL		Kalutara	LK-13	6.577316	80.127363	Agalawatta		6.542566	80.157178	6.575949	80.158371	H5G5+98H, කළුතර, Sri Lanka	3.715525	
Kalutara	Matugama	Weththewa Hospital	False	False	KLTRMTGMWTHTHWHSPTL		Kalutara	LK-13	6.577316	80.127363	Mathugama	PS-1302103	6.520881	80.117908	6.523087	80.125192	District Hospital, Hospital Road,Weththewa,., Matugama, Sri Lanka	0.841523	
Kalutara	Matugama	Katugahahena Hospital	False	False	KLTRMTGMKTGHHNHSPTL		Kalutara	LK-13	6.577316	80.127363	Mathugama	PS-1302103	6.520881	80.117908	6.489328	80.08471	F3QM+PVP, Bopitiya, Sri Lanka	5.077192	
Kalutara	Rasnayakapura	MOH Office - Rasnayakapura	False	False	KLTRRSNYKPRMHFFCRSNYKPR		Kalutara	LK-13	6.577316	80.127363	Rasnayakapura	PS-610323	7.776658	80.012692	7.812336	80.080579	R36J+W6P, Sri Lanka	8.468673	
Kurunegala	Nikaweratiya	MOH Office - Nikaweratiya	False	False	KRNGLNKWRTYMHFFCNKWRTY		Kurunegala	LK-61	7.66477	80.23677	Nikaweratiya	PS-610320	7.742612	80.121177	7.7475	80.115183	Nikaweratiya-Heelogama Rd, Nikaweratiya, Sri Lanka	0.855589	
Kurunegala	Saliyawewa	Saliyawewa Model College	False	False	KRNGLSLYWWSLYWWMDLCLLG		Kurunegala	LK-61	7.66477	80.23677	Saliyawewa	PS-620136	8.192614	80.09136	8.193408	80.093998	Saliyawewa, Sri Lanka	0.303561	
Puttalam	Wennappuwa	MOH Office – Wennappuwa	False	False	PTTLMWNNPPWMHFFCWNNPPW		Puttalam	LK-62	7.973531	79.913833	Wennappuwa	PS-620245	7.339623	79.843017	7.318737	79.845723	Unnamed Road, Nainamadama, Sri Lanka	2.342249	
Puttalam	Walapane	MOH Office - Walapane	False	False	PTTLMWLPNMHFFCWLPN		Puttalam	LK-62	7.973531	79.913833	Walapone	PS-230141	7.093348	80.862513	7.102166	80.862686	Walapane, Sri Lanka	0.981011	
Puttalam	Ragala	Silver Kandy Tamil Vidyalaya	False	False	PTTLMRGLSLVRKNDYTMLVDYLY		Puttalam	LK-62	7.973531	79.913833	Ragala	PS-230142	7.012347	80.858498	8.031949	79.844694	2RJV+QVG, Puttalam, Sri Lanka	159.246965	#CenterFarFromPolice
Puttalam	Ragala	Division 02, High Forest Estate Community Hall	False	False	PTTLMRGLDVSNHGHFRSTSTTCMMNTYHLL		Puttalam	LK-62	7.973531	79.913833	Ragala	PS-230142	7.012347	80.858498	8.025991	79.847127	Puttalam, Sri Lanka	158.587532	#CenterFarFromPolice
Badulla	Bandarawela	Medical Superintendent of Health Office	False	False	BDLLBNDRWLMDCLSPRNTNDNTFHLTHFFC		Badulla	LK-81	7.074529	81.04486	Bandarawela	PS-810210	6.831526	80.986784	6.830197	80.992171	Shopping Complex, Bandarawela, Bandarawela, Sri Lanka	0.613032	
Badulla	Welimada	MOH Office – Welimada	False	False	BDLLWLMDMHFFCWLMD		Badulla	LK-81	7.074529	81.04486	Welimada	PS-810212	6.900481	80.905809	6.927934	80.896475	Udapussellawa-Welimada Road, Ambagasdowa, Sri Lanka	3.222841	
Badulla	Haldummulla	Haldummulla Hospital	False	False	BDLLHLDMMLLHLDMMLLHSPTL		Badulla	LK-81	7.074529	81.04486	Haldummulla		6.762216	80.885856	6.758168	80.879938	Colombo - Ratnapura - Wellawaya - Batticaloa Rd, Sri Lanka	0.793746	
Badulla	Uva Paranagama	MOH Office - Uva Paranagama	False	False	BDLLVPRNGMMHFFCVPRNGM		Badulla	LK-81	7.074529	81.04486	Uvaparanagama	PS-810213	6.958341	80.930364	6.927934	80.896475	Udapussellawa-Welimada Road, Ambagasdowa, Sri Lanka	5.043837	
Badulla	Rideemaliyadda	MOH Office – Rideemaliyadda	False	False	BDLLRDMLYDDMHFFCRDMLYDD		Badulla	LK-81	7.074529	81.04486	Rideemaliyadda		7.214807	81.124613	7.236705	81.107802	B57, Uraniya, Sri Lanka	3.061673	
Badulla	Rideemaliyadda	Thissapura Clinic	False	False	BDLLRDMLYDDTHSSPRCLNC		Badulla	LK-81	7.074529	81.04486	Rideemaliyadda		7.214807	81.124613	7.21816	81.120507	Rideemaliyadda Divisional Secretariat,Rideemaliyadda,Badulla, Bibile - Uraniya - Mahiyangana Rd, Rideemaliyadda, Sri Lanka	0.586845	
Badulla	Sewanagala	MOH Office – Sewanagala	False	False	BDLLSWNGLMHFFCSWNGL		Badulla	LK-81	7.074529	81.04486	Sewanagala	PS-910239	6.360663	80.918555	6.359583	80.920368	B549, Sri Lanka	0.233663	
Badulla	Yakkalamulla	MOH Office – Yakkalamulla	False	False	BDLLYKKLMLLMHFFCYKKLMLL		Badulla	LK-81	7.074529	81.04486	Yakkalamulla	PS-310125	6.106186	80.348152	6.104585	80.342213	483R+RVP, Galle, Sri Lanka	0.680559	
Badulla	Neluwa	Neluwa National College	False	False	BDLLNLWNLWNTNLCLLG		Badulla	LK-81	7.074529	81.04486	Neluwa	PS-310132	6.379651	80.358956	6.911345	81.008423	Neluwa Estate, Bandarawela, Sri Lanka	92.985325	#CenterFarFromPolice
Badulla	Neluwa	Dellawa Maha Vidyalaya	False	False	BDLLNLWDLLWMHVDYLY		Badulla	LK-81	7.074529	81.04486	Neluwa	PS-310132	6.379651	80.358956	6.324008	80.438798	8CFQ+JG3, Galle, Sri Lanka	10.780037	
Badulla	Kamburupitiya	Mobile Vaccination	False	False	BDLLKMBRPTYMBLVCCNTN		Badulla	LK-81	7.074529	81.04486	Kamburupitiya	PS-320105	6.073875	80.564579					#CenterLocationUnknown
Badulla	Mawarala	MOH Office – Mulatiyana	False	False	BDLLMWRLMHFFCMLTYN		Badulla	LK-81	7.074529	81.04486	Mawarala	PS-320109	6.198061	80.587045	6.16048	80.584691	Denegama - Mulatiyana, Mulatiyana, Sri Lanka	4.188226	
Badulla	Hakmana	Narawelpita Vidyalaya	False	False	BDLLHKMNNRWLPTVDYLY		Badulla	LK-81	7.074529	81.04486	Hakmana	PS-320106	6.084824	80.643227	7.049574	81.031299	Badulla, Sri Lanka	115.559656	#CenterFarFromPolice
Hambantota	Hambantota	MOH Office – Hambantota	False	False	HMBNTTHMBNTTMHFFCHMBNTT		Hambantota	LK-33	6.259779	81.098619	Hambantota	PS-330156	6.125872	81.12521	6.171162	81.127	54CG+FQ9, Hambantota, Sri Lanka	5.041487	
Hambantota	Ambalantota	MOH Office – Ambalantota	False	False	HMBNTTMBLNTTMHFFCMBLNTT		Hambantota	LK-33	6.259779	81.098619	Ambalantota	PS-330157	6.12516	81.023981	6.122767	81.005973	Walawa watta Road, Malpeththawa, Ambalantota, Sri Lanka	2.009195	
Hambantota	Walasmulla	MOH Office – Walasmulla	False	False	HMBNTTWLSMLLMHFFCWLSMLL		Hambantota	LK-33	6.259779	81.098619	Walasmulla	PS-330151	6.154102	80.698256	6.150889	80.693718	Walasmulla, Sri Lanka	0.616099	
Hambantota	Weeraketiya	MOH Office – Weeraketiya	False	False	HMBNTTWRKTYMHFFCWRKTY		Hambantota	LK-33	6.259779	81.098619	Weeraketiya	PS-330149	6.153899	80.76737	6.144703	80.765287	4QV8+V4M, Weeraketiya, Sri Lanka	1.048488	
Hambantota	Katuwana	MOH Office – Katuwana	False	False	HMBNTTKTWNMHFFCKTWN		Hambantota	LK-33	6.259779	81.098619	Katuwana	PS-330153	6.269722	80.690963	6.26627	80.693035	7M8V+G63, Katuwana, Sri Lanka	0.447115	
Hambantota	Sooriyawewa	MOH Office – Sooriyawewa	False	False	HMBNTTSRYWWMHFFCSRYWW		Hambantota	LK-33	6.259779	81.098619	Sooriyawewa	PS-330155	6.306022	81.003873	6.304862	81.004768	8233+WWR, Sooriyawewa, Sri Lanka	0.1626	
Hambantota	Beliatta	MOH Office – Beliatta	False	False	HMBNTTBLTTMHFFCBLTT		Hambantota	LK-33	6.259779	81.098619	Beliatta	PS-330152	6.046936	80.735408	6.051828	80.741735	3P2R+PMQ, Hambantota, Sri Lanka	0.886482	
Hambantota	Tangalle	MOH Office – Tangalle	False	False	HMBNTTTNGLLMHFFCTNGLL		Hambantota	LK-33	6.259779	81.098619	Tangalle	PS-330147	6.023954	80.797255	6.02363	80.795742	2QFW+F75, Tangalle, Sri Lanka	0.171198	
Kegalle	Warakapola	MOH Office – Warakapola	False	False	KGLLWRKPLMHFFCWRKPL		Kegalle	LK-92	7.104216	80.342866	Wrakapola	PS-920119	7.227488	80.199696	7.226501	80.197818	65GX+J44, Warakapola, Sri Lanka	0.234514	
Kegalle	Mawanella	MOH Office – Mawanella	False	False	KGLLMWNLLMHFFCMWNLL		Kegalle	LK-92	7.104216	80.342866	Mawanella	PS-920122	7.256966	80.445912	7.253248	80.44561	Rambukkana-Mawanella Rd, Mawanella, Sri Lanka	0.414893	
Kegalle	Yatiyantota	Garagoda Muslim College	False	False	KGLLYTYNTTGRGDMSLMCLLG		Kegalle	LK-92	7.104216	80.342866	Yatiyantota	PS-920230	7.027207	80.290753	7.027881	80.291275	Kg/Dehi/ Garagoda Muslim Maha Vidyalaya, Yatiyanthota, Sri Lanka	0.094557	
Kegalle	Yatiyantota	Yatiyantota National College	False	False	KGLLYTYNTTYTYNTTNTNLCLLG		Kegalle	LK-92	7.104216	80.342866	Yatiyantota	PS-920230	7.027207	80.290753	7.028882	80.295542	Yatiyanthota, Sri Lanka	0.560545	
Kegalle	Yatiyantota	Rathnawali Maha Vidyalaya	False	False	KGLLYTYNTTRTHNWLMHVDYLY		Kegalle	LK-92	7.104216	80.342866	Yatiyantota	PS-920230	7.027207	80.290753	7.096745	80.2783	B127, Kannaththota, Sri Lanka	7.855903	
Kegalle	Rambukkana	MOH Office - Rambukkana	False	False	KGLLRMBKKNMHFFCRMBKKN		Kegalle	LK-92	7.104216	80.342866	Rambukkana	PS-920123	7.324319	80.387808	7.327307	80.394886	89GV+WXC, Rambukkana, Sri Lanka	0.848646	
Kegalle	Pindeniya	MOH Office – Galigamuwa	False	False	KGLLPNDNYMHFFCGLGMW		Kegalle	LK-92	7.104216	80.342866	Pindeniya	PS-920124	7.156486	80.295092	7.240448	80.300505	ballapana, galigamuwa town, Sri Lanka	9.358163	
Kegalle	Kegalle	MOH Offce – Kegalle	False	False	KGLLKGLLMHFFCKGLL		Kegalle	LK-92	7.104216	80.342866	Kegalle	PS-920118	7.255928	80.353156	7.24797	80.343583	Kegalle-Bulathkohupitiya-Karawanella Hwy, Kegalle, Sri Lanka	1.378052	
Kegalle	Aranayaka	MOH Office – Aranayaka	False	False	KGLLRNYKMHFFCRNYK		Kegalle	LK-92	7.104216	80.342866	Aranayaka	PS-920120	7.186505	80.455273	7.177667	80.457992	5FH5+359, Dippitiya, Sri Lanka	1.027824	
Anuradhapura	Anuradhapura	Army Hospital Anuradhapura	False	False	NRDHPRNRDHPRRMYHSPTLNRDHPR		Anuradhapura	LK-71	8.39199	80.512958	Anuradapura	PS-710101	8.329752	80.407265	8.338302	80.407646	AB02, Anuradhapura, Sri Lanka	0.951939	
Anuradhapura	Anuradhapura	Anuradhapura Teaching Hospital	False	False	NRDHPRNRDHPRNRDHPRTCHNGHSPTL		Anuradhapura	LK-71	8.39199	80.512958	Anuradapura	PS-710101	8.329752	80.407265	8.324765	80.413968	Harischandra Mawatha, Anuradhapura, Sri Lanka	0.922993	
Anuradhapura	Anuradhapura	MOH Office - Nuwaragampalatha Central	False	False	NRDHPRNRDHPRMHFFCNWRGMPLTHCNTRL		Anuradhapura	LK-71	8.39199	80.512958	Anuradapura	PS-710101	8.329752	80.407265	8.341215	80.374096	Unnamed Road, Anuradhapura, Sri Lanka	3.866675	
Anuradhapura	Anuradhapura	MOH Office - Nuwaragampalatha East	False	False	NRDHPRNRDHPRMHFFCNWRGMPLTHST		Anuradhapura	LK-71	8.39199	80.512958	Anuradapura	PS-710101	8.329752	80.407265	8.324809	80.412262	Kandy Rd, Anuradhapura, Sri Lanka	0.777651	
Anuradhapura	Anuradhapura	Pandulagama Viharaya	False	False	NRDHPRNRDHPRPNDLGMVHRY		Anuradhapura	LK-71	8.39199	80.512958	Anuradapura	PS-710101	8.329752	80.407265	8.327516	80.361109	Pandulagama, Anuradhapura 50000, Sri Lanka	5.085864	
Anuradhapura	Tirappanaya	MOH Office – Thirappanane	False	False	NRDHPRTRPPNYMHFFCTHRPPNN		Anuradhapura	LK-71	8.39199	80.512958									#PoliceLocationUnknown
Anuradhapura	Mihintale	MOH Office – Mihintale	False	False	NRDHPRMHNTLMHFFCMHNTL		Anuradhapura	LK-71	8.39199	80.512958	Mihintale	PS-710104	8.360062	80.511889	8.357612	80.509049	Puttalam - Anuradhapura - Trincomalee Hwy, Mihintale, Sri Lanka	0.41466	
Jaffna	Achchuveli	Achchuveli Hospital	False	False	JFFNCHCHVLCHCHVLHSPTL		Jaffna	LK-41	9.691792	80.098594	Achchuweli	PS-410103	6.934132	79.856305	9.772721	80.115501	Avarankal-Tondaimanar Rd, Sri Lanka	317.021383	#CenterFarFromPolice
Jaffna	Chavakachcheri	Town Hall – Chavakachcheri	False	False	JFFNCHVKCHCHRTWNHLLCHVKCHCHR		Jaffna	LK-41	9.691792	80.098594	Chawakachcheri	PS-410215	9.666459	80.132384	9.659136	80.160946	M556+M94, Chavakachcheri, Sri Lanka	3.236063	
Jaffna	Kayts	MOH Office – Velanai	False	False	JFFNKYTSMHFFCVLN		Jaffna	LK-41	9.691792	80.098594	Kayts	PS-410212	9.728654	79.94775	9.636317	79.903777	Chatty vangkalvady road, Velanai, Sri Lanka	11.346015	
Jaffna	Kayts	MOH Office – Kayts	False	False	JFFNKYTSMHFFCKYTS		Jaffna	LK-41	9.691792	80.098594	Kayts	PS-410212	9.728654	79.94775	9.697759	79.866366	Sri Lanka, Kayts, Sri Lanka	9.561445	
Jaffna	Kayts	MOH Office – Karainagar	False	False	JFFNKYTSMHFFCKRNGR		Jaffna	LK-41	9.691792	80.098594	Kayts	PS-410212	9.728654	79.94775	9.725097	79.99772	Sri Lanka, Manipay, Sri Lanka	5.492521	
Jaffna	Jaffna	MOH Office - Jaffna	False	False	JFFNJFFNMHFFCJFFN		Jaffna	LK-41	9.691792	80.098594	Jaffna	PS-410209	9.659919	80.010965	9.673947	80.027736	M2FH+H3H, Jaffna, Sri Lanka	2.411714	
Jaffna	Jaffna	Jaffna Mobile Team 01	False	False	JFFNJFFNJFFNMBLTM		Jaffna	LK-41	9.691792	80.098594	Jaffna	PS-410209	9.659919	80.010965					#CenterLocationUnknown
Jaffna	Jaffna	Nainativu Amuthasurabi Hall	False	False	JFFNJFFNNNTVMTHSRBHLL		Jaffna	LK-41	9.691792	80.098594	Jaffna	PS-410209	9.659919	80.010965	9.664467	80.010483	AB16, Jaffna, Sri Lanka	0.508627	
Jaffna	Maruthankerny	Uduththurai Clinic	False	False	JFFNMRTHNKRNYDTHTHRCLNC		Jaffna	LK-41	9.691792	80.098594	Maruthankerny		9.62311	80.397326	9.622142	80.396672	Soranpattu-Talayadi Rd, Sri Lanka	0.129371	
Jaffna	Manippai	Manippai Hospital	False	False	JFFNMNPPMNPPHSPTL		Jaffna	LK-41	9.691792	80.098594	Manippai	PS-410210	9.727151	79.996905	9.725939	79.998028	Manipay, Sri Lanka	0.182569	
Jaffna	Thelippalai	MOH Office – Thelippalai	False	False	JFFNTHLPPLMHFFCTHLPPL		Jaffna	LK-41	9.691792	80.098594	Thelippalay	PS-410104	6.933075	79.857181	9.785272	80.032899	Q2PM+452, Tellippalai, Sri Lanka	317.838063	#CenterFarFromPolice
Jaffna	Thelippalai	Base Hospital Thelippalai	False	False	JFFNTHLPPLBSHSPTLTHLPPL		Jaffna	LK-41	9.691792	80.098594	Thelippalay	PS-410104	6.933075	79.857181	9.785389	80.039171	B437, Tellippalai, Sri Lanka	317.893781	#CenterFarFromPolice
Jaffna	Waddukkottai	MOH Office – Chankanai	False	False	JFFNWDDKKTTMHFFCCHNKN		Jaffna	LK-41	9.691792	80.098594									#PoliceLocationUnknown
Jaffna	Mulankavil	Mulankavil Hospital	False	False	JFFNMLNKVLMLNKVLHSPTL		Jaffna	LK-41	9.691792	80.098594	Mulankavil	PS-450135	9.254463	80.141528	9.243423	80.143894	Base Hospital Mulankavil, A32 Road, Mulankavil, Kumulamunai, Sri Lanka	1.255148	
Jaffna	Pooneryn	MOH Office – Pooneryn	False	False	JFFNPNRYNMHFFCPNRYN		Jaffna	LK-41	9.691792	80.098594	Pooneryn		9.505717	80.21101	9.507968	80.208317	G655+58P, Pooneryn, Sri Lanka	0.387256	
Kilinochchi	Kilinochchi	MOH Office – Karachchi	False	False	KLNCHCHKLNCHCHMHFFCKRCHCH		Kilinochchi	LK-45	9.415742	80.30358	Kilinochchi	PS-450131	9.392265	80.407846	7.683586	81.730767	MPMJ+C8J, Kattankudy, Sri Lanka	239.363691	#CenterFarFromPolice
Kilinochchi	Palei	MOH Office – Palei	False	False	KLNCHCHPLMHFFCPL		Kilinochchi	LK-45	9.415742	80.30358	Palei	PS-450132	6.900777	79.872638	9.610611	80.328165	Office of the Medical Officer for Health, Pallai Pradwshasaba, A9, Pachchilapalli, Sri Lanka	305.555993	#CenterFarFromPolice
Kilinochchi	Dharmapuram	MOH Office – Kandavalai	False	False	KLNCHCHDHRMPRMMHFFCKNDVL		Kilinochchi	LK-45	9.415742	80.30358	Dharmapuram	PS-450136	6.873107	79.86167	9.411006	80.516427	Parantan-Mullaitivu Hwy, Sri Lanka	291.349257	#CenterFarFromPolice
Kilinochchi	Puthukudiyiruppu	Medical Superintendent of Health Office	False	False	KLNCHCHPTHKDYRPPMDCLSPRNTNDNTFHLTHFFC		Kilinochchi	LK-45	9.415742	80.30358	Pudukuduiruppu	PS-440149	7.00152	79.95003	9.396965	80.407782	Kandy - Jaffna Hwy, Kilinochchi, Sri Lanka	271.168205	#CenterFarFromPolice
Trincomalee	Muttur	MOH Office – Muttur	False	False	TRNCMLMTTRMHFFCMTTR		Trincomalee	LK-53	8.551241	81.092014	Mutur	PS-530138	8.461133	81.259371	8.453916	81.264494	1 Old Batticaloa Rd, Mutur, Sri Lanka	0.980859	
Trincomalee	Kinniya	MOH Office – Kinniya	False	False	TRNCMLKNNYMHFFCKNNY		Trincomalee	LK-53	8.551241	81.092014	Kinnia	PS-530140	6.907289	79.863819	8.498696	81.179644	F5XH+FVC, Kinniya 31100, Sri Lanka	228.840304	#CenterFarFromPolice
Trincomalee	Kinniya	Surangal Rural Health Medical Center	False	False	TRNCMLKNNYSRNGLRRLHLTHMDCLCNTR		Trincomalee	LK-53	8.551241	81.092014	Kinnia	PS-530140	6.907289	79.863819	8.47091	81.139893	F4CQ+9X6, Kinniya, Sri Lanka	223.680372	#CenterFarFromPolice
Trincomalee	Sripura	MOH Office – Sripura	False	False	TRNCMLSRPRMHFFCSRPR		Trincomalee	LK-53	8.551241	81.092014	Sripura	PS-530136	8.929617	80.81428	8.926697	80.814799	Padavi Sripura, Padaviya - Sripura Road, Welioya, Sri Lanka	0.329869	
Trincomalee	Kuchchaveli	MOH Office – Kuchchaveli	False	False	TRNCMLKCHCHVLMHFFCKCHCHVL		Trincomalee	LK-53	8.551241	81.092014	Kuchchaweli	PS-530133	8.81895	81.100438	8.740082	81.161616	P5R6+2JQ, Kumpurupiddi, Sri Lanka	11.053646	
Trincomalee	Kuchchaveli	Divisional Hospital – Kuchchaveli	False	False	TRNCMLKCHCHVLDVSNLHSPTLKCHCHVL		Trincomalee	LK-53	8.551241	81.092014	Kuchchaweli	PS-530133	8.81895	81.100438	8.814795	81.102358	R472+WW9, Kuchchaveli, Sri Lanka	0.508064	
Trincomalee	Kuchchaveli	Divisional Hospital – Nilaveli	False	False	TRNCMLKCHCHVLDVSNLHSPTLNLVL		Trincomalee	LK-53	8.551241	81.092014	Kuchchaweli	PS-530133	8.81895	81.100438	8.681035	81.193632	M5JV+CF6, Nilaveli, Sri Lanka	18.44695	
Trincomalee	Pulmoddai	Base Hospital - Pulmoddai	False	False	TRNCMLPLMDDBSHSPTLPLMDD		Trincomalee	LK-53	8.551241	81.092014	Pulmudai	PS-530135	6.915266	79.87829	8.941204	80.983139	WXRM+F7J, Pulmoddai, Sri Lanka	256.112801	#CenterFarFromPolice
Trincomalee	Serunuwara	MOH Office – Serunuwara	False	False	TRNCMLSRNWRMHFFCSRNWR		Trincomalee	LK-53	8.551241	81.092014	Serunuwara	PS-530244	8.321863	81.299322	8.323143	81.299894	B10, Sri Lanka	0.155671	
Trincomalee	Harbour Police	MOH Office – Trincomalee	False	False	TRNCMLHRBRPLCMHFFCTRNCML		Trincomalee	LK-53	8.551241	81.092014	Trinco Harbour Police	PS-530131	8.56705	81.231407	8.598974	81.216963	MOH Office, Farm Rd, Trincomalee, Sri Lanka	3.890062	
Trincomalee	Harbour Police	Base Hospital – Trincomalee	False	False	TRNCMLHRBRPLCBSHSPTLTRNCML		Trincomalee	LK-53	8.551241	81.092014	Trinco Harbour Police	PS-530131	8.56705	81.231407	8.56486	81.239445	Hospital Ln, Trincomalee, Sri Lanka	0.917037	
Trincomalee	Uppuveli	MOH Office - Uppuveli	False	False	TRNCMLPPVLMHFFCPPVL		Trincomalee	LK-53	8.551241	81.092014	Uppuweli	PS-530134	8.593614	81.21743	8.607961	81.216512	Nilaveli Rd, Trincomalee, Sri Lanka	1.599005	
Trincomalee	Kantale	MOH Office - Kantale	False	False	TRNCMLKNTLMHFFCKNTL		Trincomalee	LK-53	8.551241	81.092014	Kantale	PS-530241	8.356129	81.007739	8.349617	81.009107	අග්‍රබෝධි මාවත, Kantale, Sri Lanka	0.739809	
Trincomalee	Ichchalampattu	MOH Office – Ichchalampattu	False	False	TRNCMLCHCHLMPTTMHFFCCHCHLMPTT	Eachchilampattu Hospital	Trincomalee	LK-53	8.551241	81.092014	Ichchalampattu		8.289549	81.359002	8.289644	81.358983	Highway, Ichchalampattu, Trincomalee, Sri Lanka	0.010772	
Batticaloa	Batticaloa	MOH Office - Batticaloa	False	False	BTTCLBTTCLMHFFCBTTCL		Batticaloa	LK-51	7.792772	81.486513	Batticaloa	PS-510101	7.717949	81.699294	7.708253	81.691368	Hospital Rd, Batticaloa, Sri Lanka	1.387934	
Batticaloa	Valachchenai	Valachchenai Base Hospital	False	False	BTTCLVLCHCHNVLCHCHNBSHSPTL		Batticaloa	LK-51	7.792772	81.486513	Valachchanai	PS-510107	7.908015	81.533004	7.911315	81.533046	Valaichchenai-Nasuvantivu-Navaladi Road, Sri Lanka	0.367088	
Batticaloa	Valachchenai	MOH Office - Valachchenai	False	False	BTTCLVLCHCHNMHFFCVLCHCHN		Batticaloa	LK-51	7.792772	81.486513	Valachchanai	PS-510107	7.908015	81.533004	7.912281	81.532775	WG6M+W46, Batticaloa, Sri Lanka	0.475177	
Batticaloa	Valachchenai	MOH Office – Oddamavadi	False	False	BTTCLVLCHCHNMHFFCDDMVD		Batticaloa	LK-51	7.792772	81.486513	Valachchanai	PS-510107	7.908015	81.533004	7.912281	81.532775	WG6M+W46, Batticaloa, Sri Lanka	0.475177	
Batticaloa	Valachchenai	Wakaneri Vidyalaya	False	False	BTTCLVLCHCHNWKNRVDYLY		Batticaloa	LK-51	7.792772	81.486513	Valachchanai	PS-510107	7.908015	81.533004	7.921328	81.52467	Valaichchenai, Sri Lanka	1.742353	
Batticaloa	Valachchenai	MOH Office – Navallady	False	False	BTTCLVLCHCHNMHFFCNVLLDY		Batticaloa	LK-51	7.792772	81.486513	Valachchanai	PS-510107	7.908015	81.533004	7.912281	81.532775	WG6M+W46, Batticaloa, Sri Lanka	0.475177	
Batticaloa	Vakarai	MOH Office - Vakarai	False	False	BTTCLVKRMHFFCVKR	Divisional Hospital Vakarai	Batticaloa	LK-51	7.792772	81.486513	Wakarai	PS-510109	6.934132	79.856305	8.134552	81.435328	Trincomalee Hwy, Vakarai, Sri Lanka	219.417822	#CenterFarFromPolice
Batticaloa	Kaluwanchikudy	MOH Office - Kaluwanchikudy	False	False	BTTCLKLWNCHKDYMHFFCKLWNCHKDY	Medical Officer of Health Kaluwanchikudy	Batticaloa	LK-51	7.792772	81.486513	Kalawanchikudy	PS-510110	7.515908	81.787051	7.509333	81.79204	Colombo - Batticaloa Hwy, Kaluwanchikudy, Sri Lanka	0.915167	
Batticaloa	Kaluwanchikudy	MOH Office – Pattipala	False	False	BTTCLKLWNCHKDYMHFFCPTTPL		Batticaloa	LK-51	7.792772	81.486513	Kalawanchikudy	PS-510110	7.515908	81.787051	7.023407	80.262082	A7, Karawanella, Sri Lanka	176.951035	#CenterFarFromPolice
Batticaloa	Kaluwanchikudy	Kaluwanchikudy Hospital	False	False	BTTCLKLWNCHKDYKLWNCHKDYHSPTL	Base Hospital - Kaluwanchikudy	Batticaloa	LK-51	7.792772	81.486513	Kalawanchikudy	PS-510110	7.515908	81.787051	7.51724	81.785184	GQ8P+V3V, Kaluwanchikudy, Sri Lanka	0.25365	
Batticaloa	Kokkadicholai	Mandur Vidyalaya	False	False	BTTCLKKKDCHLMNDRVDYLY		Batticaloa	LK-51	7.792772	81.486513	Kokkadicholai	PS-510112	7.715979	81.698757	7.612811	81.709755	JP75+4WC, Batticaloa, Sri Lanka	11.539226	
Batticaloa	Vellavali	Mandur 14 Shakthi Vidyalaya	False	False	BTTCLVLLVLMNDRSHKTHVDYLY		Batticaloa	LK-51	7.792772	81.486513	Vellavali	PS-510111	6.907289	79.863819	7.482665	81.75409	Mandur, Sri Lanka	218.194712	#CenterFarFromPolice
Batticaloa	Vellavali	Malaysian Kadu GTMS College	False	False	BTTCLVLLVLMLYSNKDGTMSCLLG		Batticaloa	LK-51	7.792772	81.486513	Vellavali	PS-510111	6.907289	79.863819	7.682761	81.736652	MPMP+4M2, Kattankudy, Sri Lanka	223.907801	#CenterFarFromPolice
Batticaloa	Vavunathivu	MOH Office – Vavunathivu	False	False	BTTCLVVNTHVMHFFCVVNTHV		Batticaloa	LK-51	7.792772	81.486513	Vavunathive	PS-510102	6.933075	79.857181	7.708253	81.691368	Hospital Rd, Batticaloa, Sri Lanka	219.95575	#CenterFarFromPolice
Batticaloa	Kattankudy	MOH Office – Arayampathy	False	False	BTTCLKTTNKDYMHFFCRYMPTHY		Batticaloa	LK-51	7.792772	81.486513	Kaththankudi	PS-510103	7.715979	81.698757	7.672862	81.735019	MPFP+42R, Sri Lanka	6.243191	
Batticaloa	Kattankudy	MOH Office – Kattankudy	False	False	BTTCLKTTNKDYMHFFCKTTNKDY		Batticaloa	LK-51	7.792772	81.486513	Kaththankudi	PS-510103	7.715979	81.698757	7.683586	81.730767	MPMJ+C8J, Kattankudy, Sri Lanka	5.042961	
Batticaloa	Eravur	Sandiveli Hospital	False	False	BTTCLRVRSNDVLHSPTL		Batticaloa	LK-51	7.792772	81.486513	Eravur	PS-510104	7.715979	81.698757	7.777289	81.602853	Trincomalee Hwy, Eravur, Sri Lanka	12.578998	
Batticaloa	Eravur	MOH Office – Eravur	False	False	BTTCLRVRMHFFCRVR		Batticaloa	LK-51	7.792772	81.486513	Eravur	PS-510104	7.715979	81.698757	7.783664	81.605626	QJM4+F76, Eravur, Sri Lanka	12.729342	
Batticaloa	Eravur	Safiya Musque	False	False	BTTCLRVRSFYMSQ		Batticaloa	LK-51	7.792772	81.486513	Eravur	PS-510104	7.715979	81.698757	7.784444	81.593982	QHMV+QHH, Chenkaladi, Sri Lanka	13.832634	
Batticaloa	Eravur	Eravur Hospital	False	False	BTTCLRVRRVRHSPTL		Batticaloa	LK-51	7.792772	81.486513	Eravur	PS-510104	7.715979	81.698757	7.783168	81.605999	QJM4+799, Eravur 30300, Sri Lanka	12.663585	
Batticaloa	Eravur	MOH Office – Chenkaladi	False	False	BTTCLRVRMHFFCCHNKLD		Batticaloa	LK-51	7.792772	81.486513	Eravur	PS-510104	7.715979	81.698757	7.783599	81.593367	Trincomalee Hwy, Chenkaladi 30350, Sri Lanka	13.837876	
Batticaloa	Eravur	Chenkaladi Hospital	False	False	BTTCLRVRCHNKLDHSPTL		Batticaloa	LK-51	7.792772	81.486513	Eravur	PS-510104	7.715979	81.698757	7.783546	81.589961	Batticaloa Rd, Chenkaladi, Sri Lanka	14.151406	
Batticaloa	Eravur	Kaluwankenai Vidyalaya	False	False	BTTCLRVRKLWNKNVDYLY		Batticaloa	LK-51	7.792772	81.486513	Eravur	PS-510104	7.715979	81.698757	7.777732	81.603631	Trincomalee Road, Eravur, Sri Lanka	12.533962	
Batticaloa	Eravur	World Vision Building – Mawadiwembu	False	False	BTTCLRVRWRLDVSNBLDNGMWDWMB		Batticaloa	LK-51	7.792772	81.486513	Eravur	PS-510104	7.715979	81.698757	7.781258	81.594927	QHJV+GX3, Eravur, Sri Lanka	13.552725	
Batticaloa	Eravur	Mawadiwembu Hospital	False	False	BTTCLRVRMWDWMBHSPTL		Batticaloa	LK-51	7.792772	81.486513	Eravur	PS-510104	7.715979	81.698757	7.808545	81.566328	Mawadiwembu Hospital, Sri Lanka	17.861302	
Batticaloa	Karadiyanaru	Marapalam Vidyalaya	False	False	BTTCLKRDYNRMRPLMVDYLY		Batticaloa	LK-51	7.792772	81.486513	Karadiyanaru	PS-510105	7.701992	81.537252	7.5182	81.75479	kovilporathivu, Sri Lanka	31.514043	#CenterFarFromPolice
Batticaloa	Karadiyanaru	Karadiyanaru Hospital	False	False	BTTCLKRDYNRKRDYNRHSPTL		Batticaloa	LK-51	7.792772	81.486513	Karadiyanaru	PS-510105	7.701992	81.537252	7.700216	81.539779	PG2Q+3WJ, Karadiyanaru, Sri Lanka	0.341482	
Ampara	Chavalakade	MOH Office - Navidanveli	False	False	MPRCHVLKDMHFFCNVDNVL		Ampara	LK-52	7.23699	81.550391	Chawalakade	PS-520125	7.413559	81.776822	7.420081	81.788401	B77, Sri Lanka	1.468805	
Ampara	Akkaraipattu	MOH Office – Addalachenai	False	False	MPRKKRPTTMHFFCDDLCHN		Ampara	LK-52	7.23699	81.550391	Akkaraipattu	PS-520126	7.216084	81.853254	7.260916	81.853493	7V63+999, Addalaichenai, Sri Lanka	4.986726	
Ampara	Akkaraipattu	MOH Office - Akkaraipattu	False	False	MPRKKRPTTMHFFCKKRPTT		Ampara	LK-52	7.23699	81.550391	Akkaraipattu	PS-520126	7.216084	81.853254	7.228134	81.851123	6VH2+7C5, Akkaraipattu, Sri Lanka	1.360772	
Ampara	Karaitivu	MOH Office – Karaitivu	False	False	MPRKRTVMHFFCKRTV		Ampara	LK-52	7.23699	81.550391	Karaitivu		9.744059	79.870587	7.377712	81.838796	Colombo-Ratnapura-Wellawaya-Batticaloa Highway, Karativu 32250, Sri Lanka	340.788666	#CenterFarFromPolice
Ampara	Kalmunai	MOH Office - Kalmunai South	False	False	MPRKLMNMHFFCKLMNSTH		Ampara	LK-52	7.23699	81.550391	Kalmunai	PS-520123	7.414289	81.825006	7.411712	81.838462	CR6Q+M9P, Kalmunai 32300, Sri Lanka	1.511625	
Ampara	Kalmunai	Base Hospital - Kalmunai North	False	False	MPRKLMNBSHSPTLKLMNNRTH		Ampara	LK-52	7.23699	81.550391	Kalmunai	PS-520123	7.414289	81.825006	7.420034	81.82232	hospital near, Kalmunai 32300, Sri Lanka	0.704353	
Ampara	Kalmunai	MOH Office - Kalmunai North	False	False	MPRKLMNMHFFCKLMNNRTH		Ampara	LK-52	7.23699	81.550391	Kalmunai	PS-520123	7.414289	81.825006	7.411712	81.838462	CR6Q+M9P, Kalmunai 32300, Sri Lanka	1.511625	
Ampara	Thirukkovil	MOH Office – Thirukkovil	False	False	MPRTHRKKVLMHFFCTHRKKVL		Ampara	LK-52	7.23699	81.550391	Thirukkovil	PS-520127	7.113998	81.852219	7.111635	81.852892	Central Rd, Vinayagapuram, Sri Lanka	0.273131	
Ampara	Sainthamarthu	MOH Office – Sainthamarthu	False	False	MPRSNTHMRTHMHFFCSNTHMRTH		Ampara	LK-52	7.23699	81.550391									#PoliceLocationUnknown
Ampara	Sammanthurai	Sammanthurai Base Hospital	False	False	MPRSMMNTHRSMMNTHRBSHSPTL		Ampara	LK-52	7.23699	81.550391	Samanthurai	PS-520124	7.365785	81.810859	7.368355	81.813042	9R96+MWM, Hospital Rd, Sammanthurai, Sri Lanka	0.373773	
Ampara	Sammanthurai	MOH Office – Nintavur	False	False	MPRSMMNTHRMHFFCNNTVR		Ampara	LK-52	7.23699	81.550391	Samanthurai	PS-520124	7.365785	81.810859	7.352821	81.856939	Hospital Rd, Nintavur 32340, Sri Lanka	5.283925	
Ampara	Sammanthurai	MOH Office - Sammanthurai	False	False	MPRSMMNTHRMHFFCSMMNTHR		Ampara	LK-52	7.23699	81.550391	Samanthurai	PS-520124	7.365785	81.810859	7.369857	81.812264	9R96+WWR, Sammanthurai, Sri Lanka	0.478712	
Ampara	Panama	Panama Sinhala Vidyalaya	False	False	MPRPNMPNMSNHLVDYLY		Ampara	LK-52	7.23699	81.550391	Panama	PS-520129	6.752004	81.79349	6.755175	81.803536	QR43+3C7, Panama, Sri Lanka	1.164368	
Ampara	Uhana	MOH Office – Uhana	False	False	MPRHNMHFFCHN		Ampara	LK-52	7.23699	81.550391	Uhana	PS-520116	7.362435	81.636035	7.366036	81.635659	A27, Sri Lanka	0.40268	
Ampara	Pottuvil	MOH Office – Pottuvil	False	False	MPRPTTVLMHFFCPTTVL		Ampara	LK-52	7.23699	81.550391	Pothuvil	PS-520128	6.878387	81.826859	6.877076	81.828969	B374, Pottuvil, Sri Lanka	0.274874	
Ampara	Pottuvil	Base Hospital Pottuvil	False	False	MPRPTTVLBSHSPTLPTTVL		Ampara	LK-52	7.23699	81.550391	Pothuvil	PS-520128	6.878387	81.826859	6.876098	81.830463	Main Street Colombo - Batticaloa Hwy, Pottuvil 32500, Sri Lanka	0.47246	
Ampara	Pottuvil	Uraniya Vidyalaya	False	False	MPRPTTVLRNYVDYLY		Ampara	LK-52	7.23699	81.550391	Pothuvil	PS-520128	6.878387	81.826859	6.873537	81.823156	VRFF+C76, Pottuvil, Sri Lanka	0.676934	
Ampara	Pottuvil	Periyaulla Vidyalaya	False	False	MPRPTTVLPRYLLVDYLY		Ampara	LK-52	7.23699	81.550391	Pothuvil	PS-520128	6.878387	81.826859	6.873537	81.823156	VRFF+C76, Pottuvil, Sri Lanka	0.676934	
