district	police	center	dose1	dose2	fuzzy_key	alt_name	district_name_norm	district_id	district_lat	district_lng	ps_name_norm	ps_id	ps_lat	ps_lng	lat	lng	formatted_address	dis_center_to_police	tags	district_si	police_si	center_si	district_ta	police_ta	center_ta	formatted_address_si	formatted_address_ta
Colombo	Cinnamon Gardens	Viharamahadevi Park	False	False	CLMBCNNMNGRDNSVHRMHDVPRK		Colombo	LK-11	6.869636	80.019598	Cinnamon Garden	PS-110324	6.907289	79.863819	6.913391	79.86174	Viharamahadevi Park, Colombo, Sri Lanka	0.716497		කොළඹ	කුරුඳු උද්‍යාන	විහාරමහාදේවි උද්‍යානය	கொழும்பு	இலவங்கப்பட்டை தோட்டங்கள்	விஹாரமஹாதேவி பூங்கா	විහාරමහාදේවි උද්‍යානය, කොළඹ, ශ්‍රී ලංකාව	விஹாரமஹாதேவி பூங்கா, கொழும்பு, இலங்கை
Colombo	Thalangama	Diyatha Uyana	False	False	CLMBTHLNGMDYTHYN		Colombo	LK-11	6.869636	80.019598	Thalangama	PS-110466	6.91089	79.929325	6.904575	79.909831	Diyatha Uyana, B240, Sri Jayawardenepura Kotte, Sri Lanka	2.264281		කොළඹ	තලංගම	දියත උයන	கொழும்பு	தலங்கம	தியாத உயனா	දියත උයන, බී 240, ශ්‍රී ජයවර්ධනපුර කෝට්ටේ, ශ්‍රී ලංකාව	தியாத உயனா, B240, ஸ்ரீ ஜெயவர்தனபுர கோட்டே, இலங்கை
Colombo	Thalangama	MOH Office - Battaramulla	False	False	CLMBTHLNGMMHFFCBTTRMLL		Colombo	LK-11	6.869636	80.019598	Thalangama	PS-110466	6.91089	79.929325	6.901538	79.919128	WW29+JM6, Battaramulla 10120, Sri Lanka	1.532936		කොළඹ	තලංගම	MOH කාර්යාලය - බත්තරමුල්ල	கொழும்பு	தலங்கம	MOH அலுவலகம் - பத்தரமுல்ல	WW29+JM6, බත්තරමුල්ල 10120, ශ්‍රී ලංකාව	WW29+JM6, பத்தரமுல்ல 10120, இலங்கை
Colombo	Grandpass	Sugathadasa Outdoor Stadium	False	False	CLMBGRNDPSSSGTHDSTDRSTDM		Colombo	LK-11	6.869636	80.019598	Grandpass	PS-110215	6.949052	79.872983	6.94806	79.868842	Prince of Wales Ave, Colombo 01400, Sri Lanka	0.470345		කොළඹ	ග්‍රෑන්ඩ්පාස්	සුගතදාස එළිමහන් ක්‍රීඩාංගනය	கொழும்பு	கிராண்ட்பாஸ்	சுகததாச வெளிப்புற அரங்கம்	වේල්ස් කුමර මාවත, කොළඹ 01400, ශ්‍රී ලංකාව	பிரின்ஸ் ஆஃப் வேல்ஸ் அவே, கொழும்பு 01400, இலங்கை
Colombo	Narahenpita	Army Hospital Narahenpita	False	False	CLMBNRHNPTRMYHSPTLNRHNPT		Colombo	LK-11	6.869636	80.019598	Narahenpita	PS-110321	6.891832	79.876715	6.900252	79.87618	08 Elvitigala Mawatha, Colombo 00800, Sri Lanka	0.938417		කොළඹ	නාරාහේන්පිට	නාරාහේන්පිට හමුදා රෝහල	கொழும்பு	நரஹேன்பிட்ட	இராணுவ மருத்துவமனை நாரஹேன்பிட்ட	08 ඇල්විටිගල මාවත, කොළඹ 00800, ශ්‍රී ලංකාව	08 எல்விட்டிகல மாவத்தை, கொழும்பு 00800, இலங்கை
Colombo	Boralesgamuwa	Kotelawala Defence Hospital	False	False	CLMBBRLSGMWKTLWLDFNCHSPTL		Colombo	LK-11	6.869636	80.019598	Boralesgamuwa	PS-110464	6.841331	79.901255	6.82518	79.907167	RWG4+3VF, Boralesgamuwa, Sri Lanka	1.911444		කොළඹ	බොරලැස්ගමුව	කොතලාවල ආරක්‍ෂක රෝහල	கொழும்பு	பொரலஸ்கமுவா	கொத்தலாவல பாதுகாப்பு மருத்துவமனை	RWG4+3VF, බොරලැස්ගමුව, ශ්‍රී ලංකාව	RWG4+3VF, பொரலஸ்கமுவா, இலங்கை
Colombo	Boralesgamuwa	MOH Office - Werahera	False	False	CLMBBRLSGMWMHFFCWRHR		Colombo	LK-11	6.869636	80.019598	Boralesgamuwa	PS-110464	6.841331	79.901255	6.833094	79.905583	RWM4+66P, Boralesgamuwa, Sri Lanka	1.033386		කොළඹ	බොරලැස්ගමුව	MOH කාර්යාලය - වේරහැර	கொழும்பு	பொரலஸ்கமுவா	MOH அலுவலகம் - வெரஹெரா	RWM4+66P, බොරලැස්ගමුව, ශ්‍රී ලංකාව	RWM4+66P, பொரலஸ்கமுவா, இலங்கை
Colombo	Mount Lavinia	Park Road Maternity Clinic	False	False	CLMBMNTLVNPRKRDMTRNTYCLNC		Colombo	LK-11	6.869636	80.019598	Mount Lavinia	PS-110577	6.825006	79.87009	6.824371	79.872256	RVFC+PWR, Dehiwala-Mount Lavinia, Sri Lanka	0.249426		කොළඹ	ගල්කිස්ස	පාක් පාර මාතෘ සායනය	கொழும்பு	கல்கிசை	பார்க் சாலை மகப்பேறு மருத்துவமனை	RVFC+PWR, දෙහිවල-ගල්කිස්ස, ශ්‍රී ලංකාව	RVFC+PWR, தெஹிவளை-கல்கிசை, இலங்கை
Colombo	Maradana	National Hospital - Colombo	False	False	CLMBMRDNNTNLHSPTLCLMB		Colombo	LK-11	6.869636	80.019598	Maradana	PS-110107	6.927939	79.865471	6.918743	79.868992	Colombo 00700, Sri Lanka	1.094265		කොළඹ	මරදාන	ජාතික රෝහල - කොළඹ	கொழும்பு	மரதானா	தேசிய மருத்துவமனை - கொழும்பு	කොළඹ 00700, ශ්‍රී ලංකාව	கொழும்பு 00700, இலங்கை
Colombo	Wellawatta	Mobile Vaccination	False	False	CLMBWLLWTTMBLVCCNTN		Colombo	LK-11	6.869636	80.019598	Wellawatta	PS-110320	6.873107	79.86167					#CenterLocationUnknown	කොළඹ	වැල්ලවත්ත	ජංගම එන්නත	கொழும்பு	வெள்ளவத்தை	மொபைல் தடுப்பூசி		
Colombo	Padukka	Siripiyarathana Primary School	False	False	CLMBPDKKSRPYRTHNPRMRYSCHL		Colombo	LK-11	6.869636	80.019598	Padukka	PS-110473	6.842195	80.09247					#CenterLocationUnknown	කොළඹ	පාදුක්ක	සිරිපියරතන ප්‍රාථමික විද්‍යාලය	கொழும்பு	பாதுக்கா	சிறிபியரதான ஆரம்பப் பள்ளி		
Colombo	Dehiwala	S. De. S. Jayasinghe Hall	False	False	CLMBDHWLSDSJYSNGHHLL		Colombo	LK-11	6.869636	80.019598	Dehiwala	PS-110580	6.850088	79.871696	6.861489	79.865045	B11, Dehiwala-Mount Lavinia, Sri Lanka	1.465485		කොළඹ	දෙහිවල	එස්. ද. එස්. ජයසිංහ ශාලාව	கொழும்பு	தெஹிவளை	எஸ். டி. எஸ். ஜெயசிங்க மண்டபம்	බී 11, දෙහිවල-ගල්කිස්ස, ශ්‍රී ලංකාව	பி 11, தெஹிவளை-கல்கிசை, இலங்கை
Colombo	Wellampitiya	MOH Office - Kolonnawa	False	False	CLMBWLLMPTYMHFFCKLNNW		Colombo	LK-11	6.869636	80.019598	Wellampitiya	PS-110465	6.937514	79.896298	6.938303	79.889664	25 Pansalhena 1st Ln, 10600, Sri Lanka	0.737734		කොළඹ	වැල්ලම්පිටිය	MOH කාර්යාලය - කොළොන්නාව	கொழும்பு	வெல்லம்பிட்டிய	MOH அலுவலகம் - கொலன்னாவா	25 පන්සල්හේන 1 වන අංකය, 10600, ශ්‍රී ලංකාව	25 பன்சால்ஹேனா 1 வது எண், 10600, இலங்கை
Colombo	Mulleriyawa	MOH Office - Gothatuwa	False	False	CLMBMLLRYWMHFFCGTHTW		Colombo	LK-11	6.869636	80.019598	Mulleriyawa	PS-110469	6.927187	79.929108	6.922088	79.916237	Mandavila Rd, Kotikawatta, Sri Lanka	1.530186		කොළඹ	මුල්ලේරියාව	MOH කාර්යාලය - ගොතටුව	கொழும்பு	முல்லேரியாவா	MOH அலுவலகம் - கோததுவா	මණ්ඩවිල පාර, කොටිකාවත්ත, ශ්‍රී ලංකාව	மண்டவில வீதி, கொட்டிகாவத்த, இலங்கை
Colombo	Kaduwela	MOH Office - Kaduwela	False	False	CLMBKDWLMHFFCKDWL		Colombo	LK-11	6.869636	80.019598	Kaduwela		6.936234	79.970183	6.934127	79.984398	B263, Kaduwela, Sri Lanka	1.586964		කොළඹ	කඩුවෙල	MOH කාර්යාලය - කඩුවෙල	கொழும்பு	கடுவெல	MOH அலுவலகம் - கடுவெல	බී 263, කඩුවෙල, ශ්‍රී ලංකාව	பி 263, கடுவெல, இலங்கை
Colombo	Kosgama	Kosgama Hospital	False	False	CLMBKSGMKSGMHSPTL		Colombo	LK-11	6.869636	80.019598	Kosgama	PS-920227	6.946597	80.137869	6.940956	80.124888	Salawa-Akarawita, 10730, Sri Lanka	1.564606		කොළඹ	කොස්ගම	කොස්ගම රෝහල	கொழும்பு	கொஸ்கம	கொஸ்கம மருத்துவமனை	සාලාව-අකරවිට, 10730, ශ්‍රී ලංකාව	சலாவா-அகரவிட, 10730, இலங்கை
Gampaha	Gampaha	MOH Office - Gampaha	False	False	GMPHGMPHMHFFCGMPH		Gampaha	LK-12	7.123598	80.018508	Gampaha	PS-120237	7.087765	80.01228	7.090643	80.002094	Colombo Rd, Gampaha, Sri Lanka	1.16901		ගම්පහ	ගම්පහ	MOH කාර්යාලය - ගම්පහ	கம்பஹா	கம்பஹா	MOH அலுவலகம் - கம்பஹா	කොළඹ පාර, ගම්පහ, ශ්‍රී ලංකාව	கொழும்பு வீதி, கம்பஹா, இலங்கை
Gampaha	Minuwangoda	MOH Office - Minuwangoda	False	False	GMPHMNWNGDMHFFCMNWNGD		Gampaha	LK-12	7.123598	80.018508	Minuwangoda	PS-120238	7.174215	79.957874	7.17227	79.956823	Katunayake-Veyangoda Rd, Minuwangoda, Sri Lanka	0.245525		ගම්පහ	මිනුවන්ගොඩ	MOH කාර්යාලය - මිනුවන්ගොඩ	கம்பஹா	மினுவாங்கொட	MOH அலுவலகம் - மினுவாங்கொட	කටුනායක-වේයන්ගොඩ පාර, මිනුවන්ගොඩ, ශ්‍රී ලංකාව	கட்டுநாயக்க-வெயங்கொட வீதி, மினுவாங்கொட, இலங்கை
Gampaha	Minuwangoda	Aluthapotha Viharaya	False	False	GMPHMNWNGDLTHPTHVHRY		Gampaha	LK-12	7.123598	80.018508	Minuwangoda	PS-120238	7.174215	79.957874	7.206081	79.962286	Sri Dhammananda Nahimi Mawatha, Aluthepola, Sri Lanka	3.577734		ගම්පහ	මිනුවන්ගොඩ	අළුතපොත විහාරය	கம்பஹா	மினுவாங்கொட	அழுதபோத விகாரை	ශ්‍රී ධම්මානන්ද නාහිමි මාවත, අළුතෙපොළ, ශ්‍රී ලංකාව	ஸ்ரீ தம்மானந்தா நஹிமி மாவத்தை, அளுதெபொல, இலங்கை
Gampaha	Weliweriya	Naga Piriven Viharaya	False	False	GMPHWLWRYNGPRVNVHRY		Gampaha	LK-12	7.123598	80.018508	Weliweriya	PS-120244	7.03451	80.026114	7.019518	80.011107	2296+RC5, Gampaha, Sri Lanka	2.350609		ගම්පහ	වැලිවේරිය	නාග පිරිවෙන් විහාරය	கம்பஹா	வெலிவேரியா	நாக பிரிவென் விஹாராயா	2296+ආර්සී 5, ගම්පහ, ශ්‍රී ලංකාව	2296+RC5, கம்பஹா, இலங்கை
Gampaha	Pugoda	MOH Office – Dompe	False	False	GMPHPGDMHFFCDMP		Gampaha	LK-12	7.123598	80.018508	Pugoda	PS-120241	6.98283	80.111189	6.976767	80.117422	Dompe, Pugoda-Mandawala Rd, Pugoda, Sri Lanka	0.963513		ගම්පහ	පූගොඩ	MOH කාර්යාලය - දොම්පේ	கம்பஹா	புகோடா	MOH அலுவலகம் - Dompe	දොම්පේ, පූගොඩ-මණ්ඩාවල පාර, පූගොඩ, ශ්‍රී ලංකාව	டோம்பே, புகோடா-மண்டவாலா சாலை, புகோடா, இலங்கை
Gampaha	Katana	MOH Office - Katana	False	False	GMPHKTNMHFFCKTN		Gampaha	LK-12	7.123598	80.018508	Katana	PS-120360	7.224796	79.880015	7.22436	79.88271	Katana, Negombo - Mirigama Rd, Negombo, Sri Lanka	0.301313		ගම්පහ	කටාන	MOH කාර්යාලය - කටාන	கம்பஹா	கட்டானா	MOH அலுவலகம் - கட்டானா	කටාන, මීගමුව - මීරිගම පාර, මීගමුව, ශ්‍රී ලංකාව	கட்டானா, நீர்கொழும்பு - மீரிகம வீதி, நீர்கொழும்பு, இலங்கை
Gampaha	Nittambuwa	Hubutiyawa Community Hall	False	False	GMPHNTTMBWHBTYWCMMNTYHLL		Gampaha	LK-12	7.123598	80.018508	Nittambuwa	PS-120246	7.149726	80.10046	7.146918	80.097194	No. 137 Colombo - Kandy Rd, Nittambuwa 11880, Sri Lanka	0.476947		ගම්පහ	නිට්ටඹුව	හුබුටියාව ප්‍රජා ශාලාව	கம்பஹா	நிட்டம்புவா	ஹுபுடியாவா சமூக மண்டபம்	අංක 137 කොළඹ - මහනුවර පාර, නිට්ටඹුව 11880, ශ්‍රී ලංකාව	எண் 137 கொழும்பு - கண்டி வீதி, நிட்டம்புவா 11880, இலங்கை
Gampaha	Nittambuwa	Bopeththa Viveka Senasanaya	False	False	GMPHNTTMBWBPTHTHVVKSNSNY		Gampaha	LK-12	7.123598	80.018508	Nittambuwa	PS-120246	7.149726	80.10046	7.094278	80.137398	B434, Sri Lanka	7.393164		ගම්පහ	නිට්ටඹුව	බෝපෙත්ත විවේකා සේනාසනය	கம்பஹா	நிட்டம்புவா	போபெத்த விவேகா சேனாசநாய	බී 434, ශ්‍රී ලංකාව	பி 434, இலங்கை
Gampaha	Pallewela	Muddaragama Clinic	False	False	GMPHPLLWLMDDRGMCLNC		Gampaha	LK-12	7.123598	80.018508	Pallewela	PS-120249	7.197365	80.094856	7.26891	79.954982	7X93+HX9, Gampaha, Sri Lanka	17.365135		ගම්පහ	පල්ලෙවෙල	මුද්දරගම සායනය	கம்பஹா	பல்லெவெல	முத்தரகம கிளினிக்	7X93+HX9, ගම්පහ, ශ්‍රී ලංකාව	7X93+HX9, கம்பஹா, இலங்கை
Gampaha	Kiribathgoda	Dalugama Clinic	False	False	GMPHKRBTHGDDLGMCLNC		Gampaha	LK-12	7.123598	80.018508	Kiribathgoda	PS-120135	6.978005	79.929433	6.980847	79.929943	XWJH+8XP, Kiribathgoda, Sri Lanka	0.321091		ගම්පහ	කිරිබත්ගොඩ	දළුගම සායනය	கம்பஹா	கிரிபத்கோடா	தாலுகம கிளினிக்	XWJH+8XP, කිරිබත්ගොඩ, ශ්‍රී ලංකාව	XWJH+8XP, கிரிபத்கோடா, இலங்கை
Gampaha	Kadawata	Gongitota Clinic	False	False	GMPHKDWTGNGTTCLNC		Gampaha	LK-12	7.123598	80.018508	Kadawatha	PS-120136	7.00152	79.95003	7.09136	80.000709	A33, Gampaha, Sri Lanka	11.452317		ගම්පහ	කඩවත	ගොන්ගිටොට සායනය	கம்பஹா	கடவாடா	Gongitota கிளினிக்	ඒ 33, ගම්පහ, ශ්‍රී ලංකාව	A33, கம்பஹா, இலங்கை
Gampaha	Biyagama	MOH Office - Biyagama	False	False	GMPHBYGMMHFFCBYGM		Gampaha	LK-12	7.123598	80.018508	Biyagama	PS-120131	6.962284	80.009037	6.946824	79.994052	Hospital Rd, Sri Lanka	2.386313		ගම්පහ	බියගම	MOH කාර්යාලය - බියගම	கம்பஹா	பியகம	MOH அலுவலகம் - பியாகம	රෝහල පාර, ශ්‍රී ලංකාව	மருத்துவமனை Rd, இலங்கை
Gampaha	Negombo	Risen Christ's Church - Negombo	False	False	GMPHNGMBRSNCHRSTSCHRCHNGMB		Gampaha	LK-12	7.123598	80.018508	Negombo	PS-120351	7.224796	79.880015	7.198259	79.842073	5RXR+8R4, Negombo, Sri Lanka	5.122761		ගම්පහ	මීගමුව	රයිසන් ක්‍රිස්තුස් දේවස්ථානය - මීගමුව	கம்பஹா	நீர்கொழும்பு	எழுந்த கிறிஸ்துவின் தேவாலயம் - நீர்கொழும்பு	5RXR+8R4, මීගමුව, ශ්‍රී ලංකාව	5RXR+8R4, நீர்கொழும்பு, இலங்கை
Gampaha	Negombo	Wijerathnam National College	False	False	GMPHNGMBWJRTHNMNTNLCLLG		Gampaha	LK-12	7.123598	80.018508	Negombo	PS-120351	7.224796	79.880015	7.209396	79.852931	Angurukaramulla, Negombo, Sri Lanka	3.444761		ගම්පහ	මීගමුව	විජේරත්නම් ජාතික විද්‍යාලය	கம்பஹா	நீர்கொழும்பு	விஜேரத்தினம் தேசிய கல்லூரி	අඟුරුකාරමුල්ල, මීගමුව, ශ්‍රී ලංකාව	அங்குருகரமுல்லா, நீர்கொழும்பு, இலங்கை
Gampaha	Negombo	St. Francis De Sale's Church , Kattuwa	False	False	GMPHNGMBSTFRNCSDSLSCHRCHKTTW		Gampaha	LK-12	7.123598	80.018508	Negombo	PS-120351	7.224796	79.880015	7.234667	79.849806	Negombo, Sri Lanka	3.509626		ගම්පහ	මීගමුව	කටුව ශාන්ත ෆ්‍රැන්සිස් ද සේල් දේවස්ථානය	கம்பஹா	நீர்கொழும்பு	புனித பிரான்சிஸ் டி சேல்ஸ் தேவாலயம், கட்டுவா	මීගමුව, ශ්‍රී ලංකාව	நீர்கொழும்பு, இலங்கை
Gampaha	Katunayaka	Dewa Mottawa Abhayaraja Viharaya	False	False	GMPHKTNYKDWMTTWBHYRJVHRY		Gampaha	LK-12	7.123598	80.018508	Katunayaka	PS-120358	7.165898	79.882607	7.179962	79.90731	Dewamottawa, Katunayake, Sri Lanka	3.143143		ගම්පහ	කටුනායක	දේව මොට්ටාව අභයරාජ විහාරය	கம்பஹா	கட்டுநாயக்க	தேவா மொட்டவா அபயராஜா விஹாராயா	දෙවමත්තාව, කටුනායක, ශ්‍රී ලංකාව	தேவமோட்டாவா, கட்டுநாயக்க, இலங்கை
Gampaha	Pamunugama	Pamunugama Hospital	False	False	GMPHPMNGMPMNGMHSPTL		Gampaha	LK-12	7.123598	80.018508	Pamunugama	PS-120353	7.078892	79.859696	7.093543	79.850191	3VV2+C38, Negombo, Sri Lanka	1.938152		ගම්පහ	පමුණුගම	පමුණුගම රෝහල	கம்பஹா	பமுனுகம	பமுனுகம மருத்துவமனை	3VV2+C38, මීගමුව, ශ්‍රී ලංකාව	3VV2+C38, நீர்கொழும்பு, இலங்கை
Gampaha	Divulapitiya	MOH Office - Divulapitiya	False	False	GMPHDVLPTYMHFFCDVLPTY		Gampaha	LK-12	7.123598	80.018508	Diulapitiya	PS-120355	7.174215	79.957874	7.215486	80.013606	6287+5CX, Divulapitiya, Sri Lanka	7.67456		ගම්පහ	දිවුලපිටිය	එම්ඕඑච් කාර්යාලය - දිවුලපිටිය	கம்பஹா	திவுலபிட்டிய	MOH அலுவலகம் - திவுலபிட்டிய	6287+5CX, දිවුලපිටිය, ශ්‍රී ලංකාව	6287+5CX, திவுலபிட்டிய, இலங்கை
Gampaha	Divulapitiya	Dunagaha Maha Vidyalaya	False	False	GMPHDVLPTYDNGHMHVDYLY		Gampaha	LK-12	7.123598	80.018508	Diulapitiya	PS-120355	7.174215	79.957874	7.222053	79.978018	Dunagaha, Sri Lanka	5.766689		ගම්පහ	දිවුලපිටිය	දුනාගහ මහා විද්‍යාලය	கம்பஹா	திவுலபிட்டிய	துனகஹா மகா வித்தியாலயம்	දුනාගහ, ශ්‍රී ලංකාව	துனகாஹா, இலங்கை
Gampaha	Divulapitiya	Rayakkaramulla Walukaramaya	False	False	GMPHDVLPTYRYKKRMLLWLKRMY		Gampaha	LK-12	7.123598	80.018508	Diulapitiya	PS-120355	7.174215	79.957874	7.226332	80.020768	Divulapitiya Roundabout, Divulapitiya, Sri Lanka	9.042989		ගම්පහ	දිවුලපිටිය	රායකාරමුල්ල වලකාරාමය	கம்பஹா	திவுலபிட்டிய	ராயக்காரமுல்ல வழுகராமையா	දිවුලපිටිය වටරවුම, දිවුලපිටිය, ශ්‍රී ලංකාව	திவுலபிட்டிய ரவுண்டானா, திவுலபிட்டிய, இலங்கை
Gampaha	Divulapitiya	Pinnakele Viharaya	False	False	GMPHDVLPTYPNNKLVHRY		Gampaha	LK-12	7.123598	80.018508	Diulapitiya	PS-120355	7.174215	79.957874	7.230314	80.016474	Divulapitiya, Sri Lanka	8.986298		ගම්පහ	දිවුලපිටිය	පින්නකැලේ විහාරය	கம்பஹா	திவுலபிட்டிய	பின்னகலே விஹாராயா	දිවුලපිටිය, ශ්‍රී ලංකාව	திவுலபிட்டிய, இலங்கை
Gampaha	Divulapitiya	Udagammana Viharaya	False	False	GMPHDVLPTYDGMMNVHRY		Gampaha	LK-12	7.123598	80.018508	Diulapitiya	PS-120355	7.174215	79.957874	7.189012	79.984445	Kirindiwita - Assennawatte Rd, Gampaha, Sri Lanka	3.362629		ගම්පහ	දිවුලපිටිය	උඩගම්මන විහාරය	கம்பஹா	திவுலபிட்டிய	உதகம்மன விஹாராயா	කිරිඳිවිට - ඇසෙනවත්ත පාර, ගම්පහ, ශ්‍රී ලංකාව	கிரிந்திவிட்ட - அஸ்ஸென்னவத்த வீதி, கம்பஹா, இலங்கை
Kalutara	Ingiriya	Ingiriya Hospital	False	False	KLTRNGRYNGRYHSPTL		Kalutara	LK-13	6.577316	80.127363	Ingiriya	PS-130193	6.743614	80.175077	6.741133	80.162046	Panadura-Nambapana-Ratnapura Hwy, Ingiriya, Sri Lanka	1.465626		කළුතර	ඉංගිරිය	ඉංගිරිය රෝහල	களுத்துறை	இங்கிரிய	இங்கிரிய மருத்துவமனை	පානදුර-නාම්බපන-රත්නපුර හ්වි, ඉංගිරිය, ශ්‍රී ලංකාව	பாணாதுரா-நம்பபனா-ரத்னபுரா ஹ்வி, இங்கிரிய, இலங்கை
Kalutara	Anguruwatota	MOH Office - Madurawala	False	False	KLTRNGRWTTMHFFCMDRWL		Kalutara	LK-13	6.577316	80.127363	Anguruwatota	PS-130190	6.654997	80.058183	6.654814	80.057811	M335+W4F, Keselhenawa, Sri Lanka	0.045863		කළුතර	අඟුරුවාතොට	MOH කාර්යාලය - මදුරාවල	களுத்துறை	அங்குருவடோட்டா	MOH அலுவலகம் - மதுரவாலா	M335+W4F, කෙසෙල්හේනාව, ශ්‍රී ලංකාව	M335+W4F, கெசல்ஹேனாவா, இலங்கை
Kalutara	Horana	Base Hospital - Horana	False	False	KLTRHRNBSHSPTLHRN		Kalutara	LK-13	6.577316	80.127363	Horana	PS-130192	6.714613	80.069091	6.710644	80.066589	Hospital Ln, Horana, Sri Lanka	0.520853		කළුතර	හොරණ	මූලික රෝහල - හොරණ	களுத்துறை	ஹொரானா	அடிப்படை மருத்துவமனை - ஹொரணை	හොරණ රෝහල, ශ්‍රී ලංකාව	மருத்துவமனை Ln, ஹொரானா, இலங்கை
Kalutara	Baduraliya	Baduraliya Hospital	False	False	KLTRBDRLYBDRLYHSPTL		Kalutara	LK-13	6.577316	80.127363	Baduraliya	PS-1302106	6.516756	80.226716	6.514727	80.232731	Tiruwanaketiya-Agalawatte Rd, Baduraliya, Sri Lanka	0.702098		කළුතර	බදුරලිය	බදුරලිය රෝහල	களுத்துறை	பதுரலியா	பதுரலியா மருத்துவமனை	තිරුවානකැටිය-අගලවත්ත පාර, බදුරලිය, ශ්‍රී ලංකාව	திருவனகெட்டிய-அகலவத்தை சாலை, பதுரலியா, இலங்கை
Kalutara	Millaniya	MOH Office - Millaniya	False	False	KLTRMLLNYMHFFCMLLNY		Kalutara	LK-13	6.577316	80.127363	Millaniya	PS-130191	6.681692	80.020847	6.724224	79.907284	A2, Panadura, Sri Lanka	13.407612		කළුතර	මිල්ලනිය	MOH කාර්යාලය - මිල්ලනිය	களுத்துறை	மில்லனியா	MOH அலுவலகம் - மில்லனியா	ඒ 2, පානදුර, ශ්‍රී ලංකාව	ஏ 2, பாணந்துரா, இலங்கை
Kalutara	Panadura	Mahanama Vidyalaya	False	False	KLTRPNDRMHNMVDYLY		Kalutara	LK-13	6.577316	80.127363	Panadura North		6.756309	79.898939	6.725866	79.907901	PWG5+85R, Panadura, Sri Lanka	3.52791		කළුතර	පානදුර	මහානාම විද්‍යාලය	களுத்துறை	பாணந்துறை	மகாநாம வித்யாலயா	PWG5+85R, පානදුර, ශ්‍රී ලංකාව	PWG5+85R, பாணந்துரா, இலங்கை
Kalutara	Meegahathenna	MOH Office - Meegahathenna	False	False	KLTRMGHTHNNMHFFCMGHTHNN		Kalutara	LK-13	6.577316	80.127363	Meegahathenna	PS-1302107	6.436941	80.1943	6.435016	80.198501	B158, Meegahathenna, Sri Lanka	0.511322		කළුතර	මීගහතැන්න	MOH කාර්යාලය - මීගහතැන්න	களுத்துறை	மீகஹதென்ன	MOH அலுவலகம் - மீகஹதென்ன	බී 158, මීගහතැන්න, ශ්‍රී ලංකාව	பி 158, மீகஹதென்ன, இலங்கை
Kalutara	Matugama	Weththewa Hospital	False	False	KLTRMTGMWTHTHWHSPTL		Kalutara	LK-13	6.577316	80.127363	Mathugama	PS-1302103	6.520881	80.117908	6.523087	80.125192	District Hospital, Hospital Road,Weththewa,., Matugama, Sri Lanka	0.841523		කළුතර	මතුගම	වෙත්තෑව රෝහල	களுத்துறை	மத்துகம	வெத்தேவா மருத்துவமனை	දිසා රෝහල, රෝහල් පාර, වෙත්තෑව,., මතුගම, ශ්‍රී ලංකාව	மாவட்ட மருத்துவமனை, மருத்துவமனை சாலை, வெத்தேவா,., மத்துகம, இலங்கை
Kalutara	Matugama	MOH Office - Matugama	False	False	KLTRMTGMMHFFCMTGM		Kalutara	LK-13	6.577316	80.127363	Mathugama	PS-1302103	6.520881	80.117908	6.523544	80.126443	G4FG+CH8, Matugama, Sri Lanka	0.988725		කළුතර	මතුගම	MOH කාර්යාලය - මතුගම	களுத்துறை	மத்துகம	MOH அலுவலகம் - மத்துகம	G4FG+CH8, මතුගම, ශ්‍රී ලංකාව	G4FG+CH8, மத்துகம, இலங்கை
Kalutara	Matugama	Badugama Dharamananda Vidyalaya	False	False	KLTRMTGMBDGMDHRMNNDVDYLY		Kalutara	LK-13	6.577316	80.127363	Mathugama	PS-1302103	6.520881	80.117908	6.501529	80.122822	B157, Sri Lanka	2.219967		කළුතර	මතුගම	බදුගම ධරාමානන්ද විද්‍යාලය	களுத்துறை	மத்துகம	படுகம தரமானந்தா வித்தியாலயம்	බී 157, ශ්‍රී ලංකාව	பி 157, இலங்கை
Kalutara	Matugama	Katugahahena Hospital	False	False	KLTRMTGMKTGHHNHSPTL		Kalutara	LK-13	6.577316	80.127363	Mathugama	PS-1302103	6.520881	80.117908	6.489328	80.08471	F3QM+PVP, Bopitiya, Sri Lanka	5.077192		කළුතර	මතුගම	කටුගහහේන රෝහල	களுத்துறை	மத்துகம	கட்டுகஹஹேனா மருத்துவமனை	F3QM+PVP, බෝපිටිය, ශ්‍රී ලංකාව	F3QM+PVP, போபிடியா, இலங்கை
Kalutara	Agalawatta	Pimbura Hospital	False	False	KLTRGLWTTPMBRHSPTL		Kalutara	LK-13	6.577316	80.127363	Agalawatta		6.542566	80.157178	6.575949	80.158371	H5G5+98H, කළුතර, Sri Lanka	3.715525		කළුතර	අගලවත්ත	පිඹුර රෝහල	களுத்துறை	அகலவத்தை	பிம்புரா மருத்துவமனை	H5G5+98H, කළුතර, ශ්‍රී ලංකාව	H5G5+98H, கருப்புதர, இலங்கை
Kalutara	Bandragama	Maithri Hall - Bandaragama	False	False	KLTRBNDRGMMTHRHLLBNDRGM		Kalutara	LK-13	6.577316	80.127363	Bandaragama	PS-130189	6.715179	79.987674	6.713508	79.990766	PX7R+C82, Bandaragama, Sri Lanka	0.388859		කළුතර	බණ්ඩාරගම	මෛත් රී ශාලාව - බණ්ඩාරගම	களுத்துறை	பந்த்ரகம	மைத்திரி மண்டபம் - பண்டாரகம	PX7R+C82, බණ්ඩාරගම, ශ්‍රී ලංකාව	PX7R+C82, பண்டாரகம, இலங்கை
Kalutara	Bandragama	District Hospital Bandaragama	False	False	KLTRBNDRGMDSTRCTHSPTLBNDRGM		Kalutara	LK-13	6.577316	80.127363	Bandaragama	PS-130189	6.715179	79.987674	6.716162	79.991484	Horana Rd, Bandaragama, Sri Lanka	0.434849		කළුතර	බණ්ඩාරගම	බණ්ඩාරගම දිසා රෝහල	களுத்துறை	பந்த்ரகம	மாவட்ட மருத்துவமனை பண்டாரகம	හොරණ පාර, බණ්ඩාරගම, ශ්‍රී ලංකාව	ஹொரானா வீதி, பண்டாரகம, இலங்கை
Kalutara	Pinwatta	Prime Minister's College - Panapitiya	False	False	KLTRPNWTTPRMMNSTRSCLLGPNPTY		Kalutara	LK-13	6.577316	80.127363									#PoliceLocationUnknown	කළුතර	පින්වත්ත	අග්‍රාමාත්‍ය විද්‍යාලය - පනාපිටිය	களுத்துறை	பின்வத்தா	பிரதமரின் கல்லூரி - பனாபிட்டிய		
Kalutara	Dodangoda	Dodangoda Hospital	False	False	KLTRDDNGDDDNGDHSPTL		Kalutara	LK-13	6.577316	80.127363	Dodangoda	PS-130299	6.553375	80.023569	6.540961	80.036553	Wilpatha Rd, Sri Lanka	1.991373		කළුතර	දොඩන්ගොඩ	දොඩන්ගොඩ රෝහල	களுத்துறை	தொடங்கொட	தொடங்கொட மருத்துவமனை	විල්පත පාර, ශ්‍රී ලංකාව	வில்பதா சாலை, இலங்கை
Kalutara	Aluthgama	Gnanessara Vidyalaya	False	False	KLTRLTHGMGNNSSRVDYLY		Kalutara	LK-13	6.577316	80.127363	Aluthgama	PS-1302100	6.432842	79.998032	6.443399	80.010279	Fatha Hajiar Mawatha, Dharga Town, Sri Lanka	1.791986		කළුතර	අලුත්ගම	ඥානේසාර විද්‍යාලය	களுத்துறை	அளுத்கம	ஞானேஸ்ஸரா வித்யாலயா	ෆතා හජියාර් මාවත, දර්ගා නගරය, ශ්‍රී ලංකාව	ஃபதா ஹாஜியார் மாவத்தை, தர்கா டவுன், இலங்கை
Kalutara	Aluthgama	Al Habbra Vidyalaya	False	False	KLTRLTHGMLHBBRVDYLY		Kalutara	LK-13	6.577316	80.127363	Aluthgama	PS-1302100	6.432842	79.998032	6.443399	80.010279	Fatha Hajiar Mawatha, Dharga Town, Sri Lanka	1.791986		කළුතර	අලුත්ගම	අල් හබ්රා විද්‍යාලය	களுத்துறை	அளுத்கம	அல் ஹப்ரா வித்யாலயா	ෆතා හජියාර් මාවත, දර්ගා නගරය, ශ්‍රී ලංකාව	ஃபதா ஹாஜியார் மாவத்தை, தர்கா டவுன், இலங்கை
Kalutara	Thebuwana	Nebada Hospital	False	False	KLTRTHBWNNBDHSPTL		Kalutara	LK-13	6.577316	80.127363	Thebuwana	PS-1302105	6.654997	80.058183	6.563228	79.985261	Kalutara-Matugama Rd, Sri Lanka	13.004249		කළුතර	තෙබුවන	නෙබාඩා රෝහල	களுத்துறை	தேபுவானா	நெபாடா மருத்துவமனை	කළුතර මතුගම පාර, ශ්‍රී ලංකාව	களுத்துறை-மத்துகம வீதி, இலங்கை
Kalutara	Thebuwana	Hayleys Factory	False	False	KLTRTHBWNHYLYSFCTRY		Kalutara	LK-13	6.577316	80.127363	Thebuwana	PS-1302105	6.654997	80.058183	6.624812	80.078673	Hayleys Fabric Plc, Narthupana Estate, Neboda 12030, Sri Lanka	4.049379		කළුතර	තෙබුවන	හේලීස් කර්මාන්ත ශාලාව	களுத்துறை	தேபுவானா	ஹேலிஸ் தொழிற்சாலை	හේලීස් ෆැබ්‍රික් පීඑල්සී, නර්තුපාන වත්ත, නැබොඩ 12030, ශ්‍රී ලංකාව	ஹேலிஸ் ஃபேப்ரிக் பிஎல்சி, நர்துபனா எஸ்டேட், நெபோடா 12030, இலங்கை
Kalutara	Kalutara South	NIHS	False	False	KLTRKLTRSTHNHS		Kalutara	LK-13	6.577316	80.127363	Kalutara South	PS-130296	6.58486	79.961043	6.55864	79.977416	HX5G+FX3, Katukurunda, Sri Lanka	3.432035		කළුතර	කළුතර දකුණ	NIHS	களுத்துறை	களுத்துறை தெற்கு	என்ஐஎச்எஸ்	HX5G+FX3, කටුකුරුන්ද, ශ්‍රී ලංකාව	HX5G+FX3, கட்டுக்குருந்தா, இலங்கை
Kalutara	Beruwala	D.S. Senanayake Vidyalaya	False	False	KLTRBRWLDSSNNYKVDYLY		Kalutara	LK-13	6.577316	80.127363	Beruwala	PS-1302102	6.480329	79.983498	6.468742	79.986711	kiranthidiya Road, Massala, Beruwala., Beruwala, Sri Lanka	1.336845		කළුතර	බේරුවල	ඩීඑස් සේනානායක විද්‍යාලය	களுத்துறை	பேருவளை	டி.எஸ். சேனாநாயக்க வித்யாலயா	කිරන්තිදිය පාර, මසාලා, බේරුවල., බේරුවල, ශ්‍රී ලංකාව	கிரந்திதியா சாலை, மசாலா, பேருவளை., பேருவளை, இலங்கை
Kurunegala	Rideegama	MOH Office – Rideegama	False	False	KRNGLRDGMMHFFCRDGM		Kurunegala	LK-61	7.66477	80.23677	Rideegama	PS-610110	7.589247	80.61027	7.547681	80.491796	GFXR+3PF, Ridigama, Sri Lanka	13.857079		කුරුණෑගල	රිදීගම	MOH කාර්යාලය - රිදීගම	குருநாகல்	ரிதேகம	MOH அலுவலகம் - ரிதேகம	GFXR+3PF, රිදිගම, ශ්‍රී ලංකාව	GFXR+3PF, ரிதிகம, இலங்கை
Kurunegala	Alawwa	Alpine Garment Factory	False	False	KRNGLLWWLPNGRMNTFCTRY		Kurunegala	LK-61	7.66477	80.23677	Alawwa	PS-610103	7.295909	80.24277	7.308241	80.203272	6th Mile Post, Alawwa 60280, Sri Lanka	4.568511		කුරුණෑගල	අලව්ව	ඇල්පයින් ඇඟලුම් කම්හල	குருநாகல்	அலவ்வா	ஆல்பைன் ஆடை தொழிற்சாலை	6 වන සැතපුම් කණුව, අලව්ව 60280, ශ්‍රී ලංකාව	6 வது மைல் போஸ்ட், அலவ்வா 60280, இலங்கை
Kurunegala	Kobeigane	Thelahera Vidyalaya	False	False	KRNGLKBGNTHLHRVDYLY		Kurunegala	LK-61	7.66477	80.23677	Kobeigane	PS-610321	7.656934	80.126283	7.700444	80.115879	hengamuwa ,kobeigane, Sri Lanka	4.973641		කුරුණෑගල	කොබෙයිගනේ	තෙලහැර විද්‍යාලය	குருநாகல்	கோபிகனே	தெலஹெரா வித்யாலயா	හෙන්ගමුව, කොබෙයිගනේ, ශ්‍රී ලංකාව	ஹெங்கமுவா, கோபிகேன், இலங்கை
Kurunegala	Polgahawela	MOH Office – Polgahawela	False	False	KRNGLPLGHWLMHFFCPLGHWL		Kurunegala	LK-61	7.66477	80.23677	Polgahawela	PS-610102	7.333281	80.300363	7.330938	80.29484	06 A6, Polgahawela, Sri Lanka	0.662694		කුරුණෑගල	පොල්ගහවෙල	MOH කාර්යාලය - පොල්ගහවෙල	குருநாகல்	பொல்கஹவெல	MOH அலுவலகம் - பொல்கஹவெல	06 ඒ 6, පොල්ගහවෙල, ශ්‍රී ලංකාව	06 A6, பொல்கஹவெல, இலங்கை
Puttalam	Wennappuwa	MOH Office - Wennappuwa	False	False	PTTLMWNNPPWMHFFCWNNPPW		Puttalam	LK-62	7.973531	79.913833	Wennappuwa	PS-620245	7.339623	79.843017	7.318737	79.845723	Unnamed Road, Nainamadama, Sri Lanka	2.342249		පුත්තලම	වෙන්නප්පුව	MOH කාර්යාලය - වෙන්නප්පුව	புத்தளம்	வென்னப்புவா	MOH அலுவலகம் - வென்னப்புவ	නම් නොකළ පාර, නයිනමඩම, ශ්‍රී ලංකාව	பெயரிடப்படாத சாலை, நைனமடாமா, இலங்கை
Puttalam	Marawila	Mahawewa Samudradevi Reception Hall	False	False	PTTLMMRWLMHWWSMDRDVRCPTNHLL		Puttalam	LK-62	7.973531	79.913833	Marawila	PS-620243	7.415075	79.839776	7.496355	79.88911	FVWQ+GJX, Madampe, Sri Lanka	10.551779		පුත්තලම	මාරවිල	මහවැව සමුද්‍රදේවි පිළිගැනීමේ ශාලාව	புத்தளம்	மாரவில	மகாவெவ சமுத்திராதேவி வரவேற்பு மண்டபம்	FVWQ+GJX, මාදම්පේ, ශ්‍රී ලංකාව	FVWQ+GJX, மாதம்பே, இலங்கை
Puttalam	Puttalam	Base Hospital Puttalam	False	False	PTTLMPTTLMBSHSPTLPTTLM		Puttalam	LK-62	7.973531	79.913833	Puttalam	PS-620130	8.029904	79.834396	8.027902	79.83874	Katugastota-Kurunegala-Puttalam Hwy, Puttalam, Sri Lanka	0.527729		පුත්තලම	පුත්තලම	මූලික රෝහල පුත්තලම	புத்தளம்	புத்தளம்	புத்தளம் அடிப்படை மருத்துவமனை	කටුගස්තොට-කුරුණෑගල-පුත්තලම හ්වි, පුත්තලම, ශ්‍රී ලංකාව	கட்டுகஸ்தோட்டா-குருநாகல்-புத்தளம் Hwy, புத்தளம், இலங்கை
Puttalam	Mundalama	MOH Office – Mundalama	False	False	PTTLMMNDLMMHFFCMNDLM		Puttalam	LK-62	7.973531	79.913833	Mundal	PS-620138	7.808859	79.825729	7.78892	79.82751	Puttalam - Colombo Rd, Sri Lanka	2.226479		පුත්තලම	මුන්දලම	MOH කාර්යාලය - මුන්දලම	புத்தளம்	முண்டாலமா	MOH அலுவலகம் - முண்டலமா	පුත්තලම - කොළඹ පාර, ශ්‍රී ලංකාව	புத்தளம் - கொழும்பு வீதி, இலங்கை
Puttalam	Dankotuwa	MOH Office – Dankotuwa	False	False	PTTLMDNKTWMHFFCDNKTW		Puttalam	LK-62	7.973531	79.913833	Dankotuwa	PS-620246	7.300337	79.882595	7.29759	79.888187	146 Negombo-Kurunegala Rd, Dankotuwa, Sri Lanka	0.688474		පුත්තලම	දන්කොටුව	MOH කාර්යාලය - දංකොටුව	புத்தளம்	டாங்கொட்டுவா	MOH அலுவலகம் - டாங்கொட்டுவா	146 මීගමුව-කුරුණෑගල පාර, දංකොටුව, ශ්‍රී ලංකාව	146 நீர்கொழும்பு-குருநாகல் வீதி, தங்கொட்டுவ, இலங்கை
Puttalam	Kandy	Pushpadana Girls' College	False	False	PTTLMKNDYPSHPDNGRLSCLLG		Puttalam	LK-62	7.973531	79.913833	Kandy	PS-210101	7.292948	80.642368	7.293989	80.633	16 Kandy Rd, Kandy 20000, Sri Lanka	1.040036		පුත්තලම	මහනුවර	පුෂ්පදාන බාලිකා විද්‍යාලය	புத்தளம்	கண்டி	புஷ்படனா பெண்கள் கல்லூரி	16 මහනුවර පාර, මහනුවර 20000, ශ්‍රී ලංකාව	16 கண்டி வீதி, கண்டி 20000, இலங்கை
Puttalam	Kothmale	MOH Office – Kothmale	False	False	PTTLMKTHMLMHFFCKTHML		Puttalam	LK-62	7.973531	79.913833	Kotmale	PS-230134	7.063602	80.685054	7.062013	80.685533	3M6P+R63, Kothmale New Town, Sri Lanka	0.184484		පුත්තලම	කොත්මලේ	MOH කාර්යාලය - කොත්මලේ	புத்தளம்	கோத்மலே	MOH அலுவலகம் - கொத்மலை	3 එම් 6 පී+ආර් 63, කොත්මලේ නව නගරය, ශ්‍රී ලංකාව	3M6P+R63, கொத்தமலை புதிய நகரம், இலங்கை
Puttalam	Matale	Municipal Council Boran Hall - Matale	False	False	PTTLMMTLMNCPLCNCLBRNHLLMTL		Puttalam	LK-62	7.973531	79.913833	Matale	PS-220121	7.462789	80.626211	7.466856	80.618425	FJ89+P9V, Matale, Sri Lanka	0.970566		පුත්තලම	මාතලේ	නගර සභා බෝරන් ශාලාව - මාතලේ	புத்தளம்	மாத்தளை	மாநகர சபை போரன் மண்டபம் - மாத்தளை	FJ89+P9V, මාතලේ, ශ්‍රී ලංකාව	FJ89+P9V, மாத்தளை, இலங்கை
Badulla	Hali Ela	MOH Office - Hali Ela	False	False	BDLLHLLMHFFCHLL		Badulla	LK-81	7.074529	81.04486	Haliela	PS-810108	6.958216	81.034447	6.962439	81.036061	Peradeniya-Badulla-Chenkaladi Hwy, Hali-ela, Sri Lanka	0.50239		බදුල්ල	හාලි ඇල	MOH කාර්යාලය - හාලි ඇල	பதுளை	ஹாலி எல	MOH அலுவலகம் - ஹாலி எல	පේරාදෙණිය-බදුල්ල-චෙන්කලාඩි හ්වි, හාලි ඇල, ශ්‍රී ලංකාව	பேராதனை-பதுளை-செங்கலடி ஹ்வி, ஹாலி-எல, இலங்கை
Badulla	Lunugala	MOH Office – Lunugala	False	False	BDLLLNGLMHFFCLNGL		Badulla	LK-81	7.074529	81.04486	Lunugala	PS-810104	7.047691	81.20339	7.030729	81.198808	Peradeniya-Badulla-Chenkaladi Hwy, Lunugala, Sri Lanka	1.953308		බදුල්ල	ලුණුගල	MOH කාර්යාලය - ලුණුගල	பதுளை	லுனுகலா	MOH அலுவலகம் - லுனுகலா	පේරාදෙණිය-බදුල්ල-චෙන්කලාඩි හ්වි, ලුණුගල, ශ්‍රී ලංකාව	பேராதனை-பதுளை-செங்கலடி ஹ்யூ, லுனுகலா, இலங்கை
Badulla	Badulla	Kandegedara Hospital	False	False	BDLLBDLLKNDGDRHSPTL		Badulla	LK-81	7.074529	81.04486	Badulla	PS-810101	6.991337	81.055246	7.016761	81.016368	Unnamed Rd,, Sri Lanka	5.139978		බදුල්ල	බදුල්ල	කන්දේගෙදර රෝහල	பதுளை	பதுளை	கண்டேகெதரா மருத்துவமனை	නම් නොකල පාර, ශ්‍රී ලංකාව	பெயரிடப்படாத சாலை, இலங்கை
Badulla	Badulla	MOH Office – Soranatota	False	False	BDLLBDLLMHFFCSRNTT		Badulla	LK-81	7.074529	81.04486	Badulla	PS-810101	6.991337	81.055246	7.013876	81.05556	Rideepana, Mahiyangana Rd, Sri Lanka	2.507249		බදුල්ල	බදුල්ල	MOH කාර්යාලය - සොරනාතොට	பதுளை	பதுளை	MOH அலுவலகம் - சொரனடோட்டா	රිදීපාන, මහියංගන පාර, ශ්‍රී ලංකාව	ரிதீபனா, மஹியங்கனா சாலை, இலங்கை
Badulla	Bandarawela	MOH Office – Bandarawela	False	False	BDLLBNDRWLMHFFCBNDRWL		Badulla	LK-81	7.074529	81.04486	Bandarawela	PS-810210	6.831526	80.986784	6.841272	80.98482	Hospital Junction Helamuduna Bus Stop, Etampitiya Rd, Bandarawela, Sri Lanka	1.105533		බදුල්ල	බණ්ඩාරවෙල	MOH කාර්යාලය - බණ්ඩාරවෙල	பதுளை	பண்டாரவளை	MOH அலுவலகம் - பண்டாரவளை	රෝහල් හන්දිය හෙළමුදුන බස් නැවතුම, ඇටම්පිටිය පාර, බණ්ඩාරවෙල, ශ්‍රී ලංකාව	மருத்துவமனை சந்திப்பு ஹெலமுதுனா பேருந்து நிறுத்தம், இடம்பிட்டிய சாலை, பண்டாரவளை, இலங்கை
Badulla	Ella	MOH Office – Ella	False	False	BDLLLLMHFFCLL		Badulla	LK-81	7.074529	81.04486	Ella	PS-810211	6.876609	81.048276	6.779645	80.964114	QXH7+WC4, Badulla, Sri Lanka	14.237912		බදුල්ල	ඇලා	MOH කාර්යාලය - ඇල්ල	பதுளை	எல்ல	MOH அலுவலகம் - எல்ல	QXH7+WC4, බදුල්ල, ශ්‍රී ලංකාව	QXH7+WC4, பதுளை, இலங்கை
Badulla	Uva Paranagama	District Hospital - Uva Paranagama	False	False	BDLLVPRNGMDSTRCTHSPTLVPRNGM		Badulla	LK-81	7.074529	81.04486	Uvaparanagama	PS-810213	6.958341	80.930364	6.938076	80.890525	Rendapola-Galahagama-Ambagasdowa Rd, Himbiliyagahamadiththa, Sri Lanka	4.942648		බදුල්ල	Vaව පරණගම	දිසා රෝහල - vaව පරණගම	பதுளை	ஊவ பரணகம	மாவட்ட மருத்துவமனை - ஊவா பரணகம	රෙන්ඳපොල-ගලහගම-අඹගස්දෝව පාර, හිම්බිලියගහමදිත්ත, ශ්‍රී ලංකාව	ரெண்டபொல-கலஹகம-அம்பகஸ்தோவ வீதி, ஹிம்பிலியகஹமாதித்த, இலங்கை
Monaragala	Siyambalanduwa	Kivulayaya Primary School	False	False	MNRGLSYMBLNDWKVLYYPRMRYSCHL		Moneragala	LK-82	6.787517	81.303744	Siyambalanduwa	PS-820122	6.906851	81.547598	6.909655	81.561921	WH56+VQ7, Siyambalanduwa, Sri Lanka	1.612038		මොනරාගල	සියඹලාණ්ඩුව	කිවුලයාය ප්‍රාථමික විද්‍යාලය	மொனராகலை	சியம்பலாண்டுவா	கிவுலையா ஆரம்பப் பள்ளி	WH56+VQ7, සියඹලාණ්ඩුව, ශ්‍රී ලංකාව	WH56+VQ7, சியம்பலாண்டுவா, இலங்கை
Monaragala	Siyambalanduwa	Dombagahawela Maha Vidyalaya	False	False	MNRGLSYMBLNDWDMBGHWLMHVDYLY		Moneragala	LK-82	6.787517	81.303744	Siyambalanduwa	PS-820122	6.906851	81.547598	6.844255	81.458052	RFV5+P63, Monaragala, Sri Lanka	12.093824		මොනරාගල	සියඹලාණ්ඩුව	දොඹගහවෙල මහා විද්‍යාලය	மொனராகலை	சியம்பலாண்டுவா	டோம்பகஹவெல மகா வித்தியாலயம்	ආර්එෆ්වී 5+පී 63, මොනරාගල, ශ්‍රී ලංකාව	RFV5+P63, மொனராகலை, இலங்கை
Monaragala	Medagama	MOH Office – Medagama	False	False	MNRGLMDGMMHFFCMDGM		Moneragala	LK-82	6.787517	81.303744	Medagama	PS-820126	7.033608	81.276708	7.038566	81.274255	Hospital Rd, Sri Lanka	0.614374		මොනරාගල	මැදගම	MOH කාර්යාලය - මැදගම	மொனராகலை	மேடகம	MOH அலுவலகம் - மேடகம	රෝහල පාර, ශ්‍රී ලංකාව	மருத்துவமனை Rd, இலங்கை
Monaragala	Dambagalla	MOH Office – Madulla	False	False	MNRGLDMBGLLMHFFCMDLL		Moneragala	LK-82	6.787517	81.303744	Dambagalla	PS-820123	6.978806	81.372037	6.980456	81.375777	X9JG+58J, Monaragala, Sri Lanka	0.451866		මොනරාගල	දඹගල්ල	MOH කාර්යාලය - මඩුල්ල	மொனராகலை	தம்பகல்லா	MOH அலுவலகம் - மதுல்லா	X9JG+58J, මොනරාගල, ශ්‍රී ලංකාව	X9JG+58J, மொனராகலை, இலங்கை
Galle	Karandeniya	MOH Office – Karandeniya	False	False	GLLKRNDNYMHFFCKRNDNY		Galle	LK-31	6.222805	80.251977	Karandeniya	PS-310238	6.271732	80.08479	6.268939	80.099876	Elpitiya Rd, Karandeniya, Sri Lanka	1.696659		ගාල්ල	කරන්දෙණිය	MOH කාර්යාලය - කරන්දෙණිය	காலி	கரந்தெனியா	MOH அலுவலகம் - கரந்தெனியா	ඇල්පිටිය පාර, කරන්දෙණිය, ශ්‍රී ලංකාව	எல்பிட்டிய வீதி, கரந்தெனியா, இலங்கை
Matara	Thihagoda	MOH Office – Thihagoda	False	False	MTRTHHGDMHFFCTHHGD		Matara	LK-32	6.142734	80.539994	Thihagoda	PS-320104	6.01331	80.567932	5.996687	80.556352	Matara - Hakmana Road, Thihagoda, Sri Lanka	2.249355		මාතර	තිහගොඩ	MOH කාර්යාලය - තිහගොඩ	மாத்தறை	திஹாகொட	MOH அலுவலகம் - திஹாகொட	මාතර - හක්මන පාර, තිහගොඩ, ශ්‍රී ලංකාව	மாத்தறை - ஹக்மனா சாலை, திஹகொட, இலங்கை
Matara	Hakmana	MOH Office – Hakmana	False	False	MTRHKMNMHFFCHKMN		Matara	LK-32	6.142734	80.539994	Hakmana	PS-320106	6.084824	80.643227	6.081379	80.641425	3JJR+HH3, Hakmana, Sri Lanka	0.431921		මාතර	හක්මන	MOH කාර්යාලය - හක්මන	மாத்தறை	ஹக்மனா	MOH அலுவலகம் - ஹக்மனா	3JJR+HH3, හක්මන, ශ්‍රී ලංකාව	3JJR+HH3, ஹக்மனா, இலங்கை
Matara	Dikwella	MOH Office – Dikwella	False	False	MTRDKWLLMHFFCDKWLL		Matara	LK-32	6.142734	80.539994	Dikwella	PS-320103	5.964296	80.693198	5.965922	80.689228	XM8Q+9M9, Batigama, Sri Lanka	0.474973		මාතර	දික්වැල්ල	MOH කාර්යාලය - දික්වැල්ල	மாத்தறை	திக்வெல்ல	MOH அலுவலகம் - திக்வெல்ல	XM8Q+9M9, බතිගම, ශ්‍රී ලංකාව	XM8Q+9M9, பாட்டிகாமா, இலங்கை
Matara	Kekanadura	MOH Office – Kekanadura	False	False	MTRKKNDRMHFFCKKNDR		Matara	LK-32	6.142734	80.539994									#PoliceLocationUnknown	මාතර	කැකණදුර	MOH කාර්යාලය - කැකණදුර	மாத்தறை	கேகனதுரா	MOH அலுவலகம் - கேகனதுரா		
Hambantota	Ambalantota	MOH Office – Ambalantota	False	False	HMBNTTMBLNTTMHFFCMBLNTT		Hambantota	LK-33	6.259779	81.098619	Ambalantota	PS-330157	6.12516	81.023981	6.122767	81.005973	Walawa watta Road, Malpeththawa, Ambalantota, Sri Lanka	2.009195		හම්බන්තොට	අම්බලන්තොට	MOH කාර්යාලය - අම්බලන්තොට	அம்பாந்தோட்டை	அம்பலாந்தோட்டை	MOH அலுவலகம் - அம்பலாந்தோட்டை	වලව වත්ත පාර, මල්පෙත්තාව, අම්බලන්තොට, ශ්‍රී ලංකාව	வலவா வாட்டா சாலை, மால்பெத்தவா, அம்பலாந்தோட்டை, இலங்கை
Hambantota	Hambantota	MOH Office – Hambantota	False	False	HMBNTTHMBNTTMHFFCHMBNTT		Hambantota	LK-33	6.259779	81.098619	Hambantota	PS-330156	6.125872	81.12521	6.171162	81.127	54CG+FQ9, Hambantota, Sri Lanka	5.041487		හම්බන්තොට	හම්බන්තොට	MOH කාර්යාලය - හම්බන්තොට	அம்பாந்தோட்டை	அம்பாந்தோட்டை	MOH அலுவலகம் - அம்பாந்தோட்டை	54CG+FQ9, හම්බන්තොට, ශ්‍රී ලංකාව	54CG+FQ9, ஹம்பாந்தோட்டை, இலங்கை
Hambantota	Sooriyawewa	MOH Office – Sooriyawewa	False	False	HMBNTTSRYWWMHFFCSRYWW		Hambantota	LK-33	6.259779	81.098619	Sooriyawewa	PS-330155	6.306022	81.003873	6.304862	81.004768	8233+WWR, Sooriyawewa, Sri Lanka	0.1626		හම්බන්තොට	සූරියවැව	MOH කාර්යාලය - සූරියවැව	அம்பாந்தோட்டை	சூரியவெவ	MOH அலுவலகம் - சூரியவெவ	8233+ඩබ්ලිව්ඩබ්ලිව්ආර්, සූරියවැව, ශ්‍රී ලංකාව	8233+WWR, சூரியவெவ, இலங்கை
Hambantota	Walasmulla	MOH Office – Walasmulla	False	False	HMBNTTWLSMLLMHFFCWLSMLL		Hambantota	LK-33	6.259779	81.098619	Walasmulla	PS-330151	6.154102	80.698256	6.150889	80.693718	Walasmulla, Sri Lanka	0.616099		හම්බන්තොට	වලස්මුල්ල	MOH කාර්යාලය - වලස්මුල්ල	அம்பாந்தோட்டை	வலஸ்முல்லா	MOH அலுவலகம் - வலஸ்முல்லா	වලස්මුල්ල, ශ්‍රී ලංකාව	வலஸ்முல்லா, இலங்கை
Hambantota	Weeraketiya	Mahanama National College	False	False	HMBNTTWRKTYMHNMNTNLCLLG		Hambantota	LK-33	6.259779	81.098619	Weeraketiya	PS-330149	6.153899	80.76737	6.135024	80.77105	Tangalle - Weeraketiya Rd, Weeraketiya, Sri Lanka	2.138545		හම්බන්තොට	වීරකැටිය	මහානාම ජාතික විද්‍යාලය	அம்பாந்தோட்டை	வீரகெட்டிய	மகாநாம தேசிய கல்லூரி	තංගල්ල - වීරකැටිය පාර, වීරකැටිය, ශ්‍රී ලංකාව	தங்காலை - வீரகெட்டிய வீதி, வீரகெட்டிய, இலங்கை
Hambantota	Lunugamwehera	MOH Office - Lunugamwehera	False	False	HMBNTTLNGMWHRMHFFCLNGMWHR		Hambantota	LK-33	6.259779	81.098619	Lunugamwehera	PS-330160	6.341544	81.202699	6.346093	81.196977	85WW+CQQ, Mattala, Sri Lanka	0.810032		හම්බන්තොට	ලුණුගම්වෙහෙර	MOH කාර්යාලය - ලුණුගම්වෙහෙර	அம்பாந்தோட்டை	லுனுகம்வெஹெரா	MOH அலுவலகம் - லுனுகம்வெஹெரா	85WW+CQQ, මත්තල, ශ්‍රී ලංකාව	85WW+CQQ, மத்தள, இலங்கை
Hambantota	Agunukolapelessa	MOH Office - Agunukolapelessa	False	False	HMBNTTGNKLPLSSMHFFCGNKLPLSS		Hambantota	LK-33	6.259779	81.098619	Angunakolapelessa	PS-330150	6.321993	80.844883	6.164691	80.898963	Unnamed Road, Agunukolapelessa, Sri Lanka	18.490258		හම්බන්තොට	අගුණුකොලපැලැස්ස	MOH කාර්යාලය - අගුණුකොලපැලැස්ස	அம்பாந்தோட்டை	அகுணுகோலாபெலெஸ்ஸா	MOH அலுவலகம் - அகுணுகோலபெலஸ்ஸா	නම් නොකළ පාර, අගුණුකොලපැලැස්ස, ශ්‍රී ලංකාව	பெயரிடப்படாத சாலை, அகுனுகோலபெலஸ்ஸா, இலங்கை
Hambantota	Beliatta	MOH Office – Beliatta	False	False	HMBNTTBLTTMHFFCBLTT		Hambantota	LK-33	6.259779	81.098619	Beliatta	PS-330152	6.046936	80.735408	6.051828	80.741735	3P2R+PMQ, Hambantota, Sri Lanka	0.886482		හම්බන්තොට	බෙලිඅත්ත	MOH කාර්යාලය - බෙලිඅත්ත	அம்பாந்தோட்டை	பெலியாட்டா	MOH அலுவலகம் - பெலியாட்ட	3P2R+PMQ, හම්බන්තොට, ශ්‍රී ලංකාව	3P2R+PMQ, ஹம்பாந்தோட்டை, இலங்கை
Hambantota	Katuwana	MOH Office – Katuwana	False	False	HMBNTTKTWNMHFFCKTWN		Hambantota	LK-33	6.259779	81.098619	Katuwana	PS-330153	6.269722	80.690963	6.26627	80.693035	7M8V+G63, Katuwana, Sri Lanka	0.447115		හම්බන්තොට	කටුවන	MOH කාර්යාලය - කටුවන	அம்பாந்தோட்டை	கட்டுவானா	MOH அலுவலகம் - கட்டுவானா	7 එම් 8 වී+ජී 63, කටුවන, ශ්‍රී ලංකාව	7M8V+G63, கட்டுவானா, இலங்கை
Hambantota	Tangalla	MOH Office – Tangalla	False	False	HMBNTTTNGLLMHFFCTNGLL		Hambantota	LK-33	6.259779	81.098619	Tangalle	PS-330147	6.023954	80.797255	6.02363	80.795742	2QFW+F75, Tangalle, Sri Lanka	0.171198		හම්බන්තොට	තංගල්ල	MOH කාර්යාලය - තංගල්ල	அம்பாந்தோட்டை	தங்கல்லா	MOH அலுவலகம் - தங்கல்லா	2QFW+F75, තංගල්ල, ශ්‍රී ලංකාව	2QFW+F75, தங்காலை, இலங்கை
Rathnapura	Weligepola	Talagaskanada Community Hall	False	False	RTHNPRWLGPLTLGSKNDCMMNTYHLL		Ratnapura	LK-91	6.586826	80.566158	Weligepola	PS-910106	6.596426	80.723695	6.583202	80.711558	Galgoda - Weligepola Rd, Weligepola, Sri Lanka	1.990489		රත්නපුර	වැලිගෙපොළ	තලගස්කනඩ ප්‍රජා ශාලාව	இரத்தினபுரி	வெலிகெபொல	தலகஸ்கனடா சமுதாயக் கூடம்	ගල්ගොඩ - වැලිගෙපොල පාර, වැලිගෙපොල, ශ්‍රී ලංකාව	கல்கொட - வெலிகெபொல வீதி, வெலிகெபொல, இலங்கை
Rathnapura	Weligepola	Gangodagama Community Hall	False	False	RTHNPRWLGPLGNGDGMCMMNTYHLL		Ratnapura	LK-91	6.586826	80.566158	Weligepola	PS-910106	6.596426	80.723695	6.702988	80.394381	P93V+5QR, Ratnapura, Sri Lanka	38.265151	#CenterFarFromPolice	රත්නපුර	වැලිගෙපොළ	ගංගොඩගම ප්‍රජා ශාලාව	இரத்தினபுரி	வெலிகெபொல	கங்கோதகம சமூக மண்டபம்	P93V+5QR, රත්නපුර, ශ්‍රී ලංකාව	P93V+5QR, இரத்தினபுரி, இலங்கை
Rathnapura	Weligepola	Medaganoya Vidyalaya	False	False	RTHNPRWLGPLMDGNYVDYLY		Ratnapura	LK-91	6.586826	80.566158	Weligepola	PS-910106	6.596426	80.723695	6.571806	80.704808	pollamura, Weligepola, Sri Lanka	3.44305		රත්නපුර	වැලිගෙපොළ	මැදගන්ඔය විද්‍යාලය	இரத்தினபுரி	வெலிகெபொல	மெடகனோயா வித்யாலயா	පොලමුර, වැලිගෙපොල, ශ්‍රී ලංකාව	பொல்லமுரா, வெலிகெபொல, இலங்கை
Rathnapura	Weligepola	Pollamura Vidyalaya	False	False	RTHNPRWLGPLPLLMRVDYLY		Ratnapura	LK-91	6.586826	80.566158	Weligepola	PS-910106	6.596426	80.723695	6.571806	80.704808	pollamura, Weligepola, Sri Lanka	3.44305		රත්නපුර	වැලිගෙපොළ	පොලමුර විද්‍යාලය	இரத்தினபுரி	வெலிகெபொல	பொல்லாமுரா வித்யாலயா	පොලමුර, වැලිගෙපොල, ශ්‍රී ලංකාව	பொல்லமுரா, வெலிகெபொல, இலங்கை
Rathnapura	Weligepola	Weligepola Viharaya	False	False	RTHNPRWLGPLWLGPLVHRY		Ratnapura	LK-91	6.586826	80.566158	Weligepola	PS-910106	6.596426	80.723695	6.580929	80.730893	pollamura, Sri Lanka	1.898371		රත්නපුර	වැලිගෙපොළ	වැලිගෙපොල විහාරය	இரத்தினபுரி	வெலிகெபொல	வெலிக்போல விஹாராயா	පොලමුර, ශ්‍රී ලංකාව	பொல்லாமுரா, இலங்கை
Rathnapura	Weligepola	Lendara Viharaya	False	False	RTHNPRWLGPLLNDRVHRY		Ratnapura	LK-91	6.586826	80.566158	Weligepola	PS-910106	6.596426	80.723695	6.579978	80.755399	HQH4+X5R, Mahawalathenna, Sri Lanka	3.952201		රත්නපුර	වැලිගෙපොළ	ලෙන්දර විහාරය	இரத்தினபுரி	வெலிகெபொல	லெந்தரா விஹாராயா	HQH4+X5R, මහවලතැන්න, ශ්‍රී ලංකාව	HQH4+X5R, மகாவலதென்ன, இலங்கை
Rathnapura	Weligepola	Hadagiriya Vidyalaya	False	False	RTHNPRWLGPLHDGRYVDYLY		Ratnapura	LK-91	6.586826	80.566158	Weligepola	PS-910106	6.596426	80.723695	6.571806	80.704808	pollamura, Weligepola, Sri Lanka	3.44305		රත්නපුර	වැලිගෙපොළ	හදගිරිය විද්‍යාලය	இரத்தினபுரி	வெலிகெபொல	ஹடகிரியா வித்யாலயா	පොලමුර, වැලිගෙපොල, ශ්‍රී ලංකාව	பொல்லமுரா, வெலிகெபொல, இலங்கை
Rathnapura	Pinnawala	MOH Office – Imbulpe	False	False	RTHNPRPNNWLMHFFCMBLP		Ratnapura	LK-91	6.586826	80.566158	Pinnawala	PS-910115	7.299943	80.386604	6.673445	80.719412	Colombo - Ratnapura - Wellawaya - Batticaloa Rd, Sri Lanka	78.778756	#CenterFarFromPolice	රත්නපුර	පින්නවල	MOH කාර්යාලය - ඉඹුල්පේ	இரத்தினபுரி	பின்னாவாலா	MOH அலுவலகம் - இம்புல்பே	කොළඹ - රත්නපුර - වැල්ලවාය - මඩකලපුව පාර, ශ්‍රී ලංකාව	கொழும்பு - இரத்தினபுரி - வெள்ளவாய - மட்டக்களப்பு வீதி, இலங்கை
Rathnapura	Opanayaka	Malmeekanda Bodhiya	False	False	RTHNPRPNYKMLMKNDBDHY		Ratnapura	LK-91	6.586826	80.566158	Opanayaka	PS-910104	6.608519	80.619285	6.62376	80.687437	Welange, Sri Lanka	7.718521		රත්නපුර	ඕපනායක	මල්මීකන්ද බෝධිය	இரத்தினபுரி	ஓபநாயக்கா	மால்மீகண்ட போதியா	වෙලංගේ, ශ්‍රී ලංකාව	வெலாங்கே, இலங்கை
Rathnapura	Opanayaka	Metihakka Vidyalaya	False	False	RTHNPRPNYKMTHKKVDYLY		Ratnapura	LK-91	6.586826	80.566158	Opanayaka	PS-910104	6.608519	80.619285	6.618238	80.62379	Galhira Rd, Opanayake,, Sri Lanka	1.190132		රත්නපුර	ඕපනායක	මෙතිහක්ක විද්‍යාලය	இரத்தினபுரி	ஓபநாயக்கா	மெதிஹக்கா வித்யாலயா	ගල්හිර පාර, ඕපනායක, ශ්‍රී ලංකාව	கால்ஹிரா வீதி, ஓபநாயக்க ,, இலங்கை
Rathnapura	Opanayaka	Dandeniya Vidyalaya	False	False	RTHNPRPNYKDNDNYVDYLY		Ratnapura	LK-91	6.586826	80.566158	Opanayaka	PS-910104	6.608519	80.619285	6.599179	80.615271	HJX8+M4C, Ratnapura, Sri Lanka	1.129597		රත්නපුර	ඕපනායක	දන්දෙණිය විද්‍යාලය	இரத்தினபுரி	ஓபநாயக்கா	தண்டேனியா வித்தியாலயம்	HJX8+M4C, රත්නපුර, ශ්‍රී ලංකාව	HJX8+M4C, இரத்தினபுரி, இலங்கை
Rathnapura	Opanayaka	Hunuwala Dharamaraja Vidyalaya	False	False	RTHNPRPNYKHNWLDHRMRJVDYLY		Ratnapura	LK-91	6.586826	80.566158	Opanayaka	PS-910104	6.608519	80.619285	6.611693	80.591317	JH6R+MGG, රත්නපුර, Sri Lanka	3.110298		රත්නපුර	ඕපනායක	හුණුවල ධර්මරාජ විද්‍යාලය	இரத்தினபுரி	ஓபநாயக்கா	ஹுனுவல தரமராஜா வித்தியாலயம்	JH6R+MGG, රත්නපුර, ශ්‍රී ලංකාව	JH6R+MGG, ரத்னபுரம், இலங்கை
Rathnapura	Opanayaka	Hunuwala Tamil College	False	False	RTHNPRPNYKHNWLTMLCLLG		Ratnapura	LK-91	6.586826	80.566158	Opanayaka	PS-910104	6.608519	80.619285	6.611693	80.591317	JH6R+MGG, රත්නපුර, Sri Lanka	3.110298		රත්නපුර	ඕපනායක	හුණුවල දෙමළ විද්‍යාලය	இரத்தினபுரி	ஓபநாயக்கா	ஹுனுவலா தமிழ் கல்லூரி	JH6R+MGG, රත්නපුර, ශ්‍රී ලංකාව	JH6R+MGG, ரத்னபுரம், இலங்கை
Kegalle	Yatiyantota	Dunukedeniya Primary School	False	False	KGLLYTYNTTDNKDNYPRMRYSCHL		Kegalle	LK-92	7.104216	80.342866	Yatiyantota	PS-920230	7.027207	80.290753	7.155768	80.418566	5C49+8C4, කෑගල්ල, Sri Lanka	20.087723	#CenterFarFromPolice	කෑගල්ල	යටියන්තොට	දුනුකදෙනිය ප්‍රාථමික විද්‍යාලය	கேகாலை	யடியந்தோட்டா	துனுகெதெனிய ஆரம்பப் பள்ளி	5C49+8C4, වියගල්ල, ශ්‍රී ලංකාව	5C49+8C4, பாதிக்கப்பட்டகல்லா, இலங்கை
Kegalle	Yatiyantota	Malwatta Viharaya	False	False	KGLLYTYNTTMLWTTVHRY		Kegalle	LK-92	7.104216	80.342866	Yatiyantota	PS-920230	7.027207	80.290753	7.028882	80.295542	Yatiyanthota, Sri Lanka	0.560545		කෑගල්ල	යටියන්තොට	මල්වතු විහාරය	கேகாலை	யடியந்தோட்டா	மல்வத்த விஹாராயா	යටියන්තොට, ශ්‍රී ලංකාව	யடியந்தோட்டை, இலங்கை
Kegalle	Yatiyantota	Kalukohuthenna Viharaya	False	False	KGLLYTYNTTKLKHTHNNVHRY		Kegalle	LK-92	7.104216	80.342866	Yatiyantota	PS-920230	7.027207	80.290753	7.029583	80.294551	Yatiyanthota - Parussella - Punugala - Meenagala Rd, Yatiyanthota, Sri Lanka	0.495619		කෑගල්ල	යටියන්තොට	කළුකොහුතැන්න විහාරය	கேகாலை	யடியந்தோட்டா	கலுகோஹுதென்ன விஹாராயா	යටියන්තොට - පරුස්සැල්ල - පුනුගල - මීගල පාර, යටියන්තොට, ශ්‍රී ලංකාව	யடியந்தோட்ட - பருசெல்ல - புனுகல - மீனகல சாலை, யடியந்தோட்டை, இலங்கை
Kegalle	Yatiyantota	Kalyani Maha Vidyalaya - Kithulgala	False	False	KGLLYTYNTTKLYNMHVDYLYKTHLGL		Kegalle	LK-92	7.104216	80.342866	Yatiyantota	PS-920230	7.027207	80.290753	7.004593	80.409162	Kithulgala Temple, A7, Kitulgala, Sri Lanka	13.311802		කෑගල්ල	යටියන්තොට	කල් යාණි මහා විද් යාලය - කිතුල්ගල	கேகாலை	யடியந்தோட்டா	கல்யாணி மகா வித்யாலயா - கிதுல்கலா	කිතුල්ගල පන්සල, ඒ 7, කිතුල්ගල, ශ්‍රී ලංකාව	கிதுல்கலா கோவில், ஏ 7, கிதுல்கலா, இலங்கை
Kegalle	Bulathkohupitiya	Lewala Primary School	False	False	KGLLBLTHKHPTYLWLPRMRYSCHL		Kegalle	LK-92	7.104216	80.342866	Bulathkohupitiya	PS-920232	7.106684	80.3347	7.147714	80.366009	Kegalle-Bulathkohupitiya-Karawanella Hwy, Undugoda, Sri Lanka	5.72442		කෑගල්ල	බුලත්කොහුපිටිය	ලේවල ප්‍රාථමික විද්‍යාලය	கேகாலை	புலத்கோஹுபிடியா	லேவாலா தொடக்கப்பள்ளி	කෑගල්ල-බුලත්කොහුපිටිය-කරවනැල්ල හ්වි, උඳුගොඩ, ශ්‍රී ලංකාව	கேகாலை-புலத்கோஹுபிட்டிய-கரவனெல்லா ஹ்வை, உண்டுகொட, இலங்கை
Kegalle	Bulathkohupitiya	Ginigoda Viharaya	False	False	KGLLBLTHKHPTYGNGDVHRY		Kegalle	LK-92	7.104216	80.342866	Bulathkohupitiya	PS-920232	7.106684	80.3347	7.123747	80.334921	48FM+FXV, Alawathura, Sri Lanka	1.898073		කෑගල්ල	බුලත්කොහුපිටිය	ගිනිගොඩ විහාරය	கேகாலை	புலத்கோஹுபிடியா	கினிகொட விஹாராயா	48FM+FXV, අලවතුර, ශ්‍රී ලංකාව	48FM+FXV, அலவத்துரா, இலங்கை
Kegalle	Bulathkohupitiya	Uduwa Primary School	False	False	KGLLBLTHKHPTYDWPRMRYSCHL		Kegalle	LK-92	7.104216	80.342866	Bulathkohupitiya	PS-920232	7.106684	80.3347	7.140303	80.393152	Udabogala Rd, Ganthuna, Sri Lanka	7.456879		කෑගල්ල	බුලත්කොහුපිටිය	උඩුව ප්‍රාථමික විද්‍යාලය	கேகாலை	புலத்கோஹுபிடியா	உடுவா ஆரம்பப் பள்ளி	උඩබොගල පාර, ගන්තුන, ශ්‍රී ලංකාව	உடபொகல சாலை, கந்துனா, இலங்கை
Kegalle	Bulathkohupitiya	Puspane Viharaya	False	False	KGLLBLTHKHPTYPSPNVHRY		Kegalle	LK-92	7.104216	80.342866	Bulathkohupitiya	PS-920232	7.106684	80.3347	7.169325	80.364363	Hungampola-Moranthota Kegalle, Sri Lanka	7.69836		කෑගල්ල	බුලත්කොහුපිටිය	පුෂ්පනේ විහාරය	கேகாலை	புலத்கோஹுபிடியா	புஸ்பனே விஹாராயா	හුංගම්පොල-මොරන්තොට කෑගල්ල, ශ්‍රී ලංකාව	ஹங்கம்பொல-மொரந்தோட்ட கேகாலை, இலங்கை
Kegalle	Bulathkohupitiya	Rangala Primary School	False	False	KGLLBLTHKHPTYRNGLPRMRYSCHL		Kegalle	LK-92	7.104216	80.342866	Bulathkohupitiya	PS-920232	7.106684	80.3347	7.114797	80.333013	487M+W66, කෑගල්ල, Sri Lanka	0.921418		කෑගල්ල	බුලත්කොහුපිටිය	රංගල ප්‍රාථමික විද්‍යාලය	கேகாலை	புலத்கோஹுபிடியா	ரங்கலா தொடக்கப்பள்ளி	487M+W66, හානිගල්ල, ශ්‍රී ලංකාව	487M+W66, பாதிக்கப்பட்டகல்லா, இலங்கை
Kegalle	Deraniyagala	Anhettigama Vidyalaya	False	False	KGLLDRNYGLNHTTGMVDYLY		Kegalle	LK-92	7.104216	80.342866	Deraniyagala	PS-920228	6.935815	80.334998	6.924254	80.377033	Noori Rd, Sri Lanka	4.816232		කෑගල්ල	දැරණියගල	අන්හෙට්ටිගම විද්‍යාලය	கேகாலை	தரனியகலா	அன்ஹெட்டிகம வித்யாலயா	නූරි පාර, ශ්‍රී ලංකාව	நூரி சாலை, இலங்கை
Kegalle	Deraniyagala	Nilwala Primary School	False	False	KGLLDRNYGLNLWLPRMRYSCHL		Kegalle	LK-92	7.104216	80.342866	Deraniyagala	PS-920228	6.935815	80.334998	6.964268	80.395735	X97W+P75, Nilwala, Sri Lanka	7.415404		කෑගල්ල	දැරණියගල	නිල්වලා ප්‍රාථමික විද්‍යාලය	கேகாலை	தரனியகலா	நில்வாலா தொடக்கப்பள்ளி	X97W+P75, නිල්වලා, ශ්‍රී ලංකාව	X97W+P75, நில்வாலா, இலங்கை
Kegalle	Deraniyagala	Basnagala Vidyalaya	False	False	KGLLDRNYGLBSNGLVDYLY		Kegalle	LK-92	7.104216	80.342866	Deraniyagala	PS-920228	6.935815	80.334998	6.934047	80.384777	Noori Rd, Deraniyagala, Sri Lanka	5.499918		කෑගල්ල	දැරණියගල	බස්නාගල විද්‍යාලය	கேகாலை	தரனியகலா	பஸ்னகலா வித்யாலயா	නුරි පාර, දැරණියගල, ශ්‍රී ලංකාව	நூரி வீதி, தெரணியகலா, இலங்கை
Kegalle	Ruwanwella	Kudagama Primary School	False	False	KGLLRWNWLLKDGMPRMRYSCHL		Kegalle	LK-92	7.104216	80.342866	Ruwanwella	PS-920229	7.046189	80.254174	7.088921	80.251446	37Q2+HH8, Galamuna, Sri Lanka	4.762603		කෑගල්ල	රුවන්වැල්ල	කුඩාගම ප්‍රාථමික විද්‍යාලය	கேகாலை	ருவன்வெல்ல	குடகம தொடக்கப்பள்ளி	37Q2+එච්එච් 8, ගලමුණ, ශ්‍රී ලංකාව	37Q2+HH8, கலாமுனா, இலங்கை
Kegalle	Ruwanwella	Puranpoththa Primary School	False	False	KGLLRWNWLLPRNPTHTHPRMRYSCHL		Kegalle	LK-92	7.104216	80.342866	Ruwanwella	PS-920229	7.046189	80.254174	7.045873	80.253706	Ruwanwella, Sri Lanka	0.062423		කෑගල්ල	රුවන්වැල්ල	පුරන්පොත්ත ප්‍රාථමික විද්‍යාලය	கேகாலை	ருவன்வெல்ல	பூரன்பொத்த தொடக்கப்பள்ளி	රුවන්වැල්ල, ශ්‍රී ලංකාව	ருவன்வெல்ல, இலங்கை
Kegalle	Ruwanwella	Gonagala Maha Vidyalaya	False	False	KGLLRWNWLLGNGLMHVDYLY		Kegalle	LK-92	7.104216	80.342866	Ruwanwella	PS-920229	7.046189	80.254174	7.012101	80.213036	Gonagala, Ruwanwella, Sri Lanka	5.916113		කෑගල්ල	රුවන්වැල්ල	ගෝනාගල මහා විද්‍යාලය	கேகாலை	ருவன்வெல்ல	கோனகல மகா வித்தியாலயம்	ගෝනගල, රුවන්වැල්ල, ශ්‍රී ලංකාව	கோனகலா, ருவான்வெல்லா, இலங்கை
Kegalle	Ruwanwella	Malitigama Viharaya	False	False	KGLLRWNWLLMLTGMVHRY		Kegalle	LK-92	7.104216	80.342866	Ruwanwella	PS-920229	7.046189	80.254174	7.046785	80.249178	Ehalamorawaththa Ruwanwella, Veyangoda Road, Ruwanwella, Sri Lanka	0.555477		කෑගල්ල	රුවන්වැල්ල	මාලිටිගම විහාරය	கேகாலை	ருவன்வெல்ல	மாலித்திகம விஹாராயா	ඉහළමොරවත්ත රුවන්වැල්ල, වේයන්ගොඩ පාර, රුවන්වැල්ල, ශ්‍රී ලංකාව	எஹலமோரவத்த ருவன்வெல்ல, வேயங்கொட வீதி, ருவன்வெல்ல, இலங்கை
Kegalle	Ruwanwella	Amithirigala North Viharaya	False	False	KGLLRWNWLLMTHRGLNRTHVHRY		Kegalle	LK-92	7.104216	80.342866	Ruwanwella	PS-920229	7.046189	80.254174	7.029885	80.184717	Amithirigala, Sri Lanka	7.87902		කෑගල්ල	රුවන්වැල්ල	අමිතිරිගල උතුරු විහාරය	கேகாலை	ருவன்வெல்ல	அமித்திரிகல வடக்கு விகாரை	අමිතිරිගල, ශ්‍රී ලංකාව	அமித்திரிகலா, இலங்கை
Anuradhapura	Anuradhapura	MOH Office - Nuwaragam Palatha Central	False	False	NRDHPRNRDHPRMHFFCNWRGMPLTHCNTRL		Anuradhapura	LK-71	8.39199	80.512958	Anuradapura	PS-710101	8.329752	80.407265	8.341215	80.374096	Unnamed Road, Anuradhapura, Sri Lanka	3.866675		අනුරාධපුර	අනුරාධපුර	එම්ඕඑච් කාර්යාලය - නුවරගම් පලාත මධ්‍යම	அனுராதபுரம்	அனுராதபுரம்	MOH அலுவலகம் - நுவரகம் பலத மத்திய	නම් නොකළ පාර, අනුරාධපුර, ශ්‍රී ලංකාව	பெயரிடப்படாத சாலை, அனுராதபுரம், இலங்கை
Anuradhapura	Anuradhapura	MOH Office - Nuwaragam Palatha East	False	False	NRDHPRNRDHPRMHFFCNWRGMPLTHST		Anuradhapura	LK-71	8.39199	80.512958	Anuradapura	PS-710101	8.329752	80.407265	8.341215	80.374096	Unnamed Road, Anuradhapura, Sri Lanka	3.866675		අනුරාධපුර	අනුරාධපුර	එම්ඕඑච් කාර්යාලය - නුවරගම් පැලත නැගෙනහිර	அனுராதபுரம்	அனுராதபுரம்	MOH அலுவலகம் - நுவரகம் பலத கிழக்கு	නම් නොකළ පාර, අනුරාධපුර, ශ්‍රී ලංකාව	பெயரிடப்படாத சாலை, அனுராதபுரம், இலங்கை
Anuradhapura	Anuradhapura	Walisinghe Harischandra Ground	False	False	NRDHPRNRDHPRWLSNGHHRSCHNDRGRND		Anuradhapura	LK-71	8.39199	80.512958	Anuradapura	PS-710101	8.329752	80.407265	8.337404	80.405697	8CP4+X78, Anuradhapura, Sri Lanka	0.868448		අනුරාධපුර	අනුරාධපුර	වලිසිංහ හරිස්චන්ද්‍ර පිටිය	அனுராதபுரம்	அனுராதபுரம்	வாலிசிங்க ஹரிச்சந்திர மைதானம்	8CP4+X78, අනුරාධපුර, ශ්‍රී ලංකාව	8CP4+X78, அனுராதபுரம், இலங்கை
Anuradhapura	Horowpothana	Pradeshiya Sabha - Kahatagasdigiliya	False	False	NRDHPRHRWPTHNPRDSHYSBHKHTGSDGLY		Anuradhapura	LK-71	8.39199	80.512958	Horowpathana	PS-710117	8.553878	80.830734	8.427312	80.691227	Puttalam - Anuradhapura - Trincomalee Hwy, Kahatagasdigiliya, Sri Lanka	20.826098	#CenterFarFromPolice	අනුරාධපුර	හොරොව්පොතාන	ප්‍රාදේශීය සභාව - කහටගස්දිගිලිය	அனுராதபுரம்	ஹோரோபோதனா	பிரதேச சபை - கஹதகஸ்திகிலியா	පුත්තලම - අනුරාධපුර - ත්‍රිකුණාමලය හ්වි, කහටගස්දිගිලිය, ශ්‍රී ලංකාව	புத்தளம் - அனுராதபுரம் - திருகோணமலை Hwy, கஹதகஸ்திகிலியா, இலங்கை
Anuradhapura	Pulasthipura	Pulasthipura Rathanasara Primary School	False	False	NRDHPRPLSTHPRPLSTHPRRTHNSRPRMRYSCHL		Anuradhapura	LK-71	8.39199	80.512958	Pulasthipura	PS-720126	8.028343	81.032376	8.33183	80.402902	Anuradhapura, Sri Lanka	77.087892	#CenterFarFromPolice	අනුරාධපුර	පුලස්තිපුර	පුලස්තිපුර රතනසාර ප්‍රාථමික විද්‍යාලය	அனுராதபுரம்	புலஸ்திபுரா	புலஸ்திபுர ரத்தினசார ஆரம்பப் பள்ளி	අනුරාධපුර, ශ්‍රී ලංකාව	அனுராதபுரம், இலங்கை
Jaffna	Tellippalai	MOH Office – Tellippalai	False	False	JFFNTLLPPLMHFFCTLLPPL		Jaffna	LK-41	9.691792	80.098594	Thelippalay	PS-410104	6.933075	79.857181	9.785978	80.038383	Q2PQ+99R, Tellippalai, Sri Lanka	317.953715	#CenterFarFromPolice	යාපනය	තෙලිප්පලෙයි	එම්ඕඑච් කාර්යාලය - තෙලිප්පලෙයි	யாழ்	தெல்லிப்பழை	MOH அலுவலகம் - தெல்லிப்பழை	Q2PQ+99R, තෙලිප්පලෙයි, ශ්‍රී ලංකාව	Q2PQ+99R, தெல்லிப்பழை, இலங்கை
Jaffna	Point Pedro	MOH Office - Point Pedro	False	False	JFFNPNTPDRMHFFCPNTPDR		Jaffna	LK-41	9.691792	80.098594	Point Pedro	PS-410106	9.827018	80.233187	9.805763	80.222952	R64F+854, Point Pedro, Sri Lanka	2.616722		යාපනය	පේදුරුතුඩුව	MOH කාර්යාලය - පේදුරුතුඩුව	யாழ்	பருத்தித்துறை	MOH அலுவலகம் - பருத்தித்துறை	ආර් 64 එෆ්+854, පේදුරුතුඩුව, ශ්‍රී ලංකාව	R64F+854, பருத்தித்துறை, இலங்கை
Jaffna	Nelliyady	Karaveddi Mathoni Reading Hall	False	False	JFFNNLLYDYKRVDDMTHNRDNGHLL		Jaffna	LK-41	9.691792	80.098594	Nelliadi	PS-410108	9.778397	80.113303	9.808339	80.20006	Nelliady North, Karaveddi, Sri Lanka	10.075687		යාපනය	නෙල්ලියාඩි	කරවෙඩ්ඩි මාතෝනි කියවීමේ ශාලාව	யாழ்	நெல்லியடி	கரவெட்டி மாதோனி வாசிப்பு மண்டபம்	නෙල්ලිඅඩි උතුර, කරවෙදි, ශ්‍රී ලංකාව	நெல்லியடி வடக்கு, கரவெட்டி, இலங்கை
Jaffna	Nelliyady	Karaveddi Vadiri Reading Hall	False	False	JFFNNLLYDYKRVDDVDRRDNGHLL		Jaffna	LK-41	9.691792	80.098594	Nelliadi	PS-410108	9.778397	80.113303	9.808339	80.20006	Nelliady North, Karaveddi, Sri Lanka	10.075687		යාපනය	නෙල්ලියාඩි	කරවෙදි වදිරි කියවීමේ ශාලාව	யாழ்	நெல்லியடி	கரவெட்டி வாதிரி வாசிப்பு மண்டபம்	නෙල්ලිඅඩි උතුර, කරවෙදි, ශ්‍රී ලංකාව	நெல்லியடி வடக்கு, கரவெட்டி, இலங்கை
Jaffna	Wadukkotte	MOH Office – Chankanai	False	False	JFFNWDKKTTMHFFCCHNKN		Jaffna	LK-41	9.691792	80.098594	Vaddukoddai		9.728886	79.947771	9.753617	79.976004	QX3G+CCR, Sri Lanka	4.140836		යාපනය	වඩුක්කෝට්ටේ	MOH කාර්යාලය - චංකනායි	யாழ்	வட்டுக்கோட்டை	MOH அலுவலகம் - சங்கனை	QX3G+CCR, ශ්‍රී ලංකාව	QX3G+CCR, இலங்கை
Jaffna	Kayts	MOH Office – Karainagar	False	False	JFFNKYTSMHFFCKRNGR		Jaffna	LK-41	9.691792	80.098594	Kayts	PS-410212	9.728654	79.94775	9.725097	79.99772	Sri Lanka, Manipay, Sri Lanka	5.492521		යාපනය	කයිට්ස්	MOH කාර්යාලය - කරෙයිනගර්	யாழ்	ஊர்காவற்துறையினர்	MOH அலுவலகம் - காரைநகர்	ශ්‍රී ලංකාව, මනිපායි, ශ්‍රී ලංකාව	இலங்கை, மானிப்பாய், இலங்கை
Jaffna	Kayts	MOH Office – Valanai	False	False	JFFNKYTSMHFFCVLN		Jaffna	LK-41	9.691792	80.098594	Kayts	PS-410212	9.728654	79.94775	9.636317	79.903777	Chatty vangkalvady road, Velanai, Sri Lanka	11.346015		යාපනය	කයිට්ස්	MOH කාර්යාලය - වලනායි	யாழ்	ஊர்காவற்துறையினர்	MOH அலுவலகம் - வளணை	චැටි වංගල්වඩි පාර, වෙලනායි, ශ්‍රී ලංකාව	சட்டி வாங்கல்வாடி சாலை, வேலணை, இலங்கை
Jaffna	Kayts	MOH Office – Kayts	False	False	JFFNKYTSMHFFCKYTS		Jaffna	LK-41	9.691792	80.098594	Kayts	PS-410212	9.728654	79.94775	9.697759	79.866366	Sri Lanka, Kayts, Sri Lanka	9.561445		යාපනය	කයිට්ස්	MOH කාර්යාලය - කයිට්ස්	யாழ்	ஊர்காவற்துறையினர்	MOH அலுவலகம் - ஊர்காவற்துறை	ශ්‍රී ලංකාව, කයිට්ස්, ශ්‍රී ලංකාව	இலங்கை, ஊர்காவற்துறை, இலங்கை
Jaffna	Chavakachcheri	Town Hall - Chavakachcheri	False	False	JFFNCHVKCHCHRTWNHLLCHVKCHCHR		Jaffna	LK-41	9.691792	80.098594	Chawakachcheri	PS-410215	9.666459	80.132384	9.659136	80.160946	M556+M94, Chavakachcheri, Sri Lanka	3.236063		යාපනය	චාවකච්චේරි	නගර ශාලාව - චාවකච්චේරි	யாழ்	சாவகச்சேரி	டவுன் ஹால் - சாவகச்சேரி	එම් 556+එම් 94, චාවකච්චේරි, ශ්‍රී ලංකාව	M556+M94, சாவகச்சேரி, இலங்கை
Jaffna	Atchchuveli	Walalai Community Hall	False	False	JFFNTCHCHVLWLLCMMNTYHLL		Jaffna	LK-41	9.691792	80.098594	Achchuweli	PS-410103	6.934132	79.856305	9.664467	80.010483	AB16, Jaffna, Sri Lanka	304.168348	#CenterFarFromPolice	යාපනය	අච්චුවේලි	වලලෙයි ප්‍රජා ශාලාව	யாழ்	அச்சுவேலி	வாலாலை சமுதாயக் கூடம்	ඒබී 16, යාපනය, ශ්‍රී ලංකාව	ஏபி 16, யாழ்ப்பாணம், இலங்கை
Kilinochchi	Kilinochchi	MOH Office - Karachchi	False	False	KLNCHCHKLNCHCHMHFFCKRCHCH		Kilinochchi	LK-45	9.415742	80.30358	Kilinochchi	PS-450131	9.392265	80.407846	9.396965	80.407782	Kandy - Jaffna Hwy, Kilinochchi, Sri Lanka	0.522827		කිලිනොච්චි	කිලිනොච්චි	MOH කාර්යාලය - කරච්චි	கிளிநொச்சி	கிளிநொச்சி	MOH அலுவலகம் - கராச்சி	මහනුවර - යාපනය හ්වි, කිලිනොච්චි, ශ්‍රී ලංකාව	கண்டி - யாழ்ப்பாணம், கிளிநொச்சி, இலங்கை
Kilinochchi	Kilinochchi	MOH Office – Palai	False	False	KLNCHCHKLNCHCHMHFFCPL		Kilinochchi	LK-45	9.415742	80.30358	Kilinochchi	PS-450131	9.392265	80.407846	7.330938	80.29484	06 A6, Polgahawela, Sri Lanka	229.618032	#CenterFarFromPolice	කිලිනොච්චි	කිලිනොච්චි	MOH කාර්යාලය - පලෙයි	கிளிநொச்சி	கிளிநொச்சி	MOH அலுவலகம் - பாளை	06 ඒ 6, පොල්ගහවෙල, ශ්‍රී ලංකාව	06 A6, பொல்கஹவெல, இலங்கை
Kilinochchi	Dharmapuram	MOH Office – Kandawalai	False	False	KLNCHCHDHRMPRMMHFFCKNDWL		Kilinochchi	LK-45	9.415742	80.30358	Dharmapuram	PS-450136	6.873107	79.86167	9.417165	80.504182	CG83+VM7, Velikkandal, Sri Lanka	291.682933	#CenterFarFromPolice	කිලිනොච්චි	ධර්මපුරම්	MOH කාර්යාලය - කඳවලයි	கிளிநொச்சி	தர்மபுரம்	MOH அலுவலகம் - கண்டாவளை	සීජී 83+වීඑම් 7, වැලිකන්දල්, ශ්‍රී ලංකාව	CG83+VM7, வேலிக்கண்டல், இலங்கை
Kilinochchi	Pooneryn	MOH Office – Pooneryn	False	False	KLNCHCHPNRYNMHFFCPNRYN		Kilinochchi	LK-45	9.415742	80.30358	Pooneryn		9.505717	80.21101	9.507968	80.208317	G655+58P, Pooneryn, Sri Lanka	0.387256		කිලිනොච්චි	පුනරීන්	MOH කාර්යාලය - පුනරීන්	கிளிநொச்சி	பூனெரின்	MOH அலுவலகம் - பூனெரின்	ජී 655+58 පී, පූනරීන්, ශ්‍රී ලංකාව	G655+58P, பூனெரின், இலங்கை
Kilinochchi	Mulankavil	Mulankavil Hospital	False	False	KLNCHCHMLNKVLMLNKVLHSPTL		Kilinochchi	LK-45	9.415742	80.30358	Mulankavil	PS-450135	9.254463	80.141528	9.243423	80.143894	Base Hospital Mulankavil, A32 Road, Mulankavil, Kumulamunai, Sri Lanka	1.255148		කිලිනොච්චි	මුලංකාවිල්	මුලංකාවිල් රෝහල	கிளிநொச்சி	முழங்காவில்	முழங்காவில் மருத்துவமனை	මුලික රෝහල මුලංකාවිල්, ඒ 32 පාර, මුලංකාවිල්, කුමුලමුනෙයි, ශ්‍රී ලංකාව	அடிப்படை மருத்துவமனை முழங்காவில், A32 சாலை, முழங்காவில், குமுலமுனை, இலங்கை
Mullaitivu	Mullaitivu	Kallapatu Maha Vidyalaya	False	False	MLLTVMLLTVKLLPTMHVDYLY		Mullaitivu	LK-44	9.167643	80.549091	Mullativu	PS-440148	9.212825	80.760159	9.265783	80.809789	7R85+8W7, Mullaitivu, Sri Lanka	8.024128		මුලතිව්	මුලතිව්	කල්ලපටු මහා විද්‍යාලය	முல்லைத்தீவு	முல்லைத்தீவு	கல்லப்பட்டு மகா வித்தியாலயம்	7R85+8W7, මුලතිව්, ශ්‍රී ලංකාව	7R85+8W7, முல்லைத்தீவு, இலங்கை
Mullaitivu	Puthukudiyiruppu	MOH Office - Puthukudiyiruppu	False	False	MLLTVPTHKDYRPPMHFFCPTHKDYRPP		Mullaitivu	LK-44	9.167643	80.549091	Pudukuduiruppu	PS-440149	7.00152	79.95003	9.320965	80.683013	Parantan-Mullaitivu Hwy, Velikkandal, Sri Lanka	270.317914	#CenterFarFromPolice	මුලතිව්	පුදුකුඩියිරුප්පු	MOH කාර්යාලය - පුදුකුඩියිරුප්පු	முல்லைத்தீவு	புதுக்குடியிருப்பு	MOH அலுவலகம் - புதுக்குடியிருப்பு	පරන්තන්-මුලතිව් හ්වි, වේලිකන්දල්, ශ්‍රී ලංකාව	பரந்தன்-முல்லைத்தீவு Hwy, வேலிக்கண்டல், இலங்கை
Vavuniya	Vavuniya	Kaneshapuram Maha Vidyalaya	False	False	VVNYVVNYKNSHPRMMHVDYLY		Vavuniya	LK-43	8.852071	80.467404	Vavuniya	PS-430119	8.754431	80.498604	8.750324	80.497043	A9, Vavuniya 43000, Sri Lanka	0.48799		වවුනියාව	වවුනියාව	කනේෂපුරම් මහා විද්‍යාලය	வவுனியா	வவுனியா	கனேஷபுரம் மகா வித்தியாலயம்	ඒ 9, වව්නියාව 43000, ශ්‍රී ලංකාව	ஏ 9, வவுனியா 43000, இலங்கை
Vavuniya	Vavuniya	Shiwaprakash Girls' College	False	False	VVNYVVNYSHWPRKSHGRLSCLLG		Vavuniya	LK-43	8.852071	80.467404	Vavuniya	PS-430119	8.754431	80.498604	8.751173	80.503888	QG23+FH6, Vavuniya, Sri Lanka	0.684662		වවුනියාව	වවුනියාව	ශිවප්‍රකාශ් බාලිකා විද්‍යාලය	வவுனியா	வவுனியா	சிவபிரகாஷ் பெண்கள் கல்லூரி	QG23+FH6, වවුනියාව, ශ්‍රී ලංකාව	QG23+FH6, வவுனியா, இலங்கை
Vavuniya	Vavuniya	Marawankulam Maha Vidyalaya	False	False	VVNYVVNYMRWNKLMMHVDYLY		Vavuniya	LK-43	8.852071	80.467404	Vavuniya	PS-430119	8.754431	80.498604	8.750324	80.497043	A9, Vavuniya 43000, Sri Lanka	0.48799		වවුනියාව	වවුනියාව	මාරාවන්කුලම් මහා විද්‍යාලය	வவுனியா	வவுனியா	மறவன்குளம் மகா வித்தியாலயம்	ඒ 9, වව්නියාව 43000, ශ්‍රී ලංකාව	ஏ 9, வவுனியா 43000, இலங்கை
Vavuniya	Vavuniya	Muruganur Vidyalaya	False	False	VVNYVVNYMRGNRVDYLY		Vavuniya	LK-43	8.852071	80.467404	Vavuniya	PS-430119	8.754431	80.498604	8.750324	80.497043	A9, Vavuniya 43000, Sri Lanka	0.48799		වවුනියාව	වවුනියාව	මුරුගනූර් විද්‍යාලය	வவுனியா	வவுனியா	முருகனூர் வித்யாலயா	ඒ 9, වව්නියාව 43000, ශ්‍රී ලංකාව	ஏ 9, வவுனியா 43000, இலங்கை
Vavuniya	Nedunkeni	Public Health Service Offices - Nedunkeni	False	False	VVNYNDNKNPBLCHLTHSRVCFFCSNDNKN		Vavuniya	LK-43	8.852071	80.467404	Nedumkenrni	PS-430121	7.128721	79.877371	9.060607	80.66112	Old Post Office Road, Nedunkeni, Sri Lanka	231.566681	#CenterFarFromPolice	වවුනියාව	නැදුන්කේනි	මහජන සෞඛ්‍ය සේවා කාර්යාල - නැදුන්කේනි	வவுனியா	நெடுங்கேணி	பொது சுகாதார சேவை அலுவலகங்கள் - நெடுங்கேணி	පරණ තැපැල් කාර්‍යාලය, නැදුන්කේනි, ශ්‍රී ලංකාව	பழைய தபால் அலுவலக சாலை, நெடுங்கேணி, இலங்கை
Vavuniya	Sidambarapuram	Sidambarapuram hospital	False	False	VVNYSDMBRPRMSDMBRPRMHSPTL		Vavuniya	LK-43	8.852071	80.467404									#PoliceLocationUnknown	වවුනියාව	සිදම්බරපුරම්	සිදම්බරපුරම් රෝහල	வவுனியா	சிதம்பரபுரம்	சிதம்பரபுரம் மருத்துவமனை		
Vavuniya	Puvarissankulam	Puvarissankulam Hospital	False	False	VVNYPVRSSNKLMPVRSSNKLMHSPTL		Vavuniya	LK-43	8.852071	80.467404									#PoliceLocationUnknown	වවුනියාව	පුවරිස්සන්කුලම	පුවරිස්සන්කුලම රෝහල	வவுனியா	புவாரிசன்குளம்	புவாரிசன்குளம் மருத்துவமனை		
Vavuniya	Omanthai	Omanthai Hospital	False	False	VVNYMNTHMNTHHSPTL		Vavuniya	LK-43	8.852071	80.467404	Omantha	PS-430123	8.84719	80.497841	8.864234	80.502119	VG72+MRX, Omanthai, Sri Lanka	1.953234		වවුනියාව	ඕමන්තේ	ඕමන්ත රෝහල	வவுனியா	ஓமந்தை	ஓமந்தை மருத்துவமனை	VG72+MRX, ඕමන්තේ, ශ්‍රී ලංකාව	VG72+MRX, ஓமந்தை, இலங்கை
Vavuniya	Omanthai	Nauvi Hospital	False	False	VVNYMNTHNVHSPTL		Vavuniya	LK-43	8.852071	80.467404	Omantha	PS-430123	8.84719	80.497841	8.864234	80.502119	VG72+MRX, Omanthai, Sri Lanka	1.953234		වවුනියාව	ඕමන්තේ	නෞවි රෝහල	வவுனியா	ஓமந்தை	நauவி மருத்துவமனை	VG72+MRX, ඕමන්තේ, ශ්‍රී ලංකාව	VG72+MRX, ஓமந்தை, இலங்கை
Trincomalee	Muttur	MOH Office – Muttur	False	False	TRNCMLMTTRMHFFCMTTR		Trincomalee	LK-53	8.551241	81.092014	Mutur	PS-530138	8.461133	81.259371	8.453916	81.264494	1 Old Batticaloa Rd, Mutur, Sri Lanka	0.980859		ත්රිකුණාමලය	මුතූර්	MOH කාර්යාලය - මුතූර්	திருகோணமலை	மூதூர்	MOH அலுவலகம் - மூதூர்	1 පරණ මඩකලපුව පාර, මුතූර්, ශ්‍රී ලංකාව	1 பழைய மட்டக்களப்பு வீதி, மூதூர், இலங்கை
Trincomalee	Kinniya	MOH Office - Kurungnakeni	False	False	TRNCMLKNNYMHFFCKRNGNKN		Trincomalee	LK-53	8.551241	81.092014	Kinnia	PS-530140	6.907289	79.863819	7.484932	80.353119	F9M3+X6H, Kurunegala 60000, Sri Lanka	83.927094	#CenterFarFromPolice	ත්රිකුණාමලය	කින්නියා	එම්ඕඑච් කාර්යාලය - කුරුංග්ණකේනි	திருகோணமலை	கிண்ணியா	MOH அலுவலகம் - குருங்நகேணி	F9M3+X6H, කුරුණෑගල 60000, ශ්‍රී ලංකාව	F9M3+X6H, குருநாகல் 60000, இலங்கை
Trincomalee	Kinniya	MOH Office – Kinniya	False	False	TRNCMLKNNYMHFFCKNNY		Trincomalee	LK-53	8.551241	81.092014	Kinnia	PS-530140	6.907289	79.863819	8.498696	81.179644	F5XH+FVC, Kinniya 31100, Sri Lanka	228.840304	#CenterFarFromPolice	ත්රිකුණාමලය	කින්නියා	MOH කාර්යාලය - කින්නියා	திருகோணமலை	கிண்ணியா	MOH அலுவலகம் - கிண்ணியா	F5XH+FVC, කින්නියා 31100, ශ්‍රී ලංකාව	F5XH+FVC, கிண்ணியா 31100, இலங்கை
Trincomalee	Sripura	MOH Office – Sripura	False	False	TRNCMLSRPRMHFFCSRPR		Trincomalee	LK-53	8.551241	81.092014	Sripura	PS-530136	8.929617	80.81428	8.926697	80.814799	Padavi Sripura, Padaviya - Sripura Road, Welioya, Sri Lanka	0.329869		ත්රිකුණාමලය	ශ්‍රීපුර	MOH කාර්යාලය - ශ්‍රීපුර	திருகோணமலை	ஸ்ரீபுரா	MOH அலுவலகம் - ஸ்ரீபுரா	පදවි ශ්‍රීපුර, පදවිය - ශ්‍රීපුර පාර, වැලිඔය, ශ්‍රී ලංකාව	படவி ஸ்ரீபுரா, படாவியா - ஸ்ரீபுரா சாலை, வெலிஓயா, இலங்கை
Trincomalee	Kuchchaveli	MOH Office – Kuchchaveli	False	False	TRNCMLKCHCHVLMHFFCKCHCHVL		Trincomalee	LK-53	8.551241	81.092014	Kuchchaweli	PS-530133	8.81895	81.100438	8.740082	81.161616	P5R6+2JQ, Kumpurupiddi, Sri Lanka	11.053646		ත්රිකුණාමලය	කුච්චවේලි	MOH කාර්යාලය - කුච්චවේලි	திருகோணமலை	குச்சவெளி	MOH அலுவலகம் - குச்சவெளி	P5R6+2JQ, කුඹුරුපිඩි, ශ්‍රී ලංකාව	P5R6+2JQ, கும்புறுப்பிடி, இலங்கை
Trincomalee	Kuchchaveli	Divisional Hospital - Kuchchaveli	False	False	TRNCMLKCHCHVLDVSNLHSPTLKCHCHVL		Trincomalee	LK-53	8.551241	81.092014	Kuchchaweli	PS-530133	8.81895	81.100438	8.814795	81.102358	R472+WW9, Kuchchaveli, Sri Lanka	0.508064		ත්රිකුණාමලය	කුච්චවේලි	ප්‍රාදේශීය රෝහල - කුච්චවේලි	திருகோணமலை	குச்சவெளி	பிரதேச மருத்துவமனை - குச்சவெளி	ආර් 472+WW9, කුච්චවේලි, ශ්‍රී ලංකාව	R472+WW9, குச்சவெளி, இலங்கை
Trincomalee	Kuchchaveli	Divisional Hospital - Nilaveli	False	False	TRNCMLKCHCHVLDVSNLHSPTLNLVL		Trincomalee	LK-53	8.551241	81.092014	Kuchchaweli	PS-530133	8.81895	81.100438	8.681035	81.193632	M5JV+CF6, Nilaveli, Sri Lanka	18.44695		ත්රිකුණාමලය	කුච්චවේලි	ප්‍රාදේශීය රෝහල - නිලාවේලි	திருகோணமலை	குச்சவெளி	பிரதேச மருத்துவமனை - நிலாவெளி	M5JV+CF6, නිලාවේලි, ශ්‍රී ලංකාව	M5JV+CF6, நிலவேலி, இலங்கை
Trincomalee	Pulmoddai	Base Hospital -Pulmoddai	False	False	TRNCMLPLMDDBSHSPTLPLMDD		Trincomalee	LK-53	8.551241	81.092014	Pulmudai	PS-530135	6.915266	79.87829	8.941204	80.983139	WXRM+F7J, Pulmoddai, Sri Lanka	256.112801	#CenterFarFromPolice	ත්රිකුණාමලය	පුල්මොඩෙයි	මූලික රෝහල -පුල්මොඩෙයි	திருகோணமலை	புல்மோட்டை	அடிப்படை மருத்துவமனை -புல்மோடை	ඩබ්ලිව්එක්ස්ආර්එම්+එෆ් 7 ජේ, පුල්මොඩෙයි, ශ්‍රී ලංකාව	WXRM+F7J, புல்மோடை, இலங்கை
Trincomalee	Serunuwara	MOH Office – Serunuwara	False	False	TRNCMLSRNWRMHFFCSRNWR		Trincomalee	LK-53	8.551241	81.092014	Serunuwara	PS-530244	8.321863	81.299322	8.323143	81.299894	B10, Sri Lanka	0.155671		ත්රිකුණාමලය	සේරුනුවර	MOH කාර්යාලය - සේරුනුවර	திருகோணமலை	சேருநுவரா	MOH அலுவலகம் - சேருநுவரா	බී 10, ශ්‍රී ලංකාව	பி 10, இலங்கை
Trincomalee	Harbour Police	MOH Office – Trincomalee	False	False	TRNCMLHRBRPLCMHFFCTRNCML		Trincomalee	LK-53	8.551241	81.092014	Trinco Harbour Police	PS-530131	8.56705	81.231407	8.598974	81.216963	MOH Office, Farm Rd, Trincomalee, Sri Lanka	3.890062		ත්රිකුණාමලය	වරාය පොලිසිය	එම්ඕඑච් කාර්යාලය - ත්‍රිකුණාමලය	திருகோணமலை	துறைமுக காவல்துறை	MOH அலுவலகம் - திருகோணமலை	එම්ඕඑච් කාර්යාලය, ගොවිපල පාර, ත්‍රිකුණාමලය, ශ්‍රී ලංකාව	MOH அலுவலகம், பண்ணை சாலை, திருகோணமலை, இலங்கை
Trincomalee	Uppuveli	MOH Office - Uppuveli	False	False	TRNCMLPPVLMHFFCPPVL		Trincomalee	LK-53	8.551241	81.092014	Uppuweli	PS-530134	8.593614	81.21743	8.607961	81.216512	Nilaveli Rd, Trincomalee, Sri Lanka	1.599005		ත්රිකුණාමලය	උප්පුවේලි	MOH කාර්යාලය - උප්පුවේලි	திருகோணமலை	உப்புவேலி	MOH அலுவலகம் - உப்புவேலி	නිලාවේලි පාර, ත්‍රිකුණාමලය, ශ්‍රී ලංකාව	நிலவேலி வீதி, திருகோணமலை, இலங்கை
Trincomalee	Kantale	MOH Office - Kantale	False	False	TRNCMLKNTLMHFFCKNTL		Trincomalee	LK-53	8.551241	81.092014	Kantale	PS-530241	8.356129	81.007739	8.349617	81.009107	අග්‍රබෝධි මාවත, Kantale, Sri Lanka	0.739809		ත්රිකුණාමලය	කන්තලේ	MOH කාර්යාලය - කන්තලේ	திருகோணமலை	கந்தலே	MOH அலுவலகம் - கந்தலே	වැඩි දියුණු කිරීම මාවත, කන්තලේ, ශ්‍රී ලංකාව	தீவிரப்படுத்தி மாவத்த, கந்தலே, இலங்கை
Trincomalee	Ichchalampattu	MOH Office - Ichchalampattu	False	False	TRNCMLCHCHLMPTTMHFFCCHCHLMPTT	Eachchilampattu Hospital	Trincomalee	LK-53	8.551241	81.092014	Ichchalampattu		8.289549	81.359002	8.289644	81.358983	Highway, Ichchalampattu, Trincomalee, Sri Lanka	0.010772		ත්රිකුණාමලය	ඉච්චලම්පත්තු	එක්ර්චිලම්පත්තු රෝහල	திருகோணமலை	இச்சலம்பட்டு	ஒவ்வொருசிலம்பட்டு மருத்துவமனை	අධිවේගී මාර්ගය, ඉච්චලම්පත්තු, ත්‍රිකුණාමලය, ශ්‍රී ලංකාව	நெடுஞ்சாலை, ஈச்சலாம்பட்டு, திருகோணமலை, இலங்கை
Trincomalee	Thambalagamuwa	MOH Office - Thambalagamuwa	False	False	TRNCMLTHMBLGMWMHFFCTHMBLGMW		Trincomalee	LK-53	8.551241	81.092014	Thambalagamuva	PS-530243	6.907289	79.863819	8.563603	81.239584	Hospital Ln, Trincomalee, Sri Lanka	238.604889	#CenterFarFromPolice	ත්රිකුණාමලය	තඹලගමුව	MOH කාර්යාලය - තඹලගමුව	திருகோணமலை	தம்பலகாமுவா	MOH அலுவலகம் - தம்பலகமுவ	රෝහල, ත්‍රිකුණාමලය, ශ්‍රී ලංකාව	மருத்துவமனை Ln, திருகோணமலை, இலங்கை
Batticaloa	Batticaloa	MOH Office – Batticaloa	False	False	BTTCLBTTCLMHFFCBTTCL		Batticaloa	LK-51	7.792772	81.486513	Batticaloa	PS-510101	7.717949	81.699294	7.708253	81.691368	Hospital Rd, Batticaloa, Sri Lanka	1.387934		මඩකලපුව	මඩකලපුව	MOH කාර්යාලය - මඩකලපුව	மட்டக்களப்பு	மட்டக்களப்பு	MOH அலுவலகம் - மட்டக்களப்பு	රෝහල පාර, මඩකලපුව, ශ්‍රී ලංකාව	மருத்துவமனை சாலை, மட்டக்களப்பு, இலங்கை
Batticaloa	Valachchenai	Valachchenai Base Hospital	False	False	BTTCLVLCHCHNVLCHCHNBSHSPTL		Batticaloa	LK-51	7.792772	81.486513	Valachchanai	PS-510107	7.908015	81.533004	7.911315	81.533046	Valaichchenai-Nasuvantivu-Navaladi Road, Sri Lanka	0.367088		මඩකලපුව	වාලච්චේන	වාලච්චේන මූලික රෝහල	மட்டக்களப்பு	வாலாச்சேனை	வாலாச்சேனை ஆதார மருத்துவமனை	වාලච්චේනයි-නසුවන්ටිව්-නවාලාඩි පාර, ශ්‍රී ලංකාව	வாழைச்சேனை-நசுவந்திவு-நாவலடி சாலை, இலங்கை
Batticaloa	Valachchenai	MOH Office – Nawaladi	False	False	BTTCLVLCHCHNMHFFCNWLD	Primary Medical Care Unit, Navalady	Batticaloa	LK-51	7.792772	81.486513	Valachchanai	PS-510107	7.908015	81.533004	7.735244	81.709126	PPP5+3MR, Kallady, Sri Lanka	27.312365	#CenterFarFromPolice	මඩකලපුව	වාලච්චේන	ප්‍රාථමික වෛද්‍ය සේවා ඒකකය, නාවලඩි	மட்டக்களப்பு	வாலாச்சேனை	ஆரம்ப மருத்துவ பராமரிப்பு பிரிவு, நாவலடி	පීපීපී 5+3 එම්ආර්, කල්ලඩි, ශ්‍රී ලංකාව	PPP5+3MR, கல்லடி, இலங்கை
Batticaloa	Valachchenai	Semmanodai Al Hamra Vidyalaya	False	False	BTTCLVLCHCHNSMMNDLHMRVDYLY		Batticaloa	LK-51	7.792772	81.486513	Valachchanai	PS-510107	7.908015	81.533004	7.654088	81.739037	MP3Q+JJM, Sri Lanka	36.239484	#CenterFarFromPolice	මඩකලපුව	වාලච්චේන	සෙම්මනෝදායි අල් හම්රා විද්‍යාලය	மட்டக்களப்பு	வாலாச்சேனை	செம்மனோடை அல் ஹம்ரா வித்யாலயா	MP3Q+JJM, ශ්‍රී ලංකාව	MP3Q+JJM, இலங்கை
Batticaloa	Valachchenai	MOH Office – Valachchenai	False	False	BTTCLVLCHCHNMHFFCVLCHCHN		Batticaloa	LK-51	7.792772	81.486513	Valachchanai	PS-510107	7.908015	81.533004	7.912281	81.532775	WG6M+W46, Batticaloa, Sri Lanka	0.475177		මඩකලපුව	වාලච්චේන	MOH කාර්යාලය - වාලච්චේන	மட்டக்களப்பு	வாலாச்சேனை	MOH அலுவலகம் - வாலாச்சேனை	WG6M+W46, මඩකලපුව, ශ්‍රී ලංකාව	WG6M+W46, மட்டக்களப்பு, இலங்கை
Batticaloa	Vakarai	MOH Office - Vakarai	False	False	BTTCLVKRMHFFCVKR	Divisional Hospital Vakarai	Batticaloa	LK-51	7.792772	81.486513	Wakarai	PS-510109	6.934132	79.856305	8.134552	81.435328	Trincomalee Hwy, Vakarai, Sri Lanka	219.417822	#CenterFarFromPolice	මඩකලපුව	වාකරේ	වාකරේ ප්‍රාදේශීය රෝහල	மட்டக்களப்பு	வாகரை	வாகரை பிரதேச மருத்துவமனை	ත්‍රිකුණාමලය හ්වි, වාකරේ, ශ්‍රී ලංකාව	திருகோணமலை Hwy, வாகரை, இலங்கை
Batticaloa	Vavunathivu	MOH Office – Vavunathivu	False	False	BTTCLVVNTHVMHFFCVVNTHV		Batticaloa	LK-51	7.792772	81.486513	Vavunathive	PS-510102	6.933075	79.857181	7.708253	81.691368	Hospital Rd, Batticaloa, Sri Lanka	219.95575	#CenterFarFromPolice	මඩකලපුව	වවුනතිව්	MOH කාර්යාලය - වවුනතිව්	மட்டக்களப்பு	வவுணதீவு	MOH அலுவலகம் - வவுணதீவு	රෝහල පාර, මඩකලපුව, ශ්‍රී ලංකාව	மருத்துவமனை சாலை, மட்டக்களப்பு, இலங்கை
Batticaloa	Vellawali	MOH Office – Vellawali	False	False	BTTCLVLLWLMHFFCVLLWL		Batticaloa	LK-51	7.792772	81.486513	Vellavali	PS-510111	6.907289	79.863819	7.290886	80.643784	No. 20000, 163 Sangaraja Mawatha, Kandy 20000, Sri Lanka	96.083396	#CenterFarFromPolice	මඩකලපුව	වෙල්ලවාලි	MOH කාර්යාලය - වෙල්ලවාලි	மட்டக்களப்பு	வெல்லவாலி	MOH அலுவலகம் - வெள்ளாவலி	අංක 20000, 163 සංඝරාජ මාවත, මහනුවර 20000, ශ්‍රී ලංකාව	எண் 20000, 163 சங்கராஜா மாவத்தை, கண்டி 20000, இலங்கை
Batticaloa	Kaluwanchikudy	Periyakallar Maha Vidyalaya	False	False	BTTCLKLWNCHKDYPRYKLLRMHVDYLY		Batticaloa	LK-51	7.792772	81.486513	Kalawanchikudy	PS-510110	7.515908	81.787051	7.579554	81.784113	Kaluwanchikudy, Sri Lanka	7.086743		මඩකලපුව	කළුවන්චිකුඩි	පෙරියකල්ලර් මහා විද්‍යාලය	மட்டக்களப்பு	களுவாஞ்சிக்குடி	பெரியகல்லார் மகா வித்தியாலயம்	කලුවන්චිකුඩි, ශ්‍රී ලංකාව	களுவாஞ்சிக்குடி, இலங்கை
Batticaloa	Kaluwanchikudy	Base Hospital - Kaluwanchikudy	False	False	BTTCLKLWNCHKDYBSHSPTLKLWNCHKDY		Batticaloa	LK-51	7.792772	81.486513	Kalawanchikudy	PS-510110	7.515908	81.787051	7.51724	81.785184	GQ8P+V3V, Kaluwanchikudy, Sri Lanka	0.25365		මඩකලපුව	කළුවන්චිකුඩි	මූලික රෝහල - කළුවන්චිකුඩි	மட்டக்களப்பு	களுவாஞ்சிக்குடி	அடிப்படை மருத்துவமனை - களுவாஞ்சிக்குடி	GQ8P+V3V, කළුවාංචිකුඩි, ශ්‍රී ලංකාව	GQ8P+V3V, களுவாஞ்சிக்குடி, இலங்கை
Batticaloa	Kattankudy	MOH Office – Arayampathy	False	False	BTTCLKTTNKDYMHFFCRYMPTHY		Batticaloa	LK-51	7.792772	81.486513	Kaththankudi	PS-510103	7.715979	81.698757	7.672862	81.735019	MPFP+42R, Sri Lanka	6.243191		මඩකලපුව	කාත්තන්කුඩි	MOH කාර්යාලය - අරයම්පති	மட்டக்களப்பு	காத்தான்குடி	MOH அலுவலகம் - ஆரையம்பதி	එම්පීඑෆ්පී+42 ආර්, ශ්‍රී ලංකාව	MPFP+42R, இலங்கை
Batticaloa	Eravur	Sandiveli Hospital	False	False	BTTCLRVRSNDVLHSPTL		Batticaloa	LK-51	7.792772	81.486513	Eravur	PS-510104	7.715979	81.698757	7.777289	81.602853	Trincomalee Hwy, Eravur, Sri Lanka	12.578998		මඩකලපුව	එරාවුර්	සඳිවේලි රෝහල	மட்டக்களப்பு	ஏறாவூர்	சண்டிவேலி மருத்துவமனை	ත්‍රිකුණාමලය හ්වි, එරාවුර්, ශ්‍රී ලංකාව	திருகோணமலை Hwy, ஏறாவூர், இலங்கை
Batticaloa	Eravur	MOH Office - Eravur	False	False	BTTCLRVRMHFFCRVR		Batticaloa	LK-51	7.792772	81.486513	Eravur	PS-510104	7.715979	81.698757	7.783664	81.605626	QJM4+F76, Eravur, Sri Lanka	12.729342		මඩකලපුව	එරාවුර්	MOH කාර්යාලය - එරාවුර්	மட்டக்களப்பு	ஏறாவூர்	MOH அலுவலகம் - ஏறாவூர்	QJM4+F76, එරාවුර්, ශ්‍රී ලංකාව	QJM4+F76, ஏறாவூர், இலங்கை
Batticaloa	Eravur	MOH Office - Chenkaladi	False	False	BTTCLRVRMHFFCCHNKLD		Batticaloa	LK-51	7.792772	81.486513	Eravur	PS-510104	7.715979	81.698757	7.783599	81.593367	Trincomalee Hwy, Chenkaladi 30350, Sri Lanka	13.837876		මඩකලපුව	එරාවුර්	MOH කාර්යාලය - චෙන්කලාඩි	மட்டக்களப்பு	ஏறாவூர்	MOH அலுவலகம் - செங்கலடி	ත්‍රිකුණාමලය හ්වි, චෙන්කලාඩි 30350, ශ්‍රී ලංකාව	திருகோணமலை Hwy, செங்கலடி 30350, இலங்கை
Batticaloa	Eravur	Eravur Hospital	False	False	BTTCLRVRRVRHSPTL		Batticaloa	LK-51	7.792772	81.486513	Eravur	PS-510104	7.715979	81.698757	7.783168	81.605999	QJM4+799, Eravur 30300, Sri Lanka	12.663585		මඩකලපුව	එරාවුර්	එරාවුර් රෝහල	மட்டக்களப்பு	ஏறாவூர்	ஏறாவூர் மருத்துவமனை	QJM4+799, එරාවුර් 30300, ශ්‍රී ලංකාව	QJM4+799, ஏறாவூர் 30300, இலங்கை
Batticaloa	Eravur	Mawadiwembuwa Hospital	False	False	BTTCLRVRMWDWMBWHSPTL		Batticaloa	LK-51	7.792772	81.486513	Eravur	PS-510104	7.715979	81.698757	7.708032	81.690622	Hospital Ln, Batticaloa 30000, Sri Lanka	1.259116		මඩකලපුව	එරාවුර්	මාවඩිවැඹුව රෝහල	மட்டக்களப்பு	ஏறாவூர்	மாவடிவெம்புவ மருத்துவமனை	රෝහල, මඩකලපුව 30000, ශ්‍රී ලංකාව	மருத்துவமனை Ln, மட்டக்களப்பு 30000, இலங்கை
Ampara	Chavalakade	MOH Office - Navidanveli	False	False	MPRCHVLKDMHFFCNVDNVL		Ampara	LK-52	7.23699	81.550391	Chawalakade	PS-520125	7.413559	81.776822	7.420081	81.788401	B77, Sri Lanka	1.468805		අම්පාර	චවලකඩේ	MOH කාර්යාලය - නාවිදන්වේලි	அம்பாறை	சவளகடே	MOH அலுவலகம் - நாவிதன்வெளி	බී 77, ශ්‍රී ලංකාව	பி 77, இலங்கை
Ampara	Chavalakade	5th Colony Health Centre	False	False	MPRCHVLKDTHCLNYHLTHCNTR		Ampara	LK-52	7.23699	81.550391	Chawalakade	PS-520125	7.413559	81.776822	7.418836	81.781436	Chavalakade, Sri Lanka	0.776867		අම්පාර	චවලකඩේ	5 වන ජනපද සෞඛ්‍ය මධ්‍යස්ථානය	அம்பாறை	சவளகடே	5 வது காலனி சுகாதார மையம்	චවලකඩේ, ශ්‍රී ලංකාව	சவளகடே, இலங்கை
Ampara	Karaitivu	MOH Office – Karaitivu	False	False	MPRKRTVMHFFCKRTV		Ampara	LK-52	7.23699	81.550391	Karaitivu		9.744059	79.870587	7.377712	81.838796	Colombo-Ratnapura-Wellawaya-Batticaloa Highway, Karativu 32250, Sri Lanka	340.788666	#CenterFarFromPolice	අම්පාර	කාරතිව්	MOH කාර්යාලය - කරෙයිතිව්	அம்பாறை	காரைதீவு	MOH அலுவலகம் - காரைதீவு	කොළඹ-රත්නපුර-වැල්ලවාය-මඩකලපුව අධිවේගී මාර්ගය, කරතිවු 32250, ශ්‍රී ලංකාව	கொழும்பு-இரத்தினபுரி-வெள்ளவாயா-மட்டக்களப்பு நெடுஞ்சாலை, காரடிவு 32250, இலங்கை
Ampara	Kalmunai	Ashraff Memorial Hospital	False	False	MPRKLMNSHRFFMMRLHSPTL		Ampara	LK-52	7.23699	81.550391	Kalmunai	PS-520123	7.414289	81.825006	7.403172	81.831146	A4, Ashraff Memorial Base Hospital, A4 A4, Kalmunai 32300, Sri Lanka	1.409859		අම්පාර	කල්මුණේ	අෂ්රොෆ් අනුස්මරණ රෝහල	அம்பாறை	கல்முனை	அஷ்ரஃப் நினைவு மருத்துவமனை	ඒ 4, අෂ්රොෆ් අනුස්මරණ මූලික රෝහල, ඒ 4 ඒ 4, කල්මුණේ 32300, ශ්‍රී ලංකාව	A4, அஷ்ரஃப் மெமோரியல் பேஸ் ஹாஸ்பிடல், A4 A4, கல்முனை 32300, இலங்கை
Ampara	Kalmunai	MOH Office - Kalmunai North	False	False	MPRKLMNMHFFCKLMNNRTH		Ampara	LK-52	7.23699	81.550391	Kalmunai	PS-520123	7.414289	81.825006	7.411712	81.838462	CR6Q+M9P, Kalmunai 32300, Sri Lanka	1.511625		අම්පාර	කල්මුණේ	MOH කාර්යාලය - කල්මුණේ උතුර	அம்பாறை	கல்முனை	MOH அலுவலகம் - கல்முனை வடக்கு	CR6Q+M9P, කල්මුණේ 32300, ශ්‍රී ලංකාව	CR6Q+M9P, கல்முனை 32300, இலங்கை
Ampara	Kalmunai	MOH Office - Kalmunai South	False	False	MPRKLMNMHFFCKLMNSTH		Ampara	LK-52	7.23699	81.550391	Kalmunai	PS-520123	7.414289	81.825006	7.411712	81.838462	CR6Q+M9P, Kalmunai 32300, Sri Lanka	1.511625		අම්පාර	කල්මුණේ	MOH කාර්යාලය - කල්මුණේ දකුණ	அம்பாறை	கல்முனை	MOH அலுவலகம் - கல்முனை தெற்கு	CR6Q+M9P, කල්මුණේ 32300, ශ්‍රී ලංකාව	CR6Q+M9P, கல்முனை 32300, இலங்கை
Ampara	Kalmunai	Base Hospital - Kalmunai North	False	False	MPRKLMNBSHSPTLKLMNNRTH		Ampara	LK-52	7.23699	81.550391	Kalmunai	PS-520123	7.414289	81.825006	7.420034	81.82232	hospital near, Kalmunai 32300, Sri Lanka	0.704353		අම්පාර	කල්මුණේ	මූලික රෝහල - කල්මුණේ උතුර	அம்பாறை	கல்முனை	அடிப்படை மருத்துவமனை - கல்முனை வடக்கு	රෝහල අසල, කල්මුණේ 32300, ශ්‍රී ලංකාව	மருத்துவமனை அருகில், கல்முனை 32300, இலங்கை
Ampara	Sainthamarthu	MOH Office – Sainthamarthu	False	False	MPRSNTHMRTHMHFFCSNTHMRTH		Ampara	LK-52	7.23699	81.550391									#PoliceLocationUnknown	අම්පාර	සයින්දමර්තු	MOH කාර්යාලය - සයින්දමර්තු	அம்பாறை	சாய்ந்தமருது	MOH அலுவலகம் - சாய்ந்தமருது		
Ampara	Sainthamarthu	Saindamarudu Hospital	False	False	MPRSNTHMRTHSNDMRDHSPTL		Ampara	LK-52	7.23699	81.550391									#PoliceLocationUnknown	අම්පාර	සයින්දමර්තු	සයින්දමරුදු රෝහල	அம்பாறை	சாய்ந்தமருது	சைந்தமருது மருத்துவமனை		
Ampara	Sammanthurai	Sammanthurai Base Hospital	False	False	MPRSMMNTHRSMMNTHRBSHSPTL		Ampara	LK-52	7.23699	81.550391	Samanthurai	PS-520124	7.365785	81.810859	7.368355	81.813042	9R96+MWM, Hospital Rd, Sammanthurai, Sri Lanka	0.373773		අම්පාර	සමන්තුරේ	සමන්තුරේ මූලික රෝහල	அம்பாறை	சம்மாந்துறை	சம்மாந்துறை அடிப்படை மருத்துவமனை	9R96+MWM, රෝහල් පාර, සමන්තුරේ, ශ්‍රී ලංකාව	9R96+MWM, மருத்துவமனை சாலை, சம்மாந்துறை, இலங்கை
Ampara	Sammanthurai	MOH Office – Nintavur	False	False	MPRSMMNTHRMHFFCNNTVR		Ampara	LK-52	7.23699	81.550391	Samanthurai	PS-520124	7.365785	81.810859	7.352821	81.856939	Hospital Rd, Nintavur 32340, Sri Lanka	5.283925		අම්පාර	සමන්තුරේ	එම්ඕඑච් කාර්යාලය - නින්දවූර්	அம்பாறை	சம்மாந்துறை	MOH அலுவலகம் - நிந்தவூர்	රෝහල පාර, නින්දවූර් 32340, ශ්‍රී ලංකාව	மருத்துவமனை Rd, நிந்தவூர் 32340, இலங்கை
Ampara	Sammanthurai	MOH Office - Sammanthurai	False	False	MPRSMMNTHRMHFFCSMMNTHR		Ampara	LK-52	7.23699	81.550391	Samanthurai	PS-520124	7.365785	81.810859	7.369857	81.812264	9R96+WWR, Sammanthurai, Sri Lanka	0.478712		අම්පාර	සමන්තුරේ	MOH කාර්යාලය - සම්මන්තුරේ	அம்பாறை	சம்மாந்துறை	MOH அலுவலகம் - சம்மாந்துறை	9R96+ඩබ්ලිව්ඩබ්ලිව්ආර්, සම්මන්තුරේ, ශ්‍රී ලංකාව	9R96+WWR, சம்மாந்துறை, இலங்கை
Ampara	Sammanthurai	Nintavur Hospital	False	False	MPRSMMNTHRNNTVRHSPTL		Ampara	LK-52	7.23699	81.550391	Samanthurai	PS-520124	7.365785	81.810859	7.353372	81.856852	Hospital Rd, Nintavur, Sri Lanka	5.258159		අම්පාර	සමන්තුරේ	නින්දවූර් රෝහල	அம்பாறை	சம்மாந்துறை	நிந்தவூர் மருத்துவமனை	රෝහල පාර, නින්දවූර්, ශ්‍රී ලංකාව	மருத்துவமனை Rd, நிந்தவூர், இலங்கை
Ampara	Sammanthurai	Darususalam Maha Vidyalaya	False	False	MPRSMMNTHRDRSSLMMHVDYLY		Ampara	LK-52	7.23699	81.550391	Samanthurai	PS-520124	7.365785	81.810859	7.370617	81.808855	AB33, Sammanthurai 32200, Sri Lanka	0.58115		අම්පාර	සමන්තුරේ	දරුසුසලම් මහා විද්‍යාලය	அம்பாறை	சம்மாந்துறை	தருசுசாலம் மகா வித்தியாலயம்	ඒබී 33, සම්මන්තුරේ 32200, ශ්‍රී ලංකාව	ஏபி 33, சம்மாந்துறை 32200, இலங்கை
Ampara	Sammanthurai	Kannahi Vidyalaya	False	False	MPRSMMNTHRKNNHVDYLY		Ampara	LK-52	7.23699	81.550391	Samanthurai	PS-520124	7.365785	81.810859	7.35018	81.80359	Kallarichchel 02, Sammanthurai, Sri Lanka	1.912014		අම්පාර	සමන්තුරේ	කන්නහි විද්‍යාලය	அம்பாறை	சம்மாந்துறை	கண்ணாஹி வித்யாலயா	කල්ලරිචෙල් 02, සම්මන්තුරේ, ශ්‍රී ලංකාව	கல்லறிச்செல் 02, சம்மாந்துறை, இலங்கை
Ampara	Thirukkovil	MOH Office – Thirukkovil	False	False	MPRTHRKKVLMHFFCTHRKKVL		Ampara	LK-52	7.23699	81.550391	Thirukkovil	PS-520127	7.113998	81.852219	7.111635	81.852892	Central Rd, Vinayagapuram, Sri Lanka	0.273131		අම්පාර	තිරුක්කෝවිල්	MOH කාර්යාලය - තිරුක්කෝවිල්	அம்பாறை	திருக்கோவில்	MOH அலுவலகம் - திருக்கோவில்	මධ්‍යම පාර, විනයාගපුරම්, ශ්‍රී ලංකාව	மத்திய வீதி, விநாயகபுரம், இலங்கை
Ampara	Akkaraipattu	MOH Office – Addalachenai	False	False	MPRKKRPTTMHFFCDDLCHN		Ampara	LK-52	7.23699	81.550391	Akkaraipattu	PS-520126	7.216084	81.853254	7.260916	81.853493	7V63+999, Addalaichenai, Sri Lanka	4.986726		අම්පාර	අක්කරපත්තුව	MOH කාර්යාලය - අද්දලචේනයි	அம்பாறை	அக்கரைப்பற்று	MOH அலுவலகம் - ஆடலச்சேனை	7V63+999, අද්දලෙයිචේනෙයි, ශ්‍රී ලංකාව	7V63+999, அடிலைச்சேனை, இலங்கை
Ampara	Akkaraipattu	MOH Office - Akkaraipattu	False	False	MPRKKRPTTMHFFCKKRPTT		Ampara	LK-52	7.23699	81.550391	Akkaraipattu	PS-520126	7.216084	81.853254	7.228134	81.851123	6VH2+7C5, Akkaraipattu, Sri Lanka	1.360772		අම්පාර	අක්කරපත්තුව	MOH කාර්යාලය - අක්කරපත්තුව	அம்பாறை	அக்கரைப்பற்று	MOH அலுவலகம் - அக்கரைப்பற்று	6VH2+7C5, අක්කරපත්තුව, ශ්‍රී ලංකාව	6VH2+7C5, அக்கரைப்பற்று, இலங்கை
Ampara	Akkaraipattu	MOH Office - Alayadivembu	False	False	MPRKKRPTTMHFFCLYDVMB		Ampara	LK-52	7.23699	81.550391	Akkaraipattu	PS-520126	7.216084	81.853254	7.228134	81.851123	6VH2+7C5, Akkaraipattu, Sri Lanka	1.360772		අම්පාර	අක්කරපත්තුව	එම්ඕඑච් කාර්යාලය - අලයාදිවෙම්බු	அம்பாறை	அக்கரைப்பற்று	MOH அலுவலகம் - ஆலையடிவேம்பு	6VH2+7C5, අක්කරපත්තුව, ශ්‍රී ලංකාව	6VH2+7C5, அக்கரைப்பற்று, இலங்கை
Ampara	Pottuvil	MOH Office - Pottuvil	False	False	MPRPTTVLMHFFCPTTVL		Ampara	LK-52	7.23699	81.550391	Pothuvil	PS-520128	6.878387	81.826859	6.877076	81.828969	B374, Pottuvil, Sri Lanka	0.274874		අම්පාර	පොතුවිල්	එම්ඕඑච් කාර්යාලය - පොතුවිල්	அம்பாறை	பொட்டுவில்	MOH அலுவலகம் - பொத்துவில்	බී 374, පොතුවිල්, ශ්‍රී ලංකාව	B374, பொத்துவில், இலங்கை
Ampara	Ampara	Ampara Hospital	False	False	MPRMPRMPRHSPTL		Ampara	LK-52	7.23699	81.550391	Ampara	PS-520113	7.296771	81.677161	7.298334	81.690841	Dharmapala Mawatha, Ampara, Sri Lanka	1.519279		අම්පාර	අම්පාර	අම්පාර රෝහල	அம்பாறை	அம்பாறை	அம்பாறை மருத்துவமனை	ධර්මපාල මාවත, අම්පාර, ශ්‍රී ලංකාව	தர்மபால மாவத்தை, அம்பாறை, இலங்கை
