district	police	center	dose1	dose2	fuzzy_key	alt_name	district_name_norm	district_id	district_lat	district_lng	ps_name_norm	ps_id	ps_lat	ps_lng	lat	lng	formatted_address	dis_center_to_police	tags	district_si	police_si	center_si	district_ta	police_ta	center_ta	formatted_address_si	formatted_address_ta
Colombo	Thalangama	Diyatha Uyana	False	False	CLMBTHLNGMDYTHYN		Colombo	LK-11	6.869636	80.019598	Thalangama	PS-110466	6.91089	79.929325	6.904575	79.909831	Diyatha Uyana, B240, Sri Jayawardenepura Kotte, Sri Lanka	2.264281		කොළඹ	තලංගම	දියත උයන	கொழும்பு	தலங்கம	தியாத உயனா	දියත උයන, බී 240, ශ්‍රී ජයවර්ධනපුර කෝට්ටේ, ශ්‍රී ලංකාව	தியாத உயனா, B240, ஸ்ரீ ஜெயவர்தனபுர கோட்டே, இலங்கை
Colombo	Thalangama	MOH Office - Battaramulla	False	False	CLMBTHLNGMMHFFCBTTRMLL		Colombo	LK-11	6.869636	80.019598	Thalangama	PS-110466	6.91089	79.929325	6.901538	79.919128	WW29+JM6, Battaramulla 10120, Sri Lanka	1.532936		කොළඹ	තලංගම	MOH කාර්යාලය - බත්තරමුල්ල	கொழும்பு	தலங்கம	MOH அலுவலகம் - பத்தரமுல்ல	WW29+JM6, බත්තරමුල්ල 10120, ශ්‍රී ලංකාව	WW29+JM6, பத்தரமுல்ல 10120, இலங்கை
Colombo	Narahenpita	Army Hospital - Narahenpita	False	False	CLMBNRHNPTRMYHSPTLNRHNPT		Colombo	LK-11	6.869636	80.019598	Narahenpita	PS-110321	6.891832	79.876715	6.900252	79.87618	08 Elvitigala Mawatha, Colombo 00800, Sri Lanka	0.938417		කොළඹ	නාරාහේන්පිට	යුද හමුදා රෝහල - නාරාහේන්පිට	கொழும்பு	நரஹேன்பிட்ட	இராணுவ மருத்துவமனை - நாரஹேன்பிட்ட	08 ඇල්විටිගල මාවත, කොළඹ 00800, ශ්‍රී ලංකාව	08 எல்விட்டிகல மாவத்தை, கொழும்பு 00800, இலங்கை
Colombo	Narahenpita	MOH Office - Narahenpita	False	False	CLMBNRHNPTMHFFCNRHNPT		Colombo	LK-11	6.869636	80.019598	Narahenpita	PS-110321	6.891832	79.876715	6.891268	79.878754	75 Narahenpita Rd, Colombo 00500, Sri Lanka	0.233735		කොළඹ	නාරාහේන්පිට	MOH කාර්යාලය - නාරාහේන්පිට	கொழும்பு	நரஹேன்பிட்ட	MOH அலுவலகம் - நாரஹேன்பிட்ட	75 නාරාහේන්පිට පාර, කොළඹ 00500, ශ්‍රී ලංකාව	75 நாரஹேன்பிட்ட சாலை, கொழும்பு 00500, இலங்கை
Colombo	Homagama	Panagoda Bodhirajarama Viharaya	False	False	CLMBHMGMPNGDBDHRJRMVHRY		Colombo	LK-11	6.869636	80.019598	Homagama	PS-110470	6.836155	80.003474	6.929161	79.88265	Gnanawimala Rd, Colombo, Sri Lanka	16.883101		කොළඹ	හෝමාගම	පනාගොඩ බෝධිරාජාරාම විහාරය	கொழும்பு	ஹோமாகம	பனகொட போதிராஜாராம விஹாராயா	ඥානවිමල පාර, කොළඹ, ශ්‍රී ලංකාව	ஞானவிமல வீதி, கொழும்பு, இலங்கை
Colombo	Borella	St. Luke's Church - Borella	False	False	CLMBBRLLSTLKSCHRCHBRLL		Colombo	LK-11	6.869636	80.019598	Borella	PS-110323	6.915266	79.87829	6.918035	79.874548	1091 Gnanartha Pradeepa Mawatha, Colombo 00800, Sri Lanka	0.515354		කොළඹ	බොරැල්ල	ශාන්ත ලූක් දේවස්ථානය - බොරැල්ල	கொழும்பு	பொரெல்லா	செயின்ட் லூக்கா தேவாலயம் - பொரெல்லா	1091 ඥානාර්ථ ප්‍රදීපා මාවත, කොළඹ 00800, ශ්‍රී ලංකාව	1091 ஞானார்த்த பிரதீப மாவத்தை, கொழும்பு 00800, இலங்கை
Colombo	Mirihana	MOH Office - Beddagana	False	False	CLMBMRHNMHFFCBDDGN		Colombo	LK-11	6.869636	80.019598	Mirihana	PS-110462	6.873714	79.901724	6.885731	79.908328	Baddagana Rd, Sri Jayawardenepura Kotte 10100, Sri Lanka	1.522652		කොළඹ	මිරිහාන	MOH කාර්යාලය - බැද්දගාන	கொழும்பு	மிரிஹானா	MOH அலுவலகம் - பெத்தகனா	බද්දගාන පාර, ශ්‍රී ජයවර්ධනපුර කෝට්ටේ 10100, ශ්‍රී ලංකාව	பதகனா சாலை, ஸ்ரீ ஜெயவர்தனபுரா கோட்டே 10100, இலங்கை
Colombo	Maharagama	Erewwala Rathmaldeniya Viharaya	False	False	CLMBMHRGMRWWLRTHMLDNYVHRY		Colombo	LK-11	6.869636	80.019598	Maharagama	PS-110463	6.845422	79.928928	6.836832	79.949619	Rathmaldeniya Rd, Pannipitiya 10230, Sri Lanka	2.476784		කොළඹ	මහරගම	එරුවාවල රත්මල්දෙණිය විහාරය	கொழும்பு	மஹரகம	எரூவல ரத்மல்தெனிய விஹாராயா	රත්මල්දෙනිය පාර, පන්නිපිටිය 10230, ශ්‍රී ලංකාව	இரத்மல்தெனிய வீதி, பன்னிப்பிட்டிய 10230, இலங்கை
Colombo	Boralesgamuwa	Kotelawala Defence Hospital	False	False	CLMBBRLSGMWKTLWLDFNCHSPTL		Colombo	LK-11	6.869636	80.019598	Boralesgamuwa	PS-110464	6.841331	79.901255	6.82518	79.907167	RWG4+3VF, Boralesgamuwa, Sri Lanka	1.911444		කොළඹ	බොරලැස්ගමුව	කොතලාවල ආරක්‍ෂක රෝහල	கொழும்பு	பொரலஸ்கமுவா	கொத்தலாவல பாதுகாப்பு மருத்துவமனை	RWG4+3VF, බොරලැස්ගමුව, ශ්‍රී ලංකාව	RWG4+3VF, பொரலஸ்கமுவா, இலங்கை
Colombo	Dehiwala	MOH Office - Dehiwala	False	False	CLMBDHWLMHFFCDHWL		Colombo	LK-11	6.869636	80.019598	Dehiwala	PS-110580	6.850088	79.871696	6.861346	79.865943	VV68+G9P, Dehiwala-Mount Lavinia, Sri Lanka	1.404177		කොළඹ	දෙහිවල	MOH කාර්යාලය - දෙහිවල	கொழும்பு	தெஹிவளை	MOH அலுவலகம் - தெஹிவளை	VV68+G9P, දෙහිවල-ගල්කිස්ස, ශ්‍රී ලංකාව	VV68+G9P, தெஹிவளை-கல்கிசை, இலங்கை
Colombo	Grandpass	Fouzi Maternity Clinic	False	False	CLMBGRNDPSSFZMTRNTYCLNC		Colombo	LK-11	6.869636	80.019598	Grandpass	PS-110215	6.949052	79.872983	6.967647	79.870269	Hubert Pl, Colombo, Sri Lanka	2.089913		කොළඹ	ග්‍රෑන්ඩ්පාස්	ෆවුසි මාතෘ සායනය	கொழும்பு	கிராண்ட்பாஸ்	ஃபouஸி மகப்பேறு மருத்துவமனை	හියුබර්ට් පීඑල්, ​​කොළඹ, ශ්‍රී ලංකාව	ஹூபர்ட் பிஎல், கொழும்பு, இலங்கை
Colombo	Foreshore	MOH Office - Jinthupitiya	False	False	CLMBFRSHRMHFFCJNTHPTY		Colombo	LK-11	6.869636	80.019598	Fore shore	PS-110210	6.949589	79.857355	6.943258	79.859238	No.27 Vivekananda Hill, Colombo 01300, Sri Lanka	0.734247		කොළඹ	මුහුදු වෙරළ	MOH කාර්යාලය - ජින්තුපිටිය	கொழும்பு	கடற்கரை	MOH அலுவலகம் - ஜிந்துபிடியா	අංක 27 විවේකානන්ද කන්ද, කොළඹ 01300, ශ්‍රී ලංකාව	எண் .27 விவேகானந்த மலை, கொழும்பு 01300, இலங்கை
Colombo	Mulleriyawa	MOH Office - Gothatuwa	False	False	CLMBMLLRYWMHFFCGTHTW		Colombo	LK-11	6.869636	80.019598	Mulleriyawa	PS-110469	6.927187	79.929108	6.922088	79.916237	Mandavila Rd, Kotikawatta, Sri Lanka	1.530186		කොළඹ	මුල්ලේරියාව	MOH කාර්යාලය - ගොතටුව	கொழும்பு	முல்லேரியாவா	MOH அலுவலகம் - கோததுவா	මණ්ඩවිල පාර, කොටිකාවත්ත, ශ්‍රී ලංකාව	மண்டவில வீதி, கொட்டிகாவத்த, இலங்கை
Colombo	Wellampitiya	MOH Office - Kolonnawa	False	False	CLMBWLLMPTYMHFFCKLNNW		Colombo	LK-11	6.869636	80.019598	Wellampitiya	PS-110465	6.937514	79.896298	6.938303	79.889664	25 Pansalhena 1st Ln, 10600, Sri Lanka	0.737734		කොළඹ	වැල්ලම්පිටිය	MOH කාර්යාලය - කොළොන්නාව	கொழும்பு	வெல்லம்பிட்டிய	MOH அலுவலகம் - கொலன்னாவா	25 පන්සල්හේන 1 වන අංකය, 10600, ශ්‍රී ලංකාව	25 பன்சால்ஹேனா 1 வது எண், 10600, இலங்கை
Colombo	Kaduwela	MOH Office - Kaduwela	False	False	CLMBKDWLMHFFCKDWL		Colombo	LK-11	6.869636	80.019598	Kaduwela		6.936234	79.970183	6.934127	79.984398	B263, Kaduwela, Sri Lanka	1.586964		කොළඹ	කඩුවෙල	MOH කාර්යාලය - කඩුවෙල	கொழும்பு	கடுவெல	MOH அலுவலகம் - கடுவெல	බී 263, කඩුවෙල, ශ්‍රී ලංකාව	பி 263, கடுவெல, இலங்கை
Colombo	Maradana	National Hospital - Colombo	False	False	CLMBMRDNNTNLHSPTLCLMB		Colombo	LK-11	6.869636	80.019598	Maradana	PS-110107	6.927939	79.865471	6.918743	79.868992	Colombo 00700, Sri Lanka	1.094265		කොළඹ	මරදාන	ජාතික රෝහල - කොළඹ	கொழும்பு	மரதானா	தேசிய மருத்துவமனை - கொழும்பு	කොළඹ 00700, ශ්‍රී ලංකාව	கொழும்பு 00700, இலங்கை
Colombo	Kosgama	Kosgama Hospital	False	False	CLMBKSGMKSGMHSPTL		Colombo	LK-11	6.869636	80.019598	Kosgama	PS-920227	6.946597	80.137869	6.940956	80.124888	Salawa-Akarawita, 10730, Sri Lanka	1.564606		කොළඹ	කොස්ගම	කොස්ගම රෝහල	கொழும்பு	கொஸ்கம	கொஸ்கம மருத்துவமனை	සාලාව-අකරවිට, 10730, ශ්‍රී ලංකාව	சலாவா-அகரவிட, 10730, இலங்கை
Gampaha	Peliyagoda	Peliyagoda Nawaloka Viharaya	False	False	GMPHPLYGDPLYGDNWLKVHRY		Gampaha	LK-12	7.123598	80.018508	Peliyagoda	PS-120125	6.955193	79.88612	6.951431	79.91867	Kelaniya, Peliyagoda 11600, Sri Lanka	3.618181		ගම්පහ	පෑලියගොඩ	පෑලියගොඩ නවලෝක විහාරය	கம்பஹா	பேலியகொட	பேலியகொட நாவலோக விஹாராயா	කැලණිය, පෑලියගොඩ 11600, ශ්‍රී ලංකාව	களனியா, பேலியகொட 11600, இலங்கை
Gampaha	Biyagama	MOH Office - Biyagama	False	False	GMPHBYGMMHFFCBYGM		Gampaha	LK-12	7.123598	80.018508	Biyagama	PS-120131	6.962284	80.009037	6.946824	79.994052	Hospital Rd, Sri Lanka	2.386313		ගම්පහ	බියගම	MOH කාර්යාලය - බියගම	கம்பஹா	பியகம	MOH அலுவலகம் - பியாகம	රෝහල පාර, ශ්‍රී ලංකාව	மருத்துவமனை Rd, இலங்கை
Gampaha	Kadawata	Kirillawala Maha Vidyalaya	False	False	GMPHKDWTKRLLWLMHVDYLY		Gampaha	LK-12	7.123598	80.018508	Kadawatha	PS-120136	7.00152	79.95003	7.015981	79.969223	2X89+9MX, Eldeniya, Sri Lanka	2.660247		ගම්පහ	කඩවත	කිරිල්ලවල මහා විද්‍යාලය	கம்பஹா	கடவாடா	கிரில்லாவாலா மகா வித்தியாலயம்	2X89+9MX, ඇල්දෙනිය, ශ්‍රී ලංකාව	2X89+9MX, எல்டெனியா, இலங்கை
Gampaha	Weliweriya	Bodhiraja Vidyalaya	False	False	GMPHWLWRYBDHRJVDYLY		Gampaha	LK-12	7.123598	80.018508	Weliweriya	PS-120244	7.03451	80.026114	7.046121	80.010289	Piyarathana Mawatha, Weliweriya, Sri Lanka	2.172409		ගම්පහ	වැලිවේරිය	බෝධිරාජ විද්‍යාලය	கம்பஹா	வெலிவேரியா	போதிராஜா வித்யாலயா	පියරතන මාවත, වැලිවේරිය, ශ්‍රී ලංකාව	பியரத்தன மாவத்தை, வெலிவேரியா, இலங்கை
Gampaha	Nittambuwa	Kuruwamulla Primary School	False	False	GMPHNTTMBWKRWMLLPRMRYSCHL		Gampaha	LK-12	7.123598	80.018508	Nittambuwa	PS-120246	7.149726	80.10046	7.132516	80.106428	44M4+2H3, Nittambuwa, Sri Lanka	2.024416		ගම්පහ	නිට්ටඹුව	කුරුවමුල්ල ප්‍රාථමික විද්‍යාලය	கம்பஹா	நிட்டம்புவா	குருவமுல்லா தொடக்கப்பள்ளி	44 එම් 4+2 එච් 3, නිට්ටඹුව, ශ්‍රී ලංකාව	44M4+2H3, நிட்டம்புவா, இலங்கை
Gampaha	Nittambuwa	Nambuluwa Government Dispensary	False	False	GMPHNTTMBWNMBLWGVRNMNTDSPNSRY		Gampaha	LK-12	7.123598	80.018508	Nittambuwa	PS-120246	7.149726	80.10046	7.119722	80.070471	439C+V5Q, Kalagedihena, Sri Lanka	4.700308		ගම්පහ	නිට්ටඹුව	නම්බුළුව රජයේ බෙහෙත් ශාලාව	கம்பஹா	நிட்டம்புவா	நம்புலுவ அரசு மருந்தகம்	439 සී+වී 5Q, කලගෙඩිහේන, ශ්‍රී ලංකාව	439C+V5Q, கலகெடிஹேனா, இலங்கை
Gampaha	Nittambuwa	Mathalana Primary School	False	False	GMPHNTTMBWMTHLNPRMRYSCHL		Gampaha	LK-12	7.123598	80.018508	Nittambuwa	PS-120246	7.149726	80.10046	7.115656	80.099626	438X+7V6, Nittambuwa, Sri Lanka	3.790718		ගම්පහ	නිට්ටඹුව	මාතලාන ප්‍රාථමික විද්‍යාලය	கம்பஹா	நிட்டம்புவா	மத்தலானா ஆரம்பப் பள்ளி	438X+7V6, නිට්ටඹුව, ශ්‍රී ලංකාව	438X+7V6, நிட்டம்புவா, இலங்கை
Gampaha	Veyangoda	Maligathenna Government Dispensary	False	False	GMPHVYNGDMLGTHNNGVRNMNTDSPNSRY		Gampaha	LK-12	7.123598	80.018508	Weyangoda	PS-120247	7.144053	80.095511	7.09136	80.000709	A33, Gampaha, Sri Lanka	11.99323		ගම්පහ	වේයන්ගොඩ	මාලිගාතැන්න රජයේ බෙහෙත් ශාලාව	கம்பஹா	வேயங்கொட	மாளிகத்தென்ன அரசு மருந்தகம்	ඒ 33, ගම්පහ, ශ්‍රී ලංකාව	A33, கம்பஹா, இலங்கை
Gampaha	Minuwangoda	MOH Office - Minuwangoda	False	False	GMPHMNWNGDMHFFCMNWNGD		Gampaha	LK-12	7.123598	80.018508	Minuwangoda	PS-120238	7.174215	79.957874	7.17227	79.956823	Katunayake-Veyangoda Rd, Minuwangoda, Sri Lanka	0.245525		ගම්පහ	මිනුවන්ගොඩ	MOH කාර්යාලය - මිනුවන්ගොඩ	கம்பஹா	மினுவாங்கொட	MOH அலுவலகம் - மினுவாங்கொட	කටුනායක-වේයන්ගොඩ පාර, මිනුවන්ගොඩ, ශ්‍රී ලංකාව	கட்டுநாயக்க-வெயங்கொட வீதி, மினுவாங்கொட, இலங்கை
Gampaha	Minuwangoda	Katuwellegama Clinic	False	False	GMPHMNWNGDKTWLLGMCLNC		Gampaha	LK-12	7.123598	80.018508	Minuwangoda	PS-120238	7.174215	79.957874	7.172386	79.957553	Katunayake-Veyangoda Rd, Minuwangoda, Sri Lanka	0.206501		ගම්පහ	මිනුවන්ගොඩ	කටුවැල්ලේගම සායනය	கம்பஹா	மினுவாங்கொட	கட்டுவெல்லேகம கிளினிக்	කටුනායක-වේයන්ගොඩ පාර, මිනුවන්ගොඩ, ශ්‍රී ලංකාව	கட்டுநாயக்க-வெயங்கொட வீதி, மினுவாங்கொட, இலங்கை
Gampaha	Gampaha	MOH Office - Gampaha	False	False	GMPHGMPHMHFFCGMPH		Gampaha	LK-12	7.123598	80.018508	Gampaha	PS-120237	7.087765	80.01228	7.090643	80.002094	Colombo Rd, Gampaha, Sri Lanka	1.16901		ගම්පහ	ගම්පහ	MOH කාර්යාලය - ගම්පහ	கம்பஹா	கம்பஹா	MOH அலுவலகம் - கம்பஹா	කොළඹ පාර, ගම්පහ, ශ්‍රී ලංකාව	கொழும்பு வீதி, கம்பஹா, இலங்கை
Gampaha	Gampaha	Brandiyamulla Pirivena	False	False	GMPHGMPHBRNDYMLLPRVN		Gampaha	LK-12	7.123598	80.018508	Gampaha	PS-120237	7.087765	80.01228	7.080417	80.01216	Colombo Rd, Gampaha, Sri Lanka	0.817424		ගම්පහ	ගම්පහ	බ්‍රන්දියමුල්ල පිරිවෙන	கம்பஹா	கம்பஹா	பிராண்டியமுல்லா பிரிவேனா	කොළඹ පාර, ගම්පහ, ශ්‍රී ලංකාව	கொழும்பு வீதி, கம்பஹா, இலங்கை
Gampaha	Pugoda	MOH Office – Dompe	False	False	GMPHPGDMHFFCDMP		Gampaha	LK-12	7.123598	80.018508	Pugoda	PS-120241	6.98283	80.111189	6.976767	80.117422	Dompe, Pugoda-Mandawala Rd, Pugoda, Sri Lanka	0.963513		ගම්පහ	පූගොඩ	MOH කාර්යාලය - දොම්පේ	கம்பஹா	புகோடா	MOH அலுவலகம் - Dompe	දොම්පේ, පූගොඩ-මණ්ඩාවල පාර, පූගොඩ, ශ්‍රී ලංකාව	டோம்பே, புகோடா-மண்டவாலா சாலை, புகோடா, இலங்கை
Gampaha	Divulapitiya	MOH Office - Divulapitiya	False	False	GMPHDVLPTYMHFFCDVLPTY		Gampaha	LK-12	7.123598	80.018508	Diulapitiya	PS-120355	7.174215	79.957874	7.215486	80.013606	6287+5CX, Divulapitiya, Sri Lanka	7.67456		ගම්පහ	දිවුලපිටිය	එම්ඕඑච් කාර්යාලය - දිවුලපිටිය	கம்பஹா	திவுலபிட்டிய	MOH அலுவலகம் - திவுலபிட்டிய	6287+5CX, දිවුලපිටිය, ශ්‍රී ලංකාව	6287+5CX, திவுலபிட்டிய, இலங்கை
Gampaha	Divulapitiya	Dunagaha Central Dispensary	False	False	GMPHDVLPTYDNGHCNTRLDSPNSRY		Gampaha	LK-12	7.123598	80.018508	Diulapitiya	PS-120355	7.174215	79.957874	7.230314	80.016474	Divulapitiya, Sri Lanka	8.986298		ගම්පහ	දිවුලපිටිය	දුනාගහ මධ්‍යම බෙහෙත් ශාලාව	கம்பஹா	திவுலபிட்டிய	துனகா மத்திய மருந்தகம்	දිවුලපිටිය, ශ්‍රී ලංකාව	திவுலபிட்டிய, இலங்கை
Gampaha	Divulapitiya	Wekada Central Dispensary	False	False	GMPHDVLPTYWKDCNTRLDSPNSRY		Gampaha	LK-12	7.123598	80.018508	Diulapitiya	PS-120355	7.174215	79.957874	7.261385	79.958626	7X65+HF2, Akaragama, Sri Lanka	9.69626		ගම්පහ	දිවුලපිටිය	වෑකඩ මධ්‍යම බෙහෙත් ශාලාව	கம்பஹா	திவுலபிட்டிய	வெகாடா மத்திய மருந்தகம்	7X65+HF2, අකාරගම, ශ්‍රී ලංකාව	7X65+HF2, அகரகம, இலங்கை
Gampaha	Kotadeniyawa	Kotadeniyawa Central Dispensary	False	False	GMPHKTDNYWKTDNYWCNTRLDSPNSRY		Gampaha	LK-12	7.123598	80.018508	Kotadeniyawa	PS-120354	7.283643	80.06649	7.284487	80.063252	B322, Kotadeniyawa, Sri Lanka	0.369384		ගම්පහ	කොටදෙනියාව	කොටදෙනියාව මධ්‍යම බෙහෙත් ශාලාව	கம்பஹா	கோடதெனியாவா	கோடதெனியாவா மத்திய மருந்தகம்	B322, කොටදෙනියාව, ශ්‍රී ලංකාව	B322, கொட்டதெனியாவா, இலங்கை
Gampaha	Kotadeniyawa	Badalgama Central Dispensary	False	False	GMPHKTDNYWBDLGMCNTRLDSPNSRY		Gampaha	LK-12	7.123598	80.018508	Kotadeniyawa	PS-120354	7.283643	80.06649	7.284487	80.063252	B322, Kotadeniyawa, Sri Lanka	0.369384		ගම්පහ	කොටදෙනියාව	බඩල්ගම මධ්‍යම බෙහෙත් ශාලාව	கம்பஹா	கோடதெனியாவா	பதல்கம மத்திய மருந்தகம்	B322, කොටදෙනියාව, ශ්‍රී ලංකාව	B322, கொட்டதெனியாவா, இலங்கை
Gampaha	Katana	Halpe Maternity Clinic	False	False	GMPHKTNHLPMTRNTYCLNC		Gampaha	LK-12	7.123598	80.018508	Katana	PS-120360	7.224796	79.880015	7.25286	79.910353	7W36+44X, Gampaha, Sri Lanka	4.57717		ගම්පහ	කටාන	හල්පේ මාතෘ සායනය	கம்பஹா	கட்டானா	ஹால்பே மகப்பேறு மருத்துவமனை	7W36+44X, ගම්පහ, ශ්‍රී ලංකාව	7W36+44X, கம்பஹா, இலங்கை
Gampaha	Katana	MOH Office - Katana	False	False	GMPHKTNMHFFCKTN		Gampaha	LK-12	7.123598	80.018508	Katana	PS-120360	7.224796	79.880015	7.22436	79.88271	Katana, Negombo - Mirigama Rd, Negombo, Sri Lanka	0.301313		ගම්පහ	කටාන	MOH කාර්යාලය - කටාන	கம்பஹா	கட்டானா	MOH அலுவலகம் - கட்டானா	කටාන, මීගමුව - මීරිගම පාර, මීගමුව, ශ්‍රී ලංකාව	கட்டானா, நீர்கொழும்பு - மீரிகம வீதி, நீர்கொழும்பு, இலங்கை
Gampaha	Katana	Halpe Central Dispensary	False	False	GMPHKTNHLPCNTRLDSPNSRY		Gampaha	LK-12	7.123598	80.018508	Katana	PS-120360	7.224796	79.880015	7.131517	79.888893	4VJQ+JH2, Seeduwa, Sri Lanka	10.421565		ගම්පහ	කටාන	හල්පේ මධ්‍යම බෙහෙත් ශාලාව	கம்பஹா	கட்டானா	ஹல்பே மத்திய மருந்தகம்	4VJQ+JH2, සීදුව, ශ්‍රී ලංකාව	4VJQ+JH2, சீதுவா, இலங்கை
Gampaha	Negombo	Municipal Council – Negombo	False	False	GMPHNGMBMNCPLCNCLNGMB		Gampaha	LK-12	7.123598	80.018508	Negombo	PS-120351	7.224796	79.880015	7.20614	79.851928	Colombo Rd, Negombo, Sri Lanka	3.729901		ගම්පහ	මීගමුව	නගර සභාව - මීගමුව	கம்பஹா	நீர்கொழும்பு	மாநகர சபை - நீர்கொழும்பு	කොළඹ පාර, මීගමුව, ශ්‍රී ලංකාව	கொழும்பு வீதி, நீர்கொழும்பு, இலங்கை
Gampaha	Ja Ela	MOH Office – Ja Ela	False	False	GMPHJLMHFFCJL		Gampaha	LK-12	7.123598	80.018508	Ja - Ela	PS-120133	7.081055	79.890504	7.075216	79.893879	60 Mount Kalvary Rd, Ja-Ela, Sri Lanka	0.748731		ගම්පහ	ජා ඇල	MOH කාර්යාලය - ජා ඇල	கம்பஹா	ஜா எல	MOH அலுவலகம் - ஜா எல	60 කල්වාරි පාර, ජා-ඇල, ශ්‍රී ලංකාව	60 மவுண்ட் கல்வாரி சாலை, ஜா-எல, இலங்கை
Gampaha	Wattala	MOH Office – Wattala	False	False	GMPHWTTLMHFFCWTTL		Gampaha	LK-12	7.123598	80.018508	Wattala	PS-120128	6.993713	79.894506	6.995817	79.885793	301 Hendala Rd, Wattala, Sri Lanka	0.989991		ගම්පහ	වත්තල	MOH කාර්යාලය - වත්තල	கம்பஹா	வத்தளை	MOH அலுவலகம் - வத்தளை	301 හැඳල පාර, වත්තල, ශ්‍රී ලංකාව	301 ஹெந்தலா சாலை, வத்தளை, இலங்கை
Gampaha	Ragama	MOH Office – Ragama	False	False	GMPHRGMMHFFCRGM		Gampaha	LK-12	7.123598	80.018508	Ragama	PS-120134	7.034975	79.924148	7.027386	79.920232	2WGC+X35, Ragama, Sri Lanka	0.948382		ගම්පහ	රාගම	MOH කාර්යාලය - රාගම	கம்பஹா	ராகம	MOH அலுவலகம் - ராகம	2WGC+X35, රාගම, ශ්‍රී ලංකාව	2WGC+X35, ராகம, இலங்கை
Gampaha	Pamunugama	Pamunugama Hospital	False	False	GMPHPMNGMPMNGMHSPTL		Gampaha	LK-12	7.123598	80.018508	Pamunugama	PS-120353	7.078892	79.859696	7.093543	79.850191	3VV2+C38, Negombo, Sri Lanka	1.938152		ගම්පහ	පමුණුගම	පමුණුගම රෝහල	கம்பஹா	பமுனுகம	பமுனுகம மருத்துவமனை	3VV2+C38, මීගමුව, ශ්‍රී ලංකාව	3VV2+C38, நீர்கொழும்பு, இலங்கை
Kalutara	Bandaragama	MOH Office - Bandaragama	False	False	KLTRBNDRGMMHFFCBNDRGM		Kalutara	LK-13	6.577316	80.127363	Bandaragama	PS-130189	6.715179	79.987674	6.713351	79.991671	Library Path, Bandaragama, Sri Lanka	0.486104		කළුතර	බණ්ඩාරගම	MOH කාර්යාලය - බණ්ඩාරගම	களுத்துறை	பண்டாரகம	MOH அலுவலகம் - பண்டாரகம	පුස්තකාල මාවත, බණ්ඩාරගම, ශ්‍රී ලංකාව	நூலகப் பாதை, பண்டாரகம, இலங்கை
Kalutara	Bandaragama	Mahawila Viharaya	False	False	KLTRBNDRGMMHWLVHRY		Kalutara	LK-13	6.577316	80.127363	Bandaragama	PS-130189	6.715179	79.987674	6.721581	80.012636	P2C7+J3J, Bandaragama, Sri Lanka	2.847916		කළුතර	බණ්ඩාරගම	මහවිල විහාරය	களுத்துறை	பண்டாரகம	மகாவில விஹாராயா	P2C7+J3J, බණ්ඩාරගම, ශ්‍රී ලංකාව	P2C7+J3J, பண்டாரகம, இலங்கை
Kalutara	Bandaragama	Batadombathuduwa Community Hall	False	False	KLTRBNDRGMBTDMBTHDWCMMNTYHLL		Kalutara	LK-13	6.577316	80.127363	Bandaragama	PS-130189	6.715179	79.987674	6.73582	79.979262	"301/B, ""Siri, Chandana, Bandaragama 12530, Sri Lanka"	2.476812		කළුතර	බණ්ඩාරගම	බටදොඹතුඩුව ප්‍රජා ශාලාව	களுத்துறை	பண்டாரகம	படடொம்பதுடுவ சமுதாயக் கூடம்	"301/බී, ""සිරි, චන්දන, බණ්ඩාරගම 12530, ශ්‍රී ලංකාව"	"301/B, ""ஸ்ரீ, சந்தனா, பண்டாரகம 12530, இலங்கை"
Kalutara	Bandaragama	Pinwala Maternity Clinic	False	False	KLTRBNDRGMPNWLMTRNTYCLNC		Kalutara	LK-13	6.577316	80.127363	Bandaragama	PS-130189	6.715179	79.987674	6.910641	79.884768	Castle St, Colombo 00800, Sri Lanka	24.532673	#CenterFarFromPolice	කළුතර	බණ්ඩාරගම	පින්වල මාතෘ සායනය	களுத்துறை	பண்டாரகம	பின்வாலா மகப்பேறு மருத்துவமனை	කාසල් ශාන්ත, කොළඹ 00800, ශ්‍රී ලංකාව	கோட்டை செயின்ட், கொழும்பு 00800, இலங்கை
Kalutara	Bandaragama	Madupitiya Sanasa Hall	False	False	KLTRBNDRGMMDPTYSNSHLL		Kalutara	LK-13	6.577316	80.127363	Bandaragama	PS-130189	6.715179	79.987674	6.695304	79.937458	Madupitiya, Panadura, Sri Lanka	5.971586		කළුතර	බණ්ඩාරගම	මඩුපිටිය සණස ශාලාව	களுத்துறை	பண்டாரகம	மதுபிட்டிய சனச மண்டபம்	මඩුපිටිය, පානදුර, ශ්‍රී ලංකාව	மதுப்பிடியா, பாணந்துறை, இலங்கை
Kalutara	Wadduwa	Mobile Vaccination	False	False	KLTRWDDWMBLVCCNTN		Kalutara	LK-13	6.577316	80.127363	Wadduwa	PS-130188	6.664403	79.929851					#CenterLocationUnknown	කළුතර	වාද්දුව	ජංගම එන්නත	களுத்துறை	வாத்துவா	மொபைல் தடுப்பூசி		
Kalutara	Millaniya	MOH Office - Millaniya	False	False	KLTRMLLNYMHFFCMLLNY		Kalutara	LK-13	6.577316	80.127363	Millaniya	PS-130191	6.681692	80.020847	6.724224	79.907284	A2, Panadura, Sri Lanka	13.407612		කළුතර	මිල්ලනිය	MOH කාර්යාලය - මිල්ලනිය	களுத்துறை	மில்லனியா	MOH அலுவலகம் - மில்லனியா	ඒ 2, පානදුර, ශ්‍රී ලංකාව	ஏ 2, பாணந்துரா, இலங்கை
Kalutara	Dodangoda	MOH Office - Dodangoda	False	False	KLTRDDNGDMHFFCDDNGD	6.540366199937832,80.03661033076219	Kalutara	LK-13	6.577316	80.127363	Dodangoda	PS-130299	6.553375	80.023569	6.541731	80.04335	Dodangoda, Sri Lanka	2.540775		කළුතර	දොඩන්ගොඩ	6.540366199937832,80.03661033076219	களுத்துறை	தொடங்கொட	6.540366199937832,80.03661033076219	දොඩන්ගොඩ, ශ්‍රී ලංකාව	தொடங்கொட, இலங்கை
Kalutara	Panadura	Panadura Hospital	False	False	KLTRPNDRPNDRHSPTL	Base Hospital Panadura	Kalutara	LK-13	6.577316	80.127363	Panadura North		6.756309	79.898939	6.721556	79.906851	A2, Panadura, Sri Lanka	3.963137		කළුතර	පානදුර	පානදුර මූලික රෝහල	களுத்துறை	பாணந்துறை	பாணந்துறை அடிப்படை மருத்துவமனை	ඒ 2, පානදුර, ශ්‍රී ලංකාව	ஏ 2, பாணந்துரா, இலங்கை
Kalutara	Beruwala	Beruwala Hospital	False	False	KLTRBRWLBRWLHSPTL		Kalutara	LK-13	6.577316	80.127363	Beruwala	PS-1302102	6.480329	79.983498	6.472087	79.983492	FXCM+R9Q, Beruwala, Sri Lanka	0.916757		කළුතර	බේරුවල	බේරුවල රෝහල	களுத்துறை	பேருவளை	பேருவளை மருத்துவமனை	FXCM+R9Q, බේරුවල, ශ්‍රී ලංකාව	FXCM+R9Q, பேருவளை, இலங்கை
Kalutara	Kalutara	MOH Office - Kalutara	False	False	KLTRKLTRMHFFCKLTR		Kalutara	LK-13	6.577316	80.127363	Kalutara South		6.584968	79.96102	6.71024	80.065999	MOH Office, Horana - Anguruwatota - Mathugama - Aluthgama Road, Wewala, Sri Lanka	18.12943		කළුතර	කළුතර	MOH කාර්යාලය - කළුතර	களுத்துறை	களுத்துறை	MOH அலுவலகம் - களுத்துறை	එම්ඕඑච් කාර්යාලය, හොරණ - අඟුරුවාතොට - මතුගම - අලුත්ගම පාර, වෑවල, ශ්‍රී ලංකාව	MOH அலுவலகம், ஹொரணை - அங்குருவத்தோட்ட - மத்துகம - அளுத்கம வீதி, வெவல, இலங்கை
Kalutara	Anguruwatota	MOH Office - Madurawala	False	False	KLTRNGRWTTMHFFCMDRWL		Kalutara	LK-13	6.577316	80.127363	Anguruwatota	PS-130190	6.654997	80.058183	6.654814	80.057811	M335+W4F, Keselhenawa, Sri Lanka	0.045863		කළුතර	අඟුරුවාතොට	MOH කාර්යාලය - මදුරාවල	களுத்துறை	அங்குருவடோட்டா	MOH அலுவலகம் - மதுரவாலா	M335+W4F, කෙසෙල්හේනාව, ශ්‍රී ලංකාව	M335+W4F, கெசல்ஹேனாவா, இலங்கை
Kalutara	Agalawatta	Pimbura Hospital	False	False	KLTRGLWTTPMBRHSPTL		Kalutara	LK-13	6.577316	80.127363	Agalawatta		6.542566	80.157178	6.575949	80.158371	H5G5+98H, කළුතර, Sri Lanka	3.715525		කළුතර	අගලවත්ත	පිඹුර රෝහල	களுத்துறை	அகலவத்தை	பிம்புரா மருத்துவமனை	H5G5+98H, කළුතර, ශ්‍රී ලංකාව	H5G5+98H, கருப்புதர, இலங்கை
Kalutara	Meegahathenna	MOH Office - Meegahathenna	False	False	KLTRMGHTHNNMHFFCMGHTHNN		Kalutara	LK-13	6.577316	80.127363	Meegahathenna	PS-1302107	6.436941	80.1943	6.435016	80.198501	B158, Meegahathenna, Sri Lanka	0.511322		කළුතර	මීගහතැන්න	MOH කාර්යාලය - මීගහතැන්න	களுத்துறை	மீகஹதென்ன	MOH அலுவலகம் - மீகஹதென்ன	බී 158, මීගහතැන්න, ශ්‍රී ලංකාව	பி 158, மீகஹதென்ன, இலங்கை
Kalutara	Baduraliya	Baduraliya Hospital	False	False	KLTRBDRLYBDRLYHSPTL		Kalutara	LK-13	6.577316	80.127363	Baduraliya	PS-1302106	6.516756	80.226716	6.514727	80.232731	Tiruwanaketiya-Agalawatte Rd, Baduraliya, Sri Lanka	0.702098		කළුතර	බදුරලිය	බදුරලිය රෝහල	களுத்துறை	பதுரலியா	பதுரலியா மருத்துவமனை	තිරුවානකැටිය-අගලවත්ත පාර, බදුරලිය, ශ්‍රී ලංකාව	திருவனகெட்டிய-அகலவத்தை சாலை, பதுரலியா, இலங்கை
Kalutara	Matugama	Weththewa Hospital	False	False	KLTRMTGMWTHTHWHSPTL		Kalutara	LK-13	6.577316	80.127363	Mathugama	PS-1302103	6.520881	80.117908	6.523087	80.125192	District Hospital, Hospital Road,Weththewa,., Matugama, Sri Lanka	0.841523		කළුතර	මතුගම	වෙත්තෑව රෝහල	களுத்துறை	மத்துகம	வெத்தேவா மருத்துவமனை	දිසා රෝහල, රෝහල් පාර, වෙත්තෑව,., මතුගම, ශ්‍රී ලංකාව	மாவட்ட மருத்துவமனை, மருத்துவமனை சாலை, வெத்தேவா,., மத்துகம, இலங்கை
Kalutara	Matugama	Katugahahena Hospital	False	False	KLTRMTGMKTGHHNHSPTL		Kalutara	LK-13	6.577316	80.127363	Mathugama	PS-1302103	6.520881	80.117908	6.489328	80.08471	F3QM+PVP, Bopitiya, Sri Lanka	5.077192		කළුතර	මතුගම	කටුගහහේන රෝහල	களுத்துறை	மத்துகம	கட்டுகஹஹேனா மருத்துவமனை	F3QM+PVP, බෝපිටිය, ශ්‍රී ලංකාව	F3QM+PVP, போபிடியா, இலங்கை
Kalutara	Matugama	MOH Office - Matugama	False	False	KLTRMTGMMHFFCMTGM		Kalutara	LK-13	6.577316	80.127363	Mathugama	PS-1302103	6.520881	80.117908	6.523544	80.126443	G4FG+CH8, Matugama, Sri Lanka	0.988725		කළුතර	මතුගම	MOH කාර්යාලය - මතුගම	களுத்துறை	மத்துகம	MOH அலுவலகம் - மத்துகம	G4FG+CH8, මතුගම, ශ්‍රී ලංකාව	G4FG+CH8, மத்துகம, இலங்கை
Kalutara	Horana	Kananvila Viharaya	False	False	KLTRHRNKNNVLVHRY		Kalutara	LK-13	6.577316	80.127363	Horana	PS-130192	6.714613	80.069091	6.696055	80.030612	Lenawara Rajamaha Viharaya, Panadura - Anguruwatota Rd, Tuttiripitiya, Sri Lanka	4.725431		කළුතර	හොරණ	කනන්විල විහාරය	களுத்துறை	ஹொரானா	கானன்வில விஹாராயா	ලෙනවර රජමහා විහාරය, පානදුර - අඟුරුවාතොට පාර, තුත්තිරිපිටිය, ශ්‍රී ලංකාව	லெனவரா ராஜமஹா விஹாராயா, பாணந்துரா - அங்குருவடோட்டா சாலை, துத்திரிப்பிட்டிய, இலங்கை
Kalutara	Horana	Meewana Palatha Vidyalaya	False	False	KLTRHRNMWNPLTHVDYLY		Kalutara	LK-13	6.577316	80.127363	Horana	PS-130192	6.714613	80.069091	6.716978	80.069732	P389+QVX, Horana 12400, Sri Lanka	0.272422		කළුතර	හොරණ	මීවන පාලතා විද්‍යාලය	களுத்துறை	ஹொரானா	மீவான பலத வித்யாலயா	P389+QVX, හොරණ 12400, ශ්‍රී ලංකාව	பி 389+கியூவிஎக்ஸ், ஹொரானா 12400, இலங்கை
Kalutara	Ingiriya	Ingiriya Hospital	False	False	KLTRNGRYNGRYHSPTL		Kalutara	LK-13	6.577316	80.127363	Ingiriya	PS-130193	6.743614	80.175077	6.741133	80.162046	Panadura-Nambapana-Ratnapura Hwy, Ingiriya, Sri Lanka	1.465626		කළුතර	ඉංගිරිය	ඉංගිරිය රෝහල	களுத்துறை	இங்கிரிய	இங்கிரிய மருத்துவமனை	පානදුර-නාම්බපන-රත්නපුර හ්වි, ඉංගිරිය, ශ්‍රී ලංකාව	பாணாதுரா-நம்பபனா-ரத்னபுரா ஹ்வி, இங்கிரிய, இலங்கை
Kalutara	Ingiriya	Wagawatta Clinic	False	False	KLTRNGRYWGWTTCLNC		Kalutara	LK-13	6.577316	80.127363	Ingiriya	PS-130193	6.743614	80.175077	6.741114	80.162065	Ratnapura - Horana - Panadura Hwy, Ingiriya, Sri Lanka	1.463965		කළුතර	ඉංගිරිය	වගවත්ත සායනය	களுத்துறை	இங்கிரிய	வாகவத்த கிளினிக்	රත්නපුර - හොරණ - පානදුර හ්වි, ඉංගිරිය, ශ්‍රී ලංකාව	இரத்தினபுரி - ஹொரணை - பாணாதுரா ஹ்வி, இங்கிரிய, இலங்கை
Kurunegala	Kotawehera	MOH Office - Kotavehera	False	False	KRNGLKTWHRMHFFCKTVHR		Kurunegala	LK-61	7.66477	80.23677	Kotawehera	PS-610322	7.809001	80.077977	7.812336	80.080579	R36J+W6P, Sri Lanka	0.468852		කුරුණෑගල	කොටවෙහෙර	MOH කාර්යාලය - කොටවෙහෙර	குருநாகல்	கொட்டவெஹெரா	MOH அலுவலகம் - கொட்டவெஹெரா	R36J+W6P, ශ්‍රී ලංකාව	R36J+W6P, இலங்கை
Kurunegala	Nikaweratiya	Nikaweratiya Hospital	False	False	KRNGLNKWRTYNKWRTYHSPTL		Kurunegala	LK-61	7.66477	80.23677	Nikaweratiya	PS-610320	7.742612	80.121177	7.747476	80.114446	Nikaweratiya-Heelogama Rd, Nikaweratiya, Sri Lanka	0.918182		කුරුණෑගල	නිකවැරටිය	නිකවැරටිය රෝහල	குருநாகல்	நிகவெரட்டியா	நிகவெரட்டிய மருத்துவமனை	නිකවැරටිය-හීලොගම පාර, නිකවැරටිය, ශ්‍රී ලංකාව	நிகவெரட்டிய-ஹீலோகம வீதி, நிகவெரட்டிய, இலங்கை
Kurunegala	Alawwa	Abbowa Maha Vidyalaya	False	False	KRNGLLWWBBWMHVDYLY		Kurunegala	LK-61	7.66477	80.23677	Alawwa	PS-610103	7.295909	80.24277	7.293038	80.202861	76V3+649, Siyambalapitiya, Sri Lanka	4.41471		කුරුණෑගල	අලව්ව	අබ්බෝව මහා විද්‍යාලය	குருநாகல்	அலவ்வா	அபோவா மகா வித்தியாலயம்	76V3+649, සියඹලාපිටිය, ශ්‍රී ලංකාව	76V3+649, சியம்பலாபிட்டிய, இலங்கை
Kurunegala	Alawwa	Boyawalana Maha Vidyalaya	False	False	KRNGLLWWBYWLNMHVDYLY		Kurunegala	LK-61	7.66477	80.23677	Alawwa	PS-610103	7.295909	80.24277	7.333348	80.180427	Alawwa - Maharagama Rd, Sri Lanka	8.040406		කුරුණෑගල	අලව්ව	බෝයවලන මහා විද්‍යාලය	குருநாகல்	அலவ்வா	போயவலனா மகா வித்தியாலயம்	අලව්ව - මහරගම පාර, ශ්‍රී ලංකාව	அலவ்வ - மஹரகம வீதி, இலங்கை
Kurunegala	Rideegama	Kavisigamuwa Central College	False	False	KRNGLRDGMKVSGMWCNTRLCLLG		Kurunegala	LK-61	7.66477	80.23677	Rideegama	PS-610110	7.589247	80.61027	7.516452	80.47037	Mallawapitiya-Rambodagalla-Keppetigala Rd, Handapanwala, Sri Lanka	17.421937		කුරුණෑගල	රිදීගම	කවිසිගමුව මධ්‍ය විද්‍යාලය	குருநாகல்	ரிதேகம	கவிசிகமுவ மத்திய கல்லூரி	මල්ලවපිටිය-රම්බොඩගල්ල-කැප්පෙටිගල පාර, හඳපන්වල, ශ්‍රී ලංකාව	மல்லவாபிட்டிய-ரம்போதகல்ல-கெப்பெட்டிகல சாலை, ஹந்தபன்வாலா, இலங்கை
Puttalam	Marawila	MOH Office - Nattandiya	False	False	PTTLMMRWLMHFFCNTTNDY		Puttalam	LK-62	7.973531	79.913833	Marawila	PS-620243	7.415075	79.839776	7.423943	79.835277	M.O.H. Office, Marawila, Sri Lanka	1.104176		පුත්තලම	මාරවිල	MOH කාර්යාලය - නාත්තන්ඩිය	புத்தளம்	மாரவில	MOH அலுவலகம் - நாட்டாண்டியா	එම්.ඕ.එච්. කාර්යාලය, මාරවිල, ශ්‍රී ලංකාව	எம்.ஓ.எச். அலுவலகம், மாரவில, இலங்கை
Puttalam	Puttalam	MOH Office - Puttalam	False	False	PTTLMPTTLMMHFFCPTTLM		Puttalam	LK-62	7.973531	79.913833	Puttalam	PS-620130	8.029904	79.834396	8.022836	79.833312	Colombo Puttalam Rd, Puttalam, Sri Lanka	0.795187		පුත්තලම	පුත්තලම	MOH කාර්යාලය - පුත්තලම	புத்தளம்	புத்தளம்	MOH அலுவலகம் - புத்தளம்	කොළඹ පුත්තලම පාර, පුත්තලම, ශ්‍රී ලංකාව	கொழும்பு புத்தளம் வீதி, புத்தளம், இலங்கை
Puttalam	Mundalama	Mundalama Sinhala Vidyalaya	False	False	PTTLMMNDLMMNDLMSNHLVDYLY		Puttalam	LK-62	7.973531	79.913833	Mundal	PS-620138	7.808859	79.825729	7.79154	79.82809	Puttlam Road, mundalama, Sri Lanka	1.943881		පුත්තලම	මුන්දලම	මුන්දලම සිංහල විද්‍යාලය	புத்தளம்	முண்டாலமா	முந்தலம சிங்கள வித்தியாலயம்	පුත්තලම් පාර, මුන්දලම, ශ්‍රී ලංකාව	புத்தளம் சாலை, முண்டாலமா, இலங்கை
Puttalam	Wennappuwa	Bolawatta Gonsalways Vidyalaya	False	False	PTTLMWNNPPWBLWTTGNSLWYSVDYLY		Puttalam	LK-62	7.973531	79.913833	Wennappuwa	PS-620245	7.339623	79.843017	7.298028	79.859433	7VX5+6Q7, Puttalam, Sri Lanka	4.968446		පුත්තලම	වෙන්නප්පුව	බෝලවත්ත ගොන්සල්වේස් විද්‍යාලය	புத்தளம்	வென்னப்புவா	போலவத்த கோன்சால்வேஸ் வித்யாலயா	7VX5+6Q7, පුත්තලම, ශ්‍රී ලංකාව	7VX5+6Q7, புத்தளம், இலங்கை
Puttalam	Wennappuwa	Wennappuwa Balika Vidyalaya	False	False	PTTLMWNNPPWWNNPPWBLKVDYLY		Puttalam	LK-62	7.973531	79.913833	Wennappuwa	PS-620245	7.339623	79.843017	7.349304	79.835277	Wennappuwa, Sri Lanka	1.374264		පුත්තලම	වෙන්නප්පුව	වෙන්නප්පුව බාලිකා විද්‍යාලය	புத்தளம்	வென்னப்புவா	வென்னப்புவ பாலிகா வித்தியாலயம்	වෙන්නප්පුව, ශ්‍රී ලංකාව	வென்னப்புவா, இலங்கை
Puttalam	Wennappuwa	Waikkala Primary School	False	False	PTTLMWNNPPWWKKLPRMRYSCHL		Puttalam	LK-62	7.973531	79.913833	Wennappuwa	PS-620245	7.339623	79.843017	7.279831	79.854182	Waikkala North, Sri Lanka	6.763873		පුත්තලම	වෙන්නප්පුව	වයික්කල ප්‍රාථමික විද්‍යාලය	புத்தளம்	வென்னப்புவா	வாய்க்கால ஆரம்பப் பள்ளி	වයික්කාල උතුර, ශ්‍රී ලංකාව	வாய்க்கால வடக்கு, இலங்கை
Puttalam	Dankotuwa	Etiyawala Primary School	False	False	PTTLMDNKTWTYWLPRMRYSCHL		Puttalam	LK-62	7.973531	79.913833	Dankotuwa	PS-620246	7.300337	79.882595	7.28868	79.899265	Matikotuwa Road, Dankotuwa, Sri Lanka	2.250294		පුත්තලම	දන්කොටුව	ඇටියාවල ප්‍රාථමික විද්‍යාලය	புத்தளம்	டாங்கொட்டுவா	எட்டியவாலா தொடக்கப்பள்ளி	මැටිකොටුව පාර, දංකොටුව, ශ්‍රී ලංකාව	மாடிகொட்டுவா சாலை, டாங்கொட்டுவா, இலங்கை
Puttalam	Koswatta	Pothuwatawana Jinarathna Vidyalaya	False	False	PTTLMKSWTTPTHWTWNJNRTHNVDYLY		Puttalam	LK-62	7.973531	79.913833	Koswatta	PS-620244	7.374528	79.898302	7.358541	79.916471	Lihiriyagama Rd, Sri Lanka	2.679392		පුත්තලම	කොස්වත්ත	පොතුවටවන ජිනරත්න විද්‍යාලය	புத்தளம்	கொஸ்வத்த	பொதுவாதவன ஜினரத்னா வித்யாலயா	ලිහිරියාගම පාර, ශ්‍රී ලංකාව	லிஹிரியாகம சாலை, இலங்கை
Puttalam	Koswatta	Narawila Vidyalaya	False	False	PTTLMKSWTTNRWLVDYLY		Puttalam	LK-62	7.973531	79.913833	Koswatta	PS-620244	7.374528	79.898302	7.394218	79.913193	Narawila, Sri Lanka	2.737644		පුත්තලම	කොස්වත්ත	නාරවිල විද්‍යාලය	புத்தளம்	கொஸ்வத்த	நரவில வித்யாலயா	නාරවිල, ශ්‍රී ලංකාව	நாரவில, இலங்கை
Puttalam	Kalpitiya	St. Peter's College, Palakudawa	False	False	PTTLMKLPTYSTPTRSCLLGPLKDW		Puttalam	LK-62	7.973531	79.913833	Kalpitiya	PS-620137	8.235145	79.764567					#CenterLocationUnknown	පුත්තලම	කල්පිටිය	පලාකුඩාව ශාන්ත පීතර විද්‍යාලය	புத்தளம்	கல்பிட்டிய	செயின்ட் பீட்டர்ஸ் கல்லூரி, பாலக்குடாவா		
Puttalam	Kalpitiya	Roman Catholic Sinhala Tamil College	False	False	PTTLMKLPTYRMNCTHLCSNHLTMLCLLG		Puttalam	LK-62	7.973531	79.913833	Kalpitiya	PS-620137	8.235145	79.764567	8.092787	79.722764	Etalai-Talawila Rd, Etalai, Sri Lanka	16.489818		පුත්තලම	කල්පිටිය	රෝමානු කතෝලික සිංහල දෙමළ විද්‍යාලය	புத்தளம்	கல்பிட்டிய	ரோமன் கத்தோலிக்க சிங்கள தமிழ் கல்லூரி	ඇතාලෙයි-තලවිල පාර, ඇතාලෙයි, ශ්‍රී ලංකාව	எத்தலை-தலவில வீதி, எத்தலை, இலங்கை
Kandy	Wattegama	Walala A.Rathnayake Central College	False	False	KNDYWTTGMWLLRTHNYKCNTRLCLLG		Kandy	LK-21	7.27337	80.709602	Wattegama	PS-210357	7.350603	80.68335	7.318909	80.693359	8M9V+H89, Menikhinna, Sri Lanka	3.694199		මහනුවර	වත්තේගම	වලල ඒ. රත්නායක මධ්‍ය මහා විද්‍යාලය	கண்டி	வட்டேகம	வாலாலா ஏ.ரத்நாயக்க மத்திய கல்லூரி	8 එම් 9 වී+එච් 89, මැණික්හින්න, ශ්‍රී ලංකාව	8M9V+H89, மெனிகின்னா, இலங்கை
Kandy	Wattegama	Wattegama Balika Vidyalaya	False	False	KNDYWTTGMWTTGMBLKVDYLY		Kandy	LK-21	7.27337	80.709602	Wattegama	PS-210357	7.350603	80.68335	7.351534	80.682953	Pitiyagedera - Wattegama - Iriyagastenne Rd, Wattegama, Sri Lanka	0.112435		මහනුවර	වත්තේගම	වත්තේගම බාලිකා විද්‍යාලය	கண்டி	வட்டேகம	வட்டேகம பாலிகா வித்தியாலயம்	පිටියගෙදර - වත්තේගම - ඊරියගස්තැන්න පාර, වත්තේගම, ශ්‍රී ලංකාව	பிட்டியகெடெரா - வட்டேகம - இரியாகஸ்டென் சாலை, வட்டேகம, இலங்கை
Kandy	Poojapitiya	Poojapitiya Primary School	False	False	KNDYPJPTYPJPTYPRMRYSCHL		Kandy	LK-21	7.27337	80.709602	Poojapitiya	PS-210115	7.372938	80.587619	7.365084	80.601755	Ahalagashinna, Poojapitiya Road, Pujapitiya, Sri Lanka	1.787489		මහනුවර	පූජාපිටිය	පූජාපිටිය ප්‍රාථමික විද්‍යාලය	கண்டி	பூஜாபிட்டிய	பூஜாபிட்டிய தொடக்கப்பள்ளி	අහලගස්හින්න, පූජාපිටිය පාර, පූජාපිටිය, ශ්‍රී ලංකාව	அலகாகசின்னா, பூஜாபிட்டிய சாலை, பூஜாபிட்டிய, இலங்கை
Kandy	Ankumbura	Ankumbura Parakrama Central College	False	False	KNDYNKMBRNKMBRPRKRMCNTRLCLLG		Kandy	LK-21	7.27337	80.709602	Ankumbura	PS-210104	7.438826	80.571939	7.438119	80.57279	Alawatugoda-Ankumbura-Keppetigala Rd, Ankumbura, Sri Lanka	0.122449		මහනුවර	අංකුඹුර	අංකුඹුර පරාක්‍රම මධ්‍ය මහා විද්‍යාලය	கண்டி	அங்கும்புரா	அங்கும்புரா பராக்கிரம மத்திய கல்லூரி	අලවතුගොඩ-අංකුඹුර-කැප්පෙටිගල පාර, අංකුඹුර, ශ්‍රී ලංකාව	அலவத்துகொட-அன்கும்புரா-கெப்பெட்டிகல சாலை, அன்கும்புரா, இலங்கை
Kandy	Pallekele	Bandaranayake National College - Kundasale	False	False	KNDYPLLKLBNDRNYKNTNLCLLGKNDSL		Kandy	LK-21	7.27337	80.709602	Pallekele	PS-210109	7.279688	80.682945	7.280986	80.687993	A26, Kundasale 20168, Sri Lanka	0.57537		මහනුවර	පල්ලෙකැලේ	බණ්ඩාරනායක ජාතික විද්‍යාලය - කුණ්ඩසාලේ	கண்டி	பல்லேகலே	பண்டாரநாயக்க தேசிய கல்லூரி - குண்டசாலை	ඒ 26, කුණ්ඩසාලේ 20168, ශ්‍රී ලංකාව	A26, குண்டசலே 20168, இலங்கை
Kandy	Welambada	Welambada Muslim Maha Vidyalaya	False	False	KNDYWLMBDWLMBDMSLMMHVDYLY		Kandy	LK-21	7.27337	80.709602	Welambada	PS-210114	7.201768	80.544166	7.199838	80.549922	B91, Welamboda, Sri Lanka	0.670485		මහනුවර	වෙලම්බඩ	වෙලම්බඩ මුස්ලිම් මහා විද්‍යාලය	கண்டி	வேலம்பாடா	வேலம்படா முஸ்லிம் மகா வித்தியாலயம்	බී 91, වෙලම්බොඩ, ශ්‍රී ලංකාව	பி 91, வெலம்பொட, இலங்கை
Kandy	Gampola	Wickramabahu National College	False	False	KNDYGMPLWCKRMBHNTNLCLLG		Kandy	LK-21	7.27337	80.709602	Gampola	PS-210216	7.132941	80.56799	7.153925	80.563839	Nawalapitiya Road, Gampola 20500, Sri Lanka, Sri Lanka	2.378605		මහනුවර	ගම්පොල	වික්‍රමබාහු ජාතික විද්‍යාලය	கண்டி	கம்போலா	விக்கிரமபாகு தேசிய கல்லூரி	නාවලපිටිය පාර, ගම්පොල 20500, ශ්‍රී ලංකාව, ශ්‍රී ලංකාව	நாவலப்பிட்டி சாலை, கம்போலா 20500, இலங்கை, இலங்கை
Badulla	Mahiyanganaya	Mapakadawewa Vidyalaya	False	False	BDLLMHYNGNYMPKDWWVDYLY		Badulla	LK-81	7.074529	81.04486	Mahiyangane	PS-810105	7.334975	80.993108	7.328554	80.991494	8XHR+CHH, Mahiyanganaya, Sri Lanka	0.736068		බදුල්ල	මහියංගනය	මාපාකඩවැව විද්‍යාලය	பதுளை	மஹியங்கனாய	மபகடவெவ வித்யாலயா	8XHR+CHH, මහියංගනය, ශ්‍රී ලංකාව	8XHR+CHH, மஹியங்கனை, இலங்கை
Badulla	Welimada	MOH Office - Welimada	False	False	BDLLWLMDMHFFCWLMD		Badulla	LK-81	7.074529	81.04486	Welimada	PS-810212	6.900481	80.905809	6.927934	80.896475	Udapussellawa-Welimada Road, Ambagasdowa, Sri Lanka	3.222841		බදුල්ල	වැලිමඞ	MOH කාර්යාලය - වැලිමඩ	பதுளை	வெலிமடா	MOH அலுவலகம் - வெலிமடை	උඩපුස්සැල්ලාව-වැලිමඩ පාර, අඹගස්දෝව, ශ්‍රී ලංකාව	உடபுசெல்லவா-வெலிமட சாலை, அம்பகஸ்தோவா, இலங்கை
Badulla	Bandarawela	MOH Office - Bandarawela	False	False	BDLLBNDRWLMHFFCBNDRWL		Badulla	LK-81	7.074529	81.04486	Bandarawela	PS-810210	6.831526	80.986784	6.841272	80.98482	Hospital Junction Helamuduna Bus Stop, Etampitiya Rd, Bandarawela, Sri Lanka	1.105533		බදුල්ල	බණ්ඩාරවෙල	MOH කාර්යාලය - බණ්ඩාරවෙල	பதுளை	பண்டாரவளை	MOH அலுவலகம் - பண்டாரவளை	රෝහල් හන්දිය හෙළමුදුන බස් නැවතුම, ඇටම්පිටිය පාර, බණ්ඩාරවෙල, ශ්‍රී ලංකාව	மருத்துவமனை சந்திப்பு ஹெலமுதுனா பேருந்து நிறுத்தம், இடம்பிட்டிய சாலை, பண்டாரவளை, இலங்கை
Badulla	Haldummulla	MOH Office - Haldummulla	False	False	BDLLHLDMMLLMHFFCHLDMMLL		Badulla	LK-81	7.074529	81.04486	Haldummulla		6.762216	80.885856	6.761089	80.876292	QV6G+CGM, Badulla, Sri Lanka	1.063814		බදුල්ල	හල්දුම්මුල්ල	MOH කාර්යාලය - හල්දුම්මුල්ල	பதுளை	ஹல்தும்முல்லா	MOH அலுவலகம் - ஹல்தும்முல்லா	QV6G+CGM, බදුල්ල, ශ්‍රී ලංකාව	QV6G+CGM, பதுளை, இலங்கை
Moneragala	Monaragala	Monaragala Community Hall	False	False	MNRGLMNRGLMNRGLCMMNTYHLL		Moneragala	LK-82	6.787517	81.303744	Monaragala	PS-820121	6.869866	81.348106	6.872778	81.350683	Moneragala, Sri Lanka	0.431159		මොණරාගල	මොනරාගල	මොනරාගල ප්‍රජා ශාලාව	மொனராகலை	மொனராகலை	மொனராகலை சமூக மண்டபம்	මොනරාගල, ශ්‍රී ලංකාව	மொனராகலை, இலங்கை
Moneragala	Bibila	Pitathumbura Maha Vidyalaya	False	False	MNRGLBBLPTTHMBRMHVDYLY		Moneragala	LK-82	6.787517	81.303744	Bibila	PS-820125	7.165232	81.225463	7.158838	81.223243	Peradeniya-Badulla-Chenkaladi Hwy, Bibile, Sri Lanka	0.752186		මොණරාගල	බිබිල	පිටතුඹුර මහා විද්‍යාලය	மொனராகலை	பிபிலா	பிடதும்புர மகா வித்தியாலயம்	පේරාදෙණිය-බදුල්ල-චෙන්කලාඩි හ්වි, බිබිලේ, ශ්‍රී ලංකාව	பேராதனை-பதுளை-செங்கலடி ஹ்வி, பிபிலே, இலங்கை
Moneragala	Bibila	Wegama Primary School	False	False	MNRGLBBLWGMPRMRYSCHL		Moneragala	LK-82	6.787517	81.303744	Bibila	PS-820125	7.165232	81.225463	7.162409	81.22159	Bibile, Sri Lanka	0.530371		මොණරාගල	බිබිල	වෑගම ප්‍රාථමික විද්‍යාලය	மொனராகலை	பிபிலா	வேகமா தொடக்கப்பள்ளி	බිබිලේ, ශ්‍රී ලංකාව	பிபிலே, இலங்கை
Moneragala	Bibila	Kotagama Viharaya	False	False	MNRGLBBLKTGMVHRY		Moneragala	LK-82	6.787517	81.303744	Bibila	PS-820125	7.165232	81.225463	7.132273	81.183688	Bibile - kotagama, Badullagammana Rd, Sri Lanka	5.890373		මොණරාගල	බිබිල	කොටගම විහාරය	மொனராகலை	பிபிலா	கொட்டகம விஹாராயா	බිබිලේ - කොටගම, බදුල්ලගම්මන පාර, ශ්‍රී ලංකාව	பிபிலே - கொட்டகம, பதுல்லகம்மானா சாலை, இலங்கை
Galle	Galle	MOH Office - Galle	False	False	GLLGLLMHFFCGLL		Galle	LK-31	6.222805	80.251977	Galle	PS-310120	6.032983	80.21714	6.032591	80.212651	26M7+23J, Galle 80000, Sri Lanka	0.498456		ගාල්ල	ගාල්ල	MOH කාර්යාලය - ගාල්ල	காலி	காலி	MOH அலுவலகம் - காலி	26 එම් 7+23 ජේ, ගාල්ල 80000, ශ්‍රී ලංකාව	26M7+23J, காலி 80000, இலங்கை
Galle	Poddala	Kurunduwatta Clinic	False	False	GLLPDDLKRNDWTTCLNC		Galle	LK-31	6.222805	80.251977	Poddala	PS-310126	6.121449	80.210629	6.07128	80.179379	35CH+GQ6, Galle, Sri Lanka	6.563952		ගාල්ල	පෝද්දල	කුරුඳුවත්ත සායනය	காலி	போடல	குருந்துவத்த கிளினிக்	35CH+GQ6, ගාල්ල, ශ්‍රී ලංකාව	35CH+GQ6, காலி, இலங்கை
Galle	Akmeemana	Hiriyare Maha Vidyalaya	False	False	GLLKMMNHRYRMHVDYLY		Galle	LK-31	6.222805	80.251977	Akmeemana	PS-310123	6.073453	80.276627	6.069303	80.297763	Hiyare, Sri Lanka	2.382904		ගාල්ල	අක්මීමන	හිරියාරේ මහා විද්‍යාලය	காலி	அக்மீமானா	ஹிரியாரே மகா வித்தியாலயம்	හියාරේ, ශ්‍රී ලංකාව	ஹியாரே, இலங்கை
Galle	Akmeemana	Ketandola Mahindarama Viharaya	False	False	GLLKMMNKTNDLMHNDRMVHRY		Galle	LK-31	6.222805	80.251977	Akmeemana	PS-310123	6.073453	80.276627	6.027007	80.215356	Parawa St, Galle 80000, Sri Lanka	8.52173		ගාල්ල	අක්මීමන	කැටන්දොල මහින්දාරාම විහාරය	காலி	அக்மீமானா	கேடந்தோலா மஹிந்தராம விஹாராயா	පරාව ශාන්ත, ගාල්ල 80000, ශ්‍රී ලංකාව	பரவா செயின்ட், காலி 80000, இலங்கை
Galle	Ahangama	Pelessa Siri Vimalasiri Maha Vidyalaya	False	False	GLLHNGMPLSSSRVMLSRMHVDYLY		Galle	LK-31	6.222805	80.251977	Ahangama	PS-310128	5.972267	80.365256	6.005927	80.335236	Pelessa, Sri Lanka	5.004582		ගාල්ල	අහංගම	පැලැස්ස සිරි විමලසිරි මහා විද්‍යාලය	காலி	அஹங்கமா	பெலஸ்ஸ சிறி விமலசிறி மகா வித்தியாலயம்	පැලැස්ස, ශ්‍රී ලංකාව	பெலஸ்ஸா, இலங்கை
Galle	Ahangama	Nakanda Kumara Vidyalaya	False	False	GLLHNGMNKNDKMRVDYLY		Galle	LK-31	6.222805	80.251977	Ahangama	PS-310128	5.972267	80.365256	5.985926	80.373817	Ranaviru Captain Rohitha Mawatha, Ahangama, Sri Lanka	1.790295		ගාල්ල	අහංගම	නාකන්ද කුමාර විද්‍යාලය	காலி	அஹங்கமா	நாகந்த குமார வித்யாலயா	රණවිරු කපිතාන් රෝහිත මාවත, අහංගම, ශ්‍රී ලංකාව	ரணவிரு கேப்டன் ரோஹித மாவத்தை, அஹங்கமா, இலங்கை
Galle	Urubokka	Ginnaliya Maha Vidyalaya	False	False	GLLRBKKGNNLYMHVDYLY		Galle	LK-31	6.222805	80.251977	Urubokka	PS-320108	6.310257	80.629013	6.049804	80.219848	Steel Rd, Galle 80000, Sri Lanka	53.726572	#CenterFarFromPolice	ගාල්ල	Ruරුබොක්ක	ගින්නලිය මහා විද්‍යාලය	காலி	உரூபோக்கா	கின்னலியா மகா வித்தியாலயம்	වානේ පාර, ගාල්ල 80000, ශ්‍රී ලංකාව	ஸ்டீல் ஆர்ட், காலி 80000, இலங்கை
Galle	Thihagoda	MOH Office - Thihagoda	False	False	GLLTHHGDMHFFCTHHGD		Galle	LK-31	6.222805	80.251977	Thihagoda	PS-320104	6.01331	80.567932	5.996687	80.556352	Matara - Hakmana Road, Thihagoda, Sri Lanka	2.249355		ගාල්ල	තිහගොඩ	MOH කාර්යාලය - තිහගොඩ	காலி	திஹாகொட	MOH அலுவலகம் - திஹாகொட	මාතර - හක්මන පාර, තිහගොඩ, ශ්‍රී ලංකාව	மாத்தறை - ஹக்மனா சாலை, திஹகொட, இலங்கை
Galle	Thihagoda	Kirinda Abinawarama Viharaya	False	False	GLLTHHGDKRNDBNWRMVHRY		Galle	LK-31	6.222805	80.251977	Thihagoda	PS-320104	6.01331	80.567932	6.235236	81.334441	Kirinda, Sri Lanka	88.292891	#CenterFarFromPolice	ගාල්ල	තිහගොඩ	කිරින්ද අබිනවරම විහාරය	காலி	திஹாகொட	கிரிந்த அபிநவரம விஹாராயா	කිරින්ද, ශ්‍රී ලංකාව	கிரிந்தா, இலங்கை
Hambantota	Walasmulla	MOH Office - Walasmulla	False	False	HMBNTTWLSMLLMHFFCWLSMLL		Hambantota	LK-33	6.259779	81.098619	Walasmulla	PS-330151	6.154102	80.698256	6.150889	80.693718	Walasmulla, Sri Lanka	0.616099		හම්බන්තොට	වලස්මුල්ල	MOH කාර්යාලය - වලස්මුල්ල	அம்பாந்தோட்டை	வலஸ்முல்லா	MOH அலுவலகம் - வலஸ்முல்லா	වලස්මුල්ල, ශ්‍රී ලංකාව	வலஸ்முல்லா, இலங்கை
Hambantota	Walasmulla	MOH Office - Okewela	False	False	HMBNTTWLSMLLMHFFCKWL		Hambantota	LK-33	6.259779	81.098619	Walasmulla	PS-330151	6.154102	80.698256	6.098886	80.715898	Okewela, Sri Lanka	6.444136		හම්බන්තොට	වලස්මුල්ල	MOH කාර්යාලය - ඕකේවෙල	அம்பாந்தோட்டை	வலஸ்முல்லா	MOH அலுவலகம் - ஒகேவெலா	ඕකේවෙල, ශ්‍රී ලංකාව	ஒகேவெலா, இலங்கை
Hambantota	Weeraketiya	MOH Office - Weeraketiya	False	False	HMBNTTWRKTYMHFFCWRKTY		Hambantota	LK-33	6.259779	81.098619	Weeraketiya	PS-330149	6.153899	80.76737	6.144703	80.765287	4QV8+V4M, Weeraketiya, Sri Lanka	1.048488		හම්බන්තොට	වීරකැටිය	MOH කාර්යාලය - වීරකැටිය	அம்பாந்தோட்டை	வீரகெட்டிய	MOH அலுவலகம் - வீரகெட்டிய	4QV8+V4M, වීරකැටිය, ශ්‍රී ලංකාව	4QV8+V4M, வீரகெட்டிய, இலங்கை
Hambantota	Hambantota	MOH Office - Hambantota	False	False	HMBNTTHMBNTTMHFFCHMBNTT		Hambantota	LK-33	6.259779	81.098619	Hambantota	PS-330156	6.125872	81.12521	6.171162	81.127	54CG+FQ9, Hambantota, Sri Lanka	5.041487		හම්බන්තොට	හම්බන්තොට	MOH කාර්යාලය - හම්බන්තොට	அம்பாந்தோட்டை	அம்பாந்தோட்டை	MOH அலுவலகம் - அம்பாந்தோட்டை	54CG+FQ9, හම්බන්තොට, ශ්‍රී ලංකාව	54CG+FQ9, ஹம்பாந்தோட்டை, இலங்கை
Hambantota	Katuwana	MOH Office - Katuwana	False	False	HMBNTTKTWNMHFFCKTWN		Hambantota	LK-33	6.259779	81.098619	Katuwana	PS-330153	6.269722	80.690963	6.26627	80.693035	7M8V+G63, Katuwana, Sri Lanka	0.447115		හම්බන්තොට	කටුවන	MOH කාර්යාලය - කටුවන	அம்பாந்தோட்டை	கட்டுவானா	MOH அலுவலகம் - கட்டுவானா	7 එම් 8 වී+ජී 63, කටුවන, ශ්‍රී ලංකාව	7M8V+G63, கட்டுவானா, இலங்கை
Hambantota	Angunukolapelessa	MOH Office - Angunukolapelessa	False	False	HMBNTTNGNKLPLSSMHFFCNGNKLPLSS		Hambantota	LK-33	6.259779	81.098619	Angunakolapelessa	PS-330150	6.321993	80.844883	6.164691	80.898963	Unnamed Road, Agunukolapelessa, Sri Lanka	18.490258		හම්බන්තොට	අඟුණුකොළපැලැස්ස	MOH කාර්යාලය - අඟුණුකොලපැලැස්ස	அம்பாந்தோட்டை	அங்குனுகோலபெலெஸ்ஸா	MOH அலுவலகம் - அங்குனுகோலபெலஸ்ஸா	නම් නොකළ පාර, අගුණුකොලපැලැස්ස, ශ්‍රී ලංකාව	பெயரிடப்படாத சாலை, அகுனுகோலபெலஸ்ஸா, இலங்கை
Hambantota	Angunukolapelessa	Hakuruwela Hospital	False	False	HMBNTTNGNKLPLSSHKRWLHSPTL		Hambantota	LK-33	6.259779	81.098619	Angunakolapelessa	PS-330150	6.321993	80.844883	6.143782	80.833594	4RVM+GC8, Agrahara, Sri Lanka	19.861643		හම්බන්තොට	අඟුණුකොළපැලැස්ස	හකුරුවෙල රෝහල	அம்பாந்தோட்டை	அங்குனுகோலபெலெஸ்ஸா	ஹகுருவெல மருத்துவமனை	4RVM+GC8, අග්‍රහාර, ශ්‍රී ලංකාව	4RVM+GC8, அக்ரஹாரா, இலங்கை
Hambantota	Ambalantota	MOH Office - Ambalantota	False	False	HMBNTTMBLNTTMHFFCMBLNTT		Hambantota	LK-33	6.259779	81.098619	Ambalantota	PS-330157	6.12516	81.023981	6.122767	81.005973	Walawa watta Road, Malpeththawa, Ambalantota, Sri Lanka	2.009195		හම්බන්තොට	අම්බලන්තොට	MOH කාර්යාලය - අම්බලන්තොට	அம்பாந்தோட்டை	அம்பலாந்தோட்டை	MOH அலுவலகம் - அம்பலாந்தோட்டை	වලව වත්ත පාර, මල්පෙත්තාව, අම්බලන්තොට, ශ්‍රී ලංකාව	வலவா வாட்டா சாலை, மால்பெத்தவா, அம்பலாந்தோட்டை, இலங்கை
Hambantota	Sooriyawewa	MOH Office - Sooriyawewa	False	False	HMBNTTSRYWWMHFFCSRYWW		Hambantota	LK-33	6.259779	81.098619	Sooriyawewa	PS-330155	6.306022	81.003873	6.304862	81.004768	8233+WWR, Sooriyawewa, Sri Lanka	0.1626		හම්බන්තොට	සූරියවැව	MOH කාර්යාලය - සූරියවැව	அம்பாந்தோட்டை	சூரியவெவ	MOH அலுவலகம் - சூரியவெவ	8233+ඩබ්ලිව්ඩබ්ලිව්ආර්, සූරියවැව, ශ්‍රී ලංකාව	8233+WWR, சூரியவெவ, இலங்கை
Hambantota	Beliatta	MOH Office – Beliatta	False	False	HMBNTTBLTTMHFFCBLTT		Hambantota	LK-33	6.259779	81.098619	Beliatta	PS-330152	6.046936	80.735408	6.051828	80.741735	3P2R+PMQ, Hambantota, Sri Lanka	0.886482		හම්බන්තොට	බෙලිඅත්ත	MOH කාර්යාලය - බෙලිඅත්ත	அம்பாந்தோட்டை	பெலியாட்டா	MOH அலுவலகம் - பெலியாட்ட	3P2R+PMQ, හම්බන්තොට, ශ්‍රී ලංකාව	3P2R+PMQ, ஹம்பாந்தோட்டை, இலங்கை
Hambantota	Tangalle	MOH Office – Tangalle	False	False	HMBNTTTNGLLMHFFCTNGLL		Hambantota	LK-33	6.259779	81.098619	Tangalle	PS-330147	6.023954	80.797255	6.02363	80.795742	2QFW+F75, Tangalle, Sri Lanka	0.171198		හම්බන්තොට	තංගල්ල	MOH කාර්යාලය - තංගල්ල	அம்பாந்தோட்டை	தங்காலை	MOH அலுவலகம் - தங்காலை	2QFW+F75, තංගල්ල, ශ්‍රී ලංකාව	2QFW+F75, தங்காலை, இலங்கை
Hambantota	Balangoda	Base Hospital - Balangoda	False	False	HMBNTTBLNGDBSHSPTLBLNGD		Hambantota	LK-33	6.259779	81.098619	Balangoda	PS-910103	6.649474	80.700276	6.65828	80.712444	A4, Balangoda, Sri Lanka	1.663316		හම්බන්තොට	බලන්ගොඩ	මූලික රෝහල - බලංගොඩ	அம்பாந்தோட்டை	பலாங்கொடை	அடிப்படை மருத்துவமனை - பலாங்கொடை	ඒ 4, බලංගොඩ, ශ්‍රී ලංකාව	A4, பலாங்கொடை, இலங்கை
Hambantota	Anuradhapura	Teaching Hospital Anuradhapura	False	False	HMBNTTNRDHPRTCHNGHSPTLNRDHPR		Hambantota	LK-33	6.259779	81.098619	Anuradapura	PS-710101	8.329752	80.407265	8.324765	80.413968	Harischandra Mawatha, Anuradhapura, Sri Lanka	0.922993		හම්බන්තොට	අනුරාධපුර	අනුරාධපුර ශික්ෂණ රෝහල	அம்பாந்தோட்டை	அனுராதபுரம்	போதனா மருத்துவமனை அனுராதபுரம்	හරිශ්චන්ද්‍ර මාවත, අනුරාධපුර, ශ්‍රී ලංකාව	ஹரிச்சந்திர மாவத்தை, அனுராதபுரம், இலங்கை
Anuradhapura	Mihintale	MOH Office - Mihintale	False	False	NRDHPRMHNTLMHFFCMHNTL		Anuradhapura	LK-71	8.39199	80.512958	Mihintale	PS-710104	8.360062	80.511889	8.357612	80.509049	Puttalam - Anuradhapura - Trincomalee Hwy, Mihintale, Sri Lanka	0.41466		අනුරාධපුර	මිහින්තලය	MOH කාර්යාලය - මිහින්තලය	அனுராதபுரம்	மிஹிந்தலை	MOH அலுவலகம் - மிஹிந்தலை	පුත්තලම - අනුරාධපුර - ත්‍රිකුණාමලය හ්වි, මිහින්තලය, ශ්‍රී ලංකාව	புத்தளம் - அனுராதபுரம் - திருகோணமலை Hwy, மிஹிந்தலை, இலங்கை
Jaffna	Achchuveli	Achchuveli Hospital	False	False	JFFNCHCHVLCHCHVLHSPTL		Jaffna	LK-41	9.691792	80.098594	Achchuweli	PS-410103	6.934132	79.856305	9.772721	80.115501	Avarankal-Tondaimanar Rd, Sri Lanka	317.021383	#CenterFarFromPolice	යාපනය	අච්චුවේලි	අච්චුවේලි රෝහල	யாழ்	அச்சுவேலி	அச்சுவேலி மருத்துவமனை	අවරන්කල්-තොණ්ඩයිමානර් පාර, ශ්‍රී ලංකාව	அவரங்கால்-தொண்டைமானார் சாலை, இலங்கை
Jaffna	Kayts	MOH Office - Velanai	False	False	JFFNKYTSMHFFCVLN		Jaffna	LK-41	9.691792	80.098594	Kayts	PS-410212	9.728654	79.94775	9.636317	79.903777	Chatty vangkalvady road, Velanai, Sri Lanka	11.346015		යාපනය	කයිට්ස්	එම්ඕඑච් කාර්යාලය - වෙලනායි	யாழ்	ஊர்காவற்துறையினர்	MOH அலுவலகம் - வேலணை	චැටි වංගල්වඩි පාර, වෙලනායි, ශ්‍රී ලංකාව	சட்டி வாங்கல்வாடி சாலை, வேலணை, இலங்கை
Jaffna	Kayts	MOH Office - Kayts	False	False	JFFNKYTSMHFFCKYTS		Jaffna	LK-41	9.691792	80.098594	Kayts	PS-410212	9.728654	79.94775	9.697759	79.866366	Sri Lanka, Kayts, Sri Lanka	9.561445		යාපනය	කයිට්ස්	MOH කාර්යාලය - කයිට්ස්	யாழ்	ஊர்காவற்துறையினர்	MOH அலுவலகம் - ஊர்காவற்துறை	ශ්‍රී ලංකාව, කයිට්ස්, ශ්‍රී ලංකාව	இலங்கை, ஊர்காவற்துறை, இலங்கை
Jaffna	Kayts	MOH Office - Karainagar	False	False	JFFNKYTSMHFFCKRNGR		Jaffna	LK-41	9.691792	80.098594	Kayts	PS-410212	9.728654	79.94775	9.725097	79.99772	Sri Lanka, Manipay, Sri Lanka	5.492521		යාපනය	කයිට්ස්	MOH කාර්යාලය - කරෙයිනගර්	யாழ்	ஊர்காவற்துறையினர்	MOH அலுவலகம் - காரைநகர்	ශ්‍රී ලංකාව, මනිපායි, ශ්‍රී ලංකාව	இலங்கை, மானிப்பாய், இலங்கை
Jaffna	Manippai	Manippai Hospital	False	False	JFFNMNPPMNPPHSPTL		Jaffna	LK-41	9.691792	80.098594	Manippai	PS-410210	9.727151	79.996905	9.725939	79.998028	Manipay, Sri Lanka	0.182569		යාපනය	මනිප්පායි	මානිප්පායි රෝහල	யாழ்	மணிப்பை	மணிப்பை மருத்துவமனை	මනිපායි, ශ්‍රී ලංකාව	மானிப்பாய், இலங்கை
Jaffna	Thelippalai	MOH Office - Thelippalai	False	False	JFFNTHLPPLMHFFCTHLPPL		Jaffna	LK-41	9.691792	80.098594	Thelippalay	PS-410104	6.933075	79.857181	9.785272	80.032899	Q2PM+452, Tellippalai, Sri Lanka	317.838063	#CenterFarFromPolice	යාපනය	තෙලිප්පලෙයි	MOH කාර්යාලය - තෙලිප්පලෙයි	யாழ்	தெளிப்பளை	MOH அலுவலகம் - தெல்லிப்பழை	Q2PM+452, තෙලිප්පලෙයි, ශ්‍රී ලංකාව	Q2PM+452, தெல்லிப்பழை, இலங்கை
Jaffna	Waddukkottai	MOH Office – Chankanai	False	False	JFFNWDDKKTTMHFFCCHNKN		Jaffna	LK-41	9.691792	80.098594									#PoliceLocationUnknown	යාපනය	වාද්ඩුක්කොට්ටෙයි	MOH කාර්යාලය - චංකනායි	யாழ்	வாட்டுக்கோட்டை	MOH அலுவலகம் - சங்கனை		
Kilinochchi	Mulankavil	Mulankavil Hospital	False	False	KLNCHCHMLNKVLMLNKVLHSPTL		Kilinochchi	LK-45	9.415742	80.30358	Mulankavil	PS-450135	9.254463	80.141528	9.243423	80.143894	Base Hospital Mulankavil, A32 Road, Mulankavil, Kumulamunai, Sri Lanka	1.255148		කිලිනොච්චි	මුලංකාවිල්	මුලංකාවිල් රෝහල	கிளிநொச்சி	முழங்காவில்	முழங்காவில் மருத்துவமனை	මුලික රෝහල මුලංකාවිල්, ඒ 32 පාර, මුලංකාවිල්, කුමුලමුනෙයි, ශ්‍රී ලංකාව	அடிப்படை மருத்துவமனை முழங்காவில், A32 சாலை, முழங்காவில், குமுலமுனை, இலங்கை
Kilinochchi	Pooneryn	MOH Office – Pooneryn	False	False	KLNCHCHPNRYNMHFFCPNRYN		Kilinochchi	LK-45	9.415742	80.30358	Pooneryn		9.505717	80.21101	9.507968	80.208317	G655+58P, Pooneryn, Sri Lanka	0.387256		කිලිනොච්චි	පුනරීන්	MOH කාර්යාලය - පුනරීන්	கிளிநொச்சி	பூனெரின்	MOH அலுவலகம் - பூனெரின்	ජී 655+58 පී, පූනරීන්, ශ්‍රී ලංකාව	G655+58P, பூனெரின், இலங்கை
Kilinochchi	Kilinochchi	MOH Office – Karachchi	False	False	KLNCHCHKLNCHCHMHFFCKRCHCH		Kilinochchi	LK-45	9.415742	80.30358	Kilinochchi	PS-450131	9.392265	80.407846	7.683586	81.730767	MPMJ+C8J, Kattankudy, Sri Lanka	239.363691	#CenterFarFromPolice	කිලිනොච්චි	කිලිනොච්චි	MOH කාර්යාලය - කරච්චි	கிளிநொச்சி	கிளிநொச்சி	MOH அலுவலகம் - கராச்சி	එම්පීඑම්ජේ+සී 8 ජේ, කාත්තන්කුඩි, ශ්‍රී ලංකාව	MPMJ+C8J, காத்தான்குடி, இலங்கை
Kilinochchi	Kilinochchi	MOH Office - Kandavalai	False	False	KLNCHCHKLNCHCHMHFFCKNDVL		Kilinochchi	LK-45	9.415742	80.30358	Kilinochchi	PS-450131	9.392265	80.407846	9.411006	80.516427	Parantan-Mullaitivu Hwy, Sri Lanka	12.096188		කිලිනොච්චි	කිලිනොච්චි	MOH කාර්යාලය - කඳවලයි	கிளிநொச்சி	கிளிநொச்சி	MOH அலுவலகம் - கண்டாவளை	පරන්තන්-මුලතිව් හ්වි, ශ්‍රී ලංකාව	பரந்தன்-முல்லைத்தீவு, இலங்கை
Kilinochchi	Palei	MOH Office – Palei	False	False	KLNCHCHPLMHFFCPL		Kilinochchi	LK-45	9.415742	80.30358	Palei	PS-450132	6.900777	79.872638	9.610611	80.328165	Office of the Medical Officer for Health, Pallai Pradwshasaba, A9, Pachchilapalli, Sri Lanka	305.555993	#CenterFarFromPolice	කිලිනොච්චි	පලෙයි	MOH කාර්යාලය - පලෙයි	கிளிநொச்சி	பலே	MOH அலுவலகம் - பலே	සෞඛ්‍ය වෛද්‍ය නිලධාරි කාර්යාලය, පලෙයි ප්‍රද්වශසාබා, ඒ 9, පච්චිලපල්ලි, ශ්‍රී ලංකාව	சுகாதார மருத்துவ அதிகாரி அலுவலகம், பளை பிரத்வசாபா, ஏ 9, பச்சிலப்பள்ளி, இலங்கை
Mullaitivu	Mallavi	MOH Office - Mallavi	False	False	MLLTVMLLVMHFFCMLLV		Mullaitivu	LK-44	9.167643	80.549091	Mallavi	PS-440153	9.137878	80.307257	9.136526	80.307948	48P5+J58, Mallavi, Sri Lanka	0.168444		මුලතිව්	මල්ලාවි	MOH කාර්යාලය - මල්ලාවි	முல்லைத்தீவு	மல்லவி	MOH அலுவலகம் - மல்லாவி	48 පී 5+ජේ 58, මල්ලාවි, ශ්‍රී ලංකාව	48P5+J58, மல்லாவி, இலங்கை
Mullaitivu	Welioya	MOH Office - Sampathnuwara	False	False	MLLTVWLYMHFFCSMPTHNWR		Mullaitivu	LK-44	9.167643	80.549091	Welioya	PS-440152	8.980582	80.773572	8.981127	80.771815	XQJC+FP4, Welioya, Sri Lanka	0.20233		මුලතිව්	වැලිඔය	MOH කාර්යාලය - සම්පත්නුවර	முல்லைத்தீவு	வெலிஓயா	MOH அலுவலகம் - சம்பத்நுவரா	XQJC+FP4, වැලිඔය, ශ්‍රී ලංකාව	XQJC+FP4, வெலிஓயா, இலங்கை
Mullaitivu	Mulliyawalai	Vidyananda Maha Vidyalaya	False	False	MLLTVMLLYWLVDYNNDMHVDYLY		Mullaitivu	LK-44	9.167643	80.549091	Muliyaweli	PS-440150	6.915266	79.87829	9.224412	80.782443	6QFJ+QX8, Mulliyawalai, Sri Lanka	275.468998	#CenterFarFromPolice	මුලතිව්	මුල්ලියාවලෙයි	විද්‍යානන්ද මහා විද්‍යාලය	முல்லைத்தீவு	முள்ளியவளை	வித்யானந்த மகா வித்தியாலயம்	6QFJ+QX8, මුල්ලියවලෙයි, ශ්‍රී ලංකාව	6QFJ+QX8, முள்ளியவளை, இலங்கை
Mullaitivu	Puthukudiyiruppu	Medical Superintendent of Health Office	False	False	MLLTVPTHKDYRPPMDCLSPRNTNDNTFHLTHFFC		Mullaitivu	LK-44	9.167643	80.549091	Pudukuduiruppu	PS-440149	7.00152	79.95003	9.320996	80.683002	8MCM+96R, Puthukkudiyiruppu, Sri Lanka	270.320843	#CenterFarFromPolice	මුලතිව්	පුදුකුඩියිරුප්පු	සෞඛ්‍ය අධිකාරී කාර්යාලය	முல்லைத்தீவு	புதுக்குடியிருப்பு	சுகாதார மேற்பார்வையாளர் அலுவலகம்	8MCM+96R, පුදුක්කුඩියිරුප්පු, ශ්‍රී ලංකාව	8 எம்சிஎம்+96 ஆர், புதுக்குடியிருப்பு, இலங்கை
Mullaitivu	Oddusuddan	Medical Superintendent of Health Office	False	False	MLLTVDDSDDNMDCLSPRNTNDNTFHLTHFFC		Mullaitivu	LK-44	9.167643	80.549091	Oddusudan	PS-440151	9.160983	80.652821	9.261573	80.813807	Mullaittivu-Kokkilai Rd, Mullaitivu, Sri Lanka	20.919119	#CenterFarFromPolice	මුලතිව්	ඔඩ්ඩුසුඩාන්	සෞඛ්‍ය අධිකාරී කාර්යාලය	முல்லைத்தீவு	ஒட்டுசுட்டான்	சுகாதார மேற்பார்வையாளர் அலுவலகம்	මුලතිව්-කොකිලායි පාර, මුලතිව්, ශ්‍රී ලංකාව	முல்லைத்தீவு-கொக்கிளாய் சாலை, முல்லைத்தீவு, இலங்கை
Trincomalee	Muttur	MOH Office – Muttur	False	False	TRNCMLMTTRMHFFCMTTR		Trincomalee	LK-53	8.551241	81.092014	Mutur	PS-530138	8.461133	81.259371	8.453916	81.264494	1 Old Batticaloa Rd, Mutur, Sri Lanka	0.980859		ත්රිකුණාමලය	මුතූර්	MOH කාර්යාලය - මුතූර්	திருகோணமலை	மூதூர்	MOH அலுவலகம் - மூதூர்	1 පරණ මඩකලපුව පාර, මුතූර්, ශ්‍රී ලංකාව	1 பழைய மட்டக்களப்பு வீதி, மூதூர், இலங்கை
Trincomalee	Kinniya	MOH Office – Kinniya	False	False	TRNCMLKNNYMHFFCKNNY		Trincomalee	LK-53	8.551241	81.092014	Kinnia	PS-530140	6.907289	79.863819	8.498696	81.179644	F5XH+FVC, Kinniya 31100, Sri Lanka	228.840304	#CenterFarFromPolice	ත්රිකුණාමලය	කින්නියා	MOH කාර්යාලය - කින්නියා	திருகோணமலை	கிண்ணியா	MOH அலுவலகம் - கிண்ணியா	F5XH+FVC, කින්නියා 31100, ශ්‍රී ලංකාව	F5XH+FVC, கிண்ணியா 31100, இலங்கை
Trincomalee	Kinniya	Surangal Rural Health Medical Center	False	False	TRNCMLKNNYSRNGLRRLHLTHMDCLCNTR		Trincomalee	LK-53	8.551241	81.092014	Kinnia	PS-530140	6.907289	79.863819	8.47091	81.139893	F4CQ+9X6, Kinniya, Sri Lanka	223.680372	#CenterFarFromPolice	ත්රිකුණාමලය	කින්නියා	සුරංගල් ග්‍රාමීය සෞඛ්‍ය වෛද්‍ය මධ්‍යස්ථානය	திருகோணமலை	கிண்ணியா	சுரங்கல் கிராம சுகாதார மருத்துவ மையம்	F4CQ+9X6, කින්නියා, ශ්‍රී ලංකාව	F4CQ+9X6, கிண்ணியா, இலங்கை
Trincomalee	Sripura	MOH Office – Sripura	False	False	TRNCMLSRPRMHFFCSRPR		Trincomalee	LK-53	8.551241	81.092014	Sripura	PS-530136	8.929617	80.81428	8.926697	80.814799	Padavi Sripura, Padaviya - Sripura Road, Welioya, Sri Lanka	0.329869		ත්රිකුණාමලය	ශ්‍රීපුර	MOH කාර්යාලය - ශ්‍රීපුර	திருகோணமலை	ஸ்ரீபுரா	MOH அலுவலகம் - ஸ்ரீபுரா	පදවි ශ්‍රීපුර, පදවිය - ශ්‍රීපුර පාර, වැලිඔය, ශ්‍රී ලංකාව	படவி ஸ்ரீபுரா, படாவியா - ஸ்ரீபுரா சாலை, வெலிஓயா, இலங்கை
Trincomalee	Kuchchaveli	MOH Office - Kuchchaveli	False	False	TRNCMLKCHCHVLMHFFCKCHCHVL		Trincomalee	LK-53	8.551241	81.092014	Kuchchaweli	PS-530133	8.81895	81.100438	8.740082	81.161616	P5R6+2JQ, Kumpurupiddi, Sri Lanka	11.053646		ත්රිකුණාමලය	කුච්චවේලි	MOH කාර්යාලය - කුච්චවේලි	திருகோணமலை	குச்சவெளி	MOH அலுவலகம் - குச்சவெளி	P5R6+2JQ, කුඹුරුපිඩි, ශ්‍රී ලංකාව	P5R6+2JQ, கும்புறுப்பிடி, இலங்கை
Trincomalee	Kuchchaveli	Kuchchaveli Hospital	False	False	TRNCMLKCHCHVLKCHCHVLHSPTL		Trincomalee	LK-53	8.551241	81.092014	Kuchchaweli	PS-530133	8.81895	81.100438	8.814795	81.102358	R472+WW9, Kuchchaveli, Sri Lanka	0.508064		ත්රිකුණාමලය	කුච්චවේලි	කුච්චවේලි රෝහල	திருகோணமலை	குச்சவெளி	குச்சவெளி மருத்துவமனை	ආර් 472+WW9, කුච්චවේලි, ශ්‍රී ලංකාව	R472+WW9, குச்சவெளி, இலங்கை
Trincomalee	Kuchchaveli	Divisional Hospital - Nilaveli	False	False	TRNCMLKCHCHVLDVSNLHSPTLNLVL		Trincomalee	LK-53	8.551241	81.092014	Kuchchaweli	PS-530133	8.81895	81.100438	8.681035	81.193632	M5JV+CF6, Nilaveli, Sri Lanka	18.44695		ත්රිකුණාමලය	කුච්චවේලි	ප්‍රාදේශීය රෝහල - නිලාවේලි	திருகோணமலை	குச்சவெளி	பிரதேச மருத்துவமனை - நிலாவெளி	M5JV+CF6, නිලාවේලි, ශ්‍රී ලංකාව	M5JV+CF6, நிலவேலி, இலங்கை
Trincomalee	Pulmoddai	MOH Office - Pulmoddai	False	False	TRNCMLPLMDDMHFFCPLMDD		Trincomalee	LK-53	8.551241	81.092014	Pulmudai	PS-530135	6.915266	79.87829	8.599018	81.217151	H6X8+JV2, Trincomalee, Sri Lanka	238.425888	#CenterFarFromPolice	ත්රිකුණාමලය	පුල්මොඩෙයි	MOH කාර්යාලය - පුල්මොඩෙයි	திருகோணமலை	புல்மோட்டை	MOH அலுவலகம் - புல்மோட்டை	H6X8+JV2, ත්‍රිකුණාමලය, ශ්‍රී ලංකාව	H6X8+JV2, திருகோணமலை, இலங்கை
Trincomalee	Uppuveli	MOH Office - Uppuveli	False	False	TRNCMLPPVLMHFFCPPVL		Trincomalee	LK-53	8.551241	81.092014	Uppuweli	PS-530134	8.593614	81.21743	8.607961	81.216512	Nilaveli Rd, Trincomalee, Sri Lanka	1.599005		ත්රිකුණාමලය	උප්පුවේලි	MOH කාර්යාලය - උප්පුවේලි	திருகோணமலை	உப்புவேலி	MOH அலுவலகம் - உப்புவேலி	නිලාවේලි පාර, ත්‍රිකුණාමලය, ශ්‍රී ලංකාව	நிலவேலி வீதி, திருகோணமலை, இலங்கை
Trincomalee	Harbour Police	MOH Office - Trincomalee	False	False	TRNCMLHRBRPLCMHFFCTRNCML		Trincomalee	LK-53	8.551241	81.092014	Trinco Harbour Police	PS-530131	8.56705	81.231407	8.598974	81.216963	MOH Office, Farm Rd, Trincomalee, Sri Lanka	3.890062		ත්රිකුණාමලය	වරාය පොලිසිය	එම්ඕඑච් කාර්යාලය - ත්‍රිකුණාමලය	திருகோணமலை	துறைமுக காவல்துறை	MOH அலுவலகம் - திருகோணமலை	එම්ඕඑච් කාර්යාලය, ගොවිපල පාර, ත්‍රිකුණාමලය, ශ්‍රී ලංකාව	MOH அலுவலகம், பண்ணை சாலை, திருகோணமலை, இலங்கை
Trincomalee	Harbour Police	Base Hospital - Trincomalee	False	False	TRNCMLHRBRPLCBSHSPTLTRNCML		Trincomalee	LK-53	8.551241	81.092014	Trinco Harbour Police	PS-530131	8.56705	81.231407	8.56486	81.239445	Hospital Ln, Trincomalee, Sri Lanka	0.917037		ත්රිකුණාමලය	වරාය පොලිසිය	මූලික රෝහල - ත්‍රිකුණාමලය	திருகோணமலை	துறைமுக காவல்துறை	அடிப்படை மருத்துவமனை - திருகோணமலை	රෝහල, ත්‍රිකුණාමලය, ශ්‍රී ලංකාව	மருத்துவமனை Ln, திருகோணமலை, இலங்கை
Trincomalee	Thambalagamuwa	MOH Office - Thambalagamuwa	False	False	TRNCMLTHMBLGMWMHFFCTHMBLGMW		Trincomalee	LK-53	8.551241	81.092014	Thambalagamuva	PS-530243	6.907289	79.863819	8.563603	81.239584	Hospital Ln, Trincomalee, Sri Lanka	238.604889	#CenterFarFromPolice	ත්රිකුණාමලය	තඹලගමුව	MOH කාර්යාලය - තඹලගමුව	திருகோணமலை	தம்பலகாமுவா	MOH அலுவலகம் - தம்பலகமுவ	රෝහල, ත්‍රිකුණාමලය, ශ්‍රී ලංකාව	மருத்துவமனை Ln, திருகோணமலை, இலங்கை
Trincomalee	Ichchalampattu	MOH Office - Ichchalampattu	False	False	TRNCMLCHCHLMPTTMHFFCCHCHLMPTT	Eachchilampattu Hospital	Trincomalee	LK-53	8.551241	81.092014	Ichchalampattu		8.289549	81.359002	8.289644	81.358983	Highway, Ichchalampattu, Trincomalee, Sri Lanka	0.010772		ත්රිකුණාමලය	ඉච්චලම්පත්තු	එක්ර්චිලම්පත්තු රෝහල	திருகோணமலை	இச்சலம்பட்டு	ஒவ்வொருசிலம்பட்டு மருத்துவமனை	අධිවේගී මාර්ගය, ඉච්චලම්පත්තු, ත්‍රිකුණාමලය, ශ්‍රී ලංකාව	நெடுஞ்சாலை, ஈச்சலாம்பட்டு, திருகோணமலை, இலங்கை
Trincomalee	Serunuwara	MOH Office - Serunuwara	False	False	TRNCMLSRNWRMHFFCSRNWR		Trincomalee	LK-53	8.551241	81.092014	Serunuwara	PS-530244	8.321863	81.299322	8.323143	81.299894	B10, Sri Lanka	0.155671		ත්රිකුණාමලය	සේරුනුවර	MOH කාර්යාලය - සේරුනුවර	திருகோணமலை	சேருநுவரா	MOH அலுவலகம் - சேருநுவரா	බී 10, ශ්‍රී ලංකාව	பி 10, இலங்கை
Trincomalee	Kantale	MOH Office - Kantale	False	False	TRNCMLKNTLMHFFCKNTL		Trincomalee	LK-53	8.551241	81.092014	Kantale	PS-530241	8.356129	81.007739	8.349617	81.009107	අග්‍රබෝධි මාවත, Kantale, Sri Lanka	0.739809		ත්රිකුණාමලය	කන්තලේ	MOH කාර්යාලය - කන්තලේ	திருகோணமலை	கந்தலே	MOH அலுவலகம் - கந்தலே	වැඩි දියුණු කිරීම මාවත, කන්තලේ, ශ්‍රී ලංකාව	தீவிரப்படுத்தி மாவத்த, கந்தலே, இலங்கை
Batticaloa	Vakarai	MOH Office - Vakarai	False	False	BTTCLVKRMHFFCVKR	Divisional Hospital Vakarai	Batticaloa	LK-51	7.792772	81.486513	Wakarai	PS-510109	6.934132	79.856305	8.134552	81.435328	Trincomalee Hwy, Vakarai, Sri Lanka	219.417822	#CenterFarFromPolice	මඩකලපුව	වාකරේ	වාකරේ ප්‍රාදේශීය රෝහල	மட்டக்களப்பு	வாகரை	வாகரை பிரதேச மருத்துவமனை	ත්‍රිකුණාමලය හ්වි, වාකරේ, ශ්‍රී ලංකාව	திருகோணமலை Hwy, வாகரை, இலங்கை
Batticaloa	Valachchenai	Valachchenai Base Hospital	False	False	BTTCLVLCHCHNVLCHCHNBSHSPTL		Batticaloa	LK-51	7.792772	81.486513	Valachchanai	PS-510107	7.908015	81.533004	7.911315	81.533046	Valaichchenai-Nasuvantivu-Navaladi Road, Sri Lanka	0.367088		මඩකලපුව	වාලච්චේන	වාලච්චේන මූලික රෝහල	மட்டக்களப்பு	வாலாச்சேனை	வாலாச்சேனை ஆதார மருத்துவமனை	වාලච්චේනයි-නසුවන්ටිව්-නවාලාඩි පාර, ශ්‍රී ලංකාව	வாழைச்சேனை-நசுவந்திவு-நாவலடி சாலை, இலங்கை
Batticaloa	Valachchenai	MOH Office - Valachchenai	False	False	BTTCLVLCHCHNMHFFCVLCHCHN		Batticaloa	LK-51	7.792772	81.486513	Valachchanai	PS-510107	7.908015	81.533004	7.912281	81.532775	WG6M+W46, Batticaloa, Sri Lanka	0.475177		මඩකලපුව	වාලච්චේන	MOH කාර්යාලය - වාලච්චේන	மட்டக்களப்பு	வாலாச்சேனை	MOH அலுவலகம் - வாலாச்சேனை	WG6M+W46, මඩකලපුව, ශ්‍රී ලංකාව	WG6M+W46, மட்டக்களப்பு, இலங்கை
Batticaloa	Valachchenai	MOH Office - Oddamavadi	False	False	BTTCLVLCHCHNMHFFCDDMVD		Batticaloa	LK-51	7.792772	81.486513	Valachchanai	PS-510107	7.908015	81.533004	7.912281	81.532775	WG6M+W46, Batticaloa, Sri Lanka	0.475177		මඩකලපුව	වාලච්චේන	එම්ඕඑච් කාර්යාලය - ඔද්දමවඩි	மட்டக்களப்பு	வாலாச்சேனை	MOH அலுவலகம் - ஓட்டமாவடி	WG6M+W46, මඩකලපුව, ශ්‍රී ලංකාව	WG6M+W46, மட்டக்களப்பு, இலங்கை
Batticaloa	Valachchenai	MOH Office - Kiran	False	False	BTTCLVLCHCHNMHFFCKRN		Batticaloa	LK-51	7.792772	81.486513	Valachchanai	PS-510107	7.908015	81.533004	7.502211	79.839254	GR2Q+VPJ, Madampe, Sri Lanka	192.073036	#CenterFarFromPolice	මඩකලපුව	වාලච්චේන	MOH කාර්යාලය - කිරාන්	மட்டக்களப்பு	வாலாச்சேனை	MOH அலுவலகம் - கிரண்	GR2Q+VPJ, මාදම්පේ, ශ්‍රී ලංකාව	GR2Q+VPJ, மாதம்பே, இலங்கை
Batticaloa	Valachchenai	MOH Office - Navallady	False	False	BTTCLVLCHCHNMHFFCNVLLDY		Batticaloa	LK-51	7.792772	81.486513	Valachchanai	PS-510107	7.908015	81.533004	7.912281	81.532775	WG6M+W46, Batticaloa, Sri Lanka	0.475177		මඩකලපුව	වාලච්චේන	MOH කාර්යාලය - නවල්ලඩි	மட்டக்களப்பு	வாலாச்சேனை	MOH அலுவலகம் - நாவல்லடி	WG6M+W46, මඩකලපුව, ශ්‍රී ලංකාව	WG6M+W46, மட்டக்களப்பு, இலங்கை
Batticaloa	Kattankudy	MOH Office - Kattankudy	False	False	BTTCLKTTNKDYMHFFCKTTNKDY		Batticaloa	LK-51	7.792772	81.486513	Kaththankudi	PS-510103	7.715979	81.698757	7.683586	81.730767	MPMJ+C8J, Kattankudy, Sri Lanka	5.042961		මඩකලපුව	කාත්තන්කුඩි	MOH කාර්යාලය - කාත්තන්කුඩි	மட்டக்களப்பு	காத்தான்குடி	MOH அலுவலகம் - காத்தான்குடி	එම්පීඑම්ජේ+සී 8 ජේ, කාත්තන්කුඩි, ශ්‍රී ලංකාව	MPMJ+C8J, காத்தான்குடி, இலங்கை
Batticaloa	Kattankudy	MOH Office - Arayampathy	False	False	BTTCLKTTNKDYMHFFCRYMPTHY		Batticaloa	LK-51	7.792772	81.486513	Kaththankudi	PS-510103	7.715979	81.698757	7.672862	81.735019	MPFP+42R, Sri Lanka	6.243191		මඩකලපුව	කාත්තන්කුඩි	MOH කාර්යාලය - අරයම්පති	மட்டக்களப்பு	காத்தான்குடி	MOH அலுவலகம் - ஆரையம்பதி	එම්පීඑෆ්පී+42 ආර්, ශ්‍රී ලංකාව	MPFP+42R, இலங்கை
Batticaloa	Vavunathivu	MOH Office - Vavunathivu	False	False	BTTCLVVNTHVMHFFCVVNTHV		Batticaloa	LK-51	7.792772	81.486513	Vavunathive	PS-510102	6.933075	79.857181	7.708253	81.691368	Hospital Rd, Batticaloa, Sri Lanka	219.95575	#CenterFarFromPolice	මඩකලපුව	වවුනතිව්	MOH කාර්යාලය - වවුනතිව්	மட்டக்களப்பு	வவுணதீவு	MOH அலுவலகம் - வவுணதீவு	රෝහල පාර, මඩකලපුව, ශ්‍රී ලංකාව	மருத்துவமனை சாலை, மட்டக்களப்பு, இலங்கை
Batticaloa	Batticaloa	MOH Office - Batticaloa	False	False	BTTCLBTTCLMHFFCBTTCL		Batticaloa	LK-51	7.792772	81.486513	Batticaloa	PS-510101	7.717949	81.699294	7.708253	81.691368	Hospital Rd, Batticaloa, Sri Lanka	1.387934		මඩකලපුව	මඩකලපුව	MOH කාර්යාලය - මඩකලපුව	மட்டக்களப்பு	மட்டக்களப்பு	MOH அலுவலகம் - மட்டக்களப்பு	රෝහල පාර, මඩකලපුව, ශ්‍රී ලංකාව	மருத்துவமனை சாலை, மட்டக்களப்பு, இலங்கை
Batticaloa	Eravur	Sandiveli Hospital	False	False	BTTCLRVRSNDVLHSPTL		Batticaloa	LK-51	7.792772	81.486513	Eravur	PS-510104	7.715979	81.698757	7.777289	81.602853	Trincomalee Hwy, Eravur, Sri Lanka	12.578998		මඩකලපුව	එරාවුර්	සඳිවේලි රෝහල	மட்டக்களப்பு	ஏறாவூர்	சண்டிவேலி மருத்துவமனை	ත්‍රිකුණාමලය හ්වි, එරාවුර්, ශ්‍රී ලංකාව	திருகோணமலை Hwy, ஏறாவூர், இலங்கை
Batticaloa	Eravur	MOH Office – Eravur	False	False	BTTCLRVRMHFFCRVR		Batticaloa	LK-51	7.792772	81.486513	Eravur	PS-510104	7.715979	81.698757	7.783664	81.605626	QJM4+F76, Eravur, Sri Lanka	12.729342		මඩකලපුව	එරාවුර්	MOH කාර්යාලය - එරාවුර්	மட்டக்களப்பு	ஏறாவூர்	MOH அலுவலகம் - ஏறாவூர்	QJM4+F76, එරාවුර්, ශ්‍රී ලංකාව	QJM4+F76, ஏறாவூர், இலங்கை
Batticaloa	Eravur	Eravur Hospital	False	False	BTTCLRVRRVRHSPTL		Batticaloa	LK-51	7.792772	81.486513	Eravur	PS-510104	7.715979	81.698757	7.783168	81.605999	QJM4+799, Eravur 30300, Sri Lanka	12.663585		මඩකලපුව	එරාවුර්	එරාවුර් රෝහල	மட்டக்களப்பு	ஏறாவூர்	ஏறாவூர் மருத்துவமனை	QJM4+799, එරාවුර් 30300, ශ්‍රී ලංකාව	QJM4+799, ஏறாவூர் 30300, இலங்கை
Batticaloa	Eravur	GN – Sadath	False	False	BTTCLRVRGNSDTH		Batticaloa	LK-51	7.792772	81.486513	Eravur	PS-510104	7.715979	81.698757	7.784444	81.593982	QHMV+QHH, Chenkaladi, Sri Lanka	13.832634		මඩකලපුව	එරාවුර්	ජීඑන් - සදාත්	மட்டக்களப்பு	ஏறாவூர்	ஜிஎன் - சாதத்	QHMV+QHH, චෙන්කලාඩි, ශ්‍රී ලංකාව	QHMV+QHH, செங்கலடி, இலங்கை
Batticaloa	Eravur	Dewapurami Vidyalaya	False	False	BTTCLRVRDWPRMVDYLY		Batticaloa	LK-51	7.792772	81.486513	Eravur	PS-510104	7.715979	81.698757	7.777732	81.603631	Trincomalee Road, Eravur, Sri Lanka	12.533962		මඩකලපුව	එරාවුර්	දේවපුරමි විද්යාලය	மட்டக்களப்பு	ஏறாவூர்	தேவபுராமி வித்யாலயா	ත්‍රිකුණාමලය පාර, එරාවුර්, ශ්‍රී ලංකාව	திருகோணமலை சாலை, ஏறாவூர், இலங்கை
Batticaloa	Eravur	MOH Office - Chenkaladi	False	False	BTTCLRVRMHFFCCHNKLD		Batticaloa	LK-51	7.792772	81.486513	Eravur	PS-510104	7.715979	81.698757	7.783599	81.593367	Trincomalee Hwy, Chenkaladi 30350, Sri Lanka	13.837876		මඩකලපුව	එරාවුර්	MOH කාර්යාලය - චෙන්කලාඩි	மட்டக்களப்பு	ஏறாவூர்	MOH அலுவலகம் - செங்கலடி	ත්‍රිකුණාමලය හ්වි, චෙන්කලාඩි 30350, ශ්‍රී ලංකාව	திருகோணமலை Hwy, செங்கலடி 30350, இலங்கை
Batticaloa	Eravur	Chenkaladi Hospital	False	False	BTTCLRVRCHNKLDHSPTL		Batticaloa	LK-51	7.792772	81.486513	Eravur	PS-510104	7.715979	81.698757	7.783546	81.589961	Batticaloa Rd, Chenkaladi, Sri Lanka	14.151406		මඩකලපුව	එරාවුර්	චෙන්කලාඩි රෝහල	மட்டக்களப்பு	ஏறாவூர்	செங்கலடி மருத்துவமனை	මඩකලපුව පාර, චෙන්කලාඩි, ශ්‍රී ලංකාව	மட்டக்களப்பு வீதி, செங்கலடி, இலங்கை
Batticaloa	Eravur	MOH Office - Chenkaladi	False	False	BTTCLRVRMHFFCCHNKLD		Batticaloa	LK-51	7.792772	81.486513	Eravur	PS-510104	7.715979	81.698757	7.783599	81.593367	Trincomalee Hwy, Chenkaladi 30350, Sri Lanka	13.837876		මඩකලපුව	එරාවුර්	MOH කාර්යාලය - චෙන්කලාඩි	மட்டக்களப்பு	ஏறாவூர்	MOH அலுவலகம் - செங்கலடி	ත්‍රිකුණාමලය හ්වි, චෙන්කලාඩි 30350, ශ්‍රී ලංකාව	திருகோணமலை Hwy, செங்கலடி 30350, இலங்கை
Batticaloa	Eravur	Mawadiwembu Hospital	False	False	BTTCLRVRMWDWMBHSPTL		Batticaloa	LK-51	7.792772	81.486513	Eravur	PS-510104	7.715979	81.698757	7.808545	81.566328	Mawadiwembu Hospital, Sri Lanka	17.861302		මඩකලපුව	එරාවුර්	මාවඩිවේඹු රෝහල	மட்டக்களப்பு	ஏறாவூர்	மாவடிவெம்பு மருத்துவமனை	මාවඩිවේඹු රෝහල, ශ්‍රී ලංකාව	மாவடிவெம்பு மருத்துவமனை, இலங்கை
Batticaloa	Karadiyanaru	Karadiyanaru Hospital	False	False	BTTCLKRDYNRKRDYNRHSPTL		Batticaloa	LK-51	7.792772	81.486513	Karadiyanaru	PS-510105	7.701992	81.537252	7.700216	81.539779	PG2Q+3WJ, Karadiyanaru, Sri Lanka	0.341482		මඩකලපුව	කරදියනාරු	කරදියනාරු රෝහල	மட்டக்களப்பு	கரடியனாறு	கரடியனாறு மருத்துவமனை	PG2Q+3WJ, කරදියනාරු, ශ්‍රී ලංකාව	PG2Q+3WJ, கரடியனாறு, இலங்கை
Ampara	Chavalakade	MOH Office - Navidanveli	False	False	MPRCHVLKDMHFFCNVDNVL		Ampara	LK-52	7.23699	81.550391	Chawalakade	PS-520125	7.413559	81.776822	7.420081	81.788401	B77, Sri Lanka	1.468805		අම්පාර	චවලකඩේ	MOH කාර්යාලය - නාවිදන්වේලි	அம்பாறை	சவளகடே	MOH அலுவலகம் - நாவிதன்வெளி	බී 77, ශ්‍රී ලංකාව	பி 77, இலங்கை
Ampara	Sainthamarthu	MOH Office – Sainthamarthu	False	False	MPRSNTHMRTHMHFFCSNTHMRTH		Ampara	LK-52	7.23699	81.550391									#PoliceLocationUnknown	අම්පාර	සයින්දමර්තු	MOH කාර්යාලය - සයින්දමර්තු	அம்பாறை	சாய்ந்தமருது	MOH அலுவலகம் - சாய்ந்தமருது		
Ampara	Karaitivu	MOH Office – Karaitivu	False	False	MPRKRTVMHFFCKRTV		Ampara	LK-52	7.23699	81.550391	Karaitivu		9.744059	79.870587	7.377712	81.838796	Colombo-Ratnapura-Wellawaya-Batticaloa Highway, Karativu 32250, Sri Lanka	340.788666	#CenterFarFromPolice	අම්පාර	කාරතිව්	MOH කාර්යාලය - කරෙයිතිව්	அம்பாறை	காரைதீவு	MOH அலுவலகம் - காரைதீவு	කොළඹ-රත්නපුර-වැල්ලවාය-මඩකලපුව අධිවේගී මාර්ගය, කරතිවු 32250, ශ්‍රී ලංකාව	கொழும்பு-இரத்தினபுரி-வெள்ளவாயா-மட்டக்களப்பு நெடுஞ்சாலை, காரடிவு 32250, இலங்கை
Ampara	Kalmunai	MOH Office - Kalmunai South	False	False	MPRKLMNMHFFCKLMNSTH		Ampara	LK-52	7.23699	81.550391	Kalmunai	PS-520123	7.414289	81.825006	7.411712	81.838462	CR6Q+M9P, Kalmunai 32300, Sri Lanka	1.511625		අම්පාර	කල්මුණේ	MOH කාර්යාලය - කල්මුණේ දකුණ	அம்பாறை	கல்முனை	MOH அலுவலகம் - கல்முனை தெற்கு	CR6Q+M9P, කල්මුණේ 32300, ශ්‍රී ලංකාව	CR6Q+M9P, கல்முனை 32300, இலங்கை
Ampara	Kalmunai	MOH Office - Kalmunai North	False	False	MPRKLMNMHFFCKLMNNRTH		Ampara	LK-52	7.23699	81.550391	Kalmunai	PS-520123	7.414289	81.825006	7.411712	81.838462	CR6Q+M9P, Kalmunai 32300, Sri Lanka	1.511625		අම්පාර	කල්මුණේ	MOH කාර්යාලය - කල්මුණේ උතුර	அம்பாறை	கல்முனை	MOH அலுவலகம் - கல்முனை வடக்கு	CR6Q+M9P, කල්මුණේ 32300, ශ්‍රී ලංකාව	CR6Q+M9P, கல்முனை 32300, இலங்கை
Ampara	Sammanthurai	MOH Office - Sammanthurai	False	False	MPRSMMNTHRMHFFCSMMNTHR		Ampara	LK-52	7.23699	81.550391	Samanthurai	PS-520124	7.365785	81.810859	7.369857	81.812264	9R96+WWR, Sammanthurai, Sri Lanka	0.478712		අම්පාර	සමන්තුරේ	MOH කාර්යාලය - සම්මන්තුරේ	அம்பாறை	சம்மாந்துறை	MOH அலுவலகம் - சம்மாந்துறை	9R96+ඩබ්ලිව්ඩබ්ලිව්ආර්, සම්මන්තුරේ, ශ්‍රී ලංකාව	9R96+WWR, சம்மாந்துறை, இலங்கை
Ampara	Sammanthurai	MOH Office - Nintavur	False	False	MPRSMMNTHRMHFFCNNTVR		Ampara	LK-52	7.23699	81.550391	Samanthurai	PS-520124	7.365785	81.810859	7.352821	81.856939	Hospital Rd, Nintavur 32340, Sri Lanka	5.283925		අම්පාර	සමන්තුරේ	එම්ඕඑච් කාර්යාලය - නින්දවූර්	அம்பாறை	சம்மாந்துறை	MOH அலுவலகம் - நிந்தவூர்	රෝහල පාර, නින්දවූර් 32340, ශ්‍රී ලංකාව	மருத்துவமனை Rd, நிந்தவூர் 32340, இலங்கை
Ampara	Pottuvil	MOH Office - Pottuvil	False	False	MPRPTTVLMHFFCPTTVL		Ampara	LK-52	7.23699	81.550391	Pothuvil	PS-520128	6.878387	81.826859	6.877076	81.828969	B374, Pottuvil, Sri Lanka	0.274874		අම්පාර	පොතුවිල්	එම්ඕඑච් කාර්යාලය - පොතුවිල්	அம்பாறை	பொட்டுவில்	MOH அலுவலகம் - பொத்துவில்	බී 374, පොතුවිල්, ශ්‍රී ලංකාව	B374, பொத்துவில், இலங்கை
