district	police	center	dose1	dose2	fuzzy_key	alt_name	district_name_norm	district_id	district_lat	district_lng	ps_name_norm	ps_id	ps_lat	ps_lng	lat	lng	formatted_address	dis_center_to_police	tags	district_si	police_si	center_si	district_ta	police_ta	center_ta	formatted_address_si	formatted_address_ta
Colombo	Cinnamon Gardens	Viharamahadevi Park	False	False	CLMBCNNMNGRDNSVHRMHDVPRK		Colombo	LK-11	6.869636	80.019598	Cinnamon Garden	PS-110324	6.907289	79.863819	6.913391	79.86174	Viharamahadevi Park, Colombo, Sri Lanka	0.716497		කොළඹ	කුරුඳු උද්‍යාන	විහාරමහාදේවි උද්‍යානය	கொழும்பு	இலவங்கப்பட்டை தோட்டங்கள்	விஹாரமஹாதேவி பூங்கா	විහාරමහාදේවි උද්‍යානය, කොළඹ, ශ්‍රී ලංකාව	விஹாரமஹாதேவி பூங்கா, கொழும்பு, இலங்கை
Colombo	Narahenpita	Army Hospital Narahenpita	False	False	CLMBNRHNPTRMYHSPTLNRHNPT		Colombo	LK-11	6.869636	80.019598	Narahenpita	PS-110321	6.891832	79.876715	6.900252	79.87618	08 Elvitigala Mawatha, Colombo 00800, Sri Lanka	0.938417		කොළඹ	නාරාහේන්පිට	නාරාහේන්පිට හමුදා රෝහල	கொழும்பு	நரஹேன்பிட்ட	இராணுவ மருத்துவமனை நாரஹேன்பிட்ட	08 ඇල්විටිගල මාවත, කොළඹ 00800, ශ්‍රී ලංකාව	08 எல்விட்டிகல மாவத்தை, கொழும்பு 00800, இலங்கை
Colombo	Boralesgamuwa	Kotelawala Defence Hospital	False	False	CLMBBRLSGMWKTLWLDFNCHSPTL		Colombo	LK-11	6.869636	80.019598	Boralesgamuwa	PS-110464	6.841331	79.901255	6.82518	79.907167	RWG4+3VF, Boralesgamuwa, Sri Lanka	1.911444		කොළඹ	බොරලැස්ගමුව	කොතලාවල ආරක්‍ෂක රෝහල	கொழும்பு	பொரலஸ்கமுவா	கொத்தலாவல பாதுகாப்பு மருத்துவமனை	RWG4+3VF, බොරලැස්ගමුව, ශ්‍රී ලංකාව	RWG4+3VF, பொரலஸ்கமுவா, இலங்கை
Colombo	Fort	Navy Headquarters	False	False	CLMBFRTNVYHDQRTRS		Colombo	LK-11	6.869636	80.019598	Fort	PS-110105	6.9334	79.842895	6.936952	79.842104	WRPR+QRQ, Colombo, Sri Lanka	0.404627		කොළඹ	කොටුව	නාවික හමුදා මූලස්ථානය	கொழும்பு	கோட்டை	கடற்படை தலைமையகம்	WRPR+QRQ, කොළඹ, ශ්‍රී ලංකාව	WRPR+QRQ, கொழும்பு, இலங்கை
Colombo	Wellampitiya	MOH Office - Kolonnawa	False	False	CLMBWLLMPTYMHFFCKLNNW		Colombo	LK-11	6.869636	80.019598	Wellampitiya	PS-110465	6.937514	79.896298	6.938303	79.889664	25 Pansalhena 1st Ln, 10600, Sri Lanka	0.737734		කොළඹ	වැල්ලම්පිටිය	MOH කාර්යාලය - කොළොන්නාව	கொழும்பு	வெல்லம்பிட்டிய	MOH அலுவலகம் - கொலன்னாவா	25 පන්සල්හේන 1 වන අංකය, 10600, ශ්‍රී ලංකාව	25 பன்சால்ஹேனா 1 வது எண், 10600, இலங்கை
Colombo	Mulleriyawa	MOH Office - Gothatuwa	False	False	CLMBMLLRYWMHFFCGTHTW		Colombo	LK-11	6.869636	80.019598	Mulleriyawa	PS-110469	6.927187	79.929108	6.922088	79.916237	Mandavila Rd, Kotikawatta, Sri Lanka	1.530186		කොළඹ	මුල්ලේරියාව	MOH කාර්යාලය - ගොතටුව	கொழும்பு	முல்லேரியாவா	MOH அலுவலகம் - கோததுவா	මණ්ඩවිල පාර, කොටිකාවත්ත, ශ්‍රී ලංකාව	மண்டவில வீதி, கொட்டிகாவத்த, இலங்கை
Colombo	Kaduwela	MOH Office - Kaduwela	False	False	CLMBKDWLMHFFCKDWL		Colombo	LK-11	6.869636	80.019598	Kaduwela		6.936234	79.970183	6.934127	79.984398	B263, Kaduwela, Sri Lanka	1.586964		කොළඹ	කඩුවෙල	MOH කාර්යාලය - කඩුවෙල	கொழும்பு	கடுவெல	MOH அலுவலகம் - கடுவெல	බී 263, කඩුවෙල, ශ්‍රී ලංකාව	பி 263, கடுவெல, இலங்கை
Colombo	Kosgama	Kosgama Hospital	False	False	CLMBKSGMKSGMHSPTL		Colombo	LK-11	6.869636	80.019598	Kosgama	PS-920227	6.946597	80.137869	6.940956	80.124888	Salawa-Akarawita, 10730, Sri Lanka	1.564606		කොළඹ	කොස්ගම	කොස්ගම රෝහල	கொழும்பு	கொஸ்கம	கொஸ்கம மருத்துவமனை	සාලාව-අකරවිට, 10730, ශ්‍රී ලංකාව	சலாவா-அகரவிட, 10730, இலங்கை
Colombo	Mt Lavinia	Attidiya Maternity Clinic	False	False	CLMBMTLVNTTDYMTRNTYCLNC		Colombo	LK-11	6.869636	80.019598	Mount Lavinia	PS-110577	6.825006	79.87009	6.838329	79.884674	243 Attidiya Rd, Dehiwala-Mount Lavinia, Sri Lanka	2.188674		කොළඹ	ගල්කිස්ස	අත්තිඩිය මාතෘ සායනය	கொழும்பு	கல்கிசை	அத்திடியா மகப்பேறு மருத்துவமனை	243 අත්තිඩිය පාර, දෙහිවල-ගල්කිස්ස, ශ්‍රී ලංකාව	243 அத்திடியா வீதி, தெஹிவளை-கல்கிசை, இலங்கை
Gampaha	Gampaha	MOH Office - Gampaha	False	False	GMPHGMPHMHFFCGMPH		Gampaha	LK-12	7.123598	80.018508	Gampaha	PS-120237	7.087765	80.01228	7.090643	80.002094	Colombo Rd, Gampaha, Sri Lanka	1.16901		ගම්පහ	ගම්පහ	MOH කාර්යාලය - ගම්පහ	கம்பஹா	கம்பஹா	MOH அலுவலகம் - கம்பஹா	කොළඹ පාර, ගම්පහ, ශ්‍රී ලංකාව	கொழும்பு வீதி, கம்பஹா, இலங்கை
Gampaha	Gampaha	Municipal Council, Gampaha	False	False	GMPHGMPHMNCPLCNCLGMPH		Gampaha	LK-12	7.123598	80.018508	Gampaha	PS-120237	7.087765	80.01228	7.093995	79.997019	3XVW+HRR, Gampaha, Sri Lanka	1.821461		ගම්පහ	ගම්පහ	නගර සභාව, ගම්පහ	கம்பஹா	கம்பஹா	மாநகர சபை, கம்பஹா	3XVW+මානව සම්පත්, ගම්පහ, ශ්‍රී ලංකාව	3XVW+HRR, கம்பஹா, இலங்கை
Gampaha	Kadawata	MOH Office - Mahara	False	False	GMPHKDWTMHFFCMHR		Gampaha	LK-12	7.123598	80.018508	Kadawatha	PS-120136	7.00152	79.95003	7.020757	79.973481	Mahara, Eldeniya, Sri Lanka	3.358732		ගම්පහ	කඩවත	MOH කාර්යාලය - මහර	கம்பஹா	கடவாடா	MOH அலுவலகம் - மஹாரா	මහර, ඇල්දෙනිය, ශ්‍රී ලංකාව	மஹாரா, எல்டெனியா, இலங்கை
Gampaha	Kadawata	Akbar Town Rahula College	False	False	GMPHKDWTKBRTWNRHLCLLG		Gampaha	LK-12	7.123598	80.018508	Kadawatha	PS-120136	7.00152	79.95003	6.991591	79.911574	Akbar Town, Sri Lanka	4.386894		ගම්පහ	කඩවත	අක්බර් ටවුන් රාහුල විද්‍යාලය	கம்பஹா	கடவாடா	அக்பர் டவுன் ராகுலா கல்லூரி	අක්බර් නගරය, ශ්‍රී ලංකාව	அக்பர் டவுன், இலங்கை
Gampaha	Kadawata	Bodhiloka Vidyalaya	False	False	GMPHKDWTBDHLKVDYLY		Gampaha	LK-12	7.123598	80.018508	Kadawatha	PS-120136	7.00152	79.95003	7.012507	79.953464	Kadawatha - Ganemulla Rd, Kadawatha, Sri Lanka	1.279535		ගම්පහ	කඩවත	බෝධිලෝක විද්‍යාලය	கம்பஹா	கடவாடா	போதிலோக வித்யாலயா	කඩවත - ගණේමුල්ල පාර, කඩවත, ශ්‍රී ලංකාව	கடவத்த - கணேமுல்லா வீதி, கடவத்தை, இலங்கை
Gampaha	Kadawata	Sooriyarachchi Vidyalaya	False	False	GMPHKDWTSRYRCHCHVDYLY		Gampaha	LK-12	7.123598	80.018508	Kadawatha	PS-120136	7.00152	79.95003	6.9983	79.987381	Gonahena Rd, Kadawatha 11940, Sri Lanka	4.139104		ගම්පහ	කඩවත	සූරියආරච්චි විද්‍යාලය	கம்பஹா	கடவாடா	சூரியாராச்சி வித்யாலயா	ගෝනහේන පාර, කඩවත 11940, ශ්‍රී ලංකාව	கோனாஹேனா சாலை, கடவத்த 11940, இலங்கை
Gampaha	Kelaniya	Makulugahawatta Vidyalaya	False	False	GMPHKLNYMKLGHWTTVDYLY		Gampaha	LK-12	7.123598	80.018508	Kelaniya	PS-120126	6.950251	79.917459	6.961405	79.901248	Waragoda Road , Kelaniya, Peliyagoda, Sri Lanka	2.177817		ගම්පහ	කැලණිය	මකුළුගහවත්ත විද්‍යාලය	கம்பஹா	களனி	மகுலுகஹவத்த வித்தியாலயம்	වරගොඩ පාර, කැලණිය, පෑලියගොඩ, ශ්‍රී ලංකාව	வராகொட வீதி, களனி, பேலியகொட, இலங்கை
Gampaha	Meegahawatta	Delgoda Kalyani Pradeepa Pirivena	False	False	GMPHMGHWTTDLGDKLYNPRDPPRVN		Gampaha	LK-12	7.123598	80.018508	Meegahawatta	PS-120132	6.988968	80.000356	6.989781	80.016017	No: 333, Delgoda, Delgoda 11700, Sri Lanka	1.731389		ගම්පහ	මීගහවත්ත	දෙල්ගොඩ කල්‍යාණි ප්‍රදීපා පිරිවෙන	கம்பஹா	மீகஹவத்த	தெல்கொட கல்யாணி பிரதீபா பிரிவேனா	අංක: 333, දෙල්ගොඩ, දෙල්ගොඩ 11700, ශ්‍රී ලංකාව	எண்: 333, தெல்கொட, தெல்கொட 11700, இலங்கை
Gampaha	Kiribathgoda	Eriyawetiya Sumanarama Viharaya	False	False	GMPHKRBTHGDRYWTYSMNRMVHRY		Gampaha	LK-12	7.123598	80.018508	Kiribathgoda	PS-120135	6.978005	79.929433	6.98594	79.918396	XWP9+99C, 11300, Sri Lanka	1.504606		ගම්පහ	කිරිබත්ගොඩ	ඊරියවැටිය සුමනාරාම විහාරය	கம்பஹா	கிரிபத்கோடா	எரியவெட்டிய சுமணராம விஹாராயா	XWP9+99C, 11300, ශ්‍රී ලංකාව	XWP9+99C, 11300, இலங்கை
Gampaha	Biyagama	MOH Office - Biyagama	False	False	GMPHBYGMMHFFCBYGM		Gampaha	LK-12	7.123598	80.018508	Biyagama	PS-120131	6.962284	80.009037	6.946824	79.994052	Hospital Rd, Sri Lanka	2.386313		ගම්පහ	බියගම	MOH කාර්යාලය - බියගම	கம்பஹா	பியகம	MOH அலுவலகம் - பியாகம	රෝහල පාර, ශ්‍රී ලංකාව	மருத்துவமனை Rd, இலங்கை
Gampaha	Minuwangoda	Galahitiyawa Central College	False	False	GMPHMNWNGDGLHTYWCNTRLCLLG		Gampaha	LK-12	7.123598	80.018508	Minuwangoda	PS-120238	7.174215	79.957874	7.069576	79.953719	Ganemulla-JaEla Road, Ganemulla 11020, Sri Lanka	11.64801		ගම්පහ	මිනුවන්ගොඩ	ගලහිටියාව මධ්‍ය විද්‍යාලය	கம்பஹா	மினுவாங்கொட	கலாஹிதியாவா மத்திய கல்லூரி	ගණේමුල්ල-ජාඇල පාර, ගණේමුල්ල 11020, ශ්‍රී ලංකාව	கணேமுல்லா-ஜேஎலா சாலை, கணேமுல்லா 11020, இலங்கை
Gampaha	Minuwangoda	Dewalapola Viharaya	False	False	GMPHMNWNGDDWLPLVHRY		Gampaha	LK-12	7.123598	80.018508	Minuwangoda	PS-120238	7.174215	79.957874	7.161204	79.991999	Dewalapola, Sri Lanka	4.03455		ගම්පහ	මිනුවන්ගොඩ	දේවලපොළ විහාරය	கம்பஹா	மினுவாங்கொட	தேவலபொல விஹாராயா	දේවලපොළ, ශ්‍රී ලංකාව	தேவலபொல, இலங்கை
Gampaha	Minuwangoda	Medagamuwa Maha Vidyalaya	False	False	GMPHMNWNGDMDGMWMHVDYLY		Gampaha	LK-12	7.123598	80.018508	Minuwangoda	PS-120238	7.174215	79.957874	7.169788	79.951621	11550, Katunayake-Veyangoda Rd, Minuwangoda, Sri Lanka	0.84775		ගම්පහ	මිනුවන්ගොඩ	මැදගමුව මහා විද්‍යාලය	கம்பஹா	மினுவாங்கொட	மெடகமுவ மகா வித்தியாலயம்	11550, කටුනායක-වේයන්ගොඩ පාර, මිනුවන්ගොඩ, ශ්‍රී ලංකාව	11550, கட்டுநாயக்க-வெயங்கொட வீதி, மினுவாங்கொட, இலங்கை
Gampaha	Pugoda	MOH Office - Dompe	False	False	GMPHPGDMHFFCDMP		Gampaha	LK-12	7.123598	80.018508	Pugoda	PS-120241	6.98283	80.111189	6.976767	80.117422	Dompe, Pugoda-Mandawala Rd, Pugoda, Sri Lanka	0.963513		ගම්පහ	පූගොඩ	MOH කාර්යාලය - දොම්පේ	கம்பஹா	புகோடா	MOH அலுவலகம் - Dompe	දොම්පේ, පූගොඩ-මණ්ඩාවල පාර, පූගොඩ, ශ්‍රී ලංකාව	டோம்பே, புகோடா-மண்டவாலா சாலை, புகோடா, இலங்கை
Gampaha	Ja Ela	MOH Office - Ja Ela	False	False	GMPHJLMHFFCJL		Gampaha	LK-12	7.123598	80.018508	Ja - Ela	PS-120133	7.081055	79.890504	7.075216	79.893879	60 Mount Kalvary Rd, Ja-Ela, Sri Lanka	0.748731		ගම්පහ	ජා ඇල	MOH කාර්යාලය - ජා ඇල	கம்பஹா	ஜா எல	MOH அலுவலகம் - ஜா எல	60 කල්වාරි පාර, ජා-ඇල, ශ්‍රී ලංකාව	60 மவுண்ட் கல்வாரி சாலை, ஜா-எல, இலங்கை
Gampaha	Wattala	MOH Office - Wattala	False	False	GMPHWTTLMHFFCWTTL		Gampaha	LK-12	7.123598	80.018508	Wattala	PS-120128	6.993713	79.894506	6.995817	79.885793	301 Hendala Rd, Wattala, Sri Lanka	0.989991		ගම්පහ	වත්තල	MOH කාර්යාලය - වත්තල	கம்பஹா	வத்தளை	MOH அலுவலகம் - வத்தளை	301 හැඳල පාර, වත්තල, ශ්‍රී ලංකාව	301 ஹெந்தலா சாலை, வத்தளை, இலங்கை
Gampaha	Ragama	MOH Office - Ragama	False	False	GMPHRGMMHFFCRGM		Gampaha	LK-12	7.123598	80.018508	Ragama	PS-120134	7.034975	79.924148	7.027386	79.920232	2WGC+X35, Ragama, Sri Lanka	0.948382		ගම්පහ	රාගම	MOH කාර්යාලය - රාගම	கம்பஹா	ராகம	MOH அலுவலகம் - ராகம	2WGC+X35, රාගම, ශ්‍රී ලංකාව	2WGC+X35, ராகம, இலங்கை
Gampaha	Divulapitiya	MOH Office - Divulapitiya	False	False	GMPHDVLPTYMHFFCDVLPTY		Gampaha	LK-12	7.123598	80.018508	Diulapitiya	PS-120355	7.174215	79.957874	7.215486	80.013606	6287+5CX, Divulapitiya, Sri Lanka	7.67456		ගම්පහ	දිවුලපිටිය	එම්ඕඑච් කාර්යාලය - දිවුලපිටිය	கம்பஹா	திவுலபிட்டிய	MOH அலுவலகம் - திவுலபிட்டிய	6287+5CX, දිවුලපිටිය, ශ්‍රී ලංකාව	6287+5CX, திவுலபிட்டிய, இலங்கை
Gampaha	Seeduwa	MOH Office - Seeduwa	False	False	GMPHSDWMHFFCSDW		Gampaha	LK-12	7.123598	80.018508	Seeduwa	PS-120356	7.128721	79.877371	7.131527	79.879964	24 Kotugoda Rd, Katunayake 11410, Sri Lanka	0.423459		ගම්පහ	සීදුව	MOH කාර්යාලය - සීදුව	கம்பஹா	சீதுவா	MOH அலுவலகம் - சீதுவா	24 කොටුගොඩ පාර, කටුනායක 11410, ශ්‍රී ලංකාව	24 கொடுகொட வீதி, கட்டுநாயக்க 11410, இலங்கை
Gampaha	Mirigama	Mugurugampola Viharaya	False	False	GMPHMRGMMGRGMPLVHRY		Gampaha	LK-12	7.123598	80.018508	Meerigama	PS-120248	7.245169	80.128647	7.24658	80.119978	Negombo - Mirigama Rd, Mirigama, Sri Lanka	0.969341		ගම්පහ	මීරිගම	මුගුරුගම්පොල විහාරය	கம்பஹா	மீரிகம	முருகுகம்போல விஹாராயா	මීගමුව - මීරිගම පාර, මීරිගම, ශ්‍රී ලංකාව	நீர்கொழும்பு - மீரிகம வீதி, மீரிகம, இலங்கை
Gampaha	Pallewela	Pallewela Government Dispensary	False	False	GMPHPLLWLPLLWLGVRNMNTDSPNSRY		Gampaha	LK-12	7.123598	80.018508	Pallewela	PS-120249	7.197365	80.094856	7.197393	80.094227	Kaleliya - Medagampitiya Rd, Pallewela, Sri Lanka	0.069482		ගම්පහ	පල්ලෙවෙල	පල්ලෙවෙල රජයේ බෙහෙත් ශාලාව	கம்பஹா	பல்லெவெல	பல்லெவெல அரசு மருந்தகம்	කලෙළිය - මැදගම්පිටිය පාර, පල්ලෙවෙල, ශ්‍රී ලංකාව	கலேலியா - மேடகம்பிட்டிய வீதி, பல்லெவெல, இலங்கை
Gampaha	Nittambuwa	Al-Azhar College	False	False	GMPHNTTMBWLZHRCLLG		Gampaha	LK-12	7.123598	80.018508	Nittambuwa	PS-120246	7.149726	80.10046	7.121335	80.072386	43CC+GXJ, Kalagedihena, Sri Lanka	4.424148		ගම්පහ	නිට්ටඹුව	අල්-අසාර් විද්‍යාලය	கம்பஹா	நிட்டம்புவா	அல்-அசார் கல்லூரி	43CC+GXJ, කලගෙඩිහේන, ශ්‍රී ලංකාව	43CC+GXJ, கலகெடிஹேனா, இலங்கை
Gampaha	Bemmulla	Pitiyegedara Maha Vidyalaya	False	False	GMPHBMMLLPTYGDRMHVDYLY		Gampaha	LK-12	7.123598	80.018508	Bemmulla		7.120846	80.026097	7.119759	80.024581	429F+WR4, Bemmulla, Sri Lanka	0.206371		ගම්පහ	බෙම්මුල්ල	පිටියේගෙදර මහා විද්‍යාලය	கம்பஹா	பெம்முல்லா	பிதியேகெதர மகா வித்தியாலயம்	429 එෆ්+ඩබ්ලිව්ආර් 4, බෙම්මුල්ල, ශ්‍රී ලංකාව	429F+WR4, பெம்முல்லா, இலங்கை
Kalutara	Kalutara South	NIHS	False	False	KLTRKLTRSTHNHS		Kalutara	LK-13	6.577316	80.127363	Kalutara South	PS-130296	6.58486	79.961043	6.55864	79.977416	HX5G+FX3, Katukurunda, Sri Lanka	3.432035		කළුතර	කළුතර දකුණ	NIHS	களுத்துறை	களுத்துறை தெற்கு	என்ஐஎச்எஸ்	HX5G+FX3, කටුකුරුන්ද, ශ්‍රී ලංකාව	HX5G+FX3, கட்டுக்குருந்தா, இலங்கை
Kalutara	Beruwala	MOH Office - Beruwala	False	False	KLTRBRWLMHFFCBRWL		Kalutara	LK-13	6.577316	80.127363	Beruwala	PS-1302102	6.480329	79.983498	6.437559	79.999356	CXQX+2PH, Aluthgama, Sri Lanka	5.069893		කළුතර	බේරුවල	MOH කාර්යාලය - බේරුවල	களுத்துறை	பேருவளை	MOH அலுவலகம் - பேருவளை	CXQX+2PH, අළුත්ගම, ශ්‍රී ලංකාව	CXQX+2PH, அளுத்கம, இலங்கை
Kalutara	Agalawatta	Pimbura Hospital	False	False	KLTRGLWTTPMBRHSPTL		Kalutara	LK-13	6.577316	80.127363	Agalawatta		6.542566	80.157178	6.575949	80.158371	H5G5+98H, කළුතර, Sri Lanka	3.715525		කළුතර	අගලවත්ත	පිඹුර රෝහල	களுத்துறை	அகலவத்தை	பிம்புரா மருத்துவமனை	H5G5+98H, කළුතර, ශ්‍රී ලංකාව	H5G5+98H, கருப்புதர, இலங்கை
Kalutara	Agalawatta	MOH Office - Agalawatta	False	False	KLTRGLWTTMHFFCGLWTT		Kalutara	LK-13	6.577316	80.127363	Agalawatta		6.542566	80.157178	6.523544	80.126443	G4FG+CH8, Matugama, Sri Lanka	4.001473		කළුතර	අගලවත්ත	MOH කාර්යාලය - අගලවත්ත	களுத்துறை	அகலவத்தை	MOH அலுவலகம் - அகலவத்தை	G4FG+CH8, මතුගම, ශ්‍රී ලංකාව	G4FG+CH8, மத்துகம, இலங்கை
Kalutara	Bulathsinhala	Bothalegama Maha Vidyalaya	False	False	KLTRBLTHSNHLBTHLGMMHVDYLY		Kalutara	LK-13	6.577316	80.127363	Bulathsinhala	PS-1302104	6.650425	80.17703	6.704892	80.169849	P539+XW5, Bulathsinhala, Sri Lanka	6.11009		කළුතර	බුලත්සිංහල	බෝතලේගම මහා විද්‍යාලය	களுத்துறை	புலத்சிங்களா	பொத்தலகம மகா வித்தியாலயம்	P539+XW5, බුලත්සිංහල, ශ්‍රී ලංකාව	P539+XW5, புலத்சிங்கள, இலங்கை
Kalutara	Welipenna	Walagedara Health Centre	False	False	KLTRWLPNNWLGDRHLTHCNTR		Kalutara	LK-13	6.577316	80.127363	Welipanna	PS-1302101	6.467428	80.108313	6.449918	80.079334	Walagedara, Sri Lanka	3.748555		කළුතර	වැලිපැන්න	වලගෙදර සෞඛ්‍ය මධ්‍යස්ථානය	களுத்துறை	வெலிபென்னா	வலகெதரா சுகாதார மையம்	වලගෙදර, ශ්‍රී ලංකාව	வலகெதரா, இலங்கை
Kalutara	Welipenna	Horawala Health Centre	False	False	KLTRWLPNNHRWLHLTHCNTR		Kalutara	LK-13	6.577316	80.127363	Welipanna	PS-1302101	6.467428	80.108313	6.483632	80.126611	Aluthgama - Mathugama Rd, Horawala, Sri Lanka	2.708915		කළුතර	වැලිපැන්න	හොරවල සෞඛ්‍ය මධ්‍යස්ථානය	களுத்துறை	வெலிபென்னா	ஹோராவாலா சுகாதார மையம்	අලුත්ගම - මතුගම පාර, හොරවල, ශ්‍රී ලංකාව	அளுத்கம - மத்துகம வீதி, ஹொரவல, இலங்கை
Kalutara	Wadduwa	Pothupitiya Walukarama Viharaya	False	False	KLTRWDDWPTHPTYWLKRMVHRY		Kalutara	LK-13	6.577316	80.127363	Wadduwa	PS-130188	6.664403	79.929851	6.641789	79.940081	Galle Road A2, Wadduwa, Sri Lanka	2.757605		කළුතර	වාද්දුව	පොතුපිටිය වාලුකාරාම විහාරය	களுத்துறை	வாத்துவா	பொதுப்பிட்டி வழுகாராம விகாரை	ගාලු පාර ඒ 2, වාද්දුව, ශ්‍රී ලංකාව	காலி சாலை ஏ 2, வாட்டுவா, இலங்கை
Kalutara	Millaniya	MOH Office - Millaniya	False	False	KLTRMLLNYMHFFCMLLNY		Kalutara	LK-13	6.577316	80.127363	Millaniya	PS-130191	6.681692	80.020847	6.724224	79.907284	A2, Panadura, Sri Lanka	13.407612		කළුතර	මිල්ලනිය	MOH කාර්යාලය - මිල්ලනිය	களுத்துறை	மில்லனியா	MOH அலுவலகம் - மில்லனியா	ඒ 2, පානදුර, ශ්‍රී ලංකාව	ஏ 2, பாணந்துரா, இலங்கை
Kalutara	Matugama	MOH Office - Matugama	False	False	KLTRMTGMMHFFCMTGM		Kalutara	LK-13	6.577316	80.127363	Mathugama	PS-1302103	6.520881	80.117908	6.523544	80.126443	G4FG+CH8, Matugama, Sri Lanka	0.988725		කළුතර	මතුගම	MOH කාර්යාලය - මතුගම	களுத்துறை	மத்துகம	MOH அலுவலகம் - மத்துகம	G4FG+CH8, මතුගම, ශ්‍රී ලංකාව	G4FG+CH8, மத்துகம, இலங்கை
Kalutara	Matugama	MOH Office - Matugama	False	False	KLTRMTGMMHFFCMTGM		Kalutara	LK-13	6.577316	80.127363	Mathugama	PS-1302103	6.520881	80.117908	6.523544	80.126443	G4FG+CH8, Matugama, Sri Lanka	0.988725		කළුතර	මතුගම	MOH කාර්යාලය - මතුගම	களுத்துறை	மத்துகம	MOH அலுவலகம் - மத்துகம	G4FG+CH8, මතුගම, ශ්‍රී ලංකාව	G4FG+CH8, மத்துகம, இலங்கை
Kalutara	Matugama	Weththewa Hospital	False	False	KLTRMTGMWTHTHWHSPTL		Kalutara	LK-13	6.577316	80.127363	Mathugama	PS-1302103	6.520881	80.117908	6.523087	80.125192	District Hospital, Hospital Road,Weththewa,., Matugama, Sri Lanka	0.841523		කළුතර	මතුගම	වෙත්තෑව රෝහල	களுத்துறை	மத்துகம	வெத்தேவா மருத்துவமனை	දිසා රෝහල, රෝහල් පාර, වෙත්තෑව,., මතුගම, ශ්‍රී ලංකාව	மாவட்ட மருத்துவமனை, மருத்துவமனை சாலை, வெத்தேவா,., மத்துகம, இலங்கை
Kalutara	Baduraliya	Baduraliya Hospital	False	False	KLTRBDRLYBDRLYHSPTL		Kalutara	LK-13	6.577316	80.127363	Baduraliya	PS-1302106	6.516756	80.226716	6.514727	80.232731	Tiruwanaketiya-Agalawatte Rd, Baduraliya, Sri Lanka	0.702098		කළුතර	බදුරලිය	බදුරලිය රෝහල	களுத்துறை	பதுரலியா	பதுரலியா மருத்துவமனை	තිරුවානකැටිය-අගලවත්ත පාර, බදුරලිය, ශ්‍රී ලංකාව	திருவனகெட்டிய-அகலவத்தை சாலை, பதுரலியா, இலங்கை
Kurunegala	Giriulla	Weththewa Vidyalaya	False	False	KRNGLGRLLWTHTHWVDYLY		Kurunegala	LK-61	7.66477	80.23677	Giriulla	PS-610215	7.334527	80.125021	7.338625	80.117546	Meddepola Road, Giriulla, Sri Lanka	0.942229		කුරුණෑගල	ගිරිඋල්ල	වෙත්තෑව විද්‍යාලය	குருநாகல்	கிரியுல்லா	வெத்தேவா வித்தியாலயம்	මැද්දේපොළ පාර, ගිරිඋල්ල, ශ්‍රී ලංකාව	மெட்டெபோலா சாலை, கிரியுல்லா, இலங்கை
Kurunegala	Giriulla	Kaudumunna Vidyalaya	False	False	KRNGLGRLLKDMNNVDYLY		Kurunegala	LK-61	7.66477	80.23677	Giriulla	PS-610215	7.334527	80.125021	7.393812	80.117739	Kaudumunna Rd, Sri Lanka	6.643021		කුරුණෑගල	ගිරිඋල්ල	කවුඩුමුන්න විද්‍යාලය	குருநாகல்	கிரியுல்லா	கவுடுமுன்னா வித்யாலயா	කවුඩුමුන්න පාර, ශ්‍රී ලංකාව	கவுடுமுன்னா சாலை, இலங்கை
Kurunegala	Giriulla	Wikramashila National College	False	False	KRNGLGRLLWKRMSHLNTNLCLLG		Kurunegala	LK-61	7.66477	80.23677	Giriulla	PS-610215	7.334527	80.125021	7.326725	80.118281	Wickramashila National school, Giriulla, Negombo-Kurunegala Rd, Giriulla, Sri Lanka	1.142798		කුරුණෑගල	ගිරිඋල්ල	වික්‍රමශීලා ජාතික විද්‍යාලය	குருநாகல்	கிரியுல்லா	விக்ரமஷிலா தேசிய கல்லூரி	වික් රමශිලා ජාතික පාසල, ගිරිඋල්ල, මීගමුව-කුරුණෑගල පාර, ගිරිඋල්ල, ශ්‍රී ලංකාව	விக்கிரமஷிலா தேசியப் பள்ளி, கிரியுல்லா, நீர்கொழும்பு-குருநாகல் சாலை, கிரியுல்லா, இலங்கை
Kurunegala	Giriulla	Bopitiya Maha Vidyalaya	False	False	KRNGLGRLLBPTYMHVDYLY		Kurunegala	LK-61	7.66477	80.23677	Giriulla	PS-610215	7.334527	80.125021	7.319921	80.083958	839M+XH8, Bopitiya, Sri Lanka	4.81264		කුරුණෑගල	ගිරිඋල්ල	බෝපිටිය මහා විද්‍යාලය	குருநாகல்	கிரியுல்லா	போபிட்டிய மகா வித்தியாலயம்	839 එම්+එක්ස්එච් 8, බෝපිටිය, ශ්‍රී ලංකාව	839M+XH8, போபிடியா, இலங்கை
Kurunegala	Pannala	Rural Secretariat - Irabadagama	False	False	KRNGLPNNLRRLSCRTRTRBDGM		Kurunegala	LK-61	7.66477	80.23677	Pannala	PS-610214	7.327738	80.021761	7.3269	80.02185	Pannala-Mallawagedara Rd, Pannala, Sri Lanka	0.093726		කුරුණෑගල	පන්නල	ග්‍රාමීය ලේකම් කාර්යාලය - ඉරබඩගම	குருநாகல்	பண்ணல	கிராமப்புற செயலகம் - இரபடகம	පන්නල-මල්ලවගෙදර පාර, පන්නල, ශ්‍රී ලංකාව	பன்னால-மல்லவகெதரா சாலை, பன்னால, இலங்கை
Kurunegala	Pannala	Sandalankawa National College	False	False	KRNGLPNNLSNDLNKWNTNLCLLG		Kurunegala	LK-61	7.66477	80.23677	Pannala	PS-610214	7.327738	80.021761	7.321638	79.963716	Negombo-Kurunegala Rd, 60176, Sri Lanka	6.439495		කුරුණෑගල	පන්නල	සඳලංකාව ජාතික විද්‍යාලය	குருநாகல்	பண்ணல	சந்தாலங்காவா தேசிய கல்லூரி	මීගමුව-කුරුණෑගල පාර, 60176, ශ්‍රී ලංකාව	நீர்கொழும்பு-குருநாகல் வீதி, 60176, இலங்கை
Kurunegala	Pannala	Makandura Vidyananda Vidyalaya	False	False	KRNGLPNNLMKNDRVDYNNDVDYLY		Kurunegala	LK-61	7.66477	80.23677	Pannala	PS-610214	7.327738	80.021761	7.323921	79.989057	8XFQ+HJ7, Makandura, Sri Lanka	3.632861		කුරුණෑගල	පන්නල	මාකඳුර විද්‍යානන්ද විද්‍යාලය	குருநாகல்	பண்ணல	மகந்துரா வித்யானந்தா வித்யாலயா	8XFQ+HJ7, මාකඳුර, ශ්‍රී ලංකාව	8XFQ+HJ7, மகந்துரா, இலங்கை
Kurunegala	Pannala	Hettirippuwa Vidyalaya	False	False	KRNGLPNNLHTTRPPWVDYLY		Kurunegala	LK-61	7.66477	80.23677	Pannala	PS-610214	7.327738	80.021761	7.346492	79.947604	Hettirippuwa Church Rd, Sri Lanka	8.442692		කුරුණෑගල	පන්නල	හෙට්ටිරිප්පුව විද්‍යාලය	குருநாகல்	பண்ணல	ஹெத்திரிப்புவ வித்தியாலயம்	හෙට්ටිරිප්පුව පල්ලිය පාර, ශ්‍රී ලංකාව	ஹெத்திரிப்புவா சர்ச் வீதி, இலங்கை
Kurunegala	Giribawa	Wannikudawewa Vidyalaya	False	False	KRNGLGRBWWNNKDWWVDYLY		Kurunegala	LK-61	7.66477	80.23677	Giribawa	PS-610329	8.117314	80.189061	8.074825	80.218675	36F9+WFM, Kurunegala, Sri Lanka	5.741992		කුරුණෑගල	ගිරිබාව	වන්නිකුඩාවැව විද්‍යාලය	குருநாகல்	கிரிபாவா	வண்ணிகூடவேவ வித்தியாலயம்	36F9+ඩබ්ලිව්එෆ්එම්, කුරුණෑගල, ශ්‍රී ලංකාව	36F9+WFM, குருநாகல், இலங்கை
Kurunegala	Giribawa	Thambutta Vidyalaya	False	False	KRNGLGRBWTHMBTTVDYLY		Kurunegala	LK-61	7.66477	80.23677	Giribawa	PS-610329	8.117314	80.189061	8.116653	80.192352	Mahagalkadawala - Warawewa, Pahala Giribawa, Sri Lanka	0.369773		කුරුණෑගල	ගිරිබාව	තඹුත්ත විද්‍යාලය	குருநாகல்	கிரிபாவா	தம்புட்டா வித்யாலயா	මහගල්කඩවල - වරවැව, පහළ ගිරිබාව, ශ්‍රී ලංකාව	மகாகல்கடவாலா - வாரவெவ, பஹால கிரிபாவா, இலங்கை
Kurunegala	Giribawa	Gribawa Maha Vidyalaya	False	False	KRNGLGRBWGRBWMHVDYLY		Kurunegala	LK-61	7.66477	80.23677	Giribawa	PS-610329	8.117314	80.189061	8.116653	80.192352	Mahagalkadawala - Warawewa, Pahala Giribawa, Sri Lanka	0.369773		කුරුණෑගල	ගිරිබාව	ග්‍රිබාවා මහා විද්‍යාලය	குருநாகல்	கிரிபாவா	கிரிபாவா மகா வித்தியாலயம்	මහගල්කඩවල - වරවැව, පහළ ගිරිබාව, ශ්‍රී ලංකාව	மகாகல்கடவாலா - வாரவெவ, பஹால கிரிபாவா, இலங்கை
Kurunegala	Giribawa	Damsopura Community Hall	False	False	KRNGLGRBWDMSPRCMMNTYHLL		Kurunegala	LK-61	7.66477	80.23677	Giribawa	PS-610329	8.117314	80.189061	7.481465	80.35357	F9J3+HCP, Kurunegala, Sri Lanka	73.0119	#CenterFarFromPolice	කුරුණෑගල	ගිරිබාව	දම්සෝපුර ප්‍රජා ශාලාව	குருநாகல்	கிரிபாவா	தம்சோபுரா சமுதாயக் கூடம்	F9J3+HCP, කුරුණෑගල, ශ්‍රී ලංකාව	F9J3+HCP, குருநாகல், இலங்கை
Kurunegala	Nikaweratiya	MOH Office - Nikaweratiya	False	False	KRNGLNKWRTYMHFFCNKWRTY		Kurunegala	LK-61	7.66477	80.23677	Nikaweratiya	PS-610320	7.742612	80.121177	7.7475	80.115183	Nikaweratiya-Heelogama Rd, Nikaweratiya, Sri Lanka	0.855589		කුරුණෑගල	නිකවැරටිය	MOH කාර්යාලය - නිකවැරටිය	குருநாகல்	நிகவெரட்டியா	MOH அலுவலகம் - நிகவெரட்டிய	නිකවැරටිය-හීලොගම පාර, නිකවැරටිය, ශ්‍රී ලංකාව	நிகவெரட்டிய-ஹீலோகம வீதி, நிகவெரட்டிய, இலங்கை
Kurunegala	Kobaigane	Hathalawa Clinic	False	False	KRNGLKBGNHTHLWCLNC		Kurunegala	LK-61	7.66477	80.23677	Kobeigane	PS-610321	7.656934	80.126283	7.655135	80.126109	Kobeigane, Sri Lanka	0.20102		කුරුණෑගල	කොබායිගනේ	හතලාව සායනය	குருநாகல்	கோபைகனே	ஹதலாவா கிளினிக்	කොබෙයිගනේ, ශ්‍රී ලංකාව	கோபிகேன், இலங்கை
Kurunegala	Kobaigane	Hengamuwa Vidyalaya	False	False	KRNGLKBGNHNGMWVDYLY		Kurunegala	LK-61	7.66477	80.23677	Kobeigane	PS-610321	7.656934	80.126283	7.700444	80.115879	hengamuwa ,kobeigane, Sri Lanka	4.973641		කුරුණෑගල	කොබායිගනේ	හෙන්ගමුව විද්‍යාලය	குருநாகல்	கோபைகனே	ஹெங்கமுவா வித்யாலயா	හෙන්ගමුව, කොබෙයිගනේ, ශ්‍රී ලංකාව	ஹெங்கமுவா, கோபிகேன், இலங்கை
Kurunegala	Kurunegala	Hettigedara Viharaya	False	False	KRNGLKRNGLHTTGDRVHRY		Kurunegala	LK-61	7.66477	80.23677	Kurunegala	PS-610101	7.485852	80.364137	7.48751	80.370935	F9QC+293, Kurunegala, Sri Lanka	0.772044		කුරුණෑගල	කුරුණෑගල	හෙට්ටිගෙදර විහාරය	குருநாகல்	குருநாகல்	ஹெட்டிகேதரா விஹாராயா	F9QC+293, කුරුණෑගල, ශ්‍රී ලංකාව	F9QC+293, குருநாகல், இலங்கை
Kurunegala	Kurunegala	Sir John Kothelawala Vidyalaya	False	False	KRNGLKRNGLSRJHNKTHLWLVDYLY		Kurunegala	LK-61	7.66477	80.23677	Kurunegala	PS-610101	7.485852	80.364137	7.494346	80.368997	Dambulla Rd, Kurunegala, Sri Lanka	1.086222		කුරුණෑගල	කුරුණෑගල	ශ්‍රීමත් ජෝන් කොතලාවල විද්‍යාලය	குருநாகல்	குருநாகல்	சர் ஜான் கொத்தலாவலா வித்யாலயா	දඹුල්ල පාර, කුරුණෑගල, ශ්‍රී ලංකාව	தம்புள்ளா சாலை, குருநாகல், இலங்கை
Kurunegala	Wellawa	Ganewatta National School	False	False	KRNGLWLLWGNWTTNTNLSCHL		Kurunegala	LK-61	7.66477	80.23677	Wellawa	PS-610107	7.554523	80.368896	7.655338	80.346048	Wariyapola-Ganewatta-Kumbukgete Rd, Sri Lanka	11.49309		කුරුණෑගල	වැල්ලව	ගනේවත්ත ජාතික පාසල	குருநாகல்	வெல்லவா	கணேவத்த தேசிய பாடசாலை	වාරියපොළ-ගනේවත්ත-කුඹුක්ගැටේ පාර, ශ්‍රී ලංකාව	வாரியபொல-கணேவத்த-கும்புகெட்டே சாலை, இலங்கை
Kurunegala	Weerambugedara	Gallehera Vidyalaya	False	False	KRNGLWRMBGDRGLLHRVDYLY		Kurunegala	LK-61	7.66477	80.23677	Weerambugedara	PS-610106	7.476107	80.242797	7.493437	80.242384	F6VR+9XC, Weerambugedara, Sri Lanka	1.928151		කුරුණෑගල	වීරඹුගෙදර	ගල්ලෙහෙර විද්‍යාලය	குருநாகல்	வீரம்புகெதரா	கல்லேஹெரா வித்யாலயா	F6VR+9XC, වීරඹුගෙදර, ශ්‍රී ලංකාව	F6VR+9XC, வீரம்புகெதரா, இலங்கை
Kurunegala	Weerambugedara	Sandagala Vidyaloka Vidyalaya	False	False	KRNGLWRMBGDRSNDGLVDYLKVDYLY		Kurunegala	LK-61	7.66477	80.23677	Weerambugedara	PS-610106	7.476107	80.242797	7.485481	80.361833	F9P6+5PW, Kurunegala, Sri Lanka	13.169002		කුරුණෑගල	වීරඹුගෙදර	සඳගල විද්‍යාලෝක විද්‍යාලය	குருநாகல்	வீரம்புகெதரா	சந்தகல வித்யாலோக வித்யாலயா	F9P6+5PW, කුරුණෑගල, ශ්‍රී ලංකාව	F9P6+5PW, குருநாகல், இலங்கை
Kurunegala	Alawwa	Walakumbura Maha Vidyalaya	False	False	KRNGLLWWWLKMBRMHVDYLY		Kurunegala	LK-61	7.66477	80.23677	Alawwa	PS-610103	7.295909	80.24277	7.316048	80.26541	Sri Lanka	3.355124		කුරුණෑගල	අලව්ව	වලකුඹුර මහා විද්‍යාලය	குருநாகல்	அலவ்வா	வளகும்புர மகா வித்தியாலயம்	ශ්රී ලංකාව	இலங்கை
Kurunegala	Alawwa	Nungamuwa Maha Vidyalaya	False	False	KRNGLLWWNNGMWMHVDYLY		Kurunegala	LK-61	7.66477	80.23677	Alawwa	PS-610103	7.295909	80.24277	7.29543	80.236626	Alawwa, Sri Lanka	0.679954		කුරුණෑගල	අලව්ව	නුංගමුව මහා විද්‍යාලය	குருநாகல்	அலவ்வா	நுங்கமுவ மகா வித்தியாலயம்	අලව්ව, ශ්‍රී ලංකාව	அலவ்வா, இலங்கை
Kurunegala	Wariyapola	Padeniya Sunanda Maha Vidyalaya	False	False	KRNGLWRYPLPDNYSNNDMHVDYLY		Kurunegala	LK-61	7.66477	80.23677	Wariyapola	PS-610105	7.628129	80.241019	7.656628	80.219614	Katugastota-Kurunegala-Puttalam Hwy, Padeniya, Sri Lanka	3.951812		කුරුණෑගල	වාරියපොළ	පාදෙණිය සුනන්ද මහා විද්‍යාලය	குருநாகல்	வாரியபொல	படேனியா சுனந்தா மகா வித்தியாலயம்	කටුගස්තොට-කුරුණෑගල-පුත්තලම හ්වි, පාදෙණිය, ශ්‍රී ලංකාව	கட்டுகஸ்தோட்டா-குருநாகல்-புத்தளம் Hwy, படேனியா, இலங்கை
Kurunegala	Wariyapola	Narammala Vidyalaya	False	False	KRNGLWRYPLNRMMLVDYLY		Kurunegala	LK-61	7.66477	80.23677	Wariyapola	PS-610105	7.628129	80.241019	7.440633	80.225551	C6RG+763, Narammala, Sri Lanka	20.924781	#CenterFarFromPolice	කුරුණෑගල	වාරියපොළ	නාරම්මල විද්‍යාලය	குருநாகல்	வாரியபொல	நாரம்மாலா வித்யாலயா	සී 6 ආර්ජී+763, නාරම්මල, ශ්‍රී ලංකාව	C6RG+763, நாரம்மாலா, இலங்கை
Kurunegala	Rideegama	Koswatta Maha Vidyalaya	False	False	KRNGLRDGMKSWTTMHVDYLY		Kurunegala	LK-61	7.66477	80.23677	Rideegama	PS-610110	7.589247	80.61027	7.506694	80.509861	Ridigama Keppitigala, Road, Kurunegala, Sri Lanka	14.383959		කුරුණෑගල	රිදීගම	කොස්වත්ත මහා විද්‍යාලය	குருநாகல்	ரிதேகம	கொஸ்வத்த மகா வித்தியாலயம்	රිදීගම කැප්පිටිගල, පාර, කුරුණෑගල, ශ්‍රී ලංකාව	ரிதிகம கெப்பிட்டிகல, சாலை, குருநாகல், இலங்கை
Kurunegala	Kalpitiya	MOH Office Kalpitiya	False	False	KRNGLKLPTYMHFFCKLPTY		Kurunegala	LK-61	7.66477	80.23677	Kalpitiya	PS-620137	8.235145	79.764567	8.228618	79.761271	6QH6+CGR, Kalpitiya, Sri Lanka	0.811617		කුරුණෑගල	කල්පිටිය	කල්පිටිය MOH කාර්යාලය	குருநாகல்	கல்பிட்டிய	MOH அலுவலகம் கல்பிட்டிய	6QH6+CGR, කල්පිටිය, ශ්‍රී ලංකාව	6QH6+CGR, கல்பிட்டிய, இலங்கை
Kurunegala	Mundalama	MOH Office - Mundalama	False	False	KRNGLMNDLMMHFFCMNDLM		Kurunegala	LK-61	7.66477	80.23677	Mundal	PS-620138	7.808859	79.825729	7.78892	79.82751	Puttalam - Colombo Rd, Sri Lanka	2.226479		කුරුණෑගල	මුන්දලම	MOH කාර්යාලය - මුන්දලම	குருநாகல்	முண்டாலமா	MOH அலுவலகம் - முண்டலமா	පුත්තලම - කොළඹ පාර, ශ්‍රී ලංකාව	புத்தளம் - கொழும்பு வீதி, இலங்கை
Kurunegala	Marawila	MOH Office - Mahawewa	False	False	KRNGLMRWLMHFFCMHWW		Kurunegala	LK-61	7.66477	80.23677	Marawila	PS-620243	7.415075	79.839776	7.433164	79.83442	Meda Hattiniya, Marawila, Sri Lanka	2.096969		කුරුණෑගල	මාරවිල	MOH කාර්යාලය - මහවැව	குருநாகல்	மாரவில	MOH அலுவலகம் - மகாவெவ	මැද හත්තිණිය, මාරවිල, ශ්‍රී ලංකාව	Meda Hattiniya, Marawila, இலங்கை
Kurunegala	Hasalaka	Ranasingha Premadasa National School	False	False	KRNGLHSLKRNSNGHPRMDSNTNLSCHL		Kurunegala	LK-61	7.66477	80.23677	Hasalaka	PS-210362	7.353096	80.95444	7.349827	80.950564	Kandy-Mahiyangane-Padiyatalawa Hwy, Hasalaka, Sri Lanka	0.561284		කුරුණෑගල	හසලක	රණසිංහ ප්‍රේමදාස ජාතික පාසල	குருநாகல்	ஹசலகா	ரணசிங்க பிரேமதாஸ தேசியப் பள்ளி	මහනුවර-මහියංගනේ-පදියතලාව හ්වි, හසලක, ශ්‍රී ලංකාව	கண்டி-மஹியங்கனே-படையடலாவா ஹ்வி, ஹசலகா, இலங்கை
Kurunegala	Kadugannawa	Menikdiwela Maha Vidyalaya	False	False	KRNGLKDGNNWMNKDWLMHVDYLY		Kurunegala	LK-61	7.66477	80.23677	Kadugannawa	PS-210112	7.256285	80.516908	7.496145	80.155147	F5W4+F32, Kurunegala, Sri Lanka	48.002673	#CenterFarFromPolice	කුරුණෑගල	කඩුගන්නාව	මැණික්දිවෙල මහා විද්‍යාලය	குருநாகல்	கடுகன்னாவா	மெனிக்டிவெல மகா வித்தியாலயம்	F5W4+F32, කුරුණෑගල, ශ්‍රී ලංකාව	F5W4+F32, குருநாகல், இலங்கை
Kurunegala	Kadugannawa	Balana Primary College	False	False	KRNGLKDGNNWBLNPRMRYCLLG		Kurunegala	LK-61	7.66477	80.23677	Kadugannawa	PS-210112	7.256285	80.516908	7.260172	80.531059	7G6J+3C7, Henawala, Sri Lanka	1.620154		කුරුණෑගල	කඩුගන්නාව	බලනා ප්‍රාථමික විද්‍යාලය	குருநாகல்	கடுகன்னாவா	பாலனா ஆரம்பக் கல்லூரி	7G6J+3C7, හේනාවල, ශ්‍රී ලංකාව	7G6J+3C7, ஹேனாவாலா, இலங்கை
Kurunegala	Peradeniya	Dodamwala Maha Vidyalaya	False	False	KRNGLPRDNYDDMWLMHVDYLY		Kurunegala	LK-61	7.66477	80.23677	Peradeniya	PS-210110	7.267283	80.601901	7.28447	80.550963	Dodanwala Natha Dewale Rd, Dodamwala, Sri Lanka	5.936439		කුරුණෑගල	පේරාදෙණිය	දොඩම්වල මහා විද්‍යාලය	குருநாகல்	பேராதனை	தோடம்வாலா மகா வித்தியாலயம்	දොඩන්වල නාථ දේවාලේ පාර, දොඩම්වල, ශ්‍රී ලංකාව	டோடான்வாலா நாதா தேவாலே சாலை, தோடம்வாலா, இலங்கை
Kurunegala	Ragala	TBM Herath Maha Vidyalaya	False	False	KRNGLRGLTBMHRTHMHVDYLY		Kurunegala	LK-61	7.66477	80.23677	Ragala	PS-230142	7.012347	80.858498	7.009792	80.856891	Nuwara Eliya - Uda Pussellawa Road, Ragala, Sri Lanka	0.335022		කුරුණෑගල	රාගල	ටීබීඑම් හේරත් මහා විද්‍යාලය	குருநாகல்	ராகலா	டிபிஎம் ஹேரத் மகா வித்தியாலயம்	නුවරඑළිය - උඩ පුස්සැල්ලාව පාර, රාගල, ශ්‍රී ලංකාව	நுவரெலியா - உட புசெல்லவா சாலை, ராகலா, இலங்கை
Kurunegala	Nanu Oya	Pradeshiya Shabaha Hall	False	False	KRNGLNNYPRDSHYSHBHHLL		Kurunegala	LK-61	7.66477	80.23677	Nanuoya	PS-230133	6.939692	80.744185	7.445647	80.344351	C8WV+7P5, Kurunegala, Sri Lanka	71.512257	#CenterFarFromPolice	කුරුණෑගල	නානු ඔය	ප්‍රාදේශීය ශබා ශාලාව	குருநாகல்	நானு ஓயா	பிரதேச ஷபஹா மண்டபம்	C8WV+7P5, කුරුණෑගල, ශ්‍රී ලංකාව	C8WV+7P5, குருநாகல், இலங்கை
Kurunegala	Pattipola	Meepilimana Senananda Vidyalaya	False	False	KRNGLPTTPLMPLMNSNNNDVDYLY		Kurunegala	LK-61	7.66477	80.23677	Pattipola	PS-230147	6.85662	80.831385	6.927777	80.7892	Meepilimana, Blackpool-Ambewela-Pattipola-Horton Plain Rd, Nuwara Eliya, Sri Lanka	9.183884		කුරුණෑගල	පට්ටිපොල	මීපිලිමාන සේනානන්ද විද්‍යාලය	குருநாகல்	பட்டிப்பொல	மீபிலிமான சேனாநந்தா வித்யாலயா	මීපිලිමාන, බ්ලැක්පූල්-අඹේවෙල-පට්ටිපොල-හෝර්ටන් තැන්න පාර, නුවරඑළිය, ශ්‍රී ලංකාව	மீபிலிமனா, பிளாக்பூல்-அம்பேவெல-பட்டிபொல-ஹார்டன் சமவெளி சாலை, நுவரெலியா, இலங்கை
Matale	Mathale	Nagolla Vidyalaya	False	False	MTLMTHLNGLLVDYLY		Matale	LK-22	7.667587	80.731008	Matale	PS-220121	7.462789	80.626211	7.465092	80.623609	Kandy-Jaffna Highway, Matale, Sri Lanka	0.384668		මාතලේ	මාතලේ	නාගොල්ල විද්‍යාලය	மாத்தளை	மாத்தலே	நாகொல்லா வித்யாலயா	මහනුවර-යාපනය මහා මාර්ගය, මාතලේ, ශ්‍රී ලංකාව	கண்டி-யாழ்ப்பாணம் நெடுஞ்சாலை, மாத்தளை, இலங்கை
Matale	Mathale	Kuriwela Ajmer Vidyalaya	False	False	MTLMTHLKRWLJMRVDYLY		Matale	LK-22	7.667587	80.731008	Matale	PS-220121	7.462789	80.626211	7.4096	80.648257	Mahinda Rajapaksha Navodya Vidyalaya, Kuriwela, Ukuwela, Sri Lanka	6.396397		මාතලේ	මාතලේ	කුරුවෙල අජ්මීර් විද්‍යාලය	மாத்தளை	மாத்தலே	குறிவேலா அஜ்மீர் வித்யாலயா	මහින්ද රාජපක්ෂ නවෝද්‍යා විද්‍යාලය, කුරුවෙල, උකුවෙල, ශ්‍රී ලංකාව	மகிந்த ராஜபக்ச நவோதயா வித்யாலயா, குறிவேலா, உக்குவெலா, இலங்கை
Matale	Mathale	Thenna Maha Vidyalaya	False	False	MTLMTHLTHNNMHVDYLY		Matale	LK-22	7.667587	80.731008	Matale	PS-220121	7.462789	80.626211	7.496622	80.625797	FJWG+J8V, Matale, Sri Lanka	3.763516		මාතලේ	මාතලේ	තෙන්න මහා විද්‍යාලය	மாத்தளை	மாத்தலே	தென்னா மகா வித்தியாலயம்	FJWG+J8V, මාතලේ, ශ්‍රී ලංකාව	FJWG+J8V, மாத்தளை, இலங்கை
Matale	Mathale	Laliambe Vidyalaya	False	False	MTLMTHLLLMBVDYLY		Matale	LK-22	7.667587	80.731008	Matale	PS-220121	7.462789	80.626211	7.509599	80.647679	GJ5X+R3M, Matale, Sri Lanka	5.719667		මාතලේ	මාතලේ	ලාලියාම්බේ විද්‍යාලය	மாத்தளை	மாத்தலே	லலியம்பே வித்யாலயா	ජීජේ 5 එක්ස්+ආර් 3 එම්, මාතලේ, ශ්‍රී ලංකාව	GJ5X+R3M, மாத்தளை, இலங்கை
Matale	Mathale	Buddhagosa Vidyalaya	False	False	MTLMTHLBDDHGSVDYLY		Matale	LK-22	7.667587	80.731008	Matale	PS-220121	7.462789	80.626211	7.509599	80.647679	GJ5X+R3M, Matale, Sri Lanka	5.719667		මාතලේ	මාතලේ	බුද්ධඝෝෂ විද්‍යාලය	மாத்தளை	மாத்தலே	புத்தகோசா வித்யாலயா	ජීජේ 5 එක්ස්+ආර් 3 එම්, මාතලේ, ශ්‍රී ලංකාව	GJ5X+R3M, மாத்தளை, இலங்கை
Matale	Mathale	St. Thomas College	False	False	MTLMTHLSTTHMSCLLG		Matale	LK-22	7.667587	80.731008	Matale	PS-220121	7.462789	80.626211	7.470517	80.621246	Kings St, Matale, Sri Lanka	1.019177		මාතලේ	මාතලේ	ශාන්ත තෝමස් විද්‍යාලය	மாத்தளை	மாத்தலே	செயின்ட் தாமஸ் கல்லூரி	කිංග්ස් ශාන්ත, මාතලේ, ශ්‍රී ලංකාව	கிங்ஸ் செயின்ட், மாத்தளை, இலங்கை
Matale	Rattota	Pussella Maha Vidyalaya	False	False	MTLRTTTPSSLLMHVDYLY		Matale	LK-22	7.667587	80.731008	Rattota	PS-220122	7.520684	80.678809	7.509599	80.647679	GJ5X+R3M, Matale, Sri Lanka	3.647554		මාතලේ	රත්තොට	පුස්සැල්ල මහා විද්‍යාලය	மாத்தளை	ரத்தோட்டா	புஸ்ஸெல்லா மகா வித்தியாலயம்	ජීජේ 5 එක්ස්+ආර් 3 එම්, මාතලේ, ශ්‍රී ලංකාව	GJ5X+R3M, மாத்தளை, இலங்கை
Matale	Rattota	Metihakka Multi Task Centre	False	False	MTLRTTTMTHKKMLTTSKCNTR		Matale	LK-22	7.667587	80.731008	Rattota	PS-220122	7.520684	80.678809	7.540097	80.65322	Metihakka, Sri Lanka	3.55312		මාතලේ	රත්තොට	මෙතිහක්කා බහුකාර්ය මධ්‍යස්ථානය	மாத்தளை	ரத்தோட்டா	மெதிஹாக்கா மல்டி டாஸ்க் சென்டர்	මෙතිහක්ක, ශ්‍රී ලංකාව	மெதிஹக்கா, இலங்கை
Matale	Rattota	Pallepola Hospital	False	False	MTLRTTTPLLPLHSPTL		Matale	LK-22	7.667587	80.731008	Rattota	PS-220122	7.520684	80.678809	7.627907	80.606017	Pallepola 21000, Sri Lanka	14.375519		මාතලේ	රත්තොට	පල්ලෙපොල රෝහල	மாத்தளை	ரத்தோட்டா	பல்லெபோலா மருத்துவமனை	පල්ලේපොල 21000, ශ්‍රී ලංකාව	பல்லெபோலா 21000, இலங்கை
Matale	Galewela	Thalkiriyagama Viharaya	False	False	MTLGLWLTHLKRYGMVHRY		Matale	LK-22	7.667587	80.731008	Galewela	PS-220129	7.763244	80.574149	7.855404	80.651345	Kandy - Jaffna Hwy, Dambulla, Sri Lanka	13.320981		මාතලේ	ගලේවෙල	තල්කිරියාගම විහාරය	மாத்தளை	கலேவெல	தல்கிரியாகம விஹாராயா	මහනුවර - යාපනය හ්වි, දඹුල්ල, ශ්‍රී ලංකාව	கண்டி - யாழ்ப்பாணம், தம்புள்ளை, இலங்கை
Matale	Galewela	Madipola Hospital	False	False	MTLGLWLMDPLHSPTL		Matale	LK-22	7.667587	80.731008	Galewela	PS-220129	7.763244	80.574149	7.685835	80.576848	MHPG+8PQ, Madipola, Sri Lanka	8.615328		මාතලේ	ගලේවෙල	මාදිපොල රෝහල	மாத்தளை	கலேவெல	மடிப்பொல மருத்துவமனை	MHPG+8PQ, මාදිපොල, ශ්‍රී ලංකාව	MHPG+8PQ, மடிபோலா, இலங்கை
Matale	Galewela	Galewela Hospital	False	False	MTLGLWLGLWLHSPTL		Matale	LK-22	7.667587	80.731008	Galewela	PS-220129	7.763244	80.574149	7.760542	80.571552	QH6C+6J7, Galewela, Sri Lanka	0.415026		මාතලේ	ගලේවෙල	ගලේවෙල රෝහල	மாத்தளை	கலேவெல	கலேவெல மருத்துவமனை	QH6C+6J7, ගලේවෙල, ශ්‍රී ලංකාව	QH6C+6J7, கலேவெல, இலங்கை
Matale	Dambulla	Rangiri Dambulla Central College	False	False	MTLDMBLLRNGRDMBLLCNTRLCLLG		Matale	LK-22	7.667587	80.731008	Dambulla	PS-220128	7.86208	80.649166	7.855404	80.651345	Kandy - Jaffna Hwy, Dambulla, Sri Lanka	0.78042		මාතලේ	දඹුල්ල	රංගිරි දඹුලු මධ්‍ය මහා විද්‍යාලය	மாத்தளை	தம்புள்ளை	ரங்கிரி தம்புள்ள மத்திய கல்லூரி	මහනුවර - යාපනය හ්වි, දඹුල්ල, ශ්‍රී ලංකාව	கண்டி - யாழ்ப்பாணம், தம்புள்ளை, இலங்கை
Matale	Sigiriya	Inamaluwa Vidyalaya	False	False	MTLSGRYNMLWVDYLY		Matale	LK-22	7.667587	80.731008	Sigiriya	PS-220130	7.94243	80.732502	7.92425	80.684012	Inamaluwa, Sri Lanka	5.711845		මාතලේ	සීගිරිය	ඉනාමළුව විද්‍යාලය	மாத்தளை	சிகிரியா	இனமாலுவ வித்யாலயா	ඉනාමළුව, ශ්‍රී ලංකාව	இனமாலுவா, இலங்கை
Matale	Makulugaswewa	Makulugaswewa Maha Vidyalaya	False	False	MTLMKLGSWWMKLGSWWMHVDYLY		Matale	LK-22	7.667587	80.731008									#PoliceLocationUnknown	මාතලේ	මකුළුගස්වැව	මකුළුගස්වැව මහා විද්‍යාලය	மாத்தளை	மகுலுகஸ்வெவ	மகுலுகஸ்வெவ மகா வித்தியாலயம்		
Badulla	Badulla	Badulla Hospital	False	False	BDLLBDLLBDLLHSPTL		Badulla	LK-81	7.074529	81.04486	Badulla	PS-810101	6.991337	81.055246	6.991808	81.05235	Daya Gunasekara Mawatha, Badulla, Sri Lanka	0.32399		බදුල්ල	බදුල්ල	බදුල්ල රෝහල	பதுளை	பதுளை	பதுளை மருத்துவமனை	දයා ගුණසේකර මාවත, බදුල්ල, ශ්‍රී ලංකාව	தயா குணசேகர மாவத்தை, பதுளை, இலங்கை
Badulla	Badulla	Sprinvelly Hospital	False	False	BDLLBDLLSPRNVLLYHSPTL		Badulla	LK-81	7.074529	81.04486	Badulla	PS-810101	6.991337	81.055246	6.991808	81.05235	Daya Gunasekara Mawatha, Badulla, Sri Lanka	0.32399		බදුල්ල	බදුල්ල	ස්ප්රින්වෙලි රෝහල	பதுளை	பதுளை	ஸ்ப்ரின்வெல்லி மருத்துவமனை	දයා ගුණසේකර මාවත, බදුල්ල, ශ්‍රී ලංකාව	தயா குணசேகர மாவத்தை, பதுளை, இலங்கை
Badulla	Hale Ela	Wepassawela Maha Vidyalaya	False	False	BDLLHLLWPSSWLMHVDYLY		Badulla	LK-81	7.074529	81.04486	Haliela	PS-810108	6.958216	81.034447	6.947643	81.027144	Sri Lanka, Hali-ela, Sri Lanka	1.425915		බදුල්ල	හේල් ඇල	වේපස්සවෙල මහා විද්‍යාලය	பதுளை	ஹேல் எல	வெபஸ்ஸவெல மகா வித்தியாலயம்	ශ්‍රී ලංකාව, හාලි ඇල, ශ්‍රී ලංකාව	இலங்கை, ஹாலி-எல, இலங்கை
Badulla	Hale Ela	Hali Ela Central College	False	False	BDLLHLLHLLCNTRLCLLG		Badulla	LK-81	7.074529	81.04486	Haliela	PS-810108	6.958216	81.034447	6.96042	81.034923	Peradeniya-Badulla-Chenkaladi Hwy, Hali-ela, Sri Lanka	0.250721		බදුල්ල	හේල් ඇල	හාලි ඇල මධ්‍ය මහා විද්‍යාලය	பதுளை	ஹேல் எல	ஹாலி எல மத்திய கல்லூரி	පේරාදෙණිය-බදුල්ල-චෙන්කලාඩි හ්වි, හාලි ඇල, ශ්‍රී ලංකාව	பேராதனை-பதுளை-செங்கலடி ஹ்வி, ஹாலி-எல, இலங்கை
Badulla	Hale Ela	Uduwara Purana Viharaya	False	False	BDLLHLLDWRPRNVHRY		Badulla	LK-81	7.074529	81.04486	Haliela	PS-810108	6.958216	81.034447	6.931734	81.044042	Uduwara, Sri Lanka	3.130313		බදුල්ල	හේල් ඇල	උඩුවර පුරාණ විහාරය	பதுளை	ஹேல் எல	உடுவாரா புராண விகாரை	උඩුවර, ශ්‍රී ලංකාව	உடுவாரா, இலங்கை
Badulla	Hale Ela	Dencil Kobbekaduwa Maha Vidyalaya	False	False	BDLLHLLDNCLKBBKDWMHVDYLY		Badulla	LK-81	7.074529	81.04486	Haliela	PS-810108	6.958216	81.034447	6.963435	81.037403	Peradeniya-Badulla-Chenkaladi Hwy, Hali-ela, Sri Lanka	0.666019		බදුල්ල	හේල් ඇල	ඩෙන්සිල් කොබ්බෑකඩුව මහා විද්‍යාලය	பதுளை	ஹேல் எல	டென்சில் கொப்பேகடுவ மகா வித்தியாலயம்	පේරාදෙණිය-බදුල්ල-චෙන්කලාඩි හ්වි, හාලි ඇල, ශ්‍රී ලංකාව	பேராதனை-பதுளை-செங்கலடி ஹ்வி, ஹாலி-எல, இலங்கை
Badulla	Passara	Passara Central College	False	False	BDLLPSSRPSSRCNTRLCLLG		Badulla	LK-81	7.074529	81.04486	Passara	PS-810102	6.934481	81.154796	6.937341	81.157452	Peradeniya-Badulla-Chenkaladi Hwy, Passara 90500, Sri Lanka	0.432669		බදුල්ල	පස්සර	පස්සර මධ්‍ය මහා විද්‍යාලය	பதுளை	பசர	பசாரா மத்திய கல்லூரி	පේරාදෙණිය-බදුල්ල-චෙන්කලාඩි හ්වි, පස්සර 90500, ශ්‍රී ලංකාව	பேராதெனிய-பதுல்லா-செங்கலடி Hwy, பசறை 90500, இலங்கை
Badulla	Passara	DH Passara	False	False	BDLLPSSRDHPSSR		Badulla	LK-81	7.074529	81.04486	Passara	PS-810102	6.934481	81.154796	6.936513	81.15136	Peradeniya-Badulla-Chenkaladi Hwy, Passara 90500, Sri Lanka	0.441612		බදුල්ල	පස්සර	ඩීඑච් පස්සර	பதுளை	பசர	DH பசரா	පේරාදෙණිය-බදුල්ල-චෙන්කලාඩි හ්වි, පස්සර 90500, ශ්‍රී ලංකාව	பேராதெனிய-பதுல்லா-செங்கலடி Hwy, பசறை 90500, இலங்கை
Badulla	Passara	GH Meedumpitiya	False	False	BDLLPSSRGHMDMPTY		Badulla	LK-81	7.074529	81.04486	Passara	PS-810102	6.934481	81.154796	6.991808	81.05235	Daya Gunasekara Mawatha, Badulla, Sri Lanka	12.984538		බදුල්ල	පස්සර	ජීඑච් මීදුම්පිටිය	பதுளை	பசர	GH மீடும்பிட்டிய	දයා ගුණසේකර මාවත, බදුල්ල, ශ්‍රී ලංකාව	தயா குணசேகர மாவத்தை, பதுளை, இலங்கை
Badulla	Lunugala	DH Lunugala	False	False	BDLLLNGLDHLNGL		Badulla	LK-81	7.074529	81.04486	Lunugala	PS-810104	7.047691	81.20339	7.041625	81.202526	Lunugala Bus Station, Peradeniya-Badulla-Chenkaladi Hwy, Lunugala, Sri Lanka	0.681428		බදුල්ල	ලුණුගල	ඩී එච් ලුණුගල	பதுளை	லுனுகலா	டிஎச் லுனுகலா	ලුණුගල බස් නැවතුම්පොළ, පේරාදෙණිය-බදුල්ල-චෙන්කලාඩි හ්වි, ලුණුගල, ශ්‍රී ලංකාව	லுனுகலா பேருந்து நிலையம், பேராதனை-பதுளை-செங்கலடி Hwy, லுனுகலா, இலங்கை
Badulla	Lunugala	MOH Office - Lunugala	False	False	BDLLLNGLMHFFCLNGL		Badulla	LK-81	7.074529	81.04486	Lunugala	PS-810104	7.047691	81.20339	7.030729	81.198808	Peradeniya-Badulla-Chenkaladi Hwy, Lunugala, Sri Lanka	1.953308		බදුල්ල	ලුණුගල	MOH කාර්යාලය - ලුණුගල	பதுளை	லுனுகலா	MOH அலுவலகம் - லுனுகலா	පේරාදෙණිය-බදුල්ල-චෙන්කලාඩි හ්වි, ලුණුගල, ශ්‍රී ලංකාව	பேராதனை-பதுளை-செங்கலடி ஹ்யூ, லுனுகலா, இலங்கை
Badulla	Lunugala	Divisional Hospital - Hopton	False	False	BDLLLNGLDVSNLHSPTLHPTN		Badulla	LK-81	7.074529	81.04486	Lunugala	PS-810104	7.047691	81.20339	6.984911	81.19795	Peradeniya-Badulla-Chenkaladi Hwy, Sri Lanka	7.008786		බදුල්ල	ලුණුගල	ප්‍රාදේශීය රෝහල - හොප්ටන්	பதுளை	லுனுகலா	பிரிவு மருத்துவமனை - ஹாப்டன்	පේරාදෙණිය-බදුල්ල-චෙන්කලාඩි හ්වි, ශ්‍රී ලංකාව	பேராதனை-பதுளை-செங்கலடி ஹ்வி, இலங்கை
Badulla	Lunugala	Divisional Hospital - Metigahathenna	False	False	BDLLLNGLDVSNLHSPTLMTGHTHNN		Badulla	LK-81	7.074529	81.04486	Lunugala	PS-810104	7.047691	81.20339	6.435016	80.198501	B158, Meegahathenna, Sri Lanka	130.25044	#CenterFarFromPolice	බදුල්ල	ලුණුගල	ප්‍රාදේශීය රෝහල - මෙටිගහතැන්න	பதுளை	லுனுகலா	பிரதேச மருத்துவமனை - மேதிகஹதென்ன	බී 158, මීගහතැන්න, ශ්‍රී ලංකාව	பி 158, மீகஹதென்ன, இலங்கை
Badulla	Kahataruppa	GH Kahataruppa	False	False	BDLLKHTRPPGHKHTRPP		Badulla	LK-81	7.074529	81.04486									#PoliceLocationUnknown	බදුල්ල	කහටරුප්ප	ජීඑච් කහටරුප්ප	பதுளை	கஹடருப்பா	GH கஹடருப்பா		
Badulla	Haldummulla	Haldummulla Hospital	False	False	BDLLHLDMMLLHLDMMLLHSPTL		Badulla	LK-81	7.074529	81.04486	Haldummulla		6.762216	80.885856	6.758168	80.879938	Colombo - Ratnapura - Wellawaya - Batticaloa Rd, Sri Lanka	0.793746		බදුල්ල	හල්දුම්මුල්ල	හල්දුම්මුල්ල රෝහල	பதுளை	ஹல்தும்முல்லா	ஹல்துமுல்லா மருத்துவமனை	කොළඹ - රත්නපුර - වැල්ලවාය - මඩකලපුව පාර, ශ්‍රී ලංකාව	கொழும்பு - இரத்தினபுரி - வெள்ளவாய - மட்டக்களப்பு வீதி, இலங்கை
Badulla	Bandarawela	MOH Office - Bandarawela	False	False	BDLLBNDRWLMHFFCBNDRWL		Badulla	LK-81	7.074529	81.04486	Bandarawela	PS-810210	6.831526	80.986784	6.841272	80.98482	Hospital Junction Helamuduna Bus Stop, Etampitiya Rd, Bandarawela, Sri Lanka	1.105533		බදුල්ල	බණ්ඩාරවෙල	MOH කාර්යාලය - බණ්ඩාරවෙල	பதுளை	பண்டாரவளை	MOH அலுவலகம் - பண்டாரவளை	රෝහල් හන්දිය හෙළමුදුන බස් නැවතුම, ඇටම්පිටිය පාර, බණ්ඩාරවෙල, ශ්‍රී ලංකාව	மருத்துவமனை சந்திப்பு ஹெலமுதுனா பேருந்து நிறுத்தம், இடம்பிட்டிய சாலை, பண்டாரவளை, இலங்கை
Badulla	Welimada	MOH Office - Welimada	False	False	BDLLWLMDMHFFCWLMD		Badulla	LK-81	7.074529	81.04486	Welimada	PS-810212	6.900481	80.905809	6.927934	80.896475	Udapussellawa-Welimada Road, Ambagasdowa, Sri Lanka	3.222841		බදුල්ල	වැලිමඞ	MOH කාර්යාලය - වැලිමඩ	பதுளை	வெலிமடா	MOH அலுவலகம் - வெலிமடை	උඩපුස්සැල්ලාව-වැලිමඩ පාර, අඹගස්දෝව, ශ්‍රී ලංකාව	உடபுசெல்லவா-வெலிமட சாலை, அம்பகஸ்தோவா, இலங்கை
Badulla	Uva Paranagama	District Hospital - Uva Paranagama	False	False	BDLLVPRNGMDSTRCTHSPTLVPRNGM		Badulla	LK-81	7.074529	81.04486	Uvaparanagama	PS-810213	6.958341	80.930364	6.938076	80.890525	Rendapola-Galahagama-Ambagasdowa Rd, Himbiliyagahamadiththa, Sri Lanka	4.942648		බදුල්ල	Vaව පරණගම	දිසා රෝහල - vaව පරණගම	பதுளை	ஊவ பரணகம	மாவட்ட மருத்துவமனை - ஊவா பரணகம	රෙන්ඳපොල-ගලහගම-අඹගස්දෝව පාර, හිම්බිලියගහමදිත්ත, ශ්‍රී ලංකාව	ரெண்டபொல-கலஹகம-அம்பகஸ்தோவ வீதி, ஹிம்பிலியகஹமாதித்த, இலங்கை
Badulla	Haputale	MOH Office - Haputale	False	False	BDLLHPTLMHFFCHPTL		Badulla	LK-81	7.074529	81.04486	Haputale	PS-810215	6.767653	80.957218	6.779645	80.964114	QXH7+WC4, Badulla, Sri Lanka	1.536024		බදුල්ල	හපුතලේ	MOH කාර්යාලය - හපුතලේ	பதுளை	ஹப்புதலே	MOH அலுவலகம் - ஹப்புத்தளை	QXH7+WC4, බදුල්ල, ශ්‍රී ලංකාව	QXH7+WC4, பதுளை, இலங்கை
Monaragala	Badalkumbura	Muthukeliyawa Maha Vidyalaya	False	False	MNRGLBDLKMBRMTHKLYWMHVDYLY		Moneragala	LK-82	6.787517	81.303744	Badalkumbura	PS-820128	6.889017	81.235441	6.89796	81.24123	Passara-Moneragala, Highway, Badalkumbura, Sri Lanka	1.182426		මොනරාගල	බඩල්කුඹුර	මුතුකැලියාව මහා විද්‍යාලය	மொனராகலை	படல்கும்புரா	முத்துகெலியாவ மகா வித்தியாலயம்	පස්සර-මොණරාගල, අධිවේගී මාර්ගය, බඩල්කුඹුර, ශ්‍රී ලංකාව	பசர-மொனராகலை, நெடுஞ்சாலை, படல்கும்புரா, இலங்கை
Moneragala	Monaragala	MOH Office - Monaragala	False	False	MNRGLMNRGLMHFFCMNRGL		Moneragala	LK-82	6.787517	81.303744	Monaragala	PS-820121	6.869866	81.348106	6.863814	81.339087	V87Q+GJG, Monaragala, Sri Lanka	1.202138		මොණරාගල	මොනරාගල	MOH කාර්යාලය - මොනරාගල	மொனராகலை	மொனராகலை	MOH அலுவலகம் - மொனராகலை	V87Q+GJG, මොනරාගල, ශ්‍රී ලංකාව	V87Q+GJG, மொனராகலை, இலங்கை
Moneragala	Monaragala	JJ Apparel Garment	False	False	MNRGLMNRGLJJPPRLGRMNT		Moneragala	LK-82	6.787517	81.303744	Monaragala	PS-820121	6.869866	81.348106	6.856344	81.344749	Kumarawatta, Muppane, Monaragala. 91000, Sri Lanka	1.549065		මොණරාගල	මොනරාගල	ජේජේ ඇඟලුම් ඇඟලුම්	மொனராகலை	மொனராகலை	ஜேஜே ஆடை ஆடை	කුමාරවත්ත, මුප්පානේ, මොනරාගල. 91000, ශ්‍රී ලංකාව	குமாரவத்த, முப்பனே, மொனராகலை. 91000, இலங்கை
Moneragala	Dambagalla	MOH Office - Dambagalla	False	False	MNRGLDMBGLLMHFFCDMBGLL		Moneragala	LK-82	6.787517	81.303744	Dambagalla	PS-820123	6.978806	81.372037	6.980456	81.375777	X9JG+58J, Monaragala, Sri Lanka	0.451866		මොණරාගල	දඹගල්ල	MOH කාර්යාලය - දඹගල්ල	மொனராகலை	தம்பகல்லா	MOH அலுவலகம் - தம்பகல்லா	X9JG+58J, මොනරාගල, ශ්‍රී ලංකාව	X9JG+58J, மொனராகலை, இலங்கை
Moneragala	Siyambalanduwa	Mahakalugolla Primary College	False	False	MNRGLSYMBLNDWMHKLGLLPRMRYCLLG		Moneragala	LK-82	6.787517	81.303744	Siyambalanduwa	PS-820122	6.906851	81.547598	6.909655	81.561921	WH56+VQ7, Siyambalanduwa, Sri Lanka	1.612038		මොණරාගල	සියඹලාණ්ඩුව	මහකළුගොල්ල ප්‍රාථමික විද්‍යාලය	மொனராகலை	சியம்பலாண்டுவா	மககாலுகொல்லா தொடக்கக் கல்லூரி	WH56+VQ7, සියඹලාණ්ඩුව, ශ්‍රී ලංකාව	WH56+VQ7, சியம்பலாண்டுவா, இலங்கை
Moneragala	Siyambalanduwa	Kivuleyaya Maha Vidyalaya	False	False	MNRGLSYMBLNDWKVLYYMHVDYLY		Moneragala	LK-82	6.787517	81.303744	Siyambalanduwa	PS-820122	6.906851	81.547598	6.906464	81.561014	Siyambalanduwa, Sri Lanka	1.482056		මොණරාගල	සියඹලාණ්ඩුව	කිවුලේයාය මහා විද්‍යාලය	மொனராகலை	சியம்பலாண்டுவா	கிவுலேயா மகா வித்தியாலயம்	සියඹලාණ්ඩුව, ශ්‍රී ලංකාව	சியம்பலாண்டுவா, இலங்கை
Moneragala	Siyambalanduwa	Pahathaarawa Primary College	False	False	MNRGLSYMBLNDWPHTHRWPRMRYCLLG		Moneragala	LK-82	6.787517	81.303744	Siyambalanduwa	PS-820122	6.906851	81.547598	6.909655	81.561921	WH56+VQ7, Siyambalanduwa, Sri Lanka	1.612038		මොණරාගල	සියඹලාණ්ඩුව	පහතරාව ප්‍රාථමික විද්‍යාලය	மொனராகலை	சியம்பலாண்டுவா	பஹதாராவா ஆரம்பக் கல்லூரி	WH56+VQ7, සියඹලාණ්ඩුව, ශ්‍රී ලංකාව	WH56+VQ7, சியம்பலாண்டுவா, இலங்கை
Moneragala	Ethimale	Kotiyagala Primary College	False	False	MNRGLTHMLKTYGLPRMRYCLLG		Moneragala	LK-82	6.787517	81.303744	Athimale	PS-820124	6.907289	79.863819	6.772543	81.530065	QGFJ+228, මොණරාගල, Sri Lanka	184.626401	#CenterFarFromPolice	මොණරාගල	ඇතිමලේ	කොටියාගල ප්‍රාථමික විද්‍යාලය	மொனராகலை	எதிமலை	கொட்டியாகல ஆரம்பக் கல்லூரி	QGFJ+228, මොනරාගල, ශ්‍රී ලංකාව	கியூஜிஎஃப்ஜே+228, மோனராகல, இலங்கை
Galle	Neluwa	Neluwa National School	False	False	GLLNLWNLWNTNLSCHL		Galle	LK-31	6.222805	80.251977	Neluwa	PS-310132	6.379651	80.358956	6.37678	80.358703	B411, Neluwa, Sri Lanka	0.320563		ගාල්ල	නෙළුව	නෙළුව ජාතික පාසල	காலி	நெலுவா	நெலுவா தேசியப் பள்ளி	බී 411, නෙළුව, ශ්‍රී ලංකාව	பி 411, நெலுவா, இலங்கை
Galle	Opatha	Opatha Maha Vidyalaya	False	False	GLLPTHPTHMHVDYLY		Galle	LK-31	6.222805	80.251977									#PoliceLocationUnknown	ගාල්ල	ඕපාත	ඕපාත මහා විද්‍යාලය	காலி	ஓபாதா	ஓபாதா மகா வித்தியாலயம்		
Galle	Nagoda	Kurupanawa Primary School	False	False	GLLNGDKRPNWPRMRYSCHL		Galle	LK-31	6.222805	80.251977	Nagoda	PS-310130	6.197616	80.274707					#CenterLocationUnknown	ගාල්ල	නාගොඩ	කුරුපනාව ප්‍රාථමික විද්‍යාලය	காலி	நாகோடா	குருபனாவா தொடக்கப்பள்ளி		
Galle	Yakkalamulla	Polpagoda Dharmapala Vidyalaya	False	False	GLLYKKLMLLPLPGDDHRMPLVDYLY		Galle	LK-31	6.222805	80.251977	Yakkalamulla	PS-310125	6.106186	80.348152	6.092944	80.359015	Polpagoda Vidyalaya, Yakkalamulla, Sri Lanka	1.900771		ගාල්ල	යක්කලමුල්ල	පොල්පගොඩ ධර්මපාල විද්‍යාලය	காலி	யக்கலாமுல்லா	பொல்பகொட தர்மபால வித்யாலயா	පොල්පගොඩ විද්‍යාලය, යක්කලමුල්ල, ශ්‍රී ලංකාව	பொல்பகொட வித்யாலயா, யக்கலமுல்லா, இலங்கை
Galle	Ambalangoda	Dharmasoka Vidyalaya - Ambalangoda	False	False	GLLMBLNGDDHRMSKVDYLYMBLNGD		Galle	LK-31	6.222805	80.251977	Ambalangoda	PS-310243	6.244958	80.047598	6.24063	80.054715	A2, Ambalangoda, Sri Lanka	0.922499		ගාල්ල	අම්බලන්ගොඩ	ධර්මාශෝක විද්‍යාලය - අම්බලන්ගොඩ	காலி	அம்பலங்கொட	தர்மசோகா வித்யாலயா - அம்பலங்கொடை	ඒ 2, අම්බලන්ගොඩ, ශ්‍රී ලංකාව	ஏ 2, அம்பலங்கொட, இலங்கை
Galle	Uragasmanhandiya	Dencil Kobbekaduwa Primary College	False	False	GLLRGSMNHNDYDNCLKBBKDWPRMRYCLLG		Galle	LK-31	6.222805	80.251977	Uragasmanhandiya	PS-310236	6.343756	80.080679	6.344654	80.090004	83VR+V26, Uragasmanhandiya, Sri Lanka	1.035694		ගාල්ල	Raරගස්මංහන්දිය	ඩෙන්සිල් කොබ්බෑකඩුව ප්‍රාථමික විද්‍යාලය	காலி	உரகஸ்மன்ஹந்தியா	டென்சில் கொப்பேகடுவ ஆரம்ப கல்லூரி	83 වීආර්+වී 26, raරගස්මංහන්දිය, ශ්‍රී ලංකාව	83VR+V26, உரகஸ்மன்ஹந்தியா, இலங்கை
Galle	Karandeniya	MOH Office - Karandeniya	False	False	GLLKRNDNYMHFFCKRNDNY		Galle	LK-31	6.222805	80.251977	Karandeniya	PS-310238	6.271732	80.08479	6.268939	80.099876	Elpitiya Rd, Karandeniya, Sri Lanka	1.696659		ගාල්ල	කරන්දෙණිය	MOH කාර්යාලය - කරන්දෙණිය	காலி	கரந்தெனியா	MOH அலுவலகம் - கரந்தெனியா	ඇල්පිටිය පාර, කරන්දෙණිය, ශ්‍රී ලංකාව	எல்பிட்டிய வீதி, கரந்தெனியா, இலங்கை
Galle	Elpitiya	Rupakarunathilaka Hall	False	False	GLLLPTYRPKRNTHLKHLL		Galle	LK-31	6.222805	80.251977	Elpitiya	PS-310235	6.279163	80.142917	6.290082	80.162727	75R7+23Q, Elpitiya 80400, Sri Lanka	2.504421		ගාල්ල	ඇල්පිටිය	රූපකරුණතිලක ශාලාව	காலி	எல்பிட்டிய	ரூபகருணதிலக மண்டபம்	75R7+23Q, ඇල්පිටිය 80400, ශ්‍රී ලංකාව	75R7+23Q, எல்பிட்டிய 80400, இலங்கை
Galle	Elpitiya	Kahaduwa Maha Vidyalaya	False	False	GLLLPTYKHDWMHVDYLY		Galle	LK-31	6.222805	80.251977	Elpitiya	PS-310235	6.279163	80.142917	6.220777	80.212991	112 Yakkatuwa-Kahaduwa Road, Kahaduwa, Sri Lanka	10.109741		ගාල්ල	ඇල්පිටිය	කහදූව මහා විද්‍යාලය	காலி	எல்பிட்டிய	கஹடுவா மகா வித்தியாலயம்	112 යක්කටුව-කහදූව පාර, කහදූව, ශ්‍රී ලංකාව	112 யக்கத்துவ-கஹடுவா சாலை, கஹடுவா, இலங்கை
Galle	Pitigala	Niyagama Vijitha Maha Vidyalaya	False	False	GLLPTGLNYGMVJTHMHVDYLY		Galle	LK-31	6.222805	80.251977	Pitigala	PS-310237	6.335202	80.221149	6.308321	80.24853	Niyagama, Sri Lanka	4.254766		ගාල්ල	පිටිගල	නියාගම විජිත මහා විද්‍යාලය	காலி	பிடிகலா	நியாகம விஜித மகா வித்தியாலயம்	නියාගම, ශ්‍රී ලංකාව	நியாகம, இலங்கை
Galle	Pitigala	Sri Sucharithodayaramaya	False	False	GLLPTGLSRSCHRTHDYRMY		Galle	LK-31	6.222805	80.251977	Pitigala	PS-310237	6.335202	80.221149	6.344756	80.221851	Pitigala - Mativiliya - Cotapola Rd, Pitigala, Sri Lanka	1.065528		ගාල්ල	පිටිගල	ශ්‍රී සුචරිතෝදයාරාමය	காலி	பிடிகலா	ஸ்ரீ சுசரிதோதயராமாய	පිටිගල - මැටිවිලිය - කොටපොල පාර, පිටිගල, ශ්‍රී ලංකාව	பிடிகல - மதிவிலியா - கோட்டபொல சாலை, பிடிகலா, இலங்கை
Galle	Hikkaduwa	Hikkaduwa Police Station	False	False	GLLHKKDWHKKDWPLCSTTN		Galle	LK-31	6.222805	80.251977	Hikkaduwa	PS-310122	6.145115	80.099693	6.145115	80.099693	Galle Rd, Hikkaduwa, Sri Lanka	0.0		ගාල්ල	හික්කඩුව	හික්කඩුව පොලිස් ස්ථානය	காலி	ஹிக்கடுவா	ஹிக்கடுவா காவல் நிலையம்	ගාල්ල පාර, හික්කඩුව, ශ්‍රී ලංකාව	காலி சாலை, ஹிக்கடுவா, இலங்கை
Galle	Akmeemana	Bataduwa Rathanajothi Vidyalaya	False	False	GLLKMMNBTDWRTHNJTHVDYLY		Galle	LK-31	6.222805	80.251977	Akmeemana	PS-310123	6.073453	80.276627	6.042063	80.243092	Bataduwa, Galle, B129, Galle 80000, Sri Lanka	5.09404		ගාල්ල	අක්මීමන	බටදූව රතනජෝති විද්‍යාලය	காலி	அக்மீமானா	படடுவா ரதனஜோதி வித்யாலயா	බටදූව, ගාල්ල, බී 129, ගාල්ල 80000, ශ්‍රී ලංකාව	படடுவா, காலி, பி 129, காலி 80000, இலங்கை
Galle	Akmeemana	Jambuketiya Nila Piyasa	False	False	GLLKMMNJMBKTYNLPYS		Galle	LK-31	6.222805	80.251977	Akmeemana	PS-310123	6.073453	80.276627	6.083631	80.296239	Akmeemana, Sri Lanka	2.446729		ගාල්ල	අක්මීමන	ජම්බුකැටිය නිල පියස	காலி	அக்மீமானா	ஜம்புகெட்டிய நிலா பியசா	අක්මීමන, ශ්‍රී ලංකාව	அக்மீமானா, இலங்கை
Galle	Akmeemana	Narawala Vidyalaya	False	False	GLLKMMNNRWLVDYLY		Galle	LK-31	6.222805	80.251977	Akmeemana	PS-310123	6.073453	80.276627	6.09793	80.228472	Narawala, Sri Lanka	5.981606		ගාල්ල	අක්මීමන	නාරවල විද්‍යාලය	காலி	அக்மீமானா	நரவாலா வித்யாலயா	නාරාවල, ශ්‍රී ලංකාව	நரவாலா, இலங்கை
Galle	Akmeemana	Labuduwa Siridamma Vidyalaya	False	False	GLLKMMNLBDWSRDMMVDYLY		Galle	LK-31	6.222805	80.251977	Akmeemana	PS-310123	6.073453	80.276627	6.071463	80.232066	සිරිධම්ම විද්‍යාලය, සිරිධම්ම මාවත, ගාල්ල 80090, Sri Lanka	4.933669		ගාල්ල	අක්මීමන	ලබුදූව සිරිදම්ම විද්‍යාලය	காலி	அக்மீமானா	லபுடுவா சிரிதம்மா வித்யாலயா	සිරිධම්ම විද්‍යාලය, සිරිධම්ම මාවත, ගාල්ල 80090, ශ්‍රී ලංකාව	ஸ்ரீதம்ம மின்வலம், ஸ்ரீதம்ம மாவத்த, காள்ள 80090, இலங்கை
Galle	Habaraduwa	Heenatigala Sariputhra Vidyalaya	False	False	GLLHBRDWHNTGLSRPTHRVDYLY		Galle	LK-31	6.222805	80.251977	Habaraduwa	PS-310127	5.9871	80.327098	6.016251	80.277486	278G+GX5, Heenatigala, Sri Lanka	6.374375		ගාල්ල	හබරාදුව	හීනටිගල සාරිපුත්‍ර විද්‍යාලය	காலி	ஹபராடுவா	ஹீனடிகலா சரிபுத்ரா வித்யாலயா	278 ජී+ජීඑක්ස් 5, හීනටිගල, ශ්‍රී ලංකාව	278 ஜி+ஜிஎக்ஸ் 5, ஹீனடிகலா, இலங்கை
Galle	Imaduwa	Havupe Vidyalaya	False	False	GLLMDWHVPVDYLY		Galle	LK-31	6.222805	80.251977	Imaduwa	PS-310134	6.034389	80.391055	6.036482	80.382217	Imaduwa, Sri Lanka	1.004938		ගාල්ල	ඉමදුව	හවුපේ විද්‍යාලය	காலி	இமடுவா	ஹவுபே வித்யாலயா	ඉමදුව, ශ්‍රී ලංකාව	இமதுவா, இலங்கை
Matara	Mawarala	Gomila Central College	False	False	MTRMWRLGMLCNTRLCLLG		Matara	LK-32	6.142734	80.539994	Mawarala	PS-320109	6.198061	80.587045	5.953769	80.544354	Rahula Road,, Matara, 81000, Sri Lanka	27.579769	#CenterFarFromPolice	මාතර	මාවරල	ගෝමිලා මධ්‍ය මහා විද්‍යාලය	மாத்தறை	மவரல	கோமிலா மத்திய கல்லூரி	රාහුල පාර ,, මාතර, 81000, ශ්‍රී ලංකාව	ராகுல சாலை ,, மாத்தறை, 81000, இலங்கை
Matara	Dickwella	Kumarthunga Munidasa Maha Vidyalaya	False	False	MTRDCKWLLKMRTHNGMNDSMHVDYLY		Matara	LK-32	6.142734	80.539994	Dikwella	PS-320103	5.964296	80.693198	5.965899	80.694907	XM8V+9X3, Dikwella, Sri Lanka	0.259877		මාතර	දික්වැල්ල	කුමාර්තුංග මුනිදාස මහා විද්‍යාලය	மாத்தறை	டிக்வெல்லா	குமாரதுங்க முனிதாச மகா வித்தியாலயம்	XM8V+9X3, දික්වැල්ල, ශ්‍රී ලංකාව	XM8V+9X3, திக்வெல்லா, இலங்கை
Matara	Hakmana	Town Hall - Hakmana	False	False	MTRHKMNTWNHLLHKMN		Matara	LK-32	6.142734	80.539994	Hakmana	PS-320106	6.084824	80.643227	6.079554	80.657662	Hakmana, Sri Lanka	1.700772		මාතර	හක්මන	නගර ශාලාව - හක්මන	மாத்தறை	ஹக்மனா	டவுன் ஹால் - ஹக்மனா	හක්මන, ශ්‍රී ලංකාව	ஹக்மனா, இலங்கை
Matara	Weligama	Weligama Siddhartha Maha Vidyalaya	False	False	MTRWLGMWLGMSDDHRTHMHVDYLY		Matara	LK-32	6.142734	80.539994	Weligama	PS-320111	5.973301	80.426455	5.971718	80.422394	XCCC+MXJ, Weligama, Sri Lanka	0.482525		මාතර	වැලිගම	වැලිගම සිද්ධාර්ථ මහා විද්‍යාලය	மாத்தறை	வெலிகம	வெலிகம சித்தார்த்த மகா வித்தியாலயம்	XCCC+MXJ, වැලිගම, ශ්‍රී ලංකාව	XCCC+MXJ, வெலிகம, இலங்கை
Matara	Deniyaya	Deniyaya Maha Vidyalaya	False	False	MTRDNYYDNYYMHVDYLY		Matara	LK-32	6.142734	80.539994	Deniyaya	PS-320110	6.341435	80.558719	6.342485	80.559658	Sri Lanka Matara, Deniyaya, Sri Lanka	0.156256		මාතර	දෙනියාය	දෙනියාය මහා විද්‍යාලය	மாத்தறை	தெனியாய	தெனியாய மகா வித்தியாலயம்	ශ්‍රී ලංකා මාතර, දෙනියාය, ශ්‍රී ලංකාව	இலங்கை மாத்தறை, தெனியாயா, இலங்கை
Matara	Akuressa	Army Mobile Vaccination	False	False	MTRKRSSRMYMBLVCCNTN		Matara	LK-32	6.142734	80.539994	Akuressa	PS-320112	6.099044	80.4776					#CenterLocationUnknown	මාතර	අකුරැස්ස	හමුදා ජංගම එන්නත් කිරීම	மாத்தறை	அக்குரஸ்ஸா	இராணுவ மொபைல் தடுப்பூசி		
Hambantota	Walasmulla	Modarawana Maha Vidyalaya	False	False	HMBNTTWLSMLLMDRWNMHVDYLY		Hambantota	LK-33	6.259779	81.098619	Walasmulla	PS-330151	6.154102	80.698256	6.109322	80.714402	Beliatta - Walasmulla Rd, Okewela, Sri Lanka	5.291276		හම්බන්තොට	වලස්මුල්ල	මෝදරවාන මහා විද්‍යාලය	அம்பாந்தோட்டை	வலஸ்முல்லா	மோதரவன மகா வித்தியாலயம்	බෙලිඅත්ත - වලස්මුල්ල පාර, ඕකේවෙල, ශ්‍රී ලංකාව	பெலியாட்ட - வலஸ்முல்லா சாலை, ஒகேவெலா, இலங்கை
Hambantota	Tangalle	MOH Office - Tangalle	False	False	HMBNTTTNGLLMHFFCTNGLL		Hambantota	LK-33	6.259779	81.098619	Tangalle	PS-330147	6.023954	80.797255	6.02363	80.795742	2QFW+F75, Tangalle, Sri Lanka	0.171198		හම්බන්තොට	තංගල්ල	MOH කාර්යාලය - තංගල්ල	அம்பாந்தோட்டை	தங்காலை	MOH அலுவலகம் - தங்காலை	2QFW+F75, තංගල්ල, ශ්‍රී ලංකාව	2QFW+F75, தங்காலை, இலங்கை
Hambantota	Tangalle	Vitharandeniya Sudarshanagama Primary College	False	False	HMBNTTTNGLLVTHRNDNYSDRSHNGMPRMRYCLLG		Hambantota	LK-33	6.259779	81.098619	Tangalle	PS-330147	6.023954	80.797255	6.022935	80.794892	2QFV+5XC, Tangalle, Sri Lanka	0.284901		හම්බන්තොට	තංගල්ල	විතාරන්දෙණිය සුදර්ශනගම ප්‍රාථමික විද්‍යාලය	அம்பாந்தோட்டை	தங்காலை	விதாரந்தெனிய சுதர்சனகம ஆரம்ப கல்லூரி	2QFV+5XC, තංගල්ල, ශ්‍රී ලංකාව	2QFV+5XC, தங்காலை, இலங்கை
Hambantota	Beliatta	MOH Office - Beliatta	False	False	HMBNTTBLTTMHFFCBLTT		Hambantota	LK-33	6.259779	81.098619	Beliatta	PS-330152	6.046936	80.735408	6.051828	80.741735	3P2R+PMQ, Hambantota, Sri Lanka	0.886482		හම්බන්තොට	බෙලිඅත්ත	MOH කාර්යාලය - බෙලිඅත්ත	அம்பாந்தோட்டை	பெலியாட்டா	MOH அலுவலகம் - பெலியாட்ட	3P2R+PMQ, හම්බන්තොට, ශ්‍රී ලංකාව	3P2R+PMQ, ஹம்பாந்தோட்டை, இலங்கை
Hambantota	Beliatta	Pallaththara Maha Vidyalaya	False	False	HMBNTTBLTTPLLTHTHRMHVDYLY		Hambantota	LK-33	6.259779	81.098619	Beliatta	PS-330152	6.046936	80.735408	6.061014	80.730277	3P6J+C42, Beliatta, Sri Lanka	1.665569		හම්බන්තොට	බෙලිඅත්ත	පල්ලත්තර මහා විද්‍යාලය	அம்பாந்தோட்டை	பெலியாட்டா	பள்ளத்தாரா மகா வித்தியாலயம்	3 පී 6 ජේ+සී 42, බෙලිඅත්ත, ශ්‍රී ලංකාව	3P6J+C42, பெலியாட்டா, இலங்கை
Hambantota	Katuwana	MOH Office - Katuwana	False	False	HMBNTTKTWNMHFFCKTWN		Hambantota	LK-33	6.259779	81.098619	Katuwana	PS-330153	6.269722	80.690963	6.26627	80.693035	7M8V+G63, Katuwana, Sri Lanka	0.447115		හම්බන්තොට	කටුවන	MOH කාර්යාලය - කටුවන	அம்பாந்தோட்டை	கட்டுவானா	MOH அலுவலகம் - கட்டுவானா	7 එම් 8 වී+ජී 63, කටුවන, ශ්‍රී ලංකාව	7M8V+G63, கட்டுவானா, இலங்கை
Hambantota	Angunakolapelessa	MOH Office - Angunakolapelessa	False	False	HMBNTTNGNKLPLSSMHFFCNGNKLPLSS		Hambantota	LK-33	6.259779	81.098619	Angunakolapelessa	PS-330150	6.321993	80.844883	6.164691	80.898963	Unnamed Road, Agunukolapelessa, Sri Lanka	18.490258		හම්බන්තොට	අගුණකොලපැලැස්ස	MOH කාර්යාලය - අඟුණකොලපැලැස්ස	அம்பாந்தோட்டை	அங்குனகோலபெலெஸ்ஸா	MOH அலுவலகம் - அங்குனகொலபெலஸ்ஸா	නම් නොකළ පාර, අගුණුකොලපැලැස්ස, ශ්‍රී ලංකාව	பெயரிடப்படாத சாலை, அகுனுகோலபெலஸ்ஸா, இலங்கை
Hambantota	Angunakolapelessa	Jandura Primary College	False	False	HMBNTTNGNKLPLSSJNDRPRMRYCLLG		Hambantota	LK-33	6.259779	81.098619	Angunakolapelessa	PS-330150	6.321993	80.844883	6.150016	80.898979	Eramini Yaya - Pattamaluwa Rd, Sri Lanka	20.042349	#CenterFarFromPolice	හම්බන්තොට	අගුණකොලපැලැස්ස	ජඳුර ප්‍රාථමික විද්‍යාලය	அம்பாந்தோட்டை	அங்குனகோலபெலெஸ்ஸா	ஜந்துரா தொடக்கக் கல்லூரி	එරමිණි යාය - පට්ටමලූව පාර, ශ්‍රී ලංකාව	எரமினி யயா - பட்டமாலுவ சாலை, இலங்கை
Hambantota	Thissamaharamaya	Muthiyammagama Primary College	False	False	HMBNTTTHSSMHRMYMTHYMMGMPRMRYCLLG		Hambantota	LK-33	6.259779	81.098619	Tissamaharamaya	PS-330158	6.26109	81.236724	6.276898	81.286084	Cross street, තිස්සමහාරාමය 82600, Sri Lanka	5.733735		හම්බන්තොට	තිසමහාරාමය	මුතියමගම ප්‍රාථමික විද්‍යාලය	அம்பாந்தோட்டை	திசமஹாராமயா	முத்தியம்மகம தொடக்கக் கல்லூரி	හරස් වීදිය, තිස්සමහාරාමය 82600, ශ්‍රී ලංකාව	குறுக்குத் தெரு, திஸ்ஸமஹாராமாய 82600, இலங்கை
Hambantota	Suriyawewa	Viharagala Viharaya	False	False	HMBNTTSRYWWVHRGLVHRY		Hambantota	LK-33	6.259779	81.098619	Sooriyawewa	PS-330155	6.306022	81.003873	6.280703	80.988902	7XJQ+7HJ, Hambantota, Sri Lanka	3.266617		හම්බන්තොට	සූරියවැව	විහාරගල විහාරය	அம்பாந்தோட்டை	சூரியவெவ	விஹாரகலா விஹாராயா	7XJQ+7HJ, හම්බන්තොට, ශ්‍රී ලංකාව	7XJQ+7HJ, ஹம்பாந்தோட்டை, இலங்கை
Hambantota	Suriyawewa	Weniwelara Vidyalaya	False	False	HMBNTTSRYWWWNWLRVDYLY		Hambantota	LK-33	6.259779	81.098619	Sooriyawewa	PS-330155	6.306022	81.003873	6.056995	80.750125	3Q42+Q3R, Hambantota, Sri Lanka	39.428635	#CenterFarFromPolice	හම්බන්තොට	සූරියවැව	වෙනිවෙලාර විද්‍යාලය	அம்பாந்தோட்டை	சூரியவெவ	வெனிவேலரா வித்தியாலயம்	3Q42+Q3R, හම්බන්තොට, ශ්‍රී ලංකාව	3Q42+Q3R, ஹம்பாந்தோட்டை, இலங்கை
Hambantota	Ambalanthota	Pahala Beragama Vidyalaya	False	False	HMBNTTMBLNTHTPHLBRGMVDYLY		Hambantota	LK-33	6.259779	81.098619	Ambalantota	PS-330157	6.12516	81.023981	6.148971	81.049155	Pahala Beragama Rd, Ambalantota, Sri Lanka	3.842586		හම්බන්තොට	අම්බලන්තොට	පහළ බෙරගම විද්‍යාලය	அம்பாந்தோட்டை	அம்பலாந்தோடா	பஹல பெரகம வித்யாலயா	පහළ බෙරගම පාර, අම්බලන්තොට, ශ්‍රී ලංකාව	பஹல பெரகம வீதி, அம்பலாந்தோட்டை, இலங்கை
Hambantota	Ambalanthota	Arawanamulla Viharaya	False	False	HMBNTTMBLNTHTRWNMLLVHRY		Hambantota	LK-33	6.259779	81.098619	Ambalantota	PS-330157	6.12516	81.023981	6.127007	81.022217	42GC+RV4, Ambalantota, Sri Lanka	0.283312		හම්බන්තොට	අම්බලන්තොට	අරවනමුල්ල විහාරය	அம்பாந்தோட்டை	அம்பலாந்தோடா	அரவணமுல்லா விஹாராயா	42GC+RV4, අම්බලන්තොට, ශ්‍රී ලංකාව	42GC+RV4, அம்பலாந்தோட்டை, இலங்கை
Rathnapura	Opanayaka	Millaketiya Vidyalaya	False	False	RTHNPRPNYKMLLKTYVDYLY		Ratnapura	LK-91	6.586826	80.566158	Opanayaka	PS-910104	6.608519	80.619285	6.618238	80.62379	Galhira Rd, Opanayake,, Sri Lanka	1.190132		රත්නපුර	ඕපනායක	මිල්ලකැටිය විද්‍යාලය	இரத்தினபுரி	ஓபநாயக்கா	மில்லகெட்டிய வித்யாலயா	ගල්හිර පාර, ඕපනායක, ශ්‍රී ලංකාව	கால்ஹிரா வீதி, ஓபநாயக்க ,, இலங்கை
Rathnapura	Opanayaka	Akarella  Vidyalaya	False	False	RTHNPRPNYKKRLLVDYLY		Ratnapura	LK-91	6.586826	80.566158	Opanayaka	PS-910104	6.608519	80.619285	6.618238	80.62379	Galhira Rd, Opanayake,, Sri Lanka	1.190132		රත්නපුර	ඕපනායක	අකරැල්ල විද්‍යාලය	இரத்தினபுரி	ஓபநாயக்கா	அகரெல்லா வித்யாலயா	ගල්හිර පාර, ඕපනායක, ශ්‍රී ලංකාව	கால்ஹிரா வீதி, ஓபநாயக்க ,, இலங்கை
Rathnapura	Pinnawala	Sumanadewa Vidyalaya	False	False	RTHNPRPNNWLSMNDWVDYLY		Ratnapura	LK-91	6.586826	80.566158	Pinnawala	PS-910115	7.299943	80.386604	6.726907	80.663883	Pahala Waleboda Rd, Sri Lanka	70.708149	#CenterFarFromPolice	රත්නපුර	පින්නවල	සුමනදේව විද්‍යාලය	இரத்தினபுரி	பின்னாவாலா	சுமனதேவா வித்யாலயா	පහළ වලේබොඩ පාර, ශ්‍රී ලංකාව	பஹலா வாலேபோடா சாலை, இலங்கை
Rathnapura	Pinnawala	Gurubewa Vidyalaya	False	False	RTHNPRPNNWLGRBWVDYLY		Ratnapura	LK-91	6.586826	80.566158	Pinnawala	PS-910115	7.299943	80.386604	6.773169	80.317655	Kuruwita, Sri Lanka	59.085287	#CenterFarFromPolice	රත්නපුර	පින්නවල	ගුරුබේවා විද්‍යාලය	இரத்தினபுரி	பின்னாவாலா	குருபேவா வித்யாலயா	කුරුවිට, ශ්‍රී ලංකාව	குருவிட, இலங்கை
Rathnapura	Pinnawala	Pinnawala Dispensary	False	False	RTHNPRPNNWLPNNWLDSPNSRY		Ratnapura	LK-91	6.586826	80.566158	Pinnawala	PS-910115	7.299943	80.386604	6.870229	80.120206	Wewalpanawa - Waga Rd, Pinnawala, Sri Lanka	56.117848	#CenterFarFromPolice	රත්නපුර	පින්නවල	පින්නවල බෙහෙත් ශාලාව	இரத்தினபுரி	பின்னாவாலா	பின்வாலா மருந்தகம்	වෑවලපනාව - වග පාර, පින්නවල, ශ්‍රී ලංකාව	வெவல்பனாவா - வாகா சாலை, பின்வாலா, இலங்கை
Rathnapura	Pinnawala	Morahela Dispensary	False	False	RTHNPRPNNWLMRHLDSPNSRY		Ratnapura	LK-91	6.586826	80.566158	Pinnawala	PS-910115	7.299943	80.386604	6.671939	80.680324	Rassagala Rd, Bulathgama, Sri Lanka	77.012774	#CenterFarFromPolice	රත්නපුර	පින්නවල	මොරහෙල බෙහෙත් ශාලාව	இரத்தினபுரி	பின்னாவாலா	மொரஹெலா மருந்தகம்	රාස්සගල පාර, බුලත්ගම, ශ්‍රී ලංකාව	ரஸ்ஸகலா வீதி, புலத்கம, இலங்கை
Rathnapura	Godakawela	Agaregama Vidyalaya	False	False	RTHNPRGDKWLGRGMVDYLY		Ratnapura	LK-91	6.586826	80.566158	Godakawela	PS-910233	6.50224	80.655642	6.505873	80.640843	GJ4R+88W, Ratnapura, Sri Lanka	1.684679		රත්නපුර	ගොඩකවෙල	අගරෙගම විද්‍යාලය	இரத்தினபுரி	கோடகவேலா	அகரேகம வித்யாலயா	ජීජේ 4 ආර්+88 ඩබ්, රත්නපුර, ශ්‍රී ලංකාව	GJ4R+88W, இரத்தினபுரி, இலங்கை
Rathnapura	Godakawela	Opatha No. 3 Tamil College	False	False	RTHNPRGDKWLPTHNTMLCLLG		Ratnapura	LK-91	6.586826	80.566158	Godakawela	PS-910233	6.50224	80.655642	6.563779	80.611601	No 03 Opatha Rd, Kahawatta, Sri Lanka	8.39881		රත්නපුර	ගොඩකවෙල	ඕපාත අංක 3 දමිළ විද්‍යාලය	இரத்தினபுரி	கோடகவேலா	ஓபாதா எண் 3 தமிழ் கல்லூரி	අංක 03 ඕපාත පාර, කහවත්ත, ශ්‍රී ලංකාව	எண் 03 Opatha Rd, கஹவத்த, இலங்கை
Rathnapura	Balangoda	Rassagala Vidyalaya	False	False	RTHNPRBLNGDRSSGLVDYLY		Ratnapura	LK-91	6.586826	80.566158	Balangoda	PS-910103	6.649474	80.700276	6.692579	80.643126	Balangoda - Rassagala - Uwella Rd, Sri Lanka	7.927876		රත්නපුර	බලන්ගොඩ	රාස්සගල විද්‍යාලය	இரத்தினபுரி	பலாங்கொடை	ராசகலா வித்தியாலயம்	බලංගොඩ - රාස්සගල - උවැල්ල පාර, ශ්‍රී ලංකාව	பலாங்கொட - ரஸ்ஸகலா - உவெல்லா சாலை, இலங்கை
Rathnapura	Balangoda	Durakanda Vidyalaya	False	False	RTHNPRBLNGDDRKNDVDYLY		Ratnapura	LK-91	6.586826	80.566158	Balangoda	PS-910103	6.649474	80.700276	6.704898	80.624626	Sri Lanka	10.385179		රත්නපුර	බලන්ගොඩ	දුරකන්ද විද්‍යාලය	இரத்தினபுரி	பலாங்கொடை	துரகந்தா வித்யாலயா	ශ්රී ලංකාව	இலங்கை
Rathnapura	Balangoda	Watawala Vidyalaya	False	False	RTHNPRBLNGDWTWLVDYLY		Ratnapura	LK-91	6.586826	80.566158	Balangoda	PS-910103	6.649474	80.700276	6.625092	80.794203	Watawala Mulgama, Kapugala Rd, 70100, Sri Lanka	10.725983		රත්නපුර	බලන්ගොඩ	වටවල විද්‍යාලය	இரத்தினபுரி	பலாங்கொடை	வடவாலா வித்யாலயா	වටවල මුල්ගම, කපුගල පාර, 70100, ශ්‍රී ලංකාව	வடவாலா முல்கம, கபுகல சாலை, 70100, இலங்கை
Rathnapura	Balangoda	Godakumbura Vidyalaya	False	False	RTHNPRBLNGDGDKMBRVDYLY		Ratnapura	LK-91	6.586826	80.566158	Balangoda	PS-910103	6.649474	80.700276	6.602628	80.734181	JP3M+3M3, Ratnapura, Sri Lanka	6.41748		රත්නපුර	බලන්ගොඩ	ගොඩකුඹුර විද්යාලය	இரத்தினபுரி	பலாங்கொடை	கொடகும்புரா வித்யாலயா	JP3M+3M3, රත්නපුර, ශ්‍රී ලංකාව	JP3M+3M3, இரத்தினபுரி, இலங்கை
Rathnapura	Balangoda	Mahawalathenna Vidyalaya	False	False	RTHNPRBLNGDMHWLTHNNVDYLY		Ratnapura	LK-91	6.586826	80.566158	Balangoda	PS-910103	6.649474	80.700276	6.580138	80.732308	HPJJ+3W3, Mahawalathenna, Sri Lanka	8.485542		රත්නපුර	බලන්ගොඩ	මහවලතැන්න විද්‍යාලය	இரத்தினபுரி	பலாங்கொடை	மஹவலதென்ன வித்தியாலயம்	HPJJ+3W3, මහවලතැන්න, ශ්‍රී ලංකාව	HPJJ+3W3, மகாவலதென்ன, இலங்கை
Rathnapura	Balangoda	Imbulmure Vidyalaya	False	False	RTHNPRBLNGDMBLMRVDYLY		Ratnapura	LK-91	6.586826	80.566158	Balangoda	PS-910103	6.649474	80.700276	6.641498	80.714138	JPR7+HMR, Balangoda, Sri Lanka	1.769912		රත්නපුර	බලන්ගොඩ	ඉඹුල්මුරේ විද්‍යාලය	இரத்தினபுரி	பலாங்கொடை	இம்புல்முரே வித்யாலயா	JPR7+HMR, බලංගොඩ, ශ්‍රී ලංකාව	JPR7+HMR, பலாங்கோடா, இலங்கை
Rathnapura	Samanalawewa	Pambahinna Hospital	False	False	RTHNPRSMNLWWPMBHNNHSPTL		Ratnapura	LK-91	6.586826	80.566158									#PoliceLocationUnknown	රත්නපුර	සමනලවැව	පඹහින්න රෝහල	இரத்தினபுரி	சமனலவெவ	பம்பஹின்னா மருத்துவமனை		
Rathnapura	Weligepola	Kandegama Health Centre	False	False	RTHNPRWLGPLKNDGMHLTHCNTR		Ratnapura	LK-91	6.586826	80.566158	Weligepola	PS-910106	6.596426	80.723695	6.686824	80.393088	Colombo Rd, Ratnapura 70000, Sri Lanka	37.885254	#CenterFarFromPolice	රත්නපුර	වැලිගෙපොළ	කන්දේගම සෞඛ්‍ය මධ්‍යස්ථානය	இரத்தினபுரி	வெலிகெபொல	கண்டேகம சுகாதார மையம்	කොළඹ පාර, රත්නපුර 70000, ශ්‍රී ලංකාව	கொழும்பு வீதி, இரத்தினபுரி 70000, இலங்கை
Rathnapura	Weligepola	Yatipasgamuwa Vidyalaya	False	False	RTHNPRWLGPLYTPSGMWVDYLY		Ratnapura	LK-91	6.586826	80.566158	Weligepola	PS-910106	6.596426	80.723695	6.561477	80.733922	Yatipassgamuwa Rd, Weligepola, Sri Lanka	4.048294		රත්නපුර	වැලිගෙපොළ	යටිපස්ගමුව විද්‍යාලය	இரத்தினபுரி	வெலிகெபொல	யதிபாஸ்கமுவா வித்யாலயா	යටිපස්ගමුව පාර, වැලිගෙපොල, ශ්‍රී ලංකාව	யதிபாஸ்கமுவ வீதி, வெலிகெபொல, இலங்கை
Rathnapura	Weligepola	Hatangala Vidyalaya	False	False	RTHNPRWLGPLHTNGLVDYLY		Ratnapura	LK-91	6.586826	80.566158	Weligepola	PS-910106	6.596426	80.723695	6.574518	80.706607	HPF4+RJ5, Weligepola, Sri Lanka	3.082732		රත්නපුර	වැලිගෙපොළ	හතංගල විද්‍යාලය	இரத்தினபுரி	வெலிகெபொல	ஹடங்கள வித்யாலயா	HPF4+RJ5, වැලිගෙපොල, ශ්‍රී ලංකාව	HPF4+RJ5, வெலிகெபொல, இலங்கை
Rathnapura	Weligepola	Kottimulwala Viharaya	False	False	RTHNPRWLGPLKTTMLWLVHRY		Ratnapura	LK-91	6.586826	80.566158	Weligepola	PS-910106	6.596426	80.723695	6.550577	80.731519	HP2J+6JJ, Weligepola, Sri Lanka	5.172538		රත්නපුර	වැලිගෙපොළ	කොට්ටිමුල්වල විහාරය	இரத்தினபுரி	வெலிகெபொல	கொட்டிமுல்வாலா விஹாராயா	HP2J+6JJ, වැලිගෙපොල, ශ්‍රී ලංකාව	HP2J+6JJ, வெலிகெபொல, இலங்கை
Rathnapura	Weligepola	Kalegammana Viharaya	False	False	RTHNPRWLGPLKLGMMNVHRY		Ratnapura	LK-91	6.586826	80.566158	Weligepola	PS-910106	6.596426	80.723695	6.578241	80.705765	HPH4+78R, Weligepola, Sri Lanka	2.831336		රත්නපුර	වැලිගෙපොළ	කලෙගම්මන විහාරය	இரத்தினபுரி	வெலிகெபொல	கலேகம்மன விஹாராயா	HPH4+78R, වැලිගෙපොල, ශ්‍රී ලංකාව	HPH4+78R, வெலிகெபொல, இலங்கை
Rathnapura	Weligepola	Kongastenna Vidyalaya	False	False	RTHNPRWLGPLKNGSTNNVDYLY		Ratnapura	LK-91	6.586826	80.566158	Weligepola	PS-910106	6.596426	80.723695	6.574518	80.706607	HPF4+RJ5, Weligepola, Sri Lanka	3.082732		රත්නපුර	වැලිගෙපොළ	කොන්ගස්තැන්න විද්‍යාලය	இரத்தினபுரி	வெலிகெபொல	கொங்கஸ்டென்னா வித்யாலயா	HPF4+RJ5, වැලිගෙපොල, ශ්‍රී ලංකාව	HPF4+RJ5, வெலிகெபொல, இலங்கை
Rathnapura	Weligepola	Panana Vidyalaya	False	False	RTHNPRWLGPLPNNVDYLY		Ratnapura	LK-91	6.586826	80.566158	Weligepola	PS-910106	6.596426	80.723695	6.574518	80.706607	HPF4+RJ5, Weligepola, Sri Lanka	3.082732		රත්නපුර	වැලිගෙපොළ	පානන විද්‍යාලය	இரத்தினபுரி	வெலிகெபொல	பனனா வித்யாலயா	HPF4+RJ5, වැලිගෙපොල, ශ්‍රී ලංකාව	HPF4+RJ5, வெலிகெபொல, இலங்கை
Rathnapura	Embilipitiya	Thorakolayaya Vidyalaya	False	False	RTHNPRMBLPTYTHRKLYYVDYLY		Ratnapura	LK-91	6.586826	80.566158	Embilipitiya	PS-910237	6.321993	80.844883	6.286169	80.797078	7QPW+FR8, Ratnapura, Sri Lanka	6.618991		රත්නපුර	ඇඹිලිපිටිය	තෝරකොලයයා විද්‍යාලය	இரத்தினபுரி	எம்பிலிப்பிட்டிய	தொரகொலையா வித்யாலயா	7QPW+FR8, රත්නපුර, ශ්‍රී ලංකාව	7QPW+FR8, இரத்தினபுரி, இலங்கை
Rathnapura	Embilipitiya	Bodhiraja Dharma Institute	False	False	RTHNPRMBLPTYBDHRJDHRMNSTTT		Ratnapura	LK-91	6.586826	80.566158	Embilipitiya	PS-910237	6.321993	80.844883	6.346927	80.841412	Pelmadulla - Embilipitiya Hwy, Embilipitiya, Sri Lanka	2.799824		රත්නපුර	ඇඹිලිපිටිය	බෝධිරාජ ධර්ම ආයතනය	இரத்தினபுரி	எம்பிலிப்பிட்டிய	போதிராஜா தர்ம நிறுவனம்	පැල්මඩුල්ල - ඇඹිලිපිටිය හ්වි, ඇඹිලිපිටිය, ශ්‍රී ලංකාව	பெல்மடுல்லா - எம்பிலிபிட்டிய ஹ்வி, எம்பிலிப்பிட்டிய, இலங்கை
Rathnapura	Embilipitiya	Julankate  Vidyalaya	False	False	RTHNPRMBLPTYJLNKTVDYLY		Ratnapura	LK-91	6.586826	80.566158	Embilipitiya	PS-910237	6.321993	80.844883	6.337086	80.845788	8RPW+R8M, Embilipitiya, Sri Lanka	1.681771		රත්නපුර	ඇඹිලිපිටිය	ජූලන්කට් විද්‍යාලය	இரத்தினபுரி	எம்பிலிப்பிட்டிய	ஜூலன்கேட் வித்யாலயா	8RPW+R8M, ඇඹිලිපිටිය, ශ්‍රී ලංකාව	8RPW+R8M, எம்பிலிப்பிட்டிய, இலங்கை
Rathnapura	Udawalawa	Maduwanwela Vidyalaya	False	False	RTHNPRDWLWMDWNWLVDYLY		Ratnapura	LK-91	6.586826	80.566158	Udawalawa	PS-910234	6.422661	80.814293	6.389167	80.703611	B115, Suriyakanda, Sri Lanka	12.788943		රත්නපුර	උඩවලව	මඩුවන්වෙල විද්‍යාලය	இரத்தினபுரி	உடவலவா	மடுவான்வெல வித்தியாலயம்	බී 1115, සූරියකන්ද, ශ්‍රී ලංකාව	B115, சூரியகாந்தா, இலங்கை
Rathnapura	Udawalawa	Makandura Vidyalaya	False	False	RTHNPRDWLWMKNDRVDYLY		Ratnapura	LK-91	6.586826	80.566158	Udawalawa	PS-910234	6.422661	80.814293	6.531572	80.590958	A17, Sri Lanka	27.495464	#CenterFarFromPolice	රත්නපුර	උඩවලව	මාකඳුර විද්‍යාලය	இரத்தினபுரி	உடவலவா	மகந்துரா வித்யாலயா	ඒ 17, ශ්‍රී ලංකාව	ஏ 17, இலங்கை
Rathnapura	Udawalawa	Kolombageara Maha Vidyalaya	False	False	RTHNPRDWLWKLMBGRMHVDYLY		Ratnapura	LK-91	6.586826	80.566158	Udawalawa	PS-910234	6.422661	80.814293	6.418356	80.780324	maha vidyalaya, Sri Lanka	3.785079		රත්නපුර	උඩවලව	කොළඹගේආර මහා විද්‍යාලය	இரத்தினபுரி	உடவலவா	கொலம்பகேரா மகா வித்தியாலயம்	මහා විද්‍යාලය, ශ්‍රී ලංකාව	மகா வித்தியாலயம், இலங்கை
Rathnapura	Kolonna	Wijeriya Suma Maha Vidyalaya	False	False	RTHNPRKLNNWJRYSMMHVDYLY		Ratnapura	LK-91	6.586826	80.566158	Kolonna	PS-910235	6.40194	80.687615	6.423524	80.653169	B115, Sri Lanka	4.50116		රත්නපුර	කොළොන්න	විජේරිය සුම මහා විද්‍යාලය	இரத்தினபுரி	கொலோன்னா	விஜேரிய சுமா மகா வித்தியாலயம்	බී 115, ශ්‍රී ලංකාව	பி 115, இலங்கை
Rathnapura	Kolonna	Suriya Kanda Egbert Vidyalaya	False	False	RTHNPRKLNNSRYKNDGBRTVDYLY		Ratnapura	LK-91	6.586826	80.566158	Kolonna	PS-910235	6.40194	80.687615	6.43354	80.638241	Suriyakanda, Sri Lanka	6.491377		රත්නපුර	කොළොන්න	සූරිය කන්ද එග්බර්ට් විද්‍යාලය	இரத்தினபுரி	கொலோன்னா	சூரிய கந்தா எக்பர்ட் வித்யாலயா	සූරියකන්ද, ශ්‍රී ලංකාව	சூரியகாந்தா, இலங்கை
Rathnapura	Rakwana	Kotakothana Vidyalaya	False	False	RTHNPRRKWNKTKTHNVDYLY		Ratnapura	LK-91	6.586826	80.566158	Rakwana	PS-910108	6.470133	80.613684	6.472859	80.613449	Masimbula Rd, Rakwana, Sri Lanka	0.304323		රත්නපුර	රක්වාන	කොටකොටාන විද්‍යාලය	இரத்தினபுரி	ரக்வானா	கோட்டகோதன வித்தியாலயம்	මසිබුල පාර, රක්වාන, ශ්‍රී ලංකාව	மாசிம்புலா சாலை, ரக்வானா, இலங்கை
Rathnapura	Rakwana	Panawala Vidyalaya	False	False	RTHNPRRKWNPNWLVDYLY		Ratnapura	LK-91	6.586826	80.566158	Rakwana	PS-910108	6.470133	80.613684	6.543634	80.608134	Panawala, Atakalanpanna, Sri Lanka	8.198479		රත්නපුර	රක්වාන	පනාවල විද්‍යාලය	இரத்தினபுரி	ரக்வானா	பனாவாலா வித்யாலயா	පනාවල, අටකාලන්පන්න, ශ්‍රී ලංකාව	பனாவாலா, அடகளன்பண்ணா, இலங்கை
Rathnapura	Rakwana	Hiramadagama Vidyalaya	False	False	RTHNPRRKWNHRMDGMVDYLY		Ratnapura	LK-91	6.586826	80.566158	Rakwana	PS-910108	6.470133	80.613684	6.53071	80.615995	GJJ8+79Q, Ratnapura, Sri Lanka	6.742808		රත්නපුර	රක්වාන	හිරමඩගම විද්‍යාලය	இரத்தினபுரி	ரக்வானா	ஹிரமடகம வித்யாலயா	GJJ8+79Q, රත්නපුර, ශ්‍රී ලංකාව	GJJ8+79Q, இரத்தினபுரி, இலங்கை
Rathnapura	Kahawatta	Madalagama Vidyalaya	False	False	RTHNPRKHWTTMDLGMVDYLY		Ratnapura	LK-91	6.586826	80.566158	Kahawatta	PS-910107	6.591434	80.56893	6.53663	80.523916	Madalagama, Kahawatta., Endana - Madalagama - Nahalwatura Rd, Sri Lanka	7.867701		රත්නපුර	කහවත්ත	මඩලගම විද්‍යාලය	இரத்தினபுரி	கஹவத்த	மதலகம வித்யாலயா	මඩලගම, කහවත්ත., එන්දන - මඩලගම - නාහල්වතුර පාර, ශ්‍රී ලංකාව	மதலகம, கஹவத்த., எண்டனா - மதலகம - நஹல்வத்துரா சாலை, இலங்கை
Rathnapura	Kahawatta	Madalagama Colony Vidyalaya	False	False	RTHNPRKHWTTMDLGMCLNYVDYLY		Ratnapura	LK-91	6.586826	80.566158	Kahawatta	PS-910107	6.591434	80.56893	6.53663	80.523916	Madalagama, Kahawatta., Endana - Madalagama - Nahalwatura Rd, Sri Lanka	7.867701		රත්නපුර	කහවත්ත	මඩලගම ජනපද විද්‍යාලය	இரத்தினபுரி	கஹவத்த	மதலகம காலனி வித்யாலயா	මඩලගම, කහවත්ත., එන්දන - මඩලගම - නාහල්වතුර පාර, ශ්‍රී ලංකාව	மதலகம, கஹவத்த., எண்டனா - மதலகம - நஹல்வத்துரா சாலை, இலங்கை
Rathnapura	Kahawatta	Nawalakanda Vidyalaya	False	False	RTHNPRKHWTTNWLKNDVDYLY		Ratnapura	LK-91	6.586826	80.566158	Kahawatta	PS-910107	6.591434	80.56893	6.54544	80.540911	Manandola - Endana Rd, Kahawatta 70154, Sri Lanka	5.979822		රත්නපුර	කහවත්ත	නාවලකන්ද විද්‍යාලය	இரத்தினபுரி	கஹவத்த	நாவலகந்தா வித்தியாலயம்	මානන්දොල - එන්දන පාර, කහවත්ත 70154, ශ්‍රී ලංකාව	மனந்தோலா - எண்டானா சாலை, கஹவத்த 70154, இலங்கை
Rathnapura	Kahawatta	Handurukanda Vidyalaya	False	False	RTHNPRKHWTTHNDRKNDVDYLY		Ratnapura	LK-91	6.586826	80.566158	Kahawatta	PS-910107	6.591434	80.56893	6.584014	80.570904	Watapotha - Kahawatta Road, Kahawatta, Sri Lanka	0.853661		රත්නපුර	කහවත්ත	හන්දුරුකන්ද විද්‍යාලය	இரத்தினபுரி	கஹவத்த	ஹந்துருகந்தா வித்யாலயா	වටපොත - කහවත්ත පාර, කහවත්ත, ශ්‍රී ලංකාව	வாதபோத - கஹவத்த வீதி, கஹவத்த, இலங்கை
Rathnapura	Wewelwatta	Amunuthenna Vidyalaya	False	False	RTHNPRWWLWTTMNTHNNVDYLY		Ratnapura	LK-91	6.586826	80.566158	Wewalwatta	PS-910102	6.707202	80.555569	6.682615	80.39899	Vinisuru Mw, රත්නපුර 70000, Sri Lanka	17.512353		රත්නපුර	වේවැල්වත්ත	අමුණුතැන්න විද්‍යාලය	இரத்தினபுரி	வெவெல்வத்தை	அமுனுதென்ன வித்யாலயா	විනිසුරු මාවත, රත්නපුර 70000, ශ්‍රී ලංකාව	வினிசுரு Mw, இரத்தினபுரம் 70000, இலங்கை
Rathnapura	Wewelwatta	Gurubewilagama Vidyalaya	False	False	RTHNPRWWLWTTGRBWLGMVDYLY		Ratnapura	LK-91	6.586826	80.566158	Wewalwatta	PS-910102	6.707202	80.555569	6.683533	80.399526	A4, Ratnapura, Sri Lanka	17.438145		රත්නපුර	වේවැල්වත්ත	ගුරුබෙවිලගම විද්‍යාලය	இரத்தினபுரி	வெவெல்வத்தை	குருபேவிலகம வித்யாலயா	ඒ 4, රත්නපුර, ශ්‍රී ලංකාව	A4, இரத்தினபுரா, இலங்கை
Rathnapura	Wewelwatta	Bambarabotuwa Vidyalaya	False	False	RTHNPRWWLWTTBMBRBTWVDYLY		Ratnapura	LK-91	6.586826	80.566158	Wewalwatta	PS-910102	6.707202	80.555569	6.708183	80.541656	PG5R+7MC, Ratnapura, Sri Lanka	1.540816		රත්නපුර	වේවැල්වත්ත	බඹරබොටුව විද්‍යාලය	இரத்தினபுரி	வெவெல்வத்தை	பம்பரபோதுவ வித்யாலயா	PG5R+7MC, රත්නපුර, ශ්‍රී ලංකාව	PG5R+7MC, இரத்தினபுரி, இலங்கை
Rathnapura	Siripagama	Samanala Vidyalaya	False	False	RTHNPRSRPGMSMNLVDYLY		Ratnapura	LK-91	6.586826	80.566158	Siripagama	PS-910116	6.783587	80.4322	6.749915	80.428885	Malwala - Siripagama Rd, Sri Lanka	3.763187		රත්නපුර	සිරිපාගම	සමනල විද්‍යාලය	இரத்தினபுரி	சிறிபாகம	சமணால வித்யாலயா	මල්වල - සිරිපාගම පාර, ශ්‍රී ලංකාව	மல்வாலா - சிறிபாகம வீதி, இலங்கை
Rathnapura	Siripagama	Palabedda Vidyalaya	False	False	RTHNPRSRPGMPLBDDVDYLY		Ratnapura	LK-91	6.586826	80.566158	Siripagama	PS-910116	6.783587	80.4322	6.481689	80.707977	A18, Pallebedda, Sri Lanka	45.343119	#CenterFarFromPolice	රත්නපුර	සිරිපාගම	පලාබැද්ද විද්‍යාලය	இரத்தினபுரி	சிறிபாகம	பாலபெத்த வித்யாலயா	ඒ 18, පල්ලෙබැද්ද, ශ්‍රී ලංකාව	ஏ 18, பள்ளேபெட்டா, இலங்கை
Rathnapura	Kuruwita	Kandagoda Vidyalaya	False	False	RTHNPRKRWTKNDGDVDYLY		Ratnapura	LK-91	6.586826	80.566158	Kuruwita	PS-910112	6.778839	80.364712	6.773169	80.317655	Kuruwita, Sri Lanka	5.235705		රත්නපුර	කුරුවිට	කඳගොඩ විද්‍යාලය	இரத்தினபுரி	குருவிடா	கந்தகொட வித்தியாலயம்	කුරුවිට, ශ්‍රී ලංකාව	குருவிட, இலங்கை
Rathnapura	Kuruwita	Pussella Vidyalaya	False	False	RTHNPRKRWTPSSLLVDYLY		Ratnapura	LK-91	6.586826	80.566158	Kuruwita	PS-910112	6.778839	80.364712	6.81242	80.304539	Pohorabawa Rd, Bodimaluwa, Sri Lanka	7.623729		රත්නපුර	කුරුවිට	පුස්සැල්ල විද්‍යාලය	இரத்தினபுரி	குருவிடா	புஸ்ஸெல்லா வித்யாலயா	පොහොරබව පාර, බෝඩිමළුව, ශ්‍රී ලංකාව	போஹோராபாவா சாலை, போடிமலுவா, இலங்கை
Rathnapura	Kuruwita	Sri Wimalarama Viharaya	False	False	RTHNPRKRWTSRWMLRMVHRY		Ratnapura	LK-91	6.586826	80.566158	Kuruwita	PS-910112	6.778839	80.364712	6.77558	80.35651	Q9G4+6JJ, Kuruwita, Sri Lanka	0.975765		රත්නපුර	කුරුවිට	ශ්‍රී විමලාරාම විහාරය	இரத்தினபுரி	குருவிடா	ஸ்ரீ விமலராம விகாரை	Q9G4+6JJ, කුරුවිට, ශ්‍රී ලංකාව	Q9G4+6JJ, குருவிட, இலங்கை
Rathnapura	Rathnapura	Mahawala Mosque	False	False	RTHNPRRTHNPRMHWLMSQ		Ratnapura	LK-91	6.586826	80.566158	Ratnapura	PS-910101	6.679456	80.40223	6.680478	80.402228	MCJ2+5VX, Ratnapura, Sri Lanka	0.113677		රත්නපුර	රත්නපුර	මහවල මුස්ලිම් පල්ලිය	இரத்தினபுரி	இரத்தினபுரி	மஹவாலா மசூதி	MCJ2+5VX, රත්නපුර, ශ්‍රී ලංකාව	MCJ2+5VX, இரத்தினபுரி, இலங்கை
Rathnapura	Rathnapura	Thakshila Vidyalaya	False	False	RTHNPRRTHNPRTHKSHLVDYLY		Ratnapura	LK-91	6.586826	80.566158	Ratnapura	PS-910101	6.679456	80.40223	6.666509	80.422411	Hakamuwa Rd, Ratnapura, Sri Lanka	2.654174		රත්නපුර	රත්නපුර	තක්ෂිලා විද්‍යාලය	இரத்தினபுரி	இரத்தினபுரி	தக்ஷிலா வித்யாலயா	හකමුව පාර, රත්නපුර, ශ්‍රී ලංකාව	ஹகமுவா சாலை, இரத்தினபுரா, இலங்கை
Rathnapura	Rathnapura	Peralanda Vidyalaya	False	False	RTHNPRRTHNPRPRLNDVDYLY		Ratnapura	LK-91	6.586826	80.566158	Ratnapura	PS-910101	6.679456	80.40223	6.67386	80.405688	Ratnapura 70000, Sri Lanka	0.730326		රත්නපුර	රත්නපුර	පේරලන්ද විද්‍යාලය	இரத்தினபுரி	இரத்தினபுரி	பேராலந்தா வித்யாலயா	රත්නපුර 70000, ශ්‍රී ලංකාව	இரத்தினபுரா 70000, இலங்கை
Rathnapura	Nivithigala	Lokadeniya Vidyalaya	False	False	RTHNPRNVTHGLLKDNYVDYLY		Ratnapura	LK-91	6.586826	80.566158	Nivithigala	PS-910111	6.592765	80.459492	6.594632	80.401586	Ratnapura-Palawela-Karawita Rd, Gangulwitiya, Sri Lanka	6.40164		රත්නපුර	නිවිතිගල	ලෝකදෙණිය විද්‍යාලය	இரத்தினபுரி	நிவித்திகலா	லோகதெனிய வித்யாலயா	රත්නපුර-පාලවෙල-කරවිට පාර, ගංගුල්විටිය, ශ්‍රී ලංකාව	இரத்தினபுரி-பலாவெல-கரவிட்ட வீதி, கங்குல்விட்டியா, இலங்கை
Rathnapura	Nivithigala	Halkandaliya Vidyalaya	False	False	RTHNPRNVTHGLHLKNDLYVDYLY		Ratnapura	LK-91	6.586826	80.566158	Nivithigala	PS-910111	6.592765	80.459492	6.580682	80.45021	HFJ2+73G, Nivithigala, Sri Lanka	1.690623		රත්නපුර	නිවිතිගල	හල්කන්දලිය විද්‍යාලය	இரத்தினபுரி	நிவித்திகலா	ஹல்கண்டலிய வித்யாலயா	HFJ2+73G, නිවිතිගල, ශ්‍රී ලංකාව	HFJ2+73G, நிவித்திகலா, இலங்கை
Rathnapura	Pelmadulla	Ihala Bopitiya Viharaya	False	False	RTHNPRPLMDLLHLBPTYVHRY		Ratnapura	LK-91	6.586826	80.566158	Pelmadulla	PS-910117	6.632692	80.521315	6.614655	80.537717	JG7Q+V38, Ratnapura, Sri Lanka	2.703622		රත්නපුර	පැල්මඩුල්ල	ඉහළ බෝපිටිය විහාරය	இரத்தினபுரி	பெல்மடுல்லா	Ihala Bopitiya Viharaya	JG7Q+V38, රත්නපුර, ශ්‍රී ලංකාව	JG7Q+V38, இரத்தினபுரி, இலங்கை
Rathnapura	Mawanella	MOH Office - Mawanella	False	False	RTHNPRMWNLLMHFFCMWNLL		Ratnapura	LK-91	6.586826	80.566158	Mawanella	PS-920122	7.256966	80.445912	7.253248	80.44561	Rambukkana-Mawanella Rd, Mawanella, Sri Lanka	0.414893		රත්නපුර	මාවනැල්ල	MOH කාර්යාලය - මාවනැල්ල	இரத்தினபுரி	மாவனெல்லா	MOH அலுவலகம் - மாவனெல்லா	රඹුක්කන-මාවනැල්ල පාර, මාවනැල්ල, ශ්‍රී ලංකාව	ரம்புக்கான-மாவனெல்லா சாலை, மாவனெல்லா, இலங்கை
Anuradhapura	Anuradhapura	Army Hospital Anuradhapura	False	False	NRDHPRNRDHPRRMYHSPTLNRDHPR		Anuradhapura	LK-71	8.39199	80.512958	Anuradapura	PS-710101	8.329752	80.407265	8.338302	80.407646	AB02, Anuradhapura, Sri Lanka	0.951939		අනුරාධපුර	අනුරාධපුර	අනුරාධපුර හමුදා රෝහල	அனுராதபுரம்	அனுராதபுரம்	அனுராதபுரம் இராணுவ மருத்துவமனை	ඒබී 02, අනුරාධපුර, ශ්‍රී ලංකාව	ஏபி 02, அனுராதபுரம், இலங்கை
Anuradhapura	Anuradhapura	Kaleththewa Vidyalaya	False	False	NRDHPRNRDHPRKLTHTHWVDYLY		Anuradhapura	LK-71	8.39199	80.512958	Anuradapura	PS-710101	8.329752	80.407265	8.335922	80.407513	Maithripala Senanayake Mawatha, Anuradhapura 50000, Sri Lanka	0.686831		අනුරාධපුර	අනුරාධපුර	කලෙත්තෑව විද්‍යාලය	அனுராதபுரம்	அனுராதபுரம்	காலெத்தேவா வித்தியாலயம்	මෛත්‍රීපාල සේනානායක මාවත, අනුරාධපුර 50000, ශ්‍රී ලංකාව	மைத்திரிபால சேனாநாயக்க மாவத்தை, அனுராதபுரம் 50000, இலங்கை
Anuradhapura	Nochchiyagama	Nochchiyagama Vidyadarshi Vidyalaya	False	False	NRDHPRNCHCHYGMNCHCHYGMVDYDRSHVDYLY		Anuradhapura	LK-71	8.39199	80.512958	Nochchiyagama	PS-710115	8.264918	80.212175	8.264593	80.213219	Trincomalee Road, Nochchiyagama, Sri Lanka	0.12047		අනුරාධපුර	නොච්චියාගම	නොච්චියාගම විද්‍යාදර්ශී විද්‍යාලය	அனுராதபுரம்	நொச்சியாகம	நொச்சியாகம வித்யதர்ஷி வித்தியாலயம்	ත්‍රිකුණාමලය පාර, නොච්චියාගම, ශ්‍රී ලංකාව	திருகோணமலை வீதி, நொச்சியாகம, இலங்கை
Anuradhapura	Thirappane	Walagamba Vidyalaya	False	False	NRDHPRTHRPPNWLGMBVDYLY		Anuradhapura	LK-71	8.39199	80.512958	Thirappone	PS-710106	6.907289	79.863819	8.238595	80.365479	69Q8+C5Q, Anuradhapura, Sri Lanka	158.073825	#CenterFarFromPolice	අනුරාධපුර	තිරප්පනේ	වලගම්බා විද්‍යාලය	அனுராதபுரம்	திரப்பனே	வலகம்பா வித்யாலயா	69Q8+C5Q, අනුරාධපුර, ශ්‍රී ලංකාව	69Q8+C5Q, அனுராதபுரம், இலங்கை
Polonnaruwa	Polonnaruwa	Thopawewa National College	False	False	PLNNRWPLNNRWTHPWWNTNLCLLG		Polonnaruwa	LK-72	7.993659	81.026061	Polonnaruwa	PS-720125	7.924307	81.036895	7.938857	81.003164	Thopawewa Maha Vidyalaya, Polonnaruwa, Sri Lanka	4.05313		පොළොන්නරුව	පොළොන්නරුව	තොපාවැව ජාතික විද්‍යාලය	பொலன்னறுவை	பொலன்னறுவை	தோபாவெவ தேசிய கல்லூரி	තෝපාවැව මහා විද්‍යාලය, පොළොන්නරුව, ශ්‍රී ලංකාව	தோபவெவ மகா வித்தியாலயம், பொலன்னறுவை, இலங்கை
Polonnaruwa	Polonnaruwa	Royal College	False	False	PLNNRWPLNNRWRYLCLLG		Polonnaruwa	LK-72	7.993659	81.026061	Polonnaruwa	PS-720125	7.924307	81.036895	7.919643	81.003574	Newtown 51000, Sri Lanka	3.707395		පොළොන්නරුව	පොළොන්නරුව	රාජකීය විද්‍යාලය	பொலன்னறுவை	பொலன்னறுவை	ராயல் கல்லூரி	නිව්ටවුන් 51000, ශ්‍රී ලංකාව	நியூடவுன் 51000, இலங்கை
Polonnaruwa	Polonnaruwa	Bendiwewa Maha Vidyalaya	False	False	PLNNRWPLNNRWBNDWWMHVDYLY		Polonnaruwa	LK-72	7.993659	81.026061	Polonnaruwa	PS-720125	7.924307	81.036895	7.954439	81.024595	Somawathiya Rd, Polonnaruwa, Sri Lanka	3.615125		පොළොන්නරුව	පොළොන්නරුව	බෙන්දිවැව මහා විද්‍යාලය	பொலன்னறுவை	பொலன்னறுவை	பெண்டிவெவ மகா வித்தியாலயம்	සෝමාවතිය පාර, පොළොන්නරුව, ශ්‍රී ලංකාව	சோமாவதியா சாலை, பொலன்னறுவை, இலங்கை
Polonnaruwa	Polonnaruwa	Wijayaraja Maha Vidyalaya	False	False	PLNNRWPLNNRWWJYRJMHVDYLY		Polonnaruwa	LK-72	7.993659	81.026061	Polonnaruwa	PS-720125	7.924307	81.036895	7.959994	81.069167	Onegama Rd, Polonnaruwa, Sri Lanka	5.32878		පොළොන්නරුව	පොළොන්නරුව	විජයරාජ මහා විද්‍යාලය	பொலன்னறுவை	பொலன்னறுவை	விஜயராஜா மகா வித்தியாலயம்	ඔනේගම පාර, පොළොන්නරුව, ශ්‍රී ලංකාව	ஒனேகம வீதி, பொலன்னறுவை, இலங்கை
Polonnaruwa	Welikanda	MOH Office - Welikanda	False	False	PLNNRWWLKNDMHFFCWLKND		Polonnaruwa	LK-72	7.993659	81.026061	Welikanda	PS-720127	7.946441	81.245381	7.947728	81.244951	W6XV+3XW, Welikanda, Sri Lanka	0.150787		පොළොන්නරුව	වැලිකන්ද	MOH කාර්යාලය - වැලිකන්ද	பொலன்னறுவை	வெலிகந்தா	MOH அலுவலகம் - வெலிகந்தா	W6XV+3XW, වැලිකන්ද, ශ්‍රී ලංකාව	W6XV+3XW, வெலிகந்தா, இலங்கை
Polonnaruwa	Sripura	MOH Office - Sripura	False	False	PLNNRWSRPRMHFFCSRPR		Polonnaruwa	LK-72	7.993659	81.026061	Sripura	PS-530136	8.929617	80.81428	8.926697	80.814799	Padavi Sripura, Padaviya - Sripura Road, Welioya, Sri Lanka	0.329869		පොළොන්නරුව	ශ්‍රීපුර	MOH කාර්යාලය - ශ්‍රීපුර	பொலன்னறுவை	ஸ்ரீபுரா	MOH அலுவலகம் - ஸ்ரீபுரா	පදවි ශ්‍රීපුර, පදවිය - ශ්‍රීපුර පාර, වැලිඔය, ශ්‍රී ලංකාව	படவி ஸ்ரீபுரா, படாவியா - ஸ்ரீபுரா சாலை, வெலிஓயா, இலங்கை
Polonnaruwa	Aralaganwila	MOH Office - Aralaganwila	False	False	PLNNRWRLGNWLMHFFCRLGNWL		Polonnaruwa	LK-72	7.993659	81.026061	Aralaganwila	PS-720128	7.785325	81.185632	7.787865	81.186925	Q5QP+4QV, Polonnaruwa, Sri Lanka	0.316424		පොළොන්නරුව	අරලගංවිල	MOH කාර්යාලය - අරලගංවිල	பொலன்னறுவை	அரலகன்வில	MOH அலுவலகம் - அரலகன்வில	Q5QP+4QV, පොළොන්නරුව, ශ්‍රී ලංකාව	Q5QP+4QV, பொலன்னறுவை, இலங்கை
Polonnaruwa	Medirigiriya	Medirigiriya National School	False	False	PLNNRWMDRGRYMDRGRYNTNLSCHL		Polonnaruwa	LK-72	7.993659	81.026061	Medirigiriya	PS-720130	8.150847	80.984493	8.150533	80.978982	Medirigiriya, Sri Lanka	0.6078		පොළොන්නරුව	මැදිරිගිරිය	මැදිරිගිරිය ජාතික පාසල	பொலன்னறுவை	மெதிரிகிரியா	மெதிரிகிரிய தேசிய பள்ளி	මැදිරිගිරිය, ශ්‍රී ලංකාව	மெதிரிகிரியா, இலங்கை
Polonnaruwa	Medirigiriya	Diyasenapura Primary College	False	False	PLNNRWMDRGRYDYSNPRPRMRYCLLG		Polonnaruwa	LK-72	7.993659	81.026061	Medirigiriya	PS-720130	8.150847	80.984493	8.135768	81.020543	42PC+863, Diyasenpura, Sri Lanka	4.309209		පොළොන්නරුව	මැදිරිගිරිය	දියසේනපුර ප්‍රාථමික විද්‍යාලය	பொலன்னறுவை	மெதிரிகிரியா	தியசேனபுரா தொடக்கக் கல்லூரி	42 පීසී+863, දියසෙන්පුර, ශ්‍රී ලංකාව	42PC+863, தியசென்புரா, இலங்கை
Polonnaruwa	Hingurakgoda	Tharuka Pavilion	False	False	PLNNRWHNGRKGDTHRKPVLN		Polonnaruwa	LK-72	7.993659	81.026061	Hingurakgoda	PS-720129	8.048819	80.965751	7.695872	80.832682	MRWM+83V, Polonnaruwa, Sri Lanka	41.906745	#CenterFarFromPolice	පොළොන්නරුව	හිඟුරක්ගොඩ	තාරුක මණ්ඩපය	பொலன்னறுவை	ஹிங்குரகொட	தாருகா பெவிலியன்	MRWM+83V, පොළොන්නරුව, ශ්‍රී ලංකාව	MRWM+83V, பொலன்னறுவை, இலங்கை
Polonnaruwa	Bakamuna	Atharagallewa Maha Vidyalaya	False	False	PLNNRWBKMNTHRGLLWMHVDYLY		Polonnaruwa	LK-72	7.993659	81.026061	Bakamuna	PS-720132	7.778789	80.816102	7.780602	80.818401	Bakamuna, Sri Lanka	0.323821		පොළොන්නරුව	බකමූනා	අතරගල්ලෑව මහා විද්‍යාලය	பொலன்னறுவை	பக்கமுனா	அதரகல்லேவா மகா வித்தியாலயம்	බකමූණ, ශ්‍රී ලංකාව	பகமுனா, இலங்கை
Polonnaruwa	Bakamuna	Galmulla Primary College	False	False	PLNNRWBKMNGLMLLPRMRYCLLG		Polonnaruwa	LK-72	7.993659	81.026061	Bakamuna	PS-720132	7.778789	80.816102	7.775622	80.819812	Dambulla - Bakamuna - Kalugahawela Road, Bakamuna, Sri Lanka	0.539688		පොළොන්නරුව	බකමූනා	ගල්මුල්ල ප්‍රාථමික විද්‍යාලය	பொலன்னறுவை	பக்கமுனா	கல்முல்லா ஆரம்பக் கல்லூரி	දඹුල්ල - බකමූණ - කළුගහවෙල පාර, බකමූණ, ශ්‍රී ලංකාව	தம்புள்ளை - பகமுனா - கலுகஹவெல சாலை, பக்கமுனா, இலங்கை
Polonnaruwa	Jaffna	Manjamanappathi Kovil	False	False	PLNNRWJFFNMNJMNPPTHKVL		Polonnaruwa	LK-72	7.993659	81.026061	Jaffna	PS-410209	9.659919	80.010965	7.945942	81.000329	Sudarshanarama Puranagama Rd, Polonnaruwa, Sri Lanka	219.479791	#CenterFarFromPolice	පොළොන්නරුව	යාපනය	මංජමානප්පති කෝවිල	பொலன்னறுவை	யாழ்	மஞ்சமணபதி கோவில்	සුදර්ශනාරාම පුරාණගම පාර, පොළොන්නරුව, ශ්‍රී ලංකාව	சுதர்சனராம புராணகம வீதி, பொலன்னறுவை, இலங்கை
Polonnaruwa	Jaffna	St. John's College	False	False	PLNNRWJFFNSTJHNSCLLG		Polonnaruwa	LK-72	7.993659	81.026061	Jaffna	PS-410209	9.659919	80.010965	9.657495	80.026568	Main Street, Chundikuli-Columbuthurai Rd, section, Sri Lanka	1.732049		පොළොන්නරුව	යාපනය	ශාන්ත ජෝන් විද්‍යාලය	பொலன்னறுவை	யாழ்	செயின்ட் ஜான்ஸ் கல்லூரி	ප්‍රධාන වීදිය, චුන්දිකුලි-කොළම්බුතුරේ පාර, කොටස, ශ්‍රී ලංකාව	பிரதான வீதி, சுண்டிக்குளி-கொலம்புதுறை வீதி, பிரிவு, இலங்கை
Polonnaruwa	Jaffna	Vaithiswara Vidyalaya	False	False	PLNNRWJFFNVTHSWRVDYLY		Polonnaruwa	LK-72	7.993659	81.026061	Jaffna	PS-410209	9.659919	80.010965	9.672726	80.009234	M2F5+3MX, Jaffna, Sri Lanka	1.43711		පොළොන්නරුව	යාපනය	වෛතිස්වර විද්‍යාලය	பொலன்னறுவை	யாழ்	வைத்தீஸ்வரா வித்யாலயா	M2F5+3MX, යාපනය, ශ්‍රී ලංකාව	M2F5+3MX, யாழ்ப்பாணம், இலங்கை
Polonnaruwa	Jaffna	Nallur Durfamani Hall	False	False	PLNNRWJFFNNLLRDRFMNHLL		Polonnaruwa	LK-72	7.993659	81.026061	Jaffna	PS-410209	9.659919	80.010965	9.674532	80.029444	M2FH+RQ8, Jaffna, Sri Lanka	2.597601		පොළොන්නරුව	යාපනය	නල්ලූර් දුර්ෆමානි ශාලාව	பொலன்னறுவை	யாழ்	நல்லூர் துர்பாமணி மண்டபம்	M2FH+RQ8, යාපනය, ශ්‍රී ලංකාව	M2FH+RQ8, யாழ்ப்பாணம், இலங்கை
Polonnaruwa	Kopay	MOH Office- Nallur	False	False	PLNNRWKPYMHFFCNLLR		Polonnaruwa	LK-72	7.993659	81.026061	Kopai	PS-410216	9.686887	80.03856	9.673947	80.027736	M2FH+H3H, Jaffna, Sri Lanka	1.865513		පොළොන්නරුව	කෝපායි	එම්ඕඑච් කාර්යාලය- නල්ලූර්	பொலன்னறுவை	கோப்பாய்	MOH அலுவலகம்- நல்லூர்	M2FH+H3H, යාපනය, ශ්‍රී ලංකාව	M2FH+H3H, யாழ்ப்பாணம், இலங்கை
Polonnaruwa	Kopay	Muthuthambi Maha Vidyalaya	False	False	PLNNRWKPYMTHTHMBMHVDYLY		Polonnaruwa	LK-72	7.993659	81.026061	Kopai	PS-410216	9.686887	80.03856	9.69139	80.033453	Kalasalai Road,, Jaffna, Sri Lanka	0.751272		පොළොන්නරුව	කෝපායි	මුතුතම්බි මහා විද්‍යාලය	பொலன்னறுவை	கோப்பாய்	முத்துத்தம்பி மகா வித்தியாலயம்	කලාසලෙයි පාර ,, යාපනය, ශ්‍රී ලංකාව	கலாசாலை சாலை ,, யாழ்ப்பாணம், இலங்கை
Polonnaruwa	Chunnagam	Uduvil Girls College	False	False	PLNNRWCHNNGMDVLGRLSCLLG		Polonnaruwa	LK-72	7.993659	81.026061	Chunnakam	PS-410211	9.745309	80.029151	9.734484	80.015916	Uduvil Road, Uduvil, Sri Lanka	1.885444		පොළොන්නරුව	චුන්නාගම්	උඩුවිල් බාලිකා විද්‍යාලය	பொலன்னறுவை	சுன்னாகம்	உடுவில் பெண்கள் கல்லூரி	උඩුවිල් පාර, උඩුවිල්, ශ්‍රී ලංකාව	உடுவில் சாலை, உடுவில், இலங்கை
Polonnaruwa	Chunnagam	Thavadi HTM Hall	False	False	PLNNRWCHNNGMTHVDHTMHLL		Polonnaruwa	LK-72	7.993659	81.026061	Chunnakam	PS-410211	9.745309	80.029151	9.737563	80.024505	Chunnakam, Sri Lanka	1.00087		පොළොන්නරුව	චුන්නාගම්	තවඩි එච්ටීඑම් ශාලාව	பொலன்னறுவை	சுன்னாகம்	தவடி HTM மண்டபம்	චුන්නාකම්, ශ්‍රී ලංකාව	சுன்னாகம், இலங்கை
Polonnaruwa	Chunnagam	MOH Office - Uduvil	False	False	PLNNRWCHNNGMMHFFCDVL		Polonnaruwa	LK-72	7.993659	81.026061	Chunnakam	PS-410211	9.745309	80.029151	9.742938	80.035132	P2VP+53C, Chunnakam, Sri Lanka	0.706719		පොළොන්නරුව	චුන්නාගම්	MOH කාර්යාලය - උඩුවිල්	பொலன்னறுவை	சுன்னாகம்	MOH அலுவலகம் - உடுவில்	පී 2 වීපී+53 සී, චුන්නාකම්, ශ්‍රී ලංකාව	P2VP+53C, சுன்னாகம், இலங்கை
Polonnaruwa	Chunnagam	Erlalai Muththumil Hall	False	False	PLNNRWCHNNGMRLLMTHTHMLHLL		Polonnaruwa	LK-72	7.993659	81.026061	Chunnakam	PS-410211	9.745309	80.029151	9.737563	80.024505	Chunnakam, Sri Lanka	1.00087		පොළොන්නරුව	චුන්නාගම්	Erlalai Muththumil ශාලාව	பொலன்னறுவை	சுன்னாகம்	எர்லாலை முத்துமில் மண்டபம்	චුන්නාකම්, ශ්‍රී ලංකාව	சுன்னாகம், இலங்கை
Polonnaruwa	Chunnagam	Inuvil Ariwalyam Hall	False	False	PLNNRWCHNNGMNVLRWLYMHLL		Polonnaruwa	LK-72	7.993659	81.026061	Chunnakam	PS-410211	9.745309	80.029151	9.750062	80.029209	Jaffna-Kankesanturai Rd, Chunnakam, Sri Lanka	0.528714		පොළොන්නරුව	චුන්නාගම්	ඉනුවිල් ආරිවලයම් ශාලාව	பொலன்னறுவை	சுன்னாகம்	இணுவில் அறிவாலயம் மண்டபம்	යාපනය-කන්කසන්තුරේ පාර, චුන්නාකම්, ශ්‍රී ලංකාව	யாழ்ப்பாணம்-காங்கேசன்துறை வீதி, சுன்னாகம், இலங்கை
Polonnaruwa	Chunnagam	Sitti Vinayagar Hall	False	False	PLNNRWCHNNGMSTTVNYGRHLL		Polonnaruwa	LK-72	7.993659	81.026061	Chunnakam	PS-410211	9.745309	80.029151	9.737563	80.024505	Chunnakam, Sri Lanka	1.00087		පොළොන්නරුව	චුන්නාගම්	සිත්ති විනයගර් ශාලාව	பொலன்னறுவை	சுன்னாகம்	சிட்டி விநாயகர் மண்டபம்	චුන්නාකම්, ශ්‍රී ලංකාව	சுன்னாகம், இலங்கை
Polonnaruwa	Point Pedro	Vada Hindu Girls College	False	False	PLNNRWPNTPDRVDHNDGRLSCLLG		Polonnaruwa	LK-72	7.993659	81.026061	Point Pedro	PS-410106	9.827018	80.233187	9.817623	80.23136	Vinayaga Muthaliyaar Veethy, Point Pedro, Sri Lanka	1.064016		පොළොන්නරුව	පේදුරුතුඩුව	වද හින්දු බාලිකා විද්‍යාලය	பொலன்னறுவை	பருத்தித்துறை	வட இந்து பெண்கள் கல்லூரி	විනයාග මුතලියාර් වීති, පේදුරුතුඩුව, ශ්‍රී ලංකාව	விநாயக முதலியார் வீதி, பருத்தித்துறை, இலங்கை
Polonnaruwa	Nelliyady	MOH Office - Karaveddy	False	False	PLNNRWNLLYDYMHFFCKRVDDY		Polonnaruwa	LK-72	7.993659	81.026061	Nelliadi	PS-410108	9.778397	80.113303	9.792126	80.201799	Q6R2+VP3, Point Pedro, Sri Lanka	9.819656		පොළොන්නරුව	නෙල්ලියාඩි	MOH කාර්යාලය - කරවෙඩ්ඩි	பொலன்னறுவை	நெல்லியடி	MOH அலுவலகம் - கரவெட்டி	Q6R2+VP3, පේදුරුතුඩුව, ශ්‍රී ලංකාව	Q6R2+VP3, பருத்தித்துறை, இலங்கை
Polonnaruwa	Palali	Vasavilan Central College	False	False	PLNNRWPLLVSVLNCNTRLCLLG		Polonnaruwa	LK-72	7.993659	81.026061	Palali	PS-410105	9.789552	80.06488	9.775601	80.073223	AB18, Sri Lanka	1.80119		පොළොන්නරුව	පලාලි	වසවිලාන් මධ්‍ය විද්‍යාලය	பொலன்னறுவை	பலாலி	வாசவிலன் மத்திய கல்லூரி	ඒබී 18, ශ්‍රී ලංකාව	ஏபி 18, இலங்கை
Polonnaruwa	Ilavalai	St. Thomas' College, Madagal	False	False	PLNNRWLVLSTTHMSCLLGMDGL		Polonnaruwa	LK-72	7.993659	81.026061	Ilavalai	PS-410102	9.775967	79.983146	9.788288	79.965894	Mathagal Rd, Sri Lanka	2.335421		පොළොන්නරුව	ඉලවලයි	මාදගල් ශාන්ත තෝමස් විද්‍යාලය	பொலன்னறுவை	இளவாலை	செயின்ட் தாமஸ் கல்லூரி, மடக்கல்	මාතාගල් පාර, ශ්‍රී ලංකාව	மாதகல் சாலை, இலங்கை
Polonnaruwa	Manippai	Manippai Hospital	False	False	PLNNRWMNPPMNPPHSPTL		Polonnaruwa	LK-72	7.993659	81.026061	Manippai	PS-410210	9.727151	79.996905	9.725939	79.998028	Manipay, Sri Lanka	0.182569		පොළොන්නරුව	මනිප්පායි	මානිප්පායි රෝහල	பொலன்னறுவை	மணிப்பை	மணிப்பை மருத்துவமனை	මනිපායි, ශ්‍රී ලංකාව	மானிப்பாய், இலங்கை
Polonnaruwa	Manippai	Sandilippai Hindu Vidyalaya	False	False	PLNNRWMNPPSNDLPPHNDVDYLY		Polonnaruwa	LK-72	7.993659	81.026061	Manippai	PS-410210	9.727151	79.996905	9.729106	79.992545	PXHV+J2V, Manipay, Sri Lanka	0.525128		පොළොන්නරුව	මනිප්පායි	සන්දිලිප්පායි හින්දු විද්‍යාලය	பொலன்னறுவை	மணிப்பை	சண்டிலிப்பாய் இந்து வித்யாலயா	PXHV+J2V, මනිපායි, ශ්‍රී ලංකාව	PXHV+J2V, மானிப்பாய், இலங்கை
Polonnaruwa	Kayts	MOH Office - Karainagar	False	False	PLNNRWKYTSMHFFCKRNGR		Polonnaruwa	LK-72	7.993659	81.026061	Kayts	PS-410212	9.728654	79.94775	9.725097	79.99772	Sri Lanka, Manipay, Sri Lanka	5.492521		පොළොන්නරුව	කයිට්ස්	MOH කාර්යාලය - කරෙයිනගර්	பொலன்னறுவை	ஊர்காவற்துறையினர்	MOH அலுவலகம் - காரைநகர்	ශ්‍රී ලංකාව, මනිපායි, ශ්‍රී ලංකාව	இலங்கை, மானிப்பாய், இலங்கை
Polonnaruwa	Kayts	MOH Office - Velanai	False	False	PLNNRWKYTSMHFFCVLN		Polonnaruwa	LK-72	7.993659	81.026061	Kayts	PS-410212	9.728654	79.94775	9.636317	79.903777	Chatty vangkalvady road, Velanai, Sri Lanka	11.346015		පොළොන්නරුව	කයිට්ස්	එම්ඕඑච් කාර්යාලය - වෙලනායි	பொலன்னறுவை	ஊர்காவற்துறையினர்	MOH அலுவலகம் - வேலணை	චැටි වංගල්වඩි පාර, වෙලනායි, ශ්‍රී ලංකාව	சட்டி வாங்கல்வாடி சாலை, வேலணை, இலங்கை
Polonnaruwa	Kayts	MOH Office - Kayts	False	False	PLNNRWKYTSMHFFCKYTS		Polonnaruwa	LK-72	7.993659	81.026061	Kayts	PS-410212	9.728654	79.94775	9.697759	79.866366	Sri Lanka, Kayts, Sri Lanka	9.561445		පොළොන්නරුව	කයිට්ස්	MOH කාර්යාලය - කයිට්ස්	பொலன்னறுவை	ஊர்காவற்துறையினர்	MOH அலுவலகம் - ஊர்காவற்துறை	ශ්‍රී ලංකාව, කයිට්ස්, ශ්‍රී ලංකාව	இலங்கை, ஊர்காவற்துறை, இலங்கை
Polonnaruwa	Chavakachcheri	MOH Office - Chavakachcheri	False	False	PLNNRWCHVKCHCHRMHFFCCHVKCHCHR		Polonnaruwa	LK-72	7.993659	81.026061	Chawakachcheri	PS-410215	9.666459	80.132384	9.663455	80.166068	Dutch Rd, Chavakachcheri, Sri Lanka	3.70857		පොළොන්නරුව	චාවකච්චේරි	එම්ඕඑච් කාර්යාලය - චාවකච්චේරි	பொலன்னறுவை	சாவகச்சேரி	MOH அலுவலகம் - சாவகச்சேரி	ලන්දේසි පාර, චාවකච්චේරි, ශ්‍රී ලංකාව	டச்சு ஆர்ட், சாவகச்சேரி, இலங்கை
Kilinochchi	Kilinochchi	MOH Office - Karachchi	False	False	KLNCHCHKLNCHCHMHFFCKRCHCH		Kilinochchi	LK-45	9.415742	80.30358	Kilinochchi	PS-450131	9.392265	80.407846	9.396965	80.407782	Kandy - Jaffna Hwy, Kilinochchi, Sri Lanka	0.522827		කිලිනොච්චි	කිලිනොච්චි	MOH කාර්යාලය - කරච්චි	கிளிநொச்சி	கிளிநொச்சி	MOH அலுவலகம் - கராச்சி	මහනුවර - යාපනය හ්වි, කිලිනොච්චි, ශ්‍රී ලංකාව	கண்டி - யாழ்ப்பாணம், கிளிநொச்சி, இலங்கை
Kilinochchi	Pooneryn	MOH Office - Pooneryn	False	False	KLNCHCHPNRYNMHFFCPNRYN		Kilinochchi	LK-45	9.415742	80.30358	Pooneryn		9.505717	80.21101	9.507968	80.208317	G655+58P, Pooneryn, Sri Lanka	0.387256		කිලිනොච්චි	පුනරීන්	MOH කාර්යාලය - පුනරීන්	கிளிநொச்சி	பூனெரின்	MOH அலுவலகம் - பூனெரின்	ජී 655+58 පී, පූනරීන්, ශ්‍රී ලංකාව	G655+58P, பூனெரின், இலங்கை
Mullaitivu	Oddusuddan	MOH Office - Oddusuddan	False	False	MLLTVDDSDDNMHFFCDDSDDN		Mullaitivu	LK-44	9.167643	80.549091	Oddusudan	PS-440151	9.160983	80.652821	9.162816	80.661584	5M76+4JG, Oddusuddan, Sri Lanka	0.983634		මුලතිව්	ඔඩ්ඩුසුඩාන්	MOH කාර්යාලය - ඔඩ්ඩුසුඩාන්	முல்லைத்தீவு	ஒட்டுசுட்டான்	MOH அலுவலகம் - ஒட்டுசுட்டான்	5 එම් 76+4 ජේජී, ඔඩ්ඩුසුඩාන්, ශ්‍රී ලංකාව	5M76+4JG, ஒட்டுசுட்டான், இலங்கை
Mullaitivu	Pudukudiruppu	MOH Office - Pudukudiruppu	False	False	MLLTVPDKDRPPMHFFCPDKDRPP		Mullaitivu	LK-44	9.167643	80.549091	Pudukuduiruppu	PS-440149	7.00152	79.95003	9.320965	80.683013	Parantan-Mullaitivu Hwy, Velikkandal, Sri Lanka	270.317914	#CenterFarFromPolice	මුලතිව්	පුදුකුඩිරුප්පු	එම්ඕඑච් කාර්යාලය - පුදුකුඩිරුප්පු	முல்லைத்தீவு	புதுக்குடியிருப்பு	MOH அலுவலகம் - புதுக்குடியிருப்பு	පරන්තන්-මුලතිව් හ්වි, වේලිකන්දල්, ශ්‍රී ලංකාව	பரந்தன்-முல்லைத்தீவு Hwy, வேலிக்கண்டல், இலங்கை
Trincomalee	Muttur	MOH Office – Muttur	False	False	TRNCMLMTTRMHFFCMTTR		Trincomalee	LK-53	8.551241	81.092014	Mutur	PS-530138	8.461133	81.259371	8.453916	81.264494	1 Old Batticaloa Rd, Mutur, Sri Lanka	0.980859		ත්රිකුණාමලය	මුතූර්	MOH කාර්යාලය - මුතූර්	திருகோணமலை	மூதூர்	MOH அலுவலகம் - மூதூர்	1 පරණ මඩකලපුව පාර, මුතූර්, ශ්‍රී ලංකාව	1 பழைய மட்டக்களப்பு வீதி, மூதூர், இலங்கை
Trincomalee	Muttur	Muttur An Nahar Maha Vidyalaya	False	False	TRNCMLMTTRMTTRNNHRMHVDYLY		Trincomalee	LK-53	8.551241	81.092014	Mutur	PS-530138	8.461133	81.259371	8.451822	81.262307	F726+PWF, Mutur, Sri Lanka	1.084867		ත්රිකුණාමලය	මුතූර්	මුතූර් අන් නහාර් මහා විද්‍යාලය	திருகோணமலை	மூதூர்	மூதூர் அன் நஹர் மகா வித்தியாலயம்	F726+PWF, මුතූර්, ශ්‍රී ලංකාව	F726+PWF, மூதூர், இலங்கை
Trincomalee	Muttur	Al Hidayah Maha Vidyalaya	False	False	TRNCMLMTTRLHDYHMHVDYLY		Trincomalee	LK-53	8.551241	81.092014	Mutur	PS-530138	8.461133	81.259371	8.449646	81.26789	1 Old Batticaloa Rd, Mutur, Sri Lanka	1.584607		ත්රිකුණාමලය	මුතූර්	අල් හිදායා මහා විද්‍යාලය	திருகோணமலை	மூதூர்	அல் ஹிதாயா மகா வித்தியாலயம்	1 පරණ මඩකලපුව පාර, මුතූර්, ශ්‍රී ලංකාව	1 பழைய மட்டக்களப்பு வீதி, மூதூர், இலங்கை
Trincomalee	Muttur	Chennaiur Maha Vidyalaya	False	False	TRNCMLMTTRCHNNRMHVDYLY		Trincomalee	LK-53	8.551241	81.092014	Mutur	PS-530138	8.461133	81.259371	8.449646	81.26789	1 Old Batticaloa Rd, Mutur, Sri Lanka	1.584607		ත්රිකුණාමලය	මුතූර්	චෙන්නායුර් මහා විද්‍යාලය	திருகோணமலை	மூதூர்	சென்னூர் மகா வித்தியாலயம்	1 පරණ මඩකලපුව පාර, මුතූර්, ශ්‍රී ලංකාව	1 பழைய மட்டக்களப்பு வீதி, மூதூர், இலங்கை
Trincomalee	Muttur	Al Hilal Maha Vidyalaya	False	False	TRNCMLMTTRLHLLMHVDYLY		Trincomalee	LK-53	8.551241	81.092014	Mutur	PS-530138	8.461133	81.259371	8.457062	81.268574	Mutur, Sri Lanka	1.109154		ත්රිකුණාමලය	මුතූර්	අල් හිලාල් මහා විද්‍යාලය	திருகோணமலை	மூதூர்	அல் ஹிலால் மகா வித்தியாலயம்	මුතූර්, ශ්‍රී ලංකාව	மூதூர், இலங்கை
Trincomalee	Muttur	Mallikaithivu Maha Vidyalaya	False	False	TRNCMLMTTRMLLKTHVMHVDYLY		Trincomalee	LK-53	8.551241	81.092014	Mutur	PS-530138	8.461133	81.259371	8.449646	81.26789	1 Old Batticaloa Rd, Mutur, Sri Lanka	1.584607		ත්රිකුණාමලය	මුතූර්	මල්ලිකයිතිවු මහා විද්‍යාලය	திருகோணமலை	மூதூர்	மல்லிகைத்தீவு மகா வித்தியாலயம்	1 පරණ මඩකලපුව පාර, මුතූර්, ශ්‍රී ලංකාව	1 பழைய மட்டக்களப்பு வீதி, மூதூர், இலங்கை
Trincomalee	Muttur	Palathopur Zahira Maha Vidyalaya	False	False	TRNCMLMTTRPLTHPRZHRMHVDYLY		Trincomalee	LK-53	8.551241	81.092014	Mutur	PS-530138	8.461133	81.259371	8.457906	81.268402	Mutur, Sri Lanka	1.056434		ත්රිකුණාමලය	මුතූර්	පලතොපූර් සහිරා මහා විද්‍යාලය	திருகோணமலை	மூதூர்	பாலதோபூர் ஜஹிரா மகா வித்தியாலயம்	මුතූර්, ශ්‍රී ලංකාව	மூதூர், இலங்கை
Trincomalee	Muttur	Al Hamra Vidyalaya	False	False	TRNCMLMTTRLHMRVDYLY		Trincomalee	LK-53	8.551241	81.092014	Mutur	PS-530138	8.461133	81.259371	8.726266	81.172086	P5GC+GR4, Irrakkakandi, Sri Lanka	31.013792	#CenterFarFromPolice	ත්රිකුණාමලය	මුතූර්	අල් හම්රා විද්‍යාලය	திருகோணமலை	மூதூர்	அல் ஹம்ரா வித்யாலயா	පී 5 ජීසී+ජීආර් 4, ඉරක්කකණ්ඩි, ශ්‍රී ලංකාව	P5GC+GR4, இறக்கக்காண்டி, இலங்கை
Trincomalee	Muttur	Thopur Hospital	False	False	TRNCMLMTTRTHPRHSPTL		Trincomalee	LK-53	8.551241	81.092014	Mutur	PS-530138	8.461133	81.259371	8.39979	81.304998	Thoppur, Sri Lanka	8.471041		ත්රිකුණාමලය	මුතූර්	තෝපූර් රෝහල	திருகோணமலை	மூதூர்	தோப்பூர் மருத்துவமனை	තොප්පූර්, ශ්‍රී ලංකාව	தோப்பூர், இலங்கை
Trincomalee	Kinniya	MOH Office - Naduthivu	False	False	TRNCMLKNNYMHFFCNDTHV		Trincomalee	LK-53	8.551241	81.092014	Kinnia	PS-530140	6.907289	79.863819	8.593907	81.211949	Anbuvalipuram, Trincomalee, Sri Lanka	239.310726	#CenterFarFromPolice	ත්රිකුණාමලය	කින්නියා	MOH කාර්යාලය - නදුතිව්	திருகோணமலை	கிண்ணியா	MOH அலுவலகம் - நடுதிவு	අන්බවලිපුරම්, ත්‍රිකුණාමලය, ශ්‍රී ලංකාව	அன்புவலிபுரம், திருகோணமலை, இலங்கை
Trincomalee	Kinniya	Al Mujahira Vidyalaya	False	False	TRNCMLKNNYLMJHRVDYLY		Trincomalee	LK-53	8.551241	81.092014	Kinnia	PS-530140	6.907289	79.863819	8.504893	81.179851	Kinniya, Sri Lanka	229.387631	#CenterFarFromPolice	ත්රිකුණාමලය	කින්නියා	අල් මුජහිරා විද්‍යාලය	திருகோணமலை	கிண்ணியா	அல் முஜாஹிரா வித்யாலயா	කින්නියා, ශ්‍රී ලංකාව	கிண்ணியா, இலங்கை
Trincomalee	Kinniya	Arafa  Vidyalaya	False	False	TRNCMLKNNYRFVDYLY		Trincomalee	LK-53	8.551241	81.092014	Kinnia	PS-530140	6.907289	79.863819	8.500004	81.170769	G52C+282, Kinniya, Sri Lanka	228.334302	#CenterFarFromPolice	ත්රිකුණාමලය	කින්නියා	අරෆා විද්‍යාලය	திருகோணமலை	கிண்ணியா	அரஃபா வித்யாலயா	ජී 52 සී+282, කින්නියා, ශ්‍රී ලංකාව	G52C+282, கிண்ணியா, இலங்கை
Trincomalee	Kinniya	Tarul Ulum Maha Vidyalaya	False	False	TRNCMLKNNYTRLLMMHVDYLY		Trincomalee	LK-53	8.551241	81.092014	Kinnia	PS-530140	6.907289	79.863819	8.480347	81.185754	F5JP+48J, Kinniya, Sri Lanka	227.697731	#CenterFarFromPolice	ත්රිකුණාමලය	කින්නියා	තරුල් උළුම් මහා විද්‍යාලය	திருகோணமலை	கிண்ணியா	தருல் உலும் மகா வித்தியாலயம்	F5JP+48J, කින්නියා, ශ්‍රී ලංකාව	F5JP+48J, கிண்ணியா, இலங்கை
Trincomalee	Kinniya	MOH Office - Kinniya	False	False	TRNCMLKNNYMHFFCKNNY		Trincomalee	LK-53	8.551241	81.092014	Kinnia	PS-530140	6.907289	79.863819	8.498696	81.179644	F5XH+FVC, Kinniya 31100, Sri Lanka	228.840304	#CenterFarFromPolice	ත්රිකුණාමලය	කින්නියා	MOH කාර්යාලය - කින්නියා	திருகோணமலை	கிண்ணியா	MOH அலுவலகம் - கிண்ணியா	F5XH+FVC, කින්නියා 31100, ශ්‍රී ලංකාව	F5XH+FVC, கிண்ணியா 31100, இலங்கை
Trincomalee	Kinniya	Al Aksha Central College	False	False	TRNCMLKNNYLKSHCNTRLCLLG		Trincomalee	LK-53	8.551241	81.092014	Kinnia	PS-530140	6.907289	79.863819	8.496662	81.180256	F5WJ+M46, Kinniya 31100, Sri Lanka	228.708367	#CenterFarFromPolice	ත්රිකුණාමලය	කින්නියා	අල් අක්ෂා මධ්‍ය මහා විද්‍යාලය	திருகோணமலை	கிண்ணியா	அல் அக்ஷா மத்திய கல்லூரி	F5WJ+M46, කින්නියා 31100, ශ්‍රී ලංකාව	F5WJ+M46, கிண்ணியா 31100, இலங்கை
Trincomalee	Kinniya	Kinniya Hospital	False	False	TRNCMLKNNYKNNYHSPTL		Trincomalee	LK-53	8.551241	81.092014	Kinnia	PS-530140	6.907289	79.863819	8.501539	81.187539	Tampalakamam-Kinniya Rd, Kinniya 31100, Sri Lanka	229.636589	#CenterFarFromPolice	ත්රිකුණාමලය	කින්නියා	කින්නියා රෝහල	திருகோணமலை	கிண்ணியா	கிண்ணியா மருத்துவமனை	තම්පලකමම්-කින්නියා පාර, කින්නියා 31100, ශ්‍රී ලංකාව	தம்பலகாமம்-கிண்ணியா சாலை, கிண்ணியா 31100, இலங்கை
Trincomalee	Sripura	MOH Office – Sripura	False	False	TRNCMLSRPRMHFFCSRPR		Trincomalee	LK-53	8.551241	81.092014	Sripura	PS-530136	8.929617	80.81428	8.926697	80.814799	Padavi Sripura, Padaviya - Sripura Road, Welioya, Sri Lanka	0.329869		ත්රිකුණාමලය	ශ්‍රීපුර	MOH කාර්යාලය - ශ්‍රීපුර	திருகோணமலை	ஸ்ரீபுரா	MOH அலுவலகம் - ஸ்ரீபுரா	පදවි ශ්‍රීපුර, පදවිය - ශ්‍රීපුර පාර, වැලිඔය, ශ්‍රී ලංකාව	படவி ஸ்ரீபுரா, படாவியா - ஸ்ரீபுரா சாலை, வெலிஓயா, இலங்கை
Trincomalee	Kuchchaveli	MOH Office - Kuchchaveli	False	False	TRNCMLKCHCHVLMHFFCKCHCHVL		Trincomalee	LK-53	8.551241	81.092014	Kuchchaweli	PS-530133	8.81895	81.100438	8.740082	81.161616	P5R6+2JQ, Kumpurupiddi, Sri Lanka	11.053646		ත්රිකුණාමලය	කුච්චවේලි	MOH කාර්යාලය - කුච්චවේලි	திருகோணமலை	குச்சவெளி	MOH அலுவலகம் - குச்சவெளி	P5R6+2JQ, කුඹුරුපිඩි, ශ්‍රී ලංකාව	P5R6+2JQ, கும்புறுப்பிடி, இலங்கை
Trincomalee	Kuchchaveli	Divisional Hospital - Kuchchaveli	False	False	TRNCMLKCHCHVLDVSNLHSPTLKCHCHVL		Trincomalee	LK-53	8.551241	81.092014	Kuchchaweli	PS-530133	8.81895	81.100438	8.814795	81.102358	R472+WW9, Kuchchaveli, Sri Lanka	0.508064		ත්රිකුණාමලය	කුච්චවේලි	ප්‍රාදේශීය රෝහල - කුච්චවේලි	திருகோணமலை	குச்சவெளி	பிரதேச மருத்துவமனை - குச்சவெளி	ආර් 472+WW9, කුච්චවේලි, ශ්‍රී ලංකාව	R472+WW9, குச்சவெளி, இலங்கை
Trincomalee	Kuchchaveli	Annuria Muslim College	False	False	TRNCMLKCHCHVLNNRMSLMCLLG		Trincomalee	LK-53	8.551241	81.092014	Kuchchaweli	PS-530133	8.81895	81.100438	8.504893	81.179851	Kinniya, Sri Lanka	36.007413	#CenterFarFromPolice	ත්රිකුණාමලය	කුච්චවේලි	අනුරියා මුස්ලිම් විද්‍යාලය	திருகோணமலை	குச்சவெளி	அன்னூரியா முஸ்லிம் கல்லூரி	කින්නියා, ශ්‍රී ලංකාව	கிண்ணியா, இலங்கை
Trincomalee	Kuchchaveli	Divisional Hospital - Nilaveli	False	False	TRNCMLKCHCHVLDVSNLHSPTLNLVL		Trincomalee	LK-53	8.551241	81.092014	Kuchchaweli	PS-530133	8.81895	81.100438	8.681035	81.193632	M5JV+CF6, Nilaveli, Sri Lanka	18.44695		ත්රිකුණාමලය	කුච්චවේලි	ප්‍රාදේශීය රෝහල - නිලාවේලි	திருகோணமலை	குச்சவெளி	பிரதேச மருத்துவமனை - நிலாவெளி	M5JV+CF6, නිලාවේලි, ශ්‍රී ලංකාව	M5JV+CF6, நிலவேலி, இலங்கை
Trincomalee	Kantale	MOH Office – Kantale	False	False	TRNCMLKNTLMHFFCKNTL		Trincomalee	LK-53	8.551241	81.092014	Kantale	PS-530241	8.356129	81.007739	8.349617	81.009107	අග්‍රබෝධි මාවත, Kantale, Sri Lanka	0.739809		ත්රිකුණාමලය	කන්තලේ	MOH කාර්යාලය - කන්තලේ	திருகோணமலை	கந்தலே	MOH அலுவலகம் - கந்தலே	වැඩි දියුණු කිරීම මාවත, කන්තලේ, ශ්‍රී ලංකාව	தீவிரப்படுத்தி மாவத்த, கந்தலே, இலங்கை
Trincomalee	Kantale	Al Taric Vidyalaya	False	False	TRNCMLKNTLLTRCVDYLY		Trincomalee	LK-53	8.551241	81.092014	Kantale	PS-530241	8.356129	81.007739	8.370158	81.006979	A6, Kantale, Sri Lanka	1.562683		ත්රිකුණාමලය	කන්තලේ	අල් තාරික් විද්‍යාලය	திருகோணமலை	கந்தலே	அல் தாரிக் வித்யாலயா	ඒ 6, කන්තලේ, ශ්‍රී ලංකාව	ஏ 6, கந்தலே, இலங்கை
Trincomalee	Kantale	Kantale Base Hospital	False	False	TRNCMLKNTLKNTLBSHSPTL		Trincomalee	LK-53	8.551241	81.092014	Kantale	PS-530241	8.356129	81.007739	8.366314	81.004891	A6, Kantale, Sri Lanka	1.17546		ත්රිකුණාමලය	කන්තලේ	කන්තලේ මූලික රෝහල	திருகோணமலை	கந்தலே	கந்தலே அடிப்படை மருத்துவமனை	ඒ 6, කන්තලේ, ශ්‍රී ලංකාව	ஏ 6, கந்தலே, இலங்கை
Trincomalee	Kantale	Gantalawa Central College	False	False	TRNCMLKNTLGNTLWCNTRLCLLG		Trincomalee	LK-53	8.551241	81.092014	Kantale	PS-530241	8.356129	81.007739	8.379492	81.010837	Kandy Rd, Kantale 31300, Sri Lanka	2.62093		ත්රිකුණාමලය	කන්තලේ	ගන්තලාව මධ්‍ය විද්‍යාලය	திருகோணமலை	கந்தலே	கந்தலாவ மத்திய கல்லூரி	මහනුවර පාර, කන්තලේ 31300, ශ්‍රී ලංකාව	கண்டி வீதி, கந்தலே 31300, இலங்கை
Trincomalee	Kantale	Unit 14 Jayarajarama Viharaya	False	False	TRNCMLKNTLNTJYRJRMVHRY		Trincomalee	LK-53	8.551241	81.092014	Kantale	PS-530241	8.356129	81.007739	8.351263	81.006993	Kantale, Sri Lanka	0.547435		ත්රිකුණාමලය	කන්තලේ	ඒකකය 14 ජයරාජාරාම විහාරය	திருகோணமலை	கந்தலே	அலகு 14 ஜெயராஜராம விகாரை	කන්තලේ, ශ්‍රී ලංකාව	கந்தலே, இலங்கை
Trincomalee	Vanela	Vanela Central Dispensary	False	False	TRNCMLVNLVNLCNTRLDSPNSRY		Trincomalee	LK-53	8.551241	81.092014									#PoliceLocationUnknown	ත්රිකුණාමලය	වනේලා	වනේලා මධ්‍යම බෙහෙත් ශාලාව	திருகோணமலை	வனேலா	வனேலா மத்திய மருந்தகம்		
Trincomalee	Agbopura	Batukachchiya Central Dispensary	False	False	TRNCMLGBPRBTKCHCHYCNTRLDSPNSRY		Trincomalee	LK-53	8.551241	81.092014	Agbopura	PS-530242	8.331395	80.976489	8.480713	81.165957	Kachchakodutheevu,Kinniya, Kinniya, Sri Lanka	26.654993	#CenterFarFromPolice	ත්රිකුණාමලය	අග්බෝපුර	බටුකච්චිය මධ්‍යම බෙහෙත් ශාලාව	திருகோணமலை	அக்போபுரா	பதுகச்சியா மத்திய மருந்தகம்	කච්චකොඩුතීව්, කින්නියා, කින්නියා, ශ්‍රී ලංකාව	கச்சகொடுதீவு, கிண்ணியா, கிண்ணியா, இலங்கை
Trincomalee	Suriyapura	Jayanthipura Vidyalaya	False	False	TRNCMLSRYPRJYNTHPRVDYLY		Trincomalee	LK-53	8.551241	81.092014	Suriyapura	PS-530245	6.873107	79.86167	8.369017	81.071671	939C+JM3, Kantale, Sri Lanka	213.260141	#CenterFarFromPolice	ත්රිකුණාමලය	සූරියපුර	ජයන්තිපුර විද්‍යාලය	திருகோணமலை	சூரியபுரா	ஜெயந்திபுரா வித்யாலயா	939 සී+ජේඑම් 3, කන්තලේ, ශ්‍රී ලංකාව	939C+JM3, கந்தலே, இலங்கை
Trincomalee	Pulmoddai	Pulmoddai Base Hospital	False	False	TRNCMLPLMDDPLMDDBSHSPTL	Base Hospital - Pulmoddai	Trincomalee	LK-53	8.551241	81.092014	Pulmudai	PS-530135	6.915266	79.87829	8.941204	80.983139	WXRM+F7J, Pulmoddai, Sri Lanka	256.112801	#CenterFarFromPolice	ත්රිකුණාමලය	පුල්මොඩෙයි	මූලික රෝහල - පුල්මොඩෙයි	திருகோணமலை	புல்மோட்டை	அடிப்படை மருத்துவமனை - புல்மோட்டை	ඩබ්ලිව්එක්ස්ආර්එම්+එෆ් 7 ජේ, පුල්මොඩෙයි, ශ්‍රී ලංකාව	WXRM+F7J, புல்மோடை, இலங்கை
Trincomalee	Pulmoddai	Muslim National College	False	False	TRNCMLPLMDDMSLMNTNLCLLG		Trincomalee	LK-53	8.551241	81.092014	Pulmudai	PS-530135	6.915266	79.87829	8.940296	80.985139	B60, Pulmoddai, Sri Lanka	256.12882	#CenterFarFromPolice	ත්රිකුණාමලය	පුල්මොඩෙයි	මුස්ලිම් ජාතික විද්‍යාලය	திருகோணமலை	புல்மோட்டை	முஸ்லிம் தேசிய கல்லூரி	බී 60, පුල්මොඩෙයි, ශ්‍රී ලංකාව	பி 60, புல்மோடை, இலங்கை
Trincomalee	Serunuwara	MOH Office - Serunuwara	False	False	TRNCMLSRNWRMHFFCSRNWR		Trincomalee	LK-53	8.551241	81.092014	Serunuwara	PS-530244	8.321863	81.299322	8.323143	81.299894	B10, Sri Lanka	0.155671		ත්රිකුණාමලය	සේරුනුවර	MOH කාර්යාලය - සේරුනුවර	திருகோணமலை	சேருநுவரா	MOH அலுவலகம் - சேருநுவரா	බී 10, ශ්‍රී ලංකාව	பி 10, இலங்கை
Trincomalee	Serunuwara	Serunuwara Hospital	False	False	TRNCMLSRNWRSRNWRHSPTL		Trincomalee	LK-53	8.551241	81.092014	Serunuwara	PS-530244	8.321863	81.299322	8.322964	81.299734	Allai-Kantalai Rd, Sri Lanka	0.130589		ත්රිකුණාමලය	සේරුනුවර	සේරුනුවර රෝහල	திருகோணமலை	சேருநுவரா	சேருநுவரா மருத்துவமனை	අල්ලෙයි-කන්තලායි පාර, ශ්‍රී ලංකාව	அல்லை-கந்தளாய் சாலை, இலங்கை
Trincomalee	Serunuwara	Somadevi Maha Vidyalaya	False	False	TRNCMLSRNWRSMDVMHVDYLY		Trincomalee	LK-53	8.551241	81.092014	Serunuwara	PS-530244	8.321863	81.299322	6.308406	80.940472	Sewanagala, Sri Lanka	227.428456	#CenterFarFromPolice	ත්රිකුණාමලය	සේරුනුවර	සෝමදේවි මහා විද්‍යාලය	திருகோணமலை	சேருநுவரா	சோமாதேவி மகா வித்தியாலயம்	සෙවනගල, ශ්‍රී ලංකාව	செவனகலா, இலங்கை
Trincomalee	Morawewa	Mahadivulwewa Hospital	False	False	TRNCMLMRWWMHDVLWWHSPTL		Trincomalee	LK-53	8.551241	81.092014	Morawewa	PS-530247	8.630317	81.031386	8.620893	80.968736	JXC9+9F5, Mahadivul Wewa, Sri Lanka	6.969016		ත්රිකුණාමලය	මොරවැව	මහදිවුල්වැව රෝහල	திருகோணமலை	மொரவெவ	மஹாதிவுல்வேவா மருத்துவமனை	JXC9+9F5, මහදිවුල් වැව, ශ්‍රී ලංකාව	JXC9+9F5, மகாதிவுல் வெவா, இலங்கை
Trincomalee	Harbour Police	MOH Office - Trincomalee	False	False	TRNCMLHRBRPLCMHFFCTRNCML		Trincomalee	LK-53	8.551241	81.092014	Trinco Harbour Police	PS-530131	8.56705	81.231407	8.598974	81.216963	MOH Office, Farm Rd, Trincomalee, Sri Lanka	3.890062		ත්රිකුණාමලය	වරාය පොලිසිය	එම්ඕඑච් කාර්යාලය - ත්‍රිකුණාමලය	திருகோணமலை	துறைமுக காவல்துறை	MOH அலுவலகம் - திருகோணமலை	එම්ඕඑච් කාර්යාලය, ගොවිපල පාර, ත්‍රිකුණාමලය, ශ්‍රී ලංකාව	MOH அலுவலகம், பண்ணை சாலை, திருகோணமலை, இலங்கை
Trincomalee	Harbour Police	Trincomalee Base Hospital	False	False	TRNCMLHRBRPLCTRNCMLBSHSPTL		Trincomalee	LK-53	8.551241	81.092014	Trinco Harbour Police	PS-530131	8.56705	81.231407	8.56486	81.239445	Hospital Ln, Trincomalee, Sri Lanka	0.917037		ත්රිකුණාමලය	වරාය පොලිසිය	ත්‍රිකුණාමලය මූලික රෝහල	திருகோணமலை	துறைமுக காவல்துறை	திருகோணமலை ஆதார மருத்துவமனை	රෝහල, ත්‍රිකුණාමලය, ශ්‍රී ලංකාව	மருத்துவமனை Ln, திருகோணமலை, இலங்கை
Trincomalee	Uppuveli	MOH Office - Uppuveli	False	False	TRNCMLPPVLMHFFCPPVL		Trincomalee	LK-53	8.551241	81.092014	Uppuweli	PS-530134	8.593614	81.21743	8.607961	81.216512	Nilaveli Rd, Trincomalee, Sri Lanka	1.599005		ත්රිකුණාමලය	උප්පුවේලි	MOH කාර්යාලය - උප්පුවේලි	திருகோணமலை	உப்புவேலி	MOH அலுவலகம் - உப்புவேலி	නිලාවේලි පාර, ත්‍රිකුණාමලය, ශ්‍රී ලංකාව	நிலவேலி வீதி, திருகோணமலை, இலங்கை
Trincomalee	Ichchalampattu	MOH Office - Ichchalampattu	False	False	TRNCMLCHCHLMPTTMHFFCCHCHLMPTT	Eachchilampattu Hospital	Trincomalee	LK-53	8.551241	81.092014	Ichchalampattu		8.289549	81.359002	8.289644	81.358983	Highway, Ichchalampattu, Trincomalee, Sri Lanka	0.010772		ත්රිකුණාමලය	ඉච්චලම්පත්තු	එක්ර්චිලම්පත්තු රෝහල	திருகோணமலை	இச்சலம்பட்டு	ஒவ்வொருசிலம்பட்டு மருத்துவமனை	අධිවේගී මාර්ගය, ඉච්චලම්පත්තු, ත්‍රිකුණාමලය, ශ්‍රී ලංකාව	நெடுஞ்சாலை, ஈச்சலாம்பட்டு, திருகோணமலை, இலங்கை
Trincomalee	Ichchalampattu	Ichchalampattu Hospital	False	False	TRNCMLCHCHLMPTTCHCHLMPTTHSPTL		Trincomalee	LK-53	8.551241	81.092014	Ichchalampattu		8.289549	81.359002	8.289549	81.358986	Trincomalee Hwy, Sri Lanka	0.001761		ත්රිකුණාමලය	ඉච්චලම්පත්තු	ඉච්චලම්පත්තු රෝහල	திருகோணமலை	இச்சலம்பட்டு	ஈச்சலாம்பட்டு மருத்துவமனை	ත්‍රිකුණාමලය හ්වි, ශ්‍රී ලංකාව	திருகோணமலை Hwy, இலங்கை
Trincomalee	Ichchalampattu	Uppural Vidyalaya	False	False	TRNCMLCHCHLMPTTPPRLVDYLY		Trincomalee	LK-53	8.551241	81.092014	Ichchalampattu		8.289549	81.359002	8.365205	81.031496	928J+3HQ, Kantale, Sri Lanka	37.013665	#CenterFarFromPolice	ත්රිකුණාමලය	ඉච්චලම්පත්තු	උප්පුරල් විද්‍යාලය	திருகோணமலை	இச்சலம்பட்டு	உப்புரல் வித்யாலயா	928J+3HQ, කන්තලේ, ශ්‍රී ලංකාව	928J+3HQ, கந்தலே, இலங்கை
Trincomalee	Thambalagamuwa	MOH Office - Thambalagamuwa	False	False	TRNCMLTHMBLGMWMHFFCTHMBLGMW		Trincomalee	LK-53	8.551241	81.092014	Thambalagamuva	PS-530243	6.907289	79.863819	8.563603	81.239584	Hospital Ln, Trincomalee, Sri Lanka	238.604889	#CenterFarFromPolice	ත්රිකුණාමලය	තඹලගමුව	MOH කාර්යාලය - තඹලගමුව	திருகோணமலை	தம்பலகாமுவா	MOH அலுவலகம் - தம்பலகமுவ	රෝහල, ත්‍රිකුණාමලය, ශ්‍රී ලංකාව	மருத்துவமனை Ln, திருகோணமலை, இலங்கை
Trincomalee	Thambalagamuwa	Kulakottan Vidyalaya	False	False	TRNCMLTHMBLGMWKLKTTNVDYLY		Trincomalee	LK-53	8.551241	81.092014	Thambalagamuva	PS-530243	6.907289	79.863819	8.491061	81.104748	potkerney Thampalagamam, Sri Lanka	223.028906	#CenterFarFromPolice	ත්රිකුණාමලය	තඹලගමුව	කුලකොට්ටන් විද්‍යාලය	திருகோணமலை	தம்பலகாமுவா	குலக்கோட்டன் வித்யாலயா	පොට්කර්නි තම්පලාගමම්, ශ්‍රී ලංකාව	பாட்கர்னி தம்பலகாமம், இலங்கை
Trincomalee	Thambalagamuwa	Mollipathana Sinhala Maha Vidyalaya	False	False	TRNCMLTHMBLGMWMLLPTHNSNHLMHVDYLY		Trincomalee	LK-53	8.551241	81.092014	Thambalagamuva	PS-530243	6.907289	79.863819	8.491061	81.104748	potkerney Thampalagamam, Sri Lanka	223.028906	#CenterFarFromPolice	ත්රිකුණාමලය	තඹලගමුව	මොල්ලිපතන සිංහල මහා විද්‍යාලය	திருகோணமலை	தம்பலகாமுவா	மொல்லிபத்தான சிங்கள மகா வித்தியாலயம்	පොට්කර්නි තම්පලාගමම්, ශ්‍රී ලංකාව	பாட்கர்னி தம்பலகாமம், இலங்கை
Trincomalee	Thambalagamuwa	Mollipathana Central Dispensary	False	False	TRNCMLTHMBLGMWMLLPTHNCNTRLDSPNSRY		Trincomalee	LK-53	8.551241	81.092014	Thambalagamuva	PS-530243	6.907289	79.863819	8.454476	81.062722	96 A6, Mullipotana, Sri Lanka	216.98052	#CenterFarFromPolice	ත්රිකුණාමලය	තඹලගමුව	මොල්ලිපතන මධ්‍යම බෙහෙත් ශාලාව	திருகோணமலை	தம்பலகாமுவா	மொல்லிபத்தான மத்திய மருந்தகம்	96 ඒ 6, මුලිපොතාන, ශ්‍රී ලංකාව	96 ஏ 6, முள்ளிபோதனா, இலங்கை
Trincomalee	Thambalagamuwa	Gantalawa Central Dispensary	False	False	TRNCMLTHMBLGMWGNTLWCNTRLDSPNSRY		Trincomalee	LK-53	8.551241	81.092014	Thambalagamuva	PS-530243	6.907289	79.863819	8.454476	81.062722	96 A6, Mullipotana, Sri Lanka	216.98052	#CenterFarFromPolice	ත්රිකුණාමලය	තඹලගමුව	ගන්තලාව මධ්‍යම බෙහෙත් ශාලාව	திருகோணமலை	தம்பலகாமுவா	கந்தலாவா மத்திய மருந்தகம்	96 ඒ 6, මුලිපොතාන, ශ්‍රී ලංකාව	96 ஏ 6, முள்ளிபோதனா, இலங்கை
Trincomalee	Thambalagamuwa	Siraj Nagar Muslim College	False	False	TRNCMLTHMBLGMWSRJNGRMSLMCLLG		Trincomalee	LK-53	8.551241	81.092014	Thambalagamuva	PS-530243	6.907289	79.863819	8.465601	81.082906	Siraj Nagar,, Trincomalee, Sri Lanka	219.318228	#CenterFarFromPolice	ත්රිකුණාමලය	තඹලගමුව	සිරාජ් නගර් මුස්ලිම් විද්‍යාලය	திருகோணமலை	தம்பலகாமுவா	சிராஜ் நகர் முஸ்லிம் கல்லூரி	සිරාජ් නගර් ,, ත්‍රිකුණාමලය, ශ්‍රී ලංකාව	சிராஜ் நகர் ,, திருகோணமலை, இலங்கை
Trincomalee	Gomarankadawala	MOH Office - Gomarankadawala	False	False	TRNCMLGMRNKDWLMHFFCGMRNKDWL		Trincomalee	LK-53	8.551241	81.092014	Gomarankadawala	PS-530248	8.674487	80.967555	8.674726	80.955691	Unnamed Road, Gomarankadawala, Sri Lanka	1.304806		ත්රිකුණාමලය	ගෝමරන්කඩවල	එම්ඕඑච් කාර්යාලය - ගෝමරන්කඩවල	திருகோணமலை	கோமரன்கடவாலா	MOH அலுவலகம் - கோமரன்கடவாலா	නම් නොකළ පාර, ගෝමරන්කඩවල, ශ්‍රී ලංකාව	பெயரிடப்படாத சாலை, கோமரன்கடவாலா, இலங்கை
Batticaloa	Kokkadicholai	Mahaladithivu Saraswathi Vidyalaya	False	False	BTTCLKKKDCHLMHLDTHVSRSWTHVDYLY		Batticaloa	LK-51	7.792772	81.486513	Kokkadicholai	PS-510112	7.715979	81.698757	7.622641	81.720011	JPFC+322, Batticaloa, Sri Lanka	10.643056		මඩකලපුව	කොක්කඩිචෝලේ	මහලදිතිව් සරස්වතී විද්‍යාලය	மட்டக்களப்பு	கொக்கடிச்சோலை	மகாலடித்தீவு சரஸ்வதி வித்யாலயா	JPFC+322, මඩකලපුව, ශ්‍රී ලංකාව	JPFC+322, மட்டக்களப்பு, இலங்கை
Batticaloa	Kokkadicholai	Keviliyamadu Community Health Centre	False	False	BTTCLKKKDCHLKVLYMDCMMNTYHLTHCNTR		Batticaloa	LK-51	7.792772	81.486513	Kokkadicholai	PS-510112	7.715979	81.698757	7.68206	81.728154	MPJH+R7C, Kattankudy, Sri Lanka	4.97332		මඩකලපුව	කොක්කඩිචෝලේ	කෙවිලියාමඩු ප්‍රජා සෞඛ්‍ය මධ්‍යස්ථානය	மட்டக்களப்பு	கொக்கடிச்சோலை	கெவிலியமடு சமூக சுகாதார மையம்	එම්පීජේඑච්+ආර් 7 සී, කාත්තන්කුඩි, ශ්‍රී ලංකාව	MPJH+R7C, காத்தான்குடி, இலங்கை
Batticaloa	Kokkadicholai	Kollenule Tamil College	False	False	BTTCLKKKDCHLKLLNLTMLCLLG		Batticaloa	LK-51	7.792772	81.486513	Kokkadicholai	PS-510112	7.715979	81.698757	7.683651	81.731154	Hizbullah Stadium Rd, Kattankudy, Sri Lanka	5.067766		මඩකලපුව	කොක්කඩිචෝලේ	කොලෙනුලේ දෙමළ විද්‍යාලය	மட்டக்களப்பு	கொக்கடிச்சோலை	கொல்லேனுலே தமிழ் கல்லூரி	හිස්බුල්ලා ක්‍රීඩාංගණය පාර, කාත්තන්කුඩි, ශ්‍රී ලංකාව	ஹிஸ்புல்லா ஸ்டேடியம் சாலை, காத்தான்குடி, இலங்கை
Batticaloa	Batticaloa	Mangantuduvai Baradi Vidyalaya	False	False	BTTCLBTTCLMNGNTDVBRDVDYLY		Batticaloa	LK-51	7.792772	81.486513	Batticaloa	PS-510101	7.717949	81.699294	7.720143	81.700516	PPC2+362, Batticaloa, Sri Lanka	0.278741		මඩකලපුව	මඩකලපුව	මාන්ගන්තුඩුවෙයි බරාදි විද්‍යාලය	மட்டக்களப்பு	மட்டக்களப்பு	மாங்கண்டுதுவை பாரதி வித்தியாலயம்	පීපීසී 2+362, මඩකලපුව, ශ්‍රී ලංකාව	PPC2+362, மட்டக்களப்பு, இலங்கை
Batticaloa	Batticaloa	Sathurukondan Sarvodaya	False	False	BTTCLBTTCLSTHRKNDNSRVDY		Batticaloa	LK-51	7.792772	81.486513	Batticaloa	PS-510101	7.717949	81.699294	7.751535	81.671916	Sathurukondan, Batticaloa, Sri Lanka	4.80224		මඩකලපුව	මඩකලපුව	සතුරුකෝන්දන් සර්වෝදය	மட்டக்களப்பு	மட்டக்களப்பு	சதுருகொண்டான் சர்வோதயா	සතුරුකෝන්දන්, මඩකලපුව, ශ්‍රී ලංකාව	சதுருகொண்டான், மட்டக்களப்பு, இலங்கை
Batticaloa	Batticaloa	Mamangam Sahayamatha Church	False	False	BTTCLBTTCLMMNGMSHYMTHCHRCH		Batticaloa	LK-51	7.792772	81.486513	Batticaloa	PS-510101	7.717949	81.699294	7.720183	81.69536	Trincomalee Road, Batticaloa, Sri Lanka	0.499766		මඩකලපුව	මඩකලපුව	මාමංගම් සහයමත පල්ලිය	மட்டக்களப்பு	மட்டக்களப்பு	மாமாங்கம் சகாயமாதா தேவாலயம்	ත්‍රිකුණාමලය පාර, මඩකලපුව, ශ්‍රී ලංකාව	திருகோணமலை சாலை, மட்டக்களப்பு, இலங்கை
Batticaloa	Batticaloa	Karuwappankeni Vipulananda Vidyalaya	False	False	BTTCLBTTCLKRWPPNKNVPLNNDVDYLY		Batticaloa	LK-51	7.792772	81.486513	Batticaloa	PS-510101	7.717949	81.699294	7.718067	81.712712	PP97+63G, Kallady, Sri Lanka	1.47902		මඩකලපුව	මඩකලපුව	කරුවප්පන්කේනි විපුලානන්ද විද්‍යාලය	மட்டக்களப்பு	மட்டக்களப்பு	கருவப்பன்கேணி விபுலானந்தா வித்யாலயா	පීපී 97+63 ජී, කල්ලඩි, ශ්‍රී ලංකාව	பிபி 97+63 ஜி, கல்லடி, இலங்கை
Batticaloa	Batticaloa	RDSH Office	False	False	BTTCLBTTCLRDSHFFC		Batticaloa	LK-51	7.792772	81.486513	Batticaloa	PS-510101	7.717949	81.699294	7.718332	81.698836	Trinco Rd, Batticaloa, Sri Lanka	0.066055		මඩකලපුව	මඩකලපුව	ආර්ඩීඑස්එච් කාර්යාලය	மட்டக்களப்பு	மட்டக்களப்பு	RDSH அலுவலகம்	ත්‍රිකුණාමල පාර, මඩකලපුව, ශ්‍රී ලංකාව	டிரின்கோ ஆர்ட், மட்டக்களப்பு, இலங்கை
Batticaloa	Vellawali	Kalaimagal  Vidyalaya	False	False	BTTCLVLLWLKLMGLVDYLY		Batticaloa	LK-51	7.792772	81.486513	Vellavali	PS-510111	6.907289	79.863819	7.503251	81.730235	Ampilanturai-Veeramunai Rd, Sri Lanka	216.365388	#CenterFarFromPolice	මඩකලපුව	වෙල්ලවාලි	කලෙයිමාගල් විද්‍යාලය	மட்டக்களப்பு	வெல்லவாலி	கலைமகள் வித்யாலயா	අම්පිලතුරෙයි-වීරමුණේ පාර, ශ්‍රී ලංකාව	அம்பிலந்துறை-வீரமுனை சாலை, இலங்கை
Batticaloa	Kaluwanchikudy	Periya Porathivu   Vidyalaya	False	False	BTTCLKLWNCHKDYPRYPRTHVVDYLY		Batticaloa	LK-51	7.792772	81.486513	Kalawanchikudy	PS-510110	7.515908	81.787051	7.5182	81.75479	kovilporathivu, Sri Lanka	3.56667		මඩකලපුව	කළුවන්චිකුඩි	පෙරිය පොරතිවු විද්‍යාලය	மட்டக்களப்பு	களுவாஞ்சிக்குடி	பெரிய பொரதீவு வித்தியாலயம்	කෝවිල්පොරතිව්, ශ්‍රී ලංකාව	கோவில்போரதீவு, இலங்கை
Batticaloa	Kaluwanchikudy	Settipalama Tamil College	False	False	BTTCLKLWNCHKDYSTTPLMTMLCLLG		Batticaloa	LK-51	7.792772	81.486513	Kalawanchikudy	PS-510110	7.515908	81.787051	7.648759	81.745706	JPXW+G74, Batticaloa, Sri Lanka	15.464161		මඩකලපුව	කළුවන්චිකුඩි	සෙට්ටිපලම දෙමළ විද්‍යාලය	மட்டக்களப்பு	களுவாஞ்சிக்குடி	செட்டிபாலமா தமிழ் கல்லூரி	JPXW+G74, මඩකලපුව, ශ්‍රී ලංකාව	JPXW+G74, மட்டக்களப்பு, இலங்கை
Batticaloa	Kaluwanchikudy	Thethathivu Tamil College	False	False	BTTCLKLWNCHKDYTHTHTHVTMLCLLG		Batticaloa	LK-51	7.792772	81.486513	Kalawanchikudy	PS-510110	7.515908	81.787051	7.547235	81.787676	A4, Kaluwanchikudy, Sri Lanka	3.485178		මඩකලපුව	කළුවන්චිකුඩි	තේතාතිව් දෙමළ විද්‍යාලය	மட்டக்களப்பு	களுவாஞ்சிக்குடி	தேத்தீவு தமிழ் கல்லூரி	ඒ 4, කලුවාංචිකුඩි, ශ්‍රී ලංකාව	A4, களுவாஞ்சிக்குடி, இலங்கை
Batticaloa	Valachchenai	MOH Office - Valachchenai	False	False	BTTCLVLCHCHNMHFFCVLCHCHN		Batticaloa	LK-51	7.792772	81.486513	Valachchanai	PS-510107	7.908015	81.533004	7.912281	81.532775	WG6M+W46, Batticaloa, Sri Lanka	0.475177		මඩකලපුව	වාලච්චේන	MOH කාර්යාලය - වාලච්චේන	மட்டக்களப்பு	வாலாச்சேனை	MOH அலுவலகம் - வாலாச்சேனை	WG6M+W46, මඩකලපුව, ශ්‍රී ලංකාව	WG6M+W46, மட்டக்களப்பு, இலங்கை
Batticaloa	Valachchenai	Saduliya Vidyalaya	False	False	BTTCLVLCHCHNSDLYVDYLY		Batticaloa	LK-51	7.792772	81.486513	Valachchanai	PS-510107	7.908015	81.533004	7.921328	81.52467	WGCF+GVM, Oddamavadi, Sri Lanka	1.742353		මඩකලපුව	වාලච්චේන	සාදුලිය විද්‍යාලය	மட்டக்களப்பு	வாலாச்சேனை	சடுலியா வித்யாலயா	ඩබ්ලිව්ජීසීඑෆ්+ජීවීඑම්, ඔඩ්ඩමාවඩි, ශ්‍රී ලංකාව	WGCF+GVM, ஓட்டமாவடி, இலங்கை
Batticaloa	Valachchenai	MOH Office - Oddamavadi	False	False	BTTCLVLCHCHNMHFFCDDMVD		Batticaloa	LK-51	7.792772	81.486513	Valachchanai	PS-510107	7.908015	81.533004	7.912281	81.532775	WG6M+W46, Batticaloa, Sri Lanka	0.475177		මඩකලපුව	වාලච්චේන	එම්ඕඑච් කාර්යාලය - ඔද්දමවඩි	மட்டக்களப்பு	வாலாச்சேனை	MOH அலுவலகம் - ஓட்டமாவடி	WG6M+W46, මඩකලපුව, ශ්‍රී ලංකාව	WG6M+W46, மட்டக்களப்பு, இலங்கை
Batticaloa	Valachchenai	MOH Office - Kiran	False	False	BTTCLVLCHCHNMHFFCKRN		Batticaloa	LK-51	7.792772	81.486513	Valachchanai	PS-510107	7.908015	81.533004	7.502211	79.839254	GR2Q+VPJ, Madampe, Sri Lanka	192.073036	#CenterFarFromPolice	මඩකලපුව	වාලච්චේන	MOH කාර්යාලය - කිරාන්	மட்டக்களப்பு	வாலாச்சேனை	MOH அலுவலகம் - கிரண்	GR2Q+VPJ, මාදම්පේ, ශ්‍රී ලංකාව	GR2Q+VPJ, மாதம்பே, இலங்கை
Batticaloa	Valachchenai	Valachchenai Base Hospital	False	False	BTTCLVLCHCHNVLCHCHNBSHSPTL		Batticaloa	LK-51	7.792772	81.486513	Valachchanai	PS-510107	7.908015	81.533004	7.911315	81.533046	Valaichchenai-Nasuvantivu-Navaladi Road, Sri Lanka	0.367088		මඩකලපුව	වාලච්චේන	වාලච්චේන මූලික රෝහල	மட்டக்களப்பு	வாலாச்சேனை	வாலாச்சேனை ஆதார மருத்துவமனை	වාලච්චේනයි-නසුවන්ටිව්-නවාලාඩි පාර, ශ්‍රී ලංකාව	வாழைச்சேனை-நசுவந்திவு-நாவலடி சாலை, இலங்கை
Batticaloa	Vakarai	MOH Office - Vakarai	False	False	BTTCLVKRMHFFCVKR	Divisional Hospital Vakarai	Batticaloa	LK-51	7.792772	81.486513	Wakarai	PS-510109	6.934132	79.856305	8.134552	81.435328	Trincomalee Hwy, Vakarai, Sri Lanka	219.417822	#CenterFarFromPolice	මඩකලපුව	වාකරේ	වාකරේ ප්‍රාදේශීය රෝහල	மட்டக்களப்பு	வாகரை	வாகரை பிரதேச மருத்துவமனை	ත්‍රිකුණාමලය හ්වි, වාකරේ, ශ්‍රී ලංකාව	திருகோணமலை Hwy, வாகரை, இலங்கை
Batticaloa	Kattankudy	MOH Office - Kattankudy	False	False	BTTCLKTTNKDYMHFFCKTTNKDY		Batticaloa	LK-51	7.792772	81.486513	Kaththankudi	PS-510103	7.715979	81.698757	7.683586	81.730767	MPMJ+C8J, Kattankudy, Sri Lanka	5.042961		මඩකලපුව	කාත්තන්කුඩි	MOH කාර්යාලය - කාත්තන්කුඩි	மட்டக்களப்பு	காத்தான்குடி	MOH அலுவலகம் - காத்தான்குடி	එම්පීඑම්ජේ+සී 8 ජේ, කාත්තන්කුඩි, ශ්‍රී ලංකාව	MPMJ+C8J, காத்தான்குடி, இலங்கை
Batticaloa	Kattankudy	Kalladi Sivananda Vidyalaya	False	False	BTTCLKTTNKDYKLLDSVNNDVDYLY		Batticaloa	LK-51	7.792772	81.486513	Kaththankudi	PS-510103	7.715979	81.698757	7.705703	81.714267	New Kalmunai Rd, Batticaloa, Sri Lanka	2.056476		මඩකලපුව	කාත්තන්කුඩි	කල්ලඩි සිවානන්ද විද්‍යාලය	மட்டக்களப்பு	காத்தான்குடி	கல்லடி சிவானந்தா வித்தியாலயம்	නව කල්මුණේ පාර, මඩකලපුව, ශ්‍රී ලංකාව	புதிய கல்முனை வீதி, மட்டக்களப்பு, இலங்கை
Batticaloa	Kattankudy	Kalladi Swami Vipulananda Vidyalaya	False	False	BTTCLKTTNKDYKLLDSWMVPLNNDVDYLY		Batticaloa	LK-51	7.792772	81.486513	Kaththankudi	PS-510103	7.715979	81.698757	7.70014	81.718098	Swami Vipulananda Institute of Aesthetic Studies, Batticaloa, Sri Lanka	2.765619		මඩකලපුව	කාත්තන්කුඩි	කල්ලඩි ස්වාමි විපුලානන්ද විද්‍යාලය	மட்டக்களப்பு	காத்தான்குடி	கல்லடி சுவாமி விபுலானந்தா வித்தியாலயம்	ස්වාමි විපුලානන්ද සෞන්දර්ය අධ්‍යයන ආයතනය, මඩකලපුව, ශ්‍රී ලංකාව	சுவாமி விபுலானந்தா அழகியல் ஆய்வுக் கழகம், மட்டக்களப்பு, இலங்கை
Batticaloa	Eravur	Sandiveli Hospital	False	False	BTTCLRVRSNDVLHSPTL		Batticaloa	LK-51	7.792772	81.486513	Eravur	PS-510104	7.715979	81.698757	7.777289	81.602853	Trincomalee Hwy, Eravur, Sri Lanka	12.578998		මඩකලපුව	එරාවුර්	සඳිවේලි රෝහල	மட்டக்களப்பு	ஏறாவூர்	சண்டிவேலி மருத்துவமனை	ත්‍රිකුණාමලය හ්වි, එරාවුර්, ශ්‍රී ලංකාව	திருகோணமலை Hwy, ஏறாவூர், இலங்கை
Batticaloa	Eravur	MOH Office - Chenkaladi	False	False	BTTCLRVRMHFFCCHNKLD		Batticaloa	LK-51	7.792772	81.486513	Eravur	PS-510104	7.715979	81.698757	7.783599	81.593367	Trincomalee Hwy, Chenkaladi 30350, Sri Lanka	13.837876		මඩකලපුව	එරාවුර්	MOH කාර්යාලය - චෙන්කලාඩි	மட்டக்களப்பு	ஏறாவூர்	MOH அலுவலகம் - செங்கலடி	ත්‍රිකුණාමලය හ්වි, චෙන්කලාඩි 30350, ශ්‍රී ලංකාව	திருகோணமலை Hwy, செங்கலடி 30350, இலங்கை
Batticaloa	Eravur	Chenkaladi Hospital	False	False	BTTCLRVRCHNKLDHSPTL		Batticaloa	LK-51	7.792772	81.486513	Eravur	PS-510104	7.715979	81.698757	7.783546	81.589961	Batticaloa Rd, Chenkaladi, Sri Lanka	14.151406		මඩකලපුව	එරාවුර්	චෙන්කලාඩි රෝහල	மட்டக்களப்பு	ஏறாவூர்	செங்கலடி மருத்துவமனை	මඩකලපුව පාර, චෙන්කලාඩි, ශ්‍රී ලංකාව	மட்டக்களப்பு வீதி, செங்கலடி, இலங்கை
Batticaloa	Eravur	Wigneswara Vidyalaya	False	False	BTTCLRVRWGNSWRVDYLY		Batticaloa	LK-51	7.792772	81.486513	Eravur	PS-510104	7.715979	81.698757	7.777732	81.603631	Trincomalee Road, Eravur, Sri Lanka	12.533962		මඩකලපුව	එරාවුර්	විග්නේෂ්වර විද්‍යාලය	மட்டக்களப்பு	ஏறாவூர்	விக்னேஸ்வரா வித்யாலயா	ත්‍රිකුණාමලය පාර, එරාවුර්, ශ්‍රී ලංකාව	திருகோணமலை சாலை, ஏறாவூர், இலங்கை
Batticaloa	Eravur	Macan Markar Vidyalaya	False	False	BTTCLRVRMCNMRKRVDYLY		Batticaloa	LK-51	7.792772	81.486513	Eravur	PS-510104	7.715979	81.698757	7.787789	81.614795	Thaikka Road, Eravur, Sri Lanka	12.224171		මඩකලපුව	එරාවුර්	මැකන් මාර්කර් විද්‍යාලය	மட்டக்களப்பு	ஏறாவூர்	மக்கான் மார்கர் வித்யாலயா	තායිකා පාර, එරාවුර්, ශ්‍රී ලංකාව	தைக்கா சாலை, ஏறாவூர், இலங்கை
Batticaloa	Eravur	Eravur Hospital	False	False	BTTCLRVRRVRHSPTL		Batticaloa	LK-51	7.792772	81.486513	Eravur	PS-510104	7.715979	81.698757	7.783168	81.605999	QJM4+799, Eravur 30300, Sri Lanka	12.663585		මඩකලපුව	එරාවුර්	එරාවුර් රෝහල	மட்டக்களப்பு	ஏறாவூர்	ஏறாவூர் மருத்துவமனை	QJM4+799, එරාවුර් 30300, ශ්‍රී ලංකාව	QJM4+799, ஏறாவூர் 30300, இலங்கை
Batticaloa	Eravur	Badurdeen Mohammed Vidyalaya	False	False	BTTCLRVRBDRDNMHMMDVDYLY		Batticaloa	LK-51	7.792772	81.486513	Eravur	PS-510104	7.715979	81.698757	7.776897	81.604203	Eravur, Sri Lanka	12.430415		මඩකලපුව	එරාවුර්	බදුර්දීන් මොහොමඩ් විද්‍යාලය	மட்டக்களப்பு	ஏறாவூர்	பதுர்தீன் முகமது வித்யாலயா	එරාවුර්, ශ්‍රී ලංකාව	ஏறாவூர், இலங்கை
Batticaloa	Eravur	Akbar Mosque	False	False	BTTCLRVRKBRMSQ		Batticaloa	LK-51	7.792772	81.486513	Eravur	PS-510104	7.715979	81.698757	7.775776	81.606514	QJG4+8J6, Eravur, Sri Lanka	12.148969		මඩකලපුව	එරාවුර්	අක්බර් පල්ලිය	மட்டக்களப்பு	ஏறாவூர்	அக்பர் மசூதி	QJG4+8J6, එරාවුර්, ශ්‍රී ලංකාව	QJG4+8J6, ஏறாவூர், இலங்கை
Batticaloa	Eravur	Mawadiwembu Hospital	False	False	BTTCLRVRMWDWMBHSPTL		Batticaloa	LK-51	7.792772	81.486513	Eravur	PS-510104	7.715979	81.698757	7.808545	81.566328	Mawadiwembu Hospital, Sri Lanka	17.861302		මඩකලපුව	එරාවුර්	මාවඩිවේඹු රෝහල	மட்டக்களப்பு	ஏறாவூர்	மாவடிவெம்பு மருத்துவமனை	මාවඩිවේඹු රෝහල, ශ්‍රී ලංකාව	மாவடிவெம்பு மருத்துவமனை, இலங்கை
Batticaloa	Eravur	Arumuhathankudiiruppu Primary School	False	False	BTTCLRVRRMHTHNKDRPPPRMRYSCHL		Batticaloa	LK-51	7.792772	81.486513	Eravur	PS-510104	7.715979	81.698757	7.781715	81.601743	Eravur - 04, Chenkaladi, Sri Lanka	12.953304		මඩකලපුව	එරාවුර්	ආරුමුහාටන්කුඩිඉරුප්පු ප්‍රාථමික විද්‍යාලය	மட்டக்களப்பு	ஏறாவூர்	ஆறுமுகத்தான்குடியிருப்பு தொடக்கப்பள்ளி	එරාවුර් - 04, චෙන්කලාඩි, ශ්‍රී ලංකාව	ஏறாவூர் - 04, செங்கலடி, இலங்கை
Batticaloa	Eravur	Wigneswara  Vidyalaya	False	False	BTTCLRVRWGNSWRVDYLY		Batticaloa	LK-51	7.792772	81.486513	Eravur	PS-510104	7.715979	81.698757	7.797306	81.608061	Eravurpattu, Eravur, Sri Lanka	13.481315		මඩකලපුව	එරාවුර්	විග්නේෂ්වර විද්‍යාලය	மட்டக்களப்பு	ஏறாவூர்	விக்னேஸ்வரா வித்யாலயா	එරාවුර්පත්තු, එරාවුර්, ශ්‍රී ලංකාව	ஏறாவூர்பட்டு, ஏறாவூர், இலங்கை
Batticaloa	Eravur	Siththandi RKM Vidyalaya	False	False	BTTCLRVRSTHTHNDRKMVDYLY		Batticaloa	LK-51	7.792772	81.486513	Eravur	PS-510104	7.715979	81.698757	7.66884	81.72948	Old kalmunai road, Sri Lanka	6.241843		මඩකලපුව	එරාවුර්	සිත්තන්ඩි ආර්කේඑම් විද්‍යාලය	மட்டக்களப்பு	ஏறாவூர்	சித்தாண்டி ஆர்.கே.எம் வித்யாலயா	පැරණි කල්මුණේ පාර, ශ්‍රී ලංකාව	பழைய கல்முனை சாலை, இலங்கை
Batticaloa	Eravur	Kommaturai Clinic	False	False	BTTCLRVRKMMTRCLNC		Batticaloa	LK-51	7.792772	81.486513	Eravur	PS-510104	7.715979	81.698757	7.777289	81.602853	Trincomalee Hwy, Eravur, Sri Lanka	12.578998		මඩකලපුව	එරාවුර්	කොම්මාතුරෙයි සායනය	மட்டக்களப்பு	ஏறாவூர்	கொம்மதுரை மருத்துவமனை	ත්‍රිකුණාමලය හ්වි, එරාවුර්, ශ්‍රී ලංකාව	திருகோணமலை Hwy, ஏறாவூர், இலங்கை
Batticaloa	Eravur	Al Arafa Vidyalaya	False	False	BTTCLRVRLRFVDYLY		Batticaloa	LK-51	7.792772	81.486513	Eravur	PS-510104	7.715979	81.698757	7.772262	81.605907	QJC4+W93, Eravur, Sri Lanka	11.996518		මඩකලපුව	එරාවුර්	අල් අරෆා විද්‍යාලය	மட்டக்களப்பு	ஏறாவூர்	அல் அரஃபா வித்யாலயா	QJC4+W93, එරාවුර්, ශ්‍රී ලංකාව	QJC4+W93, ஏறாவூர், இலங்கை
Batticaloa	Eravur	Kiran Central College	False	False	BTTCLRVRKRNCNTRLCLLG		Batticaloa	LK-51	7.792772	81.486513	Eravur	PS-510104	7.715979	81.698757	7.785947	81.590295	Trincomalee Road, Chenkaladi, Sri Lanka	14.264135		මඩකලපුව	එරාවුර්	කිරන් මධ්‍ය විද්‍යාලය	மட்டக்களப்பு	ஏறாவூர்	கிரண் மத்திய கல்லூரி	ත්‍රිකුණාමලය පාර, චෙන්කලාඩි, ශ්‍රී ලංකාව	திருகோணமலை சாலை, செங்கலடி, இலங்கை
Batticaloa	Eravur	Morakotanchenai Vidyalaya	False	False	BTTCLRVRMRKTNCHNVDYLY		Batticaloa	LK-51	7.792772	81.486513	Eravur	PS-510104	7.715979	81.698757	7.781715	81.601743	Eravur - 04, Chenkaladi, Sri Lanka	12.953304		මඩකලපුව	එරාවුර්	මොරකොටන්චේනායි විද්‍යාලය	மட்டக்களப்பு	ஏறாவூர்	மொரகொடஞ்சேனை வித்தியாலயம்	එරාවුර් - 04, චෙන්කලාඩි, ශ්‍රී ලංකාව	ஏறாவூர் - 04, செங்கலடி, இலங்கை
Batticaloa	Vavunathivu	MOH Office - Vavunathivu	False	False	BTTCLVVNTHVMHFFCVVNTHV		Batticaloa	LK-51	7.792772	81.486513	Vavunathive	PS-510102	6.933075	79.857181	7.708253	81.691368	Hospital Rd, Batticaloa, Sri Lanka	219.95575	#CenterFarFromPolice	මඩකලපුව	වවුනතිව්	MOH කාර්යාලය - වවුනතිව්	மட்டக்களப்பு	வவுணதீவு	MOH அலுவலகம் - வவுணதீவு	රෝහල පාර, මඩකලපුව, ශ්‍රී ලංකාව	மருத்துவமனை சாலை, மட்டக்களப்பு, இலங்கை
Batticaloa	Vavunathivu	Mahilattuwan Clinic	False	False	BTTCLVVNTHVMHLTTWNCLNC		Batticaloa	LK-51	7.792772	81.486513	Vavunathive	PS-510102	6.933075	79.857181	7.708032	81.690622	Hospital Ln, Batticaloa 30000, Sri Lanka	219.870447	#CenterFarFromPolice	මඩකලපුව	වවුනතිව්	මහිලට්ටුවාන් සායනය	மட்டக்களப்பு	வவுணதீவு	மகிழத்துவான் கிளினிக்	රෝහල, මඩකලපුව 30000, ශ්‍රී ලංකාව	மருத்துவமனை Ln, மட்டக்களப்பு 30000, இலங்கை
Batticaloa	Vavunathivu	Pavakkodichenai Vinayagar Vidyalaya	False	False	BTTCLVVNTHVPVKKDCHNVNYGRVDYLY		Batticaloa	LK-51	7.792772	81.486513	Vavunathive	PS-510102	6.933075	79.857181	7.720143	81.700516	PPC2+362, Batticaloa, Sri Lanka	221.401617	#CenterFarFromPolice	මඩකලපුව	වවුනතිව්	පවක්කොඩිචේනායි විනයගර් විද්‍යාලය	மட்டக்களப்பு	வவுணதீவு	பவக்கொடிச்சேனை விநாயகர் வித்தியாலயம்	පීපීසී 2+362, මඩකලපුව, ශ්‍රී ලංකාව	PPC2+362, மட்டக்களப்பு, இலங்கை
Batticaloa	Vavunathivu	Pudumandapathadi Clinic	False	False	BTTCLVVNTHVPDMNDPTHDCLNC		Batticaloa	LK-51	7.792772	81.486513	Vavunathive	PS-510102	6.933075	79.857181	7.708032	81.690622	Hospital Ln, Batticaloa 30000, Sri Lanka	219.870447	#CenterFarFromPolice	මඩකලපුව	වවුනතිව්	පුදුමණ්ඩපාතාදි සායනය	மட்டக்களப்பு	வவுணதீவு	புதுமண்டபத்தடி மருத்துவமனை	රෝහල, මඩකලපුව 30000, ශ්‍රී ලංකාව	மருத்துவமனை Ln, மட்டக்களப்பு 30000, இலங்கை
Batticaloa	Vavunathivu	Kannankuda Clinic	False	False	BTTCLVVNTHVKNNNKDCLNC		Batticaloa	LK-51	7.792772	81.486513	Vavunathive	PS-510102	6.933075	79.857181	7.708032	81.690622	Hospital Ln, Batticaloa 30000, Sri Lanka	219.870447	#CenterFarFromPolice	මඩකලපුව	වවුනතිව්	කන්නන්කුඩා සායනය	மட்டக்களப்பு	வவுணதீவு	கன்னங்குடா கிளினிக்	රෝහල, මඩකලපුව 30000, ශ්‍රී ලංකාව	மருத்துவமனை Ln, மட்டக்களப்பு 30000, இலங்கை
Batticaloa	Arayampathy	MOH Office - Arayampathy	False	False	BTTCLRYMPTHYMHFFCRYMPTHY		Batticaloa	LK-51	7.792772	81.486513	Arayampathy		7.670333	81.745783	7.672862	81.735019	MPFP+42R, Sri Lanka	1.21945		මඩකලපුව	ආරයම්පති	MOH කාර්යාලය - අරයම්පති	மட்டக்களப்பு	ஆரையம்பதி	MOH அலுவலகம் - ஆரையம்பதி	එම්පීඑෆ්පී+42 ආර්, ශ්‍රී ලංකාව	MPFP+42R, இலங்கை
Batticaloa	Arayampathy	Arayampathy Thalankuda Vinayagar Vidyalaya	False	False	BTTCLRYMPTHYRYMPTHYTHLNKDVNYGRVDYLY		Batticaloa	LK-51	7.792772	81.486513	Arayampathy		7.670333	81.745783	7.604417	81.764773	Kirankulam, Sri Lanka	7.624859		මඩකලපුව	ආරයම්පති	අරයම්පති තලන්කුඩා විනයාගර් විද්‍යාලය	மட்டக்களப்பு	ஆரையம்பதி	ஆரையம்பதி தளங்குடா விநாயகர் வித்யாலயா	කිරන්කුලම්, ශ්‍රී ලංකාව	கிரான்குளம், இலங்கை
Batticaloa	Arayampathy	Unnachchiya GTM Vidyalaya, 08th Mile Post	False	False	BTTCLRYMPTHYNNCHCHYGTMVDYLYTHMLPST		Batticaloa	LK-51	7.792772	81.486513	Arayampathy		7.670333	81.745783	7.65695	81.740413	Arayampathy, Sri Lanka	1.601975		මඩකලපුව	ආරයම්පති	උන්නච්චිය ජීටීඑම් විද්‍යාලය, 08 සැතපුම් කණුව	மட்டக்களப்பு	ஆரையம்பதி	உன்னச்சியா ஜிடிஎம் வித்யாலயா, 08 வது மைல் போஸ்ட்	අරයම්පති, ශ්‍රී ලංකාව	ஆரையம்பதி, இலங்கை
Batticaloa	Arayampathy	Mahilawattuwan Maha Vidyalaya	False	False	BTTCLRYMPTHYMHLWTTWNMHVDYLY		Batticaloa	LK-51	7.792772	81.486513	Arayampathy		7.670333	81.745783	7.669096	81.735067	Village Ct Rd, Kattankudy, Sri Lanka	1.189262		මඩකලපුව	ආරයම්පති	මහිලවත්තුවන් මහා විද්‍යාලය	மட்டக்களப்பு	ஆரையம்பதி	மகிழவத்துவான் மகா வித்தியாலயம்	ගම සීටී පාර, කාත්තන්කුඩි, ශ්‍රී ලංකාව	கிராமம் Ct Rd, காத்தான்குடி, இலங்கை
Batticaloa	Karadiyanaru	Karadiyanaru Hospital	False	False	BTTCLKRDYNRKRDYNRHSPTL		Batticaloa	LK-51	7.792772	81.486513	Karadiyanaru	PS-510105	7.701992	81.537252	7.700216	81.539779	PG2Q+3WJ, Karadiyanaru, Sri Lanka	0.341482		මඩකලපුව	කරදියනාරු	කරදියනාරු රෝහල	மட்டக்களப்பு	கரடியனாறு	கரடியனாறு மருத்துவமனை	PG2Q+3WJ, කරදියනාරු, ශ්‍රී ලංකාව	PG2Q+3WJ, கரடியனாறு, இலங்கை
Batticaloa	Karadiyanaru	Kitula Sri Krishna Vidyalaya	False	False	BTTCLKRDYNRKTLSRKRSHNVDYLY		Batticaloa	LK-51	7.792772	81.486513	Karadiyanaru	PS-510105	7.701992	81.537252	7.700747	81.538387	Karadiyanaru, Sri Lanka	0.186625		මඩකලපුව	කරදියනාරු	කිතුල ශ්‍රී ක්‍රිෂ්ණා විද්‍යාලය	மட்டக்களப்பு	கரடியனாறு	கிதுலா ஸ்ரீ கிருஷ்ணா வித்யாலயா	කරදියනාරු, ශ්‍රී ලංකාව	கரடியனாறு, இலங்கை
Ampara	Chavalakade	5th Colony Health Centre	False	False	MPRCHVLKDTHCLNYHLTHCNTR		Ampara	LK-52	7.23699	81.550391	Chawalakade	PS-520125	7.413559	81.776822	7.418836	81.781436	Chavalakade, Sri Lanka	0.776867		අම්පාර	චවලකඩේ	5 වන ජනපද සෞඛ්‍ය මධ්‍යස්ථානය	அம்பாறை	சவளகடே	5 வது காலனி சுகாதார மையம்	චවලකඩේ, ශ්‍රී ලංකාව	சவளகடே, இலங்கை
Ampara	Chavalakade	MOH Office - Navindaweli	False	False	MPRCHVLKDMHFFCNVNDWL		Ampara	LK-52	7.23699	81.550391	Chawalakade	PS-520125	7.413559	81.776822	7.419149	81.821171	CR9C+MF3, Kalmunai 32300, Sri Lanka	4.931023		අම්පාර	චවලකඩේ	MOH කාර්යාලය - නවින්දවැලි	அம்பாறை	சவளகடே	MOH அலுவலகம் - நவிந்தவெளி	CR9C+MF3, කල්මුණේ 32300, ශ්‍රී ලංකාව	CR9C+MF3, கல்முனை 32300, இலங்கை
Ampara	Karaitivu	MOH Office – Karaitivu	False	False	MPRKRTVMHFFCKRTV		Ampara	LK-52	7.23699	81.550391	Karaitivu		9.744059	79.870587	7.377712	81.838796	Colombo-Ratnapura-Wellawaya-Batticaloa Highway, Karativu 32250, Sri Lanka	340.788666	#CenterFarFromPolice	අම්පාර	කාරතිව්	MOH කාර්යාලය - කරෙයිතිව්	அம்பாறை	காரைதீவு	MOH அலுவலகம் - காரைதீவு	කොළඹ-රත්නපුර-වැල්ලවාය-මඩකලපුව අධිවේගී මාර්ගය, කරතිවු 32250, ශ්‍රී ලංකාව	கொழும்பு-இரத்தினபுரி-வெள்ளவாயா-மட்டக்களப்பு நெடுஞ்சாலை, காரடிவு 32250, இலங்கை
Ampara	Karaitivu	Mavadipalli Helth Centre	False	False	MPRKRTVMVDPLLHLTHCNTR		Ampara	LK-52	7.23699	81.550391	Karaitivu		9.744059	79.870587	7.372549	81.824772	Karativu-Ampara Hwy, Karaitivu, Sri Lanka	340.256929	#CenterFarFromPolice	අම්පාර	කාරතිව්	මාවඩිපල්ලි හෙල්ත් මධ්‍යස්ථානය	அம்பாறை	காரைதீவு	மாவடிப்பள்ளி ஹெல்த் மையம்	කරතිව්-අම්පාර හ්වි, කාරතිව්, ශ්‍රී ලංකාව	காரடிவு-அம்பாறை ஹ்வை, காரைதீவு, இலங்கை
Ampara	Mahaoya	MOH Office - Mahaoya	False	False	MPRMHYMHFFCMHY		Ampara	LK-52	7.23699	81.550391	Mahaoya	PS-520120	7.531108	81.356391	7.530116	81.354519	G9J3+2RR, Maha Oya, Sri Lanka	0.234066		අම්පාර	මහඔය	MOH කාර්යාලය - මහඔය	அம்பாறை	மஹாஓயா	MOH அலுவலகம் - மகாஓயா	ජී 9 ජේ 3+2 ආර්ආර්, මහා ඔය, ශ්‍රී ලංකාව	G9J3+2RR, மகா ஓயா, இலங்கை
Ampara	Uhana	Uhana National College	False	False	MPRHNHNNTNLCLLG		Ampara	LK-52	7.23699	81.550391	Uhana	PS-520116	7.362435	81.636035	7.363322	81.635476	Uhana, Sri Lanka	0.116347		අම්පාර	උහන	උහන ජාතික විද්‍යාලය	அம்பாறை	உஹானா	உஹானா தேசிய கல்லூரி	උහන, ශ්‍රී ලංකාව	உஹானா, இலங்கை
Ampara	Uhana	Bokkabedda Vidyalaya	False	False	MPRHNBKKBDDVDYLY		Ampara	LK-52	7.23699	81.550391	Uhana	PS-520116	7.362435	81.636035	7.420995	81.7514	CQC2+9HR, Kalmunai, Sri Lanka	14.295553		අම්පාර	උහන	බොක්කබැද්ද විද්‍යාලය	அம்பாறை	உஹானா	போக்கபெத்த வித்யாலயா	CQC2+9HR, කල්මුණේ, ශ්‍රී ලංකාව	CQC2+9HR, கல்முனை, இலங்கை
Ampara	Uhana	Weranketagoda Maha Vidyalaya	False	False	MPRHNWRNKTGDMHVDYLY		Ampara	LK-52	7.23699	81.550391	Uhana	PS-520116	7.362435	81.636035	7.405066	81.620317	CJ4C+24G, Weranketagoda, Sri Lanka	5.048876		අම්පාර	උහන	වේරංකැටගොඩ මහා විද්‍යාලය	அம்பாறை	உஹானா	வீரன்கெடகொட மகா வித்தியாலயம்	සීජේ 4 සී+24 ජී, වේරංකෙතගොඩ, ශ්‍රී ලංකාව	CJ4C+24G, வெரங்கெட்டகொட, இலங்கை
Ampara	Uhana	Gonagala Vidyalaya	False	False	MPRHNGNGLVDYLY		Ampara	LK-52	7.23699	81.550391	Uhana	PS-520116	7.362435	81.636035	7.367509	81.640912	9J9R+293, Uhana, Sri Lanka	0.779718		අම්පාර	උහන	ගෝනාගල විද්‍යාලය	அம்பாறை	உஹானா	கோனகலா வித்தியாலயம்	9J9R+293, උහන, ශ්‍රී ලංකාව	9J9R+293, உஹானா, இலங்கை
Ampara	Uhana	Nawagiriyawa Sri Gothama Viharaya	False	False	MPRHNNWGRYWSRGTHMVHRY		Ampara	LK-52	7.23699	81.550391	Uhana	PS-520116	7.362435	81.636035	7.439723	81.608987	Nawagiriyawa, Sri Lanka	9.099722		අම්පාර	උහන	නවගිරියාව ශ්‍රී ගොතම විහාරය	அம்பாறை	உஹானா	நவகிரியாவா ஸ்ரீ கோதாம விஹாராயா	නවගිරියාව, ශ්‍රී ලංකාව	நவகிரியாவா, இலங்கை
Ampara	Dehiattakandiya	Dehiattakandiya National School	False	False	MPRDHTTKNDYDHTTKNDYNTNLSCHL		Ampara	LK-52	7.23699	81.550391	Dehiaththakandiya	PS-520121	7.672072	81.044241	7.665625	81.0489	M28X+6HR, Dehiattakandiya 32150, Sri Lanka	0.882043		අම්පාර	දෙහිඅත්තකණ්ඩිය	දෙහිඅත්තකණ්ඩිය ජාතික පාසල	அம்பாறை	தெஹியத்தகண்டியா	தெஹியத்தகண்டிய தேசிய பாடசாலை	M28X+6HR, දෙහිඅත්තකණ්ඩිය 32150, ශ්‍රී ලංකාව	M28X+6HR, தெஹியத்தகண்டியா 32150, இலங்கை
Ampara	Dehiattakandiya	Bihiri Sorowwa Vidyalaya	False	False	MPRDHTTKNDYBHRSRWWVDYLY		Ampara	LK-52	7.23699	81.550391	Dehiaththakandiya	PS-520121	7.672072	81.044241	7.67128	81.046484	Dehiattakandiya, Sri Lanka	0.26248		අම්පාර	දෙහිඅත්තකණ්ඩිය	බිහිරි සොරොව්ව විද්‍යාලය	அம்பாறை	தெஹியத்தகண்டியா	பிஹிரி சொரோவ்வா வித்யாலயா	දෙහිඅත්තකණ්ඩිය, ශ්‍රී ලංකාව	தெஹியத்தகண்டியா, இலங்கை
Ampara	Dehiattakandiya	Kudagala Vidyalaya	False	False	MPRDHTTKNDYKDGLVDYLY		Ampara	LK-52	7.23699	81.550391	Dehiaththakandiya	PS-520121	7.672072	81.044241	7.67128	81.046484	Dehiattakandiya, Sri Lanka	0.26248		අම්පාර	දෙහිඅත්තකණ්ඩිය	කුඩාගල විද්‍යාලය	அம்பாறை	தெஹியத்தகண்டியா	குடகலா வித்யாலயா	දෙහිඅත්තකණ්ඩිය, ශ්‍රී ලංකාව	தெஹியத்தகண்டியா, இலங்கை
Ampara	Dehiattakandiya	Suriyapokuna Vidyalaya	False	False	MPRDHTTKNDYSRYPKNVDYLY		Ampara	LK-52	7.23699	81.550391	Dehiaththakandiya	PS-520121	7.672072	81.044241	7.67128	81.046484	Dehiattakandiya, Sri Lanka	0.26248		අම්පාර	දෙහිඅත්තකණ්ඩිය	සූරියපොකුණ විද්‍යාලය	அம்பாறை	தெஹியத்தகண்டியா	சூரியபோகுன வித்யாலயா	දෙහිඅත්තකණ්ඩිය, ශ්‍රී ලංකාව	தெஹியத்தகண்டியா, இலங்கை
Ampara	Dehiattakandiya	Mawanagama Viharaya	False	False	MPRDHTTKNDYMWNGMVHRY		Ampara	LK-52	7.23699	81.550391	Dehiaththakandiya	PS-520121	7.672072	81.044241	7.66769	81.080464	M39J+35G, Balukekulakada, Sri Lanka	4.02267		අම්පාර	දෙහිඅත්තකණ්ඩිය	මාවනගම විහාරය	அம்பாறை	தெஹியத்தகண்டியா	மாவனகம விஹாராயா	එම් 39 ජේ+35 ජී, බලුකුලකඩ, ශ්‍රී ලංකාව	M39J+35G, பலுகேகுலகட, இலங்கை
Ampara	Dehiattakandiya	Dolakanda Viharaya	False	False	MPRDHTTKNDYDLKNDVHRY		Ampara	LK-52	7.23699	81.550391	Dehiaththakandiya	PS-520121	7.672072	81.044241	7.66769	81.080464	M39J+35G, Balukekulakada, Sri Lanka	4.02267		අම්පාර	දෙහිඅත්තකණ්ඩිය	දොලකන්ද විහාරය	அம்பாறை	தெஹியத்தகண்டியா	டோலகண்டா விஹாராயா	එම් 39 ජේ+35 ජී, බලුකුලකඩ, ශ්‍රී ලංකාව	M39J+35G, பலுகேகுலகட, இலங்கை
Ampara	Padiyatalawa	Padiyatalawa	False	False	MPRPDYTLWPDYTLW		Ampara	LK-52	7.23699	81.550391	Padiyathalawa	PS-520122	7.401155	81.243526	7.392513	81.243623	Padiyatalawa, Sri Lanka	0.961308		අම්පාර	පදියතලාව	පදියතලාව	அம்பாறை	படையாதலாவா	படையாதலாவா	පදියතලාව, ශ්‍රී ලංකාව	படையாதலாவா, இலங்கை
Ampara	Ampara	DS Senanayaka National College	False	False	MPRMPRDSSNNYKNTNLCLLG		Ampara	LK-52	7.23699	81.550391	Ampara	PS-520113	7.296771	81.677161	7.303531	81.671966	Dharmapala Mawatha, Ampara, Sri Lanka	0.945453		අම්පාර	අම්පාර	ඩීඑස් සේනානායක ජාතික විද්‍යාලය	அம்பாறை	அம்பாறை	டிஎஸ் சேனாநாயக்க தேசிய கல்லூரி	ධර්මපාල මාවත, අම්පාර, ශ්‍රී ලංකාව	தர்மபால மாவத்தை, அம்பாறை, இலங்கை
Ampara	Damana	MOH Office - Damana	False	False	MPRDMNMHFFCDMN		Ampara	LK-52	7.23699	81.550391	Damana	PS-520114	7.200465	81.654653	7.197982	81.65538	5MX4+55R, Damana, Sri Lanka	0.2876		අම්පාර	දමන	MOH කාර්යාලය - දමන	அம்பாறை	தமனா	MOH அலுவலகம் - தமனா	5MX4+55R, දමන, ශ්‍රී ලංකාව	5MX4+55R, டாமனா, இலங்கை
Ampara	Panama	Panama Viharaya	False	False	MPRPNMPNMVHRY		Ampara	LK-52	7.23699	81.550391	Panama	PS-520129	6.752004	81.79349	6.758059	81.808772	Panama, Sri Lanka	1.817413		අම්පාර	පැනමා	පැනමා විහාරය	அம்பாறை	பனாமா	பனாமா விஹாராயா	පැනමා, ශ්‍රී ලංකාව	பனாமா, இலங்கை
Ampara	Panama	Panama Sinhala Vidyalaya	False	False	MPRPNMPNMSNHLVDYLY		Ampara	LK-52	7.23699	81.550391	Panama	PS-520129	6.752004	81.79349	6.755175	81.803536	QR43+3C7, Panama, Sri Lanka	1.164368		අම්පාර	පැනමා	පැනමා සිංහල විද්‍යාලය	அம்பாறை	பனாமா	பனாமா சிங்கள வித்யாலயா	QR43+3C7, පැනම, ශ්‍රී ලංකාව	QR43+3C7, பனாமா, இலங்கை
Ampara	Eragama	MOH Office - Eragama	False	False	MPRRGMMHFFCRGM		Ampara	LK-52	7.23699	81.550391									#PoliceLocationUnknown	අම්පාර	එරගම	එම්ඕඑච් කාර්යාලය - එරගම	அம்பாறை	எரகம	MOH அலுவலகம் - எரகம		
Ampara	Pottuvil	Pottuvil Central College	False	False	MPRPTTVLPTTVLCNTRLCLLG		Ampara	LK-52	7.23699	81.550391	Pothuvil	PS-520128	6.878387	81.826859	6.879508	81.835585	Pottuvil, Sri Lanka	0.971748		අම්පාර	පොතුවිල්	පොතුවිල් මධ්‍ය විද්‍යාලය	அம்பாறை	பொட்டுவில்	பொத்துவில் மத்திய கல்லூரி	පොතුවිල්, ශ්‍රී ලංකාව	பொத்துவில், இலங்கை
Ampara	Pottuvil	Al Aksha Vidyalaya	False	False	MPRPTTVLLKSHVDYLY		Ampara	LK-52	7.23699	81.550391	Pothuvil	PS-520128	6.878387	81.826859	6.866896	81.832636	B374, Pottuvil, Sri Lanka	1.428509		අම්පාර	පොතුවිල්	අල් අක්ෂා විද්‍යාලය	அம்பாறை	பொட்டுவில்	அல் அக்ஷா வித்யாலயா	බී 374, පොතුවිල්, ශ්‍රී ලංකාව	B374, பொத்துவில், இலங்கை
Ampara	Pottuvil	MOH Office - Lahugala	False	False	MPRPTTVLMHFFCLHGL		Ampara	LK-52	7.23699	81.550391	Pothuvil	PS-520128	6.878387	81.826859	6.880658	81.765015	VQJ8+726, Sangamuwa, Sri Lanka	6.834041		අම්පාර	පොතුවිල්	MOH කාර්යාලය - ලාහුගල	அம்பாறை	பொட்டுவில்	MOH அலுவலகம் - லஹுகலா	VQJ8+726, සංගමුව, ශ්‍රී ලංකාව	VQJ8+726, சங்கமுவா, இலங்கை
Ampara	Pottuvil	MOH Office - Pottuvil	False	False	MPRPTTVLMHFFCPTTVL		Ampara	LK-52	7.23699	81.550391	Pothuvil	PS-520128	6.878387	81.826859	6.877076	81.828969	B374, Pottuvil, Sri Lanka	0.274874		අම්පාර	පොතුවිල්	එම්ඕඑච් කාර්යාලය - පොතුවිල්	அம்பாறை	பொட்டுவில்	MOH அலுவலகம் - பொத்துவில்	බී 374, පොතුවිල්, ශ්‍රී ලංකාව	B374, பொத்துவில், இலங்கை
Ampara	Pottuvil	GH Komari	False	False	MPRPTTVLGHKMR		Ampara	LK-52	7.23699	81.550391	Pothuvil	PS-520128	6.878387	81.826859	6.98626	81.864779	Komari, Sri Lanka	12.708252		අම්පාර	පොතුවිල්	ජීඑච් කෝමාරි	அம்பாறை	பொட்டுவில்	GH கோமாரி	කෝමාරි, ශ්‍රී ලංකාව	கோமாரி, இலங்கை
Ampara	Bakkiella	Rajagalathenna Maha Vidyalaya	False	False	MPRBKKLLRJGLTHNNMHVDYLY		Ampara	LK-52	7.23699	81.550391	Bakkiella	PS-520117	7.489231	81.643668	7.474507	81.632449	Ampara-Uhana-Maha Oya Hwy, Sri Lanka	2.052569		අම්පාර	බක්කිඇල්ල	රජගලතැන්න මහා විද්‍යාලය	அம்பாறை	பாக்கியெல்லா	ராஜகலதென்ன மகா வித்தியாலயம்	අම්පාර-උහන-මහා ඔය හ්වි, ශ්‍රී ලංකාව	அம்பாறை-உஹன-மஹா ஓயா ஹ்வி, இலங்கை
Ampara	Thirukkovil	Mobile Vaccination	False	False	MPRTHRKKVLMBLVCCNTN		Ampara	LK-52	7.23699	81.550391	Thirukkovil	PS-520127	7.113998	81.852219					#CenterLocationUnknown	අම්පාර	තිරුක්කෝවිල්	ජංගම එන්නත	அம்பாறை	திருக்கோவில்	மொபைல் தடுப்பூசி		
Ampara	Thirukkovil	Thambiluvil Maha Vidyalaya	False	False	MPRTHRKKVLTHMBLVLMHVDYLY		Ampara	LK-52	7.23699	81.550391	Thirukkovil	PS-520127	7.113998	81.852219	7.120484	81.852659	Main Road, Thambiluvil, Sri Lanka	0.723069		අම්පාර	තිරුක්කෝවිල්	තම්බිළුවිල් මහා විද්‍යාලය	அம்பாறை	திருக்கோவில்	தம்பிலுவில் மகா வித்தியாலயம்	ප්‍රධාන පාර, තම්බිළුවිල්, ශ්‍රී ලංකාව	பிரதான சாலை, தம்பிலுவில், இலங்கை
Ampara	Thirukkovil	Vinayagapuram Shakthi Vidyalaya	False	False	MPRTHRKKVLVNYGPRMSHKTHVDYLY		Ampara	LK-52	7.23699	81.550391	Thirukkovil	PS-520127	7.113998	81.852219	7.115312	81.852488	Thirukkovil, Sri Lanka	0.149141		අම්පාර	තිරුක්කෝවිල්	විනයාගපුරම් ශක්ති විද්‍යාලය	அம்பாறை	திருக்கோவில்	விநாயகபுரம் சக்தி வித்யாலயா	තිරුක්කෝවිල්, ශ්‍රී ලංකාව	திருக்கோவில், இலங்கை
Ampara	Thirukkovil	District Hospital - Thirukkovil	False	False	MPRTHRKKVLDSTRCTHSPTLTHRKKVL		Ampara	LK-52	7.23699	81.550391	Thirukkovil	PS-520127	7.113998	81.852219	7.115713	81.851887	4V82+7QJ, Thirukkovil, Sri Lanka	0.194247		අම්පාර	තිරුක්කෝවිල්	දිසා රෝහල - තිරුක්කෝවිල්	அம்பாறை	திருக்கோவில்	மாவட்ட மருத்துவமனை - திருக்கோவில்	4V82+7QJ, තිරුක්කෝවිල්, ශ්‍රී ලංකාව	4V82+7QJ, திருக்கோவில், இலங்கை
Ampara	Akkaraipattu	Akkaraipattu Nuraniya Church	False	False	MPRKKRPTTKKRPTTNRNYCHRCH		Ampara	LK-52	7.23699	81.550391	Akkaraipattu	PS-520126	7.216084	81.853254	7.217154	81.849717	Sagama Rd, Akkaraipattu, Sri Lanka	0.408046		අම්පාර	අක්කරපත්තුව	අක්කරෙයිපත්තු නුරානිය පල්ලිය	அம்பாறை	அக்கரைப்பற்று	அக்கரைப்பற்று நூரானிய தேவாலயம்	සගම පාර, අක්කරපත්තුව, ශ්‍රී ලංකාව	சாகம வீதி, அக்கரைப்பற்று, இலங்கை
Ampara	Akkaraipattu	Al Siraj Vidyalaya	False	False	MPRKKRPTTLSRJVDYLY		Ampara	LK-52	7.23699	81.550391	Akkaraipattu	PS-520126	7.216084	81.853254	7.219333	81.85313	Akkaraipattu, Sri Lanka	0.361645		අම්පාර	අක්කරපත්තුව	අල් සිරාජ් විද්‍යාලය	அம்பாறை	அக்கரைப்பற்று	அல் சிராஜ் வித்யாலயா	අක්කරපත්තුව, ශ්‍රී ලංකාව	அக்கரைப்பற்று, இலங்கை
Ampara	Akkaraipattu	Badur Mosque	False	False	MPRKKRPTTBDRMSQ		Ampara	LK-52	7.23699	81.550391	Akkaraipattu	PS-520126	7.216084	81.853254	7.21798	81.859573	Deens Road, Akkaraipattu, Sri Lanka	0.728487		අම්පාර	අක්කරපත්තුව	බදුර් පල්ලිය	அம்பாறை	அக்கரைப்பற்று	படூர் மசூதி	ඩීන්ස් පාර, අක්කරපත්තුව, ශ්‍රී ලංකාව	டீன்ஸ் சாலை, அக்கரைப்பற்று, இலங்கை
Ampara	Akkaraipattu	Kadiriya Jumma Mosque	False	False	MPRKKRPTTKDRYJMMMSQ		Ampara	LK-52	7.23699	81.550391	Akkaraipattu	PS-520126	7.216084	81.853254	7.219042	81.844208	Grand Mosque, Akkaraipattu - Warapathanchenai, Akkaraipattu 32400, Sri Lanka	1.051038		අම්පාර	අක්කරපත්තුව	කදිරියා ජුම්මා පල්ලිය	அம்பாறை	அக்கரைப்பற்று	கதிரியா ஜும்மா மசூதி	ග්‍රෑන්ඩ් මුස්ලිම් පල්ලිය, අක්කරපත්තුව - වරපටන්චේනයි, අක්කරෙයිපත්තු 32400, ශ්‍රී ලංකාව	பெரிய பள்ளிவாசல், அக்கரைப்பற்று - வாரபதஞ்சேனை, அக்கரைப்பற்று 32400, இலங்கை
Ampara	Akkaraipattu	Nuraniya Jumma Musque	False	False	MPRKKRPTTNRNYJMMMSQ		Ampara	LK-52	7.23699	81.550391	Akkaraipattu	PS-520126	7.216084	81.853254	7.221477	81.849682	Thomputhor Road, Akkaraipattu, Sri Lanka	0.717774		අම්පාර	අක්කරපත්තුව	නුරානිය ජුම්මා මස්ක්	அம்பாறை	அக்கரைப்பற்று	நுரானியா ஜும்மா மசூதி	තෝම්පූතර් පාර, අක්කරපත්තුව, ශ්‍රී ලංකාව	தொம்புதோர் சாலை, அக்கரைப்பற்று, இலங்கை
Ampara	Akkaraipattu	Aisha Maha Vidyalaya	False	False	MPRKKRPTTSHMHVDYLY		Ampara	LK-52	7.23699	81.550391	Akkaraipattu	PS-520126	7.216084	81.853254	7.223603	81.84711	Mudaliyar Rd, Akkaraipattu 32400, Sri Lanka	1.076621		අම්පාර	අක්කරපත්තුව	අයිෂා මහා විද්යාලය	அம்பாறை	அக்கரைப்பற்று	ஆயிஷா மகா வித்யாலயா	මුදලියර් පාර, අක්කරපත්තුව 32400, ශ්‍රී ලංකාව	முதலியார் சாலை, அக்கரைப்பற்று 32400, இலங்கை
Ampara	Akkaraipattu	Pallikudiyiruppu Vidyalaya	False	False	MPRKKRPTTPLLKDYRPPVDYLY		Ampara	LK-52	7.23699	81.550391	Akkaraipattu	PS-520126	7.216084	81.853254	7.210268	81.845672	6R6W+473, Akkaraipattu, Sri Lanka	1.057598		අම්පාර	අක්කරපත්තුව	පල්ලිකුඩිඉරුප්පු විද්‍යාලය	அம்பாறை	அக்கரைப்பற்று	பள்ளிகுடியிருப்பு வித்யாலயா	6R6W+473, අක්කරපත්තුව, ශ්‍රී ලංකාව	6R6W+473, அக்கரைப்பற்று, இலங்கை
Ampara	Akkaraipattu	Sri Ramakrishna Mission Maha Vidyalaya	False	False	MPRKKRPTTSRRMKRSHNMSSNMHVDYLY		Ampara	LK-52	7.23699	81.550391	Akkaraipattu	PS-520126	7.216084	81.853254	7.216207	81.846355	Rkm road, Akkaraipattu-07, Akkaraipattu 32400, Sri Lanka	0.761419		අම්පාර	අක්කරපත්තුව	ශ්‍රී රාමක්‍රිෂ්ණා මිෂන් මහා විද්‍යාලය	அம்பாறை	அக்கரைப்பற்று	ஸ்ரீ ராமகிருஷ்ணா மிஷன் மகா வித்தியாலயம்	ආර්කේඑම් පාර, අක්කරෙයිපත්තු -07, අක්කරෙයිපත්තු 32400, ශ්‍රී ලංකාව	Rkm சாலை, அக்கரைப்பற்று -07, அக்கரைப்பற்று 32400, இலங்கை
Ampara	Akkaraipattu	Sri Ramakrishna Vidyalaya	False	False	MPRKKRPTTSRRMKRSHNVDYLY		Ampara	LK-52	7.23699	81.550391	Akkaraipattu	PS-520126	7.216084	81.853254	7.210268	81.845672	6R6W+473, Akkaraipattu, Sri Lanka	1.057598		අම්පාර	අක්කරපත්තුව	ශ්‍රී රාමක්‍රිණ විද්‍යාලය	அம்பாறை	அக்கரைப்பற்று	ஸ்ரீ ராமகிருஷ்ணா வித்யாலயா	6R6W+473, අක්කරපත්තුව, ශ්‍රී ලංකාව	6R6W+473, அக்கரைப்பற்று, இலங்கை
Ampara	Akkaraipattu	Kolavilvinayagar Maha Vidyalaya	False	False	MPRKKRPTTKLVLVNYGRMHVDYLY		Ampara	LK-52	7.23699	81.550391	Akkaraipattu	PS-520126	7.216084	81.853254	7.198526	81.849358	Akkaraipattu-Sagamam Rd, Sri Lanka	1.999736		අම්පාර	අක්කරපත්තුව	කොලවිල්නායගර් මහා විද්‍යාලය	அம்பாறை	அக்கரைப்பற்று	கொளவில்விநாயகர் மகா வித்தியாலயம்	අක්කරපත්තුව-සගමම් පාර, ශ්‍රී ලංකාව	அக்கரைப்பற்று-சாகமம் வீதி, இலங்கை
Ampara	Akkaraipattu	MOH Office - Addalachena	False	False	MPRKKRPTTMHFFCDDLCHN		Ampara	LK-52	7.23699	81.550391	Akkaraipattu	PS-520126	7.216084	81.853254	7.260916	81.853493	7V63+999, Addalaichenai, Sri Lanka	4.986726		අම්පාර	අක්කරපත්තුව	MOH කාර්යාලය - අද්දලචේන	அம்பாறை	அக்கரைப்பற்று	MOH அலுவலகம் - ஆடலச்சேனா	7V63+999, අද්දලෙයිචේනෙයි, ශ්‍රී ලංකාව	7V63+999, அடிலைச்சேனை, இலங்கை
Ampara	Akkaraipattu	MOH Office - Alayadivembu	False	False	MPRKKRPTTMHFFCLYDVMB		Ampara	LK-52	7.23699	81.550391	Akkaraipattu	PS-520126	7.216084	81.853254	7.228134	81.851123	6VH2+7C5, Akkaraipattu, Sri Lanka	1.360772		අම්පාර	අක්කරපත්තුව	එම්ඕඑච් කාර්යාලය - අලයාදිවෙම්බු	அம்பாறை	அக்கரைப்பற்று	MOH அலுவலகம் - ஆலையடிவேம்பு	6VH2+7C5, අක්කරපත්තුව, ශ්‍රී ලංකාව	6VH2+7C5, அக்கரைப்பற்று, இலங்கை
Ampara	Kalmunai	MOH Office - Kalmunai North	False	False	MPRKLMNMHFFCKLMNNRTH		Ampara	LK-52	7.23699	81.550391	Kalmunai	PS-520123	7.414289	81.825006	7.411712	81.838462	CR6Q+M9P, Kalmunai 32300, Sri Lanka	1.511625		අම්පාර	කල්මුණේ	MOH කාර්යාලය - කල්මුණේ උතුර	அம்பாறை	கல்முனை	MOH அலுவலகம் - கல்முனை வடக்கு	CR6Q+M9P, කල්මුණේ 32300, ශ්‍රී ලංකාව	CR6Q+M9P, கல்முனை 32300, இலங்கை
Ampara	Kalmunai	Mobile Vaccination	False	False	MPRKLMNMBLVCCNTN		Ampara	LK-52	7.23699	81.550391	Kalmunai	PS-520123	7.414289	81.825006					#CenterLocationUnknown	අම්පාර	කල්මුණේ	ජංගම එන්නත	அம்பாறை	கல்முனை	மொபைல் தடுப்பூசி		
Ampara	Kalmunai	Periyanilawani Clinic	False	False	MPRKLMNPRYNLWNCLNC		Ampara	LK-52	7.23699	81.550391	Kalmunai	PS-520123	7.414289	81.825006	7.420034	81.82232	hospital near, Kalmunai 32300, Sri Lanka	0.704353		අම්පාර	කල්මුණේ	පෙරියනිලාවනි සායනය	அம்பாறை	கல்முனை	பெரியநிலவாணி மருத்துவமனை	රෝහල අසල, කල්මුණේ 32300, ශ්‍රී ලංකාව	மருத்துவமனை அருகில், கல்முனை 32300, இலங்கை
Ampara	Kalmunai	Maradamunai Almanar Central College	False	False	MPRKLMNMRDMNLMNRCNTRLCLLG		Ampara	LK-52	7.23699	81.550391	Kalmunai	PS-520123	7.414289	81.825006	7.436331	81.812701	Maruthamunai, Sri Lanka	2.802316		අම්පාර	කල්මුණේ	මරදමුනායි අල්මනාර් මධ්‍ය විද්‍යාලය	அம்பாறை	கல்முனை	மருதமுனை அல்மனார் மத்திய கல்லூரி	මරුතාමුණේ, ශ්‍රී ලංකාව	மருதமுனை, இலங்கை
Ampara	Kalmunai	Kalmunai Al Mishba Maha Vidyalaya	False	False	MPRKLMNKLMNLMSHBMHVDYLY		Ampara	LK-52	7.23699	81.550391	Kalmunai	PS-520123	7.414289	81.825006	7.401673	81.840708	Kalmunai 32300, Sri Lanka	2.22909		අම්පාර	කල්මුණේ	කල්මුණේ අල් මිෂ්බා මහා විද්‍යාලය	அம்பாறை	கல்முனை	கல்முனை அல் மிஷ்பா மகா வித்தியாலயம்	කල්මුණේ 32300, ශ්‍රී ලංකාව	கல்முனை 32300, இலங்கை
Ampara	Kalmunai	Narappattimunai Al Ashka Maha Vidyalaya	False	False	MPRKLMNNRPPTTMNLSHKMHVDYLY		Ampara	LK-52	7.23699	81.550391	Kalmunai	PS-520123	7.414289	81.825006	7.414638	81.81151	CR76+VJ2, Kalmunai, Sri Lanka	1.489112		අම්පාර	කල්මුණේ	නාරපට්ටිමුනෙයි අල් අෂ්කා මහා විද්‍යාලය	அம்பாறை	கல்முனை	நரப்பட்டிமுனை அல் அஷ்கா மகா வித்தியாலயம்	CR76+VJ2, කල්මුණේ, ශ්‍රී ලංකාව	CR76+VJ2, கல்முனை, இலங்கை
Ampara	Kalmunai	Kalmunai Ramakrishna Mission College	False	False	MPRKLMNKLMNRMKRSHNMSSNCLLG		Ampara	LK-52	7.23699	81.550391	Kalmunai	PS-520123	7.414289	81.825006	7.412373	81.828629	Udyar Rd, Kalmunai 32300, Sri Lanka	0.452893		අම්පාර	කල්මුණේ	කල්මුනේ රාමක්‍රිෂ්ණා මිෂන් විද්‍යාලය	அம்பாறை	கல்முனை	கல்முனை ராமகிருஷ்ணா மிஷன் கல்லூரி	උද්‍යාර් පාර, කල්මුණේ 32300, ශ්‍රී ලංකාව	உடியார் சாலை, கல்முனை 32300, இலங்கை
Ampara	Kalmunai	Kalmunai North Base Hospital	False	False	MPRKLMNKLMNNRTHBSHSPTL		Ampara	LK-52	7.23699	81.550391	Kalmunai	PS-520123	7.414289	81.825006	7.420034	81.82232	hospital near, Kalmunai 32300, Sri Lanka	0.704353		අම්පාර	කල්මුණේ	කල්මුණේ උතුර මූලික රෝහල	அம்பாறை	கல்முனை	கல்முனை வடக்கு அடிப்படை மருத்துவமனை	රෝහල අසල, කල්මුණේ 32300, ශ්‍රී ලංකාව	மருத்துவமனை அருகில், கல்முனை 32300, இலங்கை
Ampara	Kalmunai	Carmel Fatima National College	False	False	MPRKLMNCRMLFTMNTNLCLLG		Ampara	LK-52	7.23699	81.550391	Kalmunai	PS-520123	7.414289	81.825006	7.419889	81.823933	Carmel Fatima College Rd, Kalmunai 32300, Sri Lanka	0.634031		අම්පාර	කල්මුණේ	කර්මෙල් ෆාතිමා ජාතික විද්‍යාලය	அம்பாறை	கல்முனை	கார்மல் பாத்திமா தேசிய கல்லூரி	කර්මෙල් ෆාතිමා විද්‍යාලය පාර, කල්මුණේ 32300, ශ්‍රී ලංකාව	கார்மல் பாத்திமா கல்லூரி சாலை, கல்முனை 32300, இலங்கை
Ampara	Kalmunai	Pandirippu Cultural Centre	False	False	MPRKLMNPNDRPPCLTRLCNTR		Ampara	LK-52	7.23699	81.550391	Kalmunai	PS-520123	7.414289	81.825006	7.430188	81.815947	CRJ8+39G, Pandiruppu, Sri Lanka	2.031199		අම්පාර	කල්මුණේ	පණ්ඩිරිප්පු සංස්කෘතික මධ්‍යස්ථානය	அம்பாறை	கல்முனை	பாண்டிரிப்பு கலாச்சார மையம்	CRJ8+39G, පණ්ඩිරුප්පු, ශ්‍රී ලංකාව	CRJ8+39G, பாண்டிருப்பு, இலங்கை
Ampara	Kalmunai	Senakudiirippu Health Centre	False	False	MPRKLMNSNKDRPPHLTHCNTR		Ampara	LK-52	7.23699	81.550391	Kalmunai	PS-520123	7.414289	81.825006	7.420034	81.82232	hospital near, Kalmunai 32300, Sri Lanka	0.704353		අම්පාර	කල්මුණේ	සේනාකුඩිරිප්පු සෞඛ්‍ය මධ්‍යස්ථානය	அம்பாறை	கல்முனை	சேனகுடியிருப்பு சுகாதார மையம்	රෝහල අසල, කල්මුණේ 32300, ශ්‍රී ලංකාව	மருத்துவமனை அருகில், கல்முனை 32300, இலங்கை
Ampara	Kalmunai	Nappatitimuna Shivashakthi Vidyalaya	False	False	MPRKLMNNPPTTMNSHVSHKTHVDYLY		Ampara	LK-52	7.23699	81.550391	Kalmunai	PS-520123	7.414289	81.825006	7.426418	81.816781	Colombo - Batticaloa Hwy, Kalmunai, Sri Lanka	1.625764		අම්පාර	කල්මුණේ	නප්පටතිමුන ශිවශක්ති විද්‍යාලය	அம்பாறை	கல்முனை	நாபதிதிமுனா சிவசக்தி வித்யாலயா	කොළඹ - මඩකලපුව හ්වි, කල්මුණේ, ශ්‍රී ලංකාව	கொழும்பு - மட்டக்களப்பு Hwy, கல்முனை, இலங்கை
Ampara	Kalmunai	Periyanilawana Saraswathi Vidyalaya	False	False	MPRKLMNPRYNLWNSRSWTHVDYLY		Ampara	LK-52	7.23699	81.550391	Kalmunai	PS-520123	7.414289	81.825006	7.426418	81.816781	Colombo - Batticaloa Hwy, Kalmunai, Sri Lanka	1.625764		අම්පාර	කල්මුණේ	පෙරියනිලවාන සරස්වතී විද්‍යාලය	அம்பாறை	கல்முனை	பெரியநிலவான சரஸ்வதி வித்யாலயா	කොළඹ - මඩකලපුව හ්වි, කල්මුණේ, ශ්‍රී ලංකාව	கொழும்பு - மட்டக்களப்பு Hwy, கல்முனை, இலங்கை
Ampara	Kalmunai	Pandirippu Hindu Maha Vidyalaya	False	False	MPRKLMNPNDRPPHNDMHVDYLY		Ampara	LK-52	7.23699	81.550391	Kalmunai	PS-520123	7.414289	81.825006	7.426349	81.816459	Kalmunai, Sri Lanka	1.639561		අම්පාර	කල්මුණේ	පණ්ඩිරිප්පු හින්දු මහා විද්‍යාලය	அம்பாறை	கல்முனை	பாண்டிரிப்பு இந்து மகா வித்தியாலயம்	කල්මුනේ, ශ්‍රී ලංකාව	கல்முனை, இலங்கை
Ampara	Kalmunai	Ashraff Memorial Hospital	False	False	MPRKLMNSHRFFMMRLHSPTL		Ampara	LK-52	7.23699	81.550391	Kalmunai	PS-520123	7.414289	81.825006	7.403172	81.831146	A4, Ashraff Memorial Base Hospital, A4 A4, Kalmunai 32300, Sri Lanka	1.409859		අම්පාර	කල්මුණේ	අෂ්රොෆ් අනුස්මරණ රෝහල	அம்பாறை	கல்முனை	அஷ்ரஃப் நினைவு மருத்துவமனை	ඒ 4, අෂ්රොෆ් අනුස්මරණ මූලික රෝහල, ඒ 4 ඒ 4, කල්මුණේ 32300, ශ්‍රී ලංකාව	A4, அஷ்ரஃப் மெமோரியல் பேஸ் ஹாஸ்பிடல், A4 A4, கல்முனை 32300, இலங்கை
Ampara	Saindamarudu	APC Clinic	False	False	MPRSNDMRDPCCLNC		Ampara	LK-52	7.23699	81.550391	Saindamarudu		7.397352	81.842377	7.298334	81.690841	Dharmapala Mawatha, Ampara, Sri Lanka	20.018935	#CenterFarFromPolice	අම්පාර	සයින්දමරුදු	ඒපීසී සායනය	அம்பாறை	சைந்தமருது	ஏபிசி கிளினிக்	ධර්මපාල මාවත, අම්පාර, ශ්‍රී ලංකාව	தர்மபால மாவத்தை, அம்பாறை, இலங்கை
Ampara	Saindamarudu	Saindamarudu Hospital	False	False	MPRSNDMRDSNDMRDHSPTL		Ampara	LK-52	7.23699	81.550391	Saindamarudu		7.397352	81.842377	6.900252	79.87618	08 Elvitigala Mawatha, Colombo 00800, Sri Lanka	223.932389	#CenterFarFromPolice	අම්පාර	සයින්දමරුදු	සයින්දමරුදු රෝහල	அம்பாறை	சைந்தமருது	சைந்தமருது மருத்துவமனை	08 ඇල්විටිගල මාවත, කොළඹ 00800, ශ්‍රී ලංකාව	08 எல்விட்டிகல மாவத்தை, கொழும்பு 00800, இலங்கை
Ampara	Saindamarudu	MOH Office - Saindamarudu	False	False	MPRSNDMRDMHFFCSNDMRD		Ampara	LK-52	7.23699	81.550391	Saindamarudu		7.397352	81.842377	7.939573	81.000275	Thamankaduwa, Sri Lanka	110.700687	#CenterFarFromPolice	අම්පාර	සයින්දමරුදු	MOH කාර්යාලය - සයින්දමරුදු	அம்பாறை	சைந்தமருது	MOH அலுவலகம் - சைந்தமருது	තමන්කඩුව, ශ්‍රී ලංකාව	தமன்கடுவா, இலங்கை
Ampara	Sammanthurai	Miranagar Health Centre	False	False	MPRSMMNTHRMRNGRHLTHCNTR		Ampara	LK-52	7.23699	81.550391	Samanthurai	PS-520124	7.365785	81.810859	7.359802	81.793874	Vilinaiyadi Rd, Sammanthurai, Sri Lanka	1.988336		අම්පාර	සමන්තුරේ	මිරානගර් සෞඛ්‍ය මධ්‍යස්ථානය	அம்பாறை	சம்மாந்துறை	மீராநகர் சுகாதார மையம்	විලිනියාඩි පාර, සම්මන්තුරේ, ශ්‍රී ලංකාව	விலினையாடி சாலை, சம்மாந்துறை, இலங்கை
Ampara	Sammanthurai	Vavalodai Health Centre	False	False	MPRSMMNTHRVVLDHLTHCNTR		Ampara	LK-52	7.23699	81.550391	Samanthurai	PS-520124	7.365785	81.810859	7.359802	81.793874	Vilinaiyadi Rd, Sammanthurai, Sri Lanka	1.988336		අම්පාර	සමන්තුරේ	වවලෝදායි සෞඛ්‍ය මධ්‍යස්ථානය	அம்பாறை	சம்மாந்துறை	வவளோடை சுகாதார மையம்	විලිනියාඩි පාර, සම්මන්තුරේ, ශ්‍රී ලංකාව	விலினையாடி சாலை, சம்மாந்துறை, இலங்கை
Ampara	Sammanthurai	Arasady Health Centre	False	False	MPRSMMNTHRRSDYHLTHCNTR		Ampara	LK-52	7.23699	81.550391	Samanthurai	PS-520124	7.365785	81.810859	7.368169	81.812056	Hospital Rd, Sammanthurai, Sri Lanka	0.296229		අම්පාර	සමන්තුරේ	අරසාඩි සෞඛ්‍ය මධ්‍යස්ථානය	அம்பாறை	சம்மாந்துறை	அரசடி சுகாதார மையம்	රෝහල් පාර, සම්මන්තුරේ, ශ්‍රී ලංකාව	மருத்துவமனை சாலை, சம்மாந்துறை, இலங்கை
Ampara	Sammanthurai	Attapalam Health Centre	False	False	MPRSMMNTHRTTPLMHLTHCNTR		Ampara	LK-52	7.23699	81.550391	Samanthurai	PS-520124	7.365785	81.810859	7.359802	81.793874	Vilinaiyadi Rd, Sammanthurai, Sri Lanka	1.988336		අම්පාර	සමන්තුරේ	අත්තපාලම් සෞඛ්‍ය මධ්‍යස්ථානය	அம்பாறை	சம்மாந்துறை	அட்டபாலம் சுகாதார மையம்	විලිනියාඩි පාර, සම්මන්තුරේ, ශ්‍රී ලංකාව	விலினையாடி சாலை, சம்மாந்துறை, இலங்கை
Ampara	Sammanthurai	Sammanthurai Base Hospital	False	False	MPRSMMNTHRSMMNTHRBSHSPTL		Ampara	LK-52	7.23699	81.550391	Samanthurai	PS-520124	7.365785	81.810859	7.368355	81.813042	9R96+MWM, Hospital Rd, Sammanthurai, Sri Lanka	0.373773		අම්පාර	සමන්තුරේ	සමන්තුරේ මූලික රෝහල	அம்பாறை	சம்மாந்துறை	சம்மாந்துறை அடிப்படை மருத்துவமனை	9R96+MWM, රෝහල් පාර, සමන්තුරේ, ශ්‍රී ලංකාව	9R96+MWM, மருத்துவமனை சாலை, சம்மாந்துறை, இலங்கை
Ampara	Sammanthurai	Town Hall - Sammanthurai	False	False	MPRSMMNTHRTWNHLLSMMNTHR		Ampara	LK-52	7.23699	81.550391	Samanthurai	PS-520124	7.365785	81.810859	7.363356	81.804123	9R73+8JX, Sammanthurai, Sri Lanka	0.790657		අම්පාර	සමන්තුරේ	පුරහල - සමන්තුරේ	அம்பாறை	சம்மாந்துறை	டவுன் ஹால் - சம்மாந்துறை	9R73+8JX, සම්මන්තුරේ, ශ්‍රී ලංකාව	9R73+8JX, சம்மாந்துறை, இலங்கை
Ampara	Sammanthurai	Malwatta Hospital	False	False	MPRSMMNTHRMLWTTHSPTL		Ampara	LK-52	7.23699	81.550391	Samanthurai	PS-520124	7.365785	81.810859	7.368355	81.813042	9R96+MWM, Hospital Rd, Sammanthurai, Sri Lanka	0.373773		අම්පාර	සමන්තුරේ	මල්වත්ත රෝහල	அம்பாறை	சம்மாந்துறை	மல்வத்த மருத்துவமனை	9R96+MWM, රෝහල් පාර, සමන්තුරේ, ශ්‍රී ලංකාව	9R96+MWM, மருத்துவமனை சாலை, சம்மாந்துறை, இலங்கை
Ampara	Sammanthurai	Al Arshath College - Sammanthurai	False	False	MPRSMMNTHRLRSHTHCLLGSMMNTHR		Ampara	LK-52	7.23699	81.550391	Samanthurai	PS-520124	7.365785	81.810859	7.372726	81.802532	9RF3+32V, Sammanthurai, Sri Lanka	1.19992		අම්පාර	සමන්තුරේ	අල් අර්ෂාත් විද්‍යාලය - සම්මන්තුරේ	அம்பாறை	சம்மாந்துறை	அல் அர்ஷாத் கல்லூரி - சம்மாந்துறை	9RF3+32V, සම්මන්තුරේ, ශ්‍රී ලංකාව	9RF3+32V, சம்மாந்துறை, இலங்கை
Ampara	Sammanthurai	MOH Office - Nintavur	False	False	MPRSMMNTHRMHFFCNNTVR		Ampara	LK-52	7.23699	81.550391	Samanthurai	PS-520124	7.365785	81.810859	7.352821	81.856939	Hospital Rd, Nintavur 32340, Sri Lanka	5.283925		අම්පාර	සමන්තුරේ	එම්ඕඑච් කාර්යාලය - නින්දවූර්	அம்பாறை	சம்மாந்துறை	MOH அலுவலகம் - நிந்தவூர்	රෝහල පාර, නින්දවූර් 32340, ශ්‍රී ලංකාව	மருத்துவமனை Rd, நிந்தவூர் 32340, இலங்கை
Ampara	Sammanthurai	MOH Office - Sammanthurai	False	False	MPRSMMNTHRMHFFCSMMNTHR		Ampara	LK-52	7.23699	81.550391	Samanthurai	PS-520124	7.365785	81.810859	7.369857	81.812264	9R96+WWR, Sammanthurai, Sri Lanka	0.478712		අම්පාර	සමන්තුරේ	MOH කාර්යාලය - සම්මන්තුරේ	அம்பாறை	சம்மாந்துறை	MOH அலுவலகம் - சம்மாந்துறை	9R96+ඩබ්ලිව්ඩබ්ලිව්ආර්, සම්මන්තුරේ, ශ්‍රී ලංකාව	9R96+WWR, சம்மாந்துறை, இலங்கை
Ampara	Sammanthurai	Nintavur Hospital	False	False	MPRSMMNTHRNNTVRHSPTL		Ampara	LK-52	7.23699	81.550391	Samanthurai	PS-520124	7.365785	81.810859	7.353372	81.856852	Hospital Rd, Nintavur, Sri Lanka	5.258159		අම්පාර	සමන්තුරේ	නින්දවූර් රෝහල	அம்பாறை	சம்மாந்துறை	நிந்தவூர் மருத்துவமனை	රෝහල පාර, නින්දවූර්, ශ්‍රී ලංකාව	மருத்துவமனை Rd, நிந்தவூர், இலங்கை
Ampara	Sammanthurai	Al Azhar Maha Vidyalaya - Sammanthurai	False	False	MPRSMMNTHRLZHRMHVDYLYSMMNTHR		Ampara	LK-52	7.23699	81.550391	Samanthurai	PS-520124	7.365785	81.810859	7.35018	81.80359	Kallarichchel 02, Sammanthurai, Sri Lanka	1.912014		අම්පාර	සමන්තුරේ	අල් අසාර් මහා විද්‍යාලය - සමන්තුරේ	அம்பாறை	சம்மாந்துறை	அல் அசார் மகா வித்தியாலயம் - சம்மாந்துறை	කල්ලරිචෙල් 02, සම්මන්තුරේ, ශ්‍රී ලංකාව	கல்லறிச்செல் 02, சம்மாந்துறை, இலங்கை
