district	police	center	dose1	dose2	fuzzy_key	alt_name	district_name_norm	district_id	district_lat	district_lng	ps_name_norm	ps_id	ps_lat	ps_lng	lat	lng	formatted_address	dis_center_to_police	tags	district_si	police_si	center_si	district_ta	police_ta	center_ta	formatted_address_si	formatted_address_ta
Colombo	Cinnamon Gardens	Viharamahadevi Park	True	True	CLMBCNNMNGRDNSVHRMHDVPRK		Colombo	LK-11	6.869636	80.019598	Cinnamon Garden	PS-110324	6.907289	79.863819	6.913391	79.86174	Viharamahadevi Park, Colombo, Sri Lanka	0.716497		කොළඹ	කුරුඳු උද්‍යාන	විහාරමහාදේවි උද්‍යානය	கொழும்பு	இலவங்கப்பட்டை தோட்டங்கள்	விஹாரமஹாதேவி பூங்கா	විහාරමහාදේවි උද්‍යානය, කොළඹ, ශ්‍රී ලංකාව	விஹாரமஹாதேவி பூங்கா, கொழும்பு, இலங்கை
Colombo	Grandpass	Sugathadasa Outdoor Stadium	True	True	CLMBGRNDPSSSGTHDSTDRSTDM		Colombo	LK-11	6.869636	80.019598	Grandpass	PS-110215	6.949052	79.872983	6.94806	79.868842	Prince of Wales Ave, Colombo 01400, Sri Lanka	0.470345		කොළඹ	ග්‍රෑන්ඩ්පාස්	සුගතදාස එළිමහන් ක්‍රීඩාංගනය	கொழும்பு	கிராண்ட்பாஸ்	சுகததாச வெளிப்புற அரங்கம்	වේල්ස් කුමර මාවත, කොළඹ 01400, ශ්‍රී ලංකාව	பிரின்ஸ் ஆஃப் வேல்ஸ் அவே, கொழும்பு 01400, இலங்கை
Colombo	Thalangama	Diyatha Uyana	True	True	CLMBTHLNGMDYTHYN		Colombo	LK-11	6.869636	80.019598	Thalangama	PS-110466	6.91089	79.929325	6.904575	79.909831	Diyatha Uyana, B240, Sri Jayawardenepura Kotte, Sri Lanka	2.264281		කොළඹ	තලංගම	දියත උයන	கொழும்பு	தலங்கம	தியாத உயனா	දියත උයන, බී 240, ශ්‍රී ජයවර්ධනපුර කෝට්ටේ, ශ්‍රී ලංකාව	தியாத உயனா, B240, ஸ்ரீ ஜெயவர்தனபுர கோட்டே, இலங்கை
Colombo	Narahenpita	Army Hospital Narahenpita	False	False	CLMBNRHNPTRMYHSPTLNRHNPT		Colombo	LK-11	6.869636	80.019598	Narahenpita	PS-110321	6.891832	79.876715	6.900252	79.87618	08 Elvitigala Mawatha, Colombo 00800, Sri Lanka	0.938417		කොළඹ	නාරාහේන්පිට	නාරාහේන්පිට හමුදා රෝහල	கொழும்பு	நரஹேன்பிட்ட	இராணுவ மருத்துவமனை நாரஹேன்பிட்ட	08 ඇල්විටිගල මාවත, කොළඹ 00800, ශ්‍රී ලංකාව	08 எல்விட்டிகல மாவத்தை, கொழும்பு 00800, இலங்கை
Colombo	Narahenpita	Army Headquarters Mobile Team	False	False	CLMBNRHNPTRMYHDQRTRSMBLTM		Colombo	LK-11	6.869636	80.019598	Narahenpita	PS-110321	6.891832	79.876715					#CenterLocationUnknown	කොළඹ	නාරාහේන්පිට	යුද හමුදා මූලස්ථානයේ ජංගම කණ්ඩායම	கொழும்பு	நரஹேன்பிட்ட	இராணுவ தலைமையகம் மொபைல் குழு		
Colombo	Boralesgamuwa	Kotelawala Defence Hospital	False	True	CLMBBRLSGMWKTLWLDFNCHSPTL		Colombo	LK-11	6.869636	80.019598	Boralesgamuwa	PS-110464	6.841331	79.901255	6.82518	79.907167	RWG4+3VF, Boralesgamuwa, Sri Lanka	1.911444		කොළඹ	බොරලැස්ගමුව	කොතලාවල ආරක්‍ෂක රෝහල	கொழும்பு	பொரலஸ்கமுவா	கொத்தலாவல பாதுகாப்பு மருத்துவமனை	RWG4+3VF, බොරලැස්ගමුව, ශ්‍රී ලංකාව	RWG4+3VF, பொரலஸ்கமுவா, இலங்கை
Colombo	Maradana	National Hospital – Colombo	False	False	CLMBMRDNNTNLHSPTLCLMB		Colombo	LK-11	6.869636	80.019598	Maradana	PS-110107	6.927939	79.865471	6.918743	79.868992	Colombo 00700, Sri Lanka	1.094265		කොළඹ	මරදාන	ජාතික රෝහල - කොළඹ	கொழும்பு	மரதானா	தேசிய மருத்துவமனை - கொழும்பு	කොළඹ 00700, ශ්‍රී ලංකාව	கொழும்பு 00700, இலங்கை
Colombo	Fore shore	MOH Office - Jinthupitiya	False	False	CLMBFRSHRMHFFCJNTHPTY		Colombo	LK-11	6.869636	80.019598	Fore shore	PS-110210	6.949589	79.857355	6.943258	79.859238	No.27 Vivekananda Hill, Colombo 01300, Sri Lanka	0.734247		කොළඹ	ඉදිරිපස වෙරළ	MOH කාර්යාලය - ජින්තුපිටිය	கொழும்பு	முன் கரை	MOH அலுவலகம் - ஜிந்துபிடியா	අංක 27 විවේකානන්ද කන්ද, කොළඹ 01300, ශ්‍රී ලංකාව	எண் .27 விவேகானந்த மலை, கொழும்பு 01300, இலங்கை
Gampaha	Minuwangoda	MOH Office – Minuwangoda	False	False	GMPHMNWNGDMHFFCMNWNGD		Gampaha	LK-12	7.123598	80.018508	Minuwangoda	PS-120238	7.174215	79.957874	7.17227	79.956823	Katunayake-Veyangoda Rd, Minuwangoda, Sri Lanka	0.245525		ගම්පහ	මිනුවන්ගොඩ	MOH කාර්යාලය - මිනුවන්ගොඩ	கம்பஹா	மினுவாங்கொட	MOH அலுவலகம் - மினுவாங்கொட	කටුනායක-වේයන්ගොඩ පාර, මිනුවන්ගොඩ, ශ්‍රී ලංකාව	கட்டுநாயக்க-வெயங்கொட வீதி, மினுவாங்கொட, இலங்கை
Gampaha	Gampaha	MOH Office - Gampaha	False	False	GMPHGMPHMHFFCGMPH		Gampaha	LK-12	7.123598	80.018508	Gampaha	PS-120237	7.087765	80.01228	7.090643	80.002094	Colombo Rd, Gampaha, Sri Lanka	1.16901		ගම්පහ	ගම්පහ	MOH කාර්යාලය - ගම්පහ	கம்பஹா	கம்பஹா	MOH அலுவலகம் - கம்பஹா	කොළඹ පාර, ගම්පහ, ශ්‍රී ලංකාව	கொழும்பு வீதி, கம்பஹா, இலங்கை
Gampaha	Biyagama	MOH Office – Biyagama	False	False	GMPHBYGMMHFFCBYGM		Gampaha	LK-12	7.123598	80.018508	Biyagama	PS-120131	6.962284	80.009037	6.946824	79.994052	Hospital Rd, Sri Lanka	2.386313		ගම්පහ	බියගම	MOH කාර්යාලය - බියගම	கம்பஹா	பியகம	MOH அலுவலகம் - பியாகம	රෝහල පාර, ශ්‍රී ලංකාව	மருத்துவமனை Rd, இலங்கை
Gampaha	Meegahwatta	Mobile Vaccination	False	False	GMPHMGHWTTMBLVCCNTN		Gampaha	LK-12	7.123598	80.018508	Meegahawatta	PS-120132	6.988968	80.000356					#CenterLocationUnknown	ගම්පහ	මීගහවත්ත	ජංගම එන්නත	கம்பஹா	மீகாஹ்வத்த	மொபைல் தடுப்பூசி		
Gampaha	Ja Ela	MOH Office - Ja Ela	False	False	GMPHJLMHFFCJL		Gampaha	LK-12	7.123598	80.018508	Ja - Ela	PS-120133	7.081055	79.890504	7.075216	79.893879	60 Mount Kalvary Rd, Ja-Ela, Sri Lanka	0.748731		ගම්පහ	ජා ඇල	MOH කාර්යාලය - ජා ඇල	கம்பஹா	ஜா எல	MOH அலுவலகம் - ஜா எல	60 කල්වාරි පාර, ජා-ඇල, ශ්‍රී ලංකාව	60 மவுண்ட் கல்வாரி சாலை, ஜா-எல, இலங்கை
Gampaha	Wattala	MOH Office – Wattala	False	False	GMPHWTTLMHFFCWTTL		Gampaha	LK-12	7.123598	80.018508	Wattala	PS-120128	6.993713	79.894506	6.995817	79.885793	301 Hendala Rd, Wattala, Sri Lanka	0.989991		ගම්පහ	වත්තල	MOH කාර්යාලය - වත්තල	கம்பஹா	வத்தளை	MOH அலுவலகம் - வத்தளை	301 හැඳල පාර, වත්තල, ශ්‍රී ලංකාව	301 ஹெந்தலா சாலை, வத்தளை, இலங்கை
Gampaha	Ragama	MOH Office – Ragama	False	False	GMPHRGMMHFFCRGM		Gampaha	LK-12	7.123598	80.018508	Ragama	PS-120134	7.034975	79.924148	7.027386	79.920232	2WGC+X35, Ragama, Sri Lanka	0.948382		ගම්පහ	රාගම	MOH කාර්යාලය - රාගම	கம்பஹா	ராகம	MOH அலுவலகம் - ராகம	2WGC+X35, රාගම, ශ්‍රී ලංකාව	2WGC+X35, ராகம, இலங்கை
Kalutara	Kalutara	NIHS	False	False	KLTRKLTRNHS		Kalutara	LK-13	6.577316	80.127363	Kalutara South		6.584968	79.96102	6.559269	79.973486	Janatha Ln, Kalutara, Sri Lanka	3.173081		කළුතර	කළුතර	NIHS	களுத்துறை	களுத்துறை	என்ஐஎச்எஸ்	ජනතා එන්, කළුතර, ශ්‍රී ලංකාව	ஜனதா எல்என், களுத்துறை, இலங்கை
Kalutara	Aluthgama	MOH Office – Beruwala	False	False	KLTRLTHGMMHFFCBRWL		Kalutara	LK-13	6.577316	80.127363	Aluthgama	PS-1302100	6.432842	79.998032	6.437559	79.999356	CXQX+2PH, Aluthgama, Sri Lanka	0.544697		කළුතර	අලුත්ගම	MOH කාර්යාලය - බේරුවල	களுத்துறை	அளுத்கம	MOH அலுவலகம் - பேருவளை	CXQX+2PH, අළුත්ගම, ශ්‍රී ලංකාව	CXQX+2PH, அளுத்கம, இலங்கை
Kalutara	Kobeigane	MOH Office – Kobeigane	False	False	KLTRKBGNMHFFCKBGN		Kalutara	LK-13	6.577316	80.127363	Kobeigane	PS-610321	7.656934	80.126283	7.656825	80.123579	Kobeigane, Sri Lanka	0.29833		කළුතර	කොබෙයිගනේ	MOH කාර්යාලය - කොබෙයිගනේ	களுத்துறை	கோபிகனே	MOH அலுவலகம் - கோபிகேன்	කොබෙයිගනේ, ශ්‍රී ලංකාව	கோபிகேன், இலங்கை
Puttalam	Anamaduwa	Swarna Paliyagama Vidyalaya	False	False	PTTLMNMDWSWRNPLYGMVDYLY		Puttalam	LK-62	7.973531	79.913833	Anamaduwa	PS-620131	7.874852	80.01316	7.930322	79.993279	WXJV+48C, Thonigala, Sri Lanka	6.547181		පුත්තලම	ආණමඩුව	ස්වර්ණා පලියගම විද්‍යාලය	புத்தளம்	ஆனமடுவா	ஸ்வர்ணா பலியாகம வித்யாலயா	WXJV+48C, තෝනිගල, ශ්‍රී ලංකාව	WXJV+48C, தோனிகலா, இலங்கை
Puttalam	Anamaduwa	Kiwula 04 Vidyalaya	False	False	PTTLMNMDWKWLVDYLY		Puttalam	LK-62	7.973531	79.913833	Anamaduwa	PS-620131	7.874852	80.01316	7.87777	80.011116	Anamaduwa, Sri Lanka	0.395049		පුත්තලම	ආණමඩුව	කිවුල 04 විද්‍යාලය	புத்தளம்	ஆனமடுவா	கிவுலா 04 வித்தியாலயம்	ආණමඩුව, ශ්‍රී ලංකාව	ஆனமடுவா, இலங்கை
Puttalam	Anamaduwa	Sangattikulam Sinhala Vidyalaya	False	False	PTTLMNMDWSNGTTKLMSNHLVDYLY		Puttalam	LK-62	7.973531	79.913833	Anamaduwa	PS-620131	7.874852	80.01316	7.819984	79.979978	RX9H+XXX, Anamaduwa, Sri Lanka	7.114378		පුත්තලම	ආණමඩුව	සංගට්ටිකුලම් සිංහල විද්‍යාලය	புத்தளம்	ஆனமடுவா	சங்கத்திகுளம் சிங்கள வித்யாலயா	RX9H+XXX, ආණමඩුව, ශ්‍රී ලංකාව	RX9H+XXX, ஆனமடுவா, இலங்கை
Puttalam	Chilaw	Karavitagara Vidyalaya	False	False	PTTLMCHLWKRVTGRVDYLY		Puttalam	LK-62	7.973531	79.913833	Chilaw	PS-620241	7.576197	79.788003	7.578243	79.793162	Chilaw, Sri Lanka	0.61266		පුත්තලම	භලාවත	කරවිටාගාර විද්‍යාලය	புத்தளம்	சிலாபம்	கரவிடாகரா வித்யாலயா	හලාවත, ශ්‍රී ලංකාව	சிலாபம், இலங்கை
Puttalam	Chilaw	Punchi Vilaththawa Primary School	False	False	PTTLMCHLWPNCHVLTHTHWPRMRYSCHL		Puttalam	LK-62	7.973531	79.913833	Chilaw	PS-620241	7.576197	79.788003	7.597799	79.903877	Punchi Vilattawa, Sri Lanka	12.999799		පුත්තලම	භලාවත	පුංචි විලත්තාව ප්‍රාථමික විද්‍යාලය	புத்தளம்	சிலாபம்	புஞ்சி விலத்தவா தொடக்கப்பள்ளி	පුංචි විලත්තාව, ශ්‍රී ලංකාව	புஞ்சி விலத்தாவா, இலங்கை
Puttalam	Chilaw	Maradankulama Vidyalaya	False	False	PTTLMCHLWMRDNKLMVDYLY		Puttalam	LK-62	7.973531	79.913833	Chilaw	PS-620241	7.576197	79.788003	7.542572	79.828274	Maradankulama, Sri Lanka	5.805651		පුත්තලම	භලාවත	මරදන්කුලම විද්‍යාලය	புத்தளம்	சிலாபம்	மரடங்குளமா வித்தியாலயம்	මරදන්කුලම, ශ්‍රී ලංකාව	மரடங்குளமா, இலங்கை
Puttalam	Arachchikattuwa	Nalladarankattuwa Viharaya	False	False	PTTLMRCHCHKTTWNLLDRNKTTWVHRY		Puttalam	LK-62	7.973531	79.913833	Arachchikattuwa	PS-620247	7.65944	79.837772	7.669298	79.835761	Puttalam - Colombo Rd, Nalladarankattuwa, Sri Lanka	1.118689		පුත්තලම	ආරච්චිකට්ටුව	නල්ලදරන්කට්ටුව විහාරය	புத்தளம்	ஆராச்சிக்கட்டுவா	நல்லடரன்கட்டுவ விஹாராயா	පුත්තලම - කොළඹ පාර, නල්ලදරන්කට්ටුව, ශ්‍රී ලංකාව	புத்தளம் - கொழும்பு வீதி, நல்லதரன்கட்டுவா, இலங்கை
Puttalam	Pallama	Thamarakkulama Viharaya	False	False	PTTLMPLLMTHMRKKLMVHRY		Puttalam	LK-62	7.973531	79.913833	Pallama	PS-620132	7.691904	79.922555	7.733363	79.924653	PWMF+8VR, Puttalam, Sri Lanka	4.617272		පුත්තලම	පල්ලම	තමරක්කුලම විහාරය	புத்தளம்	பல்லாமா	தாமரக்குலம விஹாராயா	PWMF+8VR, පුත්තලම, ශ්‍රී ලංකාව	PWMF+8VR, புத்தளம், இலங்கை
Puttalam	Kandy	Mobile Medical Team	False	False	PTTLMKNDYMBLMDCLTM		Puttalam	LK-62	7.973531	79.913833	Kandy	PS-210101	7.292948	80.642368					#CenterLocationUnknown	පුත්තලම	මහනුවර	ජංගම වෛද්‍ය කණ්ඩායම	புத்தளம்	கண்டி	மொபைல் மருத்துவ குழு		
Puttalam	Kandy	Girls' High School – Kandy	False	False	PTTLMKNDYGRLSHGHSCHLKNDY		Puttalam	LK-62	7.973531	79.913833	Kandy	PS-210101	7.292948	80.642368	8.032756	79.832857	37 Poles Rd, Puttalam 61300, Sri Lanka	121.386488	#CenterFarFromPolice	පුත්තලම	මහනුවර	උසස් බාලිකා විද්‍යාලය - මහනුවර	புத்தளம்	கண்டி	பெண்கள் மேல்நிலைப்பள்ளி - கண்டி	37 ධ්‍රැව පාර, පුත්තලම 61300, ශ්‍රී ලංකාව	37 துருவங்கள் சாலை, புத்தளம் 61300, இலங்கை
Puttalam	Menikhinna	Rajawella Hindu Vidyalaya	False	False	PTTLMMNKHNNRJWLLHNDVDYLY		Puttalam	LK-62	7.973531	79.913833	Manikhinna	PS-210359	7.317171	80.702253	7.296949	80.730384	7PWJ+Q5C, Rajawella, Sri Lanka	3.832963		පුත්තලම	මැණික්හින්න	රජවැල්ල හින්දු විද්‍යාලය	புத்தளம்	மெனிகின்னா	ராஜவெல்லா இந்து வித்யாலயா	7PWJ+Q5C, රජවැල්ල, ශ්‍රී ලංකාව	7PWJ+Q5C, ராஜவெல்லா, இலங்கை
Puttalam	Uva Paranagama	District Hospital - Uva Paranagama	False	False	PTTLMVPRNGMDSTRCTHSPTLVPRNGM		Puttalam	LK-62	7.973531	79.913833	Uvaparanagama	PS-810213	6.958341	80.930364	6.938076	80.890525	Rendapola-Galahagama-Ambagasdowa Rd, Himbiliyagahamadiththa, Sri Lanka	4.942648		පුත්තලම	Vaව පරණගම	දිසා රෝහල - vaව පරණගම	புத்தளம்	ஊவ பரணகம	மாவட்ட மருத்துவமனை - ஊவா பரணகம	රෙන්ඳපොල-ගලහගම-අඹගස්දෝව පාර, හිම්බිලියගහමදිත්ත, ශ්‍රී ලංකාව	ரெண்டபொல-கலஹகம-அம்பகஸ்தோவ வீதி, ஹிம்பிலியகஹமாதித்த, இலங்கை
Puttalam	Uva Paranagama	Wewegama Hospital	False	False	PTTLMVPRNGMWWGMHSPTL		Puttalam	LK-62	7.973531	79.913833	Uvaparanagama	PS-810213	6.958341	80.930364	7.009708	80.95351	Dimbulana junction,, B 648 Udapussellawa-Welimada Rd, Sri Lanka	6.258974		පුත්තලම	Vaව පරණගම	වේවේගම රෝහල	புத்தளம்	ஊவ பரணகம	வெவேகம மருத்துவமனை	දිඹුලාන හන්දිය, බී 648 උඩපුස්සැල්ලාව-වැලිමඩ පාර, ශ්‍රී ලංකාව	திம்புலான சந்தி ,, B 648 உடபுசெல்லவா-வெலிமடா சாலை, இலங்கை
Puttalam	Uva Paranagama	Karkills Estate Hospital	False	False	PTTLMVPRNGMKRKLLSSTTHSPTL		Puttalam	LK-62	7.973531	79.913833	Uvaparanagama	PS-810213	6.958341	80.930364	8.027902	79.83874	Katugastota-Kurunegala-Puttalam Hwy, Puttalam, Sri Lanka	169.248617	#CenterFarFromPolice	පුත්තලම	Vaව පරණගම	කාර්කිල්ස් වතු රෝහල	புத்தளம்	ஊவ பரணகம	கார்கில்ஸ் எஸ்டேட் மருத்துவமனை	කටුගස්තොට-කුරුණෑගල-පුත්තලම හ්වි, පුත්තලම, ශ්‍රී ලංකාව	கட்டுகஸ்தோட்டா-குருநாகல்-புத்தளம் Hwy, புத்தளம், இலங்கை
Puttalam	Bogahakumbura	Bogahakumbura Hospital	False	False	PTTLMBGHKMBRBGHKMBRHSPTL		Puttalam	LK-62	7.973531	79.913833	Bogahakumbura	PS-810219	6.8536	80.866788	6.862306	80.875527	B48, Sri Lanka	1.367157		පුත්තලම	බෝගහකුඹුර	බෝගහකුඹුර රෝහල	புத்தளம்	போகஹகும்புரா	போகஹகும்புரா மருத்துவமனை	බී 48, ශ්‍රී ලංකාව	பி 48, இலங்கை
Puttalam	Haputale	MOH Office – Haputale	False	False	PTTLMHPTLMHFFCHPTL		Puttalam	LK-62	7.973531	79.913833	Haputale	PS-810215	6.767653	80.957218	6.779645	80.964114	QXH7+WC4, Badulla, Sri Lanka	1.536024		පුත්තලම	හපුතලේ	MOH කාර්යාලය - හපුතලේ	புத்தளம்	ஹப்புதலே	MOH அலுவலகம் - ஹப்புத்தளை	QXH7+WC4, බදුල්ල, ශ්‍රී ලංකාව	QXH7+WC4, பதுளை, இலங்கை
Puttalam	Welimada	Keppetipola Hospital	False	False	PTTLMWLMDKPPTPLHSPTL		Puttalam	LK-62	7.973531	79.913833	Welimada	PS-810212	6.900481	80.905809	6.896336	80.874454	Peradeniya-Badulla-Chenkaladi Hwy, Keppetipola, Sri Lanka	3.492925		පුත්තලම	වැලිමඞ	කැප්පෙටිපොල රෝහල	புத்தளம்	வெலிமடா	கெப்பெட்டிபொல மருத்துவமனை	පේරාදෙණිය-බදුල්ල-චෙන්කලාඩි හ්වි, කැප්පෙටිපොල, ශ්‍රී ලංකාව	பேராதெனிய-பதுல்லா-செங்கலடி ஹ்வி, கெப்பெட்டிபொல, இலங்கை
Puttalam	Bandarawela	MOH Office – Bandarawela	False	False	PTTLMBNDRWLMHFFCBNDRWL		Puttalam	LK-62	7.973531	79.913833	Bandarawela	PS-810210	6.831526	80.986784	6.841272	80.98482	Hospital Junction Helamuduna Bus Stop, Etampitiya Rd, Bandarawela, Sri Lanka	1.105533		පුත්තලම	බණ්ඩාරවෙල	MOH කාර්යාලය - බණ්ඩාරවෙල	புத்தளம்	பண்டாரவளை	MOH அலுவலகம் - பண்டாரவளை	රෝහල් හන්දිය හෙළමුදුන බස් නැවතුම, ඇටම්පිටිය පාර, බණ්ඩාරවෙල, ශ්‍රී ලංකාව	மருத்துவமனை சந்திப்பு ஹெலமுதுனா பேருந்து நிறுத்தம், இடம்பிட்டிய சாலை, பண்டாரவளை, இலங்கை
Badulla	Mahiyanganaya	MOH Office - Mahiyanganaya	False	False	BDLLMHYNGNYMHFFCMHYNGNY		Badulla	LK-81	7.074529	81.04486	Mahiyangane	PS-810105	7.334975	80.993108	7.349752	80.949998	Hasalaka, Sri Lanka	5.031818		බදුල්ල	මහියංගනය	MOH කාර්යාලය - මහියංගනය	பதுளை	மஹியங்கனாய	MOH அலுவலகம் - மஹியங்கனை	හසලක, ශ්‍රී ලංකාව	ஹசலகா, இலங்கை
Moneragala	Monaragala	Mahanama Vidyalaya	False	False	MNRGLMNRGLMHNMVDYLY		Moneragala	LK-82	6.787517	81.303744	Monaragala	PS-820121	6.869866	81.348106	6.876259	81.348364	Potuvile Road Colombo - Batticaloa Hwy, Monaragala, Sri Lanka	0.711663		මොණරාගල	මොනරාගල	මහානාම විද්‍යාලය	மொனராகலை	மொனராகலை	மகாநாம வித்யாலயா	පොතුවිලේ පාර කොළඹ - මඩකලපුව හ්වි, මොනරාගල, ශ්‍රී ලංකාව	பொட்டுவிலே சாலை கொழும்பு - மட்டக்களப்பு எச்வி, மொனராகலை, இலங்கை
Moneragala	Monaragala	Royal College	False	False	MNRGLMNRGLRYLCLLG		Moneragala	LK-82	6.787517	81.303744	Monaragala	PS-820121	6.869866	81.348106	6.86108	81.33918	V86Q+CMM, Monaragala, Sri Lanka	1.388052		මොණරාගල	මොනරාගල	රාජකීය විද්‍යාලය	மொனராகலை	மொனராகலை	ராயல் கல்லூரி	V86Q+CMM, මොනරාගල, ශ්‍රී ලංකාව	V86Q+CMM, மொனராகலை, இலங்கை
Moneragala	Monaragala	Hulandawa Community Hall	False	False	MNRGLMNRGLHLNDWCMMNTYHLL		Moneragala	LK-82	6.787517	81.303744	Monaragala	PS-820121	6.869866	81.348106	6.858672	81.334398	Passara-Moneragala Hwy, Hulandawa, Sri Lanka	1.960079		මොණරාගල	මොනරාගල	හුලන්දාව ප්‍රජා ශාලාව	மொனராகலை	மொனராகலை	ஹுலந்தாவா சமூக மண்டபம்	පස්සර-මොණරාගල හ්වි, හුලන්දාව, ශ්‍රී ලංකාව	பசர-மொனராகல ஹ்வி, ஹுலந்தாவா, இலங்கை
Moneragala	Monaragala	Community Hall – Monaragala	False	False	MNRGLMNRGLCMMNTYHLLMNRGL		Moneragala	LK-82	6.787517	81.303744	Monaragala	PS-820121	6.869866	81.348106	6.86094	81.343078	Monaragala, Sri Lanka	1.137556		මොණරාගල	මොනරාගල	ප්‍රජා ශාලාව - මොනරාගල	மொனராகலை	மொனராகலை	சமூக மண்டபம் - மொனராகலை	මොනරාගල, ශ්‍රී ලංකාව	மொனராகலை, இலங்கை
Moneragala	Badalkumbura	Muthukeliyawa Maha Vidyalaya	False	False	MNRGLBDLKMBRMTHKLYWMHVDYLY		Moneragala	LK-82	6.787517	81.303744	Badalkumbura	PS-820128	6.889017	81.235441	6.89796	81.24123	Passara-Moneragala, Highway, Badalkumbura, Sri Lanka	1.182426		මොණරාගල	බඩල්කුඹුර	මුතුකැලියාව මහා විද්‍යාලය	மொனராகலை	படல்கும்புரா	முத்துகெலியாவ மகா வித்தியாலயம்	පස්සර-මොණරාගල, අධිවේගී මාර්ගය, බඩල්කුඹුර, ශ්‍රී ලංකාව	பசர-மொனராகலை, நெடுஞ்சாலை, படல்கும்புரா, இலங்கை
Moneragala	Wellawaya	Mahinda Rajapaksha Conference Hall	False	False	MNRGLWLLWYMHNDRJPKSHCNFRNCHLL		Moneragala	LK-82	6.787517	81.303744	wellawaya	PS-820130	6.730804	81.100708	6.732053	81.100032	A23, Wellawaya, Sri Lanka	0.157723		මොණරාගල	වැල්ලවාය	මහින්ද රාජපක්ෂ සම්මන්ත්‍රණ ශාලාව	மொனராகலை	வெள்ளவாயா	மஹிந்த ராஜபக்ஷ மாநாட்டு மண்டபம்	ඒ 23, වැල්ලවාය, ශ්‍රී ලංකාව	A23, வெள்ளவாயா, இலங்கை
Moneragala	Buttala	Divisional Hospital – Buttala	False	False	MNRGLBTTLDVSNLHSPTLBTTL		Moneragala	LK-82	6.787517	81.303744	Buttala	PS-820127	6.762499	81.250445	6.75781	81.239724	Colombo - Batticaloa Hwy, Buttala, Sri Lanka	1.293971		මොණරාගල	බුත්තල	ප්‍රාදේශීය රෝහල - බුත්තල	மொனராகலை	புத்தலா	பிரதேச மருத்துவமனை - புத்தலை	කොළඹ - මඩකලපුව හ්වි, බුත්තල, ශ්‍රී ලංකාව	கொழும்பு - மட்டக்களப்பு Hwy, புத்தலா, இலங்கை
Moneragala	Okkampitiya	Wijayabahu Maha Vidyalaya	False	False	MNRGLKKMPTYWJYBHMHVDYLY		Moneragala	LK-82	6.787517	81.303744	Okkampitiya	PS-820135	6.751072	81.306647	6.748205	81.308028	School Lane, Okkampitiya, Sri Lanka	0.353503		මොණරාගල	ඔක්කම්පිටිය	විජයබාහු මහා විද්‍යාලය	மொனராகலை	ஒக்கம்பிட்டிய	விஜயபாகு மகா வித்தியாலயம்	පාසල් පටුමග, ඔක්කම්පිටිය, ශ්‍රී ලංකාව	பள்ளி சந்து, ஒக்கம்பிட்டிய, இலங்கை
Moneragala	Kataragama	Kataragama Devalaya Premises	False	False	MNRGLKTRGMKTRGMDVLYPRMSS		Moneragala	LK-82	6.787517	81.303744	Kataragama	PS-330159	6.41352	81.331368	6.418507	81.333278	Main Office Ruhunu Maha Kataragama Dewalaya, Kataragama 91400, Sri Lanka	0.59352		මොණරාගල	කතරගම	කතරගම දේවාල පරිශ්‍රය	மொனராகலை	கதிர்காமம்	கதிர்காம தேவாலய வளாகம்	ප්‍රධාන කාර්යාලය රුහුණු මහා කතරගම දේවාලය, කතරගම 91400, ශ්‍රී ලංකාව	பிரதான அலுவலகம் ருஹுனு மகா கதிர்காம தேவாலயா, கதிர்காம 91400, இலங்கை
Matara	Matara	Mobile Medical Team	False	False	MTRMTRMBLMDCLTM		Matara	LK-32	6.142734	80.539994	Matara	PS-320101	5.94904	80.533659					#CenterLocationUnknown	මාතර	මාතර	ජංගම වෛද්‍ය කණ්ඩායම	மாத்தறை	மாத்தறை	மொபைல் மருத்துவ குழு		
Matara	Pitabeddara	Derangala Maha Vidyalaya	False	False	MTRPTBDDRDRNGLMHVDYLY		Matara	LK-32	6.142734	80.539994	Pitabeddara	PS-320114	6.203675	80.475004	6.253488	80.446914	7C3W+9QV, Matara, Sri Lanka	6.351891		මාතර	පිටබැද්දර	දැරංගල මහා විද්‍යාලය	மாத்தறை	பிடபெத்தர	தேரங்கலா மகா வித்தியாலயம்	7C3W+9QV, මාතර, ශ්‍රී ලංකාව	7C3W+9QV, மாத்தறை, இலங்கை
Matara	Pitabeddara	Derangala Primary School	False	False	MTRPTBDDRDRNGLPRMRYSCHL		Matara	LK-32	6.142734	80.539994	Pitabeddara	PS-320114	6.203675	80.475004	6.207077	80.463245	6F47+R7Q, Pitabeddara, Sri Lanka	1.35423		මාතර	පිටබැද්දර	දැරංගල ප්‍රාථමික විද්‍යාලය	மாத்தறை	பிடபெத்தர	தேரங்கலா தொடக்கப்பள்ளி	6F47+R7Q, පිටබැද්දර, ශ්‍රී ලංකාව	6F47+R7Q, பிடபெத்தர, இலங்கை
Matara	Pitabeddara	Dehigaspe Health Centre	False	False	MTRPTBDDRDHGSPHLTHCNTR		Matara	LK-32	6.142734	80.539994	Pitabeddara	PS-320114	6.203675	80.475004	6.200819	80.474352	6F2F+8PH, Pitabeddara, Sri Lanka	0.325643		මාතර	පිටබැද්දර	දෙහිගස්පේ සෞඛ්‍ය මධ්‍යස්ථානය	மாத்தறை	பிடபெத்தர	தெஹிகஸ்பே சுகாதார மையம்	6F2F+8PH, පිටබැද්දර, ශ්‍රී ලංකාව	6F2F+8PH, பிடபெத்தர, இலங்கை
Hambantota	Beliatta	MOH Office – Beliatta	False	False	HMBNTTBLTTMHFFCBLTT		Hambantota	LK-33	6.259779	81.098619	Beliatta	PS-330152	6.046936	80.735408	6.051828	80.741735	3P2R+PMQ, Hambantota, Sri Lanka	0.886482		හම්බන්තොට	බෙලිඅත්ත	MOH කාර්යාලය - බෙලිඅත්ත	அம்பாந்தோட்டை	பெலியாட்டா	MOH அலுவலகம் - பெலியாட்ட	3P2R+PMQ, හම්බන්තොට, ශ්‍රී ලංකාව	3P2R+PMQ, ஹம்பாந்தோட்டை, இலங்கை
Hambantota	Walasmulla	Warapitiya Maha Vidyalaya	False	False	HMBNTTWLSMLLWRPTYMHVDYLY		Hambantota	LK-33	6.259779	81.098619	Walasmulla	PS-330151	6.154102	80.698256	6.218377	80.636298	6J9P+9G3, Hambantota, Sri Lanka	9.902261		හම්බන්තොට	වලස්මුල්ල	වරාපිටිය මහා විද්‍යාලය	அம்பாந்தோட்டை	வலஸ்முல்லா	வாராபிட்டிய மகா வித்தியாலயம்	6J9P+9G3, හම්බන්තොට, ශ්‍රී ලංකාව	6J9P+9G3, ஹம்பாந்தோட்டை, இலங்கை
Hambantota	Walasmulla	Modarawana Maha Vidyalaya	False	False	HMBNTTWLSMLLMDRWNMHVDYLY		Hambantota	LK-33	6.259779	81.098619	Walasmulla	PS-330151	6.154102	80.698256	6.109322	80.714402	Beliatta - Walasmulla Rd, Okewela, Sri Lanka	5.291276		හම්බන්තොට	වලස්මුල්ල	මෝදරවාන මහා විද්‍යාලය	அம்பாந்தோட்டை	வலஸ்முல்லா	மோதரவன மகா வித்தியாலயம்	බෙලිඅත්ත - වලස්මුල්ල පාර, ඕකේවෙල, ශ්‍රී ලංකාව	பெலியாட்ட - வலஸ்முல்லா சாலை, ஒகேவெலா, இலங்கை
Hambantota	Walasmulla	MOH Office – Walasmulla	False	False	HMBNTTWLSMLLMHFFCWLSMLL		Hambantota	LK-33	6.259779	81.098619	Walasmulla	PS-330151	6.154102	80.698256	6.150889	80.693718	Walasmulla, Sri Lanka	0.616099		හම්බන්තොට	වලස්මුල්ල	MOH කාර්යාලය - වලස්මුල්ල	அம்பாந்தோட்டை	வலஸ்முல்லா	MOH அலுவலகம் - வலஸ்முல்லா	වලස්මුල්ල, ශ්‍රී ලංකාව	வலஸ்முல்லா, இலங்கை
Hambantota	Tangalla	MOH Office – Tangalla	False	False	HMBNTTTNGLLMHFFCTNGLL		Hambantota	LK-33	6.259779	81.098619	Tangalle	PS-330147	6.023954	80.797255	6.02363	80.795742	2QFW+F75, Tangalle, Sri Lanka	0.171198		හම්බන්තොට	තංගල්ල	MOH කාර්යාලය - තංගල්ල	அம்பாந்தோட்டை	தங்கல்லா	MOH அலுவலகம் - தங்கல்லா	2QFW+F75, තංගල්ල, ශ්‍රී ලංකාව	2QFW+F75, தங்காலை, இலங்கை
Hambantota	Katuwana	MOH Office – Katuwana	False	False	HMBNTTKTWNMHFFCKTWN		Hambantota	LK-33	6.259779	81.098619	Katuwana	PS-330153	6.269722	80.690963	6.26627	80.693035	7M8V+G63, Katuwana, Sri Lanka	0.447115		හම්බන්තොට	කටුවන	MOH කාර්යාලය - කටුවන	அம்பாந்தோட்டை	கட்டுவானா	MOH அலுவலகம் - கட்டுவானா	7 එම් 8 වී+ජී 63, කටුවන, ශ්‍රී ලංකාව	7M8V+G63, கட்டுவானா, இலங்கை
Hambantota	Angunukolapelessa	MOH Office – Angunukolapelessa	False	False	HMBNTTNGNKLPLSSMHFFCNGNKLPLSS		Hambantota	LK-33	6.259779	81.098619	Angunakolapelessa	PS-330150	6.321993	80.844883	6.164691	80.898963	Unnamed Road, Agunukolapelessa, Sri Lanka	18.490258		හම්බන්තොට	අඟුණුකොළපැලැස්ස	MOH කාර්යාලය - අඟුණුකොලපැලැස්ස	அம்பாந்தோட்டை	அங்குனுகோலபெலெஸ்ஸா	MOH அலுவலகம் - அங்குனுகோலபெலஸ்ஸா	නම් නොකළ පාර, අගුණුකොලපැලැස්ස, ශ්‍රී ලංකාව	பெயரிடப்படாத சாலை, அகுனுகோலபெலஸ்ஸா, இலங்கை
Hambantota	Angunukolapelessa	Town Hall - Angunukolapelessa	False	False	HMBNTTNGNKLPLSSTWNHLLNGNKLPLSS		Hambantota	LK-33	6.259779	81.098619	Angunakolapelessa	PS-330150	6.321993	80.844883	6.164066	80.899522	Hungama-Talawa-Middeniya Rd, Agunukolapelessa, Sri Lanka	18.576065		හම්බන්තොට	අඟුණුකොළපැලැස්ස	නගර ශාලාව - අඟුණුකොලපැලැස්ස	அம்பாந்தோட்டை	அங்குனுகோலபெலெஸ்ஸா	டவுன் ஹால் - அங்குனுகோலபெலஸ்ஸா	හුංගම-තලාව මිද්දෙණිය පාර, අගුණුකොලපැලැස්ස, ශ්‍රී ලංකාව	ஹங்காமா-தலைவா-மித்தெனியா சாலை, அகுனுகோலபெலஸ்ஸா, இலங்கை
Hambantota	Rathnapura	Kotamulla Viharaya	False	False	HMBNTTRTHNPRKTMLLVHRY		Hambantota	LK-33	6.259779	81.098619	Ratnapura	PS-910101	6.679456	80.40223	6.666909	80.382503	M98M+Q26, Ratnapura, Sri Lanka	2.587921		හම්බන්තොට	රත්නපුර	කොටමුල්ල විහාරය	அம்பாந்தோட்டை	இரத்தினபுரி	கோட்டமுல்லா விஹாராயா	M98M+Q26, රත්නපුර, ශ්‍රී ලංකාව	M98M+Q26, இரத்தினபுரா, இலங்கை
Rathnapura	Rathnapura	Kahawatta Vidyalaya	False	False	RTHNPRRTHNPRKHWTTVDYLY		Ratnapura	LK-91	6.586826	80.566158	Ratnapura	PS-910101	6.679456	80.40223	6.594629	80.579426	HHVH+VQ3, රත්නපුර, Sri Lanka	21.732442	#CenterFarFromPolice	රත්නපුර	රත්නපුර	කහවත්ත විද්‍යාලය	இரத்தினபுரி	இரத்தினபுரி	கஹவத்த வித்யாலயா	HHVH+VQ3, රත්නපුර, ශ්‍රී ලංකාව	HHVH+VQ3, ரத்னபுரம், இலங்கை
Rathnapura	Anuradhapura	Army Hospital Anuradhapura	False	False	RTHNPRNRDHPRRMYHSPTLNRDHPR		Ratnapura	LK-91	6.586826	80.566158	Anuradapura	PS-710101	8.329752	80.407265	8.338302	80.407646	AB02, Anuradhapura, Sri Lanka	0.951939		රත්නපුර	අනුරාධපුර	අනුරාධපුර හමුදා රෝහල	இரத்தினபுரி	அனுராதபுரம்	அனுராதபுரம் இராணுவ மருத்துவமனை	ඒබී 02, අනුරාධපුර, ශ්‍රී ලංකාව	ஏபி 02, அனுராதபுரம், இலங்கை
Jaffna	Jaffna	St. John's College	False	False	JFFNJFFNSTJHNSCLLG		Jaffna	LK-41	9.691792	80.098594	Jaffna	PS-410209	9.659919	80.010965	9.657495	80.026568	Main Street, Chundikuli-Columbuthurai Rd, section, Sri Lanka	1.732049		යාපනය	යාපනය	ශාන්ත ජෝන් විද්‍යාලය	யாழ்	யாழ்	செயின்ட் ஜான்ஸ் கல்லூரி	ප්‍රධාන වීදිය, චුන්දිකුලි-කොළම්බුතුරේ පාර, කොටස, ශ්‍රී ලංකාව	பிரதான வீதி, சுண்டிக்குளி-கொலம்புதுறை வீதி, பிரிவு, இலங்கை
Jaffna	Jaffna	Navalar Hall	False	False	JFFNJFFNNVLRHLL		Jaffna	LK-41	9.691792	80.098594	Jaffna	PS-410209	9.659919	80.010965	9.669604	80.024455	M29F+RQW, Jaffna, Sri Lanka	1.829892		යාපනය	යාපනය	නවලාර් ශාලාව	யாழ்	யாழ்	நாவலர் மண்டபம்	M29F+RQW, යාපනය, ශ්‍රී ලංකාව	M29F+RQW, யாழ்ப்பாணம், இலங்கை
Jaffna	Jaffna	Cultural Hall	False	False	JFFNJFFNCLTRLHLL		Jaffna	LK-41	9.691792	80.098594	Jaffna	PS-410209	9.659919	80.010965	9.669579	80.024272	Navalar Rd, Jaffna, Sri Lanka	1.81206		යාපනය	යාපනය	සංස්කෘතික ශාලාව	யாழ்	யாழ்	கலாச்சார மண்டபம்	නාවලර් පාර, යාපනය, ශ්‍රී ලංකාව	நாவலர் சாலை, யாழ்ப்பாணம், இலங்கை
Jaffna	Jaffna	Ariyalai Mahamari Amman Hall	False	False	JFFNJFFNRYLMHMRMMNHLL		Jaffna	LK-41	9.691792	80.098594	Jaffna	PS-410209	9.659919	80.010965	9.660091	80.041517	Pirappankulam, Jaffna, Sri Lanka	3.350164		යාපනය	යාපනය	අරියාලෙයි මහමාරි අම්මාන් ශාලාව	யாழ்	யாழ்	அரியாலை மகாமாரி அம்மன் மண்டபம்	පිරප්පන්කුලම්, යාපනය, ශ්‍රී ලංකාව	பிறப்பன்குளம், யாழ்ப்பாணம், இலங்கை
Jaffna	Kopay	MOH Office- Nallur	False	False	JFFNKPYMHFFCNLLR		Jaffna	LK-41	9.691792	80.098594	Kopai	PS-410216	9.686887	80.03856	9.673947	80.027736	M2FH+H3H, Jaffna, Sri Lanka	1.865513		යාපනය	කෝපායි	එම්ඕඑච් කාර්යාලය- නල්ලූර්	யாழ்	கோப்பாய்	MOH அலுவலகம்- நல்லூர்	M2FH+H3H, යාපනය, ශ්‍රී ලංකාව	M2FH+H3H, யாழ்ப்பாணம், இலங்கை
Jaffna	Kopay	Kopay Maha Vidyalaya	False	False	JFFNKPYKPYMHVDYLY		Jaffna	LK-41	9.691792	80.098594	Kopai	PS-410216	9.686887	80.03856	9.692832	80.049227	M2VX+4MQ, Jaffna, Sri Lanka	1.343555		යාපනය	කෝපායි	කෝපායි මහා විද්‍යාලය	யாழ்	கோப்பாய்	கோப்பாய் மகா வித்தியாலயம்	M2VX+4MQ, යාපනය, ශ්‍රී ලංකාව	M2VX+4MQ, யாழ்ப்பாணம், இலங்கை
Jaffna	Kopay	Uralu Ganesha Vidyalaya	False	False	JFFNKPYRLGNSHVDYLY		Jaffna	LK-41	9.691792	80.098594	Kopai	PS-410216	9.686887	80.03856	9.711206	80.059962	Kopay Base Hospital, Jaffna, Sri Lanka	3.580942		යාපනය	කෝපායි	Ralරළු ගනේෂා විද්‍යාලය	யாழ்	கோப்பாய்	ஊராளு விநாயகர் வித்யாலயா	කෝපායි මූලික රෝහල, යාපනය, ශ්‍රී ලංකාව	கோப்பாய் அடிப்படை மருத்துவமனை, யாழ்ப்பாணம், இலங்கை
Jaffna	Chunnagam	MOH Office - Uduvil	False	False	JFFNCHNNGMMHFFCDVL		Jaffna	LK-41	9.691792	80.098594	Chunnakam	PS-410211	9.745309	80.029151	9.742938	80.035132	P2VP+53C, Chunnakam, Sri Lanka	0.706719		යාපනය	චුන්නාගම්	MOH කාර්යාලය - උඩුවිල්	யாழ்	சுன்னாகம்	MOH அலுவலகம் - உடுவில்	පී 2 වීපී+53 සී, චුන්නාකම්, ශ්‍රී ලංකාව	P2VP+53C, சுன்னாகம், இலங்கை
Jaffna	Chunnagam	PMCU – Inuvil	False	False	JFFNCHNNGMPMCNVL		Jaffna	LK-41	9.691792	80.098594	Chunnakam	PS-410211	9.745309	80.029151	9.716491	80.018015	P289+H6R, Uduvil, Sri Lanka	3.430038		යාපනය	චුන්නාගම්	PMCU - ඉනුවිල්	யாழ்	சுன்னாகம்	PMCU - இணுவில்	P289+H6R, උඩුවිල්, ශ්‍රී ලංකාව	பி 289+எச் 6 ஆர், உடுவில், இலங்கை
Jaffna	Chunnagam	PMCU Punnale Kattuwan	False	False	JFFNCHNNGMPMCPNNLKTTWN		Jaffna	LK-41	9.691792	80.098594	Chunnakam	PS-410211	9.745309	80.029151	9.742231	80.026054	146 Jaffna-Kankesanturai Rd, Chunnakam 40000, Sri Lanka	0.482163		යාපනය	චුන්නාගම්	PMCU පුණ්ණලේ කට්ටුවාන්	யாழ்	சுன்னாகம்	PMCU புன்னலே கட்டுவான்	146 යාපනය-කන්කසන්තුරේ පාර, චුන්නාකම් 40000, ශ්‍රී ලංකාව	146 யாழ்ப்பாணம்-காங்கேசன்துறை வீதி, சுன்னாகம் 40000, இலங்கை
Jaffna	Thelippalai	Alaveddi Arunodaya Maha Vidyalaya	False	False	JFFNTHLPPLLVDDRNDYMHVDYLY		Jaffna	LK-41	9.691792	80.098594	Thelippalay	PS-410104	6.933075	79.857181	9.674131	80.011248	430 Jaffna-Kankesanturai Rd, Jaffna, Sri Lanka	305.358304	#CenterFarFromPolice	යාපනය	තෙලිප්පලෙයි	අලවේදි අරුණෝදය මහා විද්‍යාලය	யாழ்	தெளிப்பளை	அளவெட்டி அருணோதயா மகா வித்தியாலயம்	430 යාපනය-කන්කසන්තුරේ පාර, යාපනය, ශ්‍රී ලංකාව	430 யாழ்ப்பாணம்-காங்கேசன்துறை வீதி, யாழ்ப்பாணம், இலங்கை
Jaffna	Achchuveli	Sivaprakasam Vidyalaya	False	False	JFFNCHCHVLSVPRKSMVDYLY		Jaffna	LK-41	9.691792	80.098594	Achchuweli	PS-410103	6.934132	79.856305	9.776924	80.114965	Atchuvely Central College, Jaffna, Northern Province, B33, 40000, Sri Lanka	317.481671	#CenterFarFromPolice	යාපනය	අච්චුවේලි	සිවප්‍රකාසම් විද්‍යාලය	யாழ்	அச்சுவேலி	சிவப்பிரகாசம் வித்யாலயா	අච්චුවේලි මධ්‍ය මහා විද්‍යාලය, යාපනය, උතුරු පළාත, බී 33, 40000, ශ්‍රී ලංකාව	அச்சுவேலி மத்திய கல்லூரி, யாழ்ப்பாணம், வடக்கு மாகாணம், பி 33, 40000, இலங்கை
Jaffna	Kayts	MOH Office – Karainagar	False	False	JFFNKYTSMHFFCKRNGR		Jaffna	LK-41	9.691792	80.098594	Kayts	PS-410212	9.728654	79.94775	9.725097	79.99772	Sri Lanka, Manipay, Sri Lanka	5.492521		යාපනය	කයිට්ස්	MOH කාර්යාලය - කරෙයිනගර්	யாழ்	ஊர்காவற்துறையினர்	MOH அலுவலகம் - காரைநகர்	ශ්‍රී ලංකාව, මනිපායි, ශ්‍රී ලංකාව	இலங்கை, மானிப்பாய், இலங்கை
Jaffna	Pudukudiruppu	MOH Office – Pudukudiruppu	False	False	JFFNPDKDRPPMHFFCPDKDRPP		Jaffna	LK-41	9.691792	80.098594	Pudukuduiruppu	PS-440149	7.00152	79.95003	9.320965	80.683013	Parantan-Mullaitivu Hwy, Velikkandal, Sri Lanka	270.317914	#CenterFarFromPolice	යාපනය	පුදුකුඩිරුප්පු	එම්ඕඑච් කාර්යාලය - පුදුකුඩිරුප්පු	யாழ்	புதுக்குடியிருப்பு	MOH அலுவலகம் - புதுக்குடியிருப்பு	පරන්තන්-මුලතිව් හ්වි, වේලිකන්දල්, ශ්‍රී ලංකාව	பரந்தன்-முல்லைத்தீவு Hwy, வேலிக்கண்டல், இலங்கை
Trincomalee	Muttur	MOH Office – Muttur	False	False	TRNCMLMTTRMHFFCMTTR		Trincomalee	LK-53	8.551241	81.092014	Mutur	PS-530138	8.461133	81.259371	8.453916	81.264494	1 Old Batticaloa Rd, Mutur, Sri Lanka	0.980859		ත්රිකුණාමලය	මුතූර්	MOH කාර්යාලය - මුතූර්	திருகோணமலை	மூதூர்	MOH அலுவலகம் - மூதூர்	1 පරණ මඩකලපුව පාර, මුතූර්, ශ්‍රී ලංකාව	1 பழைய மட்டக்களப்பு வீதி, மூதூர், இலங்கை
Trincomalee	Muttur	Al Hilal Maha Vidyalaya	False	False	TRNCMLMTTRLHLLMHVDYLY		Trincomalee	LK-53	8.551241	81.092014	Mutur	PS-530138	8.461133	81.259371	8.457062	81.268574	Mutur, Sri Lanka	1.109154		ත්රිකුණාමලය	මුතූර්	අල් හිලාල් මහා විද්‍යාලය	திருகோணமலை	மூதூர்	அல் ஹிலால் மகா வித்தியாலயம்	මුතූර්, ශ්‍රී ලංකාව	மூதூர், இலங்கை
Trincomalee	Muttur	Ralkuli Vidyalaya	False	False	TRNCMLMTTRRLKLVDYLY		Trincomalee	LK-53	8.551241	81.092014	Mutur	PS-530138	8.461133	81.259371	8.447261	81.243706	Ralkuli Bridge, Trincomalee Hwy, Sri Lanka	2.313261		ත්රිකුණාමලය	මුතූර්	රාල්කුලි විද්‍යාලය	திருகோணமலை	மூதூர்	ரல்குலி வித்யாலயா	රාල්කුලි පාලම, ත්‍රිකුණාමලය හ්වි, ශ්‍රී ලංකාව	ரல்குலி பாலம், திருகோணமலை ஹெவி, இலங்கை
Trincomalee	Muttur	Al Hamra Vidyalaya	False	False	TRNCMLMTTRLHMRVDYLY		Trincomalee	LK-53	8.551241	81.092014	Mutur	PS-530138	8.461133	81.259371	8.726266	81.172086	P5GC+GR4, Irrakkakandi, Sri Lanka	31.013792	#CenterFarFromPolice	ත්රිකුණාමලය	මුතූර්	අල් හම්රා විද්‍යාලය	திருகோணமலை	மூதூர்	அல் ஹம்ரா வித்யாலயா	පී 5 ජීසී+ජීආර් 4, ඉරක්කකණ්ඩි, ශ්‍රී ලංකාව	P5GC+GR4, இறக்கக்காண்டி, இலங்கை
Trincomalee	Muttur	Pallekudiirippu Kale Mahal Vidyalaya	False	False	TRNCMLMTTRPLLKDRPPKLMHLVDYLY		Trincomalee	LK-53	8.551241	81.092014	Mutur	PS-530138	8.461133	81.259371	8.449646	81.26789	1 Old Batticaloa Rd, Mutur, Sri Lanka	1.584607		ත්රිකුණාමලය	මුතූර්	පල්ලේකුඩඉරිප්පු කැලේ මහල් විද්‍යාලය	திருகோணமலை	மூதூர்	பல்லேக்குடியிருப்பு காலே மஹால் வித்யாலயா	1 පරණ මඩකලපුව පාර, මුතූර්, ශ්‍රී ලංකාව	1 பழைய மட்டக்களப்பு வீதி, மூதூர், இலங்கை
Trincomalee	Muttur	Sampur Hospital	False	False	TRNCMLMTTRSMPRHSPTL		Trincomalee	LK-53	8.551241	81.092014	Mutur	PS-530138	8.461133	81.259371	8.481264	81.292795	F7JV+G43, Trincomalee, Sri Lanka	4.305295		ත්රිකුණාමලය	මුතූර්	සාම්පූර් රෝහල	திருகோணமலை	மூதூர்	சம்பூர் மருத்துவமனை	F7JV+G43, ත්‍රිකුණාමලය, ශ්‍රී ලංකාව	F7JV+G43, திருகோணமலை, இலங்கை
Trincomalee	Kinniya	MOH Office – Kurunjankeni	False	False	TRNCMLKNNYMHFFCKRNJNKN		Trincomalee	LK-53	8.551241	81.092014	Kinnia	PS-530140	6.907289	79.863819	8.498696	81.179644	F5XH+FVC, Kinniya 31100, Sri Lanka	228.840304	#CenterFarFromPolice	ත්රිකුණාමලය	කින්නියා	MOH කාර්යාලය - කුරුන්ජන්කේනි	திருகோணமலை	கிண்ணியா	MOH அலுவலகம் - குருஞ்சன்கேணி	F5XH+FVC, කින්නියා 31100, ශ්‍රී ලංකාව	F5XH+FVC, கிண்ணியா 31100, இலங்கை
Trincomalee	Kinniya	MOH Office – Kinniya	False	False	TRNCMLKNNYMHFFCKNNY		Trincomalee	LK-53	8.551241	81.092014	Kinnia	PS-530140	6.907289	79.863819	8.498696	81.179644	F5XH+FVC, Kinniya 31100, Sri Lanka	228.840304	#CenterFarFromPolice	ත්රිකුණාමලය	කින්නියා	MOH කාර්යාලය - කින්නියා	திருகோணமலை	கிண்ணியா	MOH அலுவலகம் - கிண்ணியா	F5XH+FVC, කින්නියා 31100, ශ්‍රී ලංකාව	F5XH+FVC, கிண்ணியா 31100, இலங்கை
Trincomalee	Kinniya	Al Aksha Central College	False	False	TRNCMLKNNYLKSHCNTRLCLLG		Trincomalee	LK-53	8.551241	81.092014	Kinnia	PS-530140	6.907289	79.863819	8.496662	81.180256	F5WJ+M46, Kinniya 31100, Sri Lanka	228.708367	#CenterFarFromPolice	ත්රිකුණාමලය	කින්නියා	අල් අක්ෂා මධ්‍ය මහා විද්‍යාලය	திருகோணமலை	கிண்ணியா	அல் அக்ஷா மத்திய கல்லூரி	F5WJ+M46, කින්නියා 31100, ශ්‍රී ලංකාව	F5WJ+M46, கிண்ணியா 31100, இலங்கை
Trincomalee	Kinniya	Al Adan Vidyalaya	False	False	TRNCMLKNNYLDNVDYLY		Trincomalee	LK-53	8.551241	81.092014	Kinnia	PS-530140	6.907289	79.863819	8.502547	81.180383	Kinniya, Sri Lanka	229.222923	#CenterFarFromPolice	ත්රිකුණාමලය	කින්නියා	අල් අදාන් විද්‍යාලය	திருகோணமலை	கிண்ணியா	அல் அதான் வித்யாலயா	කින්නියා, ශ්‍රී ලංකාව	கிண்ணியா, இலங்கை
Trincomalee	Kinniya	Al Irfan Viyalaya	False	False	TRNCMLKNNYLRFNVYLY		Trincomalee	LK-53	8.551241	81.092014	Kinnia	PS-530140	6.907289	79.863819	8.481391	81.191368	F5JR+HG5, Kinniya, Sri Lanka	228.183186	#CenterFarFromPolice	ත්රිකුණාමලය	කින්නියා	අල් ඉර්ෆාන් වියල	திருகோணமலை	கிண்ணியா	அல் இர்பான் வியாலயா	F5JR+HG5, කින්නියා, ශ්‍රී ලංකාව	F5JR+HG5, கிண்ணியா, இலங்கை
Trincomalee	Kinniya	Base Hospital – Kinniya	False	False	TRNCMLKNNYBSHSPTLKNNY		Trincomalee	LK-53	8.551241	81.092014	Kinnia	PS-530140	6.907289	79.863819	8.501539	81.187539	Tampalakamam-Kinniya Rd, Kinniya 31100, Sri Lanka	229.636589	#CenterFarFromPolice	ත්රිකුණාමලය	කින්නියා	මූලික රෝහල - කින්නියා	திருகோணமலை	கிண்ணியா	அடிப்படை மருத்துவமனை - கிண்ணியா	තම්පලකමම්-කින්නියා පාර, කින්නියා 31100, ශ්‍රී ලංකාව	தம்பலகாமம்-கிண்ணியா சாலை, கிண்ணியா 31100, இலங்கை
Trincomalee	Sripura	MOH Office – Sripura	False	False	TRNCMLSRPRMHFFCSRPR		Trincomalee	LK-53	8.551241	81.092014	Sripura	PS-530136	8.929617	80.81428	8.926697	80.814799	Padavi Sripura, Padaviya - Sripura Road, Welioya, Sri Lanka	0.329869		ත්රිකුණාමලය	ශ්‍රීපුර	MOH කාර්යාලය - ශ්‍රීපුර	திருகோணமலை	ஸ்ரீபுரா	MOH அலுவலகம் - ஸ்ரீபுரா	පදවි ශ්‍රීපුර, පදවිය - ශ්‍රීපුර පාර, වැලිඔය, ශ්‍රී ලංකාව	படவி ஸ்ரீபுரா, படாவியா - ஸ்ரீபுரா சாலை, வெலிஓயா, இலங்கை
Trincomalee	Sripura	Jayanthipura Vidyalaya	False	False	TRNCMLSRPRJYNTHPRVDYLY		Trincomalee	LK-53	8.551241	81.092014	Sripura	PS-530136	8.929617	80.81428	8.908396	80.833813	Jayanthi wewa, Padavi -Sripura, Sri Lanka	3.190373		ත්රිකුණාමලය	ශ්‍රීපුර	ජයන්තිපුර විද්‍යාලය	திருகோணமலை	ஸ்ரீபுரா	ஜெயந்திபுரா வித்யாலயா	ජයන්ති වැව, පදවි -ශ්‍රීපුර, ශ්‍රී ලංකාව	ஜெயந்தி வெவா, படவி -ஸ்ரீபுரா, இலங்கை
Trincomalee	Sripura	Sripura Hospital	False	False	TRNCMLSRPRSRPRHSPTL		Trincomalee	LK-53	8.551241	81.092014	Sripura	PS-530136	8.929617	80.81428	8.929308	80.813901	Padaviya - Sripura Road, Welioya, Sri Lanka	0.053996		ත්රිකුණාමලය	ශ්‍රීපුර	ශ්‍රීපුර රෝහල	திருகோணமலை	ஸ்ரீபுரா	ஸ்ரீபுரா மருத்துவமனை	පදවිය - ශ්‍රීපුර පාර, වැලිඔය, ශ්‍රී ලංකාව	பதவிய - ஸ்ரீபுரா சாலை, வெலிஓயா, இலங்கை
Trincomalee	Kuchchaveli	MOH Office – Kuchchaveli	False	False	TRNCMLKCHCHVLMHFFCKCHCHVL		Trincomalee	LK-53	8.551241	81.092014	Kuchchaweli	PS-530133	8.81895	81.100438	8.740082	81.161616	P5R6+2JQ, Kumpurupiddi, Sri Lanka	11.053646		ත්රිකුණාමලය	කුච්චවේලි	MOH කාර්යාලය - කුච්චවේලි	திருகோணமலை	குச்சவெளி	MOH அலுவலகம் - குச்சவெளி	P5R6+2JQ, කුඹුරුපිඩි, ශ්‍රී ලංකාව	P5R6+2JQ, கும்புறுப்பிடி, இலங்கை
Trincomalee	Kuchchaveli	Divisional Hospital – Kuchchaveli	False	False	TRNCMLKCHCHVLDVSNLHSPTLKCHCHVL		Trincomalee	LK-53	8.551241	81.092014	Kuchchaweli	PS-530133	8.81895	81.100438	8.814795	81.102358	R472+WW9, Kuchchaveli, Sri Lanka	0.508064		ත්රිකුණාමලය	කුච්චවේලි	ප්‍රාදේශීය රෝහල - කුච්චවේලි	திருகோணமலை	குச்சவெளி	பிரதேச மருத்துவமனை - குச்சவெளி	ආර් 472+WW9, කුච්චවේලි, ශ්‍රී ලංකාව	R472+WW9, குச்சவெளி, இலங்கை
Trincomalee	Kuchchaveli	Annuria Muslim Maha Vidyalaya	False	False	TRNCMLKCHCHVLNNRMSLMMHVDYLY		Trincomalee	LK-53	8.551241	81.092014	Kuchchaweli	PS-530133	8.81895	81.100438	8.504893	81.179851	Kinniya, Sri Lanka	36.007413	#CenterFarFromPolice	ත්රිකුණාමලය	කුච්චවේලි	අනුරියා මුස්ලිම් මහා විද්‍යාලය	திருகோணமலை	குச்சவெளி	அன்னூரியா முஸ்லிம் மகா வித்தியாலயம்	කින්නියා, ශ්‍රී ලංකාව	கிண்ணியா, இலங்கை
Trincomalee	Kuchchaveli	Erakkandi Muslim Maha Vidyalaya	False	False	TRNCMLKCHCHVLRKKNDMSLMMHVDYLY		Trincomalee	LK-53	8.551241	81.092014	Kuchchaweli	PS-530133	8.81895	81.100438	8.592448	81.222257	N, N Coast Rd, Trincomalee, Sri Lanka	28.532789	#CenterFarFromPolice	ත්රිකුණාමලය	කුච්චවේලි	එරක්කණ්ඩි මුස්ලිම් මහා විද්‍යාලය	திருகோணமலை	குச்சவெளி	ஏரக்கண்டி முஸ்லிம் மகா வித்தியாலயம்	එන්, එන් කෝස්ට් පාර, ත්‍රිකුණාමලය, ශ්‍රී ලංකාව	N, N கடற்கரை சாலை, திருகோணமலை, இலங்கை
Trincomalee	Kuchchaveli	Kallanpattu Vidyalaya	False	False	TRNCMLKCHCHVLKLLNPTTVDYLY		Trincomalee	LK-53	8.551241	81.092014	Kuchchaweli	PS-530133	8.81895	81.100438	8.399144	81.032531	92XM+M22, Trincomalee, Sri Lanka	47.288391	#CenterFarFromPolice	ත්රිකුණාමලය	කුච්චවේලි	කල්ලන්පත්තු විද්‍යාලය	திருகோணமலை	குச்சவெளி	கல்லன்பட்டு வித்யாலயா	92XM+M22, ත්‍රිකුණාමලය, ශ්‍රී ලංකාව	92XM+M22, திருகோணமலை, இலங்கை
Trincomalee	Kuchchaveli	Divisional Hospital – Nilaveli	False	False	TRNCMLKCHCHVLDVSNLHSPTLNLVL		Trincomalee	LK-53	8.551241	81.092014	Kuchchaweli	PS-530133	8.81895	81.100438	8.681035	81.193632	M5JV+CF6, Nilaveli, Sri Lanka	18.44695		ත්රිකුණාමලය	කුච්චවේලි	ප්‍රාදේශීය රෝහල - නිලාවේලි	திருகோணமலை	குச்சவெளி	பிரதேச மருத்துவமனை - நிலாவெளி	M5JV+CF6, නිලාවේලි, ශ්‍රී ලංකාව	M5JV+CF6, நிலவேலி, இலங்கை
Trincomalee	Pulmoddai	Base Hospital - Pulmoddai	False	False	TRNCMLPLMDDBSHSPTLPLMDD		Trincomalee	LK-53	8.551241	81.092014	Pulmudai	PS-530135	6.915266	79.87829	8.941204	80.983139	WXRM+F7J, Pulmoddai, Sri Lanka	256.112801	#CenterFarFromPolice	ත්රිකුණාමලය	පුල්මොඩෙයි	මූලික රෝහල - පුල්මොඩෙයි	திருகோணமலை	புல்மோட்டை	அடிப்படை மருத்துவமனை - புல்மோட்டை	ඩබ්ලිව්එක්ස්ආර්එම්+එෆ් 7 ජේ, පුල්මොඩෙයි, ශ්‍රී ලංකාව	WXRM+F7J, புல்மோடை, இலங்கை
Trincomalee	Pulmoddai	Muslim National College	False	False	TRNCMLPLMDDMSLMNTNLCLLG		Trincomalee	LK-53	8.551241	81.092014	Pulmudai	PS-530135	6.915266	79.87829	8.940296	80.985139	B60, Pulmoddai, Sri Lanka	256.12882	#CenterFarFromPolice	ත්රිකුණාමලය	පුල්මොඩෙයි	මුස්ලිම් ජාතික විද්‍යාලය	திருகோணமலை	புல்மோட்டை	முஸ்லிம் தேசிய கல்லூரி	බී 60, පුල්මොඩෙයි, ශ්‍රී ලංකාව	பி 60, புல்மோடை, இலங்கை
Trincomalee	Serunuwara	Serunuwara Hospital	False	False	TRNCMLSRNWRSRNWRHSPTL		Trincomalee	LK-53	8.551241	81.092014	Serunuwara	PS-530244	8.321863	81.299322	8.322964	81.299734	Allai-Kantalai Rd, Sri Lanka	0.130589		ත්රිකුණාමලය	සේරුනුවර	සේරුනුවර රෝහල	திருகோணமலை	சேருநுவரா	சேருநுவரா மருத்துவமனை	අල්ලෙයි-කන්තලායි පාර, ශ්‍රී ලංකාව	அல்லை-கந்தளாய் சாலை, இலங்கை
Trincomalee	Kantale	MOH Office – Kanatale	False	False	TRNCMLKNTLMHFFCKNTL		Trincomalee	LK-53	8.551241	81.092014	Kantale	PS-530241	8.356129	81.007739	8.599018	81.217151	H6X8+JV2, Trincomalee, Sri Lanka	35.505652	#CenterFarFromPolice	ත්රිකුණාමලය	කන්තලේ	MOH කාර්යාලය - කනතලේ	திருகோணமலை	கந்தலே	MOH அலுவலகம் - கனடலே	H6X8+JV2, ත්‍රිකුණාමලය, ශ්‍රී ලංකාව	H6X8+JV2, திருகோணமலை, இலங்கை
Trincomalee	Thambalagamuwa	MOH Office - Thambalagamuwa	False	False	TRNCMLTHMBLGMWMHFFCTHMBLGMW		Trincomalee	LK-53	8.551241	81.092014	Thambalagamuva	PS-530243	6.907289	79.863819	8.563603	81.239584	Hospital Ln, Trincomalee, Sri Lanka	238.604889	#CenterFarFromPolice	ත්රිකුණාමලය	තඹලගමුව	MOH කාර්යාලය - තඹලගමුව	திருகோணமலை	தம்பலகாமுவா	MOH அலுவலகம் - தம்பலகமுவ	රෝහල, ත්‍රිකුණාමලය, ශ්‍රී ලංකාව	மருத்துவமனை Ln, திருகோணமலை, இலங்கை
Batticaloa	Batticaloa	Thiraimadu Hospital	False	False	BTTCLBTTCLTHRMDHSPTL		Batticaloa	LK-51	7.792772	81.486513	Batticaloa	PS-510101	7.717949	81.699294	7.749017	81.671387	PMXC+JH2, Batticaloa, Sri Lanka	4.626304		මඩකලපුව	මඩකලපුව	තිරෙයිමඩු රෝහල	மட்டக்களப்பு	மட்டக்களப்பு	திறைமடு மருத்துவமனை	PMXC+JH2, මඩකලපුව, ශ්‍රී ලංකාව	PMXC+JH2, மட்டக்களப்பு, இலங்கை
Batticaloa	Batticaloa	Navalady Hospital	False	False	BTTCLBTTCLNVLDYHSPTL		Batticaloa	LK-51	7.792772	81.486513	Batticaloa	PS-510101	7.717949	81.699294	7.73517	81.709217	Navalady Rd, Batticaloa, Sri Lanka	2.205798		මඩකලපුව	මඩකලපුව	නාවලඩි රෝහල	மட்டக்களப்பு	மட்டக்களப்பு	நவலடி மருத்துவமனை	නාවලඩි පාර, මඩකලපුව, ශ්‍රී ලංකාව	நாவலடி வீதி, மட்டக்களப்பு, இலங்கை
Batticaloa	Eravur	Sandiveli Hospital	False	False	BTTCLRVRSNDVLHSPTL		Batticaloa	LK-51	7.792772	81.486513	Eravur	PS-510104	7.715979	81.698757	7.777289	81.602853	Trincomalee Hwy, Eravur, Sri Lanka	12.578998		මඩකලපුව	එරාවුර්	සඳිවේලි රෝහල	மட்டக்களப்பு	ஏறாவூர்	சண்டிவேலி மருத்துவமனை	ත්‍රිකුණාමලය හ්වි, එරාවුර්, ශ්‍රී ලංකාව	திருகோணமலை Hwy, ஏறாவூர், இலங்கை
Batticaloa	Eravur	MOH Office – Eravur	False	False	BTTCLRVRMHFFCRVR		Batticaloa	LK-51	7.792772	81.486513	Eravur	PS-510104	7.715979	81.698757	7.783664	81.605626	QJM4+F76, Eravur, Sri Lanka	12.729342		මඩකලපුව	එරාවුර්	MOH කාර්යාලය - එරාවුර්	மட்டக்களப்பு	ஏறாவூர்	MOH அலுவலகம் - ஏறாவூர்	QJM4+F76, එරාවුර්, ශ්‍රී ලංකාව	QJM4+F76, ஏறாவூர், இலங்கை
Batticaloa	Eravur	Eravur Hospital	False	False	BTTCLRVRRVRHSPTL		Batticaloa	LK-51	7.792772	81.486513	Eravur	PS-510104	7.715979	81.698757	7.783168	81.605999	QJM4+799, Eravur 30300, Sri Lanka	12.663585		මඩකලපුව	එරාවුර්	එරාවුර් රෝහල	மட்டக்களப்பு	ஏறாவூர்	ஏறாவூர் மருத்துவமனை	QJM4+799, එරාවුර් 30300, ශ්‍රී ලංකාව	QJM4+799, ஏறாவூர் 30300, இலங்கை
Batticaloa	Eravur	Dewapuram Vidyalaya	False	False	BTTCLRVRDWPRMVDYLY		Batticaloa	LK-51	7.792772	81.486513	Eravur	PS-510104	7.715979	81.698757	7.781715	81.601743	Eravur - 04, Chenkaladi, Sri Lanka	12.953304		මඩකලපුව	එරාවුර්	දේවපුරම් විද්‍යාලය	மட்டக்களப்பு	ஏறாவூர்	தேவாபுரம் வித்யாலயா	එරාවුර් - 04, චෙන්කලාඩි, ශ්‍රී ලංකාව	ஏறாவூர் - 04, செங்கலடி, இலங்கை
Batticaloa	Eravur	Kiran Central College	False	False	BTTCLRVRKRNCNTRLCLLG		Batticaloa	LK-51	7.792772	81.486513	Eravur	PS-510104	7.715979	81.698757	7.785947	81.590295	Trincomalee Road, Chenkaladi, Sri Lanka	14.264135		මඩකලපුව	එරාවුර්	කිරන් මධ්‍ය විද්‍යාලය	மட்டக்களப்பு	ஏறாவூர்	கிரண் மத்திய கல்லூரி	ත්‍රිකුණාමලය පාර, චෙන්කලාඩි, ශ්‍රී ලංකාව	திருகோணமலை சாலை, செங்கலடி, இலங்கை
Batticaloa	Vavunathivu	Kottamunai Hospital	False	False	BTTCLVVNTHVKTTMNHSPTL		Batticaloa	LK-51	7.792772	81.486513	Vavunathive	PS-510102	6.933075	79.857181	7.719015	81.701193	91 Pioneer Rd, Batticaloa, Sri Lanka	221.420894	#CenterFarFromPolice	මඩකලපුව	වවුනතිව්	කොට්ටමුනායි රෝහල	மட்டக்களப்பு	வவுணதீவு	கோட்டமுனை மருத்துவமனை	91 පුරෝගාමී පාර, මඩකලපුව, ශ්‍රී ලංකාව	91 முன்னோடி சாலை, மட்டக்களப்பு, இலங்கை
Batticaloa	Vavunathivu	Mandapathadi Hospital	False	False	BTTCLVVNTHVMNDPTHDHSPTL		Batticaloa	LK-51	7.792772	81.486513	Vavunathive	PS-510102	6.933075	79.857181	7.719015	81.701193	91 Pioneer Rd, Batticaloa, Sri Lanka	221.420894	#CenterFarFromPolice	මඩකලපුව	වවුනතිව්	මණ්ඩපතාදි රෝහල	மட்டக்களப்பு	வவுணதீவு	மண்டபத்தடி மருத்துவமனை	91 පුරෝගාමී පාර, මඩකලපුව, ශ්‍රී ලංකාව	91 முன்னோடி சாலை, மட்டக்களப்பு, இலங்கை
Batticaloa	Vavunathivu	Panchenai Pari Vidyalaya	False	False	BTTCLVVNTHVPNCHNPRVDYLY		Batticaloa	LK-51	7.792772	81.486513	Vavunathive	PS-510102	6.933075	79.857181	7.720143	81.700516	PPC2+362, Batticaloa, Sri Lanka	221.401617	#CenterFarFromPolice	මඩකලපුව	වවුනතිව්	පංචේනායි පාරි විද්‍යාලය	மட்டக்களப்பு	வவுணதீவு	பஞ்சேனை பாரி வித்யாலயா	පීපීසී 2+362, මඩකලපුව, ශ්‍රී ලංකාව	PPC2+362, மட்டக்களப்பு, இலங்கை
Batticaloa	Vavunathivu	Kanchanankuda Kamachchi Vidyalaya	False	False	BTTCLVVNTHVKNCHNNKDKMCHCHVDYLY		Batticaloa	LK-51	7.792772	81.486513	Vavunathive	PS-510102	6.933075	79.857181	7.720143	81.700516	PPC2+362, Batticaloa, Sri Lanka	221.401617	#CenterFarFromPolice	මඩකලපුව	වවුනතිව්	කාංචනන්කුඩා කමාච්චි විද්‍යාලය	மட்டக்களப்பு	வவுணதீவு	காஞ்சனாங்குடா காமாச்சி வித்யாலயா	පීපීසී 2+362, මඩකලපුව, ශ්‍රී ලංකාව	PPC2+362, மட்டக்களப்பு, இலங்கை
Batticaloa	Vavunathivu	MOH Office - Vavunathivu	False	False	BTTCLVVNTHVMHFFCVVNTHV		Batticaloa	LK-51	7.792772	81.486513	Vavunathive	PS-510102	6.933075	79.857181	7.708253	81.691368	Hospital Rd, Batticaloa, Sri Lanka	219.95575	#CenterFarFromPolice	මඩකලපුව	වවුනතිව්	MOH කාර්යාලය - වවුනතිව්	மட்டக்களப்பு	வவுணதீவு	MOH அலுவலகம் - வவுணதீவு	රෝහල පාර, මඩකලපුව, ශ්‍රී ලංකාව	மருத்துவமனை சாலை, மட்டக்களப்பு, இலங்கை
Ampara	Ampara	Mobile Medical Team	False	False	MPRMPRMBLMDCLTM		Ampara	LK-52	7.23699	81.550391	Ampara	PS-520113	7.296771	81.677161					#CenterLocationUnknown	අම්පාර	අම්පාර	ජංගම වෛද්‍ය කණ්ඩායම	அம்பாறை	அம்பாறை	மொபைல் மருத்துவ குழு		
Ampara	Chavalakade	MOH Office – Navidanveli	False	False	MPRCHVLKDMHFFCNVDNVL		Ampara	LK-52	7.23699	81.550391	Chawalakade	PS-520125	7.413559	81.776822	7.420081	81.788401	B77, Sri Lanka	1.468805		අම්පාර	චවලකඩේ	MOH කාර්යාලය - නාවිදන්වේලි	அம்பாறை	சவளகடே	MOH அலுவலகம் - நாவிதன்வெளி	බී 77, ශ්‍රී ලංකාව	பி 77, இலங்கை
Ampara	Chavalakade	5th Colony Health Centre	False	False	MPRCHVLKDTHCLNYHLTHCNTR		Ampara	LK-52	7.23699	81.550391	Chawalakade	PS-520125	7.413559	81.776822	7.418836	81.781436	Chavalakade, Sri Lanka	0.776867		අම්පාර	චවලකඩේ	5 වන ජනපද සෞඛ්‍ය මධ්‍යස්ථානය	அம்பாறை	சவளகடே	5 வது காலனி சுகாதார மையம்	චවලකඩේ, ශ්‍රී ලංකාව	சவளகடே, இலங்கை
Ampara	Karaitivu	MOH Office – Karaitivu	False	False	MPRKRTVMHFFCKRTV		Ampara	LK-52	7.23699	81.550391	Karaitivu		9.744059	79.870587	7.377712	81.838796	Colombo-Ratnapura-Wellawaya-Batticaloa Highway, Karativu 32250, Sri Lanka	340.788666	#CenterFarFromPolice	අම්පාර	කාරතිව්	MOH කාර්යාලය - කරෙයිතිව්	அம்பாறை	காரைதீவு	MOH அலுவலகம் - காரைதீவு	කොළඹ-රත්නපුර-වැල්ලවාය-මඩකලපුව අධිවේගී මාර්ගය, කරතිවු 32250, ශ්‍රී ලංකාව	கொழும்பு-இரத்தினபுரி-வெள்ளவாயா-மட்டக்களப்பு நெடுஞ்சாலை, காரடிவு 32250, இலங்கை
Ampara	Thirukkovil	MOH Office - Thirukkovil	False	False	MPRTHRKKVLMHFFCTHRKKVL		Ampara	LK-52	7.23699	81.550391	Thirukkovil	PS-520127	7.113998	81.852219	7.111635	81.852892	Central Rd, Vinayagapuram, Sri Lanka	0.273131		අම්පාර	තිරුක්කෝවිල්	MOH කාර්යාලය - තිරුක්කෝවිල්	அம்பாறை	திருக்கோவில்	MOH அலுவலகம் - திருக்கோவில்	මධ්‍යම පාර, විනයාගපුරම්, ශ්‍රී ලංකාව	மத்திய வீதி, விநாயகபுரம், இலங்கை
Ampara	Thirukkovil	MOH Office - Alayadivembu	False	False	MPRTHRKKVLMHFFCLYDVMB		Ampara	LK-52	7.23699	81.550391	Thirukkovil	PS-520127	7.113998	81.852219	7.111627	81.852984	Courts road Road, Thirukkovil, Sri Lanka	0.276913		අම්පාර	තිරුක්කෝවිල්	එම්ඕඑච් කාර්යාලය - අලයාදිවෙම්බු	அம்பாறை	திருக்கோவில்	MOH அலுவலகம் - ஆலையடிவேம்பு	උසාවි පාර පාර, තිරුක්කෝවිල්, ශ්‍රී ලංකාව	நீதிமன்ற சாலை சாலை, திருக்கோவில், இலங்கை
Ampara	Kalmunai	MOH Office - Kalmunai South	False	False	MPRKLMNMHFFCKLMNSTH		Ampara	LK-52	7.23699	81.550391	Kalmunai	PS-520123	7.414289	81.825006	7.411712	81.838462	CR6Q+M9P, Kalmunai 32300, Sri Lanka	1.511625		අම්පාර	කල්මුණේ	MOH කාර්යාලය - කල්මුණේ දකුණ	அம்பாறை	கல்முனை	MOH அலுவலகம் - கல்முனை தெற்கு	CR6Q+M9P, කල්මුණේ 32300, ශ්‍රී ලංකාව	CR6Q+M9P, கல்முனை 32300, இலங்கை
Ampara	Kalmunai	Ashraf Memorial Hospital	False	False	MPRKLMNSHRFMMRLHSPTL		Ampara	LK-52	7.23699	81.550391	Kalmunai	PS-520123	7.414289	81.825006	7.403172	81.831146	A4, Ashraff Memorial Base Hospital, A4 A4, Kalmunai 32300, Sri Lanka	1.409859		අම්පාර	කල්මුණේ	අෂ්රෆ් අනුස්මරණ රෝහල	அம்பாறை	கல்முனை	அஷ்ரஃப் நினைவு மருத்துவமனை	ඒ 4, අෂ්රොෆ් අනුස්මරණ මූලික රෝහල, ඒ 4 ඒ 4, කල්මුණේ 32300, ශ්‍රී ලංකාව	A4, அஷ்ரஃப் மெமோரியல் பேஸ் ஹாஸ்பிடல், A4 A4, கல்முனை 32300, இலங்கை
Ampara	Sainthamarthu	MOH Office – Sainthamarthu	False	False	MPRSNTHMRTHMHFFCSNTHMRTH		Ampara	LK-52	7.23699	81.550391									#PoliceLocationUnknown	අම්පාර	සයින්දමර්තු	MOH කාර්යාලය - සයින්දමර්තු	அம்பாறை	சாய்ந்தமருது	MOH அலுவலகம் - சாய்ந்தமருது		
Ampara	Sainthamarthu	Sainthamarthu Hospital	False	False	MPRSNTHMRTHSNTHMRTHHSPTL		Ampara	LK-52	7.23699	81.550391									#PoliceLocationUnknown	අම්පාර	සයින්දමර්තු	සයින්දමර්තු රෝහල	அம்பாறை	சாய்ந்தமருது	சாய்ந்தமருது மருத்துவமனை		
Ampara	Pottuvil	Mobile Vaccination	False	False	MPRPTTVLMBLVCCNTN		Ampara	LK-52	7.23699	81.550391	Pothuvil	PS-520128	6.878387	81.826859					#CenterLocationUnknown	අම්පාර	පොතුවිල්	ජංගම එන්නත	அம்பாறை	பொட்டுவில்	மொபைல் தடுப்பூசி		
Ampara	Pottuvil	Base Hospital – Pottuvil	False	False	MPRPTTVLBSHSPTLPTTVL		Ampara	LK-52	7.23699	81.550391	Pothuvil	PS-520128	6.878387	81.826859	6.876098	81.830463	Main Street Colombo - Batticaloa Hwy, Pottuvil 32500, Sri Lanka	0.47246		අම්පාර	පොතුවිල්	මූලික රෝහල - පොතුවිල්	அம்பாறை	பொட்டுவில்	அடிப்படை மருத்துவமனை - பொத்துவில்	කොළඹ ප්‍රධාන වීදිය - මඩකලපුව හ්වි, පොතුවිල් 32500, ශ්‍රී ලංකාව	பிரதான வீதி கொழும்பு - மட்டக்களப்பு Hwy, பொத்துவில் 32500, இலங்கை
Ampara	Pottuvil	GN – Sengamam	False	False	MPRPTTVLGNSNGMM		Ampara	LK-52	7.23699	81.550391	Pothuvil	PS-520128	6.878387	81.826859	6.867891	81.839008	Muhudu Maha Vihara Mawatha, Pottuvil, Sri Lanka	1.778462		අම්පාර	පොතුවිල්	ජීඑන් - සෙංගම්	அம்பாறை	பொட்டுவில்	ஜிஎன் - செங்கம்	මුහුදු මහා විහාර මාවත, පොතුවිල්, ශ්‍රී ලංකාව	முஹுது மகா விகார மாவத்தை, பொத்துவில், இலங்கை
Ampara	Pottuvil	Urani Kangar Vidyalaya	False	False	MPRPTTVLRNKNGRVDYLY		Ampara	LK-52	7.23699	81.550391	Pothuvil	PS-520128	6.878387	81.826859	7.739125	81.677467	Urani, Batticaloa, Sri Lanka	97.148053	#CenterFarFromPolice	අම්පාර	පොතුවිල්	යුරේනි කැන්ගර් විද්‍යාලය	அம்பாறை	பொட்டுவில்	ஊரணி கங்கர் வித்யாலயா	යුරේනි, මඩකලපුව, ශ්‍රී ලංකාව	ஊரணி, மட்டக்களப்பு, இலங்கை
Ampara	Pottuvil	Al Hidayah Vidyalaya	False	False	MPRPTTVLLHDYHVDYLY		Ampara	LK-52	7.23699	81.550391	Pothuvil	PS-520128	6.878387	81.826859	6.878199	81.841868	VRHR+7PH, Pottuvil, Sri Lanka	1.657565		අම්පාර	පොතුවිල්	අල් හිදායා විද්‍යාලය	அம்பாறை	பொட்டுவில்	அல் ஹிதாயா வித்யாலயா	වීආර්එච්ආර්+7 පීඑච්, පොතුවිල්, ශ්‍රී ලංකාව	VRHR+7PH, பொத்துவில், இலங்கை
Ampara	Pottuvil	Hulannuge Vidyalaya	False	False	MPRPTTVLHLNNGVDYLY		Ampara	LK-52	7.23699	81.550391	Pothuvil	PS-520128	6.878387	81.826859	6.954907	81.669253	Hulannuge, Sri Lanka	19.372753		අම්පාර	පොතුවිල්	හුලන්නුගේ විද්‍යාලය	அம்பாறை	பொட்டுவில்	ஹுலன்னுகே வித்யாலயா	හුලන්නුගේ, ශ්‍රී ලංකාව	ஹுலன்னுகே, இலங்கை
Ampara	Akkaraipattu	MOH Office – Addalachenai	False	False	MPRKKRPTTMHFFCDDLCHN		Ampara	LK-52	7.23699	81.550391	Akkaraipattu	PS-520126	7.216084	81.853254	7.260916	81.853493	7V63+999, Addalaichenai, Sri Lanka	4.986726		අම්පාර	අක්කරපත්තුව	MOH කාර්යාලය - අද්දලචේනයි	அம்பாறை	அக்கரைப்பற்று	MOH அலுவலகம் - ஆடலச்சேனை	7V63+999, අද්දලෙයිචේනෙයි, ශ්‍රී ලංකාව	7V63+999, அடிலைச்சேனை, இலங்கை
Ampara	Sammanthurai	MOH Office – Sammanthurai	False	False	MPRSMMNTHRMHFFCSMMNTHR		Ampara	LK-52	7.23699	81.550391	Samanthurai	PS-520124	7.365785	81.810859	7.369857	81.812264	9R96+WWR, Sammanthurai, Sri Lanka	0.478712		අම්පාර	සමන්තුරේ	MOH කාර්යාලය - සම්මන්තුරේ	அம்பாறை	சம்மாந்துறை	MOH அலுவலகம் - சம்மாந்துறை	9R96+ඩබ්ලිව්ඩබ්ලිව්ආර්, සම්මන්තුරේ, ශ්‍රී ලංකාව	9R96+WWR, சம்மாந்துறை, இலங்கை
Ampara	Sammanthurai	MOH Office – Nintavur	False	False	MPRSMMNTHRMHFFCNNTVR		Ampara	LK-52	7.23699	81.550391	Samanthurai	PS-520124	7.365785	81.810859	7.352821	81.856939	Hospital Rd, Nintavur 32340, Sri Lanka	5.283925		අම්පාර	සමන්තුරේ	එම්ඕඑච් කාර්යාලය - නින්දවූර්	அம்பாறை	சம்மாந்துறை	MOH அலுவலகம் - நிந்தவூர்	රෝහල පාර, නින්දවූර් 32340, ශ්‍රී ලංකාව	மருத்துவமனை Rd, நிந்தவூர் 32340, இலங்கை
