district	police	center	dose1	dose2	fuzzy_key	alt_name	district_name_norm	district_id	district_lat	district_lng	ps_name_norm	ps_id	ps_lat	ps_lng	lat	lng	formatted_address	dis_center_to_police	tags
Colombo	Cinnamon Gardens	Viharamahadevi Park	True	True	CLMBCNNMNGRDNSVHRMHDVPRK		Colombo	LK-11	6.869636	80.019598	Cinnamon Garden	PS-110324	6.907289	79.863819	6.913391	79.86174	Viharamahadevi Park, Colombo, Sri Lanka	0.716497	
Colombo	Thalangama	Diyatha Uyana	True	True	CLMBTHLNGMDYTHYN		Colombo	LK-11	6.869636	80.019598	Thalangama	PS-110466	6.91089	79.929325	6.904575	79.909831	Diyatha Uyana, B240, Sri Jayawardenepura Kotte, Sri Lanka	2.264281	
Colombo	Grandpass	Sugathadasa Outdoor Stadium	True	True	CLMBGRNDPSSSGTHDSTDRSTDM		Colombo	LK-11	6.869636	80.019598	Grandpass	PS-110215	6.949052	79.872983	6.94806	79.868842	Prince of Wales Ave, Colombo 01400, Sri Lanka	0.470345	
Colombo	Narahenpita	Army Hospital Narahenpita	False	False	CLMBNRHNPTRMYHSPTLNRHNPT		Colombo	LK-11	6.869636	80.019598	Narahenpita	PS-110321	6.891832	79.876715	6.900252	79.87618	08 Elvitigala Mawatha, Colombo 00800, Sri Lanka	0.938417	
Colombo	Narahenpita	Army Headquarters Mobile Team	False	False	CLMBNRHNPTRMYHDQRTRSMBLTM		Colombo	LK-11	6.869636	80.019598	Narahenpita	PS-110321	6.891832	79.876715					#CenterLocationUnknown
Colombo	Borella	St. Luke's Church - Borella	False	False	CLMBBRLLSTLKSCHRCHBRLL		Colombo	LK-11	6.869636	80.019598	Borella	PS-110323	6.915266	79.87829	6.918035	79.874548	1091 Gnanartha Pradeepa Mawatha, Colombo 00800, Sri Lanka	0.515354	
Colombo	Borella	Campbell Park	False	False	CLMBBRLLCMPBLLPRK		Colombo	LK-11	6.869636	80.019598	Borella	PS-110323	6.915266	79.87829	6.920163	79.877108	Campbell Park, Colombo, Sri Lanka	0.560111	
Colombo	Boralesgamuwa	Kotelawala Defence Hospital	False	True	CLMBBRLSGMWKTLWLDFNCHSPTL		Colombo	LK-11	6.869636	80.019598	Boralesgamuwa	PS-110464	6.841331	79.901255	6.82518	79.907167	RWG4+3VF, Boralesgamuwa, Sri Lanka	1.911444	
Colombo	Maradana	National Hospital - Colombo	False	False	CLMBMRDNNTNLHSPTLCLMB		Colombo	LK-11	6.869636	80.019598	Maradana	PS-110107	6.927939	79.865471	6.918743	79.868992	Colombo 00700, Sri Lanka	1.094265	
Colombo	Fort	Navy Headquarters	False	False	CLMBFRTNVYHDQRTRS		Colombo	LK-11	6.869636	80.019598	Fort	PS-110105	6.9334	79.842895	6.936952	79.842104	WRPR+QRQ, Colombo, Sri Lanka	0.404627	
Colombo	Wellawatta	MOH Office - Wellawatta	False	False	CLMBWLLWTTMHFFCWLLWTT		Colombo	LK-11	6.869636	80.019598	Wellawatta	PS-110320	6.873107	79.86167	6.874483	79.861558	235 Galle Rd, Colombo, Sri Lanka	0.153551	
Colombo	Kosgama	Kosgama Hospital	False	False	CLMBKSGMKSGMHSPTL		Colombo	LK-11	6.869636	80.019598	Kosgama	PS-920227	6.946597	80.137869	6.940956	80.124888	Salawa-Akarawita, 10730, Sri Lanka	1.564606	
Colombo	Fore shore	MOH Office - Jinthupitiya	False	False	CLMBFRSHRMHFFCJNTHPTY		Colombo	LK-11	6.869636	80.019598	Fore shore	PS-110210	6.949589	79.857355	6.943258	79.859238	No.27 Vivekananda Hill, Colombo 01300, Sri Lanka	0.734247	
Gampaha	Gampaha	MOH Office - Gampaha	False	False	GMPHGMPHMHFFCGMPH		Gampaha	LK-12	7.123598	80.018508	Gampaha	PS-120237	7.087765	80.01228	7.090643	80.002094	Colombo Rd, Gampaha, Sri Lanka	1.16901	
Gampaha	Pugoda	MOH Office - Dompe	False	False	GMPHPGDMHFFCDMP		Gampaha	LK-12	7.123598	80.018508	Pugoda	PS-120241	6.98283	80.111189	6.976767	80.117422	Dompe, Pugoda-Mandawala Rd, Pugoda, Sri Lanka	0.963513	
Gampaha	Mirigama	Walbothale Viharaya	False	False	GMPHMRGMWLBTHLVHRY		Gampaha	LK-12	7.123598	80.018508	Meerigama	PS-120248	7.245169	80.128647	7.271465	80.139476	Warakapola-Kandalama Rd, Sri Lanka	3.159544	
Gampaha	Minuwangoda	MOH Office- Minuwangoda	False	False	GMPHMNWNGDMHFFCMNWNGD		Gampaha	LK-12	7.123598	80.018508	Minuwangoda	PS-120238	7.174215	79.957874	7.17227	79.956823	Katunayake-Veyangoda Rd, Minuwangoda, Sri Lanka	0.245525	
Gampaha	Nittambuwa	Ellalamulla Muslim Vidyalaya	False	False	GMPHNTTMBWLLLMLLMSLMVDYLY		Gampaha	LK-12	7.123598	80.018508	Nittambuwa	PS-120246	7.149726	80.10046	7.147703	80.099912	A1, Nittambuwa, Sri Lanka	0.233004	
Gampaha	Nittambuwa	Sanghabodhi Vidyalaya	False	False	GMPHNTTMBWSNGHBDHVDYLY		Gampaha	LK-12	7.123598	80.018508	Nittambuwa	PS-120246	7.149726	80.10046	7.132766	80.082302	A1, Nittambuwa, Sri Lanka	2.752256	
Gampaha	Nittambuwa	Kuruwalana Primary School	False	False	GMPHNTTMBWKRWLNPRMRYSCHL		Gampaha	LK-12	7.123598	80.018508	Nittambuwa	PS-120246	7.149726	80.10046	7.096362	80.145942	290 Nittambuwa - Ruwanwella Rd, Urapola, Sri Lanka	7.773781	
Gampaha	Kadawatha	Enderamulla	False	False	GMPHKDWTHNDRMLL		Gampaha	LK-12	7.123598	80.018508	Kadawatha	PS-120136	7.00152	79.95003	6.997784	79.918981	Enderamulla, Sri Lanka	3.452932	
Gampaha	Peliyagoda	Manning Market	False	False	GMPHPLYGDMNNNGMRKT		Gampaha	LK-12	7.123598	80.018508	Peliyagoda	PS-120125	6.955193	79.88612	6.967611	79.890042	New Manning Market, Oliyamulla, Peliyagoda, Sri Lanka	1.447539	
Gampaha	Katana	MOH Office - Katana	False	False	GMPHKTNMHFFCKTN		Gampaha	LK-12	7.123598	80.018508	Katana	PS-120360	7.224796	79.880015	7.22436	79.88271	Katana, Negombo - Mirigama Rd, Negombo, Sri Lanka	0.301313	
Gampaha	Dungalpitiya	Pitipana Maternity Clinic	False	False	GMPHDNGLPTYPTPNMTRNTYCLNC		Gampaha	LK-12	7.123598	80.018508	Dungalpitiya	PS-120361	7.139226	79.833543	7.170735	79.824995	5RCF+7XX, Negombo, Sri Lanka	3.629353	
Gampaha	Biyagama	MOH Office - Biyagama	False	False	GMPHBYGMMHFFCBYGM		Gampaha	LK-12	7.123598	80.018508	Biyagama	PS-120131	6.962284	80.009037	6.946824	79.994052	Hospital Rd, Sri Lanka	2.386313	
Gampaha	Negombo	Town Hall - Negombo	False	False	GMPHNGMBTWNHLLNGMB		Gampaha	LK-12	7.123598	80.018508	Negombo	PS-120351	7.224796	79.880015	7.206667	79.851863	Negombo, Sri Lanka	3.703623	
Gampaha	Negombo	Munnakkara Aliyapola Hall	False	False	GMPHNGMBMNNKKRLYPLHLL		Gampaha	LK-12	7.123598	80.018508	Negombo	PS-120351	7.224796	79.880015	7.203551	79.833176	Munnakkara, Negombo, Sri Lanka	5.683229	
Gampaha	Ja Ela	MOH Office - Ja Ela	False	False	GMPHJLMHFFCJL		Gampaha	LK-12	7.123598	80.018508	Ja - Ela	PS-120133	7.081055	79.890504	7.075216	79.893879	60 Mount Kalvary Rd, Ja-Ela, Sri Lanka	0.748731	
Gampaha	Wattala	MOH Office - Wattala	False	False	GMPHWTTLMHFFCWTTL		Gampaha	LK-12	7.123598	80.018508	Wattala	PS-120128	6.993713	79.894506	6.995817	79.885793	301 Hendala Rd, Wattala, Sri Lanka	0.989991	
Gampaha	Ragama	MOH Office - Ragama	False	False	GMPHRGMMHFFCRGM		Gampaha	LK-12	7.123598	80.018508	Ragama	PS-120134	7.034975	79.924148	7.027386	79.920232	2WGC+X35, Ragama, Sri Lanka	0.948382	
Gampaha	Divulapitiya	MOH Office - Divulapitiya	False	False	GMPHDVLPTYMHFFCDVLPTY		Gampaha	LK-12	7.123598	80.018508	Diulapitiya	PS-120355	7.174215	79.957874	7.215486	80.013606	6287+5CX, Divulapitiya, Sri Lanka	7.67456	
Gampaha	Seeduwa	MOH Office - Seeduwa	False	False	GMPHSDWMHFFCSDW		Gampaha	LK-12	7.123598	80.018508	Seeduwa	PS-120356	7.128721	79.877371	7.131527	79.879964	24 Kotugoda Rd, Katunayake 11410, Sri Lanka	0.423459	
Kalutara	Kalutara South	Mobile Medical Team	True	True	KLTRKLTRSTHMBLMDCLTM		Kalutara	LK-13	6.577316	80.127363	Kalutara South	PS-130296	6.58486	79.961043					#CenterLocationUnknown
Kalutara	Kalutara South	NIHS	False	False	KLTRKLTRSTHNHS		Kalutara	LK-13	6.577316	80.127363	Kalutara South	PS-130296	6.58486	79.961043	6.55864	79.977416	HX5G+FX3, Katukurunda, Sri Lanka	3.432035	
Kalutara	Kalutara South	Sumanarama Viharaya	False	False	KLTRKLTRSTHSMNRMVHRY		Kalutara	LK-13	6.577316	80.127363	Kalutara South	PS-130296	6.58486	79.961043	6.586943	79.960167	Galle Rd, Kalutara, Sri Lanka	0.251098	
Kalutara	Kalutara South	St. Marys Church - Kalamulla	False	False	KLTRKLTRSTHSTMRYSCHRCHKLMLL		Kalutara	LK-13	6.577316	80.127363	Kalutara South	PS-130296	6.58486	79.961043	6.552545	79.968206	HX39+278, Katukurunda, Sri Lanka	3.680508	
Kalutara	Kalutara South	Katukurunda Roman Catholic College	False	False	KLTRKLTRSTHKTKRNDRMNCTHLCCLLG		Kalutara	LK-13	6.577316	80.127363	Kalutara South	PS-130296	6.58486	79.961043	6.560856	79.96637	HX68+8GX, Kalutara, Sri Lanka	2.734076	
Kalutara	Ingiriya	District Hospital - Ingiriya	False	False	KLTRNGRYDSTRCTHSPTLNGRY		Kalutara	LK-13	6.577316	80.127363	Ingiriya	PS-130193	6.743614	80.175077	6.741114	80.162065	Ratnapura - Horana - Panadura Hwy, Ingiriya, Sri Lanka	1.463965	
Kalutara	Ingiriya	Manana Primary School	False	False	KLTRNGRYMNNPRMRYSCHL		Kalutara	LK-13	6.577316	80.127363	Ingiriya	PS-130193	6.743614	80.175077	6.743144	80.173955	P5VF+7H4, Ingiriya, Sri Lanka	0.134511	
Kalutara	Ingiriya	Arakawila Vidyalya	False	False	KLTRNGRYRKWLVDYLY		Kalutara	LK-13	6.577316	80.127363	Ingiriya	PS-130193	6.743614	80.175077	6.810234	80.145767	R46W+38R, Colombo, Sri Lanka	8.086445	
Kalutara	Beruwala	MOH Office - Beruwala	False	False	KLTRBRWLMHFFCBRWL		Kalutara	LK-13	6.577316	80.127363	Beruwala	PS-1302102	6.480329	79.983498	6.437559	79.999356	CXQX+2PH, Aluthgama, Sri Lanka	5.069893	
Kalutara	Matugama	Katugahahena Rural Hospital	False	False	KLTRMTGMKTGHHNRRLHSPTL		Kalutara	LK-13	6.577316	80.127363	Mathugama	PS-1302103	6.520881	80.117908	6.489328	80.08471	F3QM+PVP, Bopitiya, Sri Lanka	5.077192	
Kalutara	Matugama	MOH Office - Matugama	False	False	KLTRMTGMMHFFCMTGM		Kalutara	LK-13	6.577316	80.127363	Mathugama	PS-1302103	6.520881	80.117908	6.523544	80.126443	G4FG+CH8, Matugama, Sri Lanka	0.988725	
Kalutara	Baduraliya	Baduraliya Hospital	False	False	KLTRBDRLYBDRLYHSPTL		Kalutara	LK-13	6.577316	80.127363	Baduraliya	PS-1302106	6.516756	80.226716	6.514727	80.232731	Tiruwanaketiya-Agalawatte Rd, Baduraliya, Sri Lanka	0.702098	
Kalutara	Wadduwa	Pinwattameda Viharaya	False	False	KLTRWDDWPNWTTMDVHRY		Kalutara	LK-13	6.577316	80.127363	Wadduwa	PS-130188	6.664403	79.929851	6.586943	79.960167	Galle Rd, Kalutara, Sri Lanka	9.244046	
Kalutara	Wadduwa	Mobile Vaccination	False	False	KLTRWDDWMBLVCCNTN		Kalutara	LK-13	6.577316	80.127363	Wadduwa	PS-130188	6.664403	79.929851					#CenterLocationUnknown
Kalutara	Wadduwa	Daladawatta Purana Viharaya	False	False	KLTRWDDWDLDWTTPRNVHRY		Kalutara	LK-13	6.577316	80.127363	Wadduwa	PS-130188	6.664403	79.929851	6.676675	79.930885	Thalpitiya, Wadduwa, Sri Lanka	1.369784	
Kalutara	Bandragama	Batadombathulawa Community Hall	False	False	KLTRBNDRGMBTDMBTHLWCMMNTYHLL		Kalutara	LK-13	6.577316	80.127363	Bandaragama	PS-130189	6.715179	79.987674	6.715589	80.062323	10 Horana - Anguruwatota - Mathugama - Aluthgama Road, Horana, Sri Lanka	8.246356	
Kalutara	Millaniya	Mobile Vaccination	False	False	KLTRMLLNYMBLVCCNTN		Kalutara	LK-13	6.577316	80.127363	Millaniya	PS-130191	6.681692	80.020847					#CenterLocationUnknown
Kalutara	Agalawatta	Pimbura Hospital	False	False	KLTRGLWTTPMBRHSPTL		Kalutara	LK-13	6.577316	80.127363	Agalawatta		6.542566	80.157178	6.575949	80.158371	H5G5+98H, කළුතර, Sri Lanka	3.715525	
Kalutara	Meegahathenna	MOH Office - Meegahathenna	False	False	KLTRMGHTHNNMHFFCMGHTHNN		Kalutara	LK-13	6.577316	80.127363	Meegahathenna	PS-1302107	6.436941	80.1943	6.435016	80.198501	B158, Meegahathenna, Sri Lanka	0.511322	
Kalutara	Bulathsinhala	Govinna Vidyalaya	False	False	KLTRBLTHSNHLGVNNVDYLY		Kalutara	LK-13	6.577316	80.127363	Bulathsinhala	PS-1302104	6.650425	80.17703	6.675766	80.117904	M4G9+852, Govinna, Sri Lanka	7.114349	
Kurunegala	Kurunegala	Mobile Medical Team	False	False	KRNGLKRNGLMBLMDCLTM		Kurunegala	LK-61	7.66477	80.23677	Kurunegala	PS-610101	7.485852	80.364137					#CenterLocationUnknown
Kurunegala	Kurunegala	Sri John Kotelawala Vidyalaya	False	False	KRNGLKRNGLSRJHNKTLWLVDYLY		Kurunegala	LK-61	7.66477	80.23677	Kurunegala	PS-610101	7.485852	80.364137	7.494346	80.368997	Dambulla Rd, Kurunegala, Sri Lanka	1.086222	
Kurunegala	Kurunegala	Kudagalgamuwa Vidyalaya	False	False	KRNGLKRNGLKDGLGMWVDYLY		Kurunegala	LK-61	7.66477	80.23677	Kurunegala	PS-610101	7.485852	80.364137	7.560664	80.340109	kudagalgamuwa, northwestern province, Kudagalgamuwa, Sri Lanka	8.732982	
Kurunegala	Kurunegala	Piduruwellegama Vidyalaya	False	False	KRNGLKRNGLPDRWLLGMVDYLY		Kurunegala	LK-61	7.66477	80.23677	Kurunegala	PS-610101	7.485852	80.364137	7.489816	80.357359	Katugastota - Kurunegala - Puttalam Hwy, Kurunegala, Sri Lanka	0.867838	
Kurunegala	Kurunegala	Minhettiya Vidyalaya	False	False	KRNGLKRNGLMNHTTYVDYLY		Kurunegala	LK-61	7.66477	80.23677	Kurunegala	PS-610101	7.485852	80.364137	7.582599	80.309256	northwestern province, Minhettiya, Sri Lanka	12.346073	
Kurunegala	Wellawa	Hunupola Primary School	False	False	KRNGLWLLWHNPLPRMRYSCHL		Kurunegala	LK-61	7.66477	80.23677	Wellawa	PS-610107	7.554523	80.368896	7.590864	80.353028	Rangama-Gonagama Rd, Sri Lanka	4.404601	
Kurunegala	Mawathagama	Mawathagama Samodaya Hall	False	False	KRNGLMWTHGMMWTHGMSMDYHLL		Kurunegala	LK-61	7.66477	80.23677	Mawathagama	PS-610109	7.432976	80.449904	7.47685	80.390308	Mallawapitiya, Sri Lanka	8.186411	
Kurunegala	Wariyapola	Malagane Vidyalaya	False	False	KRNGLWRYPLMLGNVDYLY		Kurunegala	LK-61	7.66477	80.23677	Wariyapola	PS-610105	7.628129	80.241019	7.666486	80.27796	M78H+H5W, Kurunegala, Sri Lanka	5.898046	
Kurunegala	Maho	Moragaswewa Vidyalaya	False	False	KRNGLMHMRGSWWVDYLY		Kurunegala	LK-61	7.66477	80.23677	Maho	PS-610324	7.824001	80.28038	8.032461	80.77137	2QJC+XGQ, Moragaswewa, Sri Lanka	58.850986	#CenterFarFromPolice
Kurunegala	Maho	Palugaswewa Viharaya	False	False	KRNGLMHPLGSWWVHRY		Kurunegala	LK-61	7.66477	80.23677	Maho	PS-610324	7.824001	80.28038	7.7358	80.314186	P8P7+8M7, Maho, Sri Lanka	10.494179	
Kurunegala	Maho	Ipalogama Viharaya	False	False	KRNGLMHPLGMVHRY		Kurunegala	LK-61	7.66477	80.23677	Maho	PS-610324	7.824001	80.28038	7.819522	80.212288	Ipalogama, Maho,, Kurunegala, Sri Lanka	7.519917	
Kurunegala	Ambanpola	Amunugama Society Hall	False	False	KRNGLMBNPLMNGMSCTYHLL		Kurunegala	LK-61	7.66477	80.23677	Ambanpola	PS-610325	7.917018	80.243862	7.929265	80.257222	Amunugama, Sri Lanka	2.005493	
Kurunegala	Ambanpola	Kasikotte West Community Hall	False	False	KRNGLMBNPLKSKTTWSTCMMNTYHLL		Kurunegala	LK-61	7.66477	80.23677	Ambanpola	PS-610325	7.917018	80.243862	7.920094	80.239117	Kurunegala Road, Galgamuwa, Sri Lanka	0.624766	
Kurunegala	Ambanpola	Ambanpola North Community Hall	False	False	KRNGLMBNPLMBNPLNRTHCMMNTYHLL		Kurunegala	LK-61	7.66477	80.23677	Ambanpola	PS-610325	7.917018	80.243862	7.919774	80.239233	W69Q+WM5, Ambanpola, Sri Lanka	0.595017	
Kurunegala	Rasnayakapura	Malpanawa Community Hall	False	False	KRNGLRSNYKPRMLPNWCMMNTYHLL		Kurunegala	LK-61	7.66477	80.23677	Rasnayakapura	PS-610323	7.776658	80.012692	7.775358	80.021998	Q2GC+4QX, Puttalam, Sri Lanka	1.03573	
Kurunegala	Rasnayakapura	Koralayagama Community Hall	False	False	KRNGLRSNYKPRKRLYGMCMMNTYHLL		Kurunegala	LK-61	7.66477	80.23677	Rasnayakapura	PS-610323	7.776658	80.012692	7.481465	80.35357	F9J3+HCP, Kurunegala, Sri Lanka	49.903468	#CenterFarFromPolice
Kurunegala	Rasnayakapura	Magurankadawala Community Hall	False	False	KRNGLRSNYKPRMGRNKDWLCMMNTYHLL		Kurunegala	LK-61	7.66477	80.23677	Rasnayakapura	PS-610323	7.776658	80.012692	7.481465	80.35357	F9J3+HCP, Kurunegala, Sri Lanka	49.903468	#CenterFarFromPolice
Kurunegala	Rasnayakapura	Subhasinhapura Community Hall	False	False	KRNGLRSNYKPRSBHSNHPRCMMNTYHLL		Kurunegala	LK-61	7.66477	80.23677	Rasnayakapura	PS-610323	7.776658	80.012692	7.775358	80.021998	Q2GC+4QX, Puttalam, Sri Lanka	1.03573	
Kurunegala	Pannala	Thalammehera Viharaya	False	False	KRNGLPNNLTHLMMHRVHRY		Kurunegala	LK-61	7.66477	80.23677	Pannala	PS-610214	7.327738	80.021761	7.324637	80.015852	Unnamed Road, Pannala, Sri Lanka	0.737519	
Kurunegala	Pannala	Mellawana Cultural Centre	False	False	KRNGLPNNLMLLWNCLTRLCNTR		Kurunegala	LK-61	7.66477	80.23677	Pannala	PS-610214	7.327738	80.021761	7.327113	80.02619	Negombo-Kurunegala Rd, Pannala, Sri Lanka	0.49355	
Kurunegala	Giriulla	Weththewa Hospital	False	False	KRNGLGRLLWTHTHWHSPTL		Kurunegala	LK-61	7.66477	80.23677	Giriulla	PS-610215	7.334527	80.125021	6.523087	80.125192	District Hospital, Hospital Road,Weththewa,., Matugama, Sri Lanka	90.256338	#CenterFarFromPolice
Kurunegala	Giriulla	Kudumunna Vidyalaya	False	False	KRNGLGRLLKDMNNVDYLY		Kurunegala	LK-61	7.66477	80.23677	Giriulla	PS-610215	7.334527	80.125021	7.326725	80.118281	Wickramashila National school, Giriulla, Negombo-Kurunegala Rd, Giriulla, Sri Lanka	1.142798	
Kurunegala	Kobaigane	Halmillakotuwa Vidyalaya	False	False	KRNGLKBGNHLMLLKTWVDYLY		Kurunegala	LK-61	7.66477	80.23677	Kobeigane	PS-610321	7.656934	80.126283	7.626576	80.126547	B167, Sri Lanka	3.376841	
Puttalam	Arachchikattuwa	MOH Office – Arachchikattuwa	False	False	PTTLMRCHCHKTTWMHFFCRCHCHKTTW		Puttalam	LK-62	7.973531	79.913833	Arachchikattuwa	PS-620247	7.65944	79.837772	7.668084	79.835	Puttalam - Colombo Rd, Sri Lanka	1.008862	
Puttalam	Anamaduwa	MOH Office – Anamaduwa	False	False	PTTLMNMDWMHFFCNMDW		Puttalam	LK-62	7.973531	79.913833	Anamaduwa	PS-620131	7.874852	80.01316	7.889992	80.010421	V2Q6+X5V, Anamaduwa, Sri Lanka	1.710846	
Puttalam	Pallama	MOH Office – Pallama	False	False	PTTLMPLLMMHFFCPLLM		Puttalam	LK-62	7.973531	79.913833	Pallama	PS-620132	7.691904	79.922555	7.696268	79.922552	Bangadeniya-Andigama-Anamaduwa Rd, Sri Lanka	0.485407	
Puttalam	Pallama	Agunawila Sanasa Hall	False	False	PTTLMPLLMGNWLSNSHLL		Puttalam	LK-62	7.973531	79.913833	Pallama	PS-620132	7.691904	79.922555	7.774444	79.865556	Agunawila Wewa, Agunawila Mundal, Sri Lanka	11.124602	
Puttalam	Pallama	Mandalana Vidyalaya	False	False	PTTLMPLLMMNDLNVDYLY		Puttalam	LK-62	7.973531	79.913833	Pallama	PS-620132	7.691904	79.922555	7.684519	79.918904	Puttalam, Sri Lanka	0.914722	
Puttalam	Pallama	Mobile Vaccination	False	False	PTTLMPLLMMBLVCCNTN		Puttalam	LK-62	7.973531	79.913833	Pallama	PS-620132	7.691904	79.922555					#CenterLocationUnknown
Puttalam	Chilaw	District General Hospital -Chilaw	False	False	PTTLMCHLWDSTRCTGNRLHSPTLCHLW		Puttalam	LK-62	7.973531	79.913833	Chilaw	PS-620241	7.576197	79.788003	7.571231	79.796513	HQCW+FJR, Chilaw, Sri Lanka	1.088821	
Puttalam	Marawila	St. Xavier's Central College	False	False	PTTLMMRWLSTXVRSCNTRLCLLG		Puttalam	LK-62	7.973531	79.913833	Marawila	PS-620243	7.415075	79.839776	7.415554	79.830995	A3, Marawila, Sri Lanka	0.970005	
Kandy	Kandy	Mobile Medical Team	False	False	KNDYKNDYMBLMDCLTM		Kandy	LK-21	7.27337	80.709602	Kandy	PS-210101	7.292948	80.642368					#CenterLocationUnknown
Kandy	Kandy	Technical Aruppola – Kandy	False	False	KNDYKNDYTCHNCLRPPLKNDY		Kandy	LK-21	7.27337	80.709602	Kandy	PS-210101	7.292948	80.642368	7.309934	80.644831	47 Aruppola Watta Rd, Kandy 20000, Sri Lanka	1.908791	
Kandy	Kandy	Pushpadhana Balika Vidyalaya	False	False	KNDYKNDYPSHPDHNBLKVDYLY		Kandy	LK-21	7.27337	80.709602	Kandy	PS-210101	7.292948	80.642368	7.293989	80.633	16 Kandy Rd, Kandy 20000, Sri Lanka	1.040036	
Kandy	Hasalaka	Ranasingha Premadasa National School	False	False	KNDYHSLKRNSNGHPRMDSNTNLSCHL		Kandy	LK-21	7.27337	80.709602	Hasalaka	PS-210362	7.353096	80.95444	7.349827	80.950564	Kandy-Mahiyangane-Padiyatalawa Hwy, Hasalaka, Sri Lanka	0.561284	
Kandy	Hasalaka	Handaganawa Maha Vidyalaya	False	False	KNDYHSLKHNDGNWMHVDYLY		Kandy	LK-21	7.27337	80.709602	Hasalaka	PS-210362	7.353096	80.95444	7.436171	80.952565	Udawela, Sri Lanka	9.242733	
Kandy	Alawatugoda	Azhar Muslim College	False	False	KNDYLWTGDZHRMSLMCLLG		Kandy	LK-21	7.27337	80.709602	Alawathugoda	PS-210113	7.38828	80.618824	7.373307	80.619683	261/1 higurumuthuna road, Akurana, Sri Lanka	1.668138	
Kandy	Alawatugoda	Alawatugoda National College	False	False	KNDYLWTGDLWTGDNTNLCLLG		Kandy	LK-21	7.27337	80.709602	Alawathugoda	PS-210113	7.38828	80.618824	7.401214	80.613091	A9, Sri Lanka	1.571498	
Kandy	Talathuoya	Urban Development Authority	False	False	KNDYTLTHYRBNDVLPMNTTHRTY		Kandy	LK-21	7.27337	80.709602	Thalathuoya	PS-210107	7.25166	80.689528	7.289626	80.633407	Urban Development Authority, Baladaksha Mawatha, Kandy, Sri Lanka	7.495058	
Kandy	Talathuoya	Samurdhi Bank – Mulgampola	False	False	KNDYTLTHYSMRDHBNKMLGMPL		Kandy	LK-21	7.27337	80.709602	Thalathuoya	PS-210107	7.25166	80.689528	7.275541	80.615018	659, 758 William Gopallawa Mawatha, Kandy, Sri Lanka	8.639697	
Kandy	Talathuoya	GN – Deiyandara	False	False	KNDYTLTHYGNDYNDR		Kandy	LK-21	7.27337	80.709602	Thalathuoya	PS-210107	7.25166	80.689528	6.15257	80.602855	Deiyandara, Sri Lanka	122.625959	#CenterFarFromPolice
Nuwara Eliya	Walapane	Pannala Vidyalaya	False	False	NWRLYWLPNPNNLVDYLY		Nuwara Eliya	LK-23	6.97423	80.711222	Walapone	PS-230141	7.093348	80.862513	7.133169	80.850017	Kumbalgamuwa, Keerthibandara pura - Walapane road, Walapane, Sri Lanka	4.639054	
Nuwara Eliya	Hanguranketha	MOH Office – Rikillagaskada	False	False	NWRLYHNGRNKTHMHFFCRKLLGSKD		Nuwara Eliya	LK-23	6.97423	80.711222	Hanguranketha	PS-210108	7.176511	80.777388	7.144287	80.781529	4QVJ+PJ6, Rikillagaskada, Sri Lanka	3.613288	
Nuwara Eliya	Dayagama	Dayagama East Tamil College	False	False	NWRLYDYGMDYGMSTTMLCLLG		Nuwara Eliya	LK-23	6.97423	80.711222	Dayagama	PS-230140	6.854642	80.748918	6.85613	80.747426	Dayagama, Sri Lanka	0.233543	
Nuwara Eliya	Pudaluoya	Jayahela Vidyalaya	False	False	NWRLYPDLYJYHLVDYLY		Nuwara Eliya	LK-23	6.97423	80.711222	Pudalu oya	PS-230132	6.907289	79.863819	7.01668	80.668529	2M89+MCC, Pundaluoya, Sri Lanka	89.677066	#CenterFarFromPolice
Nuwara Eliya	Kothmale	MOH Office - Kothmale	False	False	NWRLYKTHMLMHFFCKTHML		Nuwara Eliya	LK-23	6.97423	80.711222	Kotmale	PS-230134	7.063602	80.685054	7.062013	80.685533	3M6P+R63, Kothmale New Town, Sri Lanka	0.184484	
Nuwara Eliya	Matale	Mobile Medical Team	False	False	NWRLYMTLMBLMDCLTM		Nuwara Eliya	LK-23	6.97423	80.711222	Matale	PS-220121	7.462789	80.626211					#CenterLocationUnknown
Badulla	Badulla	Mobile Medical Team	False	False	BDLLBDLLMBLMDCLTM		Badulla	LK-81	7.074529	81.04486	Badulla	PS-810101	6.991337	81.055246					#CenterLocationUnknown
Badulla	Badulla	Soranathota Cultural Centre	False	False	BDLLBDLLSRNTHTCLTRLCNTR		Badulla	LK-81	7.074529	81.04486	Badulla	PS-810101	6.991337	81.055246	6.993401	81.054981	Badulla, Sri Lanka	0.231421	
Badulla	Badulla	Wattekele Vidyalaya	False	False	BDLLBDLLWTTKLVDYLY		Badulla	LK-81	7.074529	81.04486	Badulla	PS-810101	6.991337	81.055246	7.057793	81.076613	Pussellawa - Egodawela Rd, Badulla, Sri Lanka	7.759124	
Badulla	Badulla	Ramakrishna Vidyalaya - Wewessa	False	False	BDLLBDLLRMKRSHNVDYLYWWSS		Badulla	LK-81	7.074529	81.04486	Badulla	PS-810101	6.991337	81.055246	6.991073	81.057353	Uva College, Uva College Rd, බදුල්ල 90000, Sri Lanka	0.234465	
Badulla	Badulla	Sri Nikesharamaya Puwakgodamulla	False	False	BDLLBDLLSRNKSHRMYPWKGDMLL		Badulla	LK-81	7.074529	81.04486	Badulla	PS-810101	6.991337	81.055246	6.993401	81.054981	Badulla, Sri Lanka	0.231421	
Badulla	Badulla	Nelumgala Vidyalaya	False	False	BDLLBDLLNLMGLVDYLY		Badulla	LK-81	7.074529	81.04486	Badulla	PS-810101	6.991337	81.055246	6.991073	81.057353	Uva College, Uva College Rd, බදුල්ල 90000, Sri Lanka	0.234465	
Badulla	Badulla	Andeniya Viharaya	False	False	BDLLBDLLNDNYVHRY		Badulla	LK-81	7.074529	81.04486	Badulla	PS-810101	6.991337	81.055246	6.984218	81.061356	Muthiyangana Temple, Station Rd, Badulla, Sri Lanka	1.04022	
Badulla	Badulla	Badulupitiya Tamil Girls College	False	False	BDLLBDLLBDLPTYTMLGRLSCLLG		Badulla	LK-81	7.074529	81.04486	Badulla	PS-810101	6.991337	81.055246	6.991806	81.060617	Badulupitiya Road, Badulla, Sri Lanka	0.595263	
Badulla	Ella	MOH Office – Ella	False	False	BDLLLLMHFFCLL		Badulla	LK-81	7.074529	81.04486	Ella	PS-810211	6.876609	81.048276	6.779645	80.964114	QXH7+WC4, Badulla, Sri Lanka	14.237912	
Badulla	Hali Ela	Jagulla Maha Vidyalaya	False	False	BDLLHLLJGLLMHVDYLY		Badulla	LK-81	7.074529	81.04486	Haliela	PS-810108	6.958216	81.034447	6.951162	81.03182	Bandarawela - Badulla Rd, Hali-ela, Sri Lanka	0.836511	
Badulla	Hali Ela	Kohuwilakandura Maha Vidyalaya	False	False	BDLLHLLKHWLKNDRMHVDYLY		Badulla	LK-81	7.074529	81.04486	Haliela	PS-810108	6.958216	81.034447	6.951162	81.03182	Bandarawela - Badulla Rd, Hali-ela, Sri Lanka	0.836511	
Badulla	Hali Ela	Welikemulla Maha Vidyalaya	False	False	BDLLHLLWLKMLLMHVDYLY		Badulla	LK-81	7.074529	81.04486	Haliela	PS-810108	6.958216	81.034447	6.951162	81.03182	Bandarawela - Badulla Rd, Hali-ela, Sri Lanka	0.836511	
Badulla	Hali Ela	Spring Valley Hospital	False	False	BDLLHLLSPRNGVLLYHSPTL		Badulla	LK-81	7.074529	81.04486	Haliela	PS-810108	6.958216	81.034447	6.958943	81.030414	Post Office Road, Ketawala-Haliela Road, Hali-ela, Sri Lanka	0.452569	
Badulla	Passara	Idamegedara Community Hall	False	False	BDLLPSSRDMGDRCMMNTYHLL		Badulla	LK-81	7.074529	81.04486	Passara	PS-810102	6.934481	81.154796	7.001622	81.059928	Kshethrarama Road, Badulla, Sri Lanka	12.863957	
Badulla	Passara	Passara Central College	False	False	BDLLPSSRPSSRCNTRLCLLG		Badulla	LK-81	7.074529	81.04486	Passara	PS-810102	6.934481	81.154796	6.937341	81.157452	Peradeniya-Badulla-Chenkaladi Hwy, Passara 90500, Sri Lanka	0.432669	
Badulla	Passara	Kanawerella Hospital	False	False	BDLLPSSRKNWRLLHSPTL		Badulla	LK-81	7.074529	81.04486	Passara	PS-810102	6.934481	81.154796	6.933517	81.152592	Demodera - Spring Valley - Badulla Road, Passara, Sri Lanka	0.265888	
Badulla	Kandaketiya	Kandaketiya Hospital	False	False	BDLLKNDKTYKNDKTYHSPTL		Badulla	LK-81	7.074529	81.04486	Kandaketiya	PS-810107	7.195551	81.01958	7.171564	81.005534	Karamettiya Kandakettiya Road, Kandakettiya Town, Sri Lanka	3.085663	
Badulla	Madulsima	Mahadoowa Hospital	False	False	BDLLMDLSMMHDWHSPTL		Badulla	LK-81	7.074529	81.04486									#PoliceLocationUnknown
Badulla	Madulsima	Matigahathenna Hospital	False	False	BDLLMDLSMMTGHTHNNHSPTL		Badulla	LK-81	7.074529	81.04486									#PoliceLocationUnknown
Badulla	Lunugala	Divisional Hospital – Hopton	False	False	BDLLLNGLDVSNLHSPTLHPTN		Badulla	LK-81	7.074529	81.04486	Lunugala	PS-810104	7.047691	81.20339	6.984911	81.19795	Peradeniya-Badulla-Chenkaladi Hwy, Sri Lanka	7.008786	
Badulla	Lunugala	MOH Office – Lunugala	False	False	BDLLLNGLMHFFCLNGL		Badulla	LK-81	7.074529	81.04486	Lunugala	PS-810104	7.047691	81.20339	7.030729	81.198808	Peradeniya-Badulla-Chenkaladi Hwy, Lunugala, Sri Lanka	1.953308	
Badulla	Lunugala	Lunugala Hospital	False	False	BDLLLNGLLNGLHSPTL	District Hospital - Lunugala	Badulla	LK-81	7.074529	81.04486	Lunugala	PS-810104	7.047691	81.20339	7.037666	81.20078	Peradeniya-Badulla-Chenkaladi Hwy, Lunugala, Sri Lanka	1.151701	
Badulla	Kahataruppa	Kahataruppa Hospital	False	False	BDLLKHTRPPKHTRPPHSPTL		Badulla	LK-81	7.074529	81.04486									#PoliceLocationUnknown
Badulla	Haldummulla	Punagala Tamil College	False	False	BDLLHLDMMLLPNGLTMLCLLG		Badulla	LK-81	7.074529	81.04486	Haldummulla		6.762216	80.885856	6.96353	81.0838	Balagala division, glen alpin road, Badulla, Sri Lanka	31.292897	#CenterFarFromPolice
Badulla	Haldummulla	Haldummulla Hospital	False	False	BDLLHLDMMLLHLDMMLLHSPTL		Badulla	LK-81	7.074529	81.04486	Haldummulla		6.762216	80.885856	6.758168	80.879938	Colombo - Ratnapura - Wellawaya - Batticaloa Rd, Sri Lanka	0.793746	
Badulla	Haldummulla	Koslanda Hospital	False	False	BDLLHLDMMLLKSLNDHSPTL		Badulla	LK-81	7.074529	81.04486	Haldummulla		6.762216	80.885856	6.737944	81.016177	Colombo - Batticaloa Hwy, Sri Lanka	14.646084	
Badulla	Bandarawela	MOH Office – Bandarawela	False	False	BDLLBNDRWLMHFFCBNDRWL		Badulla	LK-81	7.074529	81.04486	Bandarawela	PS-810210	6.831526	80.986784	6.841272	80.98482	Hospital Junction Helamuduna Bus Stop, Etampitiya Rd, Bandarawela, Sri Lanka	1.105533	
Badulla	Uva Paranagama	MOH Office - Uva Paranagama	False	False	BDLLVPRNGMMHFFCVPRNGM		Badulla	LK-81	7.074529	81.04486	Uvaparanagama	PS-810213	6.958341	80.930364	6.927934	80.896475	Udapussellawa-Welimada Road, Ambagasdowa, Sri Lanka	5.043837	
Badulla	Uva Paranagama	Sapugolla Vidyalaya	False	False	BDLLVPRNGMSPGLLVDYLY		Badulla	LK-81	7.074529	81.04486	Uvaparanagama	PS-810213	6.958341	80.930364	6.953326	80.905114	Kirawanagama Rd, Sapugolla, Sri Lanka	2.84314	
Badulla	Uva Paranagama	Peruwella Vidyalaya	False	False	BDLLVPRNGMPRWLLVDYLY		Badulla	LK-81	7.074529	81.04486	Uvaparanagama	PS-810213	6.958341	80.930364	6.938908	80.880113	WVQJ+H29, Badulla, Sri Lanka	5.954533	
Badulla	Uva Paranagama	Galahagama Vidyalaya	False	False	BDLLVPRNGMGLHGMVDYLY		Badulla	LK-81	7.074529	81.04486	Uvaparanagama	PS-810213	6.958341	80.930364	6.938908	80.880113	WVQJ+H29, Badulla, Sri Lanka	5.954533	
Badulla	Uva Paranagama	Diyabokandura Vidyalaya	False	False	BDLLVPRNGMDYBKNDRVDYLY		Badulla	LK-81	7.074529	81.04486	Uvaparanagama	PS-810213	6.958341	80.930364	6.977234	80.942671	Diyabokandura,Babatapana, Sri Lanka	2.502495	
Moneragala	Monaragala	Mobile Medical Team	False	False	MNRGLMNRGLMBLMDCLTM		Moneragala	LK-82	6.787517	81.303744	Monaragala	PS-820121	6.869866	81.348106					#CenterLocationUnknown
Moneragala	Monaragala	Mahanama Vidyalaya	False	False	MNRGLMNRGLMHNMVDYLY		Moneragala	LK-82	6.787517	81.303744	Monaragala	PS-820121	6.869866	81.348106	6.876259	81.348364	Potuvile Road Colombo - Batticaloa Hwy, Monaragala, Sri Lanka	0.711663	
Moneragala	Monaragala	Royal College	False	False	MNRGLMNRGLRYLCLLG		Moneragala	LK-82	6.787517	81.303744	Monaragala	PS-820121	6.869866	81.348106	6.86108	81.33918	V86Q+CMM, Monaragala, Sri Lanka	1.388052	
Moneragala	Monaragala	Weliyaya Pirivena	False	False	MNRGLMNRGLWLYYPRVN		Moneragala	LK-82	6.787517	81.303744	Monaragala	PS-820121	6.869866	81.348106	6.907098	81.341043	W84R+RCM, Monaragala, Sri Lanka	4.214114	
Moneragala	Monaragala	Monaragala Community Hall	False	False	MNRGLMNRGLMNRGLCMMNTYHLL		Moneragala	LK-82	6.787517	81.303744	Monaragala	PS-820121	6.869866	81.348106	6.872778	81.350683	Moneragala, Sri Lanka	0.431159	
Moneragala	Siyambalanduwa	03 Piyawara Maha Vidyalaya	False	False	MNRGLSYMBLNDWPYWRMHVDYLY		Moneragala	LK-82	6.787517	81.303744	Siyambalanduwa	PS-820122	6.906851	81.547598	6.906464	81.561014	Siyambalanduwa, Sri Lanka	1.482056	
Moneragala	Siyambalanduwa	Siyambalanduwa Maha Vidyalaya	False	False	MNRGLSYMBLNDWSYMBLNDWMHVDYLY		Moneragala	LK-82	6.787517	81.303744	Siyambalanduwa	PS-820122	6.906851	81.547598	6.906464	81.561014	Siyambalanduwa, Sri Lanka	1.482056	
Moneragala	Kudaoya	Bodhirajarama Viharaya	False	False	MNRGLKDYBDHRJRMVHRY		Moneragala	LK-82	6.787517	81.303744	Kudaoya	PS-820134	6.523777	81.123696	6.531545	81.122881	Kuda Oya Cottages, Uva, Kuda Oya, Kuda Oya, 91000, Kuda Oya 91000, Sri Lanka	0.868715	
Moneragala	Kudaoya	Thella Colony Primary School	False	False	MNRGLKDYTHLLCLNYPRMRYSCHL		Moneragala	LK-82	6.787517	81.303744	Kudaoya	PS-820134	6.523777	81.123696	6.534515	81.122366	Kuda Oya, Sri Lanka	1.203395	
Moneragala	Kudaoya	Ethiliwewa Maha Vidyalaya	False	False	MNRGLKDYTHLWWMHVDYLY		Moneragala	LK-82	6.787517	81.303744	Kudaoya	PS-820134	6.523777	81.123696	6.528089	81.125799	Wellawaya Road, A2, Kuda Oya, Sri Lanka	0.532962	
Moneragala	Kudaoya	Weherayaya Maha Vidyalaya	False	False	MNRGLKDYWHRYYMHVDYLY		Moneragala	LK-82	6.787517	81.303744	Kudaoya	PS-820134	6.523777	81.123696	6.528089	81.125799	Wellawaya Road, A2, Kuda Oya, Sri Lanka	0.532962	
Moneragala	Wellawaya	Siyambalagunaya Viharaya	False	False	MNRGLWLLWYSYMBLGNYVHRY		Moneragala	LK-82	6.787517	81.303744	wellawaya	PS-820130	6.730804	81.100708	6.732082	81.122846	P4JF+R4Q, මොණරාගල, Sri Lanka	2.44956	
Moneragala	Wellawaya	Mahinda Rajapaksha Memorial Hall	False	False	MNRGLWLLWYMHNDRJPKSHMMRLHLL		Moneragala	LK-82	6.787517	81.303744	wellawaya	PS-820130	6.730804	81.100708	6.737736	81.103057	Wellawaya, Sri Lanka	0.813535	
Moneragala	Bibila	Bibila Cultural Centre	False	False	MNRGLBBLBBLCLTRLCNTR		Moneragala	LK-82	6.787517	81.303744	Bibila	PS-820125	7.165232	81.225463	7.162409	81.22159	Bibile, Sri Lanka	0.530371	
Moneragala	Medagama	Senadipathi Maha Vidyalaya	False	False	MNRGLMDGMSNDPTHMHVDYLY		Moneragala	LK-82	6.787517	81.303744	Medagama	PS-820126	7.033608	81.276708	7.031205	81.276445	Moneragala Road,Medagama, B56, Monaragala 91550, Sri Lanka	0.268858	
Moneragala	Medagama	Yakunnawa Maha Vidyalaya	False	False	MNRGLMDGMYKNNWMHVDYLY		Moneragala	LK-82	6.787517	81.303744	Medagama	PS-820126	7.033608	81.276708	7.118338	81.265828	4798+88P, Monaragala, Sri Lanka	9.500715	
Moneragala	Medagama	Ellekona Maha Vidyalaya	False	False	MNRGLMDGMLLKNMHVDYLY		Moneragala	LK-82	6.787517	81.303744	Medagama	PS-820126	7.033608	81.276708	7.031205	81.276445	Moneragala Road,Medagama, B56, Monaragala 91550, Sri Lanka	0.268858	
Moneragala	Medagama	Godigamuwa Muslim Vidyalaya	False	False	MNRGLMDGMGDGMWMSLMVDYLY		Moneragala	LK-82	6.787517	81.303744	Medagama	PS-820126	7.033608	81.276708	7.107816	81.286939	475P+4QG, Monaragala, Sri Lanka	8.331044	
Moneragala	Dambagalla	Madulla Maha Vidyalaya	False	False	MNRGLDMBGLLMDLLMHVDYLY		Moneragala	LK-82	6.787517	81.303744	Dambagalla	PS-820123	6.978806	81.372037	6.961757	81.371229	X96C+PF5, Dambagalla, Sri Lanka	1.898455	
Moneragala	Kataragama	Kataragama Devalaya Premises	False	False	MNRGLKTRGMKTRGMDVLYPRMSS		Moneragala	LK-82	6.787517	81.303744	Kataragama	PS-330159	6.41352	81.331368	6.418507	81.333278	Main Office Ruhunu Maha Kataragama Dewalaya, Kataragama 91400, Sri Lanka	0.59352	
Galle	Galle	Mobile Medical Team	False	False	GLLGLLMBLMDCLTM		Galle	LK-31	6.222805	80.251977	Galle	PS-310120	6.032983	80.21714					#CenterLocationUnknown
Galle	Neluwa	Milawa Primary School	False	False	GLLNLWMLWPRMRYSCHL		Galle	LK-31	6.222805	80.251977	Neluwa	PS-310132	6.379651	80.358956					#CenterLocationUnknown
Galle	Neluwa	Lankagama Primary School	False	False	GLLNLWLNKGMPRMRYSCHL		Galle	LK-31	6.222805	80.251977	Neluwa	PS-310132	6.379651	80.358956	6.371613	80.455384	9FC4+J5R, Warukandeniya, Sri Lanka	10.696764	
Galle	Udugama	Aluth Watta Gunananda Vidyalaya	False	False	GLLDGMLTHWTTGNNNDVDYLY		Galle	LK-31	6.222805	80.251977	Udugama	PS-310133	6.210944	80.339616	6.164463	80.353263	Road Aluthwaththa, Udugama, Sri Lanka	5.385822	
Galle	Hiniduma	Vidyaraja National College	False	False	GLLHNDMVDYRJNTNLCLLG		Galle	LK-31	6.222805	80.251977	Hiniduma	PS-310131	6.329517	80.322442	6.340158	80.334192	Udugama - Hiniduma Rd, Thawalama, Sri Lanka	1.757335	
Galle	Bentota	Dedduwa Primary School	False	False	GLLBNTTDDDWPRMRYSCHL		Galle	LK-31	6.222805	80.251977	Bentota	PS-310246	6.422233	79.996897					#CenterLocationUnknown
Galle	Ahungalla	Rewatha National College	False	False	GLLHNGLLRWTHNTNLCLLG		Galle	LK-31	6.222805	80.251977	Ahungalla	PS-310244	6.299873	80.03856	6.284164	80.044062	Sir Lalitha Rajapaksa Mawatha, Balapitiya 80550, Sri Lanka	1.850167	
Galle	Karandeniya	Borakanda Samarawickrama Ground	False	False	GLLKRNDNYBRKNDSMRWCKRMGRND		Galle	LK-31	6.222805	80.251977	Karandeniya	PS-310238	6.271732	80.08479	6.273882	80.106565	Borakanda, Sri Lanka	2.419377	
Galle	Batapola	Kahapitiya Primary School	False	False	GLLBTPLKHPTYPRMRYSCHL		Galle	LK-31	6.222805	80.251977									#PoliceLocationUnknown
Galle	Meetiyagoda	Meetiyagoda Primary School	False	False	GLLMTYGDMTYGDPRMRYSCHL		Galle	LK-31	6.222805	80.251977	Meetiyagoda	PS-310241	6.189422	80.094722					#CenterLocationUnknown
Galle	Elpitiya	MOH Office - Elpitiya	False	False	GLLLPTYMHFFCLPTY		Galle	LK-31	6.222805	80.251977	Elpitiya	PS-310235	6.279163	80.142917	6.295308	80.164521	75W7+4RC, Elpitiya, Sri Lanka	2.98833	
Galle	Pitigala	Manampitiya Primary School	False	False	GLLPTGLMNMPTYPRMRYSCHL		Galle	LK-31	6.222805	80.251977	Pitigala	PS-310237	6.335202	80.221149	6.321662	80.218587	Elpitiya,pitigala Road, B14, Amugoda, Sri Lanka	1.532454	
Galle	Pitigala	Sri Sumanaramaya - Naranowita	False	False	GLLPTGLSRSMNRMYNRNWT		Galle	LK-31	6.222805	80.251977	Pitigala	PS-310237	6.335202	80.221149	6.291723	80.218189	Naranowita, Sri Lanka	4.847221	
Galle	Baddegama	Maddevila Primary School	False	False	GLLBDDGMMDDVLPRMRYSCHL		Galle	LK-31	6.222805	80.251977	Baddegama	PS-310239	6.172566	80.174966	6.225657	80.114563	Batapola Temple Rd, Batapola, Sri Lanka	8.915495	
Galle	Baddegama	Kuttiyawatta Community Hall	False	False	GLLBDDGMKTTYWTTCMMNTYHLL		Galle	LK-31	6.222805	80.251977	Baddegama	PS-310239	6.172566	80.174966	6.166376	80.179996	Kumme Grounds, B128, Baddegama 80200, Sri Lanka	0.885132	
Galle	Baddegama	Baddegama Hospital	False	False	GLLBDDGMBDDGMHSPTL		Galle	LK-31	6.222805	80.251977	Baddegama	PS-310239	6.172566	80.174966	6.16299	80.179593	B128, Baddegama 80200, Sri Lanka	1.181666	
Galle	Poddala	Hapugala Sudarshanaramaya	False	False	GLLPDDLHPGLSDRSHNRMY		Galle	LK-31	6.222805	80.251977	Poddala	PS-310126	6.121449	80.210629	6.107884	80.214092	A.D.S. Kalansuriya Mawatha, Poddala, Sri Lanka	1.556683	
Galle	Hikkaduwa	Hennatota Vidyawardharna Vidyalaya	False	False	GLLHKKDWHNNTTVDYWRDHRNVDYLY		Galle	LK-31	6.222805	80.251977	Hikkaduwa	PS-310122	6.145115	80.099693	6.139468	80.106286	Hikkaduwa, Sri Lanka	0.96237	
Galle	Akmeemana	Ihalagoda Wijayagoda Primary School	False	False	GLLKMMNHLGDWJYGDPRMRYSCHL		Galle	LK-31	6.222805	80.251977	Akmeemana	PS-310123	6.073453	80.276627	6.286327	80.187734	75PQ+G3Q, Katandola, Sri Lanka	25.637384	#CenterFarFromPolice
Galle	Akmeemana	Kalehesumangala Maha Vidyalaya	False	False	GLLKMMNKLHSMNGLMHVDYLY		Galle	LK-31	6.222805	80.251977	Akmeemana	PS-310123	6.073453	80.276627	6.08641	80.242064	Ganegoda,Akmeemana., Wanduramba - Mapalagama Rd, 80090, Sri Lanka	4.085458	
Matara	Matara	Mobile Medical Team	False	False	MTRMTRMBLMDCLTM		Matara	LK-32	6.142734	80.539994	Matara	PS-320101	5.94904	80.533659					#CenterLocationUnknown
Matara	Matara	Thotamuna Balasooriyaramaya	False	False	MTRMTRTHTMNBLSRYRMY		Matara	LK-32	6.142734	80.539994	Matara	PS-320101	5.94904	80.533659	5.948345	80.547404	A2, Matara, Sri Lanka	1.522585	
Matara	Matara	Kamarika Vidyalaya - Meddewatta	False	False	MTRMTRKMRKVDYLYMDDWTT		Matara	LK-32	6.142734	80.539994	Matara	PS-320101	5.94904	80.533659	5.945121	80.566408	Meddawatta, A2 A2, Matara, Sri Lanka	3.64919	
Matara	Matara	Kumbulgama Sri Wijayaramaya - Kekanadura	False	False	MTRMTRKMBLGMSRWJYRMYKKNDR		Matara	LK-32	6.142734	80.539994	Matara	PS-320101	5.94904	80.533659	5.947891	80.582909	Kumbalgama Bus Stop, Kakanadura - Matara Road, Matara, Sri Lanka	5.450071	
Matara	Deiyandara	Kotapola Pradeshiya Shabah	False	False	MTRDYNDRKTPLPRDSHYSHBH		Matara	LK-32	6.142734	80.539994	Deyyandara	PS-320119	6.198061	80.587045	6.340422	80.5593	Deniyaya - Wiharahena Rd, Deniyaya, Sri Lanka	16.129192	
Matara	Akuressa	Urumutta Almeida Viharaya	False	False	MTRKRSSRMTTLMDVHRY		Matara	LK-32	6.142734	80.539994	Akuressa	PS-320112	6.099044	80.4776	6.165699	80.521646	Makandura-Urumuththa-Bopagoda Rd, Sri Lanka	8.871093	
Matara	Weligama	Arfa Vidyalaya - Weligama	False	False	MTRWLGMRFVDYLYWLGM		Matara	LK-32	6.142734	80.539994	Weligama	PS-320111	5.973301	80.426455	5.981263	80.429032	XCJH+GJ3, Weligama, Sri Lanka	0.930365	
Matara	Weligama	Medigama Maha Vidyalaya	False	False	MTRWLGMMDGMMHVDYLY		Matara	LK-32	6.142734	80.539994	Weligama	PS-320111	5.973301	80.426455	5.973522	80.424374	Hetti Weediya, Weligama, Sri Lanka	0.231521	
Matara	Weligama	Ibbawala Primary School	False	False	MTRWLGMBBWLPRMRYSCHL		Matara	LK-32	6.142734	80.539994	Weligama	PS-320111	5.973301	80.426455	5.972214	80.420355	XCCC+V4Q, Matara, Sri Lanka	0.685565	
Matara	Weligama	Welihinda Viharaya	False	False	MTRWLGMWLHNDVHRY		Matara	LK-32	6.142734	80.539994	Weligama	PS-320111	5.973301	80.426455	5.98909	80.458075	Welihinda Junction, Weligama - Telijjawila Rd, Sri Lanka	3.914059	
Matara	Malimbada	Weheragoda Viharaya	False	False	MTRMLMBDWHRGDVHRY		Matara	LK-32	6.142734	80.539994	Malimbada	PS-320117	6.010503	80.517438	5.948345	80.547404	A2, Matara, Sri Lanka	7.667467	
Matara	Malimbada	Chulasumarama Viharaya	False	False	MTRMLMBDCHLSMRMVHRY		Matara	LK-32	6.142734	80.539994	Malimbada	PS-320117	6.010503	80.517438	5.948345	80.547404	A2, Matara, Sri Lanka	7.667467	
Matara	Devinuwara	Aparekka Maha Vidyalaya	False	False	MTRDVNWRPRKKMHVDYLY		Matara	LK-32	6.142734	80.539994									#PoliceLocationUnknown
Matara	Dickwella	Saddharmaraja Vidyalaya	False	False	MTRDCKWLLSDDHRMRJVDYLY		Matara	LK-32	6.142734	80.539994	Dikwella	PS-320103	5.964296	80.693198	5.978446	80.657051	Hunnadeniya - Rathmale - Radampola - Walasgala Rd, Rathmale 81030, Sri Lanka	4.297399	
Matara	Thihagoda	Kirinda Puhulwella Pradeshiya Shabha	False	False	MTRTHHGDKRNDPHLWLLPRDSHYSHBH		Matara	LK-32	6.142734	80.539994	Thihagoda	PS-320104	6.01331	80.567932	6.047784	80.628362	Matara-Hakmana Rd, Kirinda Puhulwella, Sri Lanka	7.706177	
Matara	Diyandara	Pitawelgamuwa Primary School	False	False	MTRDYNDRPTWLGMWPRMRYSCHL		Matara	LK-32	6.142734	80.539994	Deyyandara	PS-320119	6.198061	80.587045	6.153128	80.604283	5J33+7P3, Deiyandara, Sri Lanka	5.349085	
Matara	Urubokka	Urubokka National College	False	False	MTRRBKKRBKKNTNLCLLG		Matara	LK-32	6.142734	80.539994	Urubokka	PS-320108	6.310257	80.629013	6.30653	80.63061	Urubokka, Sri Lanka	0.450586	
Matara	Urubokka	Beralapanathara Co-operative	False	False	MTRRBKKBRLPNTHRCPRTV		Matara	LK-32	6.142734	80.539994	Urubokka	PS-320108	6.310257	80.629013	6.297426	80.58672	Kotapola - Urubokka - Mulatiyana Rd, Sri Lanka	4.88876	
Matara	Kamburupitiya	Kamburupitiya Base Hospital	False	False	MTRKMBRPTYKMBRPTYBSHSPTL		Matara	LK-32	6.142734	80.539994	Kamburupitiya	PS-320105	6.073875	80.564579	6.095759	80.564504	Thihagoda-Kamburupitiya-Mawarala-Kotapola Rd, Sri Lanka	2.434168	
Hambantota	Hambantota	Mobile Medical Team	False	False	HMBNTTHMBNTTMBLMDCLTM		Hambantota	LK-33	6.259779	81.098619	Hambantota	PS-330156	6.125872	81.12521					#CenterLocationUnknown
Hambantota	Hambantota	MOH Office - Hambanthota	False	False	HMBNTTHMBNTTMHFFCHMBNTHT		Hambantota	LK-33	6.259779	81.098619	Hambantota	PS-330156	6.125872	81.12521	6.171162	81.127	54CG+FQ9, Hambantota, Sri Lanka	5.041487	
Hambantota	Walasmulla	Horewela Maha Vidyalaya	False	False	HMBNTTWLSMLLHRWLMHVDYLY		Hambantota	LK-33	6.259779	81.098619	Walasmulla	PS-330151	6.154102	80.698256	6.185472	80.684011	Walasmulla - Katuwana - Middeniya Road, Ethpitiya, Sri Lanka	3.828396	
Hambantota	Walasmulla	Walasmulla Base Hospital	False	False	HMBNTTWLSMLLWLSMLLBSHSPTL		Hambantota	LK-33	6.259779	81.098619	Walasmulla	PS-330151	6.154102	80.698256	6.146633	80.698452	Beliatta - Walasmulla Rd, Walasmulla, Sri Lanka	0.831058	
Hambantota	Tangalle	Town Hall - Tangalle	False	False	HMBNTTTNGLLTWNHLLTNGLL		Hambantota	LK-33	6.259779	81.098619	Tangalle	PS-330147	6.023954	80.797255	6.026547	80.795587	Matara Rd, Tangalle, Sri Lanka	0.342386	
Hambantota	Tangalle	Marakolliya Primary School	False	False	HMBNTTTNGLLMRKLLYPRMRYSCHL		Hambantota	LK-33	6.259779	81.098619	Tangalle	PS-330147	6.023954	80.797255	6.04898	80.812008	2RX6+HRR, Hambantota, Sri Lanka	3.22671	
Hambantota	Tangalle	Pattiyapola Viharaya	False	False	HMBNTTTNGLLPTTYPLVHRY		Hambantota	LK-33	6.259779	81.098619	Tangalle	PS-330147	6.023954	80.797255	6.194762	80.94959	5WVX+WR4, Hambantota, Sri Lanka	25.39318	#CenterFarFromPolice
Hambantota	Beliatta	MOH Office - Beliatta	False	False	HMBNTTBLTTMHFFCBLTT		Hambantota	LK-33	6.259779	81.098619	Beliatta	PS-330152	6.046936	80.735408	6.051828	80.741735	3P2R+PMQ, Hambantota, Sri Lanka	0.886482	
Hambantota	Beliatta	Delduwawala Primary School	False	False	HMBNTTBLTTDLDWWLPRMRYSCHL		Hambantota	LK-33	6.259779	81.098619	Beliatta	PS-330152	6.046936	80.735408	6.053547	80.732271	3P3J+CW6, Hambantota, Sri Lanka	0.813095	
Hambantota	Katuwana	Walgammulla Maha Vidyalaya	False	False	HMBNTTKTWNWLGMMLLMHVDYLY		Hambantota	LK-33	6.259779	81.098619	Katuwana	PS-330153	6.269722	80.690963	6.238257	80.675865	6MQG+885, Galpotukanda, Sri Lanka	3.877585	
Hambantota	Katuwana	Ambagahahena Maha Vidyalaya	False	False	HMBNTTKTWNMBGHHNMHVDYLY		Hambantota	LK-33	6.259779	81.098619	Katuwana	PS-330153	6.269722	80.690963	6.240914	80.659223	Sri Lanka	4.75222	
Hambantota	Weeraketiya	Hathuruwela Hospital	False	False	HMBNTTWRKTYHTHRWLHSPTL		Hambantota	LK-33	6.259779	81.098619	Weeraketiya	PS-330149	6.153899	80.76737	6.93814	79.986767	No: 160/10, Bandarawatta, Biyagama, Sri Lanka	122.678284	#CenterFarFromPolice
Hambantota	Lunugamvehera	MOH Office  - Lunugamvehera	False	False	HMBNTTLNGMVHRMHFFCLNGMVHR		Hambantota	LK-33	6.259779	81.098619	Lunugamwehera	PS-330160	6.341544	81.202699	6.346093	81.196978	MOH Office, new town, Lunugamvehera National Park, Tanamalwila, Sri Lanka	0.809946	
Hambantota	Lunugamvehera	Angunukolawewa Primary School	False	False	HMBNTTLNGMVHRNGNKLWWPRMRYSCHL		Hambantota	LK-33	6.259779	81.098619	Lunugamwehera	PS-330160	6.341544	81.202699	6.413513	81.083669	Unnamed Road, Angunakolawewa, Sri Lanka	15.401561	
Hambantota	Suriyawewa	Meegahajadura Vidyalaya	False	False	HMBNTTSRYWWMGHJDRVDYLY		Hambantota	LK-33	6.259779	81.098619	Sooriyawewa	PS-330155	6.306022	81.003873	6.056995	80.750125	3Q42+Q3R, Hambantota, Sri Lanka	39.428635	#CenterFarFromPolice
Hambantota	Suriyawewa	Ranmuthuwewa Vidyalaya	False	False	HMBNTTSRYWWRNMTHWWVDYLY		Hambantota	LK-33	6.259779	81.098619	Sooriyawewa	PS-330155	6.306022	81.003873	6.056995	80.750125	3Q42+Q3R, Hambantota, Sri Lanka	39.428635	#CenterFarFromPolice
Hambantota	Suriyawewa	Weliwewa Vidyalaya	False	False	HMBNTTSRYWWWLWWVDYLY		Hambantota	LK-33	6.259779	81.098619	Sooriyawewa	PS-330155	6.306022	81.003873	6.307631	80.998212	8X5X+374, Sooriyawewa, Sri Lanka	0.650947	
Hambantota	Suriyawewa	Ihalakumbukwewa Vidyalaya	False	False	HMBNTTSRYWWHLKMBKWWVDYLY		Hambantota	LK-33	6.259779	81.098619	Sooriyawewa	PS-330155	6.306022	81.003873	6.056995	80.750125	3Q42+Q3R, Hambantota, Sri Lanka	39.428635	#CenterFarFromPolice
Hambantota	Suriyawewa	Mahagalwewa Vidyalaya	False	False	HMBNTTSRYWWMHGLWWVDYLY		Hambantota	LK-33	6.259779	81.098619	Sooriyawewa	PS-330155	6.306022	81.003873	6.383154	81.03215	92MJ+7V6, Migahajandura, Sri Lanka	9.131129	
Hambantota	Ambalanthota	Malpoththawa Vidyalaya	False	False	HMBNTTMBLNTHTMLPTHTHWVDYLY		Hambantota	LK-33	6.259779	81.098619	Ambalantota	PS-330157	6.12516	81.023981	6.89167	79.859608	133 Vajira Rd, Colombo 00400, Sri Lanka	154.359673	#CenterFarFromPolice
Rathnapura	Opanayaka	Galkanda Vidyalaya	False	False	RTHNPRPNYKGLKNDVDYLY		Ratnapura	LK-91	6.586826	80.566158	Opanayaka	PS-910104	6.608519	80.619285	6.611693	80.591317	JH6R+MGG, රත්නපුර, Sri Lanka	3.110298	
Rathnapura	Opanayaka	Batadura Vidyalaya	False	False	RTHNPRPNYKBTDRVDYLY		Ratnapura	LK-91	6.586826	80.566158	Opanayaka	PS-910104	6.608519	80.619285	6.564489	80.646658	Unnamed Road, Sri Lanka	5.756145	
Rathnapura	Opanayaka	Haththella Vidyalaya	False	False	RTHNPRPNYKHTHTHLLVDYLY		Ratnapura	LK-91	6.586826	80.566158	Opanayaka	PS-910104	6.608519	80.619285	6.580578	80.632245	opanayaka haththella, Sri Lanka	3.421961	
Rathnapura	Opanayaka	Narissa Vidyalaya	False	False	RTHNPRPNYKNRSSVDYLY		Ratnapura	LK-91	6.586826	80.566158	Opanayaka	PS-910104	6.608519	80.619285	6.695088	80.382654	M9WM+23J, Ratnapura, Sri Lanka	27.860151	#CenterFarFromPolice
Rathnapura	Pinnawala	Rathmalwinna Vidyalaya	False	False	RTHNPRPNNWLRTHMLWNNVDYLY		Ratnapura	LK-91	6.586826	80.566158	Pinnawala	PS-910115	7.299943	80.386604	6.773169	80.317655	Kuruwita, Sri Lanka	59.085287	#CenterFarFromPolice
Rathnapura	Godakawela	Aslam College	False	False	RTHNPRGDKWLSLMCLLG		Ratnapura	LK-91	6.586826	80.566158	Godakawela	PS-910233	6.50224	80.655642	6.471933	80.610173	FJC6+Q3F, Rakwana, Sri Lanka	6.051102	
Rathnapura	Godakawela	St. John's College	False	False	RTHNPRGDKWLSTJHNSCLLG		Ratnapura	LK-91	6.586826	80.566158	Godakawela	PS-910233	6.50224	80.655642	6.47523	80.610541	Rakwana-Bulutota Rd, Rakwana, Sri Lanka	5.819843	
Rathnapura	Godakawela	Galpaya Vidyalaya	False	False	RTHNPRGDKWLGLPYVDYLY		Ratnapura	LK-91	6.586826	80.566158	Godakawela	PS-910233	6.50224	80.655642	6.504662	80.755842	Unnamed Road,, Sri Lanka	11.076787	
Rathnapura	Godakawela	Muththettupola Vidyalaya	False	False	RTHNPRGDKWLMTHTHTTPLVDYLY		Ratnapura	LK-91	6.586826	80.566158	Godakawela	PS-910233	6.50224	80.655642	6.505873	80.640843	GJ4R+88W, Ratnapura, Sri Lanka	1.684679	
Rathnapura	Godakawela	Kolongasyaya Community Hall	False	False	RTHNPRGDKWLKLNGSYYCMMNTYHLL		Ratnapura	LK-91	6.586826	80.566158	Godakawela	PS-910233	6.50224	80.655642	6.502044	80.657016	Pelmadulla - Embilipitiya Hwy, Godakawela, Sri Lanka	0.153404	
Rathnapura	Godakawela	Bisokotuwa Viharaya	False	False	RTHNPRGDKWLBSKTWVHRY		Ratnapura	LK-91	6.586826	80.566158	Godakawela	PS-910233	6.50224	80.655642	7.57635	81.288109	H7GQ+G6X, Sri Lanka	138.377559	#CenterFarFromPolice
Rathnapura	Kiriella	Dumbara Vidyalaya	False	False	RTHNPRKRLLDMBRVDYLY		Ratnapura	LK-91	6.586826	80.566158	Kiriella	PS-910114	6.735338	80.276481	6.726255	80.212907	Dumbara Rd, Sri Lanka	7.094889	
Rathnapura	Kiriella	Ketepola Viharaya	False	False	RTHNPRKRLLKTPLVHRY		Ratnapura	LK-91	6.586826	80.566158	Kiriella	PS-910114	6.735338	80.276481	6.749772	80.26278	Rajamaha Wihara Mawatha, Kiriella, Ratnapura, Sri Lanka	2.206364	
Rathnapura	Kiriella	Epitawala Vidyalaya	False	False	RTHNPRKRLLPTWLVDYLY		Ratnapura	LK-91	6.586826	80.566158	Kiriella	PS-910114	6.735338	80.276481	6.743776	80.240076	P6VR+G28, Ratnapura, Sri Lanka	4.129415	
Rathnapura	Kalawana	Ganegoda Viharaya	False	False	RTHNPRKLWNGNGDVHRY		Ratnapura	LK-91	6.586826	80.566158	Kalawana	PS-910110	6.530738	80.390719	6.537292	80.404672	GCP3+WV7, Ratnapura, Sri Lanka	1.705557	
Rathnapura	Kalawana	Meepagama Vidyalaya	False	False	RTHNPRKLWNMPGMVDYLY		Ratnapura	LK-91	6.586826	80.566158	Kalawana	PS-910110	6.530738	80.390719	6.536341	80.356644	G9P4+GMJ, Ratnapura, Sri Lanka	3.816766	
Rathnapura	Kalawana	Samanpura Vidyalaya	False	False	RTHNPRKLWNSMNPRVDYLY		Ratnapura	LK-91	6.586826	80.566158	Kalawana	PS-910110	6.530738	80.390719	6.563338	80.396482	Samanpura, Sri Lanka	3.681591	
Rathnapura	Kalawana	Delgoda Viharaya	False	False	RTHNPRKLWNDLGDVHRY		Ratnapura	LK-91	6.586826	80.566158	Kalawana	PS-910110	6.530738	80.390719	6.499107	80.394848	Delgoda, Kalawana, Sri Lanka	3.547777	
Rathnapura	Kalawana	Wewagama Vidyalaya	False	False	RTHNPRKLWNWWGMVDYLY		Ratnapura	LK-91	6.586826	80.566158	Kalawana	PS-910110	6.530738	80.390719	6.479826	80.383687	Wewagama kokkavita, Kalawana, Sri Lanka	5.716008	
Rathnapura	Kalthota	Thenna Vidyalaya	False	False	RTHNPRKLTHTTHNNVDYLY		Ratnapura	LK-91	6.586826	80.566158	Kaltota	PS-910105	6.649474	80.700276	6.651588	80.880114	Kalthota Diyawinna, Balangoda 70100, Sri Lanka	19.87014	
Rathnapura	Kalthota	Diyawinna Vidyalaya	False	False	RTHNPRKLTHTDYWNNVDYLY		Ratnapura	LK-91	6.586826	80.566158	Kaltota	PS-910105	6.649474	80.700276	6.651588	80.880114	Kalthota Diyawinna, Balangoda 70100, Sri Lanka	19.87014	
Rathnapura	Kalthota	Welipenna Vidyalaya	False	False	RTHNPRKLTHTWLPNNVDYLY		Ratnapura	LK-91	6.586826	80.566158	Kaltota	PS-910105	6.649474	80.700276	6.465384	80.10155	F482+5J3, Welipenna, Sri Lanka	69.256682	#CenterFarFromPolice
Rathnapura	Kalthota	Kalthota Rohana Vidyalaya	False	False	RTHNPRKLTHTKLTHTRHNVDYLY		Ratnapura	LK-91	6.586826	80.566158	Kaltota	PS-910105	6.649474	80.700276	6.651588	80.880114	Kalthota Diyawinna, Balangoda 70100, Sri Lanka	19.87014	
Rathnapura	Kalthota	Meddebedda Vidyalaya	False	False	RTHNPRKLTHTMDDBDDVDYLY		Ratnapura	LK-91	6.586826	80.566158	Kaltota	PS-910105	6.649474	80.700276	6.651588	80.880114	Kalthota Diyawinna, Balangoda 70100, Sri Lanka	19.87014	
Rathnapura	Ayagama	Ayagama Dhammananda Vidyalaya	False	False	RTHNPRYGMYGMDHMMNNDVDYLY		Ratnapura	LK-91	6.586826	80.566158	Ayagama	PS-910109	6.637727	80.312554	6.633336	80.313577	22 B34, Ayagama, Sri Lanka	0.501318	
Rathnapura	Embilipitiya	Embilipitiya President's College	False	False	RTHNPRMBLPTYMBLPTYPRSDNTSCLLG		Ratnapura	LK-91	6.586826	80.566158	Embilipitiya	PS-910237	6.321993	80.844883	6.326441	80.850977	Middeniya Road, ඇඹිලිපිටිය, Sri Lanka	0.83586	
Rathnapura	Embilipitiya	Embilipitiya Mahaweli Ground	False	False	RTHNPRMBLPTYMBLPTYMHWLGRND		Ratnapura	LK-91	6.586826	80.566158	Embilipitiya	PS-910237	6.321993	80.844883	6.327951	80.861258	A18, Embilipitiya, Sri Lanka	1.92779	
Rathnapura	Udawalawa	Udawalawa Maha Vidyalaya	False	False	RTHNPRDWLWDWLWMHVDYLY		Ratnapura	LK-91	6.586826	80.566158	Udawalawa	PS-910234	6.422661	80.814293	6.421289	80.815286	Thanamalvila Rd, Udawalawa 70190, Sri Lanka	0.187978	
Rathnapura	Udawalawa	Ranchamadama Vidyalaya	False	False	RTHNPRDWLWRNCHMDMVDYLY		Ratnapura	LK-91	6.586826	80.566158	Udawalawa	PS-910234	6.422661	80.814293	6.373	80.782401	Ranchamadama, Sri Lanka	6.55283	
Rathnapura	Udawalawa	Bodhimaluwa Vidyalaya	False	False	RTHNPRDWLWBDHMLWVDYLY		Ratnapura	LK-91	6.586826	80.566158	Udawalawa	PS-910234	6.422661	80.814293	6.387546	80.813102	Ratnapura Road, kolabageAra, Sri Lanka	3.908054	
Rathnapura	Kolonna	Kella Vidyalaya	False	False	RTHNPRKLNNKLLVDYLY		Ratnapura	LK-91	6.586826	80.566158	Kolonna	PS-910235	6.40194	80.687615	6.365273	80.699386	9M8X+4Q2, Kaella, Sri Lanka	4.280994	
Rathnapura	Kolonna	Kolonna Vidyalaya	False	False	RTHNPRKLNNKLNNVDYLY		Ratnapura	LK-91	6.586826	80.566158	Kolonna	PS-910235	6.40194	80.687615	6.405284	80.685225	CM4P+439, Kolonna, Sri Lanka	0.456224	
Rathnapura	Kahawatta	Colony Vidyalaya	False	False	RTHNPRKHWTTCLNYVDYLY		Ratnapura	LK-91	6.586826	80.566158	Kahawatta	PS-910107	6.591434	80.56893	6.584014	80.570904	Watapotha - Kahawatta Road, Kahawatta, Sri Lanka	0.853661	
Rathnapura	Kahawatta	Nawalakanda Vidyalaya	False	False	RTHNPRKHWTTNWLKNDVDYLY		Ratnapura	LK-91	6.586826	80.566158	Kahawatta	PS-910107	6.591434	80.56893	6.54544	80.540911	Manandola - Endana Rd, Kahawatta 70154, Sri Lanka	5.979822	
Rathnapura	Kahawatta	Pannila Viharaya	False	False	RTHNPRKHWTTPNNLVHRY		Ratnapura	LK-91	6.586826	80.566158	Kahawatta	PS-910107	6.591434	80.56893	6.560349	80.532182	Manandola - Endana Rd, Sri Lanka	5.333215	
Rathnapura	Rathnapura	Dodampe Rahula Vidyalaya	False	False	RTHNPRRTHNPRDDMPRHLVDYLY		Ratnapura	LK-91	6.586826	80.566158	Ratnapura	PS-910101	6.679456	80.40223	6.726152	80.332768	Millakade Dodampe, Ratnapura - Horana - Panadura Hwy, Millakade, Sri Lanka	9.266021	
Rathnapura	Rathnapura	Hangamuwa Vidyalaya	False	False	RTHNPRRTHNPRHNGMWVDYLY		Ratnapura	LK-91	6.586826	80.566158	Ratnapura	PS-910101	6.679456	80.40223	6.640034	80.389858	J9RQ+2W9, Hangamuwa, Sri Lanka	4.593	
Rathnapura	Rathnapura	Thiriwanaketiya Viharaya	False	False	RTHNPRRTHNPRTHRWNKTYVHRY		Ratnapura	LK-91	6.586826	80.566158	Ratnapura	PS-910101	6.679456	80.40223	6.673451	80.425095	MCFG+92Q, Ratnapura, Sri Lanka	2.612839	
Rathnapura	Rathnapura	Rathnapura Sevali Vidyalaya	False	False	RTHNPRRTHNPRRTHNPRSVLVDYLY		Ratnapura	LK-91	6.586826	80.566158	Ratnapura	PS-910101	6.679456	80.40223	6.713215	80.385002	70000, 70000 A4, Ratnapura, Sri Lanka	4.209679	
Rathnapura	Rathnapura	Malwala Community Hall	False	False	RTHNPRRTHNPRMLWLCMMNTYHLL		Ratnapura	LK-91	6.586826	80.566158	Ratnapura	PS-910101	6.679456	80.40223	6.705517	80.384839	Ratnapura, Sri Lanka	3.477627	
Rathnapura	Rathnapura	Bulathgama Vidyalaya	False	False	RTHNPRRTHNPRBLTHGMVDYLY		Ratnapura	LK-91	6.586826	80.566158	Ratnapura	PS-910101	6.679456	80.40223	6.681597	80.40321	St.Aloysius' College , Church Road , Ratnapura , Srilanka, Cathedral Road, Ratnapura 70000, Sri Lanka	0.261598	
Rathnapura	Rathnapura	Gonakumbura Vidyalaya	False	False	RTHNPRRTHNPRGNKMBRVDYLY		Ratnapura	LK-91	6.586826	80.566158	Ratnapura	PS-910101	6.679456	80.40223	6.683533	80.399526	A4, Ratnapura, Sri Lanka	0.543031	
Rathnapura	Rathnapura	Bopeththa Community Hall	False	False	RTHNPRRTHNPRBPTHTHCMMNTYHLL		Ratnapura	LK-91	6.586826	80.566158	Ratnapura	PS-910101	6.679456	80.40223	6.701381	80.367479	PNR Hwy, Ratnapura, Sri Lanka	4.548125	
Rathnapura	Rathnapura	Marapana Vidyalaya	False	False	RTHNPRRTHNPRMRPNVDYLY		Ratnapura	LK-91	6.586826	80.566158	Ratnapura	PS-910101	6.679456	80.40223	6.658956	80.42987	Marapana, Sri Lanka	3.811006	
Kegalle	Warakapola	MOH Office - Warakapola	False	False	KGLLWRKPLMHFFCWRKPL		Kegalle	LK-92	7.104216	80.342866	Wrakapola	PS-920119	7.227488	80.199696	7.226501	80.197818	65GX+J44, Warakapola, Sri Lanka	0.234514	
Kegalle	Warakapola	Tholangamuwa Central College	False	False	KGLLWRKPLTHLNGMWCNTRLCLLG		Kegalle	LK-92	7.104216	80.342866	Wrakapola	PS-920119	7.227488	80.199696	7.237811	80.235547	Colombo - Kandy Rd, 71619, Sri Lanka	4.119239	
Kegalle	Warakapola	Mobile Vaccination	False	False	KGLLWRKPLMBLVCCNTN		Kegalle	LK-92	7.104216	80.342866	Wrakapola	PS-920119	7.227488	80.199696					#CenterLocationUnknown
Kegalle	Bulathkohupitiya	MOH Office - Bulathkohupitiya	False	False	KGLLBLTHKHPTYMHFFCBLTHKHPTY		Kegalle	LK-92	7.104216	80.342866	Bulathkohupitiya	PS-920232	7.106684	80.3347	7.109127	80.334565	485M+MR4, Bulathkohupitiya, Sri Lanka	0.272143	
Anuradhapura	Anuradhapura	Army Hospital Anuradhapura	False	False	NRDHPRNRDHPRRMYHSPTLNRDHPR		Anuradhapura	LK-71	8.39199	80.512958	Anuradapura	PS-710101	8.329752	80.407265	8.338302	80.407646	AB02, Anuradhapura, Sri Lanka	0.951939	
Anuradhapura	Anuradhapura	Anuradhapura Teaching Hospital	False	False	NRDHPRNRDHPRNRDHPRTCHNGHSPTL		Anuradhapura	LK-71	8.39199	80.512958	Anuradapura	PS-710101	8.329752	80.407265	8.324765	80.413968	Harischandra Mawatha, Anuradhapura, Sri Lanka	0.922993	
Anuradhapura	Anuradhapura	Walisinghe Harischandra Maha Vidyalaya	False	False	NRDHPRNRDHPRWLSNGHHRSCHNDRMHVDYLY		Anuradhapura	LK-71	8.39199	80.512958	Anuradapura	PS-710101	8.329752	80.407265	8.333249	80.405004	A12, Anuradhapura, Sri Lanka	0.461755	
Anuradhapura	Galenbindunuwewa	Yakalla Hospital	False	False	NRDHPRGLNBNDNWWYKLLHSPTL		Anuradhapura	LK-71	8.39199	80.512958	Galenbidunuwewa	PS-710121	8.29037	80.71501	8.2193	80.70284	6P93+P4G, Yakalla, Sri Lanka	8.017812	
Anuradhapura	Galenbindunuwewa	Nithurugollewa Viharaya	False	False	NRDHPRGLNBNDNWWNTHRGLLWVHRY		Anuradhapura	LK-71	8.39199	80.512958	Galenbidunuwewa	PS-710121	8.29037	80.71501	8.334575	80.390255	89MR+R4J, Anuradhapura, Sri Lanka	36.079561	#CenterFarFromPolice
Anuradhapura	Kahatagasdigiliya	MOH Office - Kahatagasdigiliya	False	False	NRDHPRKHTGSDGLYMHFFCKHTGSDGLY		Anuradhapura	LK-71	8.39199	80.512958	Kahatagasdigiliya	PS-710118	8.427328	80.688349	8.427329	80.689909	Puttalam - Anuradhapura - Trincomalee Hwy, Kahatagasdigiliya, Sri Lanka	0.171645	
Anuradhapura	Mihintale	Mihintale Hospital	False	False	NRDHPRMHNTLMHNTLHSPTL		Anuradhapura	LK-71	8.39199	80.512958	Mihintale	PS-710104	8.360062	80.511889	8.35505	80.509287	Kandy Rd, Mihintale, Sri Lanka	0.626724	
Anuradhapura	Thirappane	Ethungama Vidyalaya	False	False	NRDHPRTHRPPNTHNGMVDYLY		Anuradhapura	LK-71	8.39199	80.512958	Thirappone	PS-710106	6.907289	79.863819	8.238595	80.365479	69Q8+C5Q, Anuradhapura, Sri Lanka	158.073825	#CenterFarFromPolice
Polonnaruwa	Polonnaruwa	Mobile Medical Team	False	False	PLNNRWPLNNRWMBLMDCLTM		Polonnaruwa	LK-72	7.993659	81.026061	Polonnaruwa	PS-720125	7.924307	81.036895					#CenterLocationUnknown
Polonnaruwa	Polonnaruwa	Royal Central College	False	False	PLNNRWPLNNRWRYLCNTRLCLLG		Polonnaruwa	LK-72	7.993659	81.026061	Polonnaruwa	PS-720125	7.924307	81.036895	7.919643	81.003574	Newtown 51000, Sri Lanka	3.707395	
Polonnaruwa	Polonnaruwa	Thopawewa Maha Vidyalaya	False	False	PLNNRWPLNNRWTHPWWMHVDYLY		Polonnaruwa	LK-72	7.993659	81.026061	Polonnaruwa	PS-720125	7.924307	81.036895	7.938857	81.003164	Polonnaruwa, Sri Lanka	4.05313	
Polonnaruwa	Pulasthipura	Al Hilalpura Maha Vidyalaya	False	False	PLNNRWPLSTHPRLHLLPRMHVDYLY		Polonnaruwa	LK-72	7.993659	81.026061	Pulasthipura	PS-720126	8.028343	81.032376	8.014314	81.079627	Al Hilalpura, Thambala, Polonnaruwa, Somawathiya Rd, Thambala, Sri Lanka	5.433205	
Polonnaruwa	Medirigiriya	Bisobandara Primary School	False	False	PLNNRWMDRGRYBSBNDRPRMRYSCHL		Polonnaruwa	LK-72	7.993659	81.026061	Medirigiriya	PS-720130	8.150847	80.984493	8.14962	80.952308	4XX2+RWV, Medirigiriya, Sri Lanka	3.546401	
Polonnaruwa	Medirigiriya	Mandalagiriya Maha Vidyalaya	False	False	PLNNRWMDRGRYMNDLGRYMHVDYLY		Polonnaruwa	LK-72	7.993659	81.026061	Medirigiriya	PS-720130	8.150847	80.984493	8.152812	80.982788	5X3M+44F, Kavudulugama, Sri Lanka	0.288122	
Polonnaruwa	Medirigiriya	Kohombadamana Primary School	False	False	PLNNRWMDRGRYKHMBDMNPRMRYSCHL		Polonnaruwa	LK-72	7.993659	81.026061	Medirigiriya	PS-720130	8.150847	80.984493	8.145332	80.964927	B48, Medirigiriya, Sri Lanka	2.239986	
Polonnaruwa	Hingurakgoda	Kaudulla Maha Vidyalaya	False	False	PLNNRWHNGRKGDKDLLMHVDYLY		Polonnaruwa	LK-72	7.993659	81.026061	Hingurakgoda	PS-720129	8.048819	80.965751	8.090403	80.986858	Kaudulla, Polonnaruwa, Sri Lanka	5.176617	
Polonnaruwa	Hingurakgoda	Unagalawehera Vidyalaya	False	False	PLNNRWHNGRKGDNGLWHRVDYLY		Polonnaruwa	LK-72	7.993659	81.026061	Hingurakgoda	PS-720129	8.048819	80.965751	8.010986	80.994306	2X6V+9PV, Unagalawehera, Sri Lanka	5.25355	
Polonnaruwa	Hingurakgoda	Galamuna Maha Vidyalaya	False	False	PLNNRWHNGRKGDGLMNMHVDYLY		Polonnaruwa	LK-72	7.993659	81.026061	Hingurakgoda	PS-720129	8.048819	80.965751	8.044334	80.966734	Polonaruva, Hospital Junction, Hingurakgoda, Sri Lanka	0.510478	
Polonnaruwa	Minneriya	Colony Vidyalaya	False	False	PLNNRWMNNRYCLNYVDYLY		Polonnaruwa	LK-72	7.993659	81.026061	Minneriya	PS-720133	8.036341	80.904489	8.039278	80.908399	2WQ5+P96, Minneriya, Sri Lanka	0.540526	
Polonnaruwa	Minneriya	Girithalegama Maha Vidyalaya	False	False	PLNNRWMNNRYGRTHLGMMHVDYLY		Polonnaruwa	LK-72	7.993659	81.026061	Minneriya	PS-720133	8.036341	80.904489	7.993554	80.943648	Maradankadawala-Habarana-Thirukkondaiadimadu Hwy, Sri Lanka	6.42283	
Polonnaruwa	Minneriya	Yanthipura Primary School	False	False	PLNNRWMNNRYYNTHPRPRMRYSCHL		Polonnaruwa	LK-72	7.993659	81.026061	Minneriya	PS-720133	8.036341	80.904489	7.992943	80.964115	XXV7+5JH, Polonnaruwa, Sri Lanka	8.150599	
Polonnaruwa	Minneriya	Thambalawewa Viduyalaya	False	False	PLNNRWMNNRYTHMBLWWVDYLY		Polonnaruwa	LK-72	7.993659	81.026061	Minneriya	PS-720133	8.036341	80.904489	8.044187	80.933303	2WVM+M8F, பொலன்னறுவை, Sri Lanka	3.291283	
Polonnaruwa	Diyabeduma	Ihakuluwewa Wildlife Office	False	False	PLNNRWDYBDMHKLWWWLDLFFFC		Polonnaruwa	LK-72	7.993659	81.026061									#PoliceLocationUnknown
Polonnaruwa	Diyabeduma	Namalwewa Vidyalaya	False	False	PLNNRWDYBDMNMLWWVDYLY		Polonnaruwa	LK-72	7.993659	81.026061									#PoliceLocationUnknown
Polonnaruwa	Diyabeduma	Katukeliyawa Agrarian Organization Office	False	False	PLNNRWDYBDMKTKLYWGRRNRGNZTNFFC		Polonnaruwa	LK-72	7.993659	81.026061									#PoliceLocationUnknown
Polonnaruwa	Diyabeduma	Kahatagahapitiya Vidyalaya	False	False	PLNNRWDYBDMKHTGHPTYVDYLY		Polonnaruwa	LK-72	7.993659	81.026061									#PoliceLocationUnknown
Polonnaruwa	Bakamuna	Nikapitiya Vidyalaya	False	False	PLNNRWBKMNNKPTYVDYLY		Polonnaruwa	LK-72	7.993659	81.026061	Bakamuna	PS-720132	7.778789	80.816102	7.817431	80.85872	RV85+XFH, Polonnaruwa, Sri Lanka	6.366449	
Polonnaruwa	Bakamuna	Orubedisiyambalawa Vidyalaya	False	False	PLNNRWBKMNRBDSYMBLWVDYLY		Polonnaruwa	LK-72	7.993659	81.026061	Bakamuna	PS-720132	7.778789	80.816102	7.888895	80.978645	VXQH+HF2, Polonnaruwa, Sri Lanka	21.697721	#CenterFarFromPolice
Jaffna	Jaffna	Mobile Medical Team	False	False	JFFNJFFNMBLMDCLTM		Jaffna	LK-41	9.691792	80.098594	Jaffna	PS-410209	9.659919	80.010965					#CenterLocationUnknown
Jaffna	Jaffna	Mobile Medical Team	False	False	JFFNJFFNMBLMDCLTM		Jaffna	LK-41	9.691792	80.098594	Jaffna	PS-410209	9.659919	80.010965					#CenterLocationUnknown
Jaffna	Jaffna	Manjamanappathi Kovil	False	False	JFFNJFFNMNJMNPPTHKVL		Jaffna	LK-41	9.691792	80.098594	Jaffna	PS-410209	9.659919	80.010965	9.674532	80.029444	M2FH+RQ8, Jaffna, Sri Lanka	2.597601	
Jaffna	Jaffna	St. John's College	False	False	JFFNJFFNSTJHNSCLLG		Jaffna	LK-41	9.691792	80.098594	Jaffna	PS-410209	9.659919	80.010965	9.657495	80.026568	Main Street, Chundikuli-Columbuthurai Rd, section, Sri Lanka	1.732049	
Jaffna	Jaffna	Vaithiswara Vidyalaya	False	False	JFFNJFFNVTHSWRVDYLY		Jaffna	LK-41	9.691792	80.098594	Jaffna	PS-410209	9.659919	80.010965	9.672726	80.009234	M2F5+3MX, Jaffna, Sri Lanka	1.43711	
Jaffna	Jaffna	Nallur Durgamani Hall	False	False	JFFNJFFNNLLRDRGMNHLL		Jaffna	LK-41	9.691792	80.098594	Jaffna	PS-410209	9.659919	80.010965	9.674532	80.029444	M2FH+RQ8, Jaffna, Sri Lanka	2.597601	
Jaffna	Kopay	MOH Office- Nallur	False	False	JFFNKPYMHFFCNLLR		Jaffna	LK-41	9.691792	80.098594	Kopai	PS-410216	9.686887	80.03856	9.673947	80.027736	M2FH+H3H, Jaffna, Sri Lanka	1.865513	
Jaffna	Kopay	Urumpirai Hindu College	False	False	JFFNKPYRMPRHNDCLLG		Jaffna	LK-41	9.691792	80.098594	Kopai	PS-410216	9.686887	80.03856	9.72601	80.047054	P2GW+CR3, Jaffna, Sri Lanka	4.450175	
Jaffna	Kopay	Nirveli North RCTM College	False	False	JFFNKPYNRVLNRTHRCTMCLLG		Jaffna	LK-41	9.691792	80.098594	Kopai	PS-410216	9.686887	80.03856	9.711206	80.059962	Kopay Base Hospital, Jaffna, Sri Lanka	3.580942	
Jaffna	Chunnagam	Uduvil Girls College	False	False	JFFNCHNNGMDVLGRLSCLLG		Jaffna	LK-41	9.691792	80.098594	Chunnakam	PS-410211	9.745309	80.029151	9.734484	80.015916	Uduvil Road, Uduvil, Sri Lanka	1.885444	
Jaffna	Chunnagam	Thavadi HTM Hall	False	False	JFFNCHNNGMTHVDHTMHLL		Jaffna	LK-41	9.691792	80.098594	Chunnakam	PS-410211	9.745309	80.029151	9.664467	80.010483	AB16, Jaffna, Sri Lanka	9.222033	
Jaffna	Chunnagam	MOH Office - Uduvil	False	False	JFFNCHNNGMMHFFCDVL		Jaffna	LK-41	9.691792	80.098594	Chunnakam	PS-410211	9.745309	80.029151	9.742938	80.035132	P2VP+53C, Chunnakam, Sri Lanka	0.706719	
Jaffna	Chunnagam	Erlalai Muththumil Hall	False	False	JFFNCHNNGMRLLMTHTHMLHLL		Jaffna	LK-41	9.691792	80.098594	Chunnakam	PS-410211	9.745309	80.029151	9.750062	80.029209	Jaffna-Kankesanturai Rd, Chunnakam, Sri Lanka	0.528714	
Jaffna	Chunnagam	Inuvil Ariwalyam Hall	False	False	JFFNCHNNGMNVLRWLYMHLL		Jaffna	LK-41	9.691792	80.098594	Chunnakam	PS-410211	9.745309	80.029151	9.734523	80.023895	Jaffna-Kankesanturai Rd, Chunnakam, Sri Lanka	1.330918	
Jaffna	Chunnagam	Sitti Vinayagar Hall	False	False	JFFNCHNNGMSTTVNYGRHLL		Jaffna	LK-41	9.691792	80.098594	Chunnakam	PS-410211	9.745309	80.029151	9.736919	80.041761	Urelu, Jaffna, Sri Lanka	1.667899	
Jaffna	Point Pedro	Wada Hindu Girls' College	False	False	JFFNPNTPDRWDHNDGRLSCLLG		Jaffna	LK-41	9.691792	80.098594	Point Pedro	PS-410106	9.827018	80.233187	9.817623	80.23136	Vinayaga Muthaliyaar Veethy, Point Pedro, Sri Lanka	1.064016	
Jaffna	Thelippalai	Union College Tellippalai	False	False	JFFNTHLPPLNNCLLGTLLPPL		Jaffna	LK-41	9.691792	80.098594	Thelippalay	PS-410104	6.933075	79.857181	9.785988	80.033678	AB16, Tellippalai, Sri Lanka	317.922779	#CenterFarFromPolice
Jaffna	Nelliyady	MOH Office - Karaveddy	False	False	JFFNNLLYDYMHFFCKRVDDY		Jaffna	LK-41	9.691792	80.098594	Nelliadi	PS-410108	9.778397	80.113303	9.792126	80.201799	Q6R2+VP3, Point Pedro, Sri Lanka	9.819656	
Jaffna	Kodikaman	DH – Varani	False	False	JFFNKDKMNDHVRN		Jaffna	LK-41	9.691792	80.098594	Kodikamam	PS-410217	9.666459	80.132384	9.681381	80.219829	Kodikamam, Kandy - Jaffna Hwy, Sri Lanka	9.73078	
Jaffna	Ilavalai	Pandatherippu Girls College	False	False	JFFNLVLPNDTHRPPGRLSCLLG		Jaffna	LK-41	9.691792	80.098594	Ilavalai	PS-410102	9.775967	79.983146	9.773247	79.969055	Pandatharippu Main Street, Pandatharippu, Sri Lanka	1.573938	
Jaffna	Wadukkotte	MOH Office - Chankani	False	False	JFFNWDKKTTMHFFCCHNKN		Jaffna	LK-41	9.691792	80.098594	Vaddukoddai		9.728886	79.947771	9.753617	79.976004	QX3G+CCR, Sri Lanka	4.140836	
Jaffna	Wadukkotte	Sulipuram Victoria College	False	False	JFFNWDKKTTSLPRMVCTRCLLG		Jaffna	LK-41	9.691792	80.098594	Vaddukoddai		9.728886	79.947771	9.759993	79.942186	Paralai Rd, Sri Lanka	3.513779	
Jaffna	Manippai	Sandilippai Hindu College	False	False	JFFNMNPPSNDLPPHNDCLLG		Jaffna	LK-41	9.691792	80.098594	Manippai	PS-410210	9.727151	79.996905	9.729106	79.992545	PXHV+J2V, Manipay, Sri Lanka	0.525128	
Jaffna	Kayts	MOH Office - Karainagar	False	False	JFFNKYTSMHFFCKRNGR		Jaffna	LK-41	9.691792	80.098594	Kayts	PS-410212	9.728654	79.94775	9.725097	79.99772	Sri Lanka, Manipay, Sri Lanka	5.492521	
Jaffna	Kayts	Public Health Centre	False	False	JFFNKYTSPBLCHLTHCNTR		Jaffna	LK-41	9.691792	80.098594	Kayts	PS-410212	9.728654	79.94775	9.693197	79.868309	MVV9+78F, Kayts, Sri Lanka	9.560823	
Jaffna	Kayts	Mandativu Maha Vidyalaya	False	False	JFFNKYTSMNDTVMHVDYLY		Jaffna	LK-41	9.691792	80.098594	Kayts	PS-410212	9.728654	79.94775	9.690838	79.85659	Kayts, Sri Lanka	10.843518	
Jaffna	Kayts	MOH Office - Kayts	False	False	JFFNKYTSMHFFCKYTS		Jaffna	LK-41	9.691792	80.098594	Kayts	PS-410212	9.728654	79.94775	9.697759	79.866366	Sri Lanka, Kayts, Sri Lanka	9.561445	
Jaffna	Chavakachcheri	Kaithadi Wigneswara Maha Vidyalaya	False	False	JFFNCHVKCHCHRKTHDWGNSWRMHVDYLY		Jaffna	LK-41	9.691792	80.098594	Chawakachcheri	PS-410215	9.666459	80.132384	9.694451	80.104592	M4V3+QRP, Chavakachcheri, Sri Lanka	4.356615	
Jaffna	Chavakachcheri	Navakkuli Maha Vidyalaya	False	False	JFFNCHVKCHCHRNVKKLMHVDYLY		Jaffna	LK-41	9.691792	80.098594	Chawakachcheri	PS-410215	9.666459	80.132384	9.658598	80.097497	M35W+CXQ, Chavakachcheri, Sri Lanka	3.924081	
Jaffna	Chavakachcheri	Golden Jubilee Hall	False	False	JFFNCHVKCHCHRGLDNJBLHLL		Jaffna	LK-41	9.691792	80.098594	Chawakachcheri	PS-410215	9.666459	80.132384	9.659136	80.160946	M556+M94, Chavakachcheri, Sri Lanka	3.236063	
Jaffna	Chavakachcheri	MOH Office - Chavakachcheri	False	False	JFFNCHVKCHCHRMHFFCCHVKCHCHR		Jaffna	LK-41	9.691792	80.098594	Chawakachcheri	PS-410215	9.666459	80.132384	9.663455	80.166068	Dutch Rd, Chavakachcheri, Sri Lanka	3.70857	
Kilinochchi	Kilinochchi	MOH Office - Karachchi	False	False	KLNCHCHKLNCHCHMHFFCKRCHCH		Kilinochchi	LK-45	9.415742	80.30358	Kilinochchi	PS-450131	9.392265	80.407846	9.396965	80.407782	Kandy - Jaffna Hwy, Kilinochchi, Sri Lanka	0.522827	
Kilinochchi	Pooneryn	MOH Office - Pooneryn	False	False	KLNCHCHPNRYNMHFFCPNRYN		Kilinochchi	LK-45	9.415742	80.30358	Pooneryn		9.505717	80.21101	9.507968	80.208317	G655+58P, Pooneryn, Sri Lanka	0.387256	
Mullaitivu	Oddusuddan	MOH Office - Oddusuddan	False	False	MLLTVDDSDDNMHFFCDDSDDN		Mullaitivu	LK-44	9.167643	80.549091	Oddusudan	PS-440151	9.160983	80.652821	9.162816	80.661584	5M76+4JG, Oddusuddan, Sri Lanka	0.983634	
Mullaitivu	Pudukudiruppu	MOH Office - Pudukudiruppu	False	False	MLLTVPDKDRPPMHFFCPDKDRPP		Mullaitivu	LK-44	9.167643	80.549091	Pudukuduiruppu	PS-440149	7.00152	79.95003	9.320965	80.683013	Parantan-Mullaitivu Hwy, Velikkandal, Sri Lanka	270.317914	#CenterFarFromPolice
Trincomalee	Trincomalee	Mobile Medical Team	False	False	TRNCMLTRNCMLMBLMDCLTM		Trincomalee	LK-53	8.551241	81.092014	Trincomalee	PS-530130	8.563946	81.234023					#CenterLocationUnknown
Trincomalee	Muttur	MOH Office – Muttur	False	False	TRNCMLMTTRMHFFCMTTR		Trincomalee	LK-53	8.551241	81.092014	Mutur	PS-530138	8.461133	81.259371	8.453916	81.264494	1 Old Batticaloa Rd, Mutur, Sri Lanka	0.980859	
Trincomalee	Muttur	Muttur Base Hospital	False	False	TRNCMLMTTRMTTRBSHSPTL		Trincomalee	LK-53	8.551241	81.092014	Mutur	PS-530138	8.461133	81.259371	8.454534	81.263018	Old Batticaloa Rd, Mutur, Sri Lanka	0.836517	
Trincomalee	Muttur	Muttur An Nahar Maha Vidyalaya	False	False	TRNCMLMTTRMTTRNNHRMHVDYLY		Trincomalee	LK-53	8.551241	81.092014	Mutur	PS-530138	8.461133	81.259371	8.451822	81.262307	F726+PWF, Mutur, Sri Lanka	1.084867	
Trincomalee	Muttur	Al Hidayah Maha Vidyalaya	False	False	TRNCMLMTTRLHDYHMHVDYLY		Trincomalee	LK-53	8.551241	81.092014	Mutur	PS-530138	8.461133	81.259371	8.449646	81.26789	1 Old Batticaloa Rd, Mutur, Sri Lanka	1.584607	
Trincomalee	Muttur	Chennaiur Maha Vidyalaya	False	False	TRNCMLMTTRCHNNRMHVDYLY		Trincomalee	LK-53	8.551241	81.092014	Mutur	PS-530138	8.461133	81.259371	8.449646	81.26789	1 Old Batticaloa Rd, Mutur, Sri Lanka	1.584607	
Trincomalee	Muttur	Al Hilal Maha Vidyalaya	False	False	TRNCMLMTTRLHLLMHVDYLY		Trincomalee	LK-53	8.551241	81.092014	Mutur	PS-530138	8.461133	81.259371	8.457062	81.268574	Mutur, Sri Lanka	1.109154	
Trincomalee	Muttur	Mallikaithivu Maha Vidyalaya	False	False	TRNCMLMTTRMLLKTHVMHVDYLY		Trincomalee	LK-53	8.551241	81.092014	Mutur	PS-530138	8.461133	81.259371	8.449646	81.26789	1 Old Batticaloa Rd, Mutur, Sri Lanka	1.584607	
Trincomalee	Muttur	Palathopur Zahira Maha Vidyalaya	False	False	TRNCMLMTTRPLTHPRZHRMHVDYLY		Trincomalee	LK-53	8.551241	81.092014	Mutur	PS-530138	8.461133	81.259371	8.457906	81.268402	Mutur, Sri Lanka	1.056434	
Trincomalee	Muttur	Al Hamra Vidyalaya	False	False	TRNCMLMTTRLHMRVDYLY		Trincomalee	LK-53	8.551241	81.092014	Mutur	PS-530138	8.461133	81.259371	8.726266	81.172086	P5GC+GR4, Irrakkakandi, Sri Lanka	31.013792	#CenterFarFromPolice
Trincomalee	Muttur	Kiliveddi Hospital	False	False	TRNCMLMTTRKLVDDHSPTL		Trincomalee	LK-53	8.551241	81.092014	Mutur	PS-530138	8.461133	81.259371	8.361836	81.28427	Trincomalee Hwy, Sri Lanka	11.379518	
Trincomalee	Muttur	Periya Palam Church	False	False	TRNCMLMTTRPRYPLMCHRCH		Trincomalee	LK-53	8.551241	81.092014	Mutur	PS-530138	8.461133	81.259371	8.426188	81.267843	Trincomalee Hwy, Sri Lanka	3.997105	
Trincomalee	Muttur	Sampur Hospital	False	False	TRNCMLMTTRSMPRHSPTL		Trincomalee	LK-53	8.551241	81.092014	Mutur	PS-530138	8.461133	81.259371	8.481264	81.292795	F7JV+G43, Trincomalee, Sri Lanka	4.305295	
Trincomalee	Muttur	Thopur Hospital	False	False	TRNCMLMTTRTHPRHSPTL		Trincomalee	LK-53	8.551241	81.092014	Mutur	PS-530138	8.461133	81.259371	8.39979	81.304998	Thoppur, Sri Lanka	8.471041	
Trincomalee	Kinniya	MOH Office - Naduthivu	False	False	TRNCMLKNNYMHFFCNDTHV		Trincomalee	LK-53	8.551241	81.092014	Kinnia	PS-530140	6.907289	79.863819	8.593907	81.211949	Anbuvalipuram, Trincomalee, Sri Lanka	239.310726	#CenterFarFromPolice
Trincomalee	Kinniya	Nadu Uththu Hospital	False	False	TRNCMLKNNYNDTHTHHSPTL		Trincomalee	LK-53	8.551241	81.092014	Kinnia	PS-530140	6.907289	79.863819	8.501539	81.187539	Tampalakamam-Kinniya Rd, Kinniya 31100, Sri Lanka	229.636589	#CenterFarFromPolice
Trincomalee	Kinniya	Mahamar Alikar Maha Vidyalaya	False	False	TRNCMLKNNYMHMRLKRMHVDYLY		Trincomalee	LK-53	8.551241	81.092014	Kinnia	PS-530140	6.907289	79.863819	8.480347	81.185754	F5JP+48J, Kinniya, Sri Lanka	227.697731	#CenterFarFromPolice
Trincomalee	Kinniya	Iladi Buhari Vidyalaya	False	False	TRNCMLKNNYLDBHRVDYLY		Trincomalee	LK-53	8.551241	81.092014	Kinnia	PS-530140	6.907289	79.863819	8.504893	81.179851	Kinniya, Sri Lanka	229.387631	#CenterFarFromPolice
Trincomalee	Kinniya	Surangal Society Hall	False	False	TRNCMLKNNYSRNGLSCTYHLL		Trincomalee	LK-53	8.551241	81.092014	Kinnia	PS-530140	6.907289	79.863819					#CenterLocationUnknown
Trincomalee	Kinniya	MOH Office - Kinniya	False	False	TRNCMLKNNYMHFFCKNNY		Trincomalee	LK-53	8.551241	81.092014	Kinnia	PS-530140	6.907289	79.863819	8.498696	81.179644	F5XH+FVC, Kinniya 31100, Sri Lanka	228.840304	#CenterFarFromPolice
Trincomalee	Kinniya	Al Aksha Central College	False	False	TRNCMLKNNYLKSHCNTRLCLLG		Trincomalee	LK-53	8.551241	81.092014	Kinnia	PS-530140	6.907289	79.863819	8.496662	81.180256	F5WJ+M46, Kinniya 31100, Sri Lanka	228.708367	#CenterFarFromPolice
Trincomalee	Kinniya	Al Adan Vidyalaya	False	False	TRNCMLKNNYLDNVDYLY		Trincomalee	LK-53	8.551241	81.092014	Kinnia	PS-530140	6.907289	79.863819	8.502547	81.180383	Kinniya, Sri Lanka	229.222923	#CenterFarFromPolice
Trincomalee	Kinniya	Al Irfan Viyalaya	False	False	TRNCMLKNNYLRFNVYLY		Trincomalee	LK-53	8.551241	81.092014	Kinnia	PS-530140	6.907289	79.863819	8.481391	81.191368	F5JR+HG5, Kinniya, Sri Lanka	228.183186	#CenterFarFromPolice
Trincomalee	Kinniya	Kinniya Base Hospital	False	False	TRNCMLKNNYKNNYBSHSPTL		Trincomalee	LK-53	8.551241	81.092014	Kinnia	PS-530140	6.907289	79.863819	8.501539	81.187539	Tampalakamam-Kinniya Rd, Kinniya 31100, Sri Lanka	229.636589	#CenterFarFromPolice
Trincomalee	Sripura	MOH Office – Sripura	False	False	TRNCMLSRPRMHFFCSRPR		Trincomalee	LK-53	8.551241	81.092014	Sripura	PS-530136	8.929617	80.81428	8.926697	80.814799	Padavi Sripura, Padaviya - Sripura Road, Welioya, Sri Lanka	0.329869	
Trincomalee	Sripura	Jayanthipura Vidyalaya	False	False	TRNCMLSRPRJYNTHPRVDYLY		Trincomalee	LK-53	8.551241	81.092014	Sripura	PS-530136	8.929617	80.81428	8.908396	80.833813	Jayanthi wewa, Padavi -Sripura, Sri Lanka	3.190373	
Trincomalee	Sripura	Sripura Hospital	False	False	TRNCMLSRPRSRPRHSPTL		Trincomalee	LK-53	8.551241	81.092014	Sripura	PS-530136	8.929617	80.81428	8.929308	80.813901	Padaviya - Sripura Road, Welioya, Sri Lanka	0.053996	
Trincomalee	Kuchchaveli	MOH Office - Kuchchaveli	False	False	TRNCMLKCHCHVLMHFFCKCHCHVL		Trincomalee	LK-53	8.551241	81.092014	Kuchchaweli	PS-530133	8.81895	81.100438	8.740082	81.161616	P5R6+2JQ, Kumpurupiddi, Sri Lanka	11.053646	
Trincomalee	Kuchchaveli	Divisional Hospital - Kuchchaveli	False	False	TRNCMLKCHCHVLDVSNLHSPTLKCHCHVL		Trincomalee	LK-53	8.551241	81.092014	Kuchchaweli	PS-530133	8.81895	81.100438	8.814795	81.102358	R472+WW9, Kuchchaveli, Sri Lanka	0.508064	
Trincomalee	Kuchchaveli	Annuria Muslim College	False	False	TRNCMLKCHCHVLNNRMSLMCLLG		Trincomalee	LK-53	8.551241	81.092014	Kuchchaweli	PS-530133	8.81895	81.100438	8.504893	81.179851	Kinniya, Sri Lanka	36.007413	#CenterFarFromPolice
Trincomalee	Kuchchaveli	Erakkandi Muslim College	False	False	TRNCMLKCHCHVLRKKNDMSLMCLLG		Trincomalee	LK-53	8.551241	81.092014	Kuchchaweli	PS-530133	8.81895	81.100438	8.824431	81.095742	R3FW+Q7H, Kuchchaveli, Sri Lanka	0.798806	
Trincomalee	Kuchchaveli	Thiriyaya Hospital	False	False	TRNCMLKCHCHVLTHRYYHSPTL		Trincomalee	LK-53	8.551241	81.092014	Kuchchaweli	PS-530133	8.81895	81.100438	8.682159	80.953435	Thiriyaya Rd, Sri Lanka	22.196275	#CenterFarFromPolice
Trincomalee	Kuchchaveli	Divisional Hospital - Nilaveli	False	False	TRNCMLKCHCHVLDVSNLHSPTLNLVL		Trincomalee	LK-53	8.551241	81.092014	Kuchchaweli	PS-530133	8.81895	81.100438	8.681035	81.193632	M5JV+CF6, Nilaveli, Sri Lanka	18.44695	
Trincomalee	Kantale	MOH Office – Kantale	False	False	TRNCMLKNTLMHFFCKNTL		Trincomalee	LK-53	8.551241	81.092014	Kantale	PS-530241	8.356129	81.007739	8.349617	81.009107	අග්‍රබෝධි මාවත, Kantale, Sri Lanka	0.739809	
Trincomalee	Kantale	Al Thariq Vidyalaya	False	False	TRNCMLKNTLLTHRQVDYLY		Trincomalee	LK-53	8.551241	81.092014	Kantale	PS-530241	8.356129	81.007739	8.35681	81.024939	924F+PXG, Kantale, Sri Lanka	1.894356	
Trincomalee	Kantale	Kantale Base Hospital	False	False	TRNCMLKNTLKNTLBSHSPTL		Trincomalee	LK-53	8.551241	81.092014	Kantale	PS-530241	8.356129	81.007739	8.366314	81.004891	A6, Kantale, Sri Lanka	1.17546	
Trincomalee	Kantale	Gantalawa Central College	False	False	TRNCMLKNTLGNTLWCNTRLCLLG		Trincomalee	LK-53	8.551241	81.092014	Kantale	PS-530241	8.356129	81.007739	8.379492	81.010837	Kandy Rd, Kantale 31300, Sri Lanka	2.62093	
Trincomalee	Kantale	Unit 14 Jayarajarama Viharaya	False	False	TRNCMLKNTLNTJYRJRMVHRY		Trincomalee	LK-53	8.551241	81.092014	Kantale	PS-530241	8.356129	81.007739	8.351263	81.006993	Kantale, Sri Lanka	0.547435	
Trincomalee	Vanela	Vanela Central Dispensary	False	False	TRNCMLVNLVNLCNTRLDSPNSRY		Trincomalee	LK-53	8.551241	81.092014									#PoliceLocationUnknown
Trincomalee	Agbopura	Batukachchiya Central Dispensary	False	False	TRNCMLGBPRBTKCHCHYCNTRLDSPNSRY		Trincomalee	LK-53	8.551241	81.092014	Agbopura	PS-530242	8.331395	80.976489	8.480713	81.165957	Kachchakodutheevu,Kinniya, Kinniya, Sri Lanka	26.654993	#CenterFarFromPolice
Trincomalee	Sampur	Patalipuram Health Medical Centre	False	False	TRNCMLSMPRPTLPRMHLTHMDCLCNTR		Trincomalee	LK-53	8.551241	81.092014									#PoliceLocationUnknown
Trincomalee	Pulmoddai	Pulmoddai Base Hospital	False	False	TRNCMLPLMDDPLMDDBSHSPTL	Base Hospital - Pulmoddai	Trincomalee	LK-53	8.551241	81.092014	Pulmudai	PS-530135	6.915266	79.87829	8.941204	80.983139	WXRM+F7J, Pulmoddai, Sri Lanka	256.112801	#CenterFarFromPolice
Trincomalee	Pulmoddai	Muslim National College	False	False	TRNCMLPLMDDMSLMNTNLCLLG		Trincomalee	LK-53	8.551241	81.092014	Pulmudai	PS-530135	6.915266	79.87829	8.940296	80.985139	B60, Pulmoddai, Sri Lanka	256.12882	#CenterFarFromPolice
Trincomalee	Serunuwara	MOH Office - Serunuwara	False	False	TRNCMLSRNWRMHFFCSRNWR		Trincomalee	LK-53	8.551241	81.092014	Serunuwara	PS-530244	8.321863	81.299322	8.323143	81.299894	B10, Sri Lanka	0.155671	
Trincomalee	Serunuwara	Serunuwara Hospital	False	False	TRNCMLSRNWRSRNWRHSPTL		Trincomalee	LK-53	8.551241	81.092014	Serunuwara	PS-530244	8.321863	81.299322	8.322964	81.299734	Allai-Kantalai Rd, Sri Lanka	0.130589	
Trincomalee	Serunuwara	Selvanagar Maha Vidyalaya	False	False	TRNCMLSRNWRSLVNGRMHVDYLY		Trincomalee	LK-53	8.551241	81.092014	Serunuwara	PS-530244	8.321863	81.299322	8.323143	81.299894	B10, Sri Lanka	0.155671	
Trincomalee	Morawewa	Mahadivulwewa Hospital	False	False	TRNCMLMRWWMHDVLWWHSPTL		Trincomalee	LK-53	8.551241	81.092014	Morawewa	PS-530247	8.630317	81.031386	8.620893	80.968736	JXC9+9F5, Mahadivul Wewa, Sri Lanka	6.969016	
Trincomalee	Morawewa	Morawewa Hospital	False	False	TRNCMLMRWWMRWWHSPTL		Trincomalee	LK-53	8.551241	81.092014	Morawewa	PS-530247	8.630317	81.031386	8.62809	81.043818	Morawewa, Pankulam 31000, Sri Lanka	1.389415	
Trincomalee	Harbour Police	MOH Office - Trincomalee	False	False	TRNCMLHRBRPLCMHFFCTRNCML		Trincomalee	LK-53	8.551241	81.092014	Trinco Harbour Police	PS-530131	8.56705	81.231407	8.598974	81.216963	MOH Office, Farm Rd, Trincomalee, Sri Lanka	3.890062	
Trincomalee	Harbour Police	Trincomalee Base Hospital	False	False	TRNCMLHRBRPLCTRNCMLBSHSPTL		Trincomalee	LK-53	8.551241	81.092014	Trinco Harbour Police	PS-530131	8.56705	81.231407	8.56486	81.239445	Hospital Ln, Trincomalee, Sri Lanka	0.917037	
Trincomalee	Uppuveli	MOH Office - Uppuveli	False	False	TRNCMLPPVLMHFFCPPVL		Trincomalee	LK-53	8.551241	81.092014	Uppuweli	PS-530134	8.593614	81.21743	8.607961	81.216512	Nilaveli Rd, Trincomalee, Sri Lanka	1.599005	
Trincomalee	Ichchalampattu	MOH Office - Ichchalampattu	False	False	TRNCMLCHCHLMPTTMHFFCCHCHLMPTT	Eachchilampattu Hospital	Trincomalee	LK-53	8.551241	81.092014	Ichchalampattu		8.289549	81.359002	8.289644	81.358983	Highway, Ichchalampattu, Trincomalee, Sri Lanka	0.010772	
Trincomalee	Ichchalampattu	Kalaimahal  Vidyalaya	False	False	TRNCMLCHCHLMPTTKLMHLVDYLY		Trincomalee	LK-53	8.551241	81.092014	Ichchalampattu		8.289549	81.359002	8.434591	81.158676	Kinniya, Trincomaleeதிருகோணமலை, Sri Lanka	27.31795	#CenterFarFromPolice
Trincomalee	Ichchalampattu	Karakamunai Community Hall	False	False	TRNCMLCHCHLMPTTKRKMNCMMNTYHLL		Trincomalee	LK-53	8.551241	81.092014	Ichchalampattu		8.289549	81.359002	8.289549	81.358986	Trincomalee Hwy, Sri Lanka	0.001761	
Trincomalee	Thambalagamuwa	Siraj Nagar Muslim College	False	False	TRNCMLTHMBLGMWSRJNGRMSLMCLLG		Trincomalee	LK-53	8.551241	81.092014	Thambalagamuva	PS-530243	6.907289	79.863819	8.465601	81.082906	Siraj Nagar,, Trincomalee, Sri Lanka	219.318228	#CenterFarFromPolice
Trincomalee	Thambalagamuwa	Kulakottan Vidyalaya	False	False	TRNCMLTHMBLGMWKLKTTNVDYLY		Trincomalee	LK-53	8.551241	81.092014	Thambalagamuva	PS-530243	6.907289	79.863819	8.491061	81.104748	potkerney Thampalagamam, Sri Lanka	223.028906	#CenterFarFromPolice
Trincomalee	Thambalagamuwa	Thambalagamuwa Hospital	False	False	TRNCMLTHMBLGMWTHMBLGMWHSPTL		Trincomalee	LK-53	8.551241	81.092014	Thambalagamuva	PS-530243	6.907289	79.863819	8.477589	81.108949	F4H5+2HP, Trincomalee, Sri Lanka	222.134461	#CenterFarFromPolice
Trincomalee	Thambalagamuwa	Mollipathana Sinhala Maha Vidyalaya	False	False	TRNCMLTHMBLGMWMLLPTHNSNHLMHVDYLY		Trincomalee	LK-53	8.551241	81.092014	Thambalagamuva	PS-530243	6.907289	79.863819	8.491061	81.104748	potkerney Thampalagamam, Sri Lanka	223.028906	#CenterFarFromPolice
Trincomalee	Thambalagamuwa	Mollipathana Central Dispensary	False	False	TRNCMLTHMBLGMWMLLPTHNCNTRLDSPNSRY		Trincomalee	LK-53	8.551241	81.092014	Thambalagamuva	PS-530243	6.907289	79.863819	8.454476	81.062722	96 A6, Mullipotana, Sri Lanka	216.98052	#CenterFarFromPolice
Trincomalee	Thambalagamuwa	Gantalawa Central Dispensary	False	False	TRNCMLTHMBLGMWGNTLWCNTRLDSPNSRY		Trincomalee	LK-53	8.551241	81.092014	Thambalagamuva	PS-530243	6.907289	79.863819	8.454476	81.062722	96 A6, Mullipotana, Sri Lanka	216.98052	#CenterFarFromPolice
Trincomalee	Gomarankadawala	MOH Office - Gomarankadawala	False	False	TRNCMLGMRNKDWLMHFFCGMRNKDWL		Trincomalee	LK-53	8.551241	81.092014	Gomarankadawala	PS-530248	8.674487	80.967555	8.674726	80.955691	Unnamed Road, Gomarankadawala, Sri Lanka	1.304806	
Trincomalee	Batticaloa	Mobile Medical Team	False	False	TRNCMLBTTCLMBLMDCLTM		Trincomalee	LK-53	8.551241	81.092014	Batticaloa	PS-510101	7.717949	81.699294					#CenterLocationUnknown
Batticaloa	Batticaloa	Urani Saraswathi Vidyalaya - Batticaloa	False	False	BTTCLBTTCLRNSRSWTHVDYLYBTTCL		Batticaloa	LK-51	7.792772	81.486513	Batticaloa	PS-510101	7.717949	81.699294	7.731928	81.678315	PMJH+Q8G, Batticaloa, Sri Lanka	2.786477	
Batticaloa	Batticaloa	Hindu College - Batticaloa	False	False	BTTCLBTTCLHNDCLLGBTTCL		Batticaloa	LK-51	7.792772	81.486513	Batticaloa	PS-510101	7.717949	81.699294	7.720185	81.69817	Bar Rd, Batticaloa, Sri Lanka	0.277858	
Batticaloa	Batticaloa	Arunodaya Vidyalaya	False	False	BTTCLBTTCLRNDYVDYLY		Batticaloa	LK-51	7.792772	81.486513	Batticaloa	PS-510101	7.717949	81.699294	7.730997	81.674729	Batticaloa, Sri Lanka	3.071917	
Batticaloa	Batticaloa	Thiripparanathurai Vidyalaya	False	False	BTTCLBTTCLTHRPPRNTHRVDYLY		Batticaloa	LK-51	7.792772	81.486513	Batticaloa	PS-510101	7.717949	81.699294	7.720143	81.700516	PPC2+362, Batticaloa, Sri Lanka	0.278741	
Batticaloa	Batticaloa	Sathurukondan Sarvodaya	False	False	BTTCLBTTCLSTHRKNDNSRVDY		Batticaloa	LK-51	7.792772	81.486513	Batticaloa	PS-510101	7.717949	81.699294	7.751535	81.671916	Sathurukondan, Batticaloa, Sri Lanka	4.80224	
Batticaloa	Batticaloa	Kalladi Ignisiyas Vidyalaya	False	False	BTTCLBTTCLKLLDGNSYSVDYLY		Batticaloa	LK-51	7.792772	81.486513	Batticaloa	PS-510101	7.717949	81.699294	7.720143	81.700516	PPC2+362, Batticaloa, Sri Lanka	0.278741	
Batticaloa	Vellawali	Selvapuram Vidyalaya	False	False	BTTCLVLLWLSLVPRMVDYLY		Batticaloa	LK-51	7.792772	81.486513	Vellavali	PS-510111	6.907289	79.863819	7.720143	81.700516	PPC2+362, Batticaloa, Sri Lanka	221.887623	#CenterFarFromPolice
Batticaloa	Vellawali	Vammiadi Uththu Tamil Vidyalaya	False	False	BTTCLVLLWLVMMDTHTHTMLVDYLY		Batticaloa	LK-51	7.792772	81.486513	Vellavali	PS-510111	6.907289	79.863819	7.829278	81.471839	Batticaloa, Sri Lanka	204.892589	#CenterFarFromPolice
Batticaloa	Vellawali	Kannakipuram Vidyalaya	False	False	BTTCLVLLWLKNNKPRMVDYLY		Batticaloa	LK-51	7.792772	81.486513	Vellavali	PS-510111	6.907289	79.863819	7.493502	81.795789	Kannakipuram, Kaluwanchikudy, Sri Lanka	222.945114	#CenterFarFromPolice
Batticaloa	Kaluwanchikudy	Kaludawali Vidyalaya	False	False	BTTCLKLWNCHKDYKLDWLVDYLY		Batticaloa	LK-51	7.792772	81.486513	Kalawanchikudy	PS-510110	7.515908	81.787051	7.547235	81.787676	A4, Kaluwanchikudy, Sri Lanka	3.485178	
Batticaloa	Kaluwanchikudy	Kaludawali RTM Vidyalaya	False	False	BTTCLKLWNCHKDYKLDWLRTMVDYLY		Batticaloa	LK-51	7.792772	81.486513	Kalawanchikudy	PS-510110	7.515908	81.787051	7.547235	81.787676	A4, Kaluwanchikudy, Sri Lanka	3.485178	
Batticaloa	Kaluwanchikudy	Kaluwanchikudy Hospital	False	False	BTTCLKLWNCHKDYKLWNCHKDYHSPTL	Base Hospital - Kaluwanchikudy	Batticaloa	LK-51	7.792772	81.486513	Kalawanchikudy	PS-510110	7.515908	81.787051	7.51724	81.785184	GQ8P+V3V, Kaluwanchikudy, Sri Lanka	0.25365	
Batticaloa	Valachchenai	Valachchenai Base Hospital	False	False	BTTCLVLCHCHNVLCHCHNBSHSPTL		Batticaloa	LK-51	7.792772	81.486513	Valachchanai	PS-510107	7.908015	81.533004	7.911315	81.533046	Valaichchenai-Nasuvantivu-Navaladi Road, Sri Lanka	0.367088	
Batticaloa	Valachchenai	MOH Office - Oddamavadi	False	False	BTTCLVLCHCHNMHFFCDDMVD		Batticaloa	LK-51	7.792772	81.486513	Valachchanai	PS-510107	7.908015	81.533004	7.912281	81.532775	WG6M+W46, Batticaloa, Sri Lanka	0.475177	
Batticaloa	Valachchenai	MOH Office - Koralepattu Central	False	False	BTTCLVLCHCHNMHFFCKRLPTTCNTRL		Batticaloa	LK-51	7.792772	81.486513	Valachchanai	PS-510107	7.908015	81.533004	7.922593	81.530022	Batticaloa, Sri Lanka	1.654455	
Batticaloa	Valachchenai	Sungankarni GJM Vidyalaya	False	False	BTTCLVLCHCHNSNGNKRNGJMVDYLY		Batticaloa	LK-51	7.792772	81.486513	Valachchanai	PS-510107	7.908015	81.533004	7.920735	81.521581	Hairath Vidyalaya Road, Valaichenai, Oddamavadi, Sri Lanka	1.893553	
Batticaloa	Valachchenai	Nasiwantiv Shivan Vidyalaya	False	False	BTTCLVLCHCHNNSWNTVSHVNVDYLY		Batticaloa	LK-51	7.792772	81.486513	Valachchanai	PS-510107	7.908015	81.533004	7.923527	81.52967	WGFH+CV7, Batticaloa, Sri Lanka	1.764061	
Batticaloa	Valachchenai	Sinnawembu Clinic	False	False	BTTCLVLCHCHNSNNWMBCLNC		Batticaloa	LK-51	7.792772	81.486513	Valachchanai	PS-510107	7.908015	81.533004	7.912281	81.532775	WG6M+W46, Batticaloa, Sri Lanka	0.475177	
Batticaloa	Vakarai	MOH Office - Vakarai	False	False	BTTCLVKRMHFFCVKR	Divisional Hospital Vakarai	Batticaloa	LK-51	7.792772	81.486513	Wakarai	PS-510109	6.934132	79.856305	8.134552	81.435328	Trincomalee Hwy, Vakarai, Sri Lanka	219.417822	#CenterFarFromPolice
Batticaloa	Kattankudy	Kattankudy Central College	False	False	BTTCLKTTNKDYKTTNKDYCNTRLCLLG		Batticaloa	LK-51	7.792772	81.486513	Kaththankudi	PS-510103	7.715979	81.698757	7.682761	81.736652	MPMP+4M2, Kattankudy, Sri Lanka	5.576699	
Batticaloa	Kattankudy	MOH Office - Kattankudy	False	False	BTTCLKTTNKDYMHFFCKTTNKDY		Batticaloa	LK-51	7.792772	81.486513	Kaththankudi	PS-510103	7.715979	81.698757	7.683586	81.730767	MPMJ+C8J, Kattankudy, Sri Lanka	5.042961	
Batticaloa	Kattankudy	Arayampathy Pudukudiirippu Kannagi Vidyalaya	False	False	BTTCLKTTNKDYRYMPTHYPDKDRPPKNNGVDYLY		Batticaloa	LK-51	7.792772	81.486513	Kaththankudi	PS-510103	7.715979	81.698757	7.673907	81.73845	MPFQ+H98, Sri Lanka	6.406433	
Batticaloa	Kattankudy	Kattankudy Base Hospital	False	False	BTTCLKTTNKDYKTTNKDYBSHSPTL		Batticaloa	LK-51	7.792772	81.486513	Kaththankudi	PS-510103	7.715979	81.698757	7.685147	81.739078	Dr Badhiudeen Mahmood Mawatha, Kattankudy, Sri Lanka	5.613752	
Batticaloa	Kattankudy	Badurdia Jumma Church	False	False	BTTCLKTTNKDYBDRDJMMCHRCH		Batticaloa	LK-51	7.792772	81.486513	Kaththankudi	PS-510103	7.715979	81.698757	7.692492	81.721685	434 new kalmuni Road Navatkudha, Batticaloa, Sri Lanka	3.634825	
Batticaloa	Kattankudy	Jamiel Radik Jumma Mosque	False	False	BTTCLKTTNKDYJMLRDKJMMMSQ		Batticaloa	LK-51	7.792772	81.486513	Kaththankudi	PS-510103	7.715979	81.698757	7.68537	81.726012	Kattankudy, Sri Lanka	4.540586	
Batticaloa	Kattankudy	Mira Jumma Mosque	False	False	BTTCLKTTNKDYMRJMMMSQ		Batticaloa	LK-51	7.792772	81.486513	Kaththankudi	PS-510103	7.715979	81.698757	7.684931	81.724317	MPMF+XPG, Kattankudy, Sri Lanka	4.45692	
Batticaloa	Eravur	Sandiveli Hospital	False	False	BTTCLRVRSNDVLHSPTL		Batticaloa	LK-51	7.792772	81.486513	Eravur	PS-510104	7.715979	81.698757	7.777289	81.602853	Trincomalee Hwy, Eravur, Sri Lanka	12.578998	
Batticaloa	Eravur	MOH Office - Chenkaladi	False	False	BTTCLRVRMHFFCCHNKLD		Batticaloa	LK-51	7.792772	81.486513	Eravur	PS-510104	7.715979	81.698757	7.783599	81.593367	Trincomalee Hwy, Chenkaladi 30350, Sri Lanka	13.837876	
Batticaloa	Eravur	Chenkaladi Hospital	False	False	BTTCLRVRCHNKLDHSPTL		Batticaloa	LK-51	7.792772	81.486513	Eravur	PS-510104	7.715979	81.698757	7.783546	81.589961	Batticaloa Rd, Chenkaladi, Sri Lanka	14.151406	
Batticaloa	Eravur	Palaeadithona Vidyalaya	False	False	BTTCLRVRPLDTHNVDYLY		Batticaloa	LK-51	7.792772	81.486513	Eravur	PS-510104	7.715979	81.698757	7.781715	81.601743	Eravur - 04, Chenkaladi, Sri Lanka	12.953304	
Batticaloa	Eravur	Kiran Central College	False	False	BTTCLRVRKRNCNTRLCLLG		Batticaloa	LK-51	7.792772	81.486513	Eravur	PS-510104	7.715979	81.698757	7.785947	81.590295	Trincomalee Road, Chenkaladi, Sri Lanka	14.264135	
Batticaloa	Eravur	Eravur Hospital	False	False	BTTCLRVRRVRHSPTL		Batticaloa	LK-51	7.792772	81.486513	Eravur	PS-510104	7.715979	81.698757	7.783168	81.605999	QJM4+799, Eravur 30300, Sri Lanka	12.663585	
Batticaloa	Eravur	Mawadiwembu Hospital	False	False	BTTCLRVRMWDWMBHSPTL		Batticaloa	LK-51	7.792772	81.486513	Eravur	PS-510104	7.715979	81.698757	7.808545	81.566328	Mawadiwembu Hospital, Sri Lanka	17.861302	
Batticaloa	Eravur	Al Ilma Vidyalaya	False	False	BTTCLRVRLLMVDYLY		Batticaloa	LK-51	7.792772	81.486513	Eravur	PS-510104	7.715979	81.698757	7.776897	81.604203	Eravur, Sri Lanka	12.430415	
Batticaloa	Eravur	Rifai Mosque	False	False	BTTCLRVRRFMSQ		Batticaloa	LK-51	7.792772	81.486513	Eravur	PS-510104	7.715979	81.698757	8.013119	81.064248	2377+6MX, Thambala, Sri Lanka	77.331134	#CenterFarFromPolice
Batticaloa	Eravur	Al Jifriya Vidyalaya	False	False	BTTCLRVRLJFRYVDYLY		Batticaloa	LK-51	7.792772	81.486513	Eravur	PS-510104	7.715979	81.698757	7.781066	81.604334	QJJ3+CPG, Eravur, Sri Lanka	12.67725	
Batticaloa	Eravur	Arafa  Vidyalaya	False	False	BTTCLRVRRFVDYLY		Batticaloa	LK-51	7.792772	81.486513	Eravur	PS-510104	7.715979	81.698757	7.772262	81.605907	QJC4+W93, Eravur, Sri Lanka	11.996518	
Batticaloa	Eravur	Sawkade Clinic	False	False	BTTCLRVRSWKDCLNC		Batticaloa	LK-51	7.792772	81.486513	Eravur	PS-510104	7.715979	81.698757	7.783168	81.605999	QJM4+799, Eravur 30300, Sri Lanka	12.663585	
Batticaloa	Eravur	Orumolachcholai Clinic	False	False	BTTCLRVRRMLCHCHLCLNC		Batticaloa	LK-51	7.792772	81.486513	Eravur	PS-510104	7.715979	81.698757	7.783168	81.605999	QJM4+799, Eravur 30300, Sri Lanka	12.663585	
Batticaloa	Eravur	Tamil Maha Vidyalaya	False	False	BTTCLRVRTMLMHVDYLY		Batticaloa	LK-51	7.792772	81.486513	Eravur	PS-510104	7.715979	81.698757	7.781715	81.601743	Eravur - 04, Chenkaladi, Sri Lanka	12.953304	
Batticaloa	Eravur	Sitthandi Central College	False	False	BTTCLRVRSTTHNDCNTRLCLLG		Batticaloa	LK-51	7.792772	81.486513	Eravur	PS-510104	7.715979	81.698757	7.785947	81.590295	Trincomalee Road, Chenkaladi, Sri Lanka	14.264135	
Batticaloa	Vavunathivu	MOH Office - Vavunathivu	False	False	BTTCLVVNTHVMHFFCVVNTHV		Batticaloa	LK-51	7.792772	81.486513	Vavunathive	PS-510102	6.933075	79.857181	7.708253	81.691368	Hospital Rd, Batticaloa, Sri Lanka	219.95575	#CenterFarFromPolice
Batticaloa	Vavunathivu	Kothiyapula Kalaivani Vidyalaya	False	False	BTTCLVVNTHVKTHYPLKLVNVDYLY		Batticaloa	LK-51	7.792772	81.486513	Vavunathive	PS-510102	6.933075	79.857181	7.720143	81.700516	PPC2+362, Batticaloa, Sri Lanka	221.401617	#CenterFarFromPolice
Batticaloa	Vavunathivu	Vilavattuwan Vinayagar Vidyalaya	False	False	BTTCLVVNTHVVLVTTWNVNYGRVDYLY		Batticaloa	LK-51	7.792772	81.486513	Vavunathive	PS-510102	6.933075	79.857181	7.720143	81.700516	PPC2+362, Batticaloa, Sri Lanka	221.401617	#CenterFarFromPolice
Batticaloa	Karadiyanaru	Karadiyanaru Hospital	False	False	BTTCLKRDYNRKRDYNRHSPTL		Batticaloa	LK-51	7.792772	81.486513	Karadiyanaru	PS-510105	7.701992	81.537252	7.700216	81.539779	PG2Q+3WJ, Karadiyanaru, Sri Lanka	0.341482	
Batticaloa	Karadiyanaru	Kithul Vidyalaya	False	False	BTTCLKRDYNRKTHLVDYLY		Batticaloa	LK-51	7.792772	81.486513	Karadiyanaru	PS-510105	7.701992	81.537252	7.700747	81.538387	Karadiyanaru, Sri Lanka	0.186625	
Ampara	Chavalakade	MOH Office - Navidanveli	False	False	MPRCHVLKDMHFFCNVDNVL		Ampara	LK-52	7.23699	81.550391	Chawalakade	PS-520125	7.413559	81.776822	7.420081	81.788401	B77, Sri Lanka	1.468805	
Ampara	Karaitivu	MOH Office – Karaitivu	False	False	MPRKRTVMHFFCKRTV		Ampara	LK-52	7.23699	81.550391	Karaitivu		9.744059	79.870587	7.377712	81.838796	Colombo-Ratnapura-Wellawaya-Batticaloa Highway, Karativu 32250, Sri Lanka	340.788666	#CenterFarFromPolice
Ampara	Karaitivu	Mavadipalli Helth Centre	False	False	MPRKRTVMVDPLLHLTHCNTR		Ampara	LK-52	7.23699	81.550391	Karaitivu		9.744059	79.870587	7.372549	81.824772	Karativu-Ampara Hwy, Karaitivu, Sri Lanka	340.256929	#CenterFarFromPolice
Ampara	Central Camp	Weeragoda Vidyalaya	False	False	MPRCNTRLCMPWRGDVDYLY		Ampara	LK-52	7.23699	81.550391	Central Camp	PS-520118	7.414282	81.733257	7.390125	81.696588	4th Ave, Ampara, Sri Lanka	4.855865	
Ampara	Central Camp	Ruhunugama Vidyalaya	False	False	MPRCNTRLCMPRHNGMVDYLY		Ampara	LK-52	7.23699	81.550391	Central Camp	PS-520118	7.414282	81.733257	7.414282	81.733257	CP7M+P86, Sammanthurai, Sri Lanka	0.0	
Ampara	Central Camp	Malwatta Thissapura Vidyalaya	False	False	MPRCNTRLCMPMLWTTTHSSPRVDYLY		Ampara	LK-52	7.23699	81.550391	Central Camp	PS-520118	7.414282	81.733257	7.417153	81.73351	Central Camp Rd, Ampara, Sri Lanka	0.320558	
Ampara	Central Camp	Wijayapura Vidyalaya	False	False	MPRCNTRLCMPWJYPRVDYLY		Ampara	LK-52	7.23699	81.550391	Central Camp	PS-520118	7.414282	81.733257	7.411735	81.735559	06 Central Camp Rd, Sri Lanka	0.380435	
Ampara	Central Camp	Siyambalawewa Vidyalaya	False	False	MPRCNTRLCMPSYMBLWWVDYLY		Ampara	LK-52	7.23699	81.550391	Central Camp	PS-520118	7.414282	81.733257	7.417153	81.73351	Central Camp Rd, Ampara, Sri Lanka	0.320558	
Ampara	Ampara	Ampara Hospital	False	False	MPRMPRMPRHSPTL		Ampara	LK-52	7.23699	81.550391	Ampara	PS-520113	7.296771	81.677161	7.298334	81.690841	Dharmapala Mawatha, Ampara, Sri Lanka	1.519279	
Ampara	Ampara	Mobile Medical  Team	False	False	MPRMPRMBLMDCLTM		Ampara	LK-52	7.23699	81.550391	Ampara	PS-520113	7.296771	81.677161					#CenterLocationUnknown
Ampara	Damana	MOH Office - Damana	False	False	MPRDMNMHFFCDMN		Ampara	LK-52	7.23699	81.550391	Damana	PS-520114	7.200465	81.654653	7.197982	81.65538	5MX4+55R, Damana, Sri Lanka	0.2876	
Ampara	Panama	MOH Office - Lahugala	False	False	MPRPNMMHFFCLHGL		Ampara	LK-52	7.23699	81.550391	Panama	PS-520129	6.752004	81.79349	6.880658	81.765015	VQJ8+726, Sangamuwa, Sri Lanka	14.651657	
Ampara	Eragama	MOH Office – Eragama	False	False	MPRRGMMHFFCRGM		Ampara	LK-52	7.23699	81.550391									#PoliceLocationUnknown
Ampara	Pottuvil	Jica Hijra Nagar College	False	False	MPRPTTVLJCHJRNGRCLLG		Ampara	LK-52	7.23699	81.550391	Pothuvil	PS-520128	6.878387	81.826859	6.867891	81.839008	Muhudu Maha Vihara Mawatha, Pottuvil, Sri Lanka	1.778462	
Ampara	Pottuvil	Iruppu Nurania Vidyalaya	False	False	MPRPTTVLRPPNRNVDYLY		Ampara	LK-52	7.23699	81.550391	Pothuvil	PS-520128	6.878387	81.826859	6.875271	81.830633	Pottuvil, Sri Lanka	0.542048	
Ampara	Pottuvil	Pottuvil Central College	False	False	MPRPTTVLPTTVLCNTRLCLLG		Ampara	LK-52	7.23699	81.550391	Pothuvil	PS-520128	6.878387	81.826859	6.879508	81.835585	Pottuvil, Sri Lanka	0.971748	
Ampara	Pottuvil	Al Isak Vidyalaya	False	False	MPRPTTVLLSKVDYLY		Ampara	LK-52	7.23699	81.550391	Pothuvil	PS-520128	6.878387	81.826859	6.875271	81.830633	Pottuvil, Sri Lanka	0.542048	
Ampara	Pottuvil	Mineral Ullam Vidyalaya	False	False	MPRPTTVLMNRLLLMVDYLY		Ampara	LK-52	7.23699	81.550391	Pothuvil	PS-520128	6.878387	81.826859	6.875271	81.830633	Pottuvil, Sri Lanka	0.542048	
Ampara	Pottuvil	Al Asroff Vidyalaya - Kalapukattu	False	False	MPRPTTVLLSRFFVDYLYKLPKTT		Ampara	LK-52	7.23699	81.550391	Pothuvil	PS-520128	6.878387	81.826859	6.875271	81.830633	Pottuvil, Sri Lanka	0.542048	
Ampara	Thirukkovil	District Hospital – Thirukkovil	False	False	MPRTHRKKVLDSTRCTHSPTLTHRKKVL		Ampara	LK-52	7.23699	81.550391	Thirukkovil	PS-520127	7.113998	81.852219	7.115713	81.851887	4V82+7QJ, Thirukkovil, Sri Lanka	0.194247	
Ampara	Thirukkovil	Mobile Vaccination	False	False	MPRTHRKKVLMBLVCCNTN		Ampara	LK-52	7.23699	81.550391	Thirukkovil	PS-520127	7.113998	81.852219					#CenterLocationUnknown
Ampara	Thirukkovil	Thambiluvil Maha Vidyalaya	False	False	MPRTHRKKVLTHMBLVLMHVDYLY		Ampara	LK-52	7.23699	81.550391	Thirukkovil	PS-520127	7.113998	81.852219	7.120484	81.852659	Main Road, Thambiluvil, Sri Lanka	0.723069	
Ampara	Thirukkovil	Vinayagapuram Shakthi Vidyalaya	False	False	MPRTHRKKVLVNYGPRMSHKTHVDYLY		Ampara	LK-52	7.23699	81.550391	Thirukkovil	PS-520127	7.113998	81.852219	7.115312	81.852488	Thirukkovil, Sri Lanka	0.149141	
Ampara	Akkaraipattu	Akkaraipattu Nuraniya Church	False	False	MPRKKRPTTKKRPTTNRNYCHRCH		Ampara	LK-52	7.23699	81.550391	Akkaraipattu	PS-520126	7.216084	81.853254	7.217154	81.849717	Sagama Rd, Akkaraipattu, Sri Lanka	0.408046	
Ampara	Akkaraipattu	Jumma Maha Mosque	False	False	MPRKKRPTTJMMMHMSQ		Ampara	LK-52	7.23699	81.550391	Akkaraipattu	PS-520126	7.216084	81.853254	7.221477	81.849682	Thomputhor Road, Akkaraipattu, Sri Lanka	0.717774	
Ampara	Akkaraipattu	Nagar Mosque	False	False	MPRKKRPTTNGRMSQ		Ampara	LK-52	7.23699	81.550391	Akkaraipattu	PS-520126	7.216084	81.853254	7.224605	81.825536	6RFG+R6V, Akkaraipattu, Sri Lanka	3.202103	
Ampara	Akkaraipattu	Superintendent Medical Health Office	False	False	MPRKKRPTTSPRNTNDNTMDCLHLTHFFC		Ampara	LK-52	7.23699	81.550391	Akkaraipattu	PS-520126	7.216084	81.853254	7.228134	81.851123	6VH2+7C5, Akkaraipattu, Sri Lanka	1.360772	
Ampara	Akkaraipattu	Sri Ramakrishna Vidyalaya	False	False	MPRKKRPTTSRRMKRSHNVDYLY		Ampara	LK-52	7.23699	81.550391	Akkaraipattu	PS-520126	7.216084	81.853254	7.210268	81.845672	6R6W+473, Akkaraipattu, Sri Lanka	1.057598	
Ampara	Akkaraipattu	South Eastern University	False	False	MPRKKRPTTSTHSTRNNVRSTY		Ampara	LK-52	7.23699	81.550391	Akkaraipattu	PS-520126	7.216084	81.853254	7.296968	81.850033	7VW2+Q2M, Oluvil, Sri Lanka	9.003731	
Ampara	Akkaraipattu	Badur Mosque	False	False	MPRKKRPTTBDRMSQ		Ampara	LK-52	7.23699	81.550391	Akkaraipattu	PS-520126	7.216084	81.853254	7.21798	81.859573	Deens Road, Akkaraipattu, Sri Lanka	0.728487	
Ampara	Akkaraipattu	Alsiraj Vidyalaya	False	False	MPRKKRPTTLSRJVDYLY		Ampara	LK-52	7.23699	81.550391	Akkaraipattu	PS-520126	7.216084	81.853254	7.219333	81.85313	Akkaraipattu, Sri Lanka	0.361645	
Ampara	Akkaraipattu	MOH Office – Addalachenai	False	False	MPRKKRPTTMHFFCDDLCHN		Ampara	LK-52	7.23699	81.550391	Akkaraipattu	PS-520126	7.216084	81.853254	7.260916	81.853493	7V63+999, Addalaichenai, Sri Lanka	4.986726	
Ampara	Akkaraipattu	MOH Office - Alayadivembu	False	False	MPRKKRPTTMHFFCLYDVMB		Ampara	LK-52	7.23699	81.550391	Akkaraipattu	PS-520126	7.216084	81.853254	7.228134	81.851123	6VH2+7C5, Akkaraipattu, Sri Lanka	1.360772	
Ampara	Kalmunai	MOH Office - Kalmunai North	False	False	MPRKLMNMHFFCKLMNNRTH		Ampara	LK-52	7.23699	81.550391	Kalmunai	PS-520123	7.414289	81.825006	7.411712	81.838462	CR6Q+M9P, Kalmunai 32300, Sri Lanka	1.511625	
Ampara	Kalmunai	Mobile Vaccination	False	False	MPRKLMNMBLVCCNTN		Ampara	LK-52	7.23699	81.550391	Kalmunai	PS-520123	7.414289	81.825006					#CenterLocationUnknown
Ampara	Kalmunai	Sri Ramakrishna Mission Maha Vidyalaya	False	False	MPRKLMNSRRMKRSHNMSSNMHVDYLY		Ampara	LK-52	7.23699	81.550391	Kalmunai	PS-520123	7.414289	81.825006	7.412373	81.828629	Udyar Rd, Kalmunai 32300, Sri Lanka	0.452893	
Ampara	Kalmunai	MOH Office - Kalmunai South	False	False	MPRKLMNMHFFCKLMNSTH		Ampara	LK-52	7.23699	81.550391	Kalmunai	PS-520123	7.414289	81.825006	7.411712	81.838462	CR6Q+M9P, Kalmunai 32300, Sri Lanka	1.511625	
Ampara	Kalmunai	Al Bahariya National College	False	False	MPRKLMNLBHRYNTNLCLLG		Ampara	LK-52	7.23699	81.550391	Kalmunai	PS-520123	7.414289	81.825006	7.399481	81.839854	Zahira College Rd, Sainthamaruthu 32280, Sri Lanka	2.32275	
Ampara	Kalmunai	Maradamunai Almanar Central College	False	False	MPRKLMNMRDMNLMNRCNTRLCLLG		Ampara	LK-52	7.23699	81.550391	Kalmunai	PS-520123	7.414289	81.825006	7.436331	81.812701	Maruthamunai, Sri Lanka	2.802316	
Ampara	Kalmunai	Al Ashhar Maha Vidyalaya	False	False	MPRKLMNLSHHRMHVDYLY		Ampara	LK-52	7.23699	81.550391	Kalmunai	PS-520123	7.414289	81.825006	7.293137	81.862772	4 Light House Road, Oluvil, Sri Lanka	14.105027	
Ampara	Kalmunai	Narappattimunai Al Ashka Maha Vidyalaya	False	False	MPRKLMNNRPPTTMNLSHKMHVDYLY		Ampara	LK-52	7.23699	81.550391	Kalmunai	PS-520123	7.414289	81.825006	7.414638	81.81151	CR76+VJ2, Kalmunai, Sri Lanka	1.489112	
Ampara	Kalmunai	Al Madina Vidyalaya	False	False	MPRKLMNLMDNVDYLY		Ampara	LK-52	7.23699	81.550391	Kalmunai	PS-520123	7.414289	81.825006	7.434363	81.817655	03 Mashoor Moulana Rd, Maruthamunai 32314, Sri Lanka	2.375481	
Ampara	Kalmunai	Kalmunai North Base Hospital	False	False	MPRKLMNKLMNNRTHBSHSPTL		Ampara	LK-52	7.23699	81.550391	Kalmunai	PS-520123	7.414289	81.825006	7.420034	81.82232	hospital near, Kalmunai 32300, Sri Lanka	0.704353	
Ampara	Kalmunai	Carmel Fatima National College	False	False	MPRKLMNCRMLFTMNTNLCLLG		Ampara	LK-52	7.23699	81.550391	Kalmunai	PS-520123	7.414289	81.825006	7.419889	81.823933	Carmel Fatima College Rd, Kalmunai 32300, Sri Lanka	0.634031	
Ampara	Kalmunai	Pandirippu Cultural Centre	False	False	MPRKLMNPNDRPPCLTRLCNTR		Ampara	LK-52	7.23699	81.550391	Kalmunai	PS-520123	7.414289	81.825006	7.430188	81.815947	CRJ8+39G, Pandiruppu, Sri Lanka	2.031199	
Ampara	Kalmunai	Senakudiirippu Health Centre	False	False	MPRKLMNSNKDRPPHLTHCNTR		Ampara	LK-52	7.23699	81.550391	Kalmunai	PS-520123	7.414289	81.825006	7.420034	81.82232	hospital near, Kalmunai 32300, Sri Lanka	0.704353	
Ampara	Kalmunai	Nappattimunai Shivashakthi Vidyalaya	False	False	MPRKLMNNPPTTMNSHVSHKTHVDYLY		Ampara	LK-52	7.23699	81.550391	Kalmunai	PS-520123	7.414289	81.825006	7.426418	81.816781	Colombo - Batticaloa Hwy, Kalmunai, Sri Lanka	1.625764	
Ampara	Kalmunai	Periyanilawani Saraswathi Vidyalaya	False	False	MPRKLMNPRYNLWNSRSWTHVDYLY		Ampara	LK-52	7.23699	81.550391	Kalmunai	PS-520123	7.414289	81.825006	7.426418	81.816781	Colombo - Batticaloa Hwy, Kalmunai, Sri Lanka	1.625764	
Ampara	Kalmunai	Padirippu Hindu Maha Vidyalaya	False	False	MPRKLMNPDRPPHNDMHVDYLY		Ampara	LK-52	7.23699	81.550391	Kalmunai	PS-520123	7.414289	81.825006	7.426418	81.816781	Colombo - Batticaloa Hwy, Kalmunai, Sri Lanka	1.625764	
Ampara	Kalmunai	Ashraff Memorial Hospital	False	False	MPRKLMNSHRFFMMRLHSPTL		Ampara	LK-52	7.23699	81.550391	Kalmunai	PS-520123	7.414289	81.825006	7.403172	81.831146	A4, Ashraff Memorial Base Hospital, A4 A4, Kalmunai 32300, Sri Lanka	1.409859	
Ampara	Saindamarudu	MOH Office – Saindamarudu	False	False	MPRSNDMRDMHFFCSNDMRD		Ampara	LK-52	7.23699	81.550391	Saindamarudu		7.397352	81.842377	7.939573	81.000275	Thamankaduwa, Sri Lanka	110.700687	#CenterFarFromPolice
Ampara	Saindamarudu	Saindamarudu Hospital	False	False	MPRSNDMRDSNDMRDHSPTL		Ampara	LK-52	7.23699	81.550391	Saindamarudu		7.397352	81.842377	6.900252	79.87618	08 Elvitigala Mawatha, Colombo 00800, Sri Lanka	223.932389	#CenterFarFromPolice
Ampara	Sammanthurai	MOH Office – Nintavur	False	False	MPRSMMNTHRMHFFCNNTVR		Ampara	LK-52	7.23699	81.550391	Samanthurai	PS-520124	7.365785	81.810859	7.352821	81.856939	Hospital Rd, Nintavur 32340, Sri Lanka	5.283925	
Ampara	Sammanthurai	MOH Office – Sammanthurai	False	False	MPRSMMNTHRMHFFCSMMNTHR		Ampara	LK-52	7.23699	81.550391	Samanthurai	PS-520124	7.365785	81.810859	7.369857	81.812264	9R96+WWR, Sammanthurai, Sri Lanka	0.478712	
Ampara	Sammanthurai	Sammanthurai Base Hospital	False	False	MPRSMMNTHRSMMNTHRBSHSPTL		Ampara	LK-52	7.23699	81.550391	Samanthurai	PS-520124	7.365785	81.810859	7.368355	81.813042	9R96+MWM, Hospital Rd, Sammanthurai, Sri Lanka	0.373773	
Ampara	Sammanthurai	Al Marjan Vidyalaya - Sammanthurai	False	False	MPRSMMNTHRLMRJNVDYLYSMMNTHR		Ampara	LK-52	7.23699	81.550391	Samanthurai	PS-520124	7.365785	81.810859	7.363097	81.80006	Sammanthurai, Sri Lanka	1.22821	
Ampara	Sammanthurai	Imamgassali Vidyalaya - Nintavur	False	False	MPRSMMNTHRMMGSSLVDYLYNNTVR		Ampara	LK-52	7.23699	81.550391	Samanthurai	PS-520124	7.365785	81.810859	7.354469	81.844721	MHM. Ashraf Peace Square, Main Street, Nintavur 32340, Sri Lanka	3.94179	
Ampara	Sammanthurai	Al Muskar Girls College - Nintavur	False	False	MPRSMMNTHRLMSKRGRLSCLLGNNTVR		Ampara	LK-52	7.23699	81.550391	Samanthurai	PS-520124	7.365785	81.810859	7.354711	81.844311	9R3V+VPM, Nintavur, Sri Lanka	3.890349	
Ampara	Sammanthurai	Arafa Vidyalaya - Nintavur	False	False	MPRSMMNTHRRFVDYLYNNTVR		Ampara	LK-52	7.23699	81.550391	Samanthurai	PS-520124	7.365785	81.810859	7.346138	81.852772	8VW3+F42, Nintavur, Sri Lanka	5.114042	
Ampara	Sammanthurai	Imam Rumi Vidyalaya	False	False	MPRSMMNTHRMMRMVDYLY		Ampara	LK-52	7.23699	81.550391	Samanthurai	PS-520124	7.365785	81.810859	7.35018	81.80359	Kallarichchel 02, Sammanthurai, Sri Lanka	1.912014	
Ampara	Sammanthurai	Dharushsalam Maha Vidyalaya	False	False	MPRSMMNTHRDHRSHSLMMHVDYLY		Ampara	LK-52	7.23699	81.550391	Samanthurai	PS-520124	7.365785	81.810859	7.355872	81.796894	9Q4W+8QR, Sammanthurai, Sri Lanka	1.894462	
Ampara	Sammanthurai	Muslim Central College	False	False	MPRSMMNTHRMSLMCNTRLCLLG		Ampara	LK-52	7.23699	81.550391	Samanthurai	PS-520124	7.365785	81.810859	7.370617	81.808855	AB33, Sammanthurai 32200, Sri Lanka	0.58115	
