district	police	center	dose1	dose2	fuzzy_key	alt_name	district_name_norm	district_id	district_lat	district_lng	ps_name_norm	ps_id	ps_lat	ps_lng	lat	lng	formatted_address	dis_center_to_police	tags
Colombo	Cinnamon Gardens	Viharamahadevi Park	False	False	CLMBCNNMNGRDNSVHRMHDVPRK		Colombo	LK-11	6.869636	80.019598	Cinnamon Garden	PS-110324	6.907289	79.863819	6.913391	79.86174	Viharamahadevi Park, Colombo, Sri Lanka	0.716497	
Colombo	Cinnamon Gardens	BMICH	False	False	CLMBCNNMNGRDNSBMCH		Colombo	LK-11	6.869636	80.019598	Cinnamon Garden	PS-110324	6.907289	79.863819	6.901689	79.873375	Bauddhaloka Mawatha, Colombo 00700, Sri Lanka	1.225334	
Colombo	Thalangama	Diyatha Uyana	False	False	CLMBTHLNGMDYTHYN		Colombo	LK-11	6.869636	80.019598	Thalangama	PS-110466	6.91089	79.929325	6.904575	79.909831	Diyatha Uyana, B240, Sri Jayawardenepura Kotte, Sri Lanka	2.264281	
Colombo	Thalangama	MOH Office - Battaramulla	False	False	CLMBTHLNGMMHFFCBTTRMLL		Colombo	LK-11	6.869636	80.019598	Thalangama	PS-110466	6.91089	79.929325	6.901538	79.919128	WW29+JM6, Battaramulla 10120, Sri Lanka	1.532936	
Colombo	Grandpass	Sugathadasa Outdoor Stadium	False	False	CLMBGRNDPSSSGTHDSTDRSTDM		Colombo	LK-11	6.869636	80.019598	Grandpass	PS-110215	6.949052	79.872983	6.94806	79.868842	Prince of Wales Ave, Colombo 01400, Sri Lanka	0.470345	
Colombo	Narahenpita	Army Hospital Narahenpita	False	False	CLMBNRHNPTRMYHSPTLNRHNPT		Colombo	LK-11	6.869636	80.019598	Narahenpita	PS-110321	6.891832	79.876715	6.900252	79.87618	08 Elvitigala Mawatha, Colombo 00800, Sri Lanka	0.938417	
Colombo	Narahenpita	Army Headquarters Mobile Team	False	False	CLMBNRHNPTRMYHDQRTRSMBLTM		Colombo	LK-11	6.869636	80.019598	Narahenpita	PS-110321	6.891832	79.876715					#CenterLocationUnknown
Colombo	Boralesgamuwa	Kotelawala Defence Hospital	False	False	CLMBBRLSGMWKTLWLDFNCHSPTL		Colombo	LK-11	6.869636	80.019598	Boralesgamuwa	PS-110464	6.841331	79.901255	6.82518	79.907167	RWG4+3VF, Boralesgamuwa, Sri Lanka	1.911444	
Colombo	Boralesgamuwa	MOH Office - Werahera	False	False	CLMBBRLSGMWMHFFCWRHR		Colombo	LK-11	6.869636	80.019598	Boralesgamuwa	PS-110464	6.841331	79.901255	6.833094	79.905583	RWM4+66P, Boralesgamuwa, Sri Lanka	1.033386	
Colombo	Homagama	Panagoda Bodhirajarama Viharaya	False	False	CLMBHMGMPNGDBDHRJRMVHRY		Colombo	LK-11	6.869636	80.019598	Homagama	PS-110470	6.836155	80.003474	6.929161	79.88265	Gnanawimala Rd, Colombo, Sri Lanka	16.883101	
Colombo	Mirihana	MOH Office - Beddagana	False	False	CLMBMRHNMHFFCBDDGN		Colombo	LK-11	6.869636	80.019598	Mirihana	PS-110462	6.873714	79.901724	6.885731	79.908328	Baddagana Rd, Sri Jayawardenepura Kotte 10100, Sri Lanka	1.522652	
Colombo	Nugegoda	Pegiriwatta Vivekaramaya	False	False	CLMBNGGDPGRWTTVVKRMY		Colombo	LK-11	6.869636	80.019598									#PoliceLocationUnknown
Colombo	Maradana	National Hospital - Colombo	False	False	CLMBMRDNNTNLHSPTLCLMB		Colombo	LK-11	6.869636	80.019598	Maradana	PS-110107	6.927939	79.865471	6.918743	79.868992	Colombo 00700, Sri Lanka	1.094265	
Colombo	Wellawatta	Roxy Gardens Premises	False	False	CLMBWLLWTTRXYGRDNSPRMSS		Colombo	LK-11	6.869636	80.019598	Wellawatta	PS-110320	6.873107	79.86167	6.863747	79.862088	Dehiwala Canal, Colombo, Sri Lanka	1.042134	
Colombo	Wellampitiya	MOH Office - Kolonnawa	False	False	CLMBWLLMPTYMHFFCKLNNW		Colombo	LK-11	6.869636	80.019598	Wellampitiya	PS-110465	6.937514	79.896298	6.938303	79.889664	25 Pansalhena 1st Ln, 10600, Sri Lanka	0.737734	
Colombo	Kaduwela	MOH Office - Kaduwela	False	False	CLMBKDWLMHFFCKDWL		Colombo	LK-11	6.869636	80.019598	Kaduwela		6.936234	79.970183	6.934127	79.984398	B263, Kaduwela, Sri Lanka	1.586964	
Colombo	Mulleriyawa	MOH Office - Gothatuwa	False	False	CLMBMLLRYWMHFFCGTHTW		Colombo	LK-11	6.869636	80.019598	Mulleriyawa	PS-110469	6.927187	79.929108	6.922088	79.916237	Mandavila Rd, Kotikawatta, Sri Lanka	1.530186	
Colombo	Fore shore	MOH Office - Jinthupitiya	False	False	CLMBFRSHRMHFFCJNTHPTY		Colombo	LK-11	6.869636	80.019598	Fore shore	PS-110210	6.949589	79.857355	6.943258	79.859238	No.27 Vivekananda Hill, Colombo 01300, Sri Lanka	0.734247	
Colombo	Padukka	Siripiyarathana Primary School	False	False	CLMBPDKKSRPYRTHNPRMRYSCHL		Colombo	LK-11	6.869636	80.019598	Padukka	PS-110473	6.842195	80.09247					#CenterLocationUnknown
Colombo	Kosgama	Kosgama Hospital	False	False	CLMBKSGMKSGMHSPTL		Colombo	LK-11	6.869636	80.019598	Kosgama	PS-920227	6.946597	80.137869	6.940956	80.124888	Salawa-Akarawita, 10730, Sri Lanka	1.564606	
Gampaha	Minuwangoda	MOH Office - Minuwangoda	False	False	GMPHMNWNGDMHFFCMNWNGD		Gampaha	LK-12	7.123598	80.018508	Minuwangoda	PS-120238	7.174215	79.957874	7.17227	79.956823	Katunayake-Veyangoda Rd, Minuwangoda, Sri Lanka	0.245525	
Gampaha	Minuwangoda	Yatiyana Viharaya	False	False	GMPHMNWNGDYTYNVHRY		Gampaha	LK-12	7.123598	80.018508	Minuwangoda	PS-120238	7.174215	79.957874	7.186771	79.926055	Yatiyana, Sri Lanka	3.779006	
Gampaha	Minuwangoda	Jagodamulla Viharaya	False	False	GMPHMNWNGDJGDMLLVHRY		Gampaha	LK-12	7.123598	80.018508	Minuwangoda	PS-120238	7.174215	79.957874	7.169433	79.952577	5X93+Q2G, Minuwangoda, Sri Lanka	0.790346	
Gampaha	Nittambuwa	Sri Sanghabodhi Central College	False	False	GMPHNTTMBWSRSNGHBDHCNTRLCLLG		Gampaha	LK-12	7.123598	80.018508	Nittambuwa	PS-120246	7.149726	80.10046	7.132766	80.082302	A1, Nittambuwa, Sri Lanka	2.752256	
Gampaha	Nittambuwa	Debahera Viharaya	False	False	GMPHNTTMBWDBHRVHRY		Gampaha	LK-12	7.123598	80.018508	Nittambuwa	PS-120246	7.149726	80.10046	7.113799	80.135467	Nittambuwa - Ruwanwella Rd, Sri Lanka	5.558543	
Gampaha	Mirigama	Kabarangawa Viharaya	False	False	GMPHMRGMKBRNGWVHRY		Gampaha	LK-12	7.123598	80.018508	Meerigama	PS-120248	7.245169	80.128647	7.254858	80.138998	Purana Mirigama - Bothale Road, Mirigama, Sri Lanka	1.570325	
Gampaha	Weliweriya	Atikeholgalla Vidyalaya	False	False	GMPHWLWRYTKHLGLLVDYLY		Gampaha	LK-12	7.123598	80.018508	Weliweriya	PS-120244	7.03451	80.026114	7.031878	80.028341	22JH+Q84, Weliweriya, Sri Lanka	0.382362	
Gampaha	Kelaniya	Dalugama Clinic	False	False	GMPHKLNYDLGMCLNC		Gampaha	LK-12	7.123598	80.018508	Kelaniya	PS-120126	6.950251	79.917459	6.97451	79.922566	No 102/c.kandy road.dalugama, Kelaniya 11600, Sri Lanka	2.756609	
Gampaha	Gampaha	MOH Office - Gampaha	False	False	GMPHGMPHMHFFCGMPH		Gampaha	LK-12	7.123598	80.018508	Gampaha	PS-120237	7.087765	80.01228	7.090643	80.002094	Colombo Rd, Gampaha, Sri Lanka	1.16901	
Gampaha	Gampaha	Aluthgama Bogamuwa Viharaya	False	False	GMPHGMPHLTHGMBGMWVHRY		Gampaha	LK-12	7.123598	80.018508	Gampaha	PS-120237	7.087765	80.01228	7.110015	79.989902	4X6Q+2X2, Gampaha, Sri Lanka	3.496563	
Gampaha	Pugoda	MOH Office - Dompe	False	False	GMPHPGDMHFFCDMP		Gampaha	LK-12	7.123598	80.018508	Pugoda	PS-120241	6.98283	80.111189	6.976767	80.117422	Dompe, Pugoda-Mandawala Rd, Pugoda, Sri Lanka	0.963513	
Gampaha	Kirindiwela	Radawana Hospital	False	False	GMPHKRNDWLRDWNHSPTL		Gampaha	LK-12	7.123598	80.018508	Kirindiwela	PS-120239	7.043011	80.120449	7.032499	80.100222	24J2+X3X, Radawana, Sri Lanka	2.520508	
Gampaha	Katana	MOH Office - Katana	False	False	GMPHKTNMHFFCKTN		Gampaha	LK-12	7.123598	80.018508	Katana	PS-120360	7.224796	79.880015	7.22436	79.88271	Katana, Negombo - Mirigama Rd, Negombo, Sri Lanka	0.301313	
Gampaha	Katana	Akkara 50 Community Hall	False	False	GMPHKTNKKRCMMNTYHLL		Gampaha	LK-12	7.123598	80.018508	Katana	PS-120360	7.224796	79.880015	7.141138	79.90156	4WR2+FJ3, Katunayake, Sri Lanka	9.604225	
Gampaha	Katana	Kalu Aruppuwa Church	False	False	GMPHKTNKLRPPWCHRCH		Gampaha	LK-12	7.123598	80.018508	Katana	PS-120360	7.224796	79.880015	7.07321	79.999812	Oruthota Road, Gampaha-Moragoda Walkway, Gampaha 11000, Sri Lanka	21.426503	#CenterFarFromPolice
Gampaha	Dungalpitiya	Thalahena Maternity Clinic	False	False	GMPHDNGLPTYTHLHNMTRNTYCLNC		Gampaha	LK-12	7.123598	80.018508	Dungalpitiya	PS-120361	7.139226	79.833543	7.170735	79.824995	5RCF+7XX, Negombo, Sri Lanka	3.629353	
Gampaha	Kotadeniyawa	Ihalagama Community Hall	False	False	GMPHKTDNYWHLGMCMMNTYHLL		Gampaha	LK-12	7.123598	80.018508	Kotadeniyawa	PS-120354	7.283643	80.06649	7.090497	80.021566	Yakkala Rd, Gampaha, Sri Lanka	22.048197	#CenterFarFromPolice
Gampaha	Kochchikade	Palagathura Clinic	False	False	GMPHKCHCHKDPLGTHRCLNC		Gampaha	LK-12	7.123598	80.018508	Kochchikade	PS-120352	7.265049	79.857026	7.265709	79.85908	7V85+7JP, Negombo, Sri Lanka	0.238225	
Gampaha	Seeduwa	Madawala Primary School	False	False	GMPHSDWMDWLPRMRYSCHL		Gampaha	LK-12	7.123598	80.018508	Seeduwa	PS-120356	7.128721	79.877371	7.131083	79.899695	4VJX+CVP, Kotugoda, Sri Lanka	2.477861	
Gampaha	Divulapitiya	MOH Office - Divulapitiya	False	False	GMPHDVLPTYMHFFCDVLPTY		Gampaha	LK-12	7.123598	80.018508	Diulapitiya	PS-120355	7.174215	79.957874	7.215486	80.013606	6287+5CX, Divulapitiya, Sri Lanka	7.67456	
Gampaha	Divulapitiya	Viduragara Viharaya	False	False	GMPHDVLPTYVDRGRVHRY		Gampaha	LK-12	7.123598	80.018508	Diulapitiya	PS-120355	7.174215	79.957874	7.221802	80.01192	62C6+PQF, Divulapitiya, Sri Lanka	7.974205	
Gampaha	Divulapitiya	Gnanodaya Maha Vidyalaya	False	False	GMPHDVLPTYGNNDYMHVDYLY		Gampaha	LK-12	7.123598	80.018508	Diulapitiya	PS-120355	7.174215	79.957874	7.222331	80.019709	62C9+WVP, Divulapitiya 11250, Sri Lanka	8.672135	
Gampaha	Ja Ela	MOH Office - Ja Ela	False	False	GMPHJLMHFFCJL		Gampaha	LK-12	7.123598	80.018508	Ja - Ela	PS-120133	7.081055	79.890504	7.075216	79.893879	60 Mount Kalvary Rd, Ja-Ela, Sri Lanka	0.748731	
Gampaha	Wattala	MOH Office - Wattala	False	False	GMPHWTTLMHFFCWTTL		Gampaha	LK-12	7.123598	80.018508	Wattala	PS-120128	6.993713	79.894506	6.995817	79.885793	301 Hendala Rd, Wattala, Sri Lanka	0.989991	
Gampaha	Ragama	MOH Office - Ragama	False	False	GMPHRGMMHFFCRGM		Gampaha	LK-12	7.123598	80.018508	Ragama	PS-120134	7.034975	79.924148	7.027386	79.920232	2WGC+X35, Ragama, Sri Lanka	0.948382	
Gampaha	Biyagama	MOH Office - Biyagama	False	False	GMPHBYGMMHFFCBYGM		Gampaha	LK-12	7.123598	80.018508	Biyagama	PS-120131	6.962284	80.009037	6.946824	79.994052	Hospital Rd, Sri Lanka	2.386313	
Kalutara	Ingiriya	Ingiriya Hospital	False	False	KLTRNGRYNGRYHSPTL		Kalutara	LK-13	6.577316	80.127363	Ingiriya	PS-130193	6.743614	80.175077	6.741133	80.162046	Panadura-Nambapana-Ratnapura Hwy, Ingiriya, Sri Lanka	1.465626	
Kalutara	Ingiriya	Handapangoda Clinic	False	False	KLTRNGRYHNDPNGDCLNC		Kalutara	LK-13	6.577316	80.127363	Ingiriya	PS-130193	6.743614	80.175077	6.805685	80.145879	R44W+79C, Handapangoda, Sri Lanka	7.620233	
Kalutara	Anguruwatota	MOH Office - Madurawala	False	False	KLTRNGRWTTMHFFCMDRWL		Kalutara	LK-13	6.577316	80.127363	Anguruwatota	PS-130190	6.654997	80.058183	6.654814	80.057811	M335+W4F, Keselhenawa, Sri Lanka	0.045863	
Kalutara	Horana	Base Hospital - Horana	False	False	KLTRHRNBSHSPTLHRN		Kalutara	LK-13	6.577316	80.127363	Horana	PS-130192	6.714613	80.069091	6.710644	80.066589	Hospital Ln, Horana, Sri Lanka	0.520853	
Kalutara	Horana	Bodyline	False	False	KLTRHRNBDYLN		Kalutara	LK-13	6.577316	80.127363	Horana	PS-130192	6.714613	80.069091	6.732091	80.106219	BODYLINE (PVT) LTD, Ratnapura Road, Horana 12400, Sri Lanka	4.538769	
Kalutara	Thebuwana	Divisional Hospital - Neboda	False	False	KLTRTHBWNDVSNLHSPTLNBD		Kalutara	LK-13	6.577316	80.127363	Thebuwana	PS-1302105	6.654997	80.058183	6.570354	80.073048	wellatha Neboda ., Neboda - Wellatha Rd, Sri Lanka	9.557015	
Kalutara	Dodangoda	MOH Office - Dodangoda	False	False	KLTRDDNGDMHFFCDDNGD	6.540366199937832,80.03661033076219	Kalutara	LK-13	6.577316	80.127363	Dodangoda	PS-130299	6.553375	80.023569	6.541731	80.04335	Dodangoda, Sri Lanka	2.540775	
Kalutara	Matugama	Weththewa Hospital	False	False	KLTRMTGMWTHTHWHSPTL		Kalutara	LK-13	6.577316	80.127363	Mathugama	PS-1302103	6.520881	80.117908	6.523087	80.125192	District Hospital, Hospital Road,Weththewa,., Matugama, Sri Lanka	0.841523	
Kalutara	Matugama	Katugahahena Hospital	False	False	KLTRMTGMKTGHHNHSPTL		Kalutara	LK-13	6.577316	80.127363	Mathugama	PS-1302103	6.520881	80.117908	6.489328	80.08471	F3QM+PVP, Bopitiya, Sri Lanka	5.077192	
Kalutara	Agalawatta	Pimbura Hospital	False	False	KLTRGLWTTPMBRHSPTL		Kalutara	LK-13	6.577316	80.127363	Agalawatta		6.542566	80.157178	6.575949	80.158371	H5G5+98H, කළුතර, Sri Lanka	3.715525	
Kalutara	Bulathsinhala	Molkawa Clinic	False	False	KLTRBLTHSNHLMLKWCLNC		Kalutara	LK-13	6.577316	80.127363	Bulathsinhala	PS-1302104	6.650425	80.17703	6.607514	80.236371	Bulathsinhala - Molkawa Rd, Molkawa, Sri Lanka	8.109701	
Kalutara	Meegahathenna	Meegahathenna Primary School	False	False	KLTRMGHTHNNMGHTHNNPRMRYSCHL		Kalutara	LK-13	6.577316	80.127363	Meegahathenna	PS-1302107	6.436941	80.1943	6.437225	80.191542	C5PR+VJM, Migahatenna, Sri Lanka	0.30647	
Kalutara	Welipenna	Walagedra Maha Vidyalaya	False	False	KLTRWLPNNWLGDRMHVDYLY		Kalutara	LK-13	6.577316	80.127363	Welipanna	PS-1302101	6.467428	80.108313	6.450422	80.079841	Galmatta,Walagedara, Agriculture Department-Galmatta, Aluthgama - Mathugama Rd, Walagedara 12112, Sri Lanka	3.671597	
Kalutara	Katutara South	NIHS	False	False	KLTRKTTRSTHNHS		Kalutara	LK-13	6.577316	80.127363	Kalutara South	PS-130296	6.58486	79.961043	6.559269	79.973486	Janatha Ln, Kalutara, Sri Lanka	3.161158	
Kalutara	Wadduwa	Delduwa Viharaya	False	False	KLTRWDDWDLDWVHRY		Kalutara	LK-13	6.577316	80.127363	Wadduwa	PS-130188	6.664403	79.929851	6.641789	79.940081	Galle Road A2, Wadduwa, Sri Lanka	2.757605	
Kalutara	Alubomulla	Bodhirukkarama Viharaya	False	False	KLTRLBMLLBDHRKKRMVHRY		Kalutara	LK-13	6.577316	80.127363									#PoliceLocationUnknown
Kalutara	Millaniya	MOH Office - Millaniya	False	False	KLTRMLLNYMHFFCMLLNY		Kalutara	LK-13	6.577316	80.127363	Millaniya	PS-130191	6.681692	80.020847	6.724224	79.907284	A2, Panadura, Sri Lanka	13.407612	
Kalutara	Baduraliya	Baduraliya Hospital	False	False	KLTRBDRLYBDRLYHSPTL		Kalutara	LK-13	6.577316	80.127363	Baduraliya	PS-1302106	6.516756	80.226716	6.514727	80.232731	Tiruwanaketiya-Agalawatte Rd, Baduraliya, Sri Lanka	0.702098	
Kalutara	Baduraliya	Kelinkanda Primary School	False	False	KLTRBDRLYKLNKNDPRMRYSCHL		Kalutara	LK-13	6.577316	80.127363	Baduraliya	PS-1302106	6.516756	80.226716	6.580125	80.297927	H7JX+353, Kelinkanda, Sri Lanka	10.564307	
Kalutara	Baduraliya	Askeliya Primary School	False	False	KLTRBDRLYSKLYPRMRYSCHL		Kalutara	LK-13	6.577316	80.127363	Baduraliya	PS-1302106	6.516756	80.226716	6.52114	80.222104	Unnamed Road, Kamburawala, Sri Lanka	0.705375	
Kalutara	Beruwala	MOH Office - Beruwala	False	False	KLTRBRWLMHFFCBRWL		Kalutara	LK-13	6.577316	80.127363	Beruwala	PS-1302102	6.480329	79.983498	6.437559	79.999356	CXQX+2PH, Aluthgama, Sri Lanka	5.069893	
Kalutara	Bandragama	MOH Office - Bandaragama	False	False	KLTRBNDRGMMHFFCBNDRGM		Kalutara	LK-13	6.577316	80.127363	Bandaragama	PS-130189	6.715179	79.987674	6.713351	79.991671	Library Path, Bandaragama, Sri Lanka	0.486104	
Kalutara	Bandragama	District Hospital Bandaragama	False	False	KLTRBNDRGMDSTRCTHSPTLBNDRGM		Kalutara	LK-13	6.577316	80.127363	Bandaragama	PS-130189	6.715179	79.987674	6.716162	79.991484	Horana Rd, Bandaragama, Sri Lanka	0.434849	
Kalutara	Panadura South	Mahanama Vidyalaya	False	False	KLTRPNDRSTHMHNMVDYLY		Kalutara	LK-13	6.577316	80.127363	Panadura South	PS-130186	6.720941	79.907315	6.725866	79.907901	PWG5+85R, Panadura, Sri Lanka	0.551618	
Kurunegala	Kurunegala	Teaching Hospital - Kurunegala	False	False	KRNGLKRNGLTCHNGHSPTLKRNGL		Kurunegala	LK-61	7.66477	80.23677	Kurunegala	PS-610101	7.485852	80.364137	7.479122	80.359115	No. 176, Ambepussa - Trincomalee Hwy, Kurunegala 60000, Sri Lanka	0.931185	
Kurunegala	Rideegama	Dodamgaslanda Central Dispensary	False	False	KRNGLRDGMDDMGSLNDCNTRLDSPNSRY		Kurunegala	LK-61	7.66477	80.23677	Rideegama	PS-610110	7.589247	80.61027	7.571511	80.529069	HGCH+JJ4, Dodangaslanda, Sri Lanka	9.167812	
Kurunegala	Rideegama	Buluwala Central Dispensary	False	False	KRNGLRDGMBLWLCNTRLDSPNSRY		Kurunegala	LK-61	7.66477	80.23677	Rideegama	PS-610110	7.589247	80.61027	7.489051	80.365346	12b Dambulla Rd, Kurunegala, Sri Lanka	29.216487	#CenterFarFromPolice
Kurunegala	Gokarella	Thalgodapitiya Viharaya	False	False	KRNGLGKRLLTHLGDPTYVHRY		Kurunegala	LK-61	7.66477	80.23677	Gokarella	PS-610108	7.59543	80.480081	7.608386	80.49678	JF5W+9P2, Gokarella, Sri Lanka	2.338035	
Kurunegala	Polgahawela	Aragoda Viharaya	False	False	KRNGLPLGHWLRGDVHRY		Kurunegala	LK-61	7.66477	80.23677	Polgahawela	PS-610102	7.333281	80.300363	7.341584	80.253971	Mahamevnawa Monastery Waduwawa, Yatigaloluwa, Polgahawela 60314, Sri Lanka	5.200579	
Kurunegala	Pothuhera	Kolabalamulla Viharaya	False	False	KRNGLPTHHRKLBLMLLVHRY		Kurunegala	LK-61	7.66477	80.23677	Pothuhera	PS-610104	7.416243	80.327534	7.48751	80.370935	F9QC+293, Kurunegala, Sri Lanka	9.260141	
Kurunegala	Maho	Ipalogama Viharaya	False	False	KRNGLMHPLGMVHRY		Kurunegala	LK-61	7.66477	80.23677	Maho	PS-610324	7.824001	80.28038	7.819522	80.212288	Ipalogama, Maho,, Kurunegala, Sri Lanka	7.519917	
Kurunegala	Maho	Bakmeegahawatta Vidyalaya	False	False	KRNGLMHBKMGHWTTVDYLY		Kurunegala	LK-61	7.66477	80.23677	Maho	PS-610324	7.824001	80.28038	7.790582	80.190743	Nikaweratiya-Maho Rd, Hulogedara, Sri Lanka	10.554155	
Kurunegala	Giribawa	Pothahena Vidyalaya	False	False	KRNGLGRBWPTHHNVDYLY		Kurunegala	LK-61	7.66477	80.23677	Giribawa	PS-610329	8.117314	80.189061	7.487376	80.359523	Negombo Rd, Kurunegala, Sri Lanka	72.542265	#CenterFarFromPolice
Kurunegala	Puttalam	Fatima Girls' College - Puttalam	False	False	KRNGLPTTLMFTMGRLSCLLGPTTLM		Kurunegala	LK-61	7.66477	80.23677	Puttalam	PS-620130	8.029904	79.834396	8.032756	79.832857	37 Poles Rd, Puttalam 61300, Sri Lanka	0.359673	
Puttalam	Dankotuwa	MOH Office - Dankotuwa	False	False	PTTLMDNKTWMHFFCDNKTW		Puttalam	LK-62	7.973531	79.913833	Dankotuwa	PS-620246	7.300337	79.882595	7.29759	79.888187	146 Negombo-Kurunegala Rd, Dankotuwa, Sri Lanka	0.688474	
Nuwara Eliya	Nanuoya	Samaset Family Health Medical Office	False	False	NWRLYNNYSMSTFMLYHLTHMDCLFFC		Nuwara Eliya	LK-23	6.97423	80.711222	Nanuoya	PS-230133	6.939692	80.744185	6.97284	80.766497	XQF8+4HQ, Nuwara Eliya 22200, Sri Lanka	4.43431	
Nuwara Eliya	Walapane	Batagolla Pussadewa Maha Vidyalaya	False	False	NWRLYWLPNBTGLLPSSDWMHVDYLY		Nuwara Eliya	LK-23	6.97423	80.711222	Walapone	PS-230141	7.093348	80.862513	7.09941	80.866318	Walapane - Watarakgoda Rd, Walapane, Sri Lanka	0.794378	
Nuwara Eliya	Kandapola	Konkodiya Estate Factory	False	False	NWRLYKNDPLKNKDYSTTFCTRY		Nuwara Eliya	LK-23	6.97423	80.711222	Kandapola	PS-230135	6.997489	80.823635	6.999461	80.829258	XRXH+QPJ, Kandapola, Sri Lanka	0.658397	
Nuwara Eliya	Kandapola	Kandapola Bandaranayaka Hall	False	False	NWRLYKNDPLKNDPLBNDRNYKHLL		Nuwara Eliya	LK-23	6.97423	80.711222	Kandapola	PS-230135	6.997489	80.823635	6.991087	80.833801	Kandapola 22220, Sri Lanka	1.329188	
Nuwara Eliya	Kothmale	MOH Office - Kothmale	False	False	NWRLYKTHMLMHFFCKTHML		Nuwara Eliya	LK-23	6.97423	80.711222	Kotmale	PS-230134	7.063602	80.685054	7.062013	80.685533	3M6P+R63, Kothmale New Town, Sri Lanka	0.184484	
Nuwara Eliya	Lindula	Rathnagiriya Sinhala Vidyalaya	False	False	NWRLYLNDLRTHNGRYSNHLVDYLY		Nuwara Eliya	LK-23	6.97423	80.711222	Lindula	PS-230138	6.927027	80.686744	6.934756	80.69196	WMMR+WQ4, Nuwara Eliya, Sri Lanka	1.034784	
Nuwara Eliya	Pudaluoya	Jayahela National College	False	False	NWRLYPDLYJYHLNTNLCLLG		Nuwara Eliya	LK-23	6.97423	80.711222	Pudalu oya	PS-230132	6.907289	79.863819	7.01668	80.668529	2M89+MCC, Pundaluoya, Sri Lanka	89.677066	#CenterFarFromPolice
Nuwara Eliya	Matale	MOH Office - Ukuwela	False	False	NWRLYMTLMHFFCKWL		Nuwara Eliya	LK-23	6.97423	80.711222	Matale	PS-220121	7.462789	80.626211	7.450497	80.629618	Kohombiliwela, Matale, Sri Lanka	1.417931	
Badulla	Bandarawela	MOH Office - Bandarawela	False	False	BDLLBNDRWLMHFFCBNDRWL		Badulla	LK-81	7.074529	81.04486	Bandarawela	PS-810210	6.831526	80.986784	6.841272	80.98482	Hospital Junction Helamuduna Bus Stop, Etampitiya Rd, Bandarawela, Sri Lanka	1.105533	
Badulla	Welimada	Welimada Hospital	False	False	BDLLWLMDWLMDHSPTL		Badulla	LK-81	7.074529	81.04486	Welimada	PS-810212	6.900481	80.905809	6.908905	80.909194	Hospital Rd, Welimada, Sri Lanka	1.008802	
Badulla	Diyatalawa	Diyatalawa Hospital	False	False	BDLLDYTLWDYTLWHSPTL		Badulla	LK-81	7.074529	81.04486	Diyathalawa	PS-810216	6.806037	80.960252	6.80555	80.956366	12 Fair Rd, Diyatalawa, Sri Lanka	0.432598	
Badulla	Uva Paranagama	Uva Paranagama Hospital	False	False	BDLLVPRNGMVPRNGMHSPTL	Divisional Hospital - Uva Paranagama	Badulla	LK-81	7.074529	81.04486	Uvaparanagama	PS-810213	6.958341	80.930364	6.938076	80.890525	Rendapola-Galahagama-Ambagasdowa Rd, Himbiliyagahamadiththa, Sri Lanka	4.942648	
Badulla	Haldummulla	Haldummulla Hospital	False	False	BDLLHLDMMLLHLDMMLLHSPTL		Badulla	LK-81	7.074529	81.04486	Haldummulla		6.762216	80.885856	6.758168	80.879938	Colombo - Ratnapura - Wellawaya - Batticaloa Rd, Sri Lanka	0.793746	
Badulla	Haliela	Divisional Health Centre	False	False	BDLLHLLDVSNLHLTHCNTR		Badulla	LK-81	7.074529	81.04486	Haliela	PS-810108	6.958216	81.034447	6.961527	81.035296	Peradeniya-Badulla-Chenkaladi Hwy, Hali-ela, Sri Lanka	0.380024	
Badulla	Badulla	Base Hospital - Badulla	False	False	BDLLBDLLBSHSPTLBDLL		Badulla	LK-81	7.074529	81.04486	Badulla	PS-810101	6.991337	81.055246	6.991808	81.05235	Daya Gunasekara Mawatha, Badulla, Sri Lanka	0.32399	
Badulla	Passara	Passara National College	False	False	BDLLPSSRPSSRNTNLCLLG		Badulla	LK-81	7.074529	81.04486	Passara	PS-810102	6.934481	81.154796	6.940355	81.167392	Peradeniya-Badulla-Chenkaladi Hwy, Passara, Sri Lanka	1.536617	
Badulla	Passara	Kanawerella Hospital	False	False	BDLLPSSRKNWRLLHSPTL		Badulla	LK-81	7.074529	81.04486	Passara	PS-810102	6.934481	81.154796	6.933517	81.152592	Demodera - Spring Valley - Badulla Road, Passara, Sri Lanka	0.265888	
Badulla	Passara	Ury Hospital	False	False	BDLLPSSRRYHSPTL		Badulla	LK-81	7.074529	81.04486	Passara	PS-810102	6.934481	81.154796	6.94256	81.126231	W4VG+2FH, Pelgahatenna, Sri Lanka	3.279529	
Badulla	Passara	Bibilegama Hospital	False	False	BDLLPSSRBBLGMHSPTL		Badulla	LK-81	7.074529	81.04486	Passara	PS-810102	6.934481	81.154796	6.895098	81.14174	Bibilegama Rd, Passara, Sri Lanka	4.611693	
Badulla	Passara	Medumpitiya Hospital	False	False	BDLLPSSRMDMPTYHSPTL		Badulla	LK-81	7.074529	81.04486	Passara	PS-810102	6.934481	81.154796	6.963229	79.873185	Dhawalasinharama mawatha, Colombo, Sri Lanka	141.542337	#CenterFarFromPolice
Badulla	Madolsima	Madugastalawa Clinic	False	False	BDLLMDLSMMDGSTLWCLNC		Badulla	LK-81	7.074529	81.04486	Madolseema	PS-810103	7.032916	81.16554	6.991808	81.05235	Daya Gunasekara Mawatha, Badulla, Sri Lanka	13.306217	
Badulla	Madolsima	Mahadowa Vidyalaya	False	False	BDLLMDLSMMHDWVDYLY		Badulla	LK-81	7.074529	81.04486	Madolseema	PS-810103	7.032916	81.16554	7.029004	81.172745	Passara - Madulsima - Metigahatenna Rd, Madulsima, Sri Lanka	0.906629	
Monaragala	Siyambalanduwa	Kodayana Primary School	False	False	MNRGLSYMBLNDWKDYNPRMRYSCHL		Moneragala	LK-82	6.787517	81.303744	Siyambalanduwa	PS-820122	6.906851	81.547598	6.909814	81.485557	WF5P+W6F, Monaragala, Sri Lanka	6.858522	
Monaragala	Siyambalanduwa	Kivileyaya Primary School	False	False	MNRGLSYMBLNDWKVLYYPRMRYSCHL		Moneragala	LK-82	6.787517	81.303744	Siyambalanduwa	PS-820122	6.906851	81.547598	6.909655	81.561921	WH56+VQ7, Siyambalanduwa, Sri Lanka	1.612038	
Monaragala	Siyambalanduwa	4th Mile Post Maha Vidyalaya	False	False	MNRGLSYMBLNDWTHMLPSTMHVDYLY		Moneragala	LK-82	6.787517	81.303744	Siyambalanduwa	PS-820122	6.906851	81.547598	6.906464	81.561014	Siyambalanduwa, Sri Lanka	1.482056	
Monaragala	Dambagalla	Deliwa Maha Vidyalaya	False	False	MNRGLDMBGLLDLWMHVDYLY		Moneragala	LK-82	6.787517	81.303744	Dambagalla	PS-820123	6.978806	81.372037	6.961757	81.371229	X96C+PF5, Dambagalla, Sri Lanka	1.898455	
Monaragala	Dambagalla	Elpitiya Maha Vidyalaya	False	False	MNRGLDMBGLLLPTYMHVDYLY		Moneragala	LK-82	6.787517	81.303744	Dambagalla	PS-820123	6.978806	81.372037	7.873054	80.771797	Sri Lanka	119.484951	#CenterFarFromPolice
Monaragala	Hambegamuwa	Kotawehera Mankada Vidyalaya	False	False	MNRGLHMBGMWKTWHRMNKDVDYLY		Moneragala	LK-82	6.787517	81.303744	Hambegamuwa	PS-820132	6.545791	80.947866	6.646907	80.908475	Bodagama-Hambegamuwa-Kaltota Rd, Sri Lanka	12.05987	
Monaragala	Hambegamuwa	Hambegamuwa Secondary College	False	False	MNRGLHMBGMWHMBGMWSCNDRYCLLG		Moneragala	LK-82	6.787517	81.303744	Hambegamuwa	PS-820132	6.545791	80.947866	6.534546	80.959523	Janapadaya Junction, Bodagama-Hambegamuwa-Kaltota Rd, Sri Lanka	1.795502	
Monaragala	Sewanagala	Dharmaloka Vidyalaya - 4th Mile Post	False	False	MNRGLSWNGLDHRMLKVDYLYTHMLPST		Moneragala	LK-82	6.787517	81.303744	Sewanagala	PS-910239	6.360663	80.918555	6.438279	80.887436	CVQP+8X7, Samanalagama, Sri Lanka	9.293254	
Monaragala	Sewanagala	Mahanaga Vidyalaya	False	False	MNRGLSWNGLMHNGVDYLY		Moneragala	LK-82	6.787517	81.303744	Sewanagala	PS-910239	6.360663	80.918555	6.333522	80.922595	Diulmandiya Rd, Monaragala, Sri Lanka	3.051746	
Monaragala	Sewanagala	MOH Office - Sewanagala	False	False	MNRGLSWNGLMHFFCSWNGL		Moneragala	LK-82	6.787517	81.303744	Sewanagala	PS-910239	6.360663	80.918555	6.359583	80.920368	B549, Sri Lanka	0.233663	
Monaragala	Sewanagala	Walawegama Community Hall	False	False	MNRGLSWNGLWLWGMCMMNTYHLL		Moneragala	LK-82	6.787517	81.303744	Sewanagala	PS-910239	6.360663	80.918555	6.359892	80.919561	Danduma Junction, Sevanagala 70250, Sri Lanka	0.140347	
Moneragala	Bibila	Bulupitiya Vidyalaya	False	False	MNRGLBBLBLPTYVDYLY		Moneragala	LK-82	6.787517	81.303744	Bibila	PS-820125	7.165232	81.225463	7.25	81.333333	Bulupitiya, Sri Lanka	15.18537	
Galle	Yakkalamulla	Nabadawa Vidyalaya	False	False	GLLYKKLMLLNBDWVDYLY		Galle	LK-31	6.222805	80.251977	Yakkalamulla	PS-310125	6.106186	80.348152	6.108656	80.354664	4953+FV7, Yakkalamulla, Sri Lanka	0.77084	
Galle	Rathgama	Rathgama Sirisumana Vidyalaya	False	False	GLLRTHGMRTHGMSRSMNVDYLY		Galle	LK-31	6.222805	80.251977	Ratgama	PS-310121	6.145115	80.099693	6.091926	80.140349	A2, Rathgama, Sri Lanka	7.430887	
Galle	Hikkaduwa	Hikkaduwa Pathana Jayanthi Vidyalaya	False	False	GLLHKKDWHKKDWPTHNJYNTHVDYLY		Galle	LK-31	6.222805	80.251977	Hikkaduwa	PS-310122	6.145115	80.099693	6.139012	80.112446	Hikkaduwa - Baddegama Rd, Hikkaduwa, Sri Lanka	1.565236	
Galle	Uragasmanhandiya	Mahawila Primary School	False	False	GLLRGSMNHNDYMHWLPRMRYSCHL		Galle	LK-31	6.222805	80.251977	Uragasmanhandiya	PS-310236	6.343756	80.080679	6.342973	80.101407	84V2+5HM, Uragasmanhandiya, Sri Lanka	2.293115	
Matara	Hakmana	Social Welfare Unit	False	False	MTRHKMNSCLWLFRNT		Matara	LK-32	6.142734	80.539994	Hakmana	PS-320106	6.084824	80.643227	6.079554	80.657662	Hakmana, Sri Lanka	1.700772	
Matara	Gandara	Galagane Viharaya	False	False	MTRGNDRGLGNVHRY		Matara	LK-32	6.142734	80.539994	Gandara	PS-320102	5.941629	80.614037	5.937982	80.613456	highway at Gandara, opposit the Matara - Hambantota, Matara, Sri Lanka	0.410716	
Matara	Matara	Pushparama Viharaya	False	False	MTRMTRPSHPRMVHRY		Matara	LK-32	6.142734	80.539994	Matara	PS-320101	5.94904	80.533659	5.953038	80.575286	Weherahena Rd, Matara, Sri Lanka	4.626633	
Matara	Matara	Welgoda Maha Vidyalaya	False	False	MTRMTRWLGDMHVDYLY		Matara	LK-32	6.142734	80.539994	Matara	PS-320101	5.94904	80.533659	5.953769	80.544354	Rahula Road,, Matara, 81000, Sri Lanka	1.294845	
Matara	Akuressa	MOH Office - Akuressa	False	False	MTRKRSSMHFFCKRSS		Matara	LK-32	6.142734	80.539994	Akuressa	PS-320112	6.099044	80.4776	6.087504	80.474472	3FQF+2Q5, Matara, Sri Lanka	1.329398	
Matara	Pitabeddara	Dudley Senanayake College	False	False	MTRPTBDDRDDLYSNNYKCLLG		Matara	LK-32	6.142734	80.539994	Pitabeddara	PS-320114	6.203675	80.475004	6.199502	80.478204	5FXH+R74, Matara, Sri Lanka	0.583659	
Matara	Morawaka	Alapaladeniya Maha Vidyalaya	False	False	MTRMRWKLPLDNYMHVDYLY		Matara	LK-32	6.142734	80.539994	Morawaka	PS-320107	6.256777	80.493654	6.278102	80.457483	Kalubovitiyana - Neluwa Rd, Sri Lanka	4.649663	
Matara	Deniyaya	Ensalwatta Tea Factory	False	False	MTRDNYYNSLWTTTFCTRY		Matara	LK-32	6.142734	80.539994	Deniyaya	PS-320110	6.341435	80.558719	6.367879	80.57144	Deniyaya - Wiharahena Rd, Sri Lanka	3.260242	
Matara	Deniyaya	Bewaraliya Vidyalaya	False	False	MTRDNYYBWRLYVDYLY		Matara	LK-32	6.142734	80.539994	Deniyaya	PS-320110	6.341435	80.558719	6.345398	80.558605	Deniyaya Pallegama Road, Deniyaya, Sri Lanka	0.440984	
Hambantota	Ambalantota	Bolana Maha Vidyalaya	False	False	HMBNTTMBLNTTBLNMHVDYLY		Hambantota	LK-33	6.259779	81.098619	Ambalantota	PS-330157	6.12516	81.023981	6.163388	81.005539	3rd Mile Post, Ridiyagama Road, Bolana, Sri Lanka	4.715923	
Hambantota	Ambalantota	Mamadala Vidyalaya	False	False	HMBNTTMBLNTTMMDLVDYLY		Hambantota	LK-33	6.259779	81.098619	Ambalantota	PS-330157	6.12516	81.023981	6.15621	80.974631	5X4F+FVJ, Mamadala, Sri Lanka	6.458669	
Hambantota	Walasmulla	Nathuwala Primary School	False	False	HMBNTTWLSMLLNTHWLPRMRYSCHL		Hambantota	LK-33	6.259779	81.098619	Walasmulla	PS-330151	6.154102	80.698256	6.148552	80.697555	4MXX+C2F, Walasmulla, Sri Lanka	0.622174	
Hambantota	Hungama	Hungama Wijayabha Vidyalaya	False	False	HMBNTTHNGMHNGMWJYBHVDYLY		Hambantota	LK-33	6.259779	81.098619	Hungama	PS-330148	6.111262	80.932642	6.111747	80.930389	B622, Hungama, Sri Lanka	0.254949	
Hambantota	Weeraketiya	MOH Office - Weeraketiya	False	False	HMBNTTWRKTYMHFFCWRKTY		Hambantota	LK-33	6.259779	81.098619	Weeraketiya	PS-330149	6.153899	80.76737	6.144703	80.765287	4QV8+V4M, Weeraketiya, Sri Lanka	1.048488	
Hambantota	Middeniya	Dmbarella Maha Vidyalaya	False	False	HMBNTTMDDNYDMBRLLMHVDYLY		Hambantota	LK-33	6.259779	81.098619	Middeniya	PS-330154	6.248275	80.765018	6.262264	80.761986	B286, Sri Lanka	1.591699	
Hambantota	Middeniya	Talawa Hospital	False	False	HMBNTTMDDNYTLWHSPTL		Hambantota	LK-33	6.259779	81.098619	Middeniya	PS-330154	6.248275	80.765018	8.233797	80.348381	68MX+G96, Talawa, Sri Lanka	225.582995	#CenterFarFromPolice
Hambantota	Beliatta	MOH Office - Beliatta	False	False	HMBNTTBLTTMHFFCBLTT		Hambantota	LK-33	6.259779	81.098619	Beliatta	PS-330152	6.046936	80.735408	6.051828	80.741735	3P2R+PMQ, Hambantota, Sri Lanka	0.886482	
Hambantota	Tangalla	MOH Office - Tangalla	False	False	HMBNTTTNGLLMHFFCTNGLL		Hambantota	LK-33	6.259779	81.098619	Tangalle	PS-330147	6.023954	80.797255	6.02363	80.795742	2QFW+F75, Tangalle, Sri Lanka	0.171198	
Hambantota	Katuwana	Udagomadiya Maha Vidyalaya	False	False	HMBNTTKTWNDGMDYMHVDYLY		Hambantota	LK-33	6.259779	81.098619	Katuwana	PS-330153	6.269722	80.690963	6.249382	80.70948	Julampitiya Rd, Katuwana, Sri Lanka	3.051265	
Hambantota	Katuwana	Siyarapitiya Maha Vidyalaya	False	False	HMBNTTKTWNSYRPTYMHVDYLY		Hambantota	LK-33	6.259779	81.098619	Katuwana	PS-330153	6.269722	80.690963	6.290408	80.693009	7MRV+566, Hambantota, Sri Lanka	2.311993	
Hambantota	Katuwana	Hingurakanda Maha Vidyalaya	False	False	HMBNTTKTWNHNGRKNDMHVDYLY		Hambantota	LK-33	6.259779	81.098619	Katuwana	PS-330153	6.269722	80.690963	6.249382	80.70948	Julampitiya Rd, Katuwana, Sri Lanka	3.051265	
Hambantota	Kalthota	Thanjanthenna Vidyalaya	False	False	HMBNTTKLTHTTHNJNTHNNVDYLY		Hambantota	LK-33	6.259779	81.098619	Kaltota	PS-910105	6.649474	80.700276	6.128049	81.123056	44HF+667, Hambantota, Sri Lanka	74.483512	#CenterFarFromPolice
Hambantota	Kalthota	Medadda Vidyalaya	False	False	HMBNTTKLTHTMDDDVDYLY		Hambantota	LK-33	6.259779	81.098619	Kaltota	PS-910105	6.649474	80.700276	6.659396	80.870987	Kalthota, Sri Lanka	18.892497	
Hambantota	Kalthota	Diyavinna Vidyalaya	False	False	HMBNTTKLTHTDYVNNVDYLY		Hambantota	LK-33	6.259779	81.098619	Kaltota	PS-910105	6.649474	80.700276	6.022935	80.794892	2QFV+5XC, Tangalle, Sri Lanka	70.470414	#CenterFarFromPolice
Hambantota	Bulathkohupitiya	MOH Office - Bulathkohupitiya	False	False	HMBNTTBLTHKHPTYMHFFCBLTHKHPTY		Hambantota	LK-33	6.259779	81.098619	Bulathkohupitiya	PS-920232	7.106684	80.3347	7.109127	80.334565	485M+MR4, Bulathkohupitiya, Sri Lanka	0.272143	
Hambantota	Warakapola	MOH Office - Warakapola	False	False	HMBNTTWRKPLMHFFCWRKPL		Hambantota	LK-33	6.259779	81.098619	Wrakapola	PS-920119	7.227488	80.199696	7.226501	80.197818	65GX+J44, Warakapola, Sri Lanka	0.234514	
Hambantota	Kegalle	MOH Office - Kegalle	False	False	HMBNTTKGLLMHFFCKGLL		Hambantota	LK-33	6.259779	81.098619	Kegalle	PS-920118	7.255928	80.353156	7.24797	80.343583	Kegalle-Bulathkohupitiya-Karawanella Hwy, Kegalle, Sri Lanka	1.378052	
Hambantota	Rambukkana	MOH Office - Rambukkana	False	False	HMBNTTRMBKKNMHFFCRMBKKN		Hambantota	LK-33	6.259779	81.098619	Rambukkana	PS-920123	7.324319	80.387808	7.327307	80.394886	89GV+WXC, Rambukkana, Sri Lanka	0.848646	
Hambantota	Mawanella	MOH Office - Mawanella	False	False	HMBNTTMWNLLMHFFCMWNLL		Hambantota	LK-33	6.259779	81.098619	Mawanella	PS-920122	7.256966	80.445912	7.253248	80.44561	Rambukkana-Mawanella Rd, Mawanella, Sri Lanka	0.414893	
Anuradhapura	Anuradhapura	Army Hospital Anuradhapura	False	False	NRDHPRNRDHPRRMYHSPTLNRDHPR		Anuradhapura	LK-71	8.39199	80.512958	Anuradapura	PS-710101	8.329752	80.407265	8.338302	80.407646	AB02, Anuradhapura, Sri Lanka	0.951939	
Anuradhapura	Anuradhapura	MOH Office - Nuwaragam Palatha Central	False	False	NRDHPRNRDHPRMHFFCNWRGMPLTHCNTRL		Anuradhapura	LK-71	8.39199	80.512958	Anuradapura	PS-710101	8.329752	80.407265	8.341215	80.374096	Unnamed Road, Anuradhapura, Sri Lanka	3.866675	
Anuradhapura	Anuradhapura	MOH Office - Nuwaragam Palatha East	False	False	NRDHPRNRDHPRMHFFCNWRGMPLTHST		Anuradhapura	LK-71	8.39199	80.512958	Anuradapura	PS-710101	8.329752	80.407265	8.341215	80.374096	Unnamed Road, Anuradhapura, Sri Lanka	3.866675	
Anuradhapura	Anuradhapura	Teaching Hospital - Anuradhapura	False	False	NRDHPRNRDHPRTCHNGHSPTLNRDHPR		Anuradhapura	LK-71	8.39199	80.512958	Anuradapura	PS-710101	8.329752	80.407265	8.324765	80.413968	Harischandra Mawatha, Anuradhapura, Sri Lanka	0.922993	
Anuradhapura	Kahatagasdigiliya	MOH Office - Kahatagasdigiliya	False	False	NRDHPRKHTGSDGLYMHFFCKHTGSDGLY		Anuradhapura	LK-71	8.39199	80.512958	Kahatagasdigiliya	PS-710118	8.427328	80.688349	8.427329	80.689909	Puttalam - Anuradhapura - Trincomalee Hwy, Kahatagasdigiliya, Sri Lanka	0.171645	
Anuradhapura	Mihintale	MOH Office - Mihintale	False	False	NRDHPRMHNTLMHFFCMHNTL		Anuradhapura	LK-71	8.39199	80.512958	Mihintale	PS-710104	8.360062	80.511889	8.357612	80.509049	Puttalam - Anuradhapura - Trincomalee Hwy, Mihintale, Sri Lanka	0.41466	
Anuradhapura	Mihintale	MOH Office - Rambewa	False	False	NRDHPRMHNTLMHFFCRMBW		Anuradhapura	LK-71	8.39199	80.512958	Mihintale	PS-710104	8.360062	80.511889	8.438263	80.504725	CGQ3+8V5, Rambewa, Sri Lanka	8.733932	
Polonnaruwa	Hingurakgoda	MOH Office - Hingurakgoda	False	False	PLNNRWHNGRKGDMHFFCHNGRKGD		Polonnaruwa	LK-72	7.993659	81.026061	Hingurakgoda	PS-720129	8.048819	80.965751	8.046007	80.96576	2XW8+C82, Hingurakgoda, Sri Lanka	0.31278	
Polonnaruwa	Meegaswewa	Bakamuna Mahasen Maha Vidyalaya	False	False	PLNNRWMGSWWBKMNMHSNMHVDYLY		Polonnaruwa	LK-72	7.993659	81.026061	Meegalewa	PS-610328	8.056704	80.356163	7.775622	80.819812	Dambulla - Bakamuna - Kalugahawela Road, Bakamuna, Sri Lanka	59.888717	#CenterFarFromPolice
Polonnaruwa	Pulasthipura	Pulasthipura Rathanasara Primary School	False	False	PLNNRWPLSTHPRPLSTHPRRTHNSRPRMRYSCHL		Polonnaruwa	LK-72	7.993659	81.026061	Pulasthipura	PS-720126	8.028343	81.032376	8.028343	81.032376	Thalpotha, Polonnaruwa, Sri Lanka	0.0	
Polonnaruwa	Medirigiriya	Medirigiriya Pasindu Garment	False	False	PLNNRWMDRGRYMDRGRYPSNDGRMNT		Polonnaruwa	LK-72	7.993659	81.026061	Medirigiriya	PS-720130	8.150847	80.984493	8.156134	80.996158	medirigiriya vatadage, Sri Lanka	1.412608	
Jaffna	Jaffna	Mobile Medical Team	False	False	JFFNJFFNMBLMDCLTM		Jaffna	LK-41	9.691792	80.098594	Jaffna	PS-410209	9.659919	80.010965					#CenterLocationUnknown
Jaffna	Jaffna	Cllinic Center,A.V Road,Ariyalai	False	False	JFFNJFFNCLLNCCNTRVRDRYL		Jaffna	LK-41	9.691792	80.098594	Jaffna	PS-410209	9.659919	80.010965	9.671981	80.026358	M2CG+QGX, Jaffna, Sri Lanka	2.156128	
Jaffna	Jaffna	Kanagaratnam Road Junction,Ariyalai	False	False	JFFNJFFNKNGRTNMRDJNCTNRYL		Jaffna	LK-41	9.691792	80.098594	Jaffna	PS-410209	9.659919	80.010965	9.661498	80.025546	Jaffna, Sri Lanka	1.60846	
Jaffna	Kodikaman	DH - Kodikamam	False	False	JFFNKDKMNDHKDKMM		Jaffna	LK-41	9.691792	80.098594	Kodikamam	PS-410217	9.666459	80.132384	9.68449	80.222018	Kodikamam, Sri Lanka	10.030705	
Jaffna	Point Pedro	Tikkam Cultural Hall	False	False	JFFNPNTPDRTKKMCLTRLHLL		Jaffna	LK-41	9.691792	80.098594	Point Pedro	PS-410106	9.827018	80.233187	9.817512	80.234047	Main Street, Puloly, Point Pedro 40000, Sri Lanka	1.061544	
Jaffna	Point Pedro	Alvai Ilanco Community Hall	False	False	JFFNPNTPDRLVLNCCMMNTYHLL		Jaffna	LK-41	9.691792	80.098594	Point Pedro	PS-410106	9.827018	80.233187	9.805622	80.224774	Jaffna-Point Pedro Rd, Point Pedro 40000, Sri Lanka	2.552258	
Jaffna	Nelliyady	Kalaimahal Pre School	False	False	JFFNNLLYDYKLMHLPRSCHL		Jaffna	LK-41	9.691792	80.098594	Nelliadi	PS-410108	9.778397	80.113303	9.611586	80.333707	J86M+JFP, Pachchilapalli, Sri Lanka	30.466853	#CenterFarFromPolice
Jaffna	Nelliyady	GN - Kattaivali	False	False	JFFNNLLYDYGNKTTVL		Jaffna	LK-41	9.691792	80.098594	Nelliadi	PS-410108	9.778397	80.113303	9.804272	80.1654	Nelliady, Sri Lanka	6.394622	
Jaffna	Valvettithurai	GN - Polycondy West	False	False	JFFNVLVTTTHRGNPLYCNDYWST		Jaffna	LK-41	9.691792	80.098594	Valvettiththurai	PS-410107	9.823216	80.169633	9.814937	80.16608	Valvettithurai, Sri Lanka	0.999823	
Jaffna	Valvettithurai	GN - Polycondy South	False	False	JFFNVLVTTTHRGNPLYCNDYSTH		Jaffna	LK-41	9.691792	80.098594	Valvettiththurai	PS-410107	9.823216	80.169633	9.814937	80.16608	Valvettithurai, Sri Lanka	0.999823	
Jaffna	Wadukkotte	Chankanai Mavady Temple	False	False	JFFNWDKKTTCHNKNMVDYTMPL		Jaffna	LK-41	9.691792	80.098594	Vaddukoddai		9.728886	79.947771	9.674532	80.029444	M2FH+RQ8, Jaffna, Sri Lanka	10.804422	
Jaffna	Wadukkotte	Chankanai CST Church	False	False	JFFNWDKKTTCHNKNCSTCHRCH		Jaffna	LK-41	9.691792	80.098594	Vaddukoddai		9.728886	79.947771	9.765536	80.013184	Kadduwan - Mallakam - Chankanai, Sri Lanka	8.248604	
Jaffna	Kurikadduwan	DH Punkudutivu	False	False	JFFNKRKDDWNDHPNKDTV		Jaffna	LK-41	9.691792	80.098594									#PoliceLocationUnknown
Jaffna	Chunnagam	MOH Office - Uduvil	False	False	JFFNCHNNGMMHFFCDVL		Jaffna	LK-41	9.691792	80.098594	Chunnakam	PS-410211	9.745309	80.029151	9.742938	80.035132	P2VP+53C, Chunnakam, Sri Lanka	0.706719	
Jaffna	Kayts	MOH Office – Karainagar	False	False	JFFNKYTSMHFFCKRNGR		Jaffna	LK-41	9.691792	80.098594	Kayts	PS-410212	9.728654	79.94775	9.725097	79.99772	Sri Lanka, Manipay, Sri Lanka	5.492521	
Jaffna	Kayts	MOH Office – Valanai	False	False	JFFNKYTSMHFFCVLN		Jaffna	LK-41	9.691792	80.098594	Kayts	PS-410212	9.728654	79.94775	9.636317	79.903777	Chatty vangkalvady road, Velanai, Sri Lanka	11.346015	
Jaffna	Kayts	MOH Office – Kayts	False	False	JFFNKYTSMHFFCKYTS		Jaffna	LK-41	9.691792	80.098594	Kayts	PS-410212	9.728654	79.94775	9.697759	79.866366	Sri Lanka, Kayts, Sri Lanka	9.561445	
Jaffna	Chavakachcheri	PHC- Madduvil North	False	False	JFFNCHVKCHCHRPHCMDDVLNRTH		Jaffna	LK-41	9.691792	80.098594	Chawakachcheri	PS-410215	9.666459	80.132384	9.652561	80.065318	Semmani-Ariyalai Rd, Jaffna, Sri Lanka	7.5147	
Jaffna	Chavakachcheri	Town Hall - Chavakachcheri	False	False	JFFNCHVKCHCHRTWNHLLCHVKCHCHR		Jaffna	LK-41	9.691792	80.098594	Chawakachcheri	PS-410215	9.666459	80.132384	9.659136	80.160946	M556+M94, Chavakachcheri, Sri Lanka	3.236063	
Kilinochchi	Kilinochchi	MOH Office - Karachchi	False	False	KLNCHCHKLNCHCHMHFFCKRCHCH		Kilinochchi	LK-45	9.415742	80.30358	Kilinochchi	PS-450131	9.392265	80.407846	9.396965	80.407782	Kandy - Jaffna Hwy, Kilinochchi, Sri Lanka	0.522827	
Kilinochchi	Kilinochchi	MOH Office - Palai	False	False	KLNCHCHKLNCHCHMHFFCPL		Kilinochchi	LK-45	9.415742	80.30358	Kilinochchi	PS-450131	9.392265	80.407846	7.330938	80.29484	06 A6, Polgahawela, Sri Lanka	229.618032	#CenterFarFromPolice
Kilinochchi	Pooneryn	MOH Office - Pooneryn	False	False	KLNCHCHPNRYNMHFFCPNRYN		Kilinochchi	LK-45	9.415742	80.30358	Pooneryn		9.505717	80.21101	9.507968	80.208317	G655+58P, Pooneryn, Sri Lanka	0.387256	
Kilinochchi	Mulankavil	Mulankavil Hospital	False	False	KLNCHCHMLNKVLMLNKVLHSPTL		Kilinochchi	LK-45	9.415742	80.30358	Mulankavil	PS-450135	9.254463	80.141528	9.243423	80.143894	Base Hospital Mulankavil, A32 Road, Mulankavil, Kumulamunai, Sri Lanka	1.255148	
Kilinochchi	Mallavi	Anichchankulam Tamil Maha Vidyalaya	False	False	KLNCHCHMLLVNCHCHNKLMTMLMHVDYLY		Kilinochchi	LK-45	9.415742	80.30358	Mallavi	PS-440153	9.137878	80.307257	9.394954	80.409776	Vilson Rd, Kilinochchi 44400, Sri Lanka	30.72958	#CenterFarFromPolice
Kilinochchi	Puthukudiyiruppu	Mungilaru Primary School	False	False	KLNCHCHPTHKDYRPPMNGLRPRMRYSCHL		Kilinochchi	LK-45	9.415742	80.30358	Pudukuduiruppu	PS-440149	7.00152	79.95003	9.367797	80.321311	Kilinochchi, Sri Lanka	266.355441	#CenterFarFromPolice
Mullaitivu	Mullaitivu	Pokkanai Tamil College	False	False	MLLTVMLLTVPKKNTMLCLLG		Mullaitivu	LK-44	9.167643	80.549091	Mullativu	PS-440148	9.212825	80.760159	9.346216	80.738258	8PWQ+F8J, Ampalavanpokkanai, Sri Lanka	15.030579	
Mullaitivu	Madu	Katte Adampan Tamil Maha Vidyalaya	False	False	MLLTVMDKTTDMPNTMLMHVDYLY		Mullaitivu	LK-44	9.167643	80.549091	Madu	PS-420144	6.914115	79.849048	9.376037	80.550246	Visuvamadu Tank Rd, Visuvamadu, Sri Lanka	284.513437	#CenterFarFromPolice
Mannar	Mannar	Sitthivinayagar Vidyalaya	False	False	MNNRMNNRSTTHVNYGRVDYLY		Mannar	LK-42	8.877429	80.088628	Mannar	PS-420138	8.978123	79.911642	8.97968	79.919795	Pallimunai Rd, Mannar, Sri Lanka	0.912332	
Mannar	Pesalai	St. Mary's College	False	False	MNNRPSLSTMRYSCLLG		Mannar	LK-42	8.877429	80.088628									#PoliceLocationUnknown
Vavuniya	Vavuniya	Gamini Maha Vidyalaya	False	False	VVNYVVNYGMNMHVDYLY		Vavuniya	LK-43	8.852071	80.467404	Vavuniya	PS-430119	8.754431	80.498604	8.762035	80.49472	Vavuniya-Parayanalankulam Hwy, Vavuniya, Sri Lanka	0.947457	
Vavuniya	Vavuniya	Shiwaprakash Girls' College	False	False	VVNYVVNYSHWPRKSHGRLSCLLG		Vavuniya	LK-43	8.852071	80.467404	Vavuniya	PS-430119	8.754431	80.498604	8.751173	80.503888	QG23+FH6, Vavuniya, Sri Lanka	0.684662	
Vavuniya	Vavuniya	Tamil Central College	False	False	VVNYVVNYTMLCNTRLCLLG		Vavuniya	LK-43	8.852071	80.467404	Vavuniya	PS-430119	8.754431	80.498604	8.754203	80.498234	QF3X+M7Q, Vavuniya, Sri Lanka	0.047934	
Vavuniya	Vavuniya	Muslim Maha Vidyalaya	False	False	VVNYVVNYMSLMMHVDYLY		Vavuniya	LK-43	8.852071	80.467404	Vavuniya	PS-430119	8.754431	80.498604	8.76329	80.482611	Pattanichoor, Vavuniya-Parayanalankulam Hwy, Vavuniya, Sri Lanka	2.015462	
Vavuniya	Nedunkeni	Public Health Service Offices - Nedunkeni	False	False	VVNYNDNKNPBLCHLTHSRVCFFCSNDNKN		Vavuniya	LK-43	8.852071	80.467404	Nedumkenrni	PS-430121	7.128721	79.877371	9.060607	80.66112	Old Post Office Road, Nedunkeni, Sri Lanka	231.566681	#CenterFarFromPolice
Vavuniya	Nedunkeni	Family Health Services Office - Nedunkeni	False	False	VVNYNDNKNFMLYHLTHSRVCSFFCNDNKN		Vavuniya	LK-43	8.852071	80.467404	Nedumkenrni	PS-430121	7.128721	79.877371	9.05396	80.653731	3M33+HFQ, Nedunkeni, Sri Lanka	230.578133	#CenterFarFromPolice
Vavuniya	Puliyamkulam	Family Health Services Office - Puliyamkulam	False	False	VVNYPLYMKLMFMLYHLTHSRVCSFFCPLYMKLM		Vavuniya	LK-43	8.852071	80.467404	Puliyankulam	PS-430124	8.967669	80.526465	8.964638	80.52596	Mullaittivu-Puliyankulam Rd, Puliyankulam, Sri Lanka	0.341673	
Vavuniya	Nelukkulam	Kale Mahal Maha Vidyalaya	False	False	VVNYNLKKLMKLMHLMHVDYLY		Vavuniya	LK-43	8.852071	80.467404	Ulukkulam	PS-430126	8.650981	80.314759	8.758435	80.456998	QF54+9QH, Vavuniya, Sri Lanka	19.683246	
Vavuniya	Puvarissankulam	Puvarissankulam Hospital	False	False	VVNYPVRSSNKLMPVRSSNKLMHSPTL		Vavuniya	LK-43	8.852071	80.467404									#PoliceLocationUnknown
Vavuniya	Sidambarapuram	Sidambarapuram hospital	False	False	VVNYSDMBRPRMSDMBRPRMHSPTL		Vavuniya	LK-43	8.852071	80.467404									#PoliceLocationUnknown
Vavuniya	Omanthai	Omanthai Hospital	False	False	VVNYMNTHMNTHHSPTL		Vavuniya	LK-43	8.852071	80.467404	Omantha	PS-430123	8.84719	80.497841	8.864234	80.502119	VG72+MRX, Omanthai, Sri Lanka	1.953234	
Vavuniya	Omanthai	Nauvi Hospital	False	False	VVNYMNTHNVHSPTL		Vavuniya	LK-43	8.852071	80.467404	Omantha	PS-430123	8.84719	80.497841	8.864234	80.502119	VG72+MRX, Omanthai, Sri Lanka	1.953234	
Trincomalee	Muttur	MOH Office – Muttur	False	False	TRNCMLMTTRMHFFCMTTR		Trincomalee	LK-53	8.551241	81.092014	Mutur	PS-530138	8.461133	81.259371	8.453916	81.264494	1 Old Batticaloa Rd, Mutur, Sri Lanka	0.980859	
Trincomalee	Kinniya	MOH Office - Kurungnakeni	False	False	TRNCMLKNNYMHFFCKRNGNKN		Trincomalee	LK-53	8.551241	81.092014	Kinnia	PS-530140	6.907289	79.863819	7.484932	80.353119	F9M3+X6H, Kurunegala 60000, Sri Lanka	83.927094	#CenterFarFromPolice
Trincomalee	Kinniya	MOH Office - Kinniya	False	False	TRNCMLKNNYMHFFCKNNY		Trincomalee	LK-53	8.551241	81.092014	Kinnia	PS-530140	6.907289	79.863819	8.498696	81.179644	F5XH+FVC, Kinniya 31100, Sri Lanka	228.840304	#CenterFarFromPolice
Trincomalee	Sripura	MOH Office - Sripura	False	False	TRNCMLSRPRMHFFCSRPR		Trincomalee	LK-53	8.551241	81.092014	Sripura	PS-530136	8.929617	80.81428	8.926697	80.814799	Padavi Sripura, Padaviya - Sripura Road, Welioya, Sri Lanka	0.329869	
Trincomalee	Kuchchaveli	MOH Office - Kuchchaveli	False	False	TRNCMLKCHCHVLMHFFCKCHCHVL		Trincomalee	LK-53	8.551241	81.092014	Kuchchaweli	PS-530133	8.81895	81.100438	8.740082	81.161616	P5R6+2JQ, Kumpurupiddi, Sri Lanka	11.053646	
Trincomalee	Kuchchaveli	Divisional Hospital - Kuchchaveli	False	False	TRNCMLKCHCHVLDVSNLHSPTLKCHCHVL		Trincomalee	LK-53	8.551241	81.092014	Kuchchaweli	PS-530133	8.81895	81.100438	8.814795	81.102358	R472+WW9, Kuchchaveli, Sri Lanka	0.508064	
Trincomalee	Kuchchaveli	Divisional Hospital - Nilaveli	False	False	TRNCMLKCHCHVLDVSNLHSPTLNLVL		Trincomalee	LK-53	8.551241	81.092014	Kuchchaweli	PS-530133	8.81895	81.100438	8.681035	81.193632	M5JV+CF6, Nilaveli, Sri Lanka	18.44695	
Trincomalee	Pulmoddai	Base Hospital -Pulmoddai	False	False	TRNCMLPLMDDBSHSPTLPLMDD		Trincomalee	LK-53	8.551241	81.092014	Pulmudai	PS-530135	6.915266	79.87829	8.941204	80.983139	WXRM+F7J, Pulmoddai, Sri Lanka	256.112801	#CenterFarFromPolice
Trincomalee	Serunuwara	MOH Office - Serunuwara	False	False	TRNCMLSRNWRMHFFCSRNWR		Trincomalee	LK-53	8.551241	81.092014	Serunuwara	PS-530244	8.321863	81.299322	8.323143	81.299894	B10, Sri Lanka	0.155671	
Trincomalee	Harbour Police	MOH Office - Trincomalee	False	False	TRNCMLHRBRPLCMHFFCTRNCML		Trincomalee	LK-53	8.551241	81.092014	Trinco Harbour Police	PS-530131	8.56705	81.231407	8.598974	81.216963	MOH Office, Farm Rd, Trincomalee, Sri Lanka	3.890062	
Trincomalee	Harbour Police	Base Hospital - Trincomalee	False	False	TRNCMLHRBRPLCBSHSPTLTRNCML		Trincomalee	LK-53	8.551241	81.092014	Trinco Harbour Police	PS-530131	8.56705	81.231407	8.56486	81.239445	Hospital Ln, Trincomalee, Sri Lanka	0.917037	
Trincomalee	Uppuveli	MOH Office - Uppuveli	False	False	TRNCMLPPVLMHFFCPPVL		Trincomalee	LK-53	8.551241	81.092014	Uppuweli	PS-530134	8.593614	81.21743	8.607961	81.216512	Nilaveli Rd, Trincomalee, Sri Lanka	1.599005	
Trincomalee	Kantale	MOH Office - Kantale	False	False	TRNCMLKNTLMHFFCKNTL		Trincomalee	LK-53	8.551241	81.092014	Kantale	PS-530241	8.356129	81.007739	8.349617	81.009107	අග්‍රබෝධි මාවත, Kantale, Sri Lanka	0.739809	
Trincomalee	Ichchalampattu	MOH Office - Ichchalampattu	False	False	TRNCMLCHCHLMPTTMHFFCCHCHLMPTT	Eachchilampattu Hospital	Trincomalee	LK-53	8.551241	81.092014	Ichchalampattu		8.289549	81.359002	8.289644	81.358983	Highway, Ichchalampattu, Trincomalee, Sri Lanka	0.010772	
Trincomalee	Thambalagamuwa	MOH Office - Thambalagamuwa	False	False	TRNCMLTHMBLGMWMHFFCTHMBLGMW		Trincomalee	LK-53	8.551241	81.092014	Thambalagamuva	PS-530243	6.907289	79.863819	8.563603	81.239584	Hospital Ln, Trincomalee, Sri Lanka	238.604889	#CenterFarFromPolice
Trincomalee	Gomarankadawala	MOH Office - Gomarankadawala	False	False	TRNCMLGMRNKDWLMHFFCGMRNKDWL		Trincomalee	LK-53	8.551241	81.092014	Gomarankadawala	PS-530248	8.674487	80.967555	8.674726	80.955691	Unnamed Road, Gomarankadawala, Sri Lanka	1.304806	
Trincomalee	Batticaloa	Mobile Medical Team	False	False	TRNCMLBTTCLMBLMDCLTM		Trincomalee	LK-53	8.551241	81.092014	Batticaloa	PS-510101	7.717949	81.699294					#CenterLocationUnknown
Batticaloa	Batticaloa	MOH Office - Batticaloa	False	False	BTTCLBTTCLMHFFCBTTCL		Batticaloa	LK-51	7.792772	81.486513	Batticaloa	PS-510101	7.717949	81.699294	7.708253	81.691368	Hospital Rd, Batticaloa, Sri Lanka	1.387934	
Batticaloa	Kokkadicholai	MOH Office – Pattipala	False	False	BTTCLKKKDCHLMHFFCPTTPL		Batticaloa	LK-51	7.792772	81.486513	Kokkadicholai	PS-510112	7.715979	81.698757	7.023407	80.262082	A7, Karawanella, Sri Lanka	176.210764	#CenterFarFromPolice
Batticaloa	Vellawali	Palugamam Tamil Vidyalaya	False	False	BTTCLVLLWLPLGMMTMLVDYLY		Batticaloa	LK-51	7.792772	81.486513	Vellavali	PS-510111	6.907289	79.863819	7.543988	81.757324	GQV4+HWW, Batticaloa, Sri Lanka	220.616281	#CenterFarFromPolice
Batticaloa	Valachchenai	Valachchenai Base Hospital	False	False	BTTCLVLCHCHNVLCHCHNBSHSPTL		Batticaloa	LK-51	7.792772	81.486513	Valachchanai	PS-510107	7.908015	81.533004	7.911315	81.533046	Valaichchenai-Nasuvantivu-Navaladi Road, Sri Lanka	0.367088	
Batticaloa	Valachchenai	MOH Office - Oddamavadi	False	False	BTTCLVLCHCHNMHFFCDDMVD		Batticaloa	LK-51	7.792772	81.486513	Valachchanai	PS-510107	7.908015	81.533004	7.912281	81.532775	WG6M+W46, Batticaloa, Sri Lanka	0.475177	
Batticaloa	Valachchenai	MOH Office - Nawaladi	False	False	BTTCLVLCHCHNMHFFCNWLD	Primary Medical Care Unit, Navalady	Batticaloa	LK-51	7.792772	81.486513	Valachchanai	PS-510107	7.908015	81.533004	7.735244	81.709126	PPP5+3MR, Kallady, Sri Lanka	27.312365	#CenterFarFromPolice
Batticaloa	Valachchenai	MOH Office - Valachchenai	False	False	BTTCLVLCHCHNMHFFCVLCHCHN		Batticaloa	LK-51	7.792772	81.486513	Valachchanai	PS-510107	7.908015	81.533004	7.912281	81.532775	WG6M+W46, Batticaloa, Sri Lanka	0.475177	
Batticaloa	Valachchenai	Karuwankarni Wigneswaran Vidyalaya	False	False	BTTCLVLCHCHNKRWNKRNWGNSWRNVDYLY		Batticaloa	LK-51	7.792772	81.486513	Valachchanai	PS-510107	7.908015	81.533004	7.920735	81.521581	Hairath Vidyalaya Road, Valaichenai, Oddamavadi, Sri Lanka	1.893553	
Batticaloa	Valachchenai	Kalkuda Clinic	False	False	BTTCLVLCHCHNKLKDCLNC		Batticaloa	LK-51	7.792772	81.486513	Valachchanai	PS-510107	7.908015	81.533004	7.911315	81.533046	Valaichchenai-Nasuvantivu-Navaladi Road, Sri Lanka	0.367088	
Batticaloa	Vakarai	Rideethenna Vidyalaya	False	False	BTTCLVKRRDTHNNVDYLY		Batticaloa	LK-51	7.792772	81.486513	Wakarai	PS-510109	6.934132	79.856305	7.964536	81.339985	road punnani, Batticaloa, Sri Lanka	199.779947	#CenterFarFromPolice
Batticaloa	Vakarai	Jayanthiyaya Clinic	False	False	BTTCLVKRJYNTHYYCLNC		Batticaloa	LK-51	7.792772	81.486513	Wakarai	PS-510109	6.934132	79.856305	7.708032	81.690622	Hospital Ln, Batticaloa 30000, Sri Lanka	219.913093	#CenterFarFromPolice
Batticaloa	Vakarai	Punani Pre School	False	False	BTTCLVKRPNNPRSCHL		Batticaloa	LK-51	7.792772	81.486513	Wakarai	PS-510109	6.934132	79.856305	7.907429	81.522367	Boundary Rd, Oddamavadi, Sri Lanka	213.279971	#CenterFarFromPolice
Batticaloa	Kaluwanchikudy	MOH Office - Kaluwanchikudy	False	False	BTTCLKLWNCHKDYMHFFCKLWNCHKDY	Medical Officer of Health Kaluwanchikudy	Batticaloa	LK-51	7.792772	81.486513	Kalawanchikudy	PS-510110	7.515908	81.787051	7.509333	81.79204	Colombo - Batticaloa Hwy, Kaluwanchikudy, Sri Lanka	0.915167	
Batticaloa	Vavunathivu	Nediyamadu GTM Vidyalaya	False	False	BTTCLVVNTHVNDYMDGTMVDYLY		Batticaloa	LK-51	7.792772	81.486513	Vavunathive	PS-510102	6.933075	79.857181	7.720143	81.700516	PPC2+362, Batticaloa, Sri Lanka	221.401617	#CenterFarFromPolice
Batticaloa	Kattankudy	Kattankudy Base Hospital	False	False	BTTCLKTTNKDYKTTNKDYBSHSPTL		Batticaloa	LK-51	7.792772	81.486513	Kaththankudi	PS-510103	7.715979	81.698757	7.685147	81.739078	Dr Badhiudeen Mahmood Mawatha, Kattankudy, Sri Lanka	5.613752	
Batticaloa	Kattankudy	MOH Office - Arayampathy	False	False	BTTCLKTTNKDYMHFFCRYMPTHY		Batticaloa	LK-51	7.792772	81.486513	Kaththankudi	PS-510103	7.715979	81.698757	7.672862	81.735019	MPFP+42R, Sri Lanka	6.243191	
Batticaloa	Kattankudy	MOH Office - Kattankudy	False	False	BTTCLKTTNKDYMHFFCKTTNKDY		Batticaloa	LK-51	7.792772	81.486513	Kaththankudi	PS-510103	7.715979	81.698757	7.683586	81.730767	MPMJ+C8J, Kattankudy, Sri Lanka	5.042961	
Batticaloa	Ayiththiyamalai	Unit 8 Post GTMS	False	False	BTTCLYTHTHYMLNTPSTGTMS		Batticaloa	LK-51	7.792772	81.486513	Aiththamalai	PS-510106	6.907289	79.863819	7.829278	81.471839	Batticaloa, Sri Lanka	204.892589	#CenterFarFromPolice
Batticaloa	Ayiththiyamalai	Manipuram GTMS	False	False	BTTCLYTHTHYMLMNPRMGTMS		Batticaloa	LK-51	7.792772	81.486513	Aiththamalai	PS-510106	6.907289	79.863819	7.720987	81.697673	PMCX+93V, Batticaloa, Sri Lanka	221.639371	#CenterFarFromPolice
Batticaloa	Eravur	Sandiveli Hospital	False	False	BTTCLRVRSNDVLHSPTL		Batticaloa	LK-51	7.792772	81.486513	Eravur	PS-510104	7.715979	81.698757	7.777289	81.602853	Trincomalee Hwy, Eravur, Sri Lanka	12.578998	
Batticaloa	Eravur	MOH Office - Eravur	False	False	BTTCLRVRMHFFCRVR		Batticaloa	LK-51	7.792772	81.486513	Eravur	PS-510104	7.715979	81.698757	7.783664	81.605626	QJM4+F76, Eravur, Sri Lanka	12.729342	
Batticaloa	Eravur	MOH Office - Eravur	False	False	BTTCLRVRMHFFCRVR		Batticaloa	LK-51	7.792772	81.486513	Eravur	PS-510104	7.715979	81.698757	7.783664	81.605626	QJM4+F76, Eravur, Sri Lanka	12.729342	
Batticaloa	Eravur	Eravur Hospital	False	False	BTTCLRVRRVRHSPTL		Batticaloa	LK-51	7.792772	81.486513	Eravur	PS-510104	7.715979	81.698757	7.783168	81.605999	QJM4+799, Eravur 30300, Sri Lanka	12.663585	
Batticaloa	Eravur	Mawadiwembu Hospital	False	False	BTTCLRVRMWDWMBHSPTL		Batticaloa	LK-51	7.792772	81.486513	Eravur	PS-510104	7.715979	81.698757	7.808545	81.566328	Mawadiwembu Hospital, Sri Lanka	17.861302	
Batticaloa	Eravur	MOH Office - Chenkaladi	False	False	BTTCLRVRMHFFCCHNKLD		Batticaloa	LK-51	7.792772	81.486513	Eravur	PS-510104	7.715979	81.698757	7.783599	81.593367	Trincomalee Hwy, Chenkaladi 30350, Sri Lanka	13.837876	
Batticaloa	Eravur	Wandaramulla Vishnu Vidyalaya	False	False	BTTCLRVRWNDRMLLVSHNVDYLY		Batticaloa	LK-51	7.792772	81.486513	Eravur	PS-510104	7.715979	81.698757	7.607272	81.76572	JQ48+W75, Kirankulam, Sri Lanka	14.16666	
Batticaloa	Eravur	Chenkaladi Hospital	False	False	BTTCLRVRCHNKLDHSPTL		Batticaloa	LK-51	7.792772	81.486513	Eravur	PS-510104	7.715979	81.698757	7.783546	81.589961	Batticaloa Rd, Chenkaladi, Sri Lanka	14.151406	
Batticaloa	Eravur	Rifai Church	False	False	BTTCLRVRRFCHRCH		Batticaloa	LK-51	7.792772	81.486513	Eravur	PS-510104	7.715979	81.698757	7.709935	81.6955	No 34A Central Road, Batticaloa 30000, Sri Lanka	0.762123	
Batticaloa	Karadiyanaru	Kitula Sri Krishna Vidyalaya	False	False	BTTCLKRDYNRKTLSRKRSHNVDYLY		Batticaloa	LK-51	7.792772	81.486513	Karadiyanaru	PS-510105	7.701992	81.537252	7.700747	81.538387	Karadiyanaru, Sri Lanka	0.186625	
Batticaloa	Karadiyanaru	Karadiyanaru Hospital	False	False	BTTCLKRDYNRKRDYNRHSPTL		Batticaloa	LK-51	7.792772	81.486513	Karadiyanaru	PS-510105	7.701992	81.537252	7.700216	81.539779	PG2Q+3WJ, Karadiyanaru, Sri Lanka	0.341482	
Ampara	Chavalakade	MOH Office - Navidanveli	False	False	MPRCHVLKDMHFFCNVDNVL		Ampara	LK-52	7.23699	81.550391	Chawalakade	PS-520125	7.413559	81.776822	7.420081	81.788401	B77, Sri Lanka	1.468805	
Ampara	Chavalakade	5th Colony Health Centre	False	False	MPRCHVLKDTHCLNYHLTHCNTR		Ampara	LK-52	7.23699	81.550391	Chawalakade	PS-520125	7.413559	81.776822	7.418836	81.781436	Chavalakade, Sri Lanka	0.776867	
Ampara	Karaitivu	MOH Office – Karaitivu	False	False	MPRKRTVMHFFCKRTV		Ampara	LK-52	7.23699	81.550391	Karaitivu		9.744059	79.870587	7.377712	81.838796	Colombo-Ratnapura-Wellawaya-Batticaloa Highway, Karativu 32250, Sri Lanka	340.788666	#CenterFarFromPolice
Ampara	Kalmunai	Ashraff Memorial Hospital	False	False	MPRKLMNSHRFFMMRLHSPTL		Ampara	LK-52	7.23699	81.550391	Kalmunai	PS-520123	7.414289	81.825006	7.403172	81.831146	A4, Ashraff Memorial Base Hospital, A4 A4, Kalmunai 32300, Sri Lanka	1.409859	
Ampara	Kalmunai	MOH Office - Kalmunai North	False	False	MPRKLMNMHFFCKLMNNRTH		Ampara	LK-52	7.23699	81.550391	Kalmunai	PS-520123	7.414289	81.825006	7.411712	81.838462	CR6Q+M9P, Kalmunai 32300, Sri Lanka	1.511625	
Ampara	Kalmunai	MOH Office - Kalmunai South	False	False	MPRKLMNMHFFCKLMNSTH		Ampara	LK-52	7.23699	81.550391	Kalmunai	PS-520123	7.414289	81.825006	7.411712	81.838462	CR6Q+M9P, Kalmunai 32300, Sri Lanka	1.511625	
Ampara	Kalmunai	Base Hospital - Kalmunai North	False	False	MPRKLMNBSHSPTLKLMNNRTH		Ampara	LK-52	7.23699	81.550391	Kalmunai	PS-520123	7.414289	81.825006	7.420034	81.82232	hospital near, Kalmunai 32300, Sri Lanka	0.704353	
Ampara	Sainthamarthu	MOH Office – Sainthamarthu	False	False	MPRSNTHMRTHMHFFCSNTHMRTH		Ampara	LK-52	7.23699	81.550391									#PoliceLocationUnknown
Ampara	Sainthamarthu	Saindamarudu Hospital	False	False	MPRSNTHMRTHSNDMRDHSPTL		Ampara	LK-52	7.23699	81.550391									#PoliceLocationUnknown
Ampara	Sammanthurai	Sammanthurai Base Hospital	False	False	MPRSMMNTHRSMMNTHRBSHSPTL		Ampara	LK-52	7.23699	81.550391	Samanthurai	PS-520124	7.365785	81.810859	7.368355	81.813042	9R96+MWM, Hospital Rd, Sammanthurai, Sri Lanka	0.373773	
Ampara	Sammanthurai	MOH Office – Nintavur	False	False	MPRSMMNTHRMHFFCNNTVR		Ampara	LK-52	7.23699	81.550391	Samanthurai	PS-520124	7.365785	81.810859	7.352821	81.856939	Hospital Rd, Nintavur 32340, Sri Lanka	5.283925	
Ampara	Sammanthurai	Nintavur Hospital	False	False	MPRSMMNTHRNNTVRHSPTL		Ampara	LK-52	7.23699	81.550391	Samanthurai	PS-520124	7.365785	81.810859	7.353372	81.856852	Hospital Rd, Nintavur, Sri Lanka	5.258159	
Ampara	Sammanthurai	Kannahi Vidyalaya	False	False	MPRSMMNTHRKNNHVDYLY		Ampara	LK-52	7.23699	81.550391	Samanthurai	PS-520124	7.365785	81.810859	7.35018	81.80359	Kallarichchel 02, Sammanthurai, Sri Lanka	1.912014	
Ampara	Sammanthurai	Darussalam Vidyalaya	False	False	MPRSMMNTHRDRSSLMVDYLY		Ampara	LK-52	7.23699	81.550391	Samanthurai	PS-520124	7.365785	81.810859	7.357562	81.802725	9R53+23H, Sammanthurai, Sri Lanka	1.281286	
Ampara	Thirukkovil	MOH Office – Thirukkovil	False	False	MPRTHRKKVLMHFFCTHRKKVL		Ampara	LK-52	7.23699	81.550391	Thirukkovil	PS-520127	7.113998	81.852219	7.111635	81.852892	Central Rd, Vinayagapuram, Sri Lanka	0.273131	
Ampara	Akkaraipattu	MOH Office – Addalachenai	False	False	MPRKKRPTTMHFFCDDLCHN		Ampara	LK-52	7.23699	81.550391	Akkaraipattu	PS-520126	7.216084	81.853254	7.260916	81.853493	7V63+999, Addalaichenai, Sri Lanka	4.986726	
Ampara	Akkaraipattu	MOH Office - Akkaraipattu	False	False	MPRKKRPTTMHFFCKKRPTT		Ampara	LK-52	7.23699	81.550391	Akkaraipattu	PS-520126	7.216084	81.853254	7.228134	81.851123	6VH2+7C5, Akkaraipattu, Sri Lanka	1.360772	
Ampara	Akkaraipattu	Badur Mosque	False	False	MPRKKRPTTBDRMSQ		Ampara	LK-52	7.23699	81.550391	Akkaraipattu	PS-520126	7.216084	81.853254	7.21798	81.859573	Deens Road, Akkaraipattu, Sri Lanka	0.728487	
Ampara	Akkaraipattu	Akkaraipattu Nuraniya Church	False	False	MPRKKRPTTKKRPTTNRNYCHRCH		Ampara	LK-52	7.23699	81.550391	Akkaraipattu	PS-520126	7.216084	81.853254	7.217154	81.849717	Sagama Rd, Akkaraipattu, Sri Lanka	0.408046	
Ampara	Akkaraipattu	MOH Office - Alayadivembu	False	False	MPRKKRPTTMHFFCLYDVMB		Ampara	LK-52	7.23699	81.550391	Akkaraipattu	PS-520126	7.216084	81.853254	7.228134	81.851123	6VH2+7C5, Akkaraipattu, Sri Lanka	1.360772	
Ampara	Pottuvil	Dharampalawa Vidyalaya	False	False	MPRPTTVLDHRMPLWVDYLY		Ampara	LK-52	7.23699	81.550391	Pothuvil	PS-520128	6.878387	81.826859	6.867891	81.839008	Muhudu Maha Vihara Mawatha, Pottuvil, Sri Lanka	1.778462	
Ampara	Pottuvil	Base Hospital - Pottuvil	False	False	MPRPTTVLBSHSPTLPTTVL		Ampara	LK-52	7.23699	81.550391	Pothuvil	PS-520128	6.878387	81.826859	6.876098	81.830463	Main Street Colombo - Batticaloa Hwy, Pottuvil 32500, Sri Lanka	0.47246	
Ampara	Pottuvil	Pottuvil Central College	False	False	MPRPTTVLPTTVLCNTRLCLLG		Ampara	LK-52	7.23699	81.550391	Pothuvil	PS-520128	6.878387	81.826859	6.879508	81.835585	Pottuvil, Sri Lanka	0.971748	
Ampara	Pottuvil	Bahiriya Vidyalaya	False	False	MPRPTTVLBHRYVDYLY		Ampara	LK-52	7.23699	81.550391	Pothuvil	PS-520128	6.878387	81.826859	6.86413	81.834297	VR7M+MP3, Pottuvil, Sri Lanka	1.785902	
Ampara	Pottuvil	Al Huda Vidyalaya	False	False	MPRPTTVLLHDVDYLY		Ampara	LK-52	7.23699	81.550391	Pothuvil	PS-520128	6.878387	81.826859	7.244244	81.745885	Irakkamam, Eragama, Sri Lanka	41.664323	#CenterFarFromPolice
Ampara	Pottuvil	Health Office - Hidayapuram	False	False	MPRPTTVLHLTHFFCHDYPRM		Ampara	LK-52	7.23699	81.550391	Pothuvil	PS-520128	6.878387	81.826859	6.877076	81.828969	B374, Pottuvil, Sri Lanka	0.274874	
Ampara	Pottuvil	MOH Office - Pottuvil	False	False	MPRPTTVLMHFFCPTTVL		Ampara	LK-52	7.23699	81.550391	Pothuvil	PS-520128	6.878387	81.826859	6.877076	81.828969	B374, Pottuvil, Sri Lanka	0.274874	
