district	police	center	dose1	dose2	fuzzy_key	alt_name	district_name_norm	district_id	district_lat	district_lng	ps_name_norm	ps_id	ps_lat	ps_lng	lat	lng	formatted_address	dis_center_to_police	tags
Colombo	Cinnamon Gardens	Viharamahadevi Park	False	False	CLMBCNNMNGRDNSVHRMHDVPRK		Colombo	LK-11	6.869636	80.019598	Cinnamon Garden	PS-110324	6.907289	79.863819	6.913391	79.86174	Viharamahadevi Park, Colombo, Sri Lanka	0.716497	
Colombo	Thalangama	Diyatha Uyana	False	False	CLMBTHLNGMDYTHYN		Colombo	LK-11	6.869636	80.019598	Thalangama	PS-110466	6.91089	79.929325	6.904575	79.909831	Diyatha Uyana, B240, Sri Jayawardenepura Kotte, Sri Lanka	2.264281	
Colombo	Grandpass	Sugathadasa Outdoor Stadium	False	False	CLMBGRNDPSSSGTHDSTDRSTDM		Colombo	LK-11	6.869636	80.019598	Grandpass	PS-110215	6.949052	79.872983	6.94806	79.868842	Prince of Wales Ave, Colombo 01400, Sri Lanka	0.470345	
Colombo	Narahenpita	Army Hospital Narahenpita	False	False	CLMBNRHNPTRMYHSPTLNRHNPT		Colombo	LK-11	6.869636	80.019598	Narahenpita	PS-110321	6.891832	79.876715	6.900252	79.87618	08 Elvitigala Mawatha, Colombo 00800, Sri Lanka	0.938417	
Colombo	Borella	St. Luke's Church - Borella	False	False	CLMBBRLLSTLKSCHRCHBRLL		Colombo	LK-11	6.869636	80.019598	Borella	PS-110323	6.915266	79.87829	6.918035	79.874548	1091 Gnanartha Pradeepa Mawatha, Colombo 00800, Sri Lanka	0.515354	
Colombo	Boralesgamuwa	Kotelawala Defence Hospital	False	False	CLMBBRLSGMWKTLWLDFNCHSPTL		Colombo	LK-11	6.869636	80.019598	Boralesgamuwa	PS-110464	6.841331	79.901255	6.82518	79.907167	RWG4+3VF, Boralesgamuwa, Sri Lanka	1.911444	
Colombo	Maradana	National Hospital - Colombo	False	False	CLMBMRDNNTNLHSPTLCLMB		Colombo	LK-11	6.869636	80.019598	Maradana	PS-110107	6.927939	79.865471	6.918743	79.868992	Colombo 00700, Sri Lanka	1.094265	
Colombo	Fort	Navy Headquarters	False	False	CLMBFRTNVYHDQRTRS		Colombo	LK-11	6.869636	80.019598	Fort	PS-110105	6.9334	79.842895	6.936952	79.842104	WRPR+QRQ, Colombo, Sri Lanka	0.404627	
Colombo	Wellawatta	MOH Office - Wellawatta	False	False	CLMBWLLWTTMHFFCWLLWTT		Colombo	LK-11	6.869636	80.019598	Wellawatta	PS-110320	6.873107	79.86167	6.874483	79.861558	235 Galle Rd, Colombo, Sri Lanka	0.153551	
Colombo	Wellampitiya	MOH Office - Kolonnawa	False	False	CLMBWLLMPTYMHFFCKLNNW		Colombo	LK-11	6.869636	80.019598	Wellampitiya	PS-110465	6.937514	79.896298	6.938303	79.889664	25 Pansalhena 1st Ln, 10600, Sri Lanka	0.737734	
Colombo	Mulleriyawa	MOH Office - Gothatuwa	False	False	CLMBMLLRYWMHFFCGTHTW		Colombo	LK-11	6.869636	80.019598	Mulleriyawa	PS-110469	6.927187	79.929108	6.922088	79.916237	Mandavila Rd, Kotikawatta, Sri Lanka	1.530186	
Colombo	Kaduwela	MOH Office - Kaduwela	False	False	CLMBKDWLMHFFCKDWL		Colombo	LK-11	6.869636	80.019598	Kaduwela		6.936234	79.970183	6.934127	79.984398	B263, Kaduwela, Sri Lanka	1.586964	
Colombo	Kosgama	Kosgama Hospital	False	False	CLMBKSGMKSGMHSPTL		Colombo	LK-11	6.869636	80.019598	Kosgama	PS-920227	6.946597	80.137869	6.940956	80.124888	Salawa-Akarawita, 10730, Sri Lanka	1.564606	
Gampaha	Gampaha	Galahitiyawa Community Hall	False	False	GMPHGMPHGLHTYWCMMNTYHLL		Gampaha	LK-12	7.123598	80.018508	Gampaha	PS-120237	7.087765	80.01228	7.059587	80.008739	Gampaha, Sri Lanka	3.158513	
Gampaha	Pugoda	MOH Office - Dompe	False	False	GMPHPGDMHFFCDMP		Gampaha	LK-12	7.123598	80.018508	Pugoda	PS-120241	6.98283	80.111189	6.976767	80.117422	Dompe, Pugoda-Mandawala Rd, Pugoda, Sri Lanka	0.963513	
Gampaha	Minuwangoda	Dagonna Maternity Clinic	False	False	GMPHMNWNGDDGNNMTRNTYCLNC		Gampaha	LK-12	7.123598	80.018508	Minuwangoda	PS-120238	7.174215	79.957874	7.172386	79.957553	Katunayake-Veyangoda Rd, Minuwangoda, Sri Lanka	0.206501	
Gampaha	Minuwangoda	Mobile Vaccination	False	False	GMPHMNWNGDMBLVCCNTN		Gampaha	LK-12	7.123598	80.018508	Minuwangoda	PS-120238	7.174215	79.957874					#CenterLocationUnknown
Gampaha	Minuwangoda	Minuwangoda Hospital	False	False	GMPHMNWNGDMNWNGDHSPTL		Gampaha	LK-12	7.123598	80.018508	Minuwangoda	PS-120238	7.174215	79.957874	7.172257	79.956152	Veyangoda Rd, Minuwangoda 11550, Sri Lanka	0.289044	
Gampaha	Minuwangoda	MOH Office - Minuwangoda	False	False	GMPHMNWNGDMHFFCMNWNGD		Gampaha	LK-12	7.123598	80.018508	Minuwangoda	PS-120238	7.174215	79.957874	7.17227	79.956823	Katunayake-Veyangoda Rd, Minuwangoda, Sri Lanka	0.245525	
Gampaha	Nittambuwa	MOH Office - Aththanagalla	False	False	GMPHNTTMBWMHFFCTHTHNGLL		Gampaha	LK-12	7.123598	80.018508	Nittambuwa	PS-120246	7.149726	80.10046	7.154005	80.062741	B445, Veyangoda 11100, Sri Lanka	4.189956	
Gampaha	Sapugaskanda	Heiyanthuduwa Maternity Clinic	False	False	GMPHSPGSKNDHYNTHDWMTRNTYCLNC		Gampaha	LK-12	7.123598	80.018508	Sapugaskanda	PS-120130	6.970586	79.953588	6.97029	79.976879	Power House Bus Stop, Oil Refinery Junction - Free Trade Zone Rd, Sri Lanka	2.571717	
Gampaha	Peliyagoda	Gangarama Viharaya	False	False	GMPHPLYGDGNGRMVHRY		Gampaha	LK-12	7.123598	80.018508	Peliyagoda	PS-120125	6.955193	79.88612	6.967181	79.882488	29 Negombo-Colombo Main Rd, Wattala, Sri Lanka	1.392417	
Gampaha	Katana	MOH Office - Katana	False	False	GMPHKTNMHFFCKTN		Gampaha	LK-12	7.123598	80.018508	Katana	PS-120360	7.224796	79.880015	7.22436	79.88271	Katana, Negombo - Mirigama Rd, Negombo, Sri Lanka	0.301313	
Gampaha	Kadawata	Kirillawala Central College	False	False	GMPHKDWTKRLLWLCNTRLCLLG		Gampaha	LK-12	7.123598	80.018508	Kadawatha	PS-120136	7.00152	79.95003	7.015981	79.969223	2X89+9MX, Eldeniya, Sri Lanka	2.660247	
Gampaha	Negombo	Town Hall - Negombo	False	False	GMPHNGMBTWNHLLNGMB		Gampaha	LK-12	7.123598	80.018508	Negombo	PS-120351	7.224796	79.880015	7.206667	79.851863	Negombo, Sri Lanka	3.703623	
Gampaha	Ja Ela	MOH Office - Ja Ela	False	False	GMPHJLMHFFCJL		Gampaha	LK-12	7.123598	80.018508	Ja - Ela	PS-120133	7.081055	79.890504	7.075216	79.893879	60 Mount Kalvary Rd, Ja-Ela, Sri Lanka	0.748731	
Gampaha	Wattala	MOH Office - Wattala	False	False	GMPHWTTLMHFFCWTTL		Gampaha	LK-12	7.123598	80.018508	Wattala	PS-120128	6.993713	79.894506	6.995817	79.885793	301 Hendala Rd, Wattala, Sri Lanka	0.989991	
Gampaha	Ragama	MOH Office - Ragama	False	False	GMPHRGMMHFFCRGM		Gampaha	LK-12	7.123598	80.018508	Ragama	PS-120134	7.034975	79.924148	7.027386	79.920232	2WGC+X35, Ragama, Sri Lanka	0.948382	
Gampaha	Kotadeniyawa	Badalgamuwa Maternity Clinic	False	False	GMPHKTDNYWBDLGMWMTRNTYCLNC		Gampaha	LK-12	7.123598	80.018508	Kotadeniyawa	PS-120354	7.283643	80.06649	7.500881	80.392656	Badagamuwa, Sri Lanka	43.33897	#CenterFarFromPolice
Gampaha	Kotadeniyawa	Kotadeniyawa Maternity Clinic	False	False	GMPHKTDNYWKTDNYWMTRNTYCLNC		Gampaha	LK-12	7.123598	80.018508	Kotadeniyawa	PS-120354	7.283643	80.06649	7.283881	80.066065	Kotadeniyawa, Sri Lanka	0.053848	
Gampaha	Divulapitiya	MOH Office - Divulapitiya	False	False	GMPHDVLPTYMHFFCDVLPTY		Gampaha	LK-12	7.123598	80.018508	Diulapitiya	PS-120355	7.174215	79.957874	7.215486	80.013606	6287+5CX, Divulapitiya, Sri Lanka	7.67456	
Gampaha	Ingiriya	District Hospital - Ingiriya	False	False	GMPHNGRYDSTRCTHSPTLNGRY		Gampaha	LK-12	7.123598	80.018508	Ingiriya	PS-130193	6.743614	80.175077	6.741114	80.162065	Ratnapura - Horana - Panadura Hwy, Ingiriya, Sri Lanka	1.463965	
Kalutara	Horana	Moragahahena Purvarama	False	False	KLTRHRNMRGHHNPRVRM		Kalutara	LK-13	6.577316	80.127363	Horana	PS-130192	6.714613	80.069091	6.586943	79.960167	Galle Rd, Kalutara, Sri Lanka	18.613945	
Kalutara	Dodamgoda	Wilpatha Hospital	False	False	KLTRDDMGDWLPTHHSPTL		Kalutara	LK-13	6.577316	80.127363	Dodangoda	PS-130299	6.553375	80.023569	6.540961	80.036553	Wilpatha Rd, Sri Lanka	1.991373	
Kalutara	Beruwala	MOH Office - Beruwala	False	False	KLTRBRWLMHFFCBRWL		Kalutara	LK-13	6.577316	80.127363	Beruwala	PS-1302102	6.480329	79.983498	6.437559	79.999356	CXQX+2PH, Aluthgama, Sri Lanka	5.069893	
Kalutara	Matugama	MOH Office - Matugama	False	False	KLTRMTGMMHFFCMTGM		Kalutara	LK-13	6.577316	80.127363	Mathugama	PS-1302103	6.520881	80.117908	6.523544	80.126443	G4FG+CH8, Matugama, Sri Lanka	0.988725	
Kalutara	Panadura	Mahanama National College	False	False	KLTRPNDRMHNMNTNLCLLG		Kalutara	LK-13	6.577316	80.127363	Panadura North		6.756309	79.898939	6.742886	79.911867	Kandy Road, Panadura, Sri Lanka	2.066007	
Kalutara	Baduraliya	Baduraliya Hospital	False	False	KLTRBDRLYBDRLYHSPTL		Kalutara	LK-13	6.577316	80.127363	Baduraliya	PS-1302106	6.516756	80.226716	6.514727	80.232731	Tiruwanaketiya-Agalawatte Rd, Baduraliya, Sri Lanka	0.702098	
Kalutara	Bandragama	MOH Office - Bandaragama	False	False	KLTRBNDRGMMHFFCBNDRGM		Kalutara	LK-13	6.577316	80.127363	Bandaragama	PS-130189	6.715179	79.987674	6.713351	79.991671	Library Path, Bandaragama, Sri Lanka	0.486104	
Kalutara	Millaniya	MOH Office - Millaniya	False	False	KLTRMLLNYMHFFCMLLNY		Kalutara	LK-13	6.577316	80.127363	Millaniya	PS-130191	6.681692	80.020847	6.724224	79.907284	A2, Panadura, Sri Lanka	13.407612	
Kurunegala	Kurunegala	Kurunegala Teaching  Hospital	False	False	KRNGLKRNGLKRNGLTCHNGHSPTL		Kurunegala	LK-61	7.66477	80.23677	Kurunegala	PS-610101	7.485852	80.364137	7.479122	80.359115	No. 176, Ambepussa - Trincomalee Hwy, Kurunegala 60000, Sri Lanka	0.931185	
Kurunegala	Mawathagama	Udanagama Medical Centre	False	False	KRNGLMWTHGMDNGMMDCLCNTR		Kurunegala	LK-61	7.66477	80.23677	Mawathagama	PS-610109	7.432976	80.449904	7.474266	80.39225	Keppetigala Rd, Mallawapitiya 60000, Sri Lanka	7.843802	
Kurunegala	Mawathagama	Kotikapola Viharaya	False	False	KRNGLMWTHGMKTKPLVHRY		Kurunegala	LK-61	7.66477	80.23677	Mawathagama	PS-610109	7.432976	80.449904	7.434223	80.443251	Katugastota-Kurunegala-Puttalam Hwy, Mawathagama, Sri Lanka	0.746787	
Kurunegala	Giribawa	Pahala Giribawa Vidyalaya	False	False	KRNGLGRBWPHLGRBWVDYLY		Kurunegala	LK-61	7.66477	80.23677	Giribawa	PS-610329	8.117314	80.189061	8.116653	80.192352	Mahagalkadawala - Warawewa, Pahala Giribawa, Sri Lanka	0.369773	
Kurunegala	Giribawa	Gurupitigama Vidyalaya	False	False	KRNGLGRBWGRPTGMVDYLY		Kurunegala	LK-61	7.66477	80.23677	Giribawa	PS-610329	8.117314	80.189061	8.03503	80.276477	27PG+2H9, Galgamuwa, Sri Lanka	13.283184	
Kurunegala	Giribawa	Bambare Primary School	False	False	KRNGLGRBWBMBRPRMRYSCHL		Kurunegala	LK-61	7.66477	80.23677	Giribawa	PS-610329	8.117314	80.189061	8.118351	80.192415	459R+8XV, Pahala Giribawa, Sri Lanka	0.38692	
Kurunegala	Wariyapola	Wariyapola Sumangala Vidyalaya	False	False	KRNGLWRYPLWRYPLSMNGLVDYLY		Kurunegala	LK-61	7.66477	80.23677	Wariyapola	PS-610105	7.628129	80.241019	7.619472	80.233697	Chilaw Road, වාරියපොල නගරය, Sri Lanka	1.256512	
Kurunegala	Maho	Pailigam Society Hall	False	False	KRNGLMHPLGMSCTYHLL		Kurunegala	LK-61	7.66477	80.23677	Maho	PS-610324	7.824001	80.28038	7.848667	80.238321	Maho 60600, Sri Lanka	5.385737	
Kurunegala	Maho	Maho Hospital	False	False	KRNGLMHMHHSPTL		Kurunegala	LK-61	7.66477	80.23677	Maho	PS-610324	7.824001	80.28038	7.824003	80.282165	siyambalangamuwa road, මහව 60600, Sri Lanka	0.196697	
Puttalam	Nawagattegama	Moragahawewa Clinic	False	False	PTTLMNWGTTGMMRGHWWCLNC		Puttalam	LK-62	7.973531	79.913833	Nawagaththegama	PS-620133	8.002882	80.106543	8.001291	80.10379	Nawagattegama, Sri Lanka	0.351096	
Puttalam	Wennappuwa	Holy Family Convent Wennappuwa	False	False	PTTLMWNNPPWHLYFMLYCNVNTWNNPPW		Puttalam	LK-62	7.973531	79.913833	Wennappuwa	PS-620245	7.339623	79.843017	7.340487	79.843438	8RRV+59W, Wennappuwa, Sri Lanka	0.106737	
Puttalam	Dankotuwa	Dankotuwa Balika Vidyalaya	False	False	PTTLMDNKTWDNKTWBLKVDYLY		Puttalam	LK-62	7.973531	79.913833	Dankotuwa	PS-620246	7.300337	79.882595	7.29238	79.878239	Toppuwa - Madampe Rd, Dankotuwa, Sri Lanka	1.007122	
Puttalam	Puttalam	Puttalam Hospital	False	False	PTTLMPTTLMPTTLMHSPTL		Puttalam	LK-62	7.973531	79.913833	Puttalam	PS-620130	8.029904	79.834396	8.027902	79.83874	Katugastota-Kurunegala-Puttalam Hwy, Puttalam, Sri Lanka	0.527729	
Puttalam	Koswatta	Naranwala Maha Vidyalaya	False	False	PTTLMKSWTTNRNWLMHVDYLY		Puttalam	LK-62	7.973531	79.913833	Koswatta	PS-620244	7.374528	79.898302	7.011896	80.024149	Naranwala, Sri Lanka	42.659369	#CenterFarFromPolice
Puttalam	Koswatta	Haldanduwana Maha Vidyalaya	False	False	PTTLMKSWTTHLDNDWNMHVDYLY		Puttalam	LK-62	7.973531	79.913833	Koswatta	PS-620244	7.374528	79.898302	6.908863	79.931357	Koswatta, Sri Jayawardenepura Kotte, Sri Lanka	51.924158	#CenterFarFromPolice
Puttalam	Anamaduwa	MOH Office – Anamaduwa	False	False	PTTLMNMDWMHFFCNMDW		Puttalam	LK-62	7.973531	79.913833	Anamaduwa	PS-620131	7.874852	80.01316	7.889992	80.010421	V2Q6+X5V, Anamaduwa, Sri Lanka	1.710846	
Puttalam	Mundalama	MOH Office - Mundalama	False	False	PTTLMMNDLMMHFFCMNDLM		Puttalam	LK-62	7.973531	79.913833	Mundal	PS-620138	7.808859	79.825729	7.78892	79.82751	Puttalam - Colombo Rd, Sri Lanka	2.226479	
Puttalam	Kandy	Pushpadhana Balika Vidyalaya	False	False	PTTLMKNDYPSHPDHNBLKVDYLY		Puttalam	LK-62	7.973531	79.913833	Kandy	PS-210101	7.292948	80.642368	7.293989	80.633	16 Kandy Rd, Kandy 20000, Sri Lanka	1.040036	
Puttalam	Kandy	DS Senanayaka Vidyalaya	False	False	PTTLMKNDYDSSNNYKVDYLY		Puttalam	LK-62	7.973531	79.913833	Kandy	PS-210101	7.292948	80.642368	7.290139	80.647085	66 Anagarika Dharmapala Mawatha, Kandy 20000, Sri Lanka	0.607015	
Puttalam	Kandy	Girls' High School Kandy	False	False	PTTLMKNDYGRLSHGHSCHLKNDY		Puttalam	LK-62	7.973531	79.913833	Kandy	PS-210101	7.292948	80.642368	7.286871	80.626752	7JPG+PPR, Kandy, Sri Lanka	1.850775	
Puttalam	Galewela	MOH Office - Galewela	False	False	PTTLMGLWLMHFFCGLWL		Puttalam	LK-62	7.973531	79.913833	Galewela	PS-220129	7.763244	80.574149	7.760791	80.571896	A6, Galewela, Sri Lanka	0.368918	
Matale	Dambulla	MOH Office - Dambulla	False	False	MTLDMBLLMHFFCDMBLL		Matale	LK-22	7.667587	80.731008	Dambulla	PS-220128	7.86208	80.649166	7.870886	80.650631	A36,Bus stand, Dambulla, Sri Lanka	0.992702	
Badulla	Uva Paranagama	MOH Office - Uva Paranagama	False	False	BDLLVPRNGMMHFFCVPRNGM		Badulla	LK-81	7.074529	81.04486	Uvaparanagama	PS-810213	6.958341	80.930364	6.927934	80.896475	Udapussellawa-Welimada Road, Ambagasdowa, Sri Lanka	5.043837	
Badulla	Ella	MOH Office – Ella	False	False	BDLLLLMHFFCLL		Badulla	LK-81	7.074529	81.04486	Ella	PS-810211	6.876609	81.048276	6.779645	80.964114	QXH7+WC4, Badulla, Sri Lanka	14.237912	
Badulla	Hali Ela	Sambodhi Viharaya	False	False	BDLLHLLSMBDHVHRY		Badulla	LK-81	7.074529	81.04486	Haliela	PS-810108	6.958216	81.034447	6.984218	81.061356	Muthiyangana Temple, Station Rd, Badulla, Sri Lanka	4.14625	
Badulla	Welimada	MOH Office - Welimada	False	False	BDLLWLMDMHFFCWLMD		Badulla	LK-81	7.074529	81.04486	Welimada	PS-810212	6.900481	80.905809	6.927934	80.896475	Udapussellawa-Welimada Road, Ambagasdowa, Sri Lanka	3.222841	
Badulla	Haputale	MOH Office - Haputale	False	False	BDLLHPTLMHFFCHPTL		Badulla	LK-81	7.074529	81.04486	Haputale	PS-810215	6.767653	80.957218	6.779645	80.964114	QXH7+WC4, Badulla, Sri Lanka	1.536024	
Badulla	Bandarawela	MOH Office – Bandarawela	False	False	BDLLBNDRWLMHFFCBNDRWL		Badulla	LK-81	7.074529	81.04486	Bandarawela	PS-810210	6.831526	80.986784	6.841272	80.98482	Hospital Junction Helamuduna Bus Stop, Etampitiya Rd, Bandarawela, Sri Lanka	1.105533	
Moneragala	Monaragala	Mahanama Vidyalaya	False	False	MNRGLMNRGLMHNMVDYLY		Moneragala	LK-82	6.787517	81.303744	Monaragala	PS-820121	6.869866	81.348106	6.876259	81.348364	Potuvile Road Colombo - Batticaloa Hwy, Monaragala, Sri Lanka	0.711663	
Moneragala	Monaragala	Royal College	False	False	MNRGLMNRGLRYLCLLG		Moneragala	LK-82	6.787517	81.303744	Monaragala	PS-820121	6.869866	81.348106	6.86108	81.33918	V86Q+CMM, Monaragala, Sri Lanka	1.388052	
Moneragala	Monaragala	Weliyaya Pirivena	False	False	MNRGLMNRGLWLYYPRVN		Moneragala	LK-82	6.787517	81.303744	Monaragala	PS-820121	6.869866	81.348106	6.907098	81.341043	W84R+RCM, Monaragala, Sri Lanka	4.214114	
Moneragala	Monaragala	Monaragala Community Hall	False	False	MNRGLMNRGLMNRGLCMMNTYHLL		Moneragala	LK-82	6.787517	81.303744	Monaragala	PS-820121	6.869866	81.348106	6.872778	81.350683	Moneragala, Sri Lanka	0.431159	
Moneragala	Siyambalanduwa	03 Piyawara Maha Vidyalaya	False	False	MNRGLSYMBLNDWPYWRMHVDYLY		Moneragala	LK-82	6.787517	81.303744	Siyambalanduwa	PS-820122	6.906851	81.547598	6.906464	81.561014	Siyambalanduwa, Sri Lanka	1.482056	
Moneragala	Siyambalanduwa	Siyambalanduwa Maha Vidyalaya	False	False	MNRGLSYMBLNDWSYMBLNDWMHVDYLY		Moneragala	LK-82	6.787517	81.303744	Siyambalanduwa	PS-820122	6.906851	81.547598	6.906464	81.561014	Siyambalanduwa, Sri Lanka	1.482056	
Moneragala	Badalkumbura	Nishsanka National College	False	False	MNRGLBDLKMBRNSHSNKNTNLCLLG		Moneragala	LK-82	6.787517	81.303744	Badalkumbura	PS-820128	6.889017	81.235441	6.892079	81.237627	Mo/ Nissanka National School, Buttala Rd, Badalkumbura, Sri Lanka	0.417455	
Moneragala	Badalkumbura	Madukotan Arawa Maha Vidyalaya	False	False	MNRGLBDLKMBRMDKTNRWMHVDYLY		Moneragala	LK-82	6.787517	81.303744	Badalkumbura	PS-820128	6.889017	81.235441	6.890448	81.262146	Passara-Moneragala Hwy, Sri Lanka	2.953236	
Moneragala	Badalkumbura	Hingurukaduwa Vidyalaya	False	False	MNRGLBDLKMBRHNGRKDWVDYLY		Moneragala	LK-82	6.787517	81.303744	Badalkumbura	PS-820128	6.889017	81.235441	6.892605	81.237366	V6VP+2WX, Badalkumbura, Sri Lanka	0.452174	
Moneragala	Wellawaya	Kumaradasa Vidyalaya	False	False	MNRGLWLLWYKMRDSVDYLY		Moneragala	LK-82	6.787517	81.303744	wellawaya	PS-820130	6.730804	81.100708	6.755702	81.099926	Q34X+7XM, මොණරාගල, Sri Lanka	2.770747	
Moneragala	Wellawaya	Mahinda RajapakshaConference Hall	False	False	MNRGLWLLWYMHNDRJPKSHCNFRNCHLL		Moneragala	LK-82	6.787517	81.303744	wellawaya	PS-820130	6.730804	81.100708	6.732053	81.100032	A23, Wellawaya, Sri Lanka	0.157723	
Moneragala	Wellawaya	Hadapanagala Maha Vidyalaya	False	False	MNRGLWLLWYHDPNGLMHVDYLY		Moneragala	LK-82	6.787517	81.303744	wellawaya	PS-820130	6.730804	81.100708	6.657036	81.122021	Handapanagala, Sri Lanka	8.53633	
Moneragala	Wellawaya	Kinkiniwehera Viharaya	False	False	MNRGLWLLWYKNKNWHRVHRY		Moneragala	LK-82	6.787517	81.303744	wellawaya	PS-820130	6.730804	81.100708	6.75399	81.288013	B522, Sri Lanka	20.849932	#CenterFarFromPolice
Moneragala	Bibila	Bibila Cultural Centre	False	False	MNRGLBBLBBLCLTRLCNTR		Moneragala	LK-82	6.787517	81.303744	Bibila	PS-820125	7.165232	81.225463	7.162409	81.22159	Bibile, Sri Lanka	0.530371	
Moneragala	Medagama	Bakinigahwela Muslim Maha Vidyalaya	False	False	MNRGLMDGMBKNGHWLMSLMMHVDYLY		Moneragala	LK-82	6.787517	81.303744	Medagama	PS-820126	7.033608	81.276708	7.031205	81.276445	Moneragala Road,Medagama, B56, Monaragala 91550, Sri Lanka	0.268858	
Moneragala	Medagama	Kendavinna Maha Vidyalaya	False	False	MNRGLMDGMKNDVNNMHVDYLY		Moneragala	LK-82	6.787517	81.303744	Medagama	PS-820126	7.033608	81.276708	7.031205	81.276445	Moneragala Road,Medagama, B56, Monaragala 91550, Sri Lanka	0.268858	
Moneragala	Medagama	Amunekandura Maha Vidyalaya	False	False	MNRGLMDGMMNKNDRMHVDYLY		Moneragala	LK-82	6.787517	81.303744	Medagama	PS-820126	7.033608	81.276708	7.031205	81.276445	Moneragala Road,Medagama, B56, Monaragala 91550, Sri Lanka	0.268858	
Moneragala	Medagama	Pubbara Primary School	False	False	MNRGLMDGMPBBRPRMRYSCHL		Moneragala	LK-82	6.787517	81.303744	Medagama	PS-820126	7.033608	81.276708	6.977969	81.316933	X8H8+5QM, Bakinigahawela, Sri Lanka	7.617155	
Moneragala	Medagama	Medagama National College	False	False	MNRGLMDGMMDGMNTNLCLLG		Moneragala	LK-82	6.787517	81.303744	Medagama	PS-820126	7.033608	81.276708	7.031205	81.276445	Moneragala Road,Medagama, B56, Monaragala 91550, Sri Lanka	0.268858	
Moneragala	Medagama	Bakinigahwela Sinhala Maha Vidyalaya	False	False	MNRGLMDGMBKNGHWLSNHLMHVDYLY		Moneragala	LK-82	6.787517	81.303744	Medagama	PS-820126	7.033608	81.276708	6.996628	81.284772	X7WM+MW2, Monaragala, Sri Lanka	4.208515	
Moneragala	Buttala	Colony Primary School	False	False	MNRGLBTTLCLNYPRMRYSCHL		Moneragala	LK-82	6.787517	81.303744	Buttala	PS-820127	6.762499	81.250445	6.761476	81.247194	Q66W+HVW, Buttala, Sri Lanka	0.37669	
Moneragala	Buttala	Maligawila Viharaya	False	False	MNRGLBTTLMLGWLVHRY		Moneragala	LK-82	6.787517	81.303744	Buttala	PS-820127	6.762499	81.250445	6.728384	81.352364	P9H2+9W5, Okkampitiya, Sri Lanka	11.880265	
Moneragala	Buttala	Galtemmandiya Primary School	False	False	MNRGLBTTLGLTMMNDYPRMRYSCHL		Moneragala	LK-82	6.787517	81.303744	Buttala	PS-820127	6.762499	81.250445	6.746287	81.329153	Galtemmandiya,Okkampitiya, 91060, Sri Lanka	8.878958	
Moneragala	Buttala	Divisional Hospital – Buttala	False	False	MNRGLBTTLDVSNLHSPTLBTTL		Moneragala	LK-82	6.787517	81.303744	Buttala	PS-820127	6.762499	81.250445	6.75781	81.239724	Colombo - Batticaloa Hwy, Buttala, Sri Lanka	1.293971	
Galle	Galle	River View Hotel	False	False	GLLGLLRVRVWHTL		Galle	LK-31	6.222805	80.251977	Galle	PS-310120	6.032983	80.21714	6.072891	80.17869	220, Kurunduwatta, Gintota, Galle 80280, Sri Lanka	6.147511	
Galle	Habaraduwa	Katukurunda Dharmika Maha Vidyalaya	False	False	GLLHBRDWKTKRNDDHRMKMHVDYLY		Galle	LK-31	6.222805	80.251977	Habaraduwa	PS-310127	5.9871	80.327098	6.002705	80.309994	Habaraduwa, Sri Lanka	2.567631	
Galle	Nagoda	Yatalamaththa Sumangalarama Viharaya	False	False	GLLNGDYTLMTHTHSMNGLRMVHRY		Galle	LK-31	6.222805	80.251977	Nagoda	PS-310130	6.197616	80.274707	6.173733	80.286486	Yatalamatta, Sri Lanka	2.958654	
Galle	Uragasmanhandiya	Hamburugala Primary School	False	False	GLLRGSMNHNDYHMBRGLPRMRYSCHL		Galle	LK-31	6.222805	80.251977	Uragasmanhandiya	PS-310236	6.343756	80.080679	6.327462	80.083131	83GM+X7J, Uragasmanhandiya, Sri Lanka	1.832538	
Galle	Batapola	Nindana Maha Vidyalaya	False	False	GLLBTPLNNDNMHVDYLY		Galle	LK-31	6.222805	80.251977									#PoliceLocationUnknown
Galle	Karandeniya	Karandeniya Samaravima Ground	False	False	GLLKRNDNYKRNDNYSMRVMGRND		Galle	LK-31	6.222805	80.251977	Karandeniya	PS-310238	6.271732	80.08479	6.271531	80.093801	73CV+JG7, Karandeniya, Sri Lanka	0.996544	
Galle	Yakkalamulla	Yakkalamulla	False	False	GLLYKKLMLLYKKLMLL		Galle	LK-31	6.222805	80.251977	Yakkalamulla	PS-310125	6.106186	80.348152	6.10135	80.3591	Yakkalamulla, Sri Lanka	1.324945	
Galle	Gonapeenuwala	MOH Office - Gonapeenuwala	False	False	GLLGNPNWLMHFFCGNPNWL		Galle	LK-31	6.222805	80.251977									#PoliceLocationUnknown
Galle	Hikkaduwa	Hikkaduwa Jayanthi vidyalaya	False	False	GLLHKKDWHKKDWJYNTHVDYLY		Galle	LK-31	6.222805	80.251977	Hikkaduwa	PS-310122	6.145115	80.099693	6.139012	80.112446	Hikkaduwa - Baddegama Rd, Hikkaduwa, Sri Lanka	1.565236	
Galle	Akmeemana	Ketandola Mahindarama Viharaya	False	False	GLLKMMNKTNDLMHNDRMVHRY		Galle	LK-31	6.222805	80.251977	Akmeemana	PS-310123	6.073453	80.276627	6.027007	80.215356	Parawa St, Galle 80000, Sri Lanka	8.52173	
Galle	Akmeemana	Kandurugahena Vidyalaya	False	False	GLLKMMNKNDRGHNVDYLY		Galle	LK-31	6.222805	80.251977	Akmeemana	PS-310123	6.073453	80.276627	6.08641	80.242064	Ganegoda,Akmeemana., Wanduramba - Mapalagama Rd, 80090, Sri Lanka	4.085458	
Matara	Akuressa	Godapitiya Sadath Vidyalaya	False	False	MTRKRSSGDPTYSDTHVDYLY		Matara	LK-32	6.142734	80.539994	Akuressa	PS-320112	6.099044	80.4776	6.122979	80.483403	4FFM+59R, Akuressa, Sri Lanka	2.738553	
Matara	Malimbada	Sumeda Maha Vidyalaya	False	False	MTRMLMBDSMDMHVDYLY		Matara	LK-32	6.142734	80.539994	Malimbada	PS-320117	6.010503	80.517438	6.00944	80.51813	Malimbada, Matara 81000, Sri Lanka	0.140853	
Matara	Hakmana	Bodhirukkarama Vidyalaya	False	False	MTRHKMNBDHRKKRMVDYLY		Matara	LK-32	6.142734	80.539994	Hakmana	PS-320106	6.084824	80.643227	6.155168	80.492691	5F4V+338, Matara, Sri Lanka	18.395612	
Matara	Dickwella	Divisional Secretariat -  Dickwella	False	False	MTRDCKWLLDVSNLSCRTRTDCKWLL		Matara	LK-32	6.142734	80.539994	Dikwella	PS-320103	5.964296	80.693198	5.964398	80.689583	Tnagalle Road, Batigama, Sri Lanka	0.40008	
Matara	Urubokka	Ginnaliya Maha Vidyalaya	False	False	MTRRBKKGNNLYMHVDYLY		Matara	LK-32	6.142734	80.539994	Urubokka	PS-320108	6.310257	80.629013	6.321623	80.649867	8JCX+JWX, Matara, Sri Lanka	2.629385	
Hambantota	Ambalantota	Malpeththawa Maha Vidyalaya	False	False	HMBNTTMBLNTTMLPTHTHWMHVDYLY		Hambantota	LK-33	6.259779	81.098619	Ambalantota	PS-330157	6.12516	81.023981	6.121096	81.008692	42C5+CFP, Ambalantota, Sri Lanka	1.750272	
Hambantota	Walasmulla	Warapitiya Siththmgala Viharaya	False	False	HMBNTTWLSMLLWRPTYSTHTHMGLVHRY		Hambantota	LK-33	6.259779	81.098619	Walasmulla	PS-330151	6.154102	80.698256	6.221987	80.636854	Warapitiya, Sri Lanka	10.154725	
Hambantota	Beliatta	MOH Office - Beliatta	False	False	HMBNTTBLTTMHFFCBLTT		Hambantota	LK-33	6.259779	81.098619	Beliatta	PS-330152	6.046936	80.735408	6.051828	80.741735	3P2R+PMQ, Hambantota, Sri Lanka	0.886482	
Hambantota	Tangalla	Town Hall - Tangalla	False	False	HMBNTTTNGLLTWNHLLTNGLL		Hambantota	LK-33	6.259779	81.098619	Tangalle	PS-330147	6.023954	80.797255	6.026547	80.795587	Matara Rd, Tangalle, Sri Lanka	0.342386	
Hambantota	Hungama	MOH Office - Hungama	False	False	HMBNTTHNGMMHFFCHNGM		Hambantota	LK-33	6.259779	81.098619	Hungama	PS-330148	6.111262	80.932642	6.081379	80.641425	3JJR+HH3, Hakmana, Sri Lanka	32.379888	#CenterFarFromPolice
Hambantota	Katuwana	MOH Office - Katuwana	False	False	HMBNTTKTWNMHFFCKTWN		Hambantota	LK-33	6.259779	81.098619	Katuwana	PS-330153	6.269722	80.690963	6.26627	80.693035	7M8V+G63, Katuwana, Sri Lanka	0.447115	
Hambantota	Angunukolapelessa	Mahanaga National College	False	False	HMBNTTNGNKLPLSSMHNGNTNLCLLG		Hambantota	LK-33	6.259779	81.098619	Angunakolapelessa	PS-330150	6.321993	80.844883	6.164902	80.895901	5V7W+X96, Agunukolapelessa, Sri Lanka	18.361223	
Hambantota	Angunukolapelessa	MOH Office - Angunukolapelessa	False	False	HMBNTTNGNKLPLSSMHFFCNGNKLPLSS		Hambantota	LK-33	6.259779	81.098619	Angunakolapelessa	PS-330150	6.321993	80.844883	6.164691	80.898963	Unnamed Road, Agunukolapelessa, Sri Lanka	18.490258	
Rathnapura	Opanayaka	Galkanda Vidyalaya	False	False	RTHNPRPNYKGLKNDVDYLY		Ratnapura	LK-91	6.586826	80.566158	Opanayaka	PS-910104	6.608519	80.619285	6.611693	80.591317	JH6R+MGG, රත්නපුර, Sri Lanka	3.110298	
Rathnapura	Opanayaka	Batadura Vidyalaya	False	False	RTHNPRPNYKBTDRVDYLY		Ratnapura	LK-91	6.586826	80.566158	Opanayaka	PS-910104	6.608519	80.619285	6.564489	80.646658	Unnamed Road, Sri Lanka	5.756145	
Rathnapura	Opanayaka	Haththella Vidyalaya	False	False	RTHNPRPNYKHTHTHLLVDYLY		Ratnapura	LK-91	6.586826	80.566158	Opanayaka	PS-910104	6.608519	80.619285	6.580578	80.632245	opanayaka haththella, Sri Lanka	3.421961	
Rathnapura	Opanayaka	Narissa Vidyalaya	False	False	RTHNPRPNYKNRSSVDYLY		Ratnapura	LK-91	6.586826	80.566158	Opanayaka	PS-910104	6.608519	80.619285	6.695088	80.382654	M9WM+23J, Ratnapura, Sri Lanka	27.860151	#CenterFarFromPolice
Rathnapura	Pinnawala	MOH Office - Pinnawala	False	False	RTHNPRPNNWLMHFFCPNNWL		Ratnapura	LK-91	6.586826	80.566158	Pinnawala	PS-910115	7.299943	80.386604	7.297707	80.386872	B199, Rambukkana, Sri Lanka	0.250461	
Rathnapura	Balangoda	Balangoda Central College	False	False	RTHNPRBLNGDBLNGDCNTRLCLLG		Ratnapura	LK-91	6.586826	80.566158	Balangoda	PS-910103	6.649474	80.700276	6.641498	80.714138	JPR7+HMR, Balangoda, Sri Lanka	1.769912	
Rathnapura	Balangoda	Balangoda Budda Jayanthi Vidyalaya	False	False	RTHNPRBLNGDBLNGDBDDJYNTHVDYLY		Ratnapura	LK-91	6.586826	80.566158	Balangoda	PS-910103	6.649474	80.700276	6.655127	80.700689	MP42+374, Balangoda, Sri Lanka	0.630436	
Rathnapura	Balangoda	Kanaganayagam Tamil College	False	False	RTHNPRBLNGDKNGNYGMTMLCLLG		Ratnapura	LK-91	6.586826	80.566158	Balangoda	PS-910103	6.649474	80.700276	6.662512	80.693789	Puwakgahamulla Rd, Bulathgama, Sri Lanka	1.61764	
Rathnapura	Kuruwita	Eknaligoda Vidyalaya	False	False	RTHNPRKRWTKNLGDVDYLY		Ratnapura	LK-91	6.586826	80.566158	Kuruwita	PS-910112	6.778839	80.364712	6.778372	80.377222	Kuruwita Erathna Rd, Kuruwita, Sri Lanka	1.382734	
Rathnapura	Eheliyagoda	Iddamalgoda Vidyalaya	False	False	RTHNPRHLYGDDDMLGDVDYLY		Ratnapura	LK-91	6.586826	80.566158	Ehaliyagoda	PS-910113	6.854603	80.260446	6.878474	80.230444	Iddamalgoda Rd, 70620, Sri Lanka	4.245831	
Rathnapura	Embilipitiya	Moraketiya Maha Vidyalaya	False	False	RTHNPRMBLPTYMRKTYMHVDYLY		Ratnapura	LK-91	6.586826	80.566158	Embilipitiya	PS-910237	6.321993	80.844883	6.340635	80.880629	8VRJ+772, Embilipitiya, Sri Lanka	4.462745	
Rathnapura	Embilipitiya	Modarawana Maha Vidyalaya	False	False	RTHNPRMBLPTYMDRWNMHVDYLY		Ratnapura	LK-91	6.586826	80.566158	Embilipitiya	PS-910237	6.321993	80.844883	6.337086	80.845788	8RPW+R8M, Embilipitiya, Sri Lanka	1.681771	
Rathnapura	Embilipitiya	Vijayaba Model College	False	False	RTHNPRMBLPTYVJYBMDLCLLG		Ratnapura	LK-91	6.586826	80.566158	Embilipitiya	PS-910237	6.321993	80.844883	6.326441	80.850977	Middeniya Road, ඇඹිලිපිටිය, Sri Lanka	0.83586	
Rathnapura	Udawalawa	Miriswepotha Vidyalaya	False	False	RTHNPRDWLWMRSWPTHVDYLY		Ratnapura	LK-91	6.586826	80.566158	Udawalawa	PS-910234	6.422661	80.814293	6.337086	80.845788	8RPW+R8M, Embilipitiya, Sri Lanka	10.135209	
Rathnapura	Udawalawa	Nidamgampelessa Vidyalaya	False	False	RTHNPRDWLWNDMGMPLSSVDYLY		Ratnapura	LK-91	6.586826	80.566158	Udawalawa	PS-910234	6.422661	80.814293	6.337086	80.845788	8RPW+R8M, Embilipitiya, Sri Lanka	10.135209	
Rathnapura	Udawalawa	Gageyaya Vidyalaya	False	False	RTHNPRDWLWGGYYVDYLY		Ratnapura	LK-91	6.586826	80.566158	Udawalawa	PS-910234	6.422661	80.814293	6.682615	80.39899	Vinisuru Mw, රත්නපුර 70000, Sri Lanka	54.241657	#CenterFarFromPolice
Rathnapura	Kolonna	Koppakanda Vidyalaya	False	False	RTHNPRKLNNKPPKNDVDYLY		Ratnapura	LK-91	6.586826	80.566158	Kolonna	PS-910235	6.40194	80.687615	6.345406	80.684299	Urubokka Rd,Koppakanda, Sri Lanka	6.298942	
Rathnapura	Sewanagala	Sugar Factory - Sewanagala	False	False	RTHNPRSWNGLSGRFCTRYSWNGL		Ratnapura	LK-91	6.586826	80.566158	Sewanagala	PS-910239	6.360663	80.918555	6.382583	80.90543	9WM4+25M, Samanalagama, Sri Lanka	2.83719	
Rathnapura	Rathnapura	Karangoda Viharaya	False	False	RTHNPRRTHNPRKRNGDVHRY		Ratnapura	LK-91	6.586826	80.566158	Ratnapura	PS-910101	6.679456	80.40223	6.678994	80.374216	Karangoda, Sri Lanka	3.095271	
Rathnapura	Rathnapura	Karangoda Vidyalaya	False	False	RTHNPRRTHNPRKRNGDVDYLY		Ratnapura	LK-91	6.586826	80.566158	Ratnapura	PS-910101	6.679456	80.40223					#CenterLocationUnknown
Rathnapura	Rambukkana	MOH Office - Rambukkana	False	False	RTHNPRRMBKKNMHFFCRMBKKN		Ratnapura	LK-91	6.586826	80.566158	Rambukkana	PS-920123	7.324319	80.387808	7.327307	80.394886	89GV+WXC, Rambukkana, Sri Lanka	0.848646	
Kegalle	Bulathkohupitiya	MOH Office - Bulathkohupitiya	False	False	KGLLBLTHKHPTYMHFFCBLTHKHPTY		Kegalle	LK-92	7.104216	80.342866	Bulathkohupitiya	PS-920232	7.106684	80.3347	7.109127	80.334565	485M+MR4, Bulathkohupitiya, Sri Lanka	0.272143	
Anuradhapura	Anuradhapura	Anuradhapura Teaching Hospital	False	False	NRDHPRNRDHPRNRDHPRTCHNGHSPTL		Anuradhapura	LK-71	8.39199	80.512958	Anuradapura	PS-710101	8.329752	80.407265	8.324765	80.413968	Harischandra Mawatha, Anuradhapura, Sri Lanka	0.922993	
Anuradhapura	Anuradhapura	Neeraviya Devanampiyatissa Vidyalaya	False	False	NRDHPRNRDHPRNRVYDVNMPYTSSVDYLY		Anuradhapura	LK-71	8.39199	80.512958	Anuradapura	PS-710101	8.329752	80.407265	8.311352	80.403651	Anuradhapura, Sri Lanka	2.084922	
Anuradhapura	Ealayapattuwa	Ulukkulama Viharaya	False	False	NRDHPRLYPTTWLKKLMVHRY		Anuradhapura	LK-71	8.39199	80.512958									#PoliceLocationUnknown
Anuradhapura	Mihintale	Pahalagama Viharaya	False	False	NRDHPRMHNTLPHLGMVHRY		Anuradhapura	LK-71	8.39199	80.512958	Mihintale	PS-710104	8.360062	80.511889	8.350531	80.516783	9G28+6P7, Mihintale, Sri Lanka	1.189096	
Anuradhapura	Thirappane	Galkulama Dammathissa Vidyalaya	False	False	NRDHPRTHRPPNGLKLMDMMTHSSVDYLY		Anuradhapura	LK-71	8.39199	80.512958	Thirappone	PS-710106	6.907289	79.863819	8.213268	80.527191	Vocational Training Center, Pradesiya sabawa, Thirappane, Tirappane, Sri Lanka	162.639397	#CenterFarFromPolice
Polonnaruwa	Polonnaruwa	Brandix Apparel Ltd	False	False	PLNNRWPLNNRWBRNDXPPRLLTD		Polonnaruwa	LK-72	7.993659	81.026061	Polonnaruwa	PS-720125	7.924307	81.036895	7.948668	81.016574	Somawathiya Rd, Polonnaruwa, Sri Lanka	3.514808	
Polonnaruwa	Polonnaruwa	Kanduruwela Nagara Maha Vidyalaya	False	False	PLNNRWPLNNRWKNDRWLNGRMHVDYLY		Polonnaruwa	LK-72	7.993659	81.026061	Polonnaruwa	PS-720125	7.924307	81.036895	7.927939	81.036362	W2HP+5GH, Polonnaruwa, Sri Lanka	0.408232	
Polonnaruwa	Polonnaruwa	Muslim Maha Vidyalaya	False	False	PLNNRWPLNNRWMSLMMHVDYLY		Polonnaruwa	LK-72	7.993659	81.026061	Polonnaruwa	PS-720125	7.924307	81.036895	7.927202	81.038607	Kaduruwela, පොළොන්නරු, Sri Lanka	0.37318	
Polonnaruwa	Minneriya	Brandix Garment Factory	False	False	PLNNRWMNNRYBRNDXGRMNTFCTRY		Polonnaruwa	LK-72	7.993659	81.026061	Minneriya	PS-720133	8.036341	80.904489	7.948668	81.016574	Somawathiya Rd, Polonnaruwa, Sri Lanka	15.732915	
Polonnaruwa	Minneriya	Civil Security Force Camp - Paluwewa	False	False	PLNNRWMNNRYCVLSCRTYFRCCMPPLWW		Polonnaruwa	LK-72	7.993659	81.026061	Minneriya	PS-720133	8.036341	80.904489	8.129143	80.196573	Paluwewa, Sri Lanka	78.639569	#CenterFarFromPolice
Polonnaruwa	Bakamuna	Aththanakadawala Maha Vidyalaya	False	False	PLNNRWBKMNTHTHNKDWLMHVDYLY		Polonnaruwa	LK-72	7.993659	81.026061	Bakamuna	PS-720132	7.778789	80.816102	7.780602	80.818401	Bakamuna, Sri Lanka	0.323821	
Polonnaruwa	Bakamuna	Bakamuna Mahasen Vidyalaya	False	False	PLNNRWBKMNBKMNMHSNVDYLY		Polonnaruwa	LK-72	7.993659	81.026061	Bakamuna	PS-720132	7.778789	80.816102	7.775622	80.819812	Dambulla - Bakamuna - Kalugahawela Road, Bakamuna, Sri Lanka	0.539688	
Polonnaruwa	Bakamuna	Namalwewa Maha Vidyalaya	False	False	PLNNRWBKMNNMLWWMHVDYLY		Polonnaruwa	LK-72	7.993659	81.026061	Bakamuna	PS-720132	7.778789	80.816102	7.780602	80.818401	Bakamuna, Sri Lanka	0.323821	
Jaffna	Jaffna	St. John's College	False	False	JFFNJFFNSTJHNSCLLG		Jaffna	LK-41	9.691792	80.098594	Jaffna	PS-410209	9.659919	80.010965	9.657495	80.026568	Main Street, Chundikuli-Columbuthurai Rd, section, Sri Lanka	1.732049	
Jaffna	Jaffna	Vaithiswara Vidyalaya	False	False	JFFNJFFNVTHSWRVDYLY		Jaffna	LK-41	9.691792	80.098594	Jaffna	PS-410209	9.659919	80.010965	9.672726	80.009234	M2F5+3MX, Jaffna, Sri Lanka	1.43711	
Jaffna	Jaffna	Ilankai Venthan Hall	False	False	JFFNJFFNLNKVNTHNHLL		Jaffna	LK-41	9.691792	80.098594	Jaffna	PS-410209	9.659919	80.010965	9.680239	80.013492	No: 63 College Ln, Jaffna, Sri Lanka	2.277111	
Jaffna	Kopay	MOH Office- Nallur	False	False	JFFNKPYMHFFCNLLR		Jaffna	LK-41	9.691792	80.098594	Kopai	PS-410216	9.686887	80.03856	9.673947	80.027736	M2FH+H3H, Jaffna, Sri Lanka	1.865513	
Jaffna	Kopay	Senkunda Vidyalaya	False	False	JFFNKPYSNKNDVDYLY		Jaffna	LK-41	9.691792	80.098594	Kopai	PS-410216	9.686887	80.03856	9.711206	80.059962	Kopay Base Hospital, Jaffna, Sri Lanka	3.580942	
Jaffna	Chunnagam	Uduvil Girls College	False	False	JFFNCHNNGMDVLGRLSCLLG		Jaffna	LK-41	9.691792	80.098594	Chunnakam	PS-410211	9.745309	80.029151	9.734484	80.015916	Uduvil Road, Uduvil, Sri Lanka	1.885444	
Jaffna	Chunnagam	Thavadi HTM School	False	False	JFFNCHNNGMTHVDHTMSCHL		Jaffna	LK-41	9.691792	80.098594	Chunnakam	PS-410211	9.745309	80.029151	9.731084	80.024908	Jaffna-Kankesanturai Rd, Uduvil Rd, Chunnakam, Sri Lanka	1.6492	
Jaffna	Chunnagam	MOH Office - Uduvil	False	False	JFFNCHNNGMMHFFCDVL		Jaffna	LK-41	9.691792	80.098594	Chunnakam	PS-410211	9.745309	80.029151	9.742938	80.035132	P2VP+53C, Chunnakam, Sri Lanka	0.706719	
Jaffna	Chunnagam	Erlalai Muththumil Hall	False	False	JFFNCHNNGMRLLMTHTHMLHLL		Jaffna	LK-41	9.691792	80.098594	Chunnakam	PS-410211	9.745309	80.029151	9.750062	80.029209	Jaffna-Kankesanturai Rd, Chunnakam, Sri Lanka	0.528714	
Jaffna	Chunnagam	Inuvil Ariwalyam Hall	False	False	JFFNCHNNGMNVLRWLYMHLL		Jaffna	LK-41	9.691792	80.098594	Chunnakam	PS-410211	9.745309	80.029151	9.734523	80.023895	Jaffna-Kankesanturai Rd, Chunnakam, Sri Lanka	1.330918	
Jaffna	Chunnagam	Sitti Vinayagar Hall	False	False	JFFNCHNNGMSTTVNYGRHLL		Jaffna	LK-41	9.691792	80.098594	Chunnakam	PS-410211	9.745309	80.029151	9.736919	80.041761	Urelu, Jaffna, Sri Lanka	1.667899	
Jaffna	Point Pedro	Valvai Girls' College	False	False	JFFNPNTPDRVLVGRLSCLLG		Jaffna	LK-41	9.691792	80.098594	Point Pedro	PS-410106	9.827018	80.233187	9.793788	80.220977	Point Pedro, Sri Lanka	3.930977	
Jaffna	Valvettithurai	Sidambara Vidyalaya	False	False	JFFNVLVTTTHRSDMBRVDYLY		Jaffna	LK-41	9.691792	80.098594	Valvettiththurai	PS-410107	9.823216	80.169633	9.82423	80.160716	AB21, Valvettithurai, Sri Lanka	0.98378	
Jaffna	Nelliyady	MOH Office - Karaveddy	False	False	JFFNNLLYDYMHFFCKRVDDY		Jaffna	LK-41	9.691792	80.098594	Nelliadi	PS-410108	9.778397	80.113303	9.792126	80.201799	Q6R2+VP3, Point Pedro, Sri Lanka	9.819656	
Jaffna	Kodikaman	Kodikaman Hospital	False	False	JFFNKDKMNKDKMNHSPTL		Jaffna	LK-41	9.691792	80.098594	Kodikamam	PS-410217	9.666459	80.132384	9.677952	80.236663	M6HP+5MM, Jaffna, Sri Lanka	11.505299	
Jaffna	Thelippalai	Mallakam Maha Vidyalaya	False	False	JFFNTHLPPLMLLKMMHVDYLY		Jaffna	LK-41	9.691792	80.098594	Thelippalay	PS-410104	6.933075	79.857181	9.762572	80.029409	Jaffna-Kankesanturai Rd, Jaffna, Sri Lanka	315.294572	#CenterFarFromPolice
Jaffna	Achchuveli	Puttur Somaskanda Vidyalaya	False	False	JFFNCHCHVLPTTRSMSKNDVDYLY		Jaffna	LK-41	9.691792	80.098594	Achchuweli	PS-410103	6.934132	79.856305	9.745655	80.104632	AB20 - Point Pedro Road Puttur west, Jaffna 40000, Sri Lanka	313.916871	#CenterFarFromPolice
Jaffna	Achchuveli	Achchuveli  Hospital	False	False	JFFNCHCHVLCHCHVLHSPTL		Jaffna	LK-41	9.691792	80.098594	Achchuweli	PS-410103	6.934132	79.856305	9.772721	80.115501	Avarankal-Tondaimanar Rd, Sri Lanka	317.021383	#CenterFarFromPolice
Jaffna	Achchuveli	Sirupiddy Inthu Vidyalaya	False	False	JFFNCHCHVLSRPDDYNTHVDYLY		Jaffna	LK-41	9.691792	80.098594	Achchuweli	PS-410103	6.934132	79.856305	9.776924	80.114965	Atchuvely Central College, Jaffna, Northern Province, B33, 40000, Sri Lanka	317.481671	#CenterFarFromPolice
Jaffna	Wadukkotte	MOH Office - Chankanai	False	False	JFFNWDKKTTMHFFCCHNKN		Jaffna	LK-41	9.691792	80.098594	Vaddukoddai		9.728886	79.947771	9.753617	79.976004	QX3G+CCR, Sri Lanka	4.140836	
Jaffna	Manippai	Manipay Memorial Vidyalaya	False	False	JFFNMNPPMNPYMMRLVDYLY		Jaffna	LK-41	9.691792	80.098594	Manippai	PS-410210	9.727151	79.996905	9.727933	79.999604	Memorial Lane, Manipay, Sri Lanka	0.308413	
Jaffna	Manippai	Nawali  Maha Vidyalaya	False	False	JFFNMNPPNWLMHVDYLY		Jaffna	LK-41	9.691792	80.098594	Manippai	PS-410210	9.727151	79.996905	9.727933	79.999604	Memorial Lane, Manipay, Sri Lanka	0.308413	
Jaffna	Kayts	MOH Office - Karainagar	False	False	JFFNKYTSMHFFCKRNGR		Jaffna	LK-41	9.691792	80.098594	Kayts	PS-410212	9.728654	79.94775	9.725097	79.99772	Sri Lanka, Manipay, Sri Lanka	5.492521	
Jaffna	Kayts	MOH Office - Kayts	False	False	JFFNKYTSMHFFCKYTS		Jaffna	LK-41	9.691792	80.098594	Kayts	PS-410212	9.728654	79.94775	9.697759	79.866366	Sri Lanka, Kayts, Sri Lanka	9.561445	
Jaffna	Chavakachcheri	MOH Office - Chavakachcheri	False	False	JFFNCHVKCHCHRMHFFCCHVKCHCHR		Jaffna	LK-41	9.691792	80.098594	Chawakachcheri	PS-410215	9.666459	80.132384	9.663455	80.166068	Dutch Rd, Chavakachcheri, Sri Lanka	3.70857	
Jaffna	Chavakachcheri	Navakkuli Maha Vidyalaya	False	False	JFFNCHVKCHCHRNVKKLMHVDYLY		Jaffna	LK-41	9.691792	80.098594	Chawakachcheri	PS-410215	9.666459	80.132384	9.658598	80.097497	M35W+CXQ, Chavakachcheri, Sri Lanka	3.924081	
Kilinochchi	Kilinochchi	MOH Office - Karachchi	False	False	KLNCHCHKLNCHCHMHFFCKRCHCH		Kilinochchi	LK-45	9.415742	80.30358	Kilinochchi	PS-450131	9.392265	80.407846	9.396965	80.407782	Kandy - Jaffna Hwy, Kilinochchi, Sri Lanka	0.522827	
Kilinochchi	Pooneryn	MOH Office - Pooneryn	False	False	KLNCHCHPNRYNMHFFCPNRYN		Kilinochchi	LK-45	9.415742	80.30358	Pooneryn		9.505717	80.21101	9.507968	80.208317	G655+58P, Pooneryn, Sri Lanka	0.387256	
Kilinochchi	Pudukudiruppu	MOH Office - Pudukudiruppu	False	False	KLNCHCHPDKDRPPMHFFCPDKDRPP		Kilinochchi	LK-45	9.415742	80.30358	Pudukuduiruppu	PS-440149	7.00152	79.95003	9.320965	80.683013	Parantan-Mullaitivu Hwy, Velikkandal, Sri Lanka	270.317914	#CenterFarFromPolice
Mannar	Adampan	Periyamadu Hospital	False	False	MNNRDMPNPRYMDHSPTL		Mannar	LK-42	8.877429	80.088628	Adampan		8.939451	80.002055	8.972893	80.152017	Palampiddi-Periyamadu-Vidathalthive Road, Periyamadu, Sri Lanka	16.891669	
Trincomalee	Muttur	MOH Office – Muttur	False	False	TRNCMLMTTRMHFFCMTTR		Trincomalee	LK-53	8.551241	81.092014	Mutur	PS-530138	8.461133	81.259371	8.453916	81.264494	1 Old Batticaloa Rd, Mutur, Sri Lanka	0.980859	
Trincomalee	Muttur	Muttur Base Hospital	False	False	TRNCMLMTTRMTTRBSHSPTL		Trincomalee	LK-53	8.551241	81.092014	Mutur	PS-530138	8.461133	81.259371	8.454534	81.263018	Old Batticaloa Rd, Mutur, Sri Lanka	0.836517	
Trincomalee	Muttur	An Nahar Maha Vidyalaya	False	False	TRNCMLMTTRNNHRMHVDYLY		Trincomalee	LK-53	8.551241	81.092014	Mutur	PS-530138	8.461133	81.259371	8.451822	81.262307	F726+PWF, Mutur, Sri Lanka	1.084867	
Trincomalee	Muttur	Al Hidayah Maha Vidyalaya	False	False	TRNCMLMTTRLHDYHMHVDYLY		Trincomalee	LK-53	8.551241	81.092014	Mutur	PS-530138	8.461133	81.259371	8.449646	81.26789	1 Old Batticaloa Rd, Mutur, Sri Lanka	1.584607	
Trincomalee	Muttur	Chennaiur Maha Vidyalaya	False	False	TRNCMLMTTRCHNNRMHVDYLY		Trincomalee	LK-53	8.551241	81.092014	Mutur	PS-530138	8.461133	81.259371	8.449646	81.26789	1 Old Batticaloa Rd, Mutur, Sri Lanka	1.584607	
Trincomalee	Muttur	Al Hilal Maha Vidyalaya	False	False	TRNCMLMTTRLHLLMHVDYLY		Trincomalee	LK-53	8.551241	81.092014	Mutur	PS-530138	8.461133	81.259371	8.457062	81.268574	Mutur, Sri Lanka	1.109154	
Trincomalee	Muttur	Mallikaithivu Maha Vidyalaya	False	False	TRNCMLMTTRMLLKTHVMHVDYLY		Trincomalee	LK-53	8.551241	81.092014	Mutur	PS-530138	8.461133	81.259371	8.449646	81.26789	1 Old Batticaloa Rd, Mutur, Sri Lanka	1.584607	
Trincomalee	Muttur	Palathopur Zahira Maha Vidyalaya	False	False	TRNCMLMTTRPLTHPRZHRMHVDYLY		Trincomalee	LK-53	8.551241	81.092014	Mutur	PS-530138	8.461133	81.259371	8.457906	81.268402	Mutur, Sri Lanka	1.056434	
Trincomalee	Muttur	Al Hamra Vidyalaya	False	False	TRNCMLMTTRLHMRVDYLY		Trincomalee	LK-53	8.551241	81.092014	Mutur	PS-530138	8.461133	81.259371	8.726266	81.172086	P5GC+GR4, Irrakkakandi, Sri Lanka	31.013792	#CenterFarFromPolice
Trincomalee	Muttur	Kanguveli Agathiyar Vidyalaya	False	False	TRNCMLMTTRKNGVLGTHYRVDYLY		Trincomalee	LK-53	8.551241	81.092014	Mutur	PS-530138	8.461133	81.259371	8.356625	81.223966	964F+MH4, Trincomalee, Sri Lanka	12.259738	
Trincomalee	Muttur	Periya Palam Church	False	False	TRNCMLMTTRPRYPLMCHRCH		Trincomalee	LK-53	8.551241	81.092014	Mutur	PS-530138	8.461133	81.259371	8.426188	81.267843	Trincomalee Hwy, Sri Lanka	3.997105	
Trincomalee	Muttur	Pallekudiirippu Kale Mahal Vidyalaya	False	False	TRNCMLMTTRPLLKDRPPKLMHLVDYLY		Trincomalee	LK-53	8.551241	81.092014	Mutur	PS-530138	8.461133	81.259371	8.449646	81.26789	1 Old Batticaloa Rd, Mutur, Sri Lanka	1.584607	
Trincomalee	Muttur	Sampur Hospital	False	False	TRNCMLMTTRSMPRHSPTL		Trincomalee	LK-53	8.551241	81.092014	Mutur	PS-530138	8.461133	81.259371	8.481264	81.292795	F7JV+G43, Trincomalee, Sri Lanka	4.305295	
Trincomalee	Muttur	Thopur Hospital	False	False	TRNCMLMTTRTHPRHSPTL		Trincomalee	LK-53	8.551241	81.092014	Mutur	PS-530138	8.461133	81.259371	8.39979	81.304998	Thoppur, Sri Lanka	8.471041	
Trincomalee	Kinniya	MOH Office - Naduthivu	False	False	TRNCMLKNNYMHFFCNDTHV		Trincomalee	LK-53	8.551241	81.092014	Kinnia	PS-530140	6.907289	79.863819	8.593907	81.211949	Anbuvalipuram, Trincomalee, Sri Lanka	239.310726	#CenterFarFromPolice
Trincomalee	Kinniya	Nadu Uththu Hospital	False	False	TRNCMLKNNYNDTHTHHSPTL		Trincomalee	LK-53	8.551241	81.092014	Kinnia	PS-530140	6.907289	79.863819	8.501539	81.187539	Tampalakamam-Kinniya Rd, Kinniya 31100, Sri Lanka	229.636589	#CenterFarFromPolice
Trincomalee	Kinniya	Samajathivu Society Hall	False	False	TRNCMLKNNYSMJTHVSCTYHLL		Trincomalee	LK-53	8.551241	81.092014	Kinnia	PS-530140	6.907289	79.863819	8.497669	81.179458	F5XH+3Q8, Kinniya, Sri Lanka	228.739072	#CenterFarFromPolice
Trincomalee	Kinniya	MOH Office - Kinniya	False	False	TRNCMLKNNYMHFFCKNNY		Trincomalee	LK-53	8.551241	81.092014	Kinnia	PS-530140	6.907289	79.863819	8.498696	81.179644	F5XH+FVC, Kinniya 31100, Sri Lanka	228.840304	#CenterFarFromPolice
Trincomalee	Kinniya	Al Aksha Central College	False	False	TRNCMLKNNYLKSHCNTRLCLLG		Trincomalee	LK-53	8.551241	81.092014	Kinnia	PS-530140	6.907289	79.863819	8.496662	81.180256	F5WJ+M46, Kinniya 31100, Sri Lanka	228.708367	#CenterFarFromPolice
Trincomalee	Kinniya	Al Adan Vidyalaya	False	False	TRNCMLKNNYLDNVDYLY		Trincomalee	LK-53	8.551241	81.092014	Kinnia	PS-530140	6.907289	79.863819	8.502547	81.180383	Kinniya, Sri Lanka	229.222923	#CenterFarFromPolice
Trincomalee	Kinniya	Al Irfan Viyalaya	False	False	TRNCMLKNNYLRFNVYLY		Trincomalee	LK-53	8.551241	81.092014	Kinnia	PS-530140	6.907289	79.863819	8.481391	81.191368	F5JR+HG5, Kinniya, Sri Lanka	228.183186	#CenterFarFromPolice
Trincomalee	Kinniya	Kinniya Base Hospital	False	False	TRNCMLKNNYKNNYBSHSPTL		Trincomalee	LK-53	8.551241	81.092014	Kinnia	PS-530140	6.907289	79.863819	8.501539	81.187539	Tampalakamam-Kinniya Rd, Kinniya 31100, Sri Lanka	229.636589	#CenterFarFromPolice
Trincomalee	Sripura	MOH Office – Sripura	False	False	TRNCMLSRPRMHFFCSRPR		Trincomalee	LK-53	8.551241	81.092014	Sripura	PS-530136	8.929617	80.81428	8.926697	80.814799	Padavi Sripura, Padaviya - Sripura Road, Welioya, Sri Lanka	0.329869	
Trincomalee	Sripura	Jayanthipura Vidyalaya	False	False	TRNCMLSRPRJYNTHPRVDYLY		Trincomalee	LK-53	8.551241	81.092014	Sripura	PS-530136	8.929617	80.81428	8.908396	80.833813	Jayanthi wewa, Padavi -Sripura, Sri Lanka	3.190373	
Trincomalee	Sripura	Sripura Hospital	False	False	TRNCMLSRPRSRPRHSPTL		Trincomalee	LK-53	8.551241	81.092014	Sripura	PS-530136	8.929617	80.81428	8.929308	80.813901	Padaviya - Sripura Road, Welioya, Sri Lanka	0.053996	
Trincomalee	Kuchchaveli	MOH Office - Kuchchaveli	False	False	TRNCMLKCHCHVLMHFFCKCHCHVL		Trincomalee	LK-53	8.551241	81.092014	Kuchchaweli	PS-530133	8.81895	81.100438	8.740082	81.161616	P5R6+2JQ, Kumpurupiddi, Sri Lanka	11.053646	
Trincomalee	Kuchchaveli	Divisional Hospital - Kuchchaveli	False	False	TRNCMLKCHCHVLDVSNLHSPTLKCHCHVL		Trincomalee	LK-53	8.551241	81.092014	Kuchchaweli	PS-530133	8.81895	81.100438	8.814795	81.102358	R472+WW9, Kuchchaveli, Sri Lanka	0.508064	
Trincomalee	Kuchchaveli	Annuria Muslim Maha Vidyalaya	False	False	TRNCMLKCHCHVLNNRMSLMMHVDYLY		Trincomalee	LK-53	8.551241	81.092014	Kuchchaweli	PS-530133	8.81895	81.100438	8.504893	81.179851	Kinniya, Sri Lanka	36.007413	#CenterFarFromPolice
Trincomalee	Kuchchaveli	Erakkandi Muslim Maha Vidyalaya	False	False	TRNCMLKCHCHVLRKKNDMSLMMHVDYLY		Trincomalee	LK-53	8.551241	81.092014	Kuchchaweli	PS-530133	8.81895	81.100438	8.592448	81.222257	N, N Coast Rd, Trincomalee, Sri Lanka	28.532789	#CenterFarFromPolice
Trincomalee	Kuchchaveli	Thiriyaya Hospital	False	False	TRNCMLKCHCHVLTHRYYHSPTL		Trincomalee	LK-53	8.551241	81.092014	Kuchchaweli	PS-530133	8.81895	81.100438	8.682159	80.953435	Thiriyaya Rd, Sri Lanka	22.196275	#CenterFarFromPolice
Trincomalee	Kuchchaveli	Putawakattu	False	False	TRNCMLKCHCHVLPTWKTT		Trincomalee	LK-53	8.551241	81.092014	Kuchchaweli	PS-530133	8.81895	81.100438	8.816329	81.100963	R482+G9P, Kuchchaveli, Sri Lanka	0.29719	
Trincomalee	Kuchchaveli	Divisional Hospital - Nilaveli	False	False	TRNCMLKCHCHVLDVSNLHSPTLNLVL		Trincomalee	LK-53	8.551241	81.092014	Kuchchaweli	PS-530133	8.81895	81.100438	8.681035	81.193632	M5JV+CF6, Nilaveli, Sri Lanka	18.44695	
Trincomalee	Kantale	MOH Office – Kantale	False	False	TRNCMLKNTLMHFFCKNTL		Trincomalee	LK-53	8.551241	81.092014	Kantale	PS-530241	8.356129	81.007739	8.349617	81.009107	අග්‍රබෝධි මාවත, Kantale, Sri Lanka	0.739809	
Trincomalee	Kantale	Al Thariq Vidyalaya	False	False	TRNCMLKNTLLTHRQVDYLY		Trincomalee	LK-53	8.551241	81.092014	Kantale	PS-530241	8.356129	81.007739	8.35681	81.024939	924F+PXG, Kantale, Sri Lanka	1.894356	
Trincomalee	Kantale	Kantale Base Hospital	False	False	TRNCMLKNTLKNTLBSHSPTL		Trincomalee	LK-53	8.551241	81.092014	Kantale	PS-530241	8.356129	81.007739	8.366314	81.004891	A6, Kantale, Sri Lanka	1.17546	
Trincomalee	Kantale	Gantalawa Central College	False	False	TRNCMLKNTLGNTLWCNTRLCLLG		Trincomalee	LK-53	8.551241	81.092014	Kantale	PS-530241	8.356129	81.007739	8.379492	81.010837	Kandy Rd, Kantale 31300, Sri Lanka	2.62093	
Trincomalee	Kantale	Unit 14 Jayarajarama Viharaya	False	False	TRNCMLKNTLNTJYRJRMVHRY		Trincomalee	LK-53	8.551241	81.092014	Kantale	PS-530241	8.356129	81.007739	8.351263	81.006993	Kantale, Sri Lanka	0.547435	
Trincomalee	Vanela	Vanela Central Dispensary	False	False	TRNCMLVNLVNLCNTRLDSPNSRY		Trincomalee	LK-53	8.551241	81.092014									#PoliceLocationUnknown
Trincomalee	Agbopura	Batukachchiya Central Dispensary	False	False	TRNCMLGBPRBTKCHCHYCNTRLDSPNSRY		Trincomalee	LK-53	8.551241	81.092014	Agbopura	PS-530242	8.331395	80.976489	8.480713	81.165957	Kachchakodutheevu,Kinniya, Kinniya, Sri Lanka	26.654993	#CenterFarFromPolice
Trincomalee	Sampur	Patalipuram Health Medical Centre	False	False	TRNCMLSMPRPTLPRMHLTHMDCLCNTR		Trincomalee	LK-53	8.551241	81.092014									#PoliceLocationUnknown
Trincomalee	Pulmoddai	Pulmoddai Base Hospital	False	False	TRNCMLPLMDDPLMDDBSHSPTL	Base Hospital - Pulmoddai	Trincomalee	LK-53	8.551241	81.092014	Pulmudai	PS-530135	6.915266	79.87829	8.941204	80.983139	WXRM+F7J, Pulmoddai, Sri Lanka	256.112801	#CenterFarFromPolice
Trincomalee	Pulmoddai	Tennamaranwadi Kovil	False	False	TRNCMLPLMDDTNNMRNWDKVL		Trincomalee	LK-53	8.551241	81.092014	Pulmudai	PS-530135	6.915266	79.87829	8.582639	81.245387	H6MW+352, Trincomalee, Sri Lanka	238.949313	#CenterFarFromPolice
Trincomalee	Pulmoddai	Muslim National College	False	False	TRNCMLPLMDDMSLMNTNLCLLG		Trincomalee	LK-53	8.551241	81.092014	Pulmudai	PS-530135	6.915266	79.87829	8.940296	80.985139	B60, Pulmoddai, Sri Lanka	256.12882	#CenterFarFromPolice
Trincomalee	Serunuwara	Serunuwara Hospital	False	False	TRNCMLSRNWRSRNWRHSPTL		Trincomalee	LK-53	8.551241	81.092014	Serunuwara	PS-530244	8.321863	81.299322	8.322964	81.299734	Allai-Kantalai Rd, Sri Lanka	0.130589	
Trincomalee	Serunuwara	MOH Office - Serunuwara	False	False	TRNCMLSRNWRMHFFCSRNWR		Trincomalee	LK-53	8.551241	81.092014	Serunuwara	PS-530244	8.321863	81.299322	8.323143	81.299894	B10, Sri Lanka	0.155671	
Trincomalee	Serunuwara	Dehiwatta Vidyalaya	False	False	TRNCMLSRNWRDHWTTVDYLY		Trincomalee	LK-53	8.551241	81.092014	Serunuwara	PS-530244	8.321863	81.299322	8.357931	81.271965	975C+5QG, Trincomalee, Sri Lanka	5.015912	
Trincomalee	Morawewa	Mahadivulwewa Hospital	False	False	TRNCMLMRWWMHDVLWWHSPTL		Trincomalee	LK-53	8.551241	81.092014	Morawewa	PS-530247	8.630317	81.031386	8.620893	80.968736	JXC9+9F5, Mahadivul Wewa, Sri Lanka	6.969016	
Trincomalee	Harbour Police	MOH Office - Trincomalee	False	False	TRNCMLHRBRPLCMHFFCTRNCML		Trincomalee	LK-53	8.551241	81.092014	Trinco Harbour Police	PS-530131	8.56705	81.231407	8.598974	81.216963	MOH Office, Farm Rd, Trincomalee, Sri Lanka	3.890062	
Trincomalee	Harbour Police	Trincomalee Base Hospital	False	False	TRNCMLHRBRPLCTRNCMLBSHSPTL		Trincomalee	LK-53	8.551241	81.092014	Trinco Harbour Police	PS-530131	8.56705	81.231407	8.56486	81.239445	Hospital Ln, Trincomalee, Sri Lanka	0.917037	
Trincomalee	Uppuveli	MOH Office - Uppuveli	False	False	TRNCMLPPVLMHFFCPPVL		Trincomalee	LK-53	8.551241	81.092014	Uppuweli	PS-530134	8.593614	81.21743	8.607961	81.216512	Nilaveli Rd, Trincomalee, Sri Lanka	1.599005	
Trincomalee	Ichchalampattu	MOH Office - Ichchalampattu	False	False	TRNCMLCHCHLMPTTMHFFCCHCHLMPTT	Eachchilampattu Hospital	Trincomalee	LK-53	8.551241	81.092014	Ichchalampattu		8.289549	81.359002	8.289644	81.358983	Highway, Ichchalampattu, Trincomalee, Sri Lanka	0.010772	
Trincomalee	Ichchalampattu	Valathottam Vidyalaya	False	False	TRNCMLCHCHLMPTTVLTHTTMVDYLY		Trincomalee	LK-53	8.551241	81.092014	Ichchalampattu		8.289549	81.359002	8.289549	81.358986	Trincomalee Hwy, Sri Lanka	0.001761	
Trincomalee	Ichchalampattu	Ilangathurai Mohottuvaram Vidyalaya	False	False	TRNCMLCHCHLMPTTLNGTHRMHTTVRMVDYLY		Trincomalee	LK-53	8.551241	81.092014	Ichchalampattu		8.289549	81.359002	8.574433	81.234967	Dockyard Rd, Trincomalee, Sri Lanka	34.501425	#CenterFarFromPolice
Trincomalee	Thambalagamuwa	Thambalagamuwa Hospital	False	False	TRNCMLTHMBLGMWTHMBLGMWHSPTL		Trincomalee	LK-53	8.551241	81.092014	Thambalagamuva	PS-530243	6.907289	79.863819	8.477589	81.108949	F4H5+2HP, Trincomalee, Sri Lanka	222.134461	#CenterFarFromPolice
Trincomalee	Thambalagamuwa	Mollipathana Sinhala Maha Vidyalaya	False	False	TRNCMLTHMBLGMWMLLPTHNSNHLMHVDYLY		Trincomalee	LK-53	8.551241	81.092014	Thambalagamuva	PS-530243	6.907289	79.863819	8.491061	81.104748	potkerney Thampalagamam, Sri Lanka	223.028906	#CenterFarFromPolice
Trincomalee	Thambalagamuwa	Al Hijma Muslim Vidyalaya	False	False	TRNCMLTHMBLGMWLHJMMSLMVDYLY		Trincomalee	LK-53	8.551241	81.092014	Thambalagamuva	PS-530243	6.907289	79.863819	6.92897	79.874814	WVHF+HWP, Colombo 01000, Sri Lanka	2.699935	
Trincomalee	Thambalagamuwa	MOH Office - Thambalagamuwa	False	False	TRNCMLTHMBLGMWMHFFCTHMBLGMW		Trincomalee	LK-53	8.551241	81.092014	Thambalagamuva	PS-530243	6.907289	79.863819	8.563603	81.239584	Hospital Ln, Trincomalee, Sri Lanka	238.604889	#CenterFarFromPolice
Trincomalee	Gomarankadawala	MOH Office - Gomarankadawala	False	False	TRNCMLGMRNKDWLMHFFCGMRNKDWL		Trincomalee	LK-53	8.551241	81.092014	Gomarankadawala	PS-530248	8.674487	80.967555	8.674726	80.955691	Unnamed Road, Gomarankadawala, Sri Lanka	1.304806	
Batticaloa	Batticaloa	Twon Hall - Batticaloa	False	False	BTTCLBTTCLTWNHLLBTTCL		Batticaloa	LK-51	7.792772	81.486513	Batticaloa	PS-510101	7.717949	81.699294	7.710065	81.700802	PP62+28F, Batticaloa, Sri Lanka	0.89255	
Batticaloa	Batticaloa	Twon Hall Pre School	False	False	BTTCLBTTCLTWNHLLPRSCHL		Batticaloa	LK-51	7.792772	81.486513	Batticaloa	PS-510101	7.717949	81.699294	7.698052	81.672478	Unnamed Road, Batticaloa, Sri Lanka	3.692516	
Batticaloa	Batticaloa	St. Sebastian's Church	False	False	BTTCLBTTCLSTSBSTNSCHRCH		Batticaloa	LK-51	7.792772	81.486513	Batticaloa	PS-510101	7.717949	81.699294	7.719961	81.704521	76 St Sebastian St, Batticaloa, Sri Lanka	0.618172	
Batticaloa	Batticaloa	Swami Vipulananda Vidyalaya - Navankuda	False	False	BTTCLBTTCLSWMVPLNNDVDYLYNVNKD		Batticaloa	LK-51	7.792772	81.486513	Batticaloa	PS-510101	7.717949	81.699294	7.70014	81.718098	Swami Vipulananda Institute of Aesthetic Studies, Batticaloa, Sri Lanka	2.86703	
Batticaloa	Batticaloa	Kokuvil Wigneswara Vidyalaya	False	False	BTTCLBTTCLKKVLWGNSWRVDYLY		Batticaloa	LK-51	7.792772	81.486513	Batticaloa	PS-510101	7.717949	81.699294	7.740271	81.668393	PMR9+492, Batticaloa, Sri Lanka	4.214732	
Batticaloa	Batticaloa	Wichchukalmunai Annamalai Vidyalaya	False	False	BTTCLBTTCLWCHCHKLMNNNMLVDYLY		Batticaloa	LK-51	7.792772	81.486513	Batticaloa	PS-510101	7.717949	81.699294	7.7114	81.696117	PM6W+HC9, Batticaloa, Sri Lanka	0.808243	
Batticaloa	Batticaloa	MOH Office - Batticaloa	False	False	BTTCLBTTCLMHFFCBTTCL		Batticaloa	LK-51	7.792772	81.486513	Batticaloa	PS-510101	7.717949	81.699294	7.708253	81.691368	Hospital Rd, Batticaloa, Sri Lanka	1.387934	
Batticaloa	Kaluwanchikudy	Mahulur Vidyalaya	False	False	BTTCLKLWNCHKDYMHLRVDYLY		Batticaloa	LK-51	7.792772	81.486513	Kalawanchikudy	PS-510110	7.515908	81.787051	7.720143	81.700516	PPC2+362, Batticaloa, Sri Lanka	24.63901	#CenterFarFromPolice
Batticaloa	Kaluwanchikudy	Ondachchimadam Vidyalaya	False	False	BTTCLKLWNCHKDYNDCHCHMDMVDYLY		Batticaloa	LK-51	7.792772	81.486513	Kalawanchikudy	PS-510110	7.515908	81.787051	7.500335	81.806898	GR24+4QJ, Kaluwanchikudy, Sri Lanka	2.791174	
Batticaloa	Kaluwanchikudy	Kaluwanchikudy Hospital	False	False	BTTCLKLWNCHKDYKLWNCHKDYHSPTL	Base Hospital - Kaluwanchikudy	Batticaloa	LK-51	7.792772	81.486513	Kalawanchikudy	PS-510110	7.515908	81.787051	7.51724	81.785184	GQ8P+V3V, Kaluwanchikudy, Sri Lanka	0.25365	
Batticaloa	Valachchenai	Valachchenai Base Hospital	False	False	BTTCLVLCHCHNVLCHCHNBSHSPTL		Batticaloa	LK-51	7.792772	81.486513	Valachchanai	PS-510107	7.908015	81.533004	7.911315	81.533046	Valaichchenai-Nasuvantivu-Navaladi Road, Sri Lanka	0.367088	
Batticaloa	Valachchenai	MOH Office - Oddamavadi	False	False	BTTCLVLCHCHNMHFFCDDMVD		Batticaloa	LK-51	7.792772	81.486513	Valachchanai	PS-510107	7.908015	81.533004	7.912281	81.532775	WG6M+W46, Batticaloa, Sri Lanka	0.475177	
Batticaloa	Valachchenai	MOH Office - Navalady	False	False	BTTCLVLCHCHNMHFFCNVLDY		Batticaloa	LK-51	7.792772	81.486513	Valachchanai	PS-510107	7.908015	81.533004	7.708253	81.691368	Hospital Rd, Batticaloa, Sri Lanka	28.253495	#CenterFarFromPolice
Batticaloa	Valachchenai	MOH Office - Valachchenai	False	False	BTTCLVLCHCHNMHFFCVLCHCHN		Batticaloa	LK-51	7.792772	81.486513	Valachchanai	PS-510107	7.908015	81.533004	7.912281	81.532775	WG6M+W46, Batticaloa, Sri Lanka	0.475177	
Batticaloa	Valachchenai	MOH Office - Kiran	False	False	BTTCLVLCHCHNMHFFCKRN		Batticaloa	LK-51	7.792772	81.486513	Valachchanai	PS-510107	7.908015	81.533004	7.502211	79.839254	GR2Q+VPJ, Madampe, Sri Lanka	192.073036	#CenterFarFromPolice
Batticaloa	Vakarai	MOH Office - Vakarai	False	False	BTTCLVKRMHFFCVKR	Divisional Hospital Vakarai	Batticaloa	LK-51	7.792772	81.486513	Wakarai	PS-510109	6.934132	79.856305	8.134552	81.435328	Trincomalee Hwy, Vakarai, Sri Lanka	219.417822	#CenterFarFromPolice
Batticaloa	Kattankudy	MOH Office - Kattankudy	False	False	BTTCLKTTNKDYMHFFCKTTNKDY		Batticaloa	LK-51	7.792772	81.486513	Kaththankudi	PS-510103	7.715979	81.698757	7.683586	81.730767	MPMJ+C8J, Kattankudy, Sri Lanka	5.042961	
Batticaloa	Kattankudy	MOH Office - Arayampathy	False	False	BTTCLKTTNKDYMHFFCRYMPTHY		Batticaloa	LK-51	7.792772	81.486513	Kaththankudi	PS-510103	7.715979	81.698757	7.672862	81.735019	MPFP+42R, Sri Lanka	6.243191	
Batticaloa	Eravur	Sandiveli Hospital	False	False	BTTCLRVRSNDVLHSPTL		Batticaloa	LK-51	7.792772	81.486513	Eravur	PS-510104	7.715979	81.698757	7.777289	81.602853	Trincomalee Hwy, Eravur, Sri Lanka	12.578998	
Batticaloa	Eravur	Athankara Mosque	False	False	BTTCLRVRTHNKRMSQ		Batticaloa	LK-51	7.792772	81.486513	Eravur	PS-510104	7.715979	81.698757	7.77695	81.603604	Trincomalee Road, Eravur, Sri Lanka	12.489014	
Batticaloa	Eravur	Akbar Mosque	False	False	BTTCLRVRKBRMSQ		Batticaloa	LK-51	7.792772	81.486513	Eravur	PS-510104	7.715979	81.698757	7.775776	81.606514	QJG4+8J6, Eravur, Sri Lanka	12.148969	
Batticaloa	Eravur	Arumuhathankudi Iruppu Primary School	False	False	BTTCLRVRRMHTHNKDRPPPRMRYSCHL		Batticaloa	LK-51	7.792772	81.486513	Eravur	PS-510104	7.715979	81.698757	7.781715	81.601743	Eravur - 04, Chenkaladi, Sri Lanka	12.953304	
Batticaloa	Eravur	Thalavai Clinic	False	False	BTTCLRVRTHLVCLNC		Batticaloa	LK-51	7.792772	81.486513	Eravur	PS-510104	7.715979	81.698757	7.777289	81.602853	Trincomalee Hwy, Eravur, Sri Lanka	12.578998	
Batticaloa	Eravur	Vinegar Vidyalaya	False	False	BTTCLRVRVNGRVDYLY		Batticaloa	LK-51	7.792772	81.486513	Eravur	PS-510104	7.715979	81.698757	7.781715	81.601743	Eravur - 04, Chenkaladi, Sri Lanka	12.953304	
Batticaloa	Eravur	Eravur Hospital	False	False	BTTCLRVRRVRHSPTL		Batticaloa	LK-51	7.792772	81.486513	Eravur	PS-510104	7.715979	81.698757	7.783168	81.605999	QJM4+799, Eravur 30300, Sri Lanka	12.663585	
Batticaloa	Eravur	Mawadiwembu Hospital	False	False	BTTCLRVRMWDWMBHSPTL		Batticaloa	LK-51	7.792772	81.486513	Eravur	PS-510104	7.715979	81.698757	7.808545	81.566328	Mawadiwembu Hospital, Sri Lanka	17.861302	
Batticaloa	Eravur	MOH Office - Chenkaladi	False	False	BTTCLRVRMHFFCCHNKLD		Batticaloa	LK-51	7.792772	81.486513	Eravur	PS-510104	7.715979	81.698757	7.783599	81.593367	Trincomalee Hwy, Chenkaladi 30350, Sri Lanka	13.837876	
Batticaloa	Eravur	Sitthandi Central College	False	False	BTTCLRVRSTTHNDCNTRLCLLG		Batticaloa	LK-51	7.792772	81.486513	Eravur	PS-510104	7.715979	81.698757	7.785947	81.590295	Trincomalee Road, Chenkaladi, Sri Lanka	14.264135	
Batticaloa	Eravur	Wandaramulla Vidyalaya	False	False	BTTCLRVRWNDRMLLVDYLY		Batticaloa	LK-51	7.792772	81.486513	Eravur	PS-510104	7.715979	81.698757	7.781715	81.601743	Eravur - 04, Chenkaladi, Sri Lanka	12.953304	
Batticaloa	Vavunathivu	MOH Office - Vavunathivu	False	False	BTTCLVVNTHVMHFFCVVNTHV		Batticaloa	LK-51	7.792772	81.486513	Vavunathive	PS-510102	6.933075	79.857181	7.708253	81.691368	Hospital Rd, Batticaloa, Sri Lanka	219.95575	#CenterFarFromPolice
Batticaloa	Vavunathivu	Navathkadu Clinic	False	False	BTTCLVVNTHVNVTHKDCLNC		Batticaloa	LK-51	7.792772	81.486513	Vavunathive	PS-510102	6.933075	79.857181	7.708032	81.690622	Hospital Ln, Batticaloa 30000, Sri Lanka	219.870447	#CenterFarFromPolice
Batticaloa	Vavunathivu	Mandapattadi Hospital	False	False	BTTCLVVNTHVMNDPTTDHSPTL		Batticaloa	LK-51	7.792772	81.486513	Vavunathive	PS-510102	6.933075	79.857181	7.719015	81.701193	91 Pioneer Rd, Batticaloa, Sri Lanka	221.420894	#CenterFarFromPolice
Batticaloa	Karadiyanaru	Pillamalai Vidyalaya	False	False	BTTCLKRDYNRPLLMLVDYLY		Batticaloa	LK-51	7.792772	81.486513	Karadiyanaru	PS-510105	7.701992	81.537252	7.720143	81.700516	PPC2+362, Batticaloa, Sri Lanka	18.108512	
Batticaloa	Karadiyanaru	Eralakulam  Vidayalaya	False	False	BTTCLKRDYNRRLKLMVDYLY		Batticaloa	LK-51	7.792772	81.486513	Karadiyanaru	PS-510105	7.701992	81.537252	7.700216	81.539779	PG2Q+3WJ, Karadiyanaru, Sri Lanka	0.341482	
Batticaloa	Karadiyanaru	Kumaraveliyar Vidyalaya	False	False	BTTCLKRDYNRKMRVLYRVDYLY		Batticaloa	LK-51	7.792772	81.486513	Karadiyanaru	PS-510105	7.701992	81.537252	7.720143	81.700516	PPC2+362, Batticaloa, Sri Lanka	18.108512	
Ampara	Ampara	Ampara Hospital	False	False	MPRMPRMPRHSPTL		Ampara	LK-52	7.23699	81.550391	Ampara	PS-520113	7.296771	81.677161	7.298334	81.690841	Dharmapala Mawatha, Ampara, Sri Lanka	1.519279	
Ampara	Ampara	MOH Office - Ampara	False	False	MPRMPRMHFFCMPR		Ampara	LK-52	7.23699	81.550391	Ampara	PS-520113	7.296771	81.677161	7.296412	81.689717	7MWQ+HV8, Ampara, Sri Lanka	1.385868	
Ampara	Ampara	Polwatta Vidyalaya	False	False	MPRMPRPLWTTVDYLY		Ampara	LK-52	7.23699	81.550391	Ampara	PS-520113	7.296771	81.677161	7.234046	81.568438	Inginiyagala Road, Polwatta, Sri Lanka	13.877481	
Ampara	Chavalakade	MOH Office - Navidanveli	False	False	MPRCHVLKDMHFFCNVDNVL		Ampara	LK-52	7.23699	81.550391	Chawalakade	PS-520125	7.413559	81.776822	7.420081	81.788401	B77, Sri Lanka	1.468805	
Ampara	Chavalakade	5th Colony Health Centre	False	False	MPRCHVLKDTHCLNYHLTHCNTR		Ampara	LK-52	7.23699	81.550391	Chawalakade	PS-520125	7.413559	81.776822	7.418836	81.781436	Chavalakade, Sri Lanka	0.776867	
Ampara	Karaitivu	MOH Office – Karaitivu	False	False	MPRKRTVMHFFCKRTV		Ampara	LK-52	7.23699	81.550391	Karaitivu		9.744059	79.870587	7.377712	81.838796	Colombo-Ratnapura-Wellawaya-Batticaloa Highway, Karativu 32250, Sri Lanka	340.788666	#CenterFarFromPolice
Ampara	Central Camp	Suhadagama Vidyalaya	False	False	MPRCNTRLCMPSHDGMVDYLY		Ampara	LK-52	7.23699	81.550391	Central Camp	PS-520118	7.414282	81.733257	7.397997	81.684382	9MXM+5QR, Sri Lanka	5.68718	
Ampara	Uhana	Thissapura Vidyalaya	False	False	MPRHNTHSSPRVDYLY		Ampara	LK-52	7.23699	81.550391	Uhana	PS-520116	7.362435	81.636035	7.308518	81.678836	Thissapura, Ampara, Sri Lanka	7.632915	
Ampara	Uhana	Kumarigama Vidyalaya	False	False	MPRHNKMRGMVDYLY		Ampara	LK-52	7.23699	81.550391	Uhana	PS-520116	7.362435	81.636035	7.389533	81.664119	Sri Lanka	4.322268	
Ampara	Panama	Panama Maha Vidyalaya	False	False	MPRPNMPNMMHVDYLY		Ampara	LK-52	7.23699	81.550391	Panama	PS-520129	6.752004	81.79349	6.75636	81.805024	Panama Beach Rd, Panama, Sri Lanka	1.363043	
Ampara	Eragama	MOH Office – Eragama	False	False	MPRRGMMHFFCRGM		Ampara	LK-52	7.23699	81.550391									#PoliceLocationUnknown
Ampara	Pottuvil	GN - Pottuvil Sengamam	False	False	MPRPTTVLGNPTTVLSNGMM		Ampara	LK-52	7.23699	81.550391	Pothuvil	PS-520128	6.878387	81.826859	6.875271	81.830633	Pottuvil, Sri Lanka	0.542048	
Ampara	Pottuvil	Pottuvil Base Hospital	False	False	MPRPTTVLPTTVLBSHSPTL		Ampara	LK-52	7.23699	81.550391	Pothuvil	PS-520128	6.878387	81.826859	6.876098	81.830463	Main Street Colombo - Batticaloa Hwy, Pottuvil 32500, Sri Lanka	0.47246	
Ampara	Pottuvil	Urani Kanagar Vidyalaya	False	False	MPRPTTVLRNKNGRVDYLY		Ampara	LK-52	7.23699	81.550391	Pothuvil	PS-520128	6.878387	81.826859	6.922707	81.845736	Colombo - Batticaloa Hwy, Sri Lanka	5.352293	
Ampara	Pottuvil	Al Hidaya Vidyalaya	False	False	MPRPTTVLLHDYVDYLY		Ampara	LK-52	7.23699	81.550391	Pothuvil	PS-520128	6.878387	81.826859	6.878199	81.841868	VRHR+7PH, Pottuvil, Sri Lanka	1.657565	
Ampara	Pottuvil	Hulannuge Vidyalaya	False	False	MPRPTTVLHLNNGVDYLY		Ampara	LK-52	7.23699	81.550391	Pothuvil	PS-520128	6.878387	81.826859	6.954907	81.669253	Hulannuge, Sri Lanka	19.372753	
Ampara	Thirukkovil	Superintendent Health Medical Office	False	False	MPRTHRKKVLSPRNTNDNTHLTHMDCLFFC		Ampara	LK-52	7.23699	81.550391	Thirukkovil	PS-520127	7.113998	81.852219	7.112417	81.852125	Colombo - Batticaloa Hwy, Thirukkovil, Sri Lanka	0.17616	
Ampara	Thirukkovil	Mobile Vaccination	False	False	MPRTHRKKVLMBLVCCNTN		Ampara	LK-52	7.23699	81.550391	Thirukkovil	PS-520127	7.113998	81.852219					#CenterLocationUnknown
Ampara	Akkaraipattu	MOH Office - Akkaraipattu	False	False	MPRKKRPTTMHFFCKKRPTT		Ampara	LK-52	7.23699	81.550391	Akkaraipattu	PS-520126	7.216084	81.853254	7.228134	81.851123	6VH2+7C5, Akkaraipattu, Sri Lanka	1.360772	
Ampara	Akkaraipattu	MOH Office – Addalachenai	False	False	MPRKKRPTTMHFFCDDLCHN		Ampara	LK-52	7.23699	81.550391	Akkaraipattu	PS-520126	7.216084	81.853254	7.260916	81.853493	7V63+999, Addalaichenai, Sri Lanka	4.986726	
Ampara	Akkaraipattu	MOH Office - Alayadivembu	False	False	MPRKKRPTTMHFFCLYDVMB		Ampara	LK-52	7.23699	81.550391	Akkaraipattu	PS-520126	7.216084	81.853254	7.228134	81.851123	6VH2+7C5, Akkaraipattu, Sri Lanka	1.360772	
Ampara	Kalmunai	Ashraff Memorial Hospital	False	False	MPRKLMNSHRFFMMRLHSPTL		Ampara	LK-52	7.23699	81.550391	Kalmunai	PS-520123	7.414289	81.825006	7.403172	81.831146	A4, Ashraff Memorial Base Hospital, A4 A4, Kalmunai 32300, Sri Lanka	1.409859	
Ampara	Kalmunai	MOH Office - Kalmunai South	False	False	MPRKLMNMHFFCKLMNSTH		Ampara	LK-52	7.23699	81.550391	Kalmunai	PS-520123	7.414289	81.825006	7.411712	81.838462	CR6Q+M9P, Kalmunai 32300, Sri Lanka	1.511625	
Ampara	Sainthamarthu	MOH Office – Sainthamarthu	False	False	MPRSNTHMRTHMHFFCSNTHMRTH		Ampara	LK-52	7.23699	81.550391									#PoliceLocationUnknown
Ampara	Sainthamarthu	Saindamarudu Hospital	False	False	MPRSNTHMRTHSNDMRDHSPTL		Ampara	LK-52	7.23699	81.550391									#PoliceLocationUnknown
Ampara	Sammanthurai	Muslim Central College - Sammanthurai	False	False	MPRSMMNTHRMSLMCNTRLCLLGSMMNTHR		Ampara	LK-52	7.23699	81.550391	Samanthurai	PS-520124	7.365785	81.810859	7.370617	81.808855	AB33, Sammanthurai 32200, Sri Lanka	0.58115	
Ampara	Sammanthurai	Miranagar Health Centre	False	False	MPRSMMNTHRMRNGRHLTHCNTR		Ampara	LK-52	7.23699	81.550391	Samanthurai	PS-520124	7.365785	81.810859	7.359802	81.793874	Vilinaiyadi Rd, Sammanthurai, Sri Lanka	1.988336	
Ampara	Sammanthurai	Vavvalodai Health Centre	False	False	MPRSMMNTHRVVVLDHLTHCNTR		Ampara	LK-52	7.23699	81.550391	Samanthurai	PS-520124	7.365785	81.810859	7.359802	81.793874	Vilinaiyadi Rd, Sammanthurai, Sri Lanka	1.988336	
Ampara	Sammanthurai	Arasadi Health Centre	False	False	MPRSMMNTHRRSDHLTHCNTR		Ampara	LK-52	7.23699	81.550391	Samanthurai	PS-520124	7.365785	81.810859	7.359802	81.793874	Vilinaiyadi Rd, Sammanthurai, Sri Lanka	1.988336	
Ampara	Sammanthurai	Attapalam Health Centre	False	False	MPRSMMNTHRTTPLMHLTHCNTR		Ampara	LK-52	7.23699	81.550391	Samanthurai	PS-520124	7.365785	81.810859	7.359802	81.793874	Vilinaiyadi Rd, Sammanthurai, Sri Lanka	1.988336	
Ampara	Sammanthurai	Abdul Majeed Hall - Sammanthurai	False	False	MPRSMMNTHRBDLMJDHLLSMMNTHR		Ampara	LK-52	7.23699	81.550391	Samanthurai	PS-520124	7.365785	81.810859	7.363356	81.804123	9R73+8JX, Sammanthurai, Sri Lanka	0.790657	
Ampara	Sammanthurai	MOH Office – Sammanthurai	False	False	MPRSMMNTHRMHFFCSMMNTHR		Ampara	LK-52	7.23699	81.550391	Samanthurai	PS-520124	7.365785	81.810859	7.369857	81.812264	9R96+WWR, Sammanthurai, Sri Lanka	0.478712	
Ampara	Sammanthurai	Sammanthurai Base Hospital	False	False	MPRSMMNTHRSMMNTHRBSHSPTL		Ampara	LK-52	7.23699	81.550391	Samanthurai	PS-520124	7.365785	81.810859	7.368355	81.813042	9R96+MWM, Hospital Rd, Sammanthurai, Sri Lanka	0.373773	
