district	police	center	dose1	dose2	fuzzy_key	alt_name	district_name_norm	district_id	district_lat	district_lng	ps_name_norm	ps_id	ps_lat	ps_lng	lat	lng	formatted_address	dis_center_to_police	tags
Colombo	Cinnamon Gardens	Viharamahadevi Park	False	False	CLMBCNNMNGRDNSVHRMHDVPRK		Colombo	LK-11	6.869636	80.019598	Cinnamon Garden	PS-110324	6.907289	79.863819	6.913391	79.86174	Viharamahadevi Park, Colombo, Sri Lanka	0.716497	
Colombo	Thalangama	Diyatha Uyana	False	False	CLMBTHLNGMDYTHYN		Colombo	LK-11	6.869636	80.019598	Thalangama	PS-110466	6.91089	79.929325	6.904575	79.909831	Diyatha Uyana, B240, Sri Jayawardenepura Kotte, Sri Lanka	2.264281	
Colombo	Grandpass	Sugathadasa Outdoor Stadium	False	False	CLMBGRNDPSSSGTHDSTDRSTDM		Colombo	LK-11	6.869636	80.019598	Grandpass	PS-110215	6.949052	79.872983	6.94806	79.868842	Prince of Wales Ave, Colombo 01400, Sri Lanka	0.470345	
Colombo	Narahenpita	Army Hospital Narahenpita	False	False	CLMBNRHNPTRMYHSPTLNRHNPT		Colombo	LK-11	6.869636	80.019598	Narahenpita	PS-110321	6.891832	79.876715	6.900252	79.87618	08 Elvitigala Mawatha, Colombo 00800, Sri Lanka	0.938417	
Colombo	Narahenpita	Army Headquarters Mobile Team	False	False	CLMBNRHNPTRMYHDQRTRSMBLTM		Colombo	LK-11	6.869636	80.019598	Narahenpita	PS-110321	6.891832	79.876715					#CenterLocationUnknown
Colombo	Narahenpita	MOH Office - Narahenpita	False	False	CLMBNRHNPTMHFFCNRHNPT		Colombo	LK-11	6.869636	80.019598	Narahenpita	PS-110321	6.891832	79.876715	6.891268	79.878754	75 Narahenpita Rd, Colombo 00500, Sri Lanka	0.233735	
Colombo	Boralesgamuwa	Kotelawala Defence Hospital	False	False	CLMBBRLSGMWKTLWLDFNCHSPTL		Colombo	LK-11	6.869636	80.019598	Boralesgamuwa	PS-110464	6.841331	79.901255	6.82518	79.907167	RWG4+3VF, Boralesgamuwa, Sri Lanka	1.911444	
Colombo	Boralesgamuwa	MOH Office - Werahera	False	False	CLMBBRLSGMWMHFFCWRHR		Colombo	LK-11	6.869636	80.019598	Boralesgamuwa	PS-110464	6.841331	79.901255	6.833094	79.905583	RWM4+66P, Boralesgamuwa, Sri Lanka	1.033386	
Colombo	Borella	Campbell Park	False	False	CLMBBRLLCMPBLLPRK		Colombo	LK-11	6.869636	80.019598	Borella	PS-110323	6.915266	79.87829	6.920163	79.877108	Campbell Park, Colombo, Sri Lanka	0.560111	
Colombo	Homagama	Panagoda Bodhirajarama Viharaya	False	False	CLMBHMGMPNGDBDHRJRMVHRY		Colombo	LK-11	6.869636	80.019598	Homagama	PS-110470	6.836155	80.003474	6.929161	79.88265	Gnanawimala Rd, Colombo, Sri Lanka	16.883101	
Colombo	Mirihana	MOH Office - Beddagana	False	False	CLMBMRHNMHFFCBDDGN		Colombo	LK-11	6.869636	80.019598	Mirihana	PS-110462	6.873714	79.901724	6.885731	79.908328	Baddagana Rd, Sri Jayawardenepura Kotte 10100, Sri Lanka	1.522652	
Colombo	Maharagama	Ranmal Deniya Viharaya - Arawwala	False	False	CLMBMHRGMRNMLDNYVHRYRWWL		Colombo	LK-11	6.869636	80.019598	Maharagama	PS-110463	6.845422	79.928928	6.818648	79.998854	Magammana Vidyalaya Bus Stop, B452, Sri Lanka	8.276948	
Colombo	Maharagama	Godigamuwa Bhikku Centre	False	False	CLMBMHRGMGDGMWBHKKCNTR		Colombo	LK-11	6.869636	80.019598	Maharagama	PS-110463	6.845422	79.928928	6.851095	79.921201	Maharagama, Sri Lanka	1.061301	
Colombo	Kotahena	Wiwekananda Vidyalaya	False	False	CLMBKTHNWWKNNDVDYLY		Colombo	LK-11	6.869636	80.019598	Kotahena	PS-110212	6.950879	79.862496	6.943047	79.860046	55-57, Colombo 01300, Sri Lanka	0.912186	
Colombo	Maradana	Forbes Road Community Hall	False	False	CLMBMRDNFRBSRDCMMNTYHLL		Colombo	LK-11	6.869636	80.019598	Maradana	PS-110107	6.927939	79.865471	6.876704	79.879161	00600, Mugalan Rd, Colombo 00600, Sri Lanka	5.895952	
Colombo	Maradana	National Hospital - Colombo	False	False	CLMBMRDNNTNLHSPTLCLMB		Colombo	LK-11	6.869636	80.019598	Maradana	PS-110107	6.927939	79.865471	6.918743	79.868992	Colombo 00700, Sri Lanka	1.094265	
Colombo	Fort	Navy Headquarters	False	False	CLMBFRTNVYHDQRTRS		Colombo	LK-11	6.869636	80.019598	Fort	PS-110105	6.9334	79.842895	6.936952	79.842104	WRPR+QRQ, Colombo, Sri Lanka	0.404627	
Colombo	Wellawatta	Roxy Gardens Premises	False	False	CLMBWLLWTTRXYGRDNSPRMSS		Colombo	LK-11	6.869636	80.019598	Wellawatta	PS-110320	6.873107	79.86167	6.863747	79.862088	Dehiwala Canal, Colombo, Sri Lanka	1.042134	
Colombo	Wellawatta	MOH Office - Wellawatta	False	False	CLMBWLLWTTMHFFCWLLWTT		Colombo	LK-11	6.869636	80.019598	Wellawatta	PS-110320	6.873107	79.86167	6.874483	79.861558	235 Galle Rd, Colombo, Sri Lanka	0.153551	
Colombo	Wellampitiya	MOH Office - Kolonnawa	False	False	CLMBWLLMPTYMHFFCKLNNW		Colombo	LK-11	6.869636	80.019598	Wellampitiya	PS-110465	6.937514	79.896298	6.938303	79.889664	25 Pansalhena 1st Ln, 10600, Sri Lanka	0.737734	
Colombo	Hanwella	Jalthara Maternity Clinic	False	False	CLMBHNWLLJLTHRMTRNTYCLNC		Colombo	LK-11	6.869636	80.019598	Hanwella	PS-110474	6.900815	80.087496	6.851403	80.025464	Avissawella Rd, Homagama, Sri Lanka	8.782481	
Colombo	Mulleriyawa	MOH Office - Gothatuwa	False	False	CLMBMLLRYWMHFFCGTHTW		Colombo	LK-11	6.869636	80.019598	Mulleriyawa	PS-110469	6.927187	79.929108	6.922088	79.916237	Mandavila Rd, Kotikawatta, Sri Lanka	1.530186	
Colombo	Kottawa	Rukmalgama Community Hall	False	False	CLMBKTTWRKMLGMCMMNTYHLL		Colombo	LK-11	6.869636	80.019598	Kottawa	PS-110471	6.841333	79.963553	6.855958	79.986274	Athurugiriya Rd, Pannipitiya, Sri Lanka	2.990394	
Colombo	Fore shore	MOH Office - Jinthupitiya	False	False	CLMBFRSHRMHFFCJNTHPTY		Colombo	LK-11	6.869636	80.019598	Fore shore	PS-110210	6.949589	79.857355	6.943258	79.859238	No.27 Vivekananda Hill, Colombo 01300, Sri Lanka	0.734247	
Colombo	Padukka	MOH Office - Padukka	False	False	CLMBPDKKMHFFCPDKK		Colombo	LK-11	6.869636	80.019598	Padukka	PS-110473	6.842195	80.09247	6.840164	80.093288	Galagedera - Horana Rd, Padukka, Sri Lanka	0.243301	
Colombo	Avissawella	Avissawella Hospital	False	False	CLMBVSSWLLVSSWLLHSPTL		Colombo	LK-11	6.869636	80.019598	Awissawella	PS-920226	6.947538	80.215422	6.957085	80.207381	Avissawella Rd, Avissawella, Sri Lanka	1.384155	
Colombo	Avissawella	Kiriwandala Tamil College	False	False	CLMBVSSWLLKRWNDLTMLCLLG		Colombo	LK-11	6.869636	80.019598	Awissawella	PS-920226	6.947538	80.215422	6.956526	80.204418	43 Kudagama Road, Avissawella, Sri Lanka	1.573413	
Colombo	Kosgama	Kosgama Hospital	False	False	CLMBKSGMKSGMHSPTL		Colombo	LK-11	6.869636	80.019598	Kosgama	PS-920227	6.946597	80.137869	6.940956	80.124888	Salawa-Akarawita, 10730, Sri Lanka	1.564606	
Gampaha	Minuwangoda	MOH Office - Minuwangoda	False	False	GMPHMNWNGDMHFFCMNWNGD		Gampaha	LK-12	7.123598	80.018508	Minuwangoda	PS-120238	7.174215	79.957874	7.17227	79.956823	Katunayake-Veyangoda Rd, Minuwangoda, Sri Lanka	0.245525	
Gampaha	Minuwangoda	Nedamuwa Viharaya	False	False	GMPHMNWNGDNDMWVHRY		Gampaha	LK-12	7.123598	80.018508	Minuwangoda	PS-120238	7.174215	79.957874	7.137078	80.051222	Dadagamuwa Rd, Veyangoda, Sri Lanka	11.099487	
Gampaha	Minuwangoda	Maligodella Uththarama Viharaya	False	False	GMPHMNWNGDMLGDLLTHTHRMVHRY		Gampaha	LK-12	7.123598	80.018508	Minuwangoda	PS-120238	7.174215	79.957874	7.129332	79.982812	Pathaha Road, උඩුගම්පළ 11030, Sri Lanka	5.70073	
Gampaha	Minuwangoda	Divisional Hospital - Minuwangoda	False	False	GMPHMNWNGDDVSNLHSPTLMNWNGD		Gampaha	LK-12	7.123598	80.018508	Minuwangoda	PS-120238	7.174215	79.957874	7.172257	79.956152	Veyangoda Rd, Minuwangoda 11550, Sri Lanka	0.289044	
Gampaha	Katana	MOH Office - Katana	False	False	GMPHKTNMHFFCKTN		Gampaha	LK-12	7.123598	80.018508	Katana	PS-120360	7.224796	79.880015	7.22436	79.88271	Katana, Negombo - Mirigama Rd, Negombo, Sri Lanka	0.301313	
Gampaha	Katana	St. Joseph's Primary College - Kandawala	False	False	GMPHKTNSTJSPHSPRMRYCLLGKNDWL		Gampaha	LK-12	7.123598	80.018508	Katana	PS-120360	7.224796	79.880015	7.237244	79.882536	Negombo, Sri Lanka	1.412257	
Gampaha	Nittambuwa	Ranpokunagama Maha Vidyalaya	False	False	GMPHNTTMBWRNPKNGMMHVDYLY		Gampaha	LK-12	7.123598	80.018508	Nittambuwa	PS-120246	7.149726	80.10046	7.132516	80.106428	44M4+2H3, Nittambuwa, Sri Lanka	2.024416	
Gampaha	Weeragula	Weeragula Primary School	False	False	GMPHWRGLWRGLPRMRYSCHL		Gampaha	LK-12	7.123598	80.018508	Weeragula	PS-120243	7.097156	80.060399					#CenterLocationUnknown
Gampaha	Veyangoda	Dadagamuwa Viharaya	False	False	GMPHVYNGDDDGMWVHRY		Gampaha	LK-12	7.123598	80.018508	Weyangoda	PS-120247	7.144053	80.095511	7.137078	80.051222	Dadagamuwa Rd, Veyangoda, Sri Lanka	4.949237	
Gampaha	Veyangoda	Wadurawa Viharaya	False	False	GMPHVYNGDWDRWVHRY		Gampaha	LK-12	7.123598	80.018508	Weyangoda	PS-120247	7.144053	80.095511	7.137014	80.051457	43P2+RH4, Veyangoda, Sri Lanka	4.924751	
Gampaha	Pallewela	Pallewela Central Dispensary	False	False	GMPHPLLWLPLLWLCNTRLDSPNSRY		Gampaha	LK-12	7.123598	80.018508	Pallewela	PS-120249	7.197365	80.094856	7.19666	80.093998	Pallewela, Sri Lanka	0.12294	
Gampaha	Mirigama	Kirimetiulla Viharaya	False	False	GMPHMRGMKRMTLLVHRY		Gampaha	LK-12	7.123598	80.018508	Meerigama	PS-120248	7.245169	80.128647	7.254858	80.138998	Purana Mirigama - Bothale Road, Mirigama, Sri Lanka	1.570325	
Gampaha	Gampaha	MOH Office - Gampaha	False	False	GMPHGMPHMHFFCGMPH		Gampaha	LK-12	7.123598	80.018508	Gampaha	PS-120237	7.087765	80.01228	7.090643	80.002094	Colombo Rd, Gampaha, Sri Lanka	1.16901	
Gampaha	Yakkala	Yakkala Abesekararamaya	False	False	GMPHYKKLYKKLBSKRRMY		Gampaha	LK-12	7.123598	80.018508	Yakkala	PS-120250	7.076621	80.020655	7.081872	80.030989	83 Colombo - Kandy Rd, Gampaha, Sri Lanka	1.281523	
Gampaha	Pugoda	MOH Office - Dompe	False	False	GMPHPGDMHFFCDMP		Gampaha	LK-12	7.123598	80.018508	Pugoda	PS-120241	6.98283	80.111189	6.976767	80.117422	Dompe, Pugoda-Mandawala Rd, Pugoda, Sri Lanka	0.963513	
Gampaha	Kirindiwela	Radawana Hospital	False	False	GMPHKRNDWLRDWNHSPTL		Gampaha	LK-12	7.123598	80.018508	Kirindiwela	PS-120239	7.043011	80.120449	7.032499	80.100222	24J2+X3X, Radawana, Sri Lanka	2.520508	
Gampaha	Pamunugama	Pamunugama Hospital	False	False	GMPHPMNGMPMNGMHSPTL		Gampaha	LK-12	7.123598	80.018508	Pamunugama	PS-120353	7.078892	79.859696	7.093543	79.850191	3VV2+C38, Negombo, Sri Lanka	1.938152	
Gampaha	Pamunugama	Uswetakeiyawa Dispensary	False	False	GMPHPMNGMSWTKYWDSPNSRY		Gampaha	LK-12	7.123598	80.018508	Pamunugama	PS-120353	7.078892	79.859696	6.980847	79.929943	XWJH+8XP, Kiribathgoda, Sri Lanka	13.381623	
Gampaha	Negombo	Town Hall - Negombo	False	False	GMPHNGMBTWNHLLNGMB		Gampaha	LK-12	7.123598	80.018508	Negombo	PS-120351	7.224796	79.880015	7.206667	79.851863	Negombo, Sri Lanka	3.703623	
Gampaha	Kochchikade	Al Falal Muslim College	False	False	GMPHKCHCHKDLFLLMSLMCLLG		Gampaha	LK-12	7.123598	80.018508	Kochchikade	PS-120352	7.265049	79.857026	7.259185	79.845987	Thakkiya Rd, Poruthota, Negombo, Sri Lanka	1.381664	
Gampaha	Seeduwa	MOH Office - Seeduwa	False	False	GMPHSDWMHFFCSDW		Gampaha	LK-12	7.123598	80.018508	Seeduwa	PS-120356	7.128721	79.877371	7.131527	79.879964	24 Kotugoda Rd, Katunayake 11410, Sri Lanka	0.423459	
Gampaha	Seeduwa	Udhammita Sri Uttararama Viharaya	False	False	GMPHSDWDHMMTSRTTRRMVHRY		Gampaha	LK-12	7.123598	80.018508	Seeduwa	PS-120356	7.128721	79.877371	7.129166	79.900498	4WH2+M59, Seeduwa, Sri Lanka	2.553006	
Gampaha	Divulapitiya	MOH Office - Divulapitiya	False	False	GMPHDVLPTYMHFFCDVLPTY		Gampaha	LK-12	7.123598	80.018508	Diulapitiya	PS-120355	7.174215	79.957874	7.215486	80.013606	6287+5CX, Divulapitiya, Sri Lanka	7.67456	
Gampaha	Divulapitiya	Gnanodaya Maha Vidyalaya	False	False	GMPHDVLPTYGNNDYMHVDYLY		Gampaha	LK-12	7.123598	80.018508	Diulapitiya	PS-120355	7.174215	79.957874	7.222331	80.019709	62C9+WVP, Divulapitiya 11250, Sri Lanka	8.672135	
Gampaha	Ja Ela	MOH Office - Ja Ela	False	False	GMPHJLMHFFCJL		Gampaha	LK-12	7.123598	80.018508	Ja - Ela	PS-120133	7.081055	79.890504	7.075216	79.893879	60 Mount Kalvary Rd, Ja-Ela, Sri Lanka	0.748731	
Gampaha	Wattala	MOH Office - Wattala	False	False	GMPHWTTLMHFFCWTTL		Gampaha	LK-12	7.123598	80.018508	Wattala	PS-120128	6.993713	79.894506	6.995817	79.885793	301 Hendala Rd, Wattala, Sri Lanka	0.989991	
Gampaha	Ragama	MOH Office - Ragama	False	False	GMPHRGMMHFFCRGM		Gampaha	LK-12	7.123598	80.018508	Ragama	PS-120134	7.034975	79.924148	7.027386	79.920232	2WGC+X35, Ragama, Sri Lanka	0.948382	
Gampaha	Sapugaskanda	Makola Purana Viharaya	False	False	GMPHSPGSKNDMKLPRNVHRY		Gampaha	LK-12	7.123598	80.018508	Sapugaskanda	PS-120130	6.970586	79.953588	6.974278	79.953894	Makola Rd, Gonawala, Sri Lanka	0.412048	
Gampaha	Biyagama	MOH Office - Biyagama	False	False	GMPHBYGMMHFFCBYGM		Gampaha	LK-12	7.123598	80.018508	Biyagama	PS-120131	6.962284	80.009037	6.946824	79.994052	Hospital Rd, Sri Lanka	2.386313	
Gampaha	Peliyagoda	Manelgama Clinic	False	False	GMPHPLYGDMNLGMCLNC		Gampaha	LK-12	7.123598	80.018508	Peliyagoda	PS-120125	6.955193	79.88612	6.958398	79.908068	318 Waragoda Rd, Peliyagoda 11600, Sri Lanka	2.449381	
Kalutara	Ingiriya	Ingiriya Hospital	False	False	KLTRNGRYNGRYHSPTL		Kalutara	LK-13	6.577316	80.127363	Ingiriya	PS-130193	6.743614	80.175077	6.741133	80.162046	Panadura-Nambapana-Ratnapura Hwy, Ingiriya, Sri Lanka	1.465626	
Kalutara	Ingiriya	Gamini Central College	False	False	KLTRNGRYGMNCNTRLCLLG		Kalutara	LK-13	6.577316	80.127363	Ingiriya	PS-130193	6.743614	80.175077	6.744647	80.17251	A8, Ingiriya, Sri Lanka	0.305947	
Kalutara	Anguruwatota	MOH Office - Madurawala	False	False	KLTRNGRWTTMHFFCMDRWL		Kalutara	LK-13	6.577316	80.127363	Anguruwatota	PS-130190	6.654997	80.058183	6.654814	80.057811	M335+W4F, Keselhenawa, Sri Lanka	0.045863	
Kalutara	Anguruwatota	Warakagoda Gallen Rajamaha Viharaya	False	False	KLTRNGRWTTWRKGDGLLNRJMHVHRY		Kalutara	LK-13	6.577316	80.127363	Anguruwatota	PS-130190	6.654997	80.058183	6.624749	80.108135	Warakagoda, Sri Lanka	6.463576	
Kalutara	Horana	Base Hospital - Horana	False	False	KLTRHRNBSHSPTLHRN		Kalutara	LK-13	6.577316	80.127363	Horana	PS-130192	6.714613	80.069091	6.710644	80.066589	Hospital Ln, Horana, Sri Lanka	0.520853	
Kalutara	Horana	Prajapathi Girls' College	False	False	KLTRHRNPRJPTHGRLSCLLG		Kalutara	LK-13	6.577316	80.127363	Horana	PS-130192	6.714613	80.069091	6.715765	80.080331	Dikhenapura Road, Horana, Sri Lanka	1.248241	
Kalutara	Thebuwana	Divisional Hospital - Neboda	False	False	KLTRTHBWNDVSNLHSPTLNBD		Kalutara	LK-13	6.577316	80.127363	Thebuwana	PS-1302105	6.654997	80.058183	6.570354	80.073048	wellatha Neboda ., Neboda - Wellatha Rd, Sri Lanka	9.557015	
Kalutara	Dodangoda	MOH Office - Dodangoda	False	False	KLTRDDNGDMHFFCDDNGD	6.540366199937832,80.03661033076219	Kalutara	LK-13	6.577316	80.127363	Dodangoda	PS-130299	6.553375	80.023569	6.541731	80.04335	Dodangoda, Sri Lanka	2.540775	
Kalutara	Matugama	Iddagoda Primary School	False	False	KLTRMTGMDDGDPRMRYSCHL		Kalutara	LK-13	6.577316	80.127363	Mathugama	PS-1302103	6.520881	80.117908	6.168525	80.263059	5797+C67, Galle, Sri Lanka	42.350121	#CenterFarFromPolice
Kalutara	Matugama	Yatadola Ground	False	False	KLTRMTGMYTDLGRND		Kalutara	LK-13	6.577316	80.127363	Mathugama	PS-1302103	6.520881	80.117908	6.520349	80.069504	430 Kalutara-Matugama Rd, Matugama, Sri Lanka	5.349468	
Kalutara	Matugama	Weththewa Hospital	False	False	KLTRMTGMWTHTHWHSPTL		Kalutara	LK-13	6.577316	80.127363	Mathugama	PS-1302103	6.520881	80.117908	6.523087	80.125192	District Hospital, Hospital Road,Weththewa,., Matugama, Sri Lanka	0.841523	
Kalutara	Matugama	Katugahahena Hospital	False	False	KLTRMTGMKTGHHNHSPTL		Kalutara	LK-13	6.577316	80.127363	Mathugama	PS-1302103	6.520881	80.117908	6.489328	80.08471	F3QM+PVP, Bopitiya, Sri Lanka	5.077192	
Kalutara	Agalawatta	Omaththa Colony Vidyalaya	False	False	KLTRGLWTTMTHTHCLNYVDYLY		Kalutara	LK-13	6.577316	80.127363	Agalawatta		6.542566	80.157178	6.549364	80.165137	Pimbura Tamil Primary School, Omaththa Road, Agalawatta, #12200, Sri Lanka	1.159862	
Kalutara	Agalawatta	Pimbura Hospital	False	False	KLTRGLWTTPMBRHSPTL		Kalutara	LK-13	6.577316	80.127363	Agalawatta		6.542566	80.157178	6.575949	80.158371	H5G5+98H, කළුතර, Sri Lanka	3.715525	
Kalutara	Bulathsinhala	Bulathsinhala Auditorium	False	False	KLTRBLTHSNHLBLTHSNHLDTRM		Kalutara	LK-13	6.577316	80.127363	Bulathsinhala	PS-1302104	6.650425	80.17703	6.648747	80.179137	Bulathsinhala, Sri Lanka	0.29837	
Kalutara	Meegahathenna	Pelawatta Viharaya	False	False	KLTRMGHTHNNPLWTTVHRY		Kalutara	LK-13	6.577316	80.127363	Meegahathenna	PS-1302107	6.436941	80.1943	6.406859	80.221222	Pelawatta-Baduraliya Rd, Pelawatta, Sri Lanka	4.477817	
Kalutara	Welipenna	Idigasthuduwa Primary School	False	False	KLTRWLPNNDGSTHDWPRMRYSCHL		Kalutara	LK-13	6.577316	80.127363	Welipanna	PS-1302101	6.467428	80.108313	6.47167	80.144726	F4CV+MV9, Kalutara, Sri Lanka	4.051985	
Kalutara	Welipenna	Leuwanduwa Primary School	False	False	KLTRWLPNNLWNDWPRMRYSCHL		Kalutara	LK-13	6.577316	80.127363	Welipanna	PS-1302101	6.467428	80.108313	6.455129	80.097518	Aluthgama - Mathugama Rd, Beruwala, Sri Lanka	1.8152	
Kalutara	Welipenna	Rahumaniya Maha Vidyalaya	False	False	KLTRWLPNNRHMNYMHVDYLY		Kalutara	LK-13	6.577316	80.127363	Welipanna	PS-1302101	6.467428	80.108313	6.465024	80.101427	Aluthgama - Mathugama Rd, Welipenna, Sri Lanka	0.806664	
Kalutara	Aluthgama	Aluthgama Primary School	False	False	KLTRLTHGMLTHGMPRMRYSCHL		Kalutara	LK-13	6.577316	80.127363	Aluthgama	PS-1302100	6.432842	79.998032	6.433072	79.9964	CXMW+6HC, Aluthgama, Sri Lanka	0.182189	
Kalutara	Aluthgama	Ambagaha Handiya Muslim Ladies' College	False	False	KLTRLTHGMMBGHHNDYMSLMLDSCLLG		Kalutara	LK-13	6.577316	80.127363	Aluthgama	PS-1302100	6.432842	79.998032	6.570208	79.967006	HXC8+3RJ, Kalutara, Sri Lanka	15.659205	
Kalutara	Katutara South	Gamagoda Maha Vidyalaya	False	False	KLTRKTTRSTHGMGDMHVDYLY		Kalutara	LK-13	6.577316	80.127363	Kalutara South	PS-130296	6.58486	79.961043	6.57428	79.964787	HXF7+PW7, Kalutara, Sri Lanka	1.247411	
Kalutara	Katutara South	Serupita Viharaya	False	False	KLTRKTTRSTHSRPTVHRY		Kalutara	LK-13	6.577316	80.127363	Kalutara South	PS-130296	6.58486	79.961043	6.613406	80.011758	Serupita Janapadaya Bolossagama, 12008, Sri Lanka	6.440694	
Kalutara	Wadduwa	Dharmapala Vidyalaya	False	False	KLTRWDDWDHRMPLVDYLY		Kalutara	LK-13	6.577316	80.127363	Wadduwa	PS-130188	6.664403	79.929851	6.668381	79.930516	MW9J+962, Wadduwa, Sri Lanka	0.44853	
Kalutara	Millaniya	MOH Office - Millaniya	False	False	KLTRMLLNYMHFFCMLLNY		Kalutara	LK-13	6.577316	80.127363	Millaniya	PS-130191	6.681692	80.020847	6.724224	79.907284	A2, Panadura, Sri Lanka	13.407612	
Kalutara	Millaniya	Arakagoda Viharaya	False	False	KLTRMLLNYRKGDVHRY		Kalutara	LK-13	6.577316	80.127363	Millaniya	PS-130191	6.681692	80.020847	6.616889	80.102376	Warakagoda, Sri Lanka	11.536462	
Kalutara	Baduraliya	Baduraliya Hospital	False	False	KLTRBDRLYBDRLYHSPTL		Kalutara	LK-13	6.577316	80.127363	Baduraliya	PS-1302106	6.516756	80.226716	6.514727	80.232731	Tiruwanaketiya-Agalawatte Rd, Baduraliya, Sri Lanka	0.702098	
Kalutara	Baduraliya	Kamburawala Maha Vidyalaya	False	False	KLTRBDRLYKMBRWLMHVDYLY		Kalutara	LK-13	6.577316	80.127363	Baduraliya	PS-1302106	6.516756	80.226716	6.519843	80.222665	Tiruwanaketiya-Agalawatte Rd, Lathpandura, Sri Lanka	0.564128	
Kalutara	Beruwala	DS Senanayaka Vidyalaya	False	False	KLTRBRWLDSSNNYKVDYLY		Kalutara	LK-13	6.577316	80.127363	Beruwala	PS-1302102	6.480329	79.983498	6.468742	79.986711	kiranthidiya Road, Massala, Beruwala., Beruwala, Sri Lanka	1.336845	
Kalutara	Bandragama	Maithri Hall - Bandaragama	False	False	KLTRBNDRGMMTHRHLLBNDRGM		Kalutara	LK-13	6.577316	80.127363	Bandaragama	PS-130189	6.715179	79.987674	6.713508	79.990766	PX7R+C82, Bandaragama, Sri Lanka	0.388859	
Kalutara	Bandragama	District Hospital Bandaragama	False	False	KLTRBNDRGMDSTRCTHSPTLBNDRGM		Kalutara	LK-13	6.577316	80.127363	Bandaragama	PS-130189	6.715179	79.987674	6.716162	79.991484	Horana Rd, Bandaragama, Sri Lanka	0.434849	
Kalutara	Bandragama	MOH Office - Bandaragama	False	False	KLTRBNDRGMMHFFCBNDRGM		Kalutara	LK-13	6.577316	80.127363	Bandaragama	PS-130189	6.715179	79.987674	6.713351	79.991671	Library Path, Bandaragama, Sri Lanka	0.486104	
Kalutara	Bandragama	Kidelpitiya Saralankara Vidyalaya	False	False	KLTRBNDRGMKDLPTYSRLNKRVDYLY		Kalutara	LK-13	6.577316	80.127363	Bandaragama	PS-130189	6.715179	79.987674	6.748894	79.971239	PXXC+HF5, Welmilla, Sri Lanka	4.166442	
Kalutara	Akbomulla	Pinwala Clinic	False	False	KLTRKBMLLPNWLCLNC		Kalutara	LK-13	6.577316	80.127363									#PoliceLocationUnknown
Kalutara	Akbomulla	Madupitiya Sanasa Hall	False	False	KLTRKBMLLMDPTYSNSHLL		Kalutara	LK-13	6.577316	80.127363									#PoliceLocationUnknown
Kalutara	Panadura South	Mahanama Vidyalaya	False	False	KLTRPNDRSTHMHNMVDYLY		Kalutara	LK-13	6.577316	80.127363	Panadura South	PS-130186	6.720941	79.907315	6.725866	79.907901	PWG5+85R, Panadura, Sri Lanka	0.551618	
Kalutara	Panadura South	Sumanagala Boy's College	False	False	KLTRPNDRSTHSMNGLBYSCLLG		Kalutara	LK-13	6.577316	80.127363	Panadura South	PS-130186	6.720941	79.907315	6.710155	79.914215	Sri Sumangala College, Panadura 12500, Sri Lanka	1.421379	
Kalutara	Panadura South	Al Fhaire Vidyalaya	False	False	KLTRPNDRSTHLFHRVDYLY		Kalutara	LK-13	6.577316	80.127363	Panadura South	PS-130186	6.720941	79.907315	6.704974	79.910525	PW36+X6J, Panadura, Sri Lanka	1.811061	
Kurunegala	Kurunegala	Mobile Medical Team	False	False	KRNGLKRNGLMBLMDCLTM		Kurunegala	LK-61	7.66477	80.23677	Kurunegala	PS-610101	7.485852	80.364137					#CenterLocationUnknown
Kurunegala	Kurunegala	Mahiella Clinic	False	False	KRNGLKRNGLMHLLCLNC		Kurunegala	LK-61	7.66477	80.23677	Kurunegala	PS-610101	7.485852	80.364137	7.479122	80.359115	No. 176, Ambepussa - Trincomalee Hwy, Kurunegala 60000, Sri Lanka	0.931185	
Kurunegala	Rasnayakapura	Kadigawa Clinic	False	False	KRNGLRSNYKPRKDGWCLNC		Kurunegala	LK-61	7.66477	80.23677	Rasnayakapura	PS-610323	7.776658	80.012692	7.775358	80.021998	Q2GC+4QX, Puttalam, Sri Lanka	1.03573	
Kurunegala	Rasnayakapura	Niraliyadda Vidyalaya	False	False	KRNGLRSNYKPRNRLYDDVDYLY		Kurunegala	LK-61	7.66477	80.23677	Rasnayakapura	PS-610323	7.776658	80.012692	7.775358	80.021998	Q2GC+4QX, Puttalam, Sri Lanka	1.03573	
Kurunegala	Nikaweratiya	Nikaweratiya Fair Premises	False	False	KRNGLNKWRTYNKWRTYFRPRMSS		Kurunegala	LK-61	7.66477	80.23677	Nikaweratiya	PS-610320	7.742612	80.121177	7.746386	80.131693	Nikaweratiya, Sri Lanka	1.232701	
Kurunegala	Polpithigama	Polpithigama National College	False	False	KRNGLPLPTHGMPLPTHGMNTNLCLLG		Kurunegala	LK-61	7.66477	80.23677	Polpithigama	PS-610326	7.835529	80.400637	7.816111	80.404981	Polpithigama, Sri Lanka	2.212269	
Kurunegala	Pansiyagama	Pansiyagama Maha Vidyalaya	False	False	KRNGLPNSYGMPNSYGMMHVDYLY		Kurunegala	LK-61	7.66477	80.23677	Pansiyagama		7.746874	80.482945	7.735635	80.497621	Pansiyagama Junction, Polgahangoda, Sri Lanka	2.044307	
Kurunegala	Meegalewa	Meegalewa Hospital	False	False	KRNGLMGLWMGLWHSPTL		Kurunegala	LK-61	7.66477	80.23677	Meegalewa	PS-610328	8.056704	80.356163	8.057144	80.355761	3944+V82, Meegalewa, Sri Lanka	0.065995	
Kurunegala	Alawwa	Galdeniya Viharaya	False	False	KRNGLLWWGLDNYVHRY		Kurunegala	LK-61	7.66477	80.23677	Alawwa	PS-610103	7.295909	80.24277	7.438066	80.209025	Kurunegala-Narammala-Madampe Rd, Narammala, Sri Lanka	16.24436	
Puttalam	Chilaw	Nasriya Muslim Vidyalaya	False	False	PTTLMCHLWNSRYMSLMVDYLY		Puttalam	LK-62	7.973531	79.913833	Chilaw	PS-620241	7.576197	79.788003	7.580259	79.795395	HQJW+452, Chilaw, Sri Lanka	0.931982	
Puttalam	Chilaw	Kanjukkuliya St. Benedict's College	False	False	PTTLMCHLWKNJKKLYSTBNDCTSCLLG		Puttalam	LK-62	7.973531	79.913833	Chilaw	PS-620241	7.576197	79.788003	7.580948	79.847101	Chilaw - Wariyapola Rd, Chilaw, Sri Lanka	6.537545	
Puttalam	Madampe	Galmuruwaherath Gunarathna Vidyalaya	False	False	PTTLMMDMPGLMRWHRTHGNRTHNVDYLY		Puttalam	LK-62	7.973531	79.913833	Madampe	PS-620242	7.49496	79.840268	7.496326	79.856808	Kurunegala-Narammala-Madampe Rd, Madampe, Sri Lanka	1.830338	
Puttalam	Wennappuwa	Thaldeka Vidyalaya	False	False	PTTLMWNNPPWTHLDKVDYLY		Puttalam	LK-62	7.973531	79.913833	Wennappuwa	PS-620245	7.339623	79.843017	7.324223	79.834059	8RFM+MJM, Nainamadama, Sri Lanka	1.977519	
Puttalam	Wennappuwa	Matinda Poras Vidyalaya	False	False	PTTLMWNNPPWMTNDPRSVDYLY		Puttalam	LK-62	7.973531	79.913833	Wennappuwa	PS-620245	7.339623	79.843017	7.349304	79.835277	Wennappuwa, Sri Lanka	1.374264	
Puttalam	Wennappuwa	St. Odalia College - Kammala	False	False	PTTLMWNNPPWSTDLCLLGKMML		Puttalam	LK-62	7.973531	79.913833	Wennappuwa	PS-620245	7.339623	79.843017	7.295031	79.846959	Kammala Rd, Kammala, Sri Lanka	4.97899	
Puttalam	Dankotuwa	Katukenda Sangabodhi Vidyalaya	False	False	PTTLMDNKTWKTKNDSNGBDHVDYLY		Puttalam	LK-62	7.973531	79.913833	Dankotuwa	PS-620246	7.300337	79.882595	7.306792	79.885598	Katukenda Cemetery, Dankotuwa, Sri Lanka	0.790744	
Puttalam	Dankotuwa	Dankotuwa Balika Vidyalaya	False	False	PTTLMDNKTWDNKTWBLKVDYLY		Puttalam	LK-62	7.973531	79.913833	Dankotuwa	PS-620246	7.300337	79.882595	7.29238	79.878239	Toppuwa - Madampe Rd, Dankotuwa, Sri Lanka	1.007122	
Puttalam	Koswatta	Kirimatiyana Buddhist Girls' College	False	False	PTTLMKSWTTKRMTYNBDDHSTGRLSCLLG		Puttalam	LK-62	7.973531	79.913833	Koswatta	PS-620244	7.374528	79.898302	7.353453	79.886032	Kirimatiyana Junction, Sri Lanka	2.706876	
Puttalam	Koswatta	Haldaduvana Roman Catholic College	False	False	PTTLMKSWTTHLDDVNRMNCTHLCCLLG		Puttalam	LK-62	7.973531	79.913833	Koswatta	PS-620244	7.374528	79.898302	7.325021	79.892936	Wilpattu Sanctuary Rd, Sri Lanka	5.538381	
Puttalam	Koswatta	Naravila Vidyalaya	False	False	PTTLMKSWTTNRVLVDYLY		Puttalam	LK-62	7.973531	79.913833	Koswatta	PS-620244	7.374528	79.898302	7.392955	79.901232	Koswatta Rd, Sri Lanka	2.074848	
Puttalam	Marawila	Maningala Dispensary	False	False	PTTLMMRWLMNNGLDSPNSRY		Puttalam	LK-62	7.973531	79.913833	Marawila	PS-620243	7.415075	79.839776	7.342442	79.89065	267 Toppuwa - Madampe Rd, Sri Lanka	9.836785	
Puttalam	Marawila	Sagaragama Youth Corps	False	False	PTTLMMRWLSGRGMYTHCRPS		Puttalam	LK-62	7.973531	79.913833	Marawila	PS-620243	7.415075	79.839776	7.442342	79.891277	CVRR+WGJ, Puttalam, Sri Lanka	6.439337	
Puttalam	Arachchikattuwa	MOH Office - Arachchikattuwa	False	False	PTTLMRCHCHKTTWMHFFCRCHCHKTTW		Puttalam	LK-62	7.973531	79.913833	Arachchikattuwa	PS-620247	7.65944	79.837772	7.668084	79.835	Puttalam - Colombo Rd, Sri Lanka	1.008862	
Puttalam	Puttalam	St.Andrew's Central College	False	False	PTTLMPTTLMSTNDRWSCNTRLCLLG		Puttalam	LK-62	7.973531	79.913833	Puttalam	PS-620130	8.029904	79.834396	8.031691	79.833526	Anuradhapura Road, Puttalam 61300, Sri Lanka	0.220659	
Puttalam	Pallama	GN - Nandimithrapura	False	False	PTTLMPLLMGNNNDMTHRPR		Puttalam	LK-62	7.973531	79.913833	Pallama	PS-620132	7.691904	79.922555	8.456372	80.047638	Wilpattu National Park, Sri Lanka	86.140177	#CenterFarFromPolice
Puttalam	Pallama	Adigama Next Company	False	False	PTTLMPLLMDGMNXTCMPNY		Puttalam	LK-62	7.973531	79.913833	Pallama	PS-620132	7.691904	79.922555	7.684394	79.925797	Pallama, Sri Lanka	0.908568	
Puttalam	Nawagattegama	Welewewa Sumeda Vidyalaya	False	False	PTTLMNWGTTGMWLWWSMDVDYLY		Puttalam	LK-62	7.973531	79.913833	Nawagaththegama	PS-620133	8.002882	80.106543	8.00654	80.112149	Nawagattegama, Sri Lanka	0.73948	
Puttalam	Anamaduwa	UB Jayasuriya Vidyalaya -Siyambalagashena	False	False	PTTLMNMDWBJYSRYVDYLYSYMBLGSHN		Puttalam	LK-62	7.973531	79.913833	Anamaduwa	PS-620131	7.874852	80.01316	7.87777	80.011116	Anamaduwa, Sri Lanka	0.395049	
Puttalam	Mundalama	Mundalama Hospital	False	False	PTTLMMNDLMMNDLMHSPTL		Puttalam	LK-62	7.973531	79.913833	Mundal	PS-620138	7.808859	79.825729	7.788971	79.827748	Mundel, Puttalam - Colombo Rd, Sri Lanka	2.2233	
Puttalam	Udadumbara	Udadumbara Secondary College	False	False	PTTLMDDMBRDDMBRSCNDRYCLLG		Puttalam	LK-62	7.973531	79.913833	Ududumbara	PS-210358	7.318133	80.8791	7.319822	80.877566	Kandy-Mahiyangane-Padiyatalawa Hwy, Udadumbara, Sri Lanka	0.252854	
Nuwara Eliya	Dayagama	Potmore Tamil College	False	False	NWRLYDYGMPTMRTMLCLLG		Nuwara Eliya	LK-23	6.97423	80.711222	Dayagama	PS-230140	6.854642	80.748918	6.96	80.770172	Gamini College, PBC Hwy, Nuwara Eliya 22200, Sri Lanka	11.951648	
Nuwara Eliya	Nuwara Eliya	Municipal Council - Nuwara Eliya	False	False	NWRLYNWRLYMNCPLCNCLNWRLY		Nuwara Eliya	LK-23	6.97423	80.711222	Nuwaraeliya	PS-230131	6.974148	80.767627	6.97305	80.768352	Old Uda Pussellawa Rd, Nuwara Eliya 22200, Sri Lanka	0.146024	
Nuwara Eliya	Nuwara Eliya	Kudaoya Tamil College	False	False	NWRLYNWRLYKDYTMLCLLG		Nuwara Eliya	LK-23	6.97423	80.711222	Nuwaraeliya	PS-230131	6.974148	80.767627	6.976134	80.768264	Sir Jayathilake Mawatha, Nuwara Eliya 22200, Sri Lanka	0.231828	
Nuwara Eliya	Pudaluoya	DunsinaneTamil College	False	False	NWRLYPDLYDNSNNTMLCLLG		Nuwara Eliya	LK-23	6.97423	80.711222	Pudalu oya	PS-230132	6.907289	79.863819	7.014561	80.667559	Pundaluoya, Sri Lanka	89.539447	#CenterFarFromPolice
Nuwara Eliya	Hanguranketha	Victoria National College -Adhikarigama	False	False	NWRLYHNGRNKTHVCTRNTNLCLLGDHKRGM		Nuwara Eliya	LK-23	6.97423	80.711222	Hanguranketha	PS-210108	7.176511	80.777388	7.219271	80.786858	Adhikarigama, Mahaweli Raja Mawatha, Sri Lanka	4.869645	
Nuwara Eliya	Udupussellawa	Vimaladamma Maha Vidyalaya	False	False	NWRLYDPSSLLWVMLDMMMHVDYLY		Nuwara Eliya	LK-23	6.97423	80.711222	Udupussellawa	PS-230143	6.958254	80.930291	7.059266	80.819658	3R59+PV3, Nuwara Eliya, Sri Lanka	16.595567	
Nuwara Eliya	Matale	St. Thomas College	False	False	NWRLYMTLSTTHMSCLLG		Nuwara Eliya	LK-23	6.97423	80.711222	Matale	PS-220121	7.462789	80.626211	7.470517	80.621246	Kings St, Matale, Sri Lanka	1.019177	
Matale	Yatawatta	Yatawatta	False	False	MTLYTWTTYTWTT		Matale	LK-22	7.667587	80.731008	Yatawatta	PS-220124	7.563527	80.567967	7.563483	80.587679	Yatawatta, Sri Lanka	2.173492	
Badulla	Passara	Passara National College	False	False	BDLLPSSRPSSRNTNLCLLG		Badulla	LK-81	7.074529	81.04486	Passara	PS-810102	6.934481	81.154796	6.940355	81.167392	Peradeniya-Badulla-Chenkaladi Hwy, Passara, Sri Lanka	1.536617	
Badulla	Passara	Bibilegama Hospital	False	False	BDLLPSSRBBLGMHSPTL		Badulla	LK-81	7.074529	81.04486	Passara	PS-810102	6.934481	81.154796	6.895098	81.14174	Bibilegama Rd, Passara, Sri Lanka	4.611693	
Badulla	Passara	Uri Hospital	False	False	BDLLPSSRRHSPTL		Badulla	LK-81	7.074529	81.04486	Passara	PS-810102	6.934481	81.154796	6.933517	81.152592	Demodera - Spring Valley - Badulla Road, Passara, Sri Lanka	0.265888	
Badulla	Passara	Meedumpitiya Hospital	False	False	BDLLPSSRMDMPTYHSPTL		Badulla	LK-81	7.074529	81.04486	Passara	PS-810102	6.934481	81.154796	6.945576	81.190338	Peradeniya-Badulla-Chenkaladi Hwy, Sri Lanka	4.113834	
Badulla	Passara	Kanawerella Hospital	False	False	BDLLPSSRKNWRLLHSPTL		Badulla	LK-81	7.074529	81.04486	Passara	PS-810102	6.934481	81.154796	6.933517	81.152592	Demodera - Spring Valley - Badulla Road, Passara, Sri Lanka	0.265888	
Badulla	Kahataruppa	Kahataruppa Hospital	False	False	BDLLKHTRPPKHTRPPHSPTL		Badulla	LK-81	7.074529	81.04486									#PoliceLocationUnknown
Badulla	Badulla	Base Hospital - Badulla	False	False	BDLLBDLLBSHSPTLBDLL		Badulla	LK-81	7.074529	81.04486	Badulla	PS-810101	6.991337	81.055246	6.991808	81.05235	Daya Gunasekara Mawatha, Badulla, Sri Lanka	0.32399	
Badulla	Haliela	Digalla Community Hall	False	False	BDLLHLLDGLLCMMNTYHLL		Badulla	LK-81	7.074529	81.04486	Haliela	PS-810108	6.958216	81.034447	6.956535	81.035933	No-36 ,Ekanayaka Mw, Egodagama Rd, Hali-ela 90060, Sri Lanka	0.248756	
Badulla	Haliela	Katugaha Viharaya	False	False	BDLLHLLKTGHVHRY		Badulla	LK-81	7.074529	81.04486	Haliela	PS-810108	6.958216	81.034447	6.984143	81.061329	X3M6+MG4, Badulla, Sri Lanka	4.138376	
Badulla	Haliela	Spring Valley Hospital	False	False	BDLLHLLSPRNGVLLYHSPTL		Badulla	LK-81	7.074529	81.04486	Haliela	PS-810108	6.958216	81.034447					#CenterLocationUnknown
Badulla	Haliela	Etampitiya Hospital	False	False	BDLLHLLTMPTYHSPTL		Badulla	LK-81	7.074529	81.04486	Haliela	PS-810108	6.958216	81.034447	6.934746	80.989784	Etampitiya Rd, Sri Lanka	5.579755	
Badulla	Haldummulla	Soragune Maha Vidyalaya	False	False	BDLLHLDMMLLSRGNMHVDYLY		Badulla	LK-81	7.074529	81.04486	Haldummulla		6.762216	80.885856	6.760283	80.880928	Haldummulla, Sri Lanka	0.585213	
Badulla	Haldummulla	Nikapotha Vidyalaya	False	False	BDLLHLDMMLLNKPTHVDYLY		Badulla	LK-81	7.074529	81.04486	Haldummulla		6.762216	80.885856	6.760283	80.880928	Haldummulla, Sri Lanka	0.585213	
Badulla	Welimada	MOH Office - Welimada	False	False	BDLLWLMDMHFFCWLMD		Badulla	LK-81	7.074529	81.04486	Welimada	PS-810212	6.900481	80.905809	6.927934	80.896475	Udapussellawa-Welimada Road, Ambagasdowa, Sri Lanka	3.222841	
Badulla	Ella	Dowa Vidyalaya	False	False	BDLLLLDWVDYLY		Badulla	LK-81	7.074529	81.04486	Ella	PS-810211	6.876609	81.048276	6.855438	81.020216	Dowa Deaf School, Badulla Rd, Sri Lanka	3.891967	
Badulla	Ella	Halpe Vidyalaya	False	False	BDLLLLHLPVDYLY		Badulla	LK-81	7.074529	81.04486	Ella	PS-810211	6.876609	81.048276	6.888923	81.045671	Helahalpe, Bandarawela - Badulla Rd, Bandarawela, Sri Lanka	1.399566	
Badulla	Bandarawela	Liyangahwela Watta	False	False	BDLLBNDRWLLYNGHWLWTT		Badulla	LK-81	7.074529	81.04486	Bandarawela	PS-810210	6.831526	80.986784	6.797392	81.03406	Liyangahawela Watta, Sri Lanka	6.45582	
Badulla	Bandarawela	Bandarawela Central College	False	False	BDLLBNDRWLBNDRWLCNTRLCLLG		Badulla	LK-81	7.074529	81.04486	Bandarawela	PS-810210	6.831526	80.986784	6.831556	81.004977	Bandarawela Central College, Kinigama Rd, Bandarawela 90100, Sri Lanka	2.00924	
Badulla	Bandarawela	Municipal Council - Bandarawela	False	False	BDLLBNDRWLMNCPLCNCLBNDRWL		Badulla	LK-81	7.074529	81.04486	Bandarawela	PS-810210	6.831526	80.986784	6.832052	80.987194	Esplanade Road Beragala-Hali Ela Highway, Bandarawela 90100, Sri Lanka	0.073982	
Badulla	Uva Paranagama	Pannawela Vidyalaya	False	False	BDLLVPRNGMPNNWLVDYLY		Badulla	LK-81	7.074529	81.04486	Uvaparanagama	PS-810213	6.958341	80.930364	6.938908	80.880113	WVQJ+H29, Badulla, Sri Lanka	5.954533	
Badulla	Uva Paranagama	Rahupola Vidyalaya	False	False	BDLLVPRNGMRHPLVDYLY		Badulla	LK-81	7.074529	81.04486	Uvaparanagama	PS-810213	6.958341	80.930364	6.997162	80.820943	B332, Kandapola, Sri Lanka	12.829253	
Badulla	Uva Paranagama	Medipokuna Viharaya	False	False	BDLLVPRNGMMDPKNVHRY		Badulla	LK-81	7.074529	81.04486	Uvaparanagama	PS-810213	6.958341	80.930364	6.953504	80.858534	Sri wijayarama maha viharaya uva paranagama Uduhawara, Welimada 90226, Sri Lanka	7.94906	
Badulla	Uva Paranagama	Ambagasdowa President's College	False	False	BDLLVPRNGMMBGSDWPRSDNTSCLLG		Badulla	LK-81	7.074529	81.04486	Uvaparanagama	PS-810213	6.958341	80.930364	6.926716	80.897318	WVGW+MWP, Ambagasdowa, Sri Lanka	5.068254	
Badulla	Uva Paranagama	Lunuwatta Cultural Centre	False	False	BDLLVPRNGMLNWTTCLTRLCNTR		Badulla	LK-81	7.074529	81.04486	Uvaparanagama	PS-810213	6.958341	80.930364	6.955912	80.927371	Bus Stop, Lunuwatte, Sri Lanka	0.426848	
Badulla	Uva Paranagama	Uduhawara Vidyalaya	False	False	BDLLVPRNGMDHWRVDYLY		Badulla	LK-81	7.074529	81.04486	Uvaparanagama	PS-810213	6.958341	80.930364	6.938908	80.880113	WVQJ+H29, Badulla, Sri Lanka	5.954533	
Monaragala	Siyambalanduwa	Galearawa Primary School	False	False	MNRGLSYMBLNDWGLRWPRMRYSCHL		Moneragala	LK-82	6.787517	81.303744	Siyambalanduwa	PS-820122	6.906851	81.547598	7.00288	81.579297	2H3H+5P3, Siyambalanduwa, Sri Lanka	11.240083	
Monaragala	Athimale	Gemunupura Primary School	False	False	MNRGLTHMLGMNPRPRMRYSCHL		Moneragala	LK-82	6.787517	81.303744	Athimale	PS-820124	6.907289	79.863819	6.824897	81.453991	Ethimale Tank, Sri Lanka	175.844945	#CenterFarFromPolice
Moneragala	Bibila	Pitakumbura Vidyalaya	False	False	MNRGLBBLPTKMBRVDYLY		Moneragala	LK-82	6.787517	81.303744	Bibila	PS-820125	7.165232	81.225463	7.178052	81.291569	57HR+6JG, Pitakumbura, Sri Lanka	7.433488	
Moneragala	Bibila	Kotagama Viharaya	False	False	MNRGLBBLKTGMVHRY		Moneragala	LK-82	6.787517	81.303744	Bibila	PS-820125	7.165232	81.225463	7.132273	81.183688	Bibile - kotagama, Badullagammana Rd, Sri Lanka	5.890373	
Moneragala	Bibila	Wegama Primary School	False	False	MNRGLBBLWGMPRMRYSCHL		Moneragala	LK-82	6.787517	81.303744	Bibila	PS-820125	7.165232	81.225463	7.162409	81.22159	Bibile, Sri Lanka	0.530371	
Galle	Akmeemana	Kalahe Sumangala Vidyalaya	False	False	GLLKMMNKLHSMNGLVDYLY		Galle	LK-31	6.222805	80.251977	Akmeemana	PS-310123	6.073453	80.276627	6.035026	80.267679	kalahe,Wanchawala., Sri Lanka	4.387323	
Galle	Ahangama	Ahangama Sariputhra Vidyalaya	False	False	GLLHNGMHNGMSRPTHRVDYLY		Galle	LK-31	6.222805	80.251977	Ahangama	PS-310128	5.972267	80.365256	5.97385	80.360747	A2, Ahangama, Sri Lanka	0.528977	
Galle	Kosgoda	Induruwa Thekkawatta Viharaya	False	False	GLLKSGDNDRWTHKKWTTVHRY		Galle	LK-31	6.222805	80.251977	Kosgoda	PS-310245	6.335782	80.030182	6.354118	80.018341	No. 13/A, Galle Road, Mahapalena, Kosgoda 80570, Sri Lanka	2.423447	
Galle	Nagoda	Udalamaththa Vidyalaya	False	False	GLLNGDDLMTHTHVDYLY		Galle	LK-31	6.222805	80.251977	Nagoda	PS-310130	6.197616	80.274707	6.183593	80.298251	Udalamaththa, Galle, Sri Lanka	3.034945	
Galle	Yakkalamulla	Polpagoda Sandun Viharaya	False	False	GLLYKKLMLLPLPGDSNDNVHRY		Galle	LK-31	6.222805	80.251977	Yakkalamulla	PS-310125	6.106186	80.348152	6.091295	80.358905	Polpagoda, Yakkalamulla, Sri Lanka	2.03907	
Galle	Neluwa	Lankagama Primary Vidyalaya	False	False	GLLNLWLNKGMPRMRYVDYLY		Galle	LK-31	6.222805	80.251977	Neluwa	PS-310132	6.379651	80.358956	6.37678	80.358703	B411, Neluwa, Sri Lanka	0.320563	
Galle	Ahungalla	Bodhirukkarama Viharaya	False	False	GLLHNGLLBDHRKKRMVHRY		Galle	LK-31	6.222805	80.251977	Ahungalla	PS-310244	6.299873	80.03856	6.314011	80.037696	Station Rd, Ahungalla, Sri Lanka	1.575466	
Galle	Elpitiya	Ananda Vidyalaya Rupa Karunatilake Hall	False	False	GLLLPTYNNDVDYLYRPKRNTLKHLL		Galle	LK-31	6.222805	80.251977	Elpitiya	PS-310235	6.279163	80.142917	6.06409	80.209473	3675+JQQ, Galle 80000, Sri Lanka	25.029158	#CenterFarFromPolice
Galle	Elpitiya	Pituwala Primary School	False	False	GLLLPTYPTWLPRMRYSCHL		Galle	LK-31	6.222805	80.251977	Elpitiya	PS-310235	6.279163	80.142917					#CenterLocationUnknown
Galle	Baddegama	Baddegama Hospital	False	False	GLLBDDGMBDDGMHSPTL		Galle	LK-31	6.222805	80.251977	Baddegama	PS-310239	6.172566	80.174966	6.16299	80.179593	B128, Baddegama 80200, Sri Lanka	1.181666	
Galle	Baddegama	National Vocational Training Institute	False	False	GLLBDDGMNTNLVCTNLTRNNGNSTTT		Galle	LK-31	6.222805	80.251977	Baddegama	PS-310239	6.172566	80.174966	6.163263	80.1754	Gothatuwa Road, Baddegama, Sri Lanka	1.035884	
Galle	Karandeniya	Karandeniya Samaraweera Ground	False	False	GLLKRNDNYKRNDNYSMRWRGRND		Galle	LK-31	6.222805	80.251977	Karandeniya	PS-310238	6.271732	80.08479	6.269634	80.10128	Borakanda, Karandeniya, Karandeniya, Sri Lanka	1.83808	
Galle	Uragasmanhandiya	JD Dharamapala Vidyalaya	False	False	GLLRGSMNHNDYJDDHRMPLVDYLY		Galle	LK-31	6.222805	80.251977	Uragasmanhandiya	PS-310236	6.343756	80.080679	6.205407	80.12249	644C+5X9, Galle, Sri Lanka	16.067782	
Galle	Pitigala	Niyagama Wijitha Maha Vidyalaya	False	False	GLLPTGLNYGMWJTHMHVDYLY		Galle	LK-31	6.222805	80.251977	Pitigala	PS-310237	6.335202	80.221149	6.233788	80.262608	Niyagama, Yakkatuwa-Kahaduwa Road, Sri Lanka	12.17601	
Galle	Ambalanagoda	Dharmashoka Vidyalaya	False	False	GLLMBLNGDDHRMSHKVDYLY		Galle	LK-31	6.222805	80.251977	Ambalangoda	PS-310243	6.244958	80.047598	6.24063	80.054715	A2, Ambalangoda, Sri Lanka	0.922499	
Matara	Dickwella	Muruthagaspitiya Maha Vidyalaya	False	False	MTRDCKWLLMRTHGSPTYMHVDYLY		Matara	LK-32	6.142734	80.539994	Dikwella	PS-320103	5.964296	80.693198	5.97916	80.699701	XMHX+MV8, Dikwella, Sri Lanka	1.803055	
Matara	Dickwella	Dodampahala Hunukoratuwa Community Hall	False	False	MTRDCKWLLDDMPHLHNKRTWCMMNTYHLL		Matara	LK-32	6.142734	80.539994	Dikwella	PS-320103	5.964296	80.693198	5.971676	80.695104	Dikwella, Sri Lanka	0.847524	
Matara	Matara	Uyanwatta Ground	False	False	MTRMTRYNWTTGRND		Matara	LK-32	6.142734	80.539994	Matara	PS-320101	5.94904	80.533659	5.949299	80.549097	WGXX+PJ9, Matara, Sri Lanka	1.708161	
Matara	Matara	Mahinda Rajapaksha Vidyalaya	False	False	MTRMTRMHNDRJPKSHVDYLY		Matara	LK-32	6.142734	80.539994	Matara	PS-320101	5.94904	80.533659	5.935086	80.581296	Sarasavi Uyana, දෙවුන්දර 81160, Sri Lanka	5.493986	
Matara	Matara	Rahula Vidyalaya	False	False	MTRMTRRHLVDYLY		Matara	LK-32	6.142734	80.539994	Matara	PS-320101	5.94904	80.533659	5.953041	80.535295	Akuressa Rd, Matara 81000, Sri Lanka	0.480427	
Matara	Matara	Wanigasekara Kanitu Vidyalaya	False	False	MTRMTRWNGSKRKNTVDYLY		Matara	LK-32	6.142734	80.539994	Matara	PS-320101	5.94904	80.533659	5.957956	80.512045	Wanigasekara vidyalaya, Kotikagoda Raja Maha Vihara Mw, Matara, Sri Lanka	2.588656	
Matara	Matara	Wewahamanduwa Maha Vidyalaya	False	False	MTRMTRWWHMNDWMHVDYLY		Matara	LK-32	6.142734	80.539994	Matara	PS-320101	5.94904	80.533659	5.957956	80.512045	Wanigasekara vidyalaya, Kotikagoda Raja Maha Vihara Mw, Matara, Sri Lanka	2.588656	
Matara	Gandara	Thalalla North Damma Wijaya Maha Vidyalaya	False	False	MTRGNDRTHLLLNRTHDMMWJYMHVDYLY		Matara	LK-32	6.142734	80.539994	Gandara	PS-320102	5.941629	80.614037	5.964204	80.611009	Rathmale Road, Kekanadura 81020, Sri Lanka	2.53326	
Matara	Kamburupitiya	Kamburupitiya Hospital	False	False	MTRKMBRPTYKMBRPTYHSPTL		Matara	LK-32	6.142734	80.539994	Kamburupitiya	PS-320105	6.073875	80.564579	6.095759	80.564504	Thihagoda-Kamburupitiya-Mawarala-Kotapola Rd, Sri Lanka	2.434168	
Matara	Akuressa	Maramba Maha Vidyalaya	False	False	MTRKRSSMRMBMHVDYLY		Matara	LK-32	6.142734	80.539994	Akuressa	PS-320112	6.099044	80.4776	6.14108	80.481144	MR/Maramba Maha Vidyalaya, Maramba, Akuressa, A17, Sri Lanka	4.692057	
Matara	Kotawila	Warakapitiya Maha Vidyalaya	False	False	MTRKTWLWRKPTYMHVDYLY		Matara	LK-32	6.142734	80.539994	Kotawila	PS-320115	5.967553	80.493921	5.989065	80.475275	XFQG+J4C, Matara, Sri Lanka	3.159139	
Matara	Morawaka	Derangala Maha Vidyalaya	False	False	MTRMRWKDRNGLMHVDYLY		Matara	LK-32	6.142734	80.539994	Morawaka	PS-320107	6.256777	80.493654	6.253488	80.446914	7C3W+9QV, Matara, Sri Lanka	5.180864	
Matara	Morawaka	Kudagalahena Primary School	False	False	MTRMRWKKDGLHNPRMRYSCHL		Matara	LK-32	6.142734	80.539994	Morawaka	PS-320107	6.256777	80.493654	6.320031	80.423626	8CCF+2F6, Matara, Sri Lanka	10.461685	
Matara	Morawaka	Siyambalagoda Nithyamaluwa Viharaya	False	False	MTRMRWKSYMBLGDNTHYMLWVHRY		Matara	LK-32	6.142734	80.539994	Morawaka	PS-320107	6.256777	80.493654	6.017149	80.477141	2F8G+VV2, Matara, Sri Lanka	26.716272	#CenterFarFromPolice
Matara	Morawaka	Derangala Primary School	False	False	MTRMRWKDRNGLPRMRYSCHL		Matara	LK-32	6.142734	80.539994	Morawaka	PS-320107	6.256777	80.493654	6.268872	80.496536	A17, Morawaka, Sri Lanka	1.382547	
Matara	Malimbada	Horagoda Sri Wardhanarama Viharaya	False	False	MTRMLMBDHRGDSRWRDHNRMVHRY		Matara	LK-32	6.142734	80.539994	Malimbada	PS-320117	6.010503	80.517438	6.025968	80.48677	Horagoda Rd, Sri Lanka	3.803595	
Matara	Weligama	Mirisa Hospital	False	False	MTRWLGMMRSHSPTL		Matara	LK-32	6.142734	80.539994	Weligama	PS-320111	5.973301	80.426455	5.953095	80.453947	A2, Weligama, Sri Lanka	3.781708	
Matara	Weligama	MOH Office - Welipitiya	False	False	MTRWLGMMHFFCWLPTY		Matara	LK-32	6.142734	80.539994	Weligama	PS-320111	5.973301	80.426455	6.030554	80.389371	29JQ+6PH, Delghawatta, Sri Lanka	7.575146	
Matara	Thihagoda	Dewalamulla Maha Vidyalaya	False	False	MTRTHHGDDWLMLLMHVDYLY		Matara	LK-32	6.142734	80.539994	Thihagoda	PS-320104	6.01331	80.567932	6.014342	80.565771	Sri Lanka, Thihagoda, シハゴダ - カンバーウピティヤ＝マワララ＝コタポラ・ロード	0.265177	
Matara	Thihagoda	Owitigamuwa Purana Viharaya	False	False	MTRTHHGDWTGMWPRNVHRY		Matara	LK-32	6.142734	80.539994	Thihagoda	PS-320104	6.01331	80.567932	5.999928	80.562421	B275, Matara, Sri Lanka	1.608521	
Matara	Thihagoda	Malwathugoda Purana Viharaya	False	False	MTRTHHGDMLWTHGDPRNVHRY		Matara	LK-32	6.142734	80.539994	Thihagoda	PS-320104	6.01331	80.567932	5.999928	80.562421	B275, Matara, Sri Lanka	1.608521	
Matara	Thihagoda	Thihagoda National College	False	False	MTRTHHGDTHHGDNTNLCLLG		Matara	LK-32	6.142734	80.539994	Thihagoda	PS-320104	6.01331	80.567932	6.014367	80.56597	Sri Lanka, Thihagoda, シハゴダ - カンバーウピティヤ＝マワララ＝コタポラ・ロード	0.246831	
Matara	Deiyandara	Deiyandara National College	False	False	MTRDYNDRDYNDRNTNLCLLG		Matara	LK-32	6.142734	80.539994	Deyyandara	PS-320119	6.198061	80.587045	6.154714	80.603723	National School, Deiyandara, Sri Lanka	5.162189	
Matara	Rotumba	Pethmaga Purana Viharaya	False	False	MTRRTMBPTHMGPRNVHRY		Matara	LK-32	6.142734	80.539994	Rotumba	PS-320118	6.229548	80.559097	6.221781	80.579999	Rotumba Kotapola - Urubokka - Mulatiyana Rd, Sri Lanka	2.467402	
Hambantota	Hambantota	Mobile Medical Team	False	False	HMBNTTHMBNTTMBLMDCLTM		Hambantota	LK-33	6.259779	81.098619	Hambantota	PS-330156	6.125872	81.12521					#CenterLocationUnknown
Hambantota	Hambantota	MOH Office - Hambantota	False	False	HMBNTTHMBNTTMHFFCHMBNTT		Hambantota	LK-33	6.259779	81.098619	Hambantota	PS-330156	6.125872	81.12521	6.171162	81.127	54CG+FQ9, Hambantota, Sri Lanka	5.041487	
Hambantota	Walasmulla	Walasmulla Fair Premises	False	False	HMBNTTWLSMLLWLSMLLFRPRMSS		Hambantota	LK-33	6.259779	81.098619	Walasmulla	PS-330151	6.154102	80.698256	6.148552	80.697555	4MXX+C2F, Walasmulla, Sri Lanka	0.622174	
Hambantota	Walasmulla	MOH Office - Okewela	False	False	HMBNTTWLSMLLMHFFCKWL		Hambantota	LK-33	6.259779	81.098619	Walasmulla	PS-330151	6.154102	80.698256	6.098886	80.715898	Okewela, Sri Lanka	6.444136	
Hambantota	Weeraketiya	MOH Office - Weeraketiya	False	False	HMBNTTWRKTYMHFFCWRKTY		Hambantota	LK-33	6.259779	81.098619	Weeraketiya	PS-330149	6.153899	80.76737	6.144703	80.765287	4QV8+V4M, Weeraketiya, Sri Lanka	1.048488	
Hambantota	Weeraketiya	Galpothayaya Rural Hospital	False	False	HMBNTTWRKTYGLPTHYYRRLHSPTL		Hambantota	LK-33	6.259779	81.098619	Weeraketiya	PS-330149	6.153899	80.76737	7.947863	81.00147	W2X2+4HX, Polonnaruwa, Sri Lanka	201.208567	#CenterFarFromPolice
Hambantota	Weeraketiya	Udayala Maha Vidyalaya	False	False	HMBNTTWRKTYDYLMHVDYLY		Hambantota	LK-33	6.259779	81.098619	Weeraketiya	PS-330149	6.153899	80.76737	6.142614	80.811996	Ranna - Udayala - Weeraketiya Rd, Sri Lanka	5.092319	
Hambantota	Beliatta	Godakawela Primary School	False	False	HMBNTTBLTTGDKWLPRMRYSCHL		Hambantota	LK-33	6.259779	81.098619	Beliatta	PS-330152	6.046936	80.735408	6.053547	80.732271	3P3J+CW6, Hambantota, Sri Lanka	0.813095	
Hambantota	Beliatta	MOH Office - Beliatta	False	False	HMBNTTBLTTMHFFCBLTT		Hambantota	LK-33	6.259779	81.098619	Beliatta	PS-330152	6.046936	80.735408	6.051828	80.741735	3P2R+PMQ, Hambantota, Sri Lanka	0.886482	
Hambantota	Tangalla	Town  Hall - Tangalla	False	False	HMBNTTTNGLLTWNHLLTNGLL		Hambantota	LK-33	6.259779	81.098619	Tangalle	PS-330147	6.023954	80.797255	6.026547	80.795587	Matara Rd, Tangalle, Sri Lanka	0.342386	
Hambantota	Tangalla	Nakulugamuwa Gamini Maha Vidyalaya	False	False	HMBNTTTNGLLNKLGMWGMNMHVDYLY		Hambantota	LK-33	6.259779	81.098619	Tangalle	PS-330147	6.023954	80.797255	5.98519	80.725349	A2, Kudawella, Sri Lanka	9.047671	
Hambantota	Sooriyawewa	Beddewewa Viharaya	False	False	HMBNTTSRYWWBDDWWVHRY		Hambantota	LK-33	6.259779	81.098619	Sooriyawewa	PS-330155	6.306022	81.003873	6.290443	81.001121	baddewewa purana wiharaya, B562, Suriyawewa, Sri Lanka	1.759358	
Hambantota	Sooriyawewa	Weeriyagama Vidyalaya	False	False	HMBNTTSRYWWWRYGMVDYLY		Hambantota	LK-33	6.259779	81.098619	Sooriyawewa	PS-330155	6.306022	81.003873	6.317492	80.970747	8X8C+X7X, Sooriyawewa, Sri Lanka	3.878127	
Hambantota	Sooriyawewa	Nebadagaswewa Viharaya	False	False	HMBNTTSRYWWNBDGSWWVHRY		Hambantota	LK-33	6.259779	81.098619	Sooriyawewa	PS-330155	6.306022	81.003873	6.246512	81.004663	Madunaagala Forest Monastery, Sooriyawewa, Sri Lanka	6.619864	
Hambantota	Sooriyawewa	Habarathwala Viharaya	False	False	HMBNTTSRYWWHBRTHWLVHRY		Hambantota	LK-33	6.259779	81.098619	Sooriyawewa	PS-330155	6.306022	81.003873	6.194762	80.94959	5WVX+WR4, Hambantota, Sri Lanka	13.7541	
Hambantota	Katuwana	Wathukanda Primary School	False	False	HMBNTTKTWNWTHKNDPRMRYSCHL		Hambantota	LK-33	6.259779	81.098619	Katuwana	PS-330153	6.269722	80.690963	6.252598	80.764381	Middeniya, Sri Lanka	8.338026	
Hambantota	Katuwana	Ambagahahena Maha Vidyalaya	False	False	HMBNTTKTWNMBGHHNMHVDYLY		Hambantota	LK-33	6.259779	81.098619	Katuwana	PS-330153	6.269722	80.690963	6.240914	80.659223	Sri Lanka	4.75222	
Rathnapura	Opanayaka	Akurella Vidyalaya	False	False	RTHNPRPNYKKRLLVDYLY		Ratnapura	LK-91	6.586826	80.566158	Opanayaka	PS-910104	6.608519	80.619285	6.580578	80.632245	opanayaka haththella, Sri Lanka	3.421961	
Rathnapura	Opanayaka	Dandeniya Vidyalaya	False	False	RTHNPRPNYKDNDNYVDYLY		Ratnapura	LK-91	6.586826	80.566158	Opanayaka	PS-910104	6.608519	80.619285	6.599179	80.615271	HJX8+M4C, Ratnapura, Sri Lanka	1.129597	
Rathnapura	Opanayaka	Dhammaraja Vidyalaya	False	False	RTHNPRPNYKDHMMRJVDYLY		Ratnapura	LK-91	6.586826	80.566158	Opanayaka	PS-910104	6.608519	80.619285	6.611693	80.591317	JH6R+MGG, රත්නපුර, Sri Lanka	3.110298	
Rathnapura	Pinnawala	Samanalagama Viharaya	False	False	RTHNPRPNNWLSMNLGMVHRY		Ratnapura	LK-91	6.586826	80.566158	Pinnawala	PS-910115	7.299943	80.386604	6.396523	80.884128	Samanalagama, Sri Lanka	114.527473	#CenterFarFromPolice
Rathnapura	Pinnawala	Mamalgaha Viharaya	False	False	RTHNPRPNNWLMMLGHVHRY		Ratnapura	LK-91	6.586826	80.566158	Pinnawala	PS-910115	7.299943	80.386604	6.686418	80.690929	Morahela, Balangoda, Sri Lanka	76.064737	#CenterFarFromPolice
Rathnapura	Pinnawala	Pinnawala Dispensary	False	False	RTHNPRPNNWLPNNWLDSPNSRY		Ratnapura	LK-91	6.586826	80.566158	Pinnawala	PS-910115	7.299943	80.386604	6.870229	80.120206	Wewalpanawa - Waga Rd, Pinnawala, Sri Lanka	56.117848	#CenterFarFromPolice
Rathnapura	Balangoda	Primary Health Centre - Meddekanda	False	False	RTHNPRBLNGDPRMRYHLTHCNTRMDDKND		Ratnapura	LK-91	6.586826	80.566158	Balangoda	PS-910103	6.649474	80.700276	6.646112	80.697879	Karawketiya Rd, Balangoda, Sri Lanka	0.458166	
Rathnapura	Balangoda	Bulathgama Vidyalaya	False	False	RTHNPRBLNGDBLTHGMVDYLY		Ratnapura	LK-91	6.586826	80.566158	Balangoda	PS-910103	6.649474	80.700276	6.67333	80.682346	Bulathgama- Vijanathkubura Rd, Bulathgama, Sri Lanka	3.31134	
Rathnapura	Balangoda	Kirimetithenna Community Hall	False	False	RTHNPRBLNGDKRMTTHNNCMMNTYHLL		Ratnapura	LK-91	6.586826	80.566158	Balangoda	PS-910103	6.649474	80.700276	6.631371	80.724065	Kirimatithanna, Balangoda, Sri Lanka	3.310966	
Rathnapura	Balangoda	Rajawaka Vidyalaya	False	False	RTHNPRBLNGDRJWKVDYLY		Ratnapura	LK-91	6.586826	80.566158	Balangoda	PS-910103	6.649474	80.700276	6.607202	80.794259	B38, Sri Lanka	11.398773	
Rathnapura	Balangoda	Godakumbura Vidyalaya	False	False	RTHNPRBLNGDGDKMBRVDYLY		Ratnapura	LK-91	6.586826	80.566158	Balangoda	PS-910103	6.649474	80.700276	6.602628	80.734181	JP3M+3M3, Ratnapura, Sri Lanka	6.41748	
Rathnapura	Balangoda	Imbulamura Vidyalaya	False	False	RTHNPRBLNGDMBLMRVDYLY		Ratnapura	LK-91	6.586826	80.566158	Balangoda	PS-910103	6.649474	80.700276	6.598426	80.77315	Imbulamura, MahawalaThanna, Balangoda, Sri Lanka	9.852385	
Rathnapura	Balangoda	Mahawlathenna Vidyalaya	False	False	RTHNPRBLNGDMHWLTHNNVDYLY		Ratnapura	LK-91	6.586826	80.566158	Balangoda	PS-910103	6.649474	80.700276	6.641498	80.714138	JPR7+HMR, Balangoda, Sri Lanka	1.769912	
Rathnapura	Balangoda	Rassagala Vidyalaya	False	False	RTHNPRBLNGDRSSGLVDYLY		Ratnapura	LK-91	6.586826	80.566158	Balangoda	PS-910103	6.649474	80.700276	6.692579	80.643126	Balangoda - Rassagala - Uwella Rd, Sri Lanka	7.927876	
Rathnapura	Balangoda	Batewela Community Hall	False	False	RTHNPRBLNGDBTWLCMMNTYHLL		Ratnapura	LK-91	6.586826	80.566158	Balangoda	PS-910103	6.649474	80.700276	6.631371	80.724065	Kirimatithanna, Balangoda, Sri Lanka	3.310966	
Rathnapura	Balangoda	Theladiriya Vidyalaya	False	False	RTHNPRBLNGDTHLDRYVDYLY		Ratnapura	LK-91	6.586826	80.566158	Balangoda	PS-910103	6.649474	80.700276	6.657217	80.70088	St. Agnes' Balika Maha Vidyalaya, Rassagala Rd, Balangoda, Sri Lanka	0.863834	
Rathnapura	Balangoda	Mulgama Vidyalaya	False	False	RTHNPRBLNGDMLGMVDYLY		Ratnapura	LK-91	6.586826	80.566158	Balangoda	PS-910103	6.649474	80.700276	6.625092	80.794203	Watawala Mulgama, Kapugala Rd, 70100, Sri Lanka	10.725983	
Rathnapura	Weligepola	Family Health Centre - Kandegama	False	False	RTHNPRWLGPLFMLYHLTHCNTRKNDGM		Ratnapura	LK-91	6.586826	80.566158	Weligepola	PS-910106	6.596426	80.723695	6.578241	80.705765	HPH4+78R, Weligepola, Sri Lanka	2.831336	
Rathnapura	Weligepola	Yatipasgamuwa Vidyalaya	False	False	RTHNPRWLGPLYTPSGMWVDYLY		Ratnapura	LK-91	6.586826	80.566158	Weligepola	PS-910106	6.596426	80.723695	6.561477	80.733922	Yatipassgamuwa Rd, Weligepola, Sri Lanka	4.048294	
Rathnapura	Weligepola	Kottimullawa Viharaya	False	False	RTHNPRWLGPLKTTMLLWVHRY		Ratnapura	LK-91	6.586826	80.566158	Weligepola	PS-910106	6.596426	80.723695	6.440955	80.759711	Pelmadulla - Embilipitiya Hwy, Ratnapura, Sri Lanka	17.745163	
Rathnapura	Weligepola	Kelegammana Viharaya	False	False	RTHNPRWLGPLKLGMMNVHRY		Ratnapura	LK-91	6.586826	80.566158	Weligepola	PS-910106	6.596426	80.723695	6.580929	80.730893	pollamura, Sri Lanka	1.898371	
Rathnapura	Weligepola	Kongasthenna Vidyalaya	False	False	RTHNPRWLGPLKNGSTHNNVDYLY		Ratnapura	LK-91	6.586826	80.566158	Weligepola	PS-910106	6.596426	80.723695	6.594099	80.718809	Galgoda - Weligepola Rd, Sri Lanka	0.598712	
Rathnapura	Weligepola	Panane Vidyalaya	False	False	RTHNPRWLGPLPNNVDYLY		Ratnapura	LK-91	6.586826	80.566158	Weligepola	PS-910106	6.596426	80.723695	6.599179	80.615271	HJX8+M4C, Ratnapura, Sri Lanka	11.984025	
Rathnapura	Endana	No 01 Tamil College	False	False	RTHNPRNDNNTMLCLLG		Ratnapura	LK-91	6.586826	80.566158									#PoliceLocationUnknown
Rathnapura	Kolonna	Nandanagama Viharaya	False	False	RTHNPRKLNNNNDNGMVHRY		Ratnapura	LK-91	6.586826	80.566158	Kolonna	PS-910235	6.40194	80.687615	6.440955	80.759711	Pelmadulla - Embilipitiya Hwy, Ratnapura, Sri Lanka	9.074016	
Rathnapura	Kolonna	Karagahayaya Vidyalaya	False	False	RTHNPRKLNNKRGHYYVDYLY		Ratnapura	LK-91	6.586826	80.566158	Kolonna	PS-910235	6.40194	80.687615	6.584495	80.417004	Tiruwanaketiya-Agalawatte Rd, Karawita, Sri Lanka	36.148854	#CenterFarFromPolice
Rathnapura	Udawalawa	Panahaduwa Vidyalaya	False	False	RTHNPRDWLWPNHDWVDYLY		Ratnapura	LK-91	6.586826	80.566158	Udawalawa	PS-910234	6.422661	80.814293	6.467973	80.79348	Panahaduwa, Sri Lanka	5.540206	
Rathnapura	Udawalawa	Ketagalara Vidyalaya	False	False	RTHNPRDWLWKTGLRVDYLY		Ratnapura	LK-91	6.586826	80.566158	Udawalawa	PS-910234	6.422661	80.814293	6.602628	80.734181	JP3M+3M3, Ratnapura, Sri Lanka	21.888122	#CenterFarFromPolice
Rathnapura	Rathnapura	Palawela Vidyalaya	False	False	RTHNPRRTHNPRPLWLVDYLY		Ratnapura	LK-91	6.586826	80.566158	Ratnapura	PS-910101	6.679456	80.40223	6.645724	80.353534	Palawela School Junction Bus Stop, Karawita Rd, Palawela, Palawela, Sri Lanka	6.559003	
Rathnapura	Ayagama	Sinhalagoda Vidyalaya	False	False	RTHNPRYGMSNHLGDVDYLY		Ratnapura	LK-91	6.586826	80.566158	Ayagama	PS-910109	6.637727	80.312554	6.684109	80.29352	M7MV+JCR, Ratnapura, Sri Lanka	5.57117	
Rathnapura	Ayagama	Vithanagama Vidyalaya	False	False	RTHNPRYGMVTHNGMVDYLY		Ratnapura	LK-91	6.586826	80.566158	Ayagama	PS-910109	6.637727	80.312554	6.658231	80.313703	M857+7FW, Ayagama, Sri Lanka	2.284187	
Rathnapura	Godakawela	Elpitiya Vidyalaya	False	False	RTHNPRGDKWLLPTYVDYLY		Ratnapura	LK-91	6.586826	80.566158	Godakawela	PS-910233	6.50224	80.655642	6.695088	80.382654	M9WM+23J, Ratnapura, Sri Lanka	37.012743	#CenterFarFromPolice
Rathnapura	Godakawela	Pradeshiya Shabha - Godakawela	False	False	RTHNPRGDKWLPRDSHYSHBHGDKWL		Ratnapura	LK-91	6.586826	80.566158	Godakawela	PS-910233	6.50224	80.655642	6.502044	80.657016	Pelmadulla - Embilipitiya Hwy, Godakawela, Sri Lanka	0.153404	
Rathnapura	Godakawela	Werahera Vidyalaya	False	False	RTHNPRGDKWLWRHRVDYLY		Ratnapura	LK-91	6.586826	80.566158	Godakawela	PS-910233	6.50224	80.655642	6.505873	80.640843	GJ4R+88W, Ratnapura, Sri Lanka	1.684679	
Rathnapura	Godakawela	MOH Office - Godakawela	False	False	RTHNPRGDKWLMHFFCGDKWL		Ratnapura	LK-91	6.586826	80.566158	Godakawela	PS-910233	6.50224	80.655642	6.502102	80.656733	GM24+RMX, Godakawela, Sri Lanka	0.121544	
Rathnapura	Godakawela	Warayaya Vidyalaya	False	False	RTHNPRGDKWLWRYYVDYLY		Ratnapura	LK-91	6.586826	80.566158	Godakawela	PS-910233	6.50224	80.655642	6.505873	80.640843	GJ4R+88W, Ratnapura, Sri Lanka	1.684679	
Rathnapura	Pelmadulla	Phala Bopitiya Viharaya	False	False	RTHNPRPLMDLLPHLBPTYVHRY		Ratnapura	LK-91	6.586826	80.566158	Pelmadulla	PS-910117	6.632692	80.521315	6.614655	80.537717	JG7Q+V38, Ratnapura, Sri Lanka	2.703622	
Rathnapura	Pelmadulla	Rilahena Viharaya	False	False	RTHNPRPLMDLLRLHNVHRY		Ratnapura	LK-91	6.586826	80.566158	Pelmadulla	PS-910117	6.632692	80.521315	6.621093	80.545755	Pelmadulla, 70070, Sri Lanka	2.992673	
Rathnapura	Pelmadulla	Dombagaswinna Vidyalaya	False	False	RTHNPRPLMDLLDMBGSWNNVDYLY		Ratnapura	LK-91	6.586826	80.566158	Pelmadulla	PS-910117	6.632692	80.521315	6.621499	80.54323	A18, Pelmadulla, Sri Lanka	2.722642	
Rathnapura	Kuruwita	Pathagama Vidyalaya	False	False	RTHNPRKRWTPTHGMVDYLY		Ratnapura	LK-91	6.586826	80.566158	Kuruwita	PS-910112	6.778839	80.364712	6.756011	80.34172	pathagama, Kuruwita, Sri Lanka	3.591206	
Rathnapura	Kuruwita	Kuruwita Central College	False	False	RTHNPRKRWTKRWTCNTRLCLLG		Ratnapura	LK-91	6.586826	80.566158	Kuruwita	PS-910112	6.778839	80.364712	6.781492	80.362037	A4, Ratnapura 70500, Sri Lanka	0.417583	
Rathnapura	Kuruwita	Kithulpotha Clinic	False	False	RTHNPRKRWTKTHLPTHCLNC		Ratnapura	LK-91	6.586826	80.566158	Kuruwita	PS-910112	6.778839	80.364712	6.80898	80.375219	R95G+H3X, Kuruwita, Sri Lanka	3.547747	
Rathnapura	Kahawatta	Kahawatta Central College	False	False	RTHNPRKHWTTKHWTTCNTRLCLLG		Ratnapura	LK-91	6.586826	80.566158	Kahawatta	PS-910107	6.591434	80.56893	6.576461	80.572936	A18, Kahawatta 70150, Sri Lanka	1.723265	
Rathnapura	Kahawatta	Yatagara Vidyalaya	False	False	RTHNPRKHWTTYTGRVDYLY		Ratnapura	LK-91	6.586826	80.566158	Kahawatta	PS-910107	6.591434	80.56893	6.584014	80.570904	Watapotha - Kahawatta Road, Kahawatta, Sri Lanka	0.853661	
Rathnapura	Kahawatta	Dharamarama Viharaya	False	False	RTHNPRKHWTTDHRMRMVHRY		Ratnapura	LK-91	6.586826	80.566158	Kahawatta	PS-910107	6.591434	80.56893	6.632226	80.547508	JGJX+V2R, Pelmadulla, Sri Lanka	5.117546	
Kegalle	Bulathkohupitiya	MOH Office - Bulathkohupitiya	False	False	KGLLBLTHKHPTYMHFFCBLTHKHPTY		Kegalle	LK-92	7.104216	80.342866	Bulathkohupitiya	PS-920232	7.106684	80.3347	7.109127	80.334565	485M+MR4, Bulathkohupitiya, Sri Lanka	0.272143	
Kegalle	Kegalle	Public Ground - Kegalle	False	False	KGLLKGLLPBLCGRNDKGLL		Kegalle	LK-92	7.104216	80.342866	Kegalle	PS-920118	7.255928	80.353156	7.249378	80.340632	Public Ground, Kegalle 71000, Sri Lanka	1.562188	
Kegalle	Kegalle	Town Hall - Kegalle	False	False	KGLLKGLLTWNHLLKGLL		Kegalle	LK-92	7.104216	80.342866	Kegalle	PS-920118	7.255928	80.353156	7.254688	80.352612	7933+V2H, Kegalle, Sri Lanka	0.15042	
Kegalle	Rambukkana	MOH Office - Rambukkana	False	False	KGLLRMBKKNMHFFCRMBKKN		Kegalle	LK-92	7.104216	80.342866	Rambukkana	PS-920123	7.324319	80.387808	7.327307	80.394886	89GV+WXC, Rambukkana, Sri Lanka	0.848646	
Kegalle	Mawanella	MOH Office - Mawanella	False	False	KGLLMWNLLMHFFCMWNLL		Kegalle	LK-92	7.104216	80.342866	Mawanella	PS-920122	7.256966	80.445912	7.253248	80.44561	Rambukkana-Mawanella Rd, Mawanella, Sri Lanka	0.414893	
Kegalle	Dewalagama	MOH Office - Galigamuwa	False	False	KGLLDWLGMMHFFCGLGMW		Kegalle	LK-92	7.104216	80.342866	Dewalagama		7.285171	80.321988	7.240448	80.300505	ballapana, galigamuwa town, Sri Lanka	5.510414	
Anuradhapura	Anuradhapura	Army Hospital Anuradhapura	False	False	NRDHPRNRDHPRRMYHSPTLNRDHPR		Anuradhapura	LK-71	8.39199	80.512958	Anuradapura	PS-710101	8.329752	80.407265	8.338302	80.407646	AB02, Anuradhapura, Sri Lanka	0.951939	
Anuradhapura	Anuradhapura	Teaching Hospital - Anuradhapura	False	False	NRDHPRNRDHPRTCHNGHSPTLNRDHPR		Anuradhapura	LK-71	8.39199	80.512958	Anuradapura	PS-710101	8.329752	80.407265	8.324765	80.413968	Harischandra Mawatha, Anuradhapura, Sri Lanka	0.922993	
Anuradhapura	Galenbindunuwewa	Padikaramaduwa Vidyalaya	False	False	NRDHPRGLNBNDNWWPDKRMDWVDYLY		Anuradhapura	LK-71	8.39199	80.512958	Galenbidunuwewa	PS-710121	8.29037	80.71501	8.235857	80.747347	6PPW+8WX, Anuradhapura, Sri Lanka	7.031054	
Anuradhapura	Galenbindunuwewa	Hurulunikawewa Vidyalaya	False	False	NRDHPRGLNBNDNWWHRLNKWWVDYLY		Anuradhapura	LK-71	8.39199	80.512958	Galenbidunuwewa	PS-710121	8.29037	80.71501	8.244528	80.722165	6PVC+RV7, Anuradhapura, Sri Lanka	5.159463	
Anuradhapura	Thirappane	Kattamurichchana Vidyalaya	False	False	NRDHPRTHRPPNKTTMRCHCHNVDYLY		Anuradhapura	LK-71	8.39199	80.512958	Thirappone	PS-710106	6.907289	79.863819	8.192501	80.58221	5HVJ+2V4, Anuradhapura, Sri Lanka	163.433069	#CenterFarFromPolice
Anuradhapura	Mahawilachchiya	MOH Office - Mahawilachchiya	False	False	NRDHPRMHWLCHCHYMHFFCMHWLCHCHY		Anuradhapura	LK-71	8.39199	80.512958	Mahawilachchiya	PS-710120	8.484987	80.193911	8.494303	80.186519	F5VP+PJC, Mahawilachchiya, Sri Lanka	1.317298	
Anuradhapura	Mihintale	Mihintale Hospital	False	False	NRDHPRMHNTLMHNTLHSPTL		Anuradhapura	LK-71	8.39199	80.512958	Mihintale	PS-710104	8.360062	80.511889	8.35505	80.509287	Kandy Rd, Mihintale, Sri Lanka	0.626724	
Anuradhapura	Hidogama	Palayakulama Vidyalaya	False	False	NRDHPRHDGMPLYKLMVDYLY		Anuradhapura	LK-71	8.39199	80.512958	Hidogama	PS-710102	8.31575	80.420358	8.335922	80.407513	Maithripala Senanayake Mawatha, Anuradhapura 50000, Sri Lanka	2.651949	
Anuradhapura	Hidogama	Nachchaduwa Sinhala Maha Vidyalaya	False	False	NRDHPRHDGMNCHCHDWSNHLMHVDYLY		Anuradhapura	LK-71	8.39199	80.512958	Hidogama	PS-710102	8.31575	80.420358	8.243311	80.457843	6FV5+84G, Anuradhapura, Sri Lanka	9.052356	
Anuradhapura	Elayapattuwa	Katukeliyawa Vidyalaya	False	False	NRDHPRLYPTTWKTKLYWVDYLY		Anuradhapura	LK-71	8.39199	80.512958									#PoliceLocationUnknown
Anuradhapura	Parasangaswewa	Mankadawala Vidyalaya	False	False	NRDHPRPRSNGSWWMNKDWLVDYLY		Anuradhapura	LK-71	8.39199	80.512958	Parasangaswewa	PS-710123	8.650981	80.314759	8.39812	80.44812	9CXX+66X, Anuradhapura, Sri Lanka	31.721574	#CenterFarFromPolice
Anuradhapura	Parasangaswewa	Karambuwa Vidyalaya	False	False	NRDHPRPRSNGSWWKRMBWVDYLY		Anuradhapura	LK-71	8.39199	80.512958	Parasangaswewa	PS-710123	8.650981	80.314759	8.335922	80.407513	Maithripala Senanayake Mawatha, Anuradhapura 50000, Sri Lanka	36.499283	#CenterFarFromPolice
Polonnaruwa	Polonnaruwa	Sewamuktha Camp Maha Vidyalaya	False	False	PLNNRWPLNNRWSWMKTHCMPMHVDYLY		Polonnaruwa	LK-72	7.993659	81.026061	Polonnaruwa	PS-720125	7.924307	81.036895	7.972665	81.029577	959, Polonnaruwa, Sri Lanka	5.438929	
Polonnaruwa	Polonnaruwa	Kanduruwela Muslim Maha Vidyalaya	False	False	PLNNRWPLNNRWKNDRWLMSLMMHVDYLY		Polonnaruwa	LK-72	7.993659	81.026061	Polonnaruwa	PS-720125	7.924307	81.036895	7.927202	81.038607	Kaduruwela, පොළොන්නරු, Sri Lanka	0.37318	
Polonnaruwa	Medirigiriya	Medirigiriya Mahinda Maha Vidyalaya	False	False	PLNNRWMDRGRYMDRGRYMHNDMHVDYLY		Polonnaruwa	LK-72	7.993659	81.026061	Medirigiriya	PS-720130	8.150847	80.984493	8.185339	80.992752	5XPV+44J, Polonnaruwa, Sri Lanka	3.94283	
Polonnaruwa	Medirigiriya	Wijayapura Maha Vidyalaya	False	False	PLNNRWMDRGRYWJYPRMHVDYLY		Polonnaruwa	LK-72	7.993659	81.026061	Medirigiriya	PS-720130	8.150847	80.984493	8.136391	81.043572	42PV+HC4, பொலன்னறுவை, Sri Lanka	6.700863	
Jaffna	Jaffna	Mobile Medical Team	False	False	JFFNJFFNMBLMDCLTM		Jaffna	LK-41	9.691792	80.098594	Jaffna	PS-410209	9.659919	80.010965					#CenterLocationUnknown
Jaffna	Jaffna	Karanthan Ramuoillai Vidyalaya	False	False	JFFNJFFNKRNTHNRMLLVDYLY		Jaffna	LK-41	9.691792	80.098594	Jaffna	PS-410209	9.659919	80.010965	9.723196	80.06923	Karanthan Junction Bus Stop, Sri Lanka	9.505161	
Jaffna	Jaffna	Sirupiddy HTM Vidylaya	False	False	JFFNJFFNSRPDDYHTMVDYLY		Jaffna	LK-41	9.691792	80.098594	Jaffna	PS-410209	9.659919	80.010965	9.742235	80.093176	Unnamed Road, Siruppiddy, Sri Lanka	12.848285	
Jaffna	Jaffna	Kuppilan Vikneshwaram Community Hall	False	False	JFFNJFFNKPPLNVKNSHWRMCMMNTYHLL		Jaffna	LK-41	9.691792	80.098594	Jaffna	PS-410209	9.659919	80.010965	9.664467	80.010483	AB16, Jaffna, Sri Lanka	0.508627	
Jaffna	Jaffna	Mayilankadu Comuity Hall	False	False	JFFNJFFNMYLNKDCMTYHLL		Jaffna	LK-41	9.691792	80.098594	Jaffna	PS-410209	9.659919	80.010965	9.664467	80.010483	AB16, Jaffna, Sri Lanka	0.508627	
Jaffna	Kopay	MOH Office- Nallur	False	False	JFFNKPYMHFFCNLLR		Jaffna	LK-41	9.691792	80.098594	Kopai	PS-410216	9.686887	80.03856	9.673947	80.027736	M2FH+H3H, Jaffna, Sri Lanka	1.865513	
Jaffna	Kopay	MOH Office Kopay	False	False	JFFNKPYMHFFCKPY		Jaffna	LK-41	9.691792	80.098594	Kopai	PS-410216	9.686887	80.03856	9.706729	80.065433	B268, Jaffna, Sri Lanka	3.681313	
Jaffna	Chunnagam	MOH Office - Uduvil	False	False	JFFNCHNNGMMHFFCDVL		Jaffna	LK-41	9.691792	80.098594	Chunnakam	PS-410211	9.745309	80.029151	9.742938	80.035132	P2VP+53C, Chunnakam, Sri Lanka	0.706719	
Jaffna	Nelliyady	MOH Office - Karaveddy	False	False	JFFNNLLYDYMHFFCKRVDDY		Jaffna	LK-41	9.691792	80.098594	Nelliadi	PS-410108	9.778397	80.113303	9.792126	80.201799	Q6R2+VP3, Point Pedro, Sri Lanka	9.819656	
Jaffna	Valvettithurai	Hindu Balika Vidyalaya	False	False	JFFNVLVTTTHRHNDBLKVDYLY		Jaffna	LK-41	9.691792	80.098594	Valvettiththurai	PS-410107	9.823216	80.169633	9.826904	80.180819	R5GJ+Q88, Valvettithurai, Sri Lanka	1.292778	
Jaffna	Thelippalai	MOH Office - Thelippalai	False	False	JFFNTHLPPLMHFFCTHLPPL		Jaffna	LK-41	9.691792	80.098594	Thelippalay	PS-410104	6.933075	79.857181	9.785272	80.032899	Q2PM+452, Tellippalai, Sri Lanka	317.838063	#CenterFarFromPolice
Jaffna	Wadukkotte	MOH Office - Chankanai	False	False	JFFNWDKKTTMHFFCCHNKN		Jaffna	LK-41	9.691792	80.098594	Vaddukoddai		9.728886	79.947771	9.753617	79.976004	QX3G+CCR, Sri Lanka	4.140836	
Jaffna	Manippai	MOH Office - Sandilippai	False	False	JFFNMNPPMHFFCSNDLPP		Jaffna	LK-41	9.691792	80.098594	Manippai	PS-410210	9.727151	79.996905	9.749336	79.987383	Sandilipay, Sri Lanka	2.679343	
Jaffna	Kayts	MOH Office - Karainagar	False	False	JFFNKYTSMHFFCKRNGR		Jaffna	LK-41	9.691792	80.098594	Kayts	PS-410212	9.728654	79.94775	9.725097	79.99772	Sri Lanka, Manipay, Sri Lanka	5.492521	
Jaffna	Kayts	MOH Office - Valanai	False	False	JFFNKYTSMHFFCVLN		Jaffna	LK-41	9.691792	80.098594	Kayts	PS-410212	9.728654	79.94775	9.636317	79.903777	Chatty vangkalvady road, Velanai, Sri Lanka	11.346015	
Jaffna	Kayts	MOH Office - Kayts	False	False	JFFNKYTSMHFFCKYTS		Jaffna	LK-41	9.691792	80.098594	Kayts	PS-410212	9.728654	79.94775	9.697759	79.866366	Sri Lanka, Kayts, Sri Lanka	9.561445	
Jaffna	Chavakachcheri	Golden Jubilee Hall	False	False	JFFNCHVKCHCHRGLDNJBLHLL		Jaffna	LK-41	9.691792	80.098594	Chawakachcheri	PS-410215	9.666459	80.132384	9.659136	80.160946	M556+M94, Chavakachcheri, Sri Lanka	3.236063	
Kilinochchi	Kilinochchi	MOH Office - Kanadawala	False	False	KLNCHCHKLNCHCHMHFFCKNDWL		Kilinochchi	LK-45	9.415742	80.30358	Kilinochchi	PS-450131	9.392265	80.407846	9.396965	80.407782	Kandy - Jaffna Hwy, Kilinochchi, Sri Lanka	0.522827	
Kilinochchi	Kilinochchi	MOH Office - Karachchi	False	False	KLNCHCHKLNCHCHMHFFCKRCHCH		Kilinochchi	LK-45	9.415742	80.30358	Kilinochchi	PS-450131	9.392265	80.407846	9.396965	80.407782	Kandy - Jaffna Hwy, Kilinochchi, Sri Lanka	0.522827	
Kilinochchi	Kilinochchi	MOH Office - Punakar	False	False	KLNCHCHKLNCHCHMHFFCPNKR		Kilinochchi	LK-45	9.415742	80.30358	Kilinochchi	PS-450131	9.392265	80.407846	9.396965	80.407782	Kandy - Jaffna Hwy, Kilinochchi, Sri Lanka	0.522827	
Kilinochchi	Kilinochchi	MOH Office - Palai	False	False	KLNCHCHKLNCHCHMHFFCPL		Kilinochchi	LK-45	9.415742	80.30358	Kilinochchi	PS-450131	9.392265	80.407846	7.330938	80.29484	06 A6, Polgahawela, Sri Lanka	229.618032	#CenterFarFromPolice
Kilinochchi	Pooneryn	MOH Office - Pooneryn	False	False	KLNCHCHPNRYNMHFFCPNRYN		Kilinochchi	LK-45	9.415742	80.30358	Pooneryn		9.505717	80.21101	9.507968	80.208317	G655+58P, Pooneryn, Sri Lanka	0.387256	
Kilinochchi	Pooneryn	Mukkampan Family Health Services Office	False	False	KLNCHCHPNRYNMKKMPNFMLYHLTHSRVCSFFC		Kilinochchi	LK-45	9.415742	80.30358	Pooneryn		9.505717	80.21101	9.396965	80.407782	Kandy - Jaffna Hwy, Kilinochchi, Sri Lanka	24.747612	#CenterFarFromPolice
Kilinochchi	Jayapuram	Jayapuram Hospital	False	False	KLNCHCHJYPRMJYPRMHSPTL		Kilinochchi	LK-45	9.415742	80.30358	Jayapuram		9.312838	80.159865	9.372728	80.411786	Ananthapuram, A9, Kilinochchi, Sri Lanka	28.440585	#CenterFarFromPolice
Kilinochchi	Mulankavil	Mulankavil Hospital	False	False	KLNCHCHMLNKVLMLNKVLHSPTL		Kilinochchi	LK-45	9.415742	80.30358	Mulankavil	PS-450135	9.254463	80.141528	9.243423	80.143894	Base Hospital Mulankavil, A32 Road, Mulankavil, Kumulamunai, Sri Lanka	1.255148	
Kilinochchi	Welioya	Sampathnuwara Hospital	False	False	KLNCHCHWLYSMPTHNWRHSPTL		Kilinochchi	LK-45	9.415742	80.30358	Welioya	PS-440152	8.980582	80.773572	8.98045	80.772558	XQJF+52F, Welioya, Sri Lanka	0.112368	
Mullaitivu	Mullaitivu	Anichchamkulam Tamil College	False	False	MLLTVMLLTVNCHCHMKLMTMLCLLG		Mullaitivu	LK-44	9.167643	80.549091	Mullativu	PS-440148	9.212825	80.760159	9.224412	80.782443	6QFJ+QX8, Mulliyawalai, Sri Lanka	2.765333	
Mullaitivu	Mankulam	Nattankandal Primary School	False	False	MLLTVMNKLMNTTNKNDLPRMRYSCHL		Mullaitivu	LK-44	9.167643	80.549091	Mankulam	PS-440147	9.124606	80.448404	9.376223	80.551326	9HG2+FGP, Visuvamadu, Sri Lanka	30.18211	#CenterFarFromPolice
Mullaitivu	Mankulam	Base Hospital - Mankulam	False	False	MLLTVMNKLMBSHSPTLMNKLM		Mullaitivu	LK-44	9.167643	80.549091	Mankulam	PS-440147	9.124606	80.448404	9.12782	80.447093	A9, Mankulam, Sri Lanka	0.385396	
Mullaitivu	Puthukudiyiruppu	Puthukudiyiruppu Bharathi Vidyalaya	False	False	MLLTVPTHKDYRPPPTHKDYRPPBHRTHVDYLY		Mullaitivu	LK-44	9.167643	80.549091	Pudukuduiruppu	PS-440149	7.00152	79.95003	9.31067	80.699589	8M6X+7R8, Puthukkudiyiruppu, Sri Lanka	269.778207	#CenterFarFromPolice
Mullaitivu	Puthukudiyiruppu	Mungilaru Primary School	False	False	MLLTVPTHKDYRPPMNGLRPRMRYSCHL		Mullaitivu	LK-44	9.167643	80.549091	Pudukuduiruppu	PS-440149	7.00152	79.95003	9.322944	80.702342	Puthukkudiyiruppu-Mathalan Rd, Puthukkudiyiruppu, Sri Lanka	271.170338	#CenterFarFromPolice
Mullaitivu	Puthukudiyiruppu	Devipuram Treatment Centre	False	False	MLLTVPTHKDYRPPDVPRMTRTMNTCNTR		Mullaitivu	LK-44	9.167643	80.549091	Pudukuduiruppu	PS-440149	7.00152	79.95003	9.313637	80.696168	Puthukudiyiruppu, Sri Lanka	269.977487	#CenterFarFromPolice
Mullaitivu	Puthukudiyiruppu	Sri Subramaniyam Vidyalaya	False	False	MLLTVPTHKDYRPPSRSBRMNYMVDYLY		Mullaitivu	LK-44	9.167643	80.549091	Pudukuduiruppu	PS-440149	7.00152	79.95003	9.314562	80.696594	8M7W+RJG, Puthukkudiyiruppu, Sri Lanka	270.089737	#CenterFarFromPolice
Mullaitivu	Mullaitivu	Regional Health Director Office	False	False	MLLTVMLLTVRGNLHLTHDRCTRFFC		Mullaitivu	LK-44	9.167643	80.549091	Mullativu	PS-440148	9.212825	80.760159	9.261573	80.813807	Mullaittivu-Kokkilai Rd, Mullaitivu, Sri Lanka	8.0057	
Mullaitivu	Oddusuddan	MOH Office - Oddusuddan	False	False	MLLTVDDSDDNMHFFCDDSDDN		Mullaitivu	LK-44	9.167643	80.549091	Oddusudan	PS-440151	9.160983	80.652821	9.162816	80.661584	5M76+4JG, Oddusuddan, Sri Lanka	0.983634	
Mullaitivu	Mallavi	Anichchankulam Tamil Maha Vidyalaya	False	False	MLLTVMLLVNCHCHNKLMTMLMHVDYLY		Mullaitivu	LK-44	9.167643	80.549091	Mallavi	PS-440153	9.137878	80.307257	9.130417	80.307209	Hospital road mallavi mullaitivu, 42000, Sri Lanka	0.829903	
Mullaitivu	Mankulam	Nattankandal Hospital	False	False	MLLTVMNKLMNTTNKNDLHSPTL		Mullaitivu	LK-44	9.167643	80.549091	Mankulam	PS-440147	9.124606	80.448404	9.12782	80.447093	A9, Mankulam, Sri Lanka	0.385396	
Mullaitivu	Mankulam	Mankulam Hospital	False	False	MLLTVMNKLMMNKLMHSPTL		Mullaitivu	LK-44	9.167643	80.549091	Mankulam	PS-440147	9.124606	80.448404	9.12782	80.447093	A9, Mankulam, Sri Lanka	0.385396	
Mullaitivu	Madu	Iraniruppakulam Maha Vidyalaya	False	False	MLLTVMDRNRPPKLMMHVDYLY		Mullaitivu	LK-44	9.167643	80.549091	Madu	PS-420144	6.914115	79.849048	9.376037	80.550246	Visuvamadu Tank Rd, Visuvamadu, Sri Lanka	284.513437	#CenterFarFromPolice
Mullaitivu	Vavunia	Mobile Medical Team	False	False	MLLTVVVNMBLMDCLTM		Mullaitivu	LK-44	9.167643	80.549091	Vavuniya	PS-430119	8.754431	80.498604					#CenterLocationUnknown
Trincomalee	Muttur	MOH Office – Muttur	False	False	TRNCMLMTTRMHFFCMTTR		Trincomalee	LK-53	8.551241	81.092014	Mutur	PS-530138	8.461133	81.259371	8.453916	81.264494	1 Old Batticaloa Rd, Mutur, Sri Lanka	0.980859	
Trincomalee	Kinniya	MOH Office - Kurungnakeni	False	False	TRNCMLKNNYMHFFCKRNGNKN		Trincomalee	LK-53	8.551241	81.092014	Kinnia	PS-530140	6.907289	79.863819	7.484932	80.353119	F9M3+X6H, Kurunegala 60000, Sri Lanka	83.927094	#CenterFarFromPolice
Trincomalee	Kinniya	MOH Office - Kinniya	False	False	TRNCMLKNNYMHFFCKNNY		Trincomalee	LK-53	8.551241	81.092014	Kinnia	PS-530140	6.907289	79.863819	8.498696	81.179644	F5XH+FVC, Kinniya 31100, Sri Lanka	228.840304	#CenterFarFromPolice
Trincomalee	Sripura	MOH Office - Sripura	False	False	TRNCMLSRPRMHFFCSRPR		Trincomalee	LK-53	8.551241	81.092014	Sripura	PS-530136	8.929617	80.81428	8.926697	80.814799	Padavi Sripura, Padaviya - Sripura Road, Welioya, Sri Lanka	0.329869	
Trincomalee	Kuchchaveli	MOH Office - Kuchchaveli	False	False	TRNCMLKCHCHVLMHFFCKCHCHVL		Trincomalee	LK-53	8.551241	81.092014	Kuchchaweli	PS-530133	8.81895	81.100438	8.740082	81.161616	P5R6+2JQ, Kumpurupiddi, Sri Lanka	11.053646	
Trincomalee	Kuchchaveli	Divisional Hospital - Kuchchaveli	False	False	TRNCMLKCHCHVLDVSNLHSPTLKCHCHVL		Trincomalee	LK-53	8.551241	81.092014	Kuchchaweli	PS-530133	8.81895	81.100438	8.814795	81.102358	R472+WW9, Kuchchaveli, Sri Lanka	0.508064	
Trincomalee	Kuchchaveli	Divisional Hospital - Nilaveli	False	False	TRNCMLKCHCHVLDVSNLHSPTLNLVL		Trincomalee	LK-53	8.551241	81.092014	Kuchchaweli	PS-530133	8.81895	81.100438	8.681035	81.193632	M5JV+CF6, Nilaveli, Sri Lanka	18.44695	
Trincomalee	Pulmoddai	Base Hospital -Pulmoddai	False	False	TRNCMLPLMDDBSHSPTLPLMDD		Trincomalee	LK-53	8.551241	81.092014	Pulmudai	PS-530135	6.915266	79.87829	8.941204	80.983139	WXRM+F7J, Pulmoddai, Sri Lanka	256.112801	#CenterFarFromPolice
Trincomalee	Serunuwara	MOH Office - Serunuwara	False	False	TRNCMLSRNWRMHFFCSRNWR		Trincomalee	LK-53	8.551241	81.092014	Serunuwara	PS-530244	8.321863	81.299322	8.323143	81.299894	B10, Sri Lanka	0.155671	
Trincomalee	Harbour Police	MOH Office - Trincomalee	False	False	TRNCMLHRBRPLCMHFFCTRNCML		Trincomalee	LK-53	8.551241	81.092014	Trinco Harbour Police	PS-530131	8.56705	81.231407	8.598974	81.216963	MOH Office, Farm Rd, Trincomalee, Sri Lanka	3.890062	
Trincomalee	Harbour Police	Base Hospital - Trincomalee	False	False	TRNCMLHRBRPLCBSHSPTLTRNCML		Trincomalee	LK-53	8.551241	81.092014	Trinco Harbour Police	PS-530131	8.56705	81.231407	8.56486	81.239445	Hospital Ln, Trincomalee, Sri Lanka	0.917037	
Trincomalee	Uppuveli	MOH Office - Uppuveli	False	False	TRNCMLPPVLMHFFCPPVL		Trincomalee	LK-53	8.551241	81.092014	Uppuweli	PS-530134	8.593614	81.21743	8.607961	81.216512	Nilaveli Rd, Trincomalee, Sri Lanka	1.599005	
Trincomalee	Kantale	MOH Office - Kantale	False	False	TRNCMLKNTLMHFFCKNTL		Trincomalee	LK-53	8.551241	81.092014	Kantale	PS-530241	8.356129	81.007739	8.349617	81.009107	අග්‍රබෝධි මාවත, Kantale, Sri Lanka	0.739809	
Trincomalee	Ichchalampattu	MOH Office - Ichchalampattu	False	False	TRNCMLCHCHLMPTTMHFFCCHCHLMPTT	Eachchilampattu Hospital	Trincomalee	LK-53	8.551241	81.092014	Ichchalampattu		8.289549	81.359002	8.289644	81.358983	Highway, Ichchalampattu, Trincomalee, Sri Lanka	0.010772	
Trincomalee	Ichchalampattu	Punyadi Vidyalaya	False	False	TRNCMLCHCHLMPTTPNYDVDYLY		Trincomalee	LK-53	8.551241	81.092014	Ichchalampattu		8.289549	81.359002	8.289549	81.358986	Trincomalee Hwy, Sri Lanka	0.001761	
Trincomalee	Ichchalampattu	Walaithottam Tamil College	False	False	TRNCMLCHCHLMPTTWLTHTTMTMLCLLG		Trincomalee	LK-53	8.551241	81.092014	Ichchalampattu		8.289549	81.359002	8.289549	81.358986	Trincomalee Hwy, Sri Lanka	0.001761	
Trincomalee	Thambalagamuwa	MOH Office - Thambalagamuwa	False	False	TRNCMLTHMBLGMWMHFFCTHMBLGMW		Trincomalee	LK-53	8.551241	81.092014	Thambalagamuva	PS-530243	6.907289	79.863819	8.563603	81.239584	Hospital Ln, Trincomalee, Sri Lanka	238.604889	#CenterFarFromPolice
Trincomalee	Gomarankadawala	MOH Office - Gomarankadawala	False	False	TRNCMLGMRNKDWLMHFFCGMRNKDWL		Trincomalee	LK-53	8.551241	81.092014	Gomarankadawala	PS-530248	8.674487	80.967555	8.674726	80.955691	Unnamed Road, Gomarankadawala, Sri Lanka	1.304806	
Batticaloa	Batticaloa	Mobile Medical Team	False	False	BTTCLBTTCLMBLMDCLTM		Batticaloa	LK-51	7.792772	81.486513	Batticaloa	PS-510101	7.717949	81.699294					#CenterLocationUnknown
Batticaloa	Batticaloa	Teaching Hospital  - Batticaloa	False	False	BTTCLBTTCLTCHNGHSPTLBTTCL		Batticaloa	LK-51	7.792772	81.486513	Batticaloa	PS-510101	7.717949	81.699294	7.708032	81.690622	Hospital Ln, Batticaloa 30000, Sri Lanka	1.459596	
Batticaloa	Batticaloa	Arsad Pillar Vidyalaya	False	False	BTTCLBTTCLRSDPLLRVDYLY		Batticaloa	LK-51	7.792772	81.486513	Batticaloa	PS-510101	7.717949	81.699294	7.720143	81.700516	PPC2+362, Batticaloa, Sri Lanka	0.278741	
Batticaloa	Kokkadicholai	Mahiladithivu Vidyalaya	False	False	BTTCLKKKDCHLMHLDTHVVDYLY		Batticaloa	LK-51	7.792772	81.486513	Kokkadicholai	PS-510112	7.715979	81.698757	7.623008	81.719383	Muthalaikudah Kanchirankudah Rd, Batticaloa, Sri Lanka	10.588158	
Batticaloa	Vellawali	Colony Vidyalaya	False	False	BTTCLVLLWLCLNYVDYLY		Batticaloa	LK-51	7.792772	81.486513	Vellavali	PS-510111	6.907289	79.863819	7.604351	81.764784	JQ37+PWV, Kirankulam, Sri Lanka	223.620887	#CenterFarFromPolice
Batticaloa	Vellawali	Ganeshapuram Vidyalaya	False	False	BTTCLVLLWLGNSHPRMVDYLY		Batticaloa	LK-51	7.792772	81.486513	Vellavali	PS-510111	6.907289	79.863819	7.604351	81.764784	JQ37+PWV, Kirankulam, Sri Lanka	223.620887	#CenterFarFromPolice
Batticaloa	Vellawali	GN - Kalumundanveli	False	False	BTTCLVLLWLGNKLMNDNVL		Batticaloa	LK-51	7.792772	81.486513	Vellavali	PS-510111	6.907289	79.863819	7.829278	81.471839	Batticaloa, Sri Lanka	204.892589	#CenterFarFromPolice
Batticaloa	Valachchenai	Valachchenai Base Hospital	False	False	BTTCLVLCHCHNVLCHCHNBSHSPTL		Batticaloa	LK-51	7.792772	81.486513	Valachchanai	PS-510107	7.908015	81.533004	7.911315	81.533046	Valaichchenai-Nasuvantivu-Navaladi Road, Sri Lanka	0.367088	
Batticaloa	Valachchenai	MOH Office - Oddamavadi	False	False	BTTCLVLCHCHNMHFFCDDMVD		Batticaloa	LK-51	7.792772	81.486513	Valachchanai	PS-510107	7.908015	81.533004	7.912281	81.532775	WG6M+W46, Batticaloa, Sri Lanka	0.475177	
Batticaloa	Valachchenai	MOH Office - Koralepattu Central	False	False	BTTCLVLCHCHNMHFFCKRLPTTCNTRL		Batticaloa	LK-51	7.792772	81.486513	Valachchanai	PS-510107	7.908015	81.533004	7.922593	81.530022	Batticaloa, Sri Lanka	1.654455	
Batticaloa	Valachchenai	MOH Office - Koralepattu	False	False	BTTCLVLCHCHNMHFFCKRLPTT		Batticaloa	LK-51	7.792772	81.486513	Valachchanai	PS-510107	7.908015	81.533004	7.922593	81.530022	WGFJ+22J, Sri Lanka	1.654455	
Batticaloa	Valachchenai	MOH Office - Kiran	False	False	BTTCLVLCHCHNMHFFCKRN		Batticaloa	LK-51	7.792772	81.486513	Valachchanai	PS-510107	7.908015	81.533004	7.502211	79.839254	GR2Q+VPJ, Madampe, Sri Lanka	192.073036	#CenterFarFromPolice
Batticaloa	Vakarai	MOH Office - Vakarai	False	False	BTTCLVKRMHFFCVKR	Divisional Hospital Vakarai	Batticaloa	LK-51	7.792772	81.486513	Wakarai	PS-510109	6.934132	79.856305	8.134552	81.435328	Trincomalee Hwy, Vakarai, Sri Lanka	219.417822	#CenterFarFromPolice
Batticaloa	Kaluwanchikudy	MOH Office - Kaluwanchikudy	False	False	BTTCLKLWNCHKDYMHFFCKLWNCHKDY	Medical Officer of Health Kaluwanchikudy	Batticaloa	LK-51	7.792772	81.486513	Kalawanchikudy	PS-510110	7.515908	81.787051	7.509333	81.79204	Colombo - Batticaloa Hwy, Kaluwanchikudy, Sri Lanka	0.915167	
Batticaloa	Vavunathivu	MOH Office - Vavunathivu	False	False	BTTCLVVNTHVMHFFCVVNTHV		Batticaloa	LK-51	7.792772	81.486513	Vavunathive	PS-510102	6.933075	79.857181	7.708253	81.691368	Hospital Rd, Batticaloa, Sri Lanka	219.95575	#CenterFarFromPolice
Batticaloa	Vavunathivu	Pudumandapattadi Hospital	False	False	BTTCLVVNTHVPDMNDPTTDHSPTL		Batticaloa	LK-51	7.792772	81.486513	Vavunathive	PS-510102	6.933075	79.857181	7.708032	81.690622	Hospital Ln, Batticaloa 30000, Sri Lanka	219.870447	#CenterFarFromPolice
Batticaloa	Kattankudy	Kattankudy Base Hospital	False	False	BTTCLKTTNKDYKTTNKDYBSHSPTL		Batticaloa	LK-51	7.792772	81.486513	Kaththankudi	PS-510103	7.715979	81.698757	7.685147	81.739078	Dr Badhiudeen Mahmood Mawatha, Kattankudy, Sri Lanka	5.613752	
Batticaloa	Kattankudy	MOH Office - Arayampathy	False	False	BTTCLKTTNKDYMHFFCRYMPTHY		Batticaloa	LK-51	7.792772	81.486513	Kaththankudi	PS-510103	7.715979	81.698757	7.672862	81.735019	MPFP+42R, Sri Lanka	6.243191	
Batticaloa	Kattankudy	MOH Office - Kattankudy	False	False	BTTCLKTTNKDYMHFFCKTTNKDY		Batticaloa	LK-51	7.792772	81.486513	Kaththankudi	PS-510103	7.715979	81.698757	7.683586	81.730767	MPMJ+C8J, Kattankudy, Sri Lanka	5.042961	
Batticaloa	Eravur	Sandiveli Hospital	False	False	BTTCLRVRSNDVLHSPTL		Batticaloa	LK-51	7.792772	81.486513	Eravur	PS-510104	7.715979	81.698757	7.777289	81.602853	Trincomalee Hwy, Eravur, Sri Lanka	12.578998	
Batticaloa	Eravur	MOH Office - Eravur	False	False	BTTCLRVRMHFFCRVR		Batticaloa	LK-51	7.792772	81.486513	Eravur	PS-510104	7.715979	81.698757	7.783664	81.605626	QJM4+F76, Eravur, Sri Lanka	12.729342	
Batticaloa	Eravur	MOH Office - Eravur	False	False	BTTCLRVRMHFFCRVR		Batticaloa	LK-51	7.792772	81.486513	Eravur	PS-510104	7.715979	81.698757	7.783664	81.605626	QJM4+F76, Eravur, Sri Lanka	12.729342	
Batticaloa	Eravur	Eravur Hospital	False	False	BTTCLRVRRVRHSPTL		Batticaloa	LK-51	7.792772	81.486513	Eravur	PS-510104	7.715979	81.698757	7.783168	81.605999	QJM4+799, Eravur 30300, Sri Lanka	12.663585	
Batticaloa	Eravur	Mawadiwembu Hospital	False	False	BTTCLRVRMWDWMBHSPTL		Batticaloa	LK-51	7.792772	81.486513	Eravur	PS-510104	7.715979	81.698757	7.808545	81.566328	Mawadiwembu Hospital, Sri Lanka	17.861302	
Batticaloa	Eravur	MOH Office - Chenkaladi	False	False	BTTCLRVRMHFFCCHNKLD		Batticaloa	LK-51	7.792772	81.486513	Eravur	PS-510104	7.715979	81.698757	7.783599	81.593367	Trincomalee Hwy, Chenkaladi 30350, Sri Lanka	13.837876	
Batticaloa	Eravur	Chenkaladi Hospital	False	False	BTTCLRVRCHNKLDHSPTL		Batticaloa	LK-51	7.792772	81.486513	Eravur	PS-510104	7.715979	81.698757	7.783546	81.589961	Batticaloa Rd, Chenkaladi, Sri Lanka	14.151406	
Batticaloa	Karadiyanaru	Karadiyanaru Hospital	False	False	BTTCLKRDYNRKRDYNRHSPTL		Batticaloa	LK-51	7.792772	81.486513	Karadiyanaru	PS-510105	7.701992	81.537252	7.700216	81.539779	PG2Q+3WJ, Karadiyanaru, Sri Lanka	0.341482	
Ampara	Ampara	MOH Office - Eragama	False	False	MPRMPRMHFFCRGM		Ampara	LK-52	7.23699	81.550391	Ampara	PS-520113	7.296771	81.677161	7.027386	79.920232	2WGC+X35, Ragama, Sri Lanka	196.199345	#CenterFarFromPolice
Ampara	Ampara	Ds Senanayaka Vidyalaya	False	False	MPRMPRDSSNNYKVDYLY		Ampara	LK-52	7.23699	81.550391	Ampara	PS-520113	7.296771	81.677161	7.303531	81.671966	Dharmapala Mawatha, Ampara, Sri Lanka	0.945453	
Ampara	Ampara	Uhana Maha Vidyalaya	False	False	MPRMPRHNMHVDYLY		Ampara	LK-52	7.23699	81.550391	Ampara	PS-520113	7.296771	81.677161	7.36768	81.640838	Central Camp Rd, Sri Lanka	8.846763	
Ampara	Ampara	MOH Office - Damana	False	False	MPRMPRMHFFCDMN		Ampara	LK-52	7.23699	81.550391	Ampara	PS-520113	7.296771	81.677161	7.197982	81.65538	5MX4+55R, Damana, Sri Lanka	11.248041	
Ampara	Chavalakade	MOH Office - Navidanveli	False	False	MPRCHVLKDMHFFCNVDNVL		Ampara	LK-52	7.23699	81.550391	Chawalakade	PS-520125	7.413559	81.776822	7.420081	81.788401	B77, Sri Lanka	1.468805	
Ampara	Dehiattakandiya	Dehiattakandiya National College	False	False	MPRDHTTKNDYDHTTKNDYNTNLCLLG		Ampara	LK-52	7.23699	81.550391	Dehiaththakandiya	PS-520121	7.672072	81.044241	7.665625	81.0489	M28X+6HR, Dehiattakandiya 32150, Sri Lanka	0.882043	
Ampara	Dehiattakandiya	Kudagala Vidyalaya	False	False	MPRDHTTKNDYKDGLVDYLY		Ampara	LK-52	7.23699	81.550391	Dehiaththakandiya	PS-520121	7.672072	81.044241	7.67128	81.046484	Dehiattakandiya, Sri Lanka	0.26248	
Ampara	Karaitivu	MOH Office – Karaitivu	False	False	MPRKRTVMHFFCKRTV		Ampara	LK-52	7.23699	81.550391	Karaitivu		9.744059	79.870587	7.377712	81.838796	Colombo-Ratnapura-Wellawaya-Batticaloa Highway, Karativu 32250, Sri Lanka	340.788666	#CenterFarFromPolice
Ampara	Karaitivu	Sanmuha Vidyalaya	False	False	MPRKRTVSNMHVDYLY		Ampara	LK-52	7.23699	81.550391	Karaitivu		9.744059	79.870587	7.368576	81.84344	Shanmuga Maha Vidyalaya, Karaitivu 32250, Sri Lanka	341.89962	#CenterFarFromPolice
Ampara	Karaitivu	RKM Vidyalaya	False	False	MPRKRTVRKMVDYLY		Ampara	LK-52	7.23699	81.550391	Karaitivu		9.744059	79.870587	7.382042	81.843013	Central Rd, Karaitivu 32250, Sri Lanka	340.711182	#CenterFarFromPolice
Ampara	Karaitivu	Al Husen Vidyalaya	False	False	MPRKRTVLHSNVDYLY		Ampara	LK-52	7.23699	81.550391	Karaitivu		9.744059	79.870587	7.388044	81.841647	Maligaroad, Karaitivu, Kalmunai 32250, Sri Lanka	340.099835	#CenterFarFromPolice
Ampara	Kalmunai	Ashraff Memorial Hospital	False	False	MPRKLMNSHRFFMMRLHSPTL		Ampara	LK-52	7.23699	81.550391	Kalmunai	PS-520123	7.414289	81.825006	7.403172	81.831146	A4, Ashraff Memorial Base Hospital, A4 A4, Kalmunai 32300, Sri Lanka	1.409859	
Ampara	Kalmunai	Ramakrishna Mission College	False	False	MPRKLMNRMKRSHNMSSNCLLG		Ampara	LK-52	7.23699	81.550391	Kalmunai	PS-520123	7.414289	81.825006	7.412373	81.828629	Udyar Rd, Kalmunai 32300, Sri Lanka	0.452893	
Ampara	Kalmunai	Base Hospital - Kalmunai North	False	False	MPRKLMNBSHSPTLKLMNNRTH		Ampara	LK-52	7.23699	81.550391	Kalmunai	PS-520123	7.414289	81.825006	7.420034	81.82232	hospital near, Kalmunai 32300, Sri Lanka	0.704353	
Ampara	Kalmunai	MOH Office - Kalmunai South	False	False	MPRKLMNMHFFCKLMNSTH		Ampara	LK-52	7.23699	81.550391	Kalmunai	PS-520123	7.414289	81.825006	7.411712	81.838462	CR6Q+M9P, Kalmunai 32300, Sri Lanka	1.511625	
Ampara	Kalmunai	Al Bahariya National College	False	False	MPRKLMNLBHRYNTNLCLLG		Ampara	LK-52	7.23699	81.550391	Kalmunai	PS-520123	7.414289	81.825006	7.399481	81.839854	Zahira College Rd, Sainthamaruthu 32280, Sri Lanka	2.32275	
Ampara	Kalmunai	Al Manar Central College	False	False	MPRKLMNLMNRCNTRLCLLG		Ampara	LK-52	7.23699	81.550391	Kalmunai	PS-520123	7.414289	81.825006	7.436331	81.812701	Maruthamunai, Sri Lanka	2.802316	
Ampara	Kalmunai	Al Madina Vidyalaya	False	False	MPRKLMNLMDNVDYLY		Ampara	LK-52	7.23699	81.550391	Kalmunai	PS-520123	7.414289	81.825006	7.434363	81.817655	03 Mashoor Moulana Rd, Maruthamunai 32314, Sri Lanka	2.375481	
Ampara	Kalmunai	MOH Office - Kalmunai North	False	False	MPRKLMNMHFFCKLMNNRTH		Ampara	LK-52	7.23699	81.550391	Kalmunai	PS-520123	7.414289	81.825006	7.411712	81.838462	CR6Q+M9P, Kalmunai 32300, Sri Lanka	1.511625	
Ampara	Sainthamarthu	MOH Office – Sainthamarthu	False	False	MPRSNTHMRTHMHFFCSNTHMRTH		Ampara	LK-52	7.23699	81.550391									#PoliceLocationUnknown
Ampara	Sainthamarthu	Saindamarudu Hospital	False	False	MPRSNTHMRTHSNDMRDHSPTL		Ampara	LK-52	7.23699	81.550391									#PoliceLocationUnknown
Ampara	Sammanthurai	Sammanthurai Base Hospital	False	False	MPRSMMNTHRSMMNTHRBSHSPTL		Ampara	LK-52	7.23699	81.550391	Samanthurai	PS-520124	7.365785	81.810859	7.368355	81.813042	9R96+MWM, Hospital Rd, Sammanthurai, Sri Lanka	0.373773	
Ampara	Sammanthurai	MOH Office – Nintavur	False	False	MPRSMMNTHRMHFFCNNTVR		Ampara	LK-52	7.23699	81.550391	Samanthurai	PS-520124	7.365785	81.810859	7.352821	81.856939	Hospital Rd, Nintavur 32340, Sri Lanka	5.283925	
Ampara	Sammanthurai	Nintavur Hospital	False	False	MPRSMMNTHRNNTVRHSPTL		Ampara	LK-52	7.23699	81.550391	Samanthurai	PS-520124	7.365785	81.810859	7.353372	81.856852	Hospital Rd, Nintavur, Sri Lanka	5.258159	
Ampara	Sammanthurai	Al Maskar Balika Vidyalaya	False	False	MPRSMMNTHRLMSKRBLKVDYLY		Ampara	LK-52	7.23699	81.550391	Samanthurai	PS-520124	7.365785	81.810859	7.357484	81.795105	Sammanthurai, Sri Lanka	1.967921	
Ampara	Sammanthurai	Darussalam Vidyalaya	False	False	MPRSMMNTHRDRSSLMVDYLY		Ampara	LK-52	7.23699	81.550391	Samanthurai	PS-520124	7.365785	81.810859	7.357562	81.802725	9R53+23H, Sammanthurai, Sri Lanka	1.281286	
Ampara	Sammanthurai	Madina Vidyalaya	False	False	MPRSMMNTHRMDNVDYLY		Ampara	LK-52	7.23699	81.550391	Samanthurai	PS-520124	7.365785	81.810859	7.35018	81.80359	Kallarichchel 02, Sammanthurai, Sri Lanka	1.912014	
Ampara	Sammanthurai	Kannahi Vidyalaya	False	False	MPRSMMNTHRKNNHVDYLY		Ampara	LK-52	7.23699	81.550391	Samanthurai	PS-520124	7.365785	81.810859	7.35018	81.80359	Kallarichchel 02, Sammanthurai, Sri Lanka	1.912014	
Ampara	Sammanthurai	Al Marjan Vidyalaya	False	False	MPRSMMNTHRLMRJNVDYLY		Ampara	LK-52	7.23699	81.550391	Samanthurai	PS-520124	7.365785	81.810859	7.363356	81.799869	9Q7X+8WX, Sammanthurai, Sri Lanka	1.242072	
Ampara	Thirukkovil	MOH Office – Thirukkovil	False	False	MPRTHRKKVLMHFFCTHRKKVL		Ampara	LK-52	7.23699	81.550391	Thirukkovil	PS-520127	7.113998	81.852219	7.111635	81.852892	Central Rd, Vinayagapuram, Sri Lanka	0.273131	
Ampara	Akkaraipattu	Akkaraipattu Nuraniya Church	False	False	MPRKKRPTTKKRPTTNRNYCHRCH		Ampara	LK-52	7.23699	81.550391	Akkaraipattu	PS-520126	7.216084	81.853254	7.217154	81.849717	Sagama Rd, Akkaraipattu, Sri Lanka	0.408046	
Ampara	Akkaraipattu	Kovil Vinayagar Vidayalaya	False	False	MPRKKRPTTKVLVNYGRVDYLY		Ampara	LK-52	7.23699	81.550391	Akkaraipattu	PS-520126	7.216084	81.853254	7.198526	81.849358	Akkaraipattu-Sagamam Rd, Sri Lanka	1.999736	
Ampara	Akkaraipattu	Palamuna Muslim Vidyalaya	False	False	MPRKKRPTTPLMNMSLMVDYLY		Ampara	LK-52	7.23699	81.550391	Akkaraipattu	PS-520126	7.216084	81.853254	7.225665	81.838179	MCC Road, Akkaraipattu-06, Akkaraipattu 32400, Sri Lanka	1.975577	
Ampara	Akkaraipattu	Oluwil Hamra Vidyalaya	False	False	MPRKKRPTTLWLHMRVDYLY		Ampara	LK-52	7.23699	81.550391	Akkaraipattu	PS-520126	7.216084	81.853254	7.290277	81.857414	7VR4+4X7, Oluvil, Sri Lanka	8.265231	
Ampara	Akkaraipattu	Badur Mosque	False	False	MPRKKRPTTBDRMSQ		Ampara	LK-52	7.23699	81.550391	Akkaraipattu	PS-520126	7.216084	81.853254	7.21798	81.859573	Deens Road, Akkaraipattu, Sri Lanka	0.728487	
Ampara	Akkaraipattu	Alsiraj Vidyalaya	False	False	MPRKKRPTTLSRJVDYLY		Ampara	LK-52	7.23699	81.550391	Akkaraipattu	PS-520126	7.216084	81.853254	7.219333	81.85313	Akkaraipattu, Sri Lanka	0.361645	
Ampara	Akkaraipattu	MOH Office – Addalachenai	False	False	MPRKKRPTTMHFFCDDLCHN		Ampara	LK-52	7.23699	81.550391	Akkaraipattu	PS-520126	7.216084	81.853254	7.260916	81.853493	7V63+999, Addalaichenai, Sri Lanka	4.986726	
Ampara	Akkaraipattu	Addalachenai Hospital	False	False	MPRKKRPTTDDLCHNHSPTL		Ampara	LK-52	7.23699	81.550391	Akkaraipattu	PS-520126	7.216084	81.853254	7.253287	81.853598	Colombo - Batticaloa Hwy, Addalachchena, Sri Lanka	4.138258	
Ampara	Akkaraipattu	Addalachenai National College	False	False	MPRKKRPTTDDLCHNNTNLCLLG		Ampara	LK-52	7.23699	81.550391	Akkaraipattu	PS-520126	7.216084	81.853254	7.248937	81.857951	Addalaichenai, Sri Lanka	3.690806	
Ampara	Akkaraipattu	MOH Office - Alayadivembu	False	False	MPRKKRPTTMHFFCLYDVMB		Ampara	LK-52	7.23699	81.550391	Akkaraipattu	PS-520126	7.216084	81.853254	7.228134	81.851123	6VH2+7C5, Akkaraipattu, Sri Lanka	1.360772	
Ampara	Pottuvil	Komari Hospital	False	False	MPRPTTVLKMRHSPTL		Ampara	LK-52	7.23699	81.550391	Pothuvil	PS-520128	6.878387	81.826859	6.876098	81.830463	Main Street,, Base Hospital, Main Street Colombo - Batticaloa Hwy, Pottuvil 32500, Sri Lanka	0.47246	
Ampara	Pottuvil	Pottuvil Hospital	False	False	MPRPTTVLPTTVLHSPTL		Ampara	LK-52	7.23699	81.550391	Pothuvil	PS-520128	6.878387	81.826859	6.876098	81.830463	Main Street Colombo - Batticaloa Hwy, Pottuvil 32500, Sri Lanka	0.47246	
Ampara	Pottuvil	Sengamuwa Cultural Centre	False	False	MPRPTTVLSNGMWCLTRLCNTR		Ampara	LK-52	7.23699	81.550391	Pothuvil	PS-520128	6.878387	81.826859	6.867347	81.736652	VP8P+WMJ, Lahugala, Sri Lanka	10.03701	
Ampara	Pottuvil	Al Aksha Vidyalaya - Ulla	False	False	MPRPTTVLLKSHVDYLYLL		Ampara	LK-52	7.23699	81.550391	Pothuvil	PS-520128	6.878387	81.826859	6.867891	81.839008	Muhudu Maha Vihara Mawatha, Pottuvil, Sri Lanka	1.778462	
Ampara	Pottuvil	MOH Office - Pottuvil	False	False	MPRPTTVLMHFFCPTTVL		Ampara	LK-52	7.23699	81.550391	Pothuvil	PS-520128	6.878387	81.826859	6.877076	81.828969	B374, Pottuvil, Sri Lanka	0.274874	
