district	police	center	dose1	dose2	fuzzy_key	alt_name	district_name_norm	district_id	district_lat	district_lng	ps_name_norm	ps_id	ps_lat	ps_lng	lat	lng	formatted_address	dis_center_to_police	tags
Colombo	Cinnamon Gardens	Viharamahadevi Park	False	False	CLMBCNNMNGRDNSVHRMHDVPRK		Colombo	LK-11	6.869636	80.019598	Cinnamon Garden	PS-110324	6.907289	79.863819	6.913391	79.86174	Viharamahadevi Park, Colombo, Sri Lanka	0.716497	
Colombo	Thalangama	MOH Office - Battaramulla	False	False	CLMBTHLNGMMHFFCBTTRMLL		Colombo	LK-11	6.869636	80.019598	Thalangama	PS-110466	6.91089	79.929325	6.901538	79.919128	WW29+JM6, Battaramulla 10120, Sri Lanka	1.532936	
Colombo	Thalangama	Diyatha Uyana	False	False	CLMBTHLNGMDYTHYN		Colombo	LK-11	6.869636	80.019598	Thalangama	PS-110466	6.91089	79.929325	6.904575	79.909831	Diyatha Uyana, B240, Sri Jayawardenepura Kotte, Sri Lanka	2.264281	
Colombo	Grandpass	Sugathadasa Outdoor Stadium	False	False	CLMBGRNDPSSSGTHDSTDRSTDM		Colombo	LK-11	6.869636	80.019598	Grandpass	PS-110215	6.949052	79.872983	6.94806	79.868842	Prince of Wales Ave, Colombo 01400, Sri Lanka	0.470345	
Colombo	Narahenpita	Army Hospital Narahenpita	False	False	CLMBNRHNPTRMYHSPTLNRHNPT		Colombo	LK-11	6.869636	80.019598	Narahenpita	PS-110321	6.891832	79.876715	6.900252	79.87618	08 Elvitigala Mawatha, Colombo 00800, Sri Lanka	0.938417	
Colombo	Boralesgamuwa	MOH Office - Verahera	False	False	CLMBBRLSGMWMHFFCVRHR		Colombo	LK-11	6.869636	80.019598	Boralesgamuwa	PS-110464	6.841331	79.901255	6.833094	79.905583	RWM4+66P, Boralesgamuwa, Sri Lanka	1.033386	
Colombo	Boralesgamuwa	Kotelawala Defence Hospital	False	False	CLMBBRLSGMWKTLWLDFNCHSPTL		Colombo	LK-11	6.869636	80.019598	Boralesgamuwa	PS-110464	6.841331	79.901255	6.82518	79.907167	RWG4+3VF, Boralesgamuwa, Sri Lanka	1.911444	
Colombo	Mount Lavinia	Attidiya Children and Maternity Clinic	False	False	CLMBMNTLVNTTDYCHLDRNNDMTRNTYCLNC		Colombo	LK-11	6.869636	80.019598	Mount Lavinia	PS-110577	6.825006	79.87009	6.824371	79.872256	RVFC+PWR, Dehiwala-Mount Lavinia, Sri Lanka	0.249426	
Colombo	Mount Lavinia	Garden Children and Maternity Clinic	False	False	CLMBMNTLVNGRDNCHLDRNNDMTRNTYCLNC		Colombo	LK-11	6.869636	80.019598	Mount Lavinia	PS-110577	6.825006	79.87009	6.824371	79.872256	RVFC+PWR, Dehiwala-Mount Lavinia, Sri Lanka	0.249426	
Colombo	Dehiwala	MOH Office - Dehiwala	False	False	CLMBDHWLMHFFCDHWL		Colombo	LK-11	6.869636	80.019598	Dehiwala	PS-110580	6.850088	79.871696	6.861346	79.865943	VV68+G9P, Dehiwala-Mount Lavinia, Sri Lanka	1.404177	
Colombo	Maradana	Ratnayake Mawatha Community Hall	False	False	CLMBMRDNRTNYKMWTHCMMNTYHLL		Colombo	LK-11	6.869636	80.019598	Maradana	PS-110107	6.927939	79.865471	6.923023	79.869187	WVF9+6M3, Colombo 01000, Sri Lanka	0.683633	
Colombo	Maradana	National Hospital - Colombo	False	False	CLMBMRDNNTNLHSPTLCLMB		Colombo	LK-11	6.869636	80.019598	Maradana	PS-110107	6.927939	79.865471	6.918743	79.868992	Colombo 00700, Sri Lanka	1.094265	
Colombo	Homagama	Panagoda Bodhirajarama Viharaya	False	False	CLMBHMGMPNGDBDHRJRMVHRY		Colombo	LK-11	6.869636	80.019598	Homagama	PS-110470	6.836155	80.003474	6.929161	79.88265	Gnanawimala Rd, Colombo, Sri Lanka	16.883101	
Colombo	Borella	St. Luke's Church - Borella	False	False	CLMBBRLLSTLKSCHRCHBRLL		Colombo	LK-11	6.869636	80.019598	Borella	PS-110323	6.915266	79.87829	6.918035	79.874548	1091 Gnanartha Pradeepa Mawatha, Colombo 00800, Sri Lanka	0.515354	
Colombo	Wellampitiya	MOH Office - Kolonnawa	False	False	CLMBWLLMPTYMHFFCKLNNW		Colombo	LK-11	6.869636	80.019598	Wellampitiya	PS-110465	6.937514	79.896298	6.938303	79.889664	25 Pansalhena 1st Ln, 10600, Sri Lanka	0.737734	
Colombo	Kaduwela	MOH Office - Kaduwela	False	False	CLMBKDWLMHFFCKDWL		Colombo	LK-11	6.869636	80.019598	Kaduwela		6.936234	79.970183	6.934127	79.984398	B263, Kaduwela, Sri Lanka	1.586964	
Colombo	Kosgama	Kaluaggala Bosco College	False	False	CLMBKSGMKLGGLBSCCLLG		Colombo	LK-11	6.869636	80.019598	Kosgama	PS-920227	6.946597	80.137869	6.918282	80.099904	Kaluaggla, Sri Lanka	5.24326	
Colombo	Kosgama	Kosgama Hospital	False	False	CLMBKSGMKSGMHSPTL		Colombo	LK-11	6.869636	80.019598	Kosgama	PS-920227	6.946597	80.137869	6.940956	80.124888	Salawa-Akarawita, 10730, Sri Lanka	1.564606	
Colombo	Fore shore	MOH Office - Jinthupitiya	False	False	CLMBFRSHRMHFFCJNTHPTY		Colombo	LK-11	6.869636	80.019598	Fore shore	PS-110210	6.949589	79.857355	6.943258	79.859238	No.27 Vivekananda Hill, Colombo 01300, Sri Lanka	0.734247	
Gampaha	Gampaha	Moragoda Church	False	False	GMPHGMPHMRGDCHRCH		Gampaha	LK-12	7.123598	80.018508	Gampaha	PS-120237	7.087765	80.01228	7.073227	79.999863	Gampaha, Sri Lanka	2.119775	
Gampaha	Gampaha	Baduwathugoda Clinic Center	False	False	GMPHGMPHBDWTHGDCLNCCNTR		Gampaha	LK-12	7.123598	80.018508	Gampaha	PS-120237	7.087765	80.01228	7.111924	80.03102	426J+QC6, Bemmulla, Sri Lanka	3.391105	
Gampaha	Gampaha	MOH Office - Gampaha	False	False	GMPHGMPHMHFFCGMPH		Gampaha	LK-12	7.123598	80.018508	Gampaha	PS-120237	7.087765	80.01228	7.090643	80.002094	Colombo Rd, Gampaha, Sri Lanka	1.16901	
Gampaha	Minuwangoda	MOH Office - Minuwangoda	False	False	GMPHMNWNGDMHFFCMNWNGD		Gampaha	LK-12	7.123598	80.018508	Minuwangoda	PS-120238	7.174215	79.957874	7.17227	79.956823	Katunayake-Veyangoda Rd, Minuwangoda, Sri Lanka	0.245525	
Gampaha	Nittambuwa	Pasyala Central Dispensary	False	False	GMPHNTTMBWPSYLCNTRLDSPNSRY		Gampaha	LK-12	7.123598	80.018508	Nittambuwa	PS-120246	7.149726	80.10046	7.146549	80.088866	43WQ+JG9, Nittambuwa, Sri Lanka	1.327475	
Gampaha	Nittambuwa	Vidyananda Pirivena	False	False	GMPHNTTMBWVDYNNDPRVN		Gampaha	LK-12	7.123598	80.018508	Nittambuwa	PS-120246	7.149726	80.10046	7.144907	80.092391	Negambo road, Nittambuwa, Sri Lanka	1.039411	
Gampaha	Pallewela	Pallewela Central Dispensary	False	False	GMPHPLLWLPLLWLCNTRLDSPNSRY		Gampaha	LK-12	7.123598	80.018508	Pallewela	PS-120249	7.197365	80.094856	7.19666	80.093998	Pallewela, Sri Lanka	0.12294	
Gampaha	Kadawata	MOH Office – Mahara	False	False	GMPHKDWTMHFFCMHR		Gampaha	LK-12	7.123598	80.018508	Kadawatha	PS-120136	7.00152	79.95003	7.020757	79.973481	Mahara, Eldeniya, Sri Lanka	3.358732	
Gampaha	Biyagama	MOH Office - Biyagama	False	False	GMPHBYGMMHFFCBYGM		Gampaha	LK-12	7.123598	80.018508	Biyagama	PS-120131	6.962284	80.009037	6.946824	79.994052	Hospital Rd, Sri Lanka	2.386313	
Gampaha	Pugoda	MOH Office – Dompe	False	False	GMPHPGDMHFFCDMP		Gampaha	LK-12	7.123598	80.018508	Pugoda	PS-120241	6.98283	80.111189	6.976767	80.117422	Dompe, Pugoda-Mandawala Rd, Pugoda, Sri Lanka	0.963513	
Gampaha	Pamunugama	Pamunugama Hospital	False	False	GMPHPMNGMPMNGMHSPTL		Gampaha	LK-12	7.123598	80.018508	Pamunugama	PS-120353	7.078892	79.859696	7.093543	79.850191	3VV2+C38, Negombo, Sri Lanka	1.938152	
Gampaha	Divulapitiya	Dunagaha Central Dispensary	False	False	GMPHDVLPTYDNGHCNTRLDSPNSRY		Gampaha	LK-12	7.123598	80.018508	Diulapitiya	PS-120355	7.174215	79.957874	7.230314	80.016474	Divulapitiya, Sri Lanka	8.986298	
Gampaha	Divulapitiya	Wekada Central Dispensary	False	False	GMPHDVLPTYWKDCNTRLDSPNSRY		Gampaha	LK-12	7.123598	80.018508	Diulapitiya	PS-120355	7.174215	79.957874	7.261385	79.958626	7X65+HF2, Akaragama, Sri Lanka	9.69626	
Gampaha	Divulapitiya	MOH Office - Divulapitiya	False	False	GMPHDVLPTYMHFFCDVLPTY		Gampaha	LK-12	7.123598	80.018508	Diulapitiya	PS-120355	7.174215	79.957874	7.215486	80.013606	6287+5CX, Divulapitiya, Sri Lanka	7.67456	
Gampaha	Ja Ela	MOH Office - Ja Ela	False	False	GMPHJLMHFFCJL		Gampaha	LK-12	7.123598	80.018508	Ja - Ela	PS-120133	7.081055	79.890504	7.075216	79.893879	60 Mount Kalvary Rd, Ja-Ela, Sri Lanka	0.748731	
Gampaha	Wattala	MOH Office – Wattala	False	False	GMPHWTTLMHFFCWTTL		Gampaha	LK-12	7.123598	80.018508	Wattala	PS-120128	6.993713	79.894506	6.995817	79.885793	301 Hendala Rd, Wattala, Sri Lanka	0.989991	
Gampaha	Ragama	MOH Office – Ragama	False	False	GMPHRGMMHFFCRGM		Gampaha	LK-12	7.123598	80.018508	Ragama	PS-120134	7.034975	79.924148	7.027386	79.920232	2WGC+X35, Ragama, Sri Lanka	0.948382	
Gampaha	Dodangoda	Dodangoda Hospital	False	False	GMPHDDNGDDDNGDHSPTL		Gampaha	LK-12	7.123598	80.018508	Dodangoda	PS-130299	6.553375	80.023569	6.540961	80.036553	Wilpatha Rd, Sri Lanka	1.991373	
Gampaha	Dodangoda	MOH Office - Dodangoda	False	False	GMPHDDNGDMHFFCDDNGD		Gampaha	LK-12	7.123598	80.018508	Dodangoda	PS-130299	6.553375	80.023569	6.540312	80.036609	G2RP+4JH, Sri Lanka	2.046366	
Gampaha	Thebuwana	Divisional Hospital - Neboda	False	False	GMPHTHBWNDVSNLHSPTLNBD		Gampaha	LK-12	7.123598	80.018508	Thebuwana	PS-1302105	6.654997	80.058183	6.570354	80.073048	wellatha Neboda ., Neboda - Wellatha Rd, Sri Lanka	9.557015	
Gampaha	Horana	Kananvila Maha Vidyalaya	False	False	GMPHHRNKNNVLMHVDYLY		Gampaha	LK-12	7.123598	80.018508	Horana	PS-130192	6.714613	80.069091	7.251934	80.042278	722R+QWC, Gampaha, Sri Lanka	59.839393	#CenterFarFromPolice
Gampaha	Horana	Miwanapalana Maha Vidyalaya	False	False	GMPHHRNMWNPLNMHVDYLY		Gampaha	LK-12	7.123598	80.018508	Horana	PS-130192	6.714613	80.069091	7.251934	80.042278	722R+QWC, Gampaha, Sri Lanka	59.839393	#CenterFarFromPolice
Gampaha	Ingiriya	Ingiriya Hospital	False	False	GMPHNGRYNGRYHSPTL		Gampaha	LK-12	7.123598	80.018508	Ingiriya	PS-130193	6.743614	80.175077	6.741133	80.162046	Panadura-Nambapana-Ratnapura Hwy, Ingiriya, Sri Lanka	1.465626	
Gampaha	Agalawatta	Pimbura Hospital	False	False	GMPHGLWTTPMBRHSPTL		Gampaha	LK-12	7.123598	80.018508	Agalawatta		6.542566	80.157178	6.575949	80.158371	H5G5+98H, කළුතර, Sri Lanka	3.715525	
Gampaha	Matugama	Weththewa Hospital	False	False	GMPHMTGMWTHTHWHSPTL		Gampaha	LK-12	7.123598	80.018508	Mathugama	PS-1302103	6.520881	80.117908	6.523087	80.125192	District Hospital, Hospital Road,Weththewa,., Matugama, Sri Lanka	0.841523	
Gampaha	Matugama	Katuhena Hospital	False	False	GMPHMTGMKTHNHSPTL		Gampaha	LK-12	7.123598	80.018508	Mathugama	PS-1302103	6.520881	80.117908	6.946064	79.860912	WVW6+99, 213 Jampettah St, Colombo 01300, Sri Lanka	55.159144	#CenterFarFromPolice
Gampaha	Matugama	MOH Office - Matugama	False	False	GMPHMTGMMHFFCMTGM		Gampaha	LK-12	7.123598	80.018508	Mathugama	PS-1302103	6.520881	80.117908	6.523544	80.126443	G4FG+CH8, Matugama, Sri Lanka	0.988725	
Gampaha	Pandura	MOH Office - Panadura	False	False	GMPHPNDRMHFFCPNDR		Gampaha	LK-12	7.123598	80.018508									#PoliceLocationUnknown
Gampaha	Baduraliya	Baduraliya Hospital	False	False	GMPHBDRLYBDRLYHSPTL		Gampaha	LK-12	7.123598	80.018508	Baduraliya	PS-1302106	6.516756	80.226716	6.514727	80.232731	Tiruwanaketiya-Agalawatte Rd, Baduraliya, Sri Lanka	0.702098	
Gampaha	Beruwala	Beruwala Hospital	False	False	GMPHBRWLBRWLHSPTL		Gampaha	LK-12	7.123598	80.018508	Beruwala	PS-1302102	6.480329	79.983498	6.472087	79.983492	FXCM+R9Q, Beruwala, Sri Lanka	0.916757	
Gampaha	Bulathsinhala	MOH Office - Bulathsinhala	False	False	GMPHBLTHSNHLMHFFCBLTHSNHL		Gampaha	LK-12	7.123598	80.018508	Bulathsinhala	PS-1302104	6.650425	80.17703	6.644683	80.179607	J5VH+VRH, Bulathsinhala, Sri Lanka	0.699369	
Gampaha	Bandragama	MOH Office - Bandaragama	False	False	GMPHBNDRGMMHFFCBNDRGM		Gampaha	LK-12	7.123598	80.018508	Bandaragama	PS-130189	6.715179	79.987674	6.713351	79.991671	Library Path, Bandaragama, Sri Lanka	0.486104	
Kurunegala	Kuliyapitiya	Kuliyapitiya Hospital	False	False	KRNGLKLYPTYKLYPTYHSPTL		Kurunegala	LK-61	7.66477	80.23677	Kuliyapitiya	PS-610212	7.471205	80.024139	7.472045	80.044605	F2CV+RR9, Kuliyapitiya, Sri Lanka	2.259034	
Kurunegala	Giriulla	kavudumunna Maha Vidyalaya	False	False	KRNGLGRLLKVDMNNMHVDYLY		Kurunegala	LK-61	7.66477	80.23677	Giriulla	PS-610215	7.334527	80.125021	7.326725	80.118281	Wickramashila National school, Giriulla, Negombo-Kurunegala Rd, Giriulla, Sri Lanka	1.142798	
Kurunegala	Kandanegedara	Welpalla Maha Vidyalaya	False	False	KRNGLKNDNGDRWLPLLMHVDYLY		Kurunegala	LK-61	7.66477	80.23677									#PoliceLocationUnknown
Kurunegala	Pannala	Sandalankawa Central College	False	False	KRNGLPNNLSNDLNKWCNTRLCLLG		Kurunegala	LK-61	7.66477	80.23677	Pannala	PS-610214	7.327738	80.021761	7.321638	79.963716	Negombo-Kurunegala Rd, 60176, Sri Lanka	6.439495	
Kurunegala	Pannala	Pannala National College	False	False	KRNGLPNNLPNNLNTNLCLLG		Kurunegala	LK-61	7.66477	80.23677	Pannala	PS-610214	7.327738	80.021761	7.327113	80.02619	Negombo-Kurunegala Rd, Pannala, Sri Lanka	0.49355	
Kurunegala	Rasnayakapura	Rasnayakapura Vidyalaya	False	False	KRNGLRSNYKPRRSNYKPRVDYLY		Kurunegala	LK-61	7.66477	80.23677	Rasnayakapura	PS-610323	7.776658	80.012692	7.777734	80.016779	Adigama Road, Rasnayakapura,l, Nikaweratiya, Sri Lanka	0.466045	
Kurunegala	Gokarella	Medamulla Maha Vidyalaya	False	False	KRNGLGKRLLMDMLLMHVDYLY		Kurunegala	LK-61	7.66477	80.23677	Gokarella	PS-610108	7.59543	80.480081	7.579505	80.500773	Rathvita, Gokarella, Sri Lanka	2.888424	
Kurunegala	Polgahawela	Polagahawela Town Hall	False	False	KRNGLPLGHWLPLGHWLTWNHLL		Kurunegala	LK-61	7.66477	80.23677	Polgahawela	PS-610102	7.333281	80.300363	7.328865	80.30456	88H3+GRV, Polgahawela, Sri Lanka	0.67502	
Kurunegala	Polgahawela	Wadakada Pinwatta Vharaya	False	False	KRNGLPLGHWLWDKDPNWTTVHRY		Kurunegala	LK-61	7.66477	80.23677	Polgahawela	PS-610102	7.333281	80.300363	7.396299	80.265052	97W8+G27, Kurunegala, Sri Lanka	8.019082	
Kurunegala	Polgahawela	Denagauwa Vidyalaya	False	False	KRNGLPLGHWLDNGWVDYLY		Kurunegala	LK-61	7.66477	80.23677	Polgahawela	PS-610102	7.333281	80.300363	7.352664	80.326382	Denagamuwa Rd, Sri Lanka	3.589865	
Kurunegala	Polgahawela	Rathmalgoda Maha Vidyalaya	False	False	KRNGLPLGHWLRTHMLGDMHVDYLY		Kurunegala	LK-61	7.66477	80.23677	Polgahawela	PS-610102	7.333281	80.300363	7.368927	80.310975	Rathmalgoda, Polgahawela, Ambepussa - Kurunegala - Trincomalee Hwy, 60300, Sri Lanka	4.134113	
Kurunegala	Melsiripura	Diddeniya Maha Vidyalaya	False	False	KRNGLMLSRPRDDDNYMHVDYLY		Kurunegala	LK-61	7.66477	80.23677									#PoliceLocationUnknown
Kurunegala	Kumbukgete	Kumbukgate Maha Vidyalaya	False	False	KRNGLKMBKGTKMBKGTMHVDYLY		Kurunegala	LK-61	7.66477	80.23677	Kumbukgatey	PS-610111	6.934132	79.856305	7.672422	80.41596	Kumbukgete, Sri Lanka	102.742886	#CenterFarFromPolice
Kurunegala	Kurunegala	Doratiyawa Vidyalaya	False	False	KRNGLKRNGLDRTYWVDYLY		Kurunegala	LK-61	7.66477	80.23677	Kurunegala	PS-610101	7.485852	80.364137	7.456644	80.391148	F94R+MF2, Kurunegala, Sri Lanka	4.407798	
Kurunegala	Kotawehera	Palugolla Vidyalaya	False	False	KRNGLKTWHRPLGLLVDYLY		Kurunegala	LK-61	7.66477	80.23677	Kotawehera	PS-610322	7.809001	80.077977	7.809001	80.077977	Kotawehera, Kurunegala, Sri Lanka	0.0	
Kurunegala	Kotawehera	Digannewa Vidyalaya	False	False	KRNGLKTWHRDGNNWVDYLY		Kurunegala	LK-61	7.66477	80.23677	Kotawehera	PS-610322	7.809001	80.077977	7.893315	80.10098	Digannewa, Sri Lanka	9.714819	
Kurunegala	Kobeigane	Vithikuliya Vidyalaya	False	False	KRNGLKBGNVTHKLYVDYLY		Kurunegala	LK-61	7.66477	80.23677	Kobeigane	PS-610321	7.656934	80.126283	7.711982	80.151232	Vithikuliya, Sri Lanka	6.712244	
Kurunegala	Kobeigane	Hengamuwa Vidyalaya	False	False	KRNGLKBGNHNGMWVDYLY		Kurunegala	LK-61	7.66477	80.23677	Kobeigane	PS-610321	7.656934	80.126283	7.700444	80.115879	hengamuwa ,kobeigane, Sri Lanka	4.973641	
Kurunegala	Marawila	MOH Office – Naththandiya	False	False	KRNGLMRWLMHFFCNTHTHNDY		Kurunegala	LK-61	7.66477	80.23677	Marawila	PS-620243	7.415075	79.839776	7.385754	79.833106	9RPM+865, Marawila, Sri Lanka	3.343325	
Kurunegala	Kalpitiya	Kalpitiya Hospital	False	False	KRNGLKLPTYKLPTYHSPTL		Kurunegala	LK-61	7.66477	80.23677	Kalpitiya	PS-620137	8.235145	79.764567	8.235596	79.766951	6QP8+6QP, Kalpitiya, Sri Lanka	0.267189	
Kurunegala	Wennappuwa	Sirigampola Vidyalaya	False	False	KRNGLWNNPPWSRGMPLVDYLY		Kurunegala	LK-61	7.66477	80.23677	Wennappuwa	PS-620245	7.339623	79.843017	7.362111	79.870083	9V6C+R2W, Sirigampola, Sri Lanka	3.895088	
Kurunegala	Wennappuwa	Lunuwila Vidyalaya	False	False	KRNGLWNNPPWLNWLVDYLY		Kurunegala	LK-61	7.66477	80.23677	Wennappuwa	PS-620245	7.339623	79.843017	7.355878	79.872652	Lunuwila, Sri Lanka	3.735888	
Kurunegala	Wennappuwa	Galawatta Church	False	False	KRNGLWNNPPWGLWTTCHRCH		Kurunegala	LK-61	7.66477	80.23677	Wennappuwa	PS-620245	7.339623	79.843017	7.487107	80.364921	Kurunegala, Sri Lanka	59.857826	#CenterFarFromPolice
Kurunegala	Koswatta	Kirimetiyana Vidyalaya	False	False	KRNGLKSWTTKRMTYNVDYLY		Kurunegala	LK-61	7.66477	80.23677	Koswatta	PS-620244	7.374528	79.898302	7.3289	79.862086	Kirimetiyana, Sri Lanka	6.459032	
Kurunegala	Dankotuwa	Wekada Vidyalaya	False	False	KRNGLDNKTWWKDVDYLY		Kurunegala	LK-61	7.66477	80.23677	Dankotuwa	PS-620246	7.300337	79.882595	7.294468	79.928811	7WVH+QGM, Puttalam, Sri Lanka	5.140579	
Kurunegala	Anamaduwa	Kannangara Vidyalaya	False	False	KRNGLNMDWKNNNGRVDYLY		Kurunegala	LK-61	7.66477	80.23677	Anamaduwa	PS-620131	7.874852	80.01316	7.896286	80.257406	V7W4+GX7, Kurunegala, Sri Lanka	27.015949	#CenterFarFromPolice
Kurunegala	Nawagattegama	Multi Task Center	False	False	KRNGLNWGTTGMMLTTSKCNTR		Kurunegala	LK-61	7.66477	80.23677	Nawagaththegama	PS-620133	8.002882	80.106543	8.00654	80.112149	Nawagattegama, Sri Lanka	0.73948	
Kurunegala	Mahabulankadawala	Mahabulankadawala Vidyalaya	False	False	KRNGLMHBLNKDWLMHBLNKDWLVDYLY		Kurunegala	LK-61	7.66477	80.23677									#PoliceLocationUnknown
Kurunegala	Puttalam	Puttalama Hindu College	False	False	KRNGLPTTLMPTTLMHNDCLLG		Kurunegala	LK-61	7.66477	80.23677	Puttalam	PS-620130	8.029904	79.834396	8.028082	79.840608	Katugastota-Kurunegala-Puttalam Hwy, Puttalam, Sri Lanka	0.71357	
Puttalam	Chilaw	Kokkavila Government College	False	False	PTTLMCHLWKKKVLGVRNMNTCLLG		Puttalam	LK-62	7.973531	79.913833	Chilaw	PS-620241	7.576197	79.788003	7.578773	79.793187	HQHV+G73, Chilaw, Sri Lanka	0.639376	
Puttalam	Chilaw	Sawarana Government College	False	False	PTTLMCHLWSWRNGVRNMNTCLLG		Puttalam	LK-62	7.973531	79.913833	Chilaw	PS-620241	7.576197	79.788003	7.580259	79.795395	HQJW+452, Chilaw, Sri Lanka	0.931982	
Puttalam	Chilaw	Kakkapalliya Government College	False	False	PTTLMCHLWKKKPLLYGVRNMNTCLLG		Puttalam	LK-62	7.973531	79.913833	Chilaw	PS-620241	7.576197	79.788003	7.571297	79.799123	Puttalam - Colombo Rd, Chilaw, Sri Lanka	1.341767	
Kandy	Kandy	Pushpadana Girls' College	False	False	KNDYKNDYPSHPDNGRLSCLLG		Kandy	LK-21	7.27337	80.709602	Kandy	PS-210101	7.292948	80.642368	7.293989	80.633	16 Kandy Rd, Kandy 20000, Sri Lanka	1.040036	
Kandy	Kandy	St.Sylvester's Primary School	False	False	KNDYKNDYSTSYLVSTRSPRMRYSCHL		Kandy	LK-21	7.27337	80.709602	Kandy	PS-210101	7.292948	80.642368	7.29757	80.634654	Wariyapola Sri Sumangala Mawatha, Kandy, Sri Lanka	0.994305	
Kandy	Kandy	Mahanama Vidyalaya	False	False	KNDYKNDYMHNMVDYLY		Kandy	LK-21	7.27337	80.709602	Kandy	PS-210101	7.292948	80.642368	7.272228	80.607279	396, 17 Peradeniya Rd, Kandy 20000, Sri Lanka	4.505525	
Kandy	Daulagala	Alapalawala Piriven Viharaya	False	False	KNDYDLGLLPLWLPRVNVHRY		Kandy	LK-21	7.27337	80.709602	Daulagala	PS-210111	7.227283	80.574409	7.238425	80.576046	Embilmeegama-Daulagala-Penideniya Rd, Sri Lanka	1.252418	
Kandy	Panvila	Kosgama Maha Vidyalaya	False	False	KNDYPNVLKSGMMHVDYLY		Kandy	LK-21	7.27337	80.709602	Panwila	PS-210361	7.362355	80.713731	7.398604	80.745406	9PXW+C5R, Huluganga, Sri Lanka	5.335253	
Kandy	Balagolla	Bandaranayaka National College	False	False	KNDYBLGLLBNDRNYKNTNLCLLG		Kandy	LK-21	7.27337	80.709602									#PoliceLocationUnknown
Kandy	Balagolla	Kengalla National College	False	False	KNDYBLGLLKNGLLNTNLCLLG		Kandy	LK-21	7.27337	80.709602									#PoliceLocationUnknown
Kandy	Pupuressa	Morahena Hospital	False	False	KNDYPPRSSMRHNHSPTL		Kandy	LK-21	7.27337	80.709602	Pupuressa		7.130291	80.663669	7.160157	80.669544	morahena hospital, mulgama, gampola, Mulgama, Sri Lanka	3.384678	
Kandy	Thalathuoya	Social Services Institute	False	False	KNDYTHLTHYSCLSRVCSNSTTT		Kandy	LK-21	7.27337	80.709602	Thalathuoya	PS-210107	7.25166	80.689528	7.276897	80.618109	37 Bodhiyangana Mawatha, Kandy 32350, Sri Lanka	8.365213	
Kandy	Wattegama	Walala A.Rathnayake Central College	False	False	KNDYWTTGMWLLRTHNYKCNTRLCLLG		Kandy	LK-21	7.27337	80.709602	Wattegama	PS-210357	7.350603	80.68335	7.318909	80.693359	8M9V+H89, Menikhinna, Sri Lanka	3.694199	
Kandy	Nawalapitiya	West Hall Tamil College	False	False	KNDYNWLPTYWSTHLLTMLCLLG		Kandy	LK-21	7.27337	80.709602	Nawalapitiya	PS-210219	7.057355	80.536075	7.003823	80.572917	2H3F+G5F, Sri Lanka	7.21081	
Kandy	Nawalapitiya	Paranagama Central College	False	False	KNDYNWLPTYPRNGMCNTRLCLLG		Kandy	LK-21	7.27337	80.709602	Nawalapitiya	PS-210219	7.057355	80.536075	7.363236	80.639738	Pathadumbara, Jambugahapitiya, Sri Lanka	35.894661	#CenterFarFromPolice
Kandy	Gampola	Kahawatta Hospital	False	False	KNDYGMPLKHWTTHSPTL		Kandy	LK-21	7.27337	80.709602	Gampola	PS-210216	7.132941	80.56799	6.578924	80.575179	A18, Kahawatta 70150, Sri Lanka	61.628332	#CenterFarFromPolice
Kandy	Gampola	Wickramabahu National College	False	False	KNDYGMPLWCKRMBHNTNLCLLG		Kandy	LK-21	7.27337	80.709602	Gampola	PS-210216	7.132941	80.56799	7.153925	80.563839	Nawalapitiya Road, Gampola 20500, Sri Lanka, Sri Lanka	2.378605	
Kandy	Pussellawa	Weerasekara Maha Vidyalaya	False	False	KNDYPSSLLWWRSKRMHVDYLY		Kandy	LK-21	7.27337	80.709602	Pussellawa	PS-210217	7.115334	80.635553	7.105713	80.632518	4J4M+72J, Pussellawa, Sri Lanka	1.121347	
Nuwara Eliya	Kotmale	MOH Office – Kotmale	False	False	NWRLYKTMLMHFFCKTML		Nuwara Eliya	LK-23	6.97423	80.711222	Kotmale	PS-230134	7.063602	80.685054	7.062013	80.685533	3M6P+R63, Kothmale New Town, Sri Lanka	0.184484	
Nuwara Eliya	Mathurata	Mathurata Vidyalaya	False	False	NWRLYMTHRTMTHRTVDYLY		Nuwara Eliya	LK-23	6.97423	80.711222	Maturata	PS-230144	7.079873	80.801871	7.080267	80.802335	3RJ2+4W4, Mathurata, Sri Lanka	0.067491	
Nuwara Eliya	Hanguranketa	Pallebowala Uda Bowala Viharaya	False	False	NWRLYHNGRNKTPLLBWLDBWLVHRY		Nuwara Eliya	LK-23	6.97423	80.711222	Hanguranketha	PS-210108	7.176511	80.777388	7.151469	80.732271	Gannewa - Udagama Road, Pallebowala, Sri Lanka	5.705329	
Nuwara Eliya	Ragala	Silvercandy Tamil College	False	False	NWRLYRGLSLVRCNDYTMLCLLG		Nuwara Eliya	LK-23	6.97423	80.711222	Ragala	PS-230142	7.012347	80.858498	6.946397	80.789372	No. 14, Bakers Farm, Blackpool - Magasthota Rd, Nuwara Eliya 22200, Sri Lanka	10.585698	
Nuwara Eliya	Nuwara Eliya	Seetha Eliya Gangarama Viharaya	False	False	NWRLYNWRLYSTHLYGNGRMVHRY		Nuwara Eliya	LK-23	6.97423	80.711222	Nuwaraeliya	PS-230131	6.974148	80.767627	6.933226	80.810501	WRM6+76R, Seetha Eliya, Sri Lanka	6.567128	
Nuwara Eliya	Nuwara Eliya	Shanthipura Community Hall	False	False	NWRLYNWRLYSHNTHPRCMMNTYHLL		Nuwara Eliya	LK-23	6.97423	80.711222	Nuwaraeliya	PS-230131	6.974148	80.767627	6.978945	80.747771	Shanthipura, Nuwara Eliya, Sri Lanka	2.256226	
Nuwara Eliya	Nuwara Eliya	Kikiliyamana Vidyalaya	False	False	NWRLYNWRLYKKLYMNVDYLY		Nuwara Eliya	LK-23	6.97423	80.711222	Nuwaraeliya	PS-230131	6.974148	80.767627	7.005447	80.733665	2P4M+5FF, North Punduloya, Sri Lanka	5.116529	
Nuwara Eliya	Nuwara Eliya	MOH Office - Nuwara Eliya	False	False	NWRLYNWRLYMHFFCNWRLY		Nuwara Eliya	LK-23	6.97423	80.711222	Nuwaraeliya	PS-230131	6.974148	80.767627	6.97244	80.78051	XQCJ+X6C, Nuwara Eliya 22200, Sri Lanka	1.435005	
Nuwara Eliya	Walapane	Nildandahinna at Sri Sumangala National School	False	False	NWRLYWLPNNLDNDHNNTSRSMNGLNTNLSCHL		Nuwara Eliya	LK-23	6.97423	80.711222	Walapone	PS-230141	7.093348	80.862513	7.079061	80.891959	Walapane - Nildandahinna Rd, Nildandhahinna 22280, Sri Lanka	3.617847	
Nuwara Eliya	Pudaluoya	Jayahela Vidyalaya	False	False	NWRLYPDLYJYHLVDYLY		Nuwara Eliya	LK-23	6.97423	80.711222	Pudalu oya	PS-230132	6.907289	79.863819	7.01668	80.668529	2M89+MCC, Pundaluoya, Sri Lanka	89.677066	#CenterFarFromPolice
Nuwara Eliya	Galewela	Opalgala Viharaya	False	False	NWRLYGLWLPLGLVHRY		Nuwara Eliya	LK-23	6.97423	80.711222	Galewela	PS-220129	7.763244	80.574149	7.61945	80.692934	JM9V+Q5F, Matale, Sri Lanka	20.670156	#CenterFarFromPolice
Nuwara Eliya	Rattota	Bandarapola Maha Vidyalaya	False	False	NWRLYRTTTBNDRPLMHVDYLY		Nuwara Eliya	LK-23	6.97423	80.711222	Rattota	PS-220122	7.520684	80.678809	6.947664	80.497498	WFXW+3X9, Nuwara Eliya, Sri Lanka	66.803126	#CenterFarFromPolice
Nuwara Eliya	Makulugaswewa	Makulugaswewa Viharaya	False	False	NWRLYMKLGSWWMKLGSWWVHRY		Nuwara Eliya	LK-23	6.97423	80.711222									#PoliceLocationUnknown
Nuwara Eliya	Dambulla	MOH Office - Dambulla	False	False	NWRLYDMBLLMHFFCDMBLL		Nuwara Eliya	LK-23	6.97423	80.711222	Dambulla	PS-220128	7.86208	80.649166	7.870886	80.650631	A36,Bus stand, Dambulla, Sri Lanka	0.992702	
Nuwara Eliya	Naula	Sri Naga National School	False	False	NWRLYNLSRNGNTNLSCHL		Nuwara Eliya	LK-23	6.97423	80.711222	Naula	PS-220126	7.692051	80.64963	7.706636	80.656564	Elahera Road, Naula, Sri Lanka	1.793319	
Nuwara Eliya	Naula	Ambana Hospital	False	False	NWRLYNLMBNHSPTL		Nuwara Eliya	LK-23	6.97423	80.711222	Naula	PS-220126	7.692051	80.64963	6.974103	80.780151	Nuwara Eliya-Uda Pussellawa Rd, Nuwara Eliya 22200, Sri Lanka	81.144988	#CenterFarFromPolice
Nuwara Eliya	Naula	Nalanda Hospital	False	False	NWRLYNLNLNDHSPTL		Nuwara Eliya	LK-23	6.97423	80.711222	Naula	PS-220126	7.692051	80.64963	6.974299	80.78257	XQFM+P28, Nuwara Eliya 22200, Sri Lanka	81.171324	#CenterFarFromPolice
Nuwara Eliya	Wilgamuwa	Maraka Maha Vidyalaya	False	False	NWRLYWLGMWMRKMHVDYLY		Nuwara Eliya	LK-23	6.97423	80.711222	Wilgamuwa	PS-220127	7.542012	80.916496	7.587351	80.958324	Maraka Divisional Hospital,, Matale, Sri Lanka	6.833972	
Nuwara Eliya	Wilgamuwa	Hadungamuwa Maha Vidyalaya	False	False	NWRLYWLGMWHDNGMWMHVDYLY		Nuwara Eliya	LK-23	6.97423	80.711222	Wilgamuwa	PS-220127	7.542012	80.916496	6.927777	80.7892	Meepilimana, Blackpool-Ambewela-Pattipola-Horton Plain Rd, Nuwara Eliya, Sri Lanka	69.750218	#CenterFarFromPolice
Nuwara Eliya	Matale	Ameena Vidyalaya	False	False	NWRLYMTLMNVDYLY		Nuwara Eliya	LK-23	6.97423	80.711222	Matale	PS-220121	7.462789	80.626211	6.969391	80.770845	Wedderburn Road, Nuwara Eliya 22200, Sri Lanka	57.154211	#CenterFarFromPolice
Nuwara Eliya	Matale	Katudeniya Primary College	False	False	NWRLYMTLKTDNYPRMRYCLLG		Nuwara Eliya	LK-23	6.97423	80.711222	Matale	PS-220121	7.462789	80.626211	6.985645	80.49433	Ella Uda Theniyagala Rd, Ginigathhena, Sri Lanka	55.031667	#CenterFarFromPolice
Nuwara Eliya	Matale	Thenna Maha Vidyalaya	False	False	NWRLYMTLTHNNMHVDYLY		Nuwara Eliya	LK-23	6.97423	80.711222	Matale	PS-220121	7.462789	80.626211	7.44464	80.603519	Tenna, Matale 21000, Sri Lanka	3.215384	
Nuwara Eliya	Matale	Kumbiyangoda Viharaya	False	False	NWRLYMTLKMBYNGDVHRY		Nuwara Eliya	LK-23	6.97423	80.711222	Matale	PS-220121	7.462789	80.626211	7.454861	80.613636	Kumbiyangoda Rd, Matale, Sri Lanka	1.64349	
Matale	Mahawela	Ehelepola Vidyalaya	False	False	MTLMHWLHLPLVDYLY		Matale	LK-22	7.667587	80.731008	Mahawela	PS-220123	7.589247	80.61027	7.572851	80.611238	Rathalawawa, Mahawela, Matale, Sri Lanka	1.826845	
Badulla	Girandurukotte	Bathalayaya Clinic	False	False	BDLLGRNDRKTTBTHLYYCLNC		Badulla	LK-81	7.074529	81.04486	Giradurukotte	PS-810106	7.469138	81.016938	6.993401	81.054981	X3V3+9X9, Badulla, Sri Lanka	53.082403	#CenterFarFromPolice
Badulla	Girandurukotte	Hebarawa Vidyalaya	False	False	BDLLGRNDRKTTHBRWVDYLY		Badulla	LK-81	7.074529	81.04486	Giradurukotte	PS-810106	7.469138	81.016938	6.991073	81.057353	Uva College, Uva College Rd, බදුල්ල 90000, Sri Lanka	53.361767	#CenterFarFromPolice
Badulla	Bandarawela	Town Hall - Bandarawela	False	False	BDLLBNDRWLTWNHLLBNDRWL		Badulla	LK-81	7.074529	81.04486	Bandarawela	PS-810210	6.831526	80.986784	6.83182	80.987414	32/9 Esplanade Rd, Bandarawela, Sri Lanka	0.076879	
Badulla	Bandarawela	MOH Office - Bandarawela	False	False	BDLLBNDRWLMHFFCBNDRWL		Badulla	LK-81	7.074529	81.04486	Bandarawela	PS-810210	6.831526	80.986784	6.841272	80.98482	Hospital Junction Helamuduna Bus Stop, Etampitiya Rd, Bandarawela, Sri Lanka	1.105533	
Badulla	Bandarawela	Bandarawela Hospital	False	False	BDLLBNDRWLBNDRWLHSPTL		Badulla	LK-81	7.074529	81.04486	Bandarawela	PS-810210	6.831526	80.986784	6.840045	80.984863	RXRM+2W9, Bandarawela, Sri Lanka	0.971026	
Badulla	Haldummulla	Marangahawela Primary College	False	False	BDLLHLDMMLLMRNGHWLPRMRYCLLG		Badulla	LK-81	7.074529	81.04486	Haldummulla		6.762216	80.885856	6.771287	80.844805	QRCV+GW7, Badulla, Sri Lanka	4.64519	
Badulla	Haldummulla	Haldummulla Hospital	False	False	BDLLHLDMMLLHLDMMLLHSPTL		Badulla	LK-81	7.074529	81.04486	Haldummulla		6.762216	80.885856	6.758168	80.879938	Colombo - Ratnapura - Wellawaya - Batticaloa Rd, Sri Lanka	0.793746	
Badulla	Lunugala	District Hospital - Lunugala	False	False	BDLLLNGLDSTRCTHSPTLLNGL		Badulla	LK-81	7.074529	81.04486	Lunugala	PS-810104	7.047691	81.20339	7.037666	81.20078	Peradeniya-Badulla-Chenkaladi Hwy, Lunugala, Sri Lanka	1.151701	
Badulla	Lunugala	MOH Office - Lunugala	False	False	BDLLLNGLMHFFCLNGL		Badulla	LK-81	7.074529	81.04486	Lunugala	PS-810104	7.047691	81.20339	7.030729	81.198808	Peradeniya-Badulla-Chenkaladi Hwy, Lunugala, Sri Lanka	1.953308	
Badulla	Lunugala	Hopton Hospital	False	False	BDLLLNGLHPTNHSPTL		Badulla	LK-81	7.074529	81.04486	Lunugala	PS-810104	7.047691	81.20339	6.984911	81.19795	Peradeniya-Badulla-Chenkaladi Hwy, Sri Lanka	7.008786	
Badulla	Uva Paranagama	MOH Office - Uva Paranagama	False	False	BDLLVPRNGMMHFFCVPRNGM		Badulla	LK-81	7.074529	81.04486	Uvaparanagama	PS-810213	6.958341	80.930364	6.927934	80.896475	Udapussellawa-Welimada Road, Ambagasdowa, Sri Lanka	5.043837	
Badulla	Uva Paranagama	District Hospital - Uva Paranagama	False	False	BDLLVPRNGMDSTRCTHSPTLVPRNGM		Badulla	LK-81	7.074529	81.04486	Uvaparanagama	PS-810213	6.958341	80.930364	6.938076	80.890525	Rendapola-Galahagama-Ambagasdowa Rd, Himbiliyagahamadiththa, Sri Lanka	4.942648	
Badulla	Welimada	MOH Office - Welimada	False	False	BDLLWLMDMHFFCWLMD		Badulla	LK-81	7.074529	81.04486	Welimada	PS-810212	6.900481	80.905809	6.927934	80.896475	Udapussellawa-Welimada Road, Ambagasdowa, Sri Lanka	3.222841	
Badulla	Welimada	Welimada Hospital	False	False	BDLLWLMDWLMDHSPTL		Badulla	LK-81	7.074529	81.04486	Welimada	PS-810212	6.900481	80.905809	6.908905	80.909194	Hospital Rd, Welimada, Sri Lanka	1.008802	
Badulla	Haputale	MOH Office - Haputale	False	False	BDLLHPTLMHFFCHPTL		Badulla	LK-81	7.074529	81.04486	Haputale	PS-810215	6.767653	80.957218	6.779645	80.964114	QXH7+WC4, Badulla, Sri Lanka	1.536024	
Badulla	Haputale	Haputale Hospital	False	False	BDLLHPTLHPTLHSPTL		Badulla	LK-81	7.074529	81.04486	Haputale	PS-810215	6.767653	80.957218	6.772723	80.956317	Haputale -Bandarawela, Diyatalawa, Sri Lanka	0.57263	
Badulla	Haputale	Town Hall – Haputale	False	False	BDLLHPTLTWNHLLHPTL		Badulla	LK-81	7.074529	81.04486	Haputale	PS-810215	6.767653	80.957218	6.768965	80.959255	Station Rd, Haputale, Sri Lanka	0.268271	
Badulla	Ella	MOH Office - Ella	False	False	BDLLLLMHFFCLL		Badulla	LK-81	7.074529	81.04486	Ella	PS-810211	6.876609	81.048276	6.988514	81.053232	Mediriya Road, Badulla, Sri Lanka	12.459198	
Badulla	Ella	Demodara Hospital	False	False	BDLLLLDMDRHSPTL		Badulla	LK-81	7.074529	81.04486	Ella	PS-810211	6.876609	81.048276	6.900561	81.057232	W324+6VH, Demodara, Sri Lanka	2.841818	
Badulla	Koslanda	Gampaha Vidyalaya - Uva mawelagama	False	False	BDLLKSLNDGMPHVDYLYVMWLGM		Badulla	LK-81	7.074529	81.04486	Koslanda	PS-810217	6.736588	81.016126	6.717375	81.034663	A4, Sri Lanka	2.959727	
Badulla	Koslanda	Koslanda Hospital	False	False	BDLLKSLNDKSLNDHSPTL		Badulla	LK-81	7.074529	81.04486	Koslanda	PS-810217	6.736588	81.016126	6.737944	81.016177	Colombo - Batticaloa Hwy, Sri Lanka	0.150933	
Badulla	Rideemaliyadda	Thissapura Hospital	False	False	BDLLRDMLYDDTHSSPRHSPTL		Badulla	LK-81	7.074529	81.04486	Rideemaliyadda		7.214807	81.124613	7.300002	81.692344	8M2R+2W5, Ampara, Sri Lanka	63.355407	#CenterFarFromPolice
Badulla	Haliela	Unagolla Hospital	False	False	BDLLHLLNGLLHSPTL		Badulla	LK-81	7.074529	81.04486	Haliela	PS-810108	6.958216	81.034447	7.694486	80.016255	M2V8+QGR, Welpothuwewa, Sri Lanka	139.012138	#CenterFarFromPolice
Badulla	Haliela	Hathakma Vidyalaya	False	False	BDLLHLLHTHKMVDYLY		Badulla	LK-81	7.074529	81.04486	Haliela	PS-810108	6.958216	81.034447	6.947643	81.027144	Sri Lanka, Hali-ela, Sri Lanka	1.425915	
Badulla	Haliela	Springvelley Hospital	False	False	BDLLHLLSPRNGVLLYHSPTL		Badulla	LK-81	7.074529	81.04486	Haliela	PS-810108	6.958216	81.034447	6.950066	81.037391	X22P+2XC, Hali-ela, Sri Lanka	0.963001	
Badulla	Haliela	Rilpola Primary care unit	False	False	BDLLHLLRLPLPRMRYCRNT		Badulla	LK-81	7.074529	81.04486	Haliela	PS-810108	6.958216	81.034447	6.954619	81.064568	Ela Daluwa Road, Sri Lanka	3.34967	
Badulla	Haliela	Mahawattegama Vidyalaya	False	False	BDLLHLLMHWTTGMVDYLY		Badulla	LK-81	7.074529	81.04486	Haliela	PS-810108	6.958216	81.034447	6.960427	81.034968	Peradeniya-Badulla-Chenkaladi Hwy, Hali-ela, Sri Lanka	0.252675	
Badulla	Haliela	Atampitiya Hospital	False	False	BDLLHLLTMPTYHSPTL		Badulla	LK-81	7.074529	81.04486	Haliela	PS-810108	6.958216	81.034447	6.934746	80.989784	Etampitiya Rd, Sri Lanka	5.579755	
Badulla	Haliela	Bogoda Maha Vidyalaya	False	False	BDLLHLLBGDMHVDYLY		Badulla	LK-81	7.074529	81.04486	Haliela	PS-810108	6.958216	81.034447	7.003423	81.004783	2233+9W7, Ketawala, Sri Lanka	6.000782	
Badulla	Haliela	Lunugalla Vidyalaya	False	False	BDLLHLLLNGLLVDYLY		Badulla	LK-81	7.074529	81.04486	Haliela	PS-810108	6.958216	81.034447	7.017363	81.000634	Narangala, Ketawala-Galauda Rd, Sri Lanka	7.564254	
Badulla	Kandaketiya	Kandaketiya Hospital	False	False	BDLLKNDKTYKNDKTYHSPTL		Badulla	LK-81	7.074529	81.04486	Kandaketiya	PS-810107	7.195551	81.01958	7.171564	81.005534	Karamettiya Kandakettiya Road, Kandakettiya Town, Sri Lanka	3.085663	
Badulla	Mahiyanganaya	Paragammana Vidyalaya	False	False	BDLLMHYNGNYPRGMMNVDYLY		Badulla	LK-81	7.074529	81.04486	Mahiyangane	PS-810105	7.334975	80.993108	7.230357	80.350291	Paragammana Juction, Sri Lanka	71.871895	#CenterFarFromPolice
Badulla	Mahiyanganaya	Mapakadawewa Vidyalaya	False	False	BDLLMHYNGNYMPKDWWVDYLY		Badulla	LK-81	7.074529	81.04486	Mahiyangane	PS-810105	7.334975	80.993108	7.328554	80.991494	8XHR+CHH, Mahiyanganaya, Sri Lanka	0.736068	
Badulla	Madolsima	Mahadowa Hospital	False	False	BDLLMDLSMMHDWHSPTL		Badulla	LK-81	7.074529	81.04486	Madolseema	PS-810103	7.032916	81.16554	7.015288	81.167786	2589+447, Badulla, Sri Lanka	1.976374	
Badulla	Madolsima	Metigahathanna Hospital	False	False	BDLLMDLSMMTGHTHNNHSPTL		Badulla	LK-81	7.074529	81.04486	Madolseema	PS-810103	7.032916	81.16554	6.435016	80.198501	B158, Meegahathenna, Sri Lanka	125.83145	#CenterFarFromPolice
Badulla	Passara	Maussagolla Viharaya	False	False	BDLLPSSRMSSGLLVHRY		Badulla	LK-81	7.074529	81.04486	Passara	PS-810102	6.934481	81.154796	6.984218	81.061356	Muthiyangana Temple, Station Rd, Badulla, Sri Lanka	11.706443	
Monaragala	Dambagalla	Galgamuwa Primary College	False	False	MNRGLDMBGLLGLGMWPRMRYCLLG		Moneragala	LK-82	6.787517	81.303744	Dambagalla	PS-820123	6.978806	81.372037	6.874247	81.347252	Mahanama Rd, Monaragala, Sri Lanka	11.947734	
Monaragala	Kataragama	Kohombadigana Community Hall	False	False	MNRGLKTRGMKHMBDGNCMMNTYHLL		Moneragala	LK-82	6.787517	81.303744	Kataragama	PS-330159	6.41352	81.331368	6.418507	81.333278	Main Office Ruhunu Maha Kataragama Dewalaya, Kataragama 91400, Sri Lanka	0.59352	
Monaragala	Kataragama	Sellakataragama Maha Vidyalaya	False	False	MNRGLKTRGMSLLKTRGMMHVDYLY		Moneragala	LK-82	6.787517	81.303744	Kataragama	PS-330159	6.41352	81.331368	6.418507	81.333278	Main Office Ruhunu Maha Kataragama Dewalaya, Kataragama 91400, Sri Lanka	0.59352	
Monaragala	Hambegamuwa	Hambegamuwa Secondary School Cultural Center	False	False	MNRGLHMBGMWHMBGMWSCNDRYSCHLCLTRLCNTR		Moneragala	LK-82	6.787517	81.303744	Hambegamuwa	PS-820132	6.545791	80.947866	6.534546	80.959523	Janapadaya Junction, Bodagama-Hambegamuwa-Kaltota Rd, Sri Lanka	1.795502	
Monaragala	Thanamalwila	Kethsiriga Primary School	False	False	MNRGLTHNMLWLKTHSRGPRMRYSCHL		Moneragala	LK-82	6.787517	81.303744	Thanamalwila	PS-820131	6.437696	81.131051	6.431185	81.122736	C4JF+F3H, Thanamalwila, Sri Lanka	1.170104	
Monaragala	Sewanagala	Sandaraja Maha Vidyalaya	False	False	MNRGLSWNGLSNDRJMHVDYLY		Moneragala	LK-82	6.787517	81.303744	Sewanagala	PS-910239	6.360663	80.918555	6.366167	80.919759	Sewanagala, Sri Lanka	0.62651	
Monaragala	Badalkumbura	Madukotan Arawa Vidyalaya	False	False	MNRGLBDLKMBRMDKTNRWVDYLY		Moneragala	LK-82	6.787517	81.303744	Badalkumbura	PS-820128	6.889017	81.235441	6.875918	81.265649	Madukotan Arawa, Sri Lanka	3.640128	
Monaragala	Medagama	Kendawinna Vidyalaya	False	False	MNRGLMDGMKNDWNNVDYLY		Moneragala	LK-82	6.787517	81.303744	Medagama	PS-820126	7.033608	81.276708	7.101628	81.240642	aiwela, senapathiya., Sri Lanka	8.54936	
Monaragala	Medagama	Pubbara Vidyalaya	False	False	MNRGLMDGMPBBRVDYLY		Moneragala	LK-82	6.787517	81.303744	Medagama	PS-820126	7.033608	81.276708	7.031205	81.276445	Moneragala Road,Medagama, B56, Monaragala 91550, Sri Lanka	0.268858	
Monaragala	Medagama	Amunekandura Vidyalaya	False	False	MNRGLMDGMMNKNDRVDYLY		Moneragala	LK-82	6.787517	81.303744	Medagama	PS-820126	7.033608	81.276708	7.031205	81.276445	Moneragala Road,Medagama, B56, Monaragala 91550, Sri Lanka	0.268858	
Monaragala	Okkampitiya	Janapada Maha Vidyalaya	False	False	MNRGLKKMPTYJNPDMHVDYLY		Moneragala	LK-82	6.787517	81.303744	Okkampitiya	PS-820135	6.751072	81.306647	6.748565	81.307344	School Lane, Pahalagama, Okkampitiya, Okkampitiya 91060, Sri Lanka	0.289286	
Monaragala	Okkampitiya	Vijayabahu Maha Vidyalaya	False	False	MNRGLKKMPTYVJYBHMHVDYLY		Moneragala	LK-82	6.787517	81.303744	Okkampitiya	PS-820135	6.751072	81.306647	6.748565	81.307344	School Lane, Pahalagama, Okkampitiya, Okkampitiya 91060, Sri Lanka	0.289286	
Monaragala	Okkampitiya	Maligavila viharaya	False	False	MNRGLKKMPTYMLGVLVHRY		Moneragala	LK-82	6.787517	81.303744	Okkampitiya	PS-820135	6.751072	81.306647	6.75399	81.288013	B522, Sri Lanka	2.083713	
Monaragala	Buttala	Buttala Hospital	False	False	MNRGLBTTLBTTLHSPTL		Moneragala	LK-82	6.787517	81.303744	Buttala	PS-820127	6.762499	81.250445	6.75781	81.239724	Colombo - Batticaloa Hwy, Buttala, Sri Lanka	1.293971	
Monaragala	Siyambalanduwa	Buddhama Maha Vidyalaya	False	False	MNRGLSYMBLNDWBDDHMMHVDYLY		Moneragala	LK-82	6.787517	81.303744	Siyambalanduwa	PS-820122	6.906851	81.547598	7.031577	81.523663	Govindupura, Siyambalanduwa-Damana-Ampara Hwy, Monaragala, Sri Lanka	14.122696	
Monaragala	Siyambalanduwa	Galabeddha Maha Vidyalaya	False	False	MNRGLSYMBLNDWGLBDDHMHVDYLY		Moneragala	LK-82	6.787517	81.303744	Siyambalanduwa	PS-820122	6.906851	81.547598	6.914629	81.391337	Colombo - Batticaloa Hwy, Sri Lanka	17.276285	
Monaragala	Siyambalanduwa	Dombagahawela Maha Vidyalaya	False	False	MNRGLSYMBLNDWDMBGHWLMHVDYLY		Moneragala	LK-82	6.787517	81.303744	Siyambalanduwa	PS-820122	6.906851	81.547598	6.844255	81.458052	RFV5+P63, Monaragala, Sri Lanka	12.093824	
Galle	Hikkaduwa	MOH Office - Hikkadwa	False	False	GLLHKKDWMHFFCHKKDW		Galle	LK-31	6.222805	80.251977	Hikkaduwa	PS-310122	6.145115	80.099693	6.141123	80.102024	Baddegama Rd, Hikkaduwa, Sri Lanka	0.513436	
Matara	Urubokka	Pattigala Primary School	False	False	MTRRBKKPTTGLPRMRYSCHL		Matara	LK-32	6.142734	80.539994	Urubokka	PS-320108	6.310257	80.629013	6.319119	80.625275	Kotapola - Urubokka - Mulatiyana Rd, Sri Lanka	1.068884	
Matara	Urubokka	Ginnaliya Central College	False	False	MTRRBKKGNNLYCNTRLCLLG		Matara	LK-32	6.142734	80.539994	Urubokka	PS-320108	6.310257	80.629013	5.953769	80.544354	Rahula Road,, Matara, 81000, Sri Lanka	40.742478	#CenterFarFromPolice
Matara	Akuressa	Bopagoda Anura Vidyalaya	False	False	MTRKRSSBPGDNRVDYLY		Matara	LK-32	6.142734	80.539994	Akuressa	PS-320112	6.099044	80.4776	6.158662	80.499531	Makandura-Urumuththa-Bopagoda Rd, Sri Lanka	7.060941	
Matara	Thihagoda	MOH Office - Thihagoda	False	False	MTRTHHGDMHFFCTHHGD		Matara	LK-32	6.142734	80.539994	Thihagoda	PS-320104	6.01331	80.567932	5.996687	80.556352	Matara - Hakmana Road, Thihagoda, Sri Lanka	2.249355	
Matara	Kosmodara	Kotapola National College	False	False	MTRKSMDRKTPLNTNLCLLG		Matara	LK-32	6.142734	80.539994	Kosmodara	PS-320116	6.290019	80.560337	6.295409	80.542109	A17, Kotapola, Sri Lanka	2.102569	
Matara	Kosmodara	Waralla Yapa Vidyalaya	False	False	MTRKSMDRWRLLYPVDYLY		Matara	LK-32	6.142734	80.539994	Kosmodara	PS-320116	6.290019	80.560337	6.272469	80.52761	7GCH+X2Q, Kotapola, Sri Lanka	4.11135	
Matara	Dikwella	District Medical Office	False	False	MTRDKWLLDSTRCTMDCLFFC		Matara	LK-32	6.142734	80.539994	Dikwella	PS-320103	5.964296	80.693198	5.965922	80.689228	XM8Q+9M9, Batigama, Sri Lanka	0.474973	
Matara	Kamburupitiya	Narandeniya National College	False	False	MTRKMBRPTYNRNDNYNTNLCLLG		Matara	LK-32	6.142734	80.539994	Kamburupitiya	PS-320105	6.073875	80.564579	6.080974	80.566708	School Road, Kamburupitiya, Sri Lanka	0.823984	
Matara	Deiyandara	Deiyandara National College	False	False	MTRDYNDRDYNDRNTNLCLLG		Matara	LK-32	6.142734	80.539994	Deyyandara	PS-320119	6.198061	80.587045	6.154714	80.603723	National School, Deiyandara, Sri Lanka	5.162189	
Matara	Weligama	Welihinda Sudarshanaramaya	False	False	MTRWLGMWLHNDSDRSHNRMY		Matara	LK-32	6.142734	80.539994	Weligama	PS-320111	5.973301	80.426455	5.98909	80.458075	Welihinda Junction, Weligama - Telijjawila Rd, Sri Lanka	3.914059	
Matara	Weligama	Ibbawala Primary College	False	False	MTRWLGMBBWLPRMRYCLLG		Matara	LK-32	6.142734	80.539994	Weligama	PS-320111	5.973301	80.426455	5.972214	80.420355	XCCC+V4Q, Matara, Sri Lanka	0.685565	
Matara	Morawaka	Weliwa Buddhist College	False	False	MTRMRWKWLWBDDHSTCLLG		Matara	LK-32	6.142734	80.539994	Morawaka	PS-320107	6.256777	80.493654	6.247863	80.496793	Weliwa Pahuruthota Rd, Morawaka, Sri Lanka	1.050494	
Matara	Malimbada	Dampella Maha Vidyalaya	False	False	MTRMLMBDDMPLLMHVDYLY		Matara	LK-32	6.142734	80.539994	Malimbada	PS-320117	6.010503	80.517438	6.04717	80.502418	Dampella maha vidyalaya Dampella, Sri Lanka	4.403888	
Matara	Malimbada	Horagoda Wardhanaramaya	False	False	MTRMLMBDHRGDWRDHNRMY		Matara	LK-32	6.142734	80.539994	Malimbada	PS-320117	6.010503	80.517438	6.025968	80.48677	Horagoda Rd, Sri Lanka	3.803595	
Matara	Malimbada	Akurugoda Nagarukkaramaya	False	False	MTRMLMBDKRGDNGRKKRMY		Matara	LK-32	6.142734	80.539994	Malimbada	PS-320117	6.010503	80.517438	6.014169	80.493823	Akurugoda Rd, Sri Lanka	2.643879	
Hambantota	Hambantota	MOH Office - Hambantota	False	False	HMBNTTHMBNTTMHFFCHMBNTT		Hambantota	LK-33	6.259779	81.098619	Hambantota	PS-330156	6.125872	81.12521	6.171162	81.127	54CG+FQ9, Hambantota, Sri Lanka	5.041487	
Hambantota	Ambalantota	MOH Office - Ambalantota	False	False	HMBNTTMBLNTTMHFFCMBLNTT		Hambantota	LK-33	6.259779	81.098619	Ambalantota	PS-330157	6.12516	81.023981	6.122767	81.005973	Walawa watta Road, Malpeththawa, Ambalantota, Sri Lanka	2.009195	
Hambantota	Walasmulla	Nathuwala Maha Vidyalaya	False	False	HMBNTTWLSMLLNTHWLMHVDYLY		Hambantota	LK-33	6.259779	81.098619	Walasmulla	PS-330151	6.154102	80.698256	6.184092	80.683769	Walasmulla - Katuwana - Middeniya Road, Ethpitiya, Sri Lanka	3.700544	
Hambantota	Weeraketiya	MOH Office - Weeraketiya	False	False	HMBNTTWRKTYMHFFCWRKTY		Hambantota	LK-33	6.259779	81.098619	Weeraketiya	PS-330149	6.153899	80.76737	6.144703	80.765287	4QV8+V4M, Weeraketiya, Sri Lanka	1.048488	
Hambantota	Katuwana	Rukmalpitiya Maha Vidyalaya	False	False	HMBNTTKTWNRKMLPTYMHVDYLY		Hambantota	LK-33	6.259779	81.098619	Katuwana	PS-330153	6.269722	80.690963	6.249382	80.70948	Julampitiya Rd, Katuwana, Sri Lanka	3.051265	
Hambantota	Katuwana	Ritigahayaya Maha Vidyalaya Udagomadiya Maha Vidyalaya Hingurakanda Maha Vidyalaya	False	False	HMBNTTKTWNRTGHYYMHVDYLYDGMDYMHVDYLYHNGRKNDMHVDYLY		Hambantota	LK-33	6.259779	81.098619	Katuwana	PS-330153	6.269722	80.690963	6.26863	80.726983	B485, Sri Lanka	3.984391	
Hambantota	Katuwana	Siyarapitiya Maha Vidyalaya	False	False	HMBNTTKTWNSYRPTYMHVDYLY		Hambantota	LK-33	6.259779	81.098619	Katuwana	PS-330153	6.269722	80.690963	6.290408	80.693009	7MRV+566, Hambantota, Sri Lanka	2.311993	
Hambantota	Angunukolapelessa	MOH Office - Angunukolapelessa	False	False	HMBNTTNGNKLPLSSMHFFCNGNKLPLSS		Hambantota	LK-33	6.259779	81.098619	Angunakolapelessa	PS-330150	6.321993	80.844883	6.164691	80.898963	Unnamed Road, Agunukolapelessa, Sri Lanka	18.490258	
Hambantota	Sooriyawewa	MOH Office - Sooriyawewa	False	False	HMBNTTSRYWWMHFFCSRYWW		Hambantota	LK-33	6.259779	81.098619	Sooriyawewa	PS-330155	6.306022	81.003873	6.304862	81.004768	8233+WWR, Sooriyawewa, Sri Lanka	0.1626	
Hambantota	Beliatta	MOH Office – Beliatta	False	False	HMBNTTBLTTMHFFCBLTT		Hambantota	LK-33	6.259779	81.098619	Beliatta	PS-330152	6.046936	80.735408	6.051828	80.741735	3P2R+PMQ, Hambantota, Sri Lanka	0.886482	
Hambantota	Middeniya	Labuhengoda Primary School Koodagoda Maha Vidyalaya	False	False	HMBNTTMDDNYLBHNGDPRMRYSCHLKDGDMHVDYLY		Hambantota	LK-33	6.259779	81.098619	Middeniya	PS-330154	6.248275	80.765018	6.278884	80.763249	B286, Middeniya, Sri Lanka	3.410248	
Hambantota	Middeniya	Ulahitiyawa Primary School	False	False	HMBNTTMDDNYLHTYWPRMRYSCHL		Hambantota	LK-33	6.259779	81.098619	Middeniya	PS-330154	6.248275	80.765018	6.252598	80.764381	Middeniya, Sri Lanka	0.485977	
Hambantota	Middeniya	Welipitiya Primary School	False	False	HMBNTTMDDNYWLPTYPRMRYSCHL		Hambantota	LK-33	6.259779	81.098619	Middeniya	PS-330154	6.248275	80.765018	6.264926	80.74478	Walasmulla - Katuwana - Middeniya Road, Sri Lanka	2.904713	
Hambantota	Middeniya	Middeniya Primary School	False	False	HMBNTTMDDNYMDDNYPRMRYSCHL		Hambantota	LK-33	6.259779	81.098619	Middeniya	PS-330154	6.248275	80.765018	6.25259	80.764518	Panamura Rd, Middeniya, Sri Lanka	0.48313	
Hambantota	Tangalla	MOH Office – Tangalla	False	False	HMBNTTTNGLLMHFFCTNGLL		Hambantota	LK-33	6.259779	81.098619	Tangalle	PS-330147	6.023954	80.797255	6.02363	80.795742	2QFW+F75, Tangalle, Sri Lanka	0.171198	
Rathnapura	Kiriella	Epitawala Vidyalaya	False	False	RTHNPRKRLLPTWLVDYLY		Ratnapura	LK-91	6.586826	80.566158	Kiriella	PS-910114	6.735338	80.276481	6.743776	80.240076	P6VR+G28, Ratnapura, Sri Lanka	4.129415	
Rathnapura	Kiriella	Galathura Maha Vidyalaya	False	False	RTHNPRKRLLGLTHRMHVDYLY		Ratnapura	LK-91	6.586826	80.566158	Kiriella	PS-910114	6.735338	80.276481	6.714894	80.288574	Mada galathura, Sri Lanka	2.637325	
Rathnapura	Kiriella	Madabaddara Vidyalaya	False	False	RTHNPRKRLLMDBDDRVDYLY		Ratnapura	LK-91	6.586826	80.566158	Kiriella	PS-910114	6.735338	80.276481	6.736827	80.272908	Idangoda, Kiriella-Nadurana-Eheliyagoda Rd, Sri Lanka	0.428023	
Rathnapura	Pinnawala	Cecilton Estate Health Center	False	False	RTHNPRPNNWLCCLTNSTTHLTHCNTR		Ratnapura	LK-91	6.586826	80.566158	Pinnawala	PS-910115	7.299943	80.386604	6.726057	80.66301	PMG7+C6C, Ratnapura, Sri Lanka	70.751779	#CenterFarFromPolice
Rathnapura	Pinnawala	Thorawela Kanda Vidyalaya	False	False	RTHNPRPNNWLTHRWLKNDVDYLY		Ratnapura	LK-91	6.586826	80.566158	Pinnawala	PS-910115	7.299943	80.386604	6.773169	80.317655	Kuruwita, Sri Lanka	59.085287	#CenterFarFromPolice
Rathnapura	Balangoda	MOH Office – Meddekanda	False	False	RTHNPRBLNGDMHFFCMDDKND		Ratnapura	LK-91	6.586826	80.566158	Balangoda	PS-910103	6.649474	80.700276	6.862775	79.901065	Delakada Plaza, Delkada, Nugegoda, Sri Lanka	91.411334	#CenterFarFromPolice
Rathnapura	Balangoda	Bulathgama Vidyalaya	False	False	RTHNPRBLNGDBLTHGMVDYLY		Ratnapura	LK-91	6.586826	80.566158	Balangoda	PS-910103	6.649474	80.700276	6.67333	80.682346	Bulathgama- Vijanathkubura Rd, Bulathgama, Sri Lanka	3.31134	
Rathnapura	Balangoda	Vijayanath  Kumbura Vidyalaya	False	False	RTHNPRBLNGDVJYNTHKMBRVDYLY		Ratnapura	LK-91	6.586826	80.566158	Balangoda	PS-910103	6.649474	80.700276	6.648928	80.700676	JPX2+H7F, Balangoda, Sri Lanka	0.075109	
Rathnapura	Balangoda	Jasingkanda Udumulla Viharaya	False	False	RTHNPRBLNGDJSNGKNDDMLLVHRY		Ratnapura	LK-91	6.586826	80.566158	Balangoda	PS-910103	6.649474	80.700276	6.440955	80.759711	Pelmadulla - Embilipitiya Hwy, Ratnapura, Sri Lanka	24.105562	#CenterFarFromPolice
Rathnapura	Balangoda	Ellewatta Community Hall	False	False	RTHNPRBLNGDLLWTTCMMNTYHLL		Ratnapura	LK-91	6.586826	80.566158	Balangoda	PS-910103	6.649474	80.700276	6.673401	80.420474	NO.316, Batugedara, Ratnapura 70000, Sri Lanka	31.026576	#CenterFarFromPolice
Rathnapura	Balangoda	Thumbagoda Viharaya	False	False	RTHNPRBLNGDTHMBGDVHRY		Ratnapura	LK-91	6.586826	80.566158	Balangoda	PS-910103	6.649474	80.700276	6.65499	80.698265	Colombo - Batticaloa Hwy, Balangoda, Sri Lanka	0.652533	
Rathnapura	Balangoda	Egoda Walebada Community Hall	False	False	RTHNPRBLNGDGDWLBDCMMNTYHLL		Ratnapura	LK-91	6.586826	80.566158	Balangoda	PS-910103	6.649474	80.700276	6.702988	80.394381	P93V+5QR, Ratnapura, Sri Lanka	34.314136	#CenterFarFromPolice
Rathnapura	Pelmadulla	Rillahena Viharaya	False	False	RTHNPRPLMDLLRLLHNVHRY		Ratnapura	LK-91	6.586826	80.566158	Pelmadulla	PS-910117	6.632692	80.521315	6.621093	80.545755	Pelmadulla, 70070, Sri Lanka	2.992673	
Rathnapura	Pelmadulla	Idangoda Sri Kethrama Viharaya	False	False	RTHNPRPLMDLLDNGDSRKTHRMVHRY		Ratnapura	LK-91	6.586826	80.566158	Pelmadulla	PS-910117	6.632692	80.521315	6.731245	80.278126	Idangoda, Sri Lanka	29.01646	#CenterFarFromPolice
Rathnapura	Pelmadulla	Dharmaloka Vidyalaya	False	False	RTHNPRPLMDLLDHRMLKVDYLY		Ratnapura	LK-91	6.586826	80.566158	Pelmadulla	PS-910117	6.632692	80.521315	6.620139	80.543979	JGCV+3H5, Pelmadulla, Sri Lanka	2.867044	
Rathnapura	Pelmadulla	Nindagala Bhodiya	False	False	RTHNPRPLMDLLNNDGLBHDY		Ratnapura	LK-91	6.586826	80.566158	Pelmadulla	PS-910117	6.632692	80.521315	6.642244	80.564447	Kuttapitiya, Pelmadulla, Sri Lanka	4.882413	
Rathnapura	Pelmadulla	Mahinda Vidyalaya	False	False	RTHNPRPLMDLLMHNDVDYLY		Ratnapura	LK-91	6.586826	80.566158	Pelmadulla	PS-910117	6.632692	80.521315	6.630199	80.53881	Colombo - Batticaloa Hwy, Pelmadulla, Sri Lanka	1.952735	
Rathnapura	Opanayaka	MOH Office – Opanayaka	False	False	RTHNPRPNYKMHFFCPNYK		Ratnapura	LK-91	6.586826	80.566158	Opanayaka	PS-910104	6.608519	80.619285	6.609517	80.620516	Colombo - Ratnapura - Wellawaya - Batticaloa Rd, Opanayake, Sri Lanka	0.175563	
Rathnapura	Samanalawewa	GH - Pambahinna	False	False	RTHNPRSMNLWWGHPMBHNN		Ratnapura	LK-91	6.586826	80.566158									#PoliceLocationUnknown
Rathnapura	Kalawana	Thanabela Vidyalaya	False	False	RTHNPRKLWNTHNBLVDYLY		Ratnapura	LK-91	6.586826	80.566158	Kalawana	PS-910110	6.530738	80.390719	6.466377	80.497276	rambukka,pothupitiya, Kalawana, Sri Lanka	13.781412	
Rathnapura	Kalawana	Pothupitiya Vidyalaya	False	False	RTHNPRKLWNPTHPTYVDYLY		Ratnapura	LK-91	6.586826	80.566158	Kalawana	PS-910110	6.530738	80.390719	6.424135	80.517798	B181, Sri Lanka	18.380791	
Rathnapura	Kalawana	Kudumiriya Vidyalaya	False	False	RTHNPRKLWNKDMRYVDYLY		Ratnapura	LK-91	6.586826	80.566158	Kalawana	PS-910110	6.530738	80.390719	6.535423	80.401004	GCP2+5C6, Kalawana, Sri Lanka	1.25034	
Rathnapura	Kalawana	Samanpura Vidyalaya	False	False	RTHNPRKLWNSMNPRVDYLY		Ratnapura	LK-91	6.586826	80.566158	Kalawana	PS-910110	6.530738	80.390719	6.563338	80.396482	Samanpura, Sri Lanka	3.681591	
Rathnapura	Kalawana	Wewalkandura Vidyalaya	False	False	RTHNPRKLWNWWLKNDRVDYLY		Ratnapura	LK-91	6.586826	80.566158	Kalawana	PS-910110	6.530738	80.390719	6.517913	80.423724	GC9F+5F9, රත්නපුර, Sri Lanka	3.916407	
Rathnapura	Kuruwita	Theppanawa Kumara Vidyalaya	False	False	RTHNPRKRWTTHPPNWKMRVDYLY		Ratnapura	LK-91	6.586826	80.566158	Kuruwita	PS-910112	6.778839	80.364712	6.773169	80.317655	Kuruwita, Sri Lanka	5.235705	
Rathnapura	Kuruwita	Pohormbawa Vidyalaya	False	False	RTHNPRKRWTPHRMBWVDYLY		Ratnapura	LK-91	6.586826	80.566158	Kuruwita	PS-910112	6.778839	80.364712	6.781492	80.362037	A4, Ratnapura 70500, Sri Lanka	0.417583	
Rathnapura	Kuruwita	Sudagala Sri Rahula Vidyalaya	False	False	RTHNPRKRWTSDGLSRRHLVDYLY		Ratnapura	LK-91	6.586826	80.566158	Kuruwita	PS-910112	6.778839	80.364712	6.80349	80.379989	Kuruwita Erathna Rd, Kuruwita, Sri Lanka	3.219513	
Rathnapura	Kuruwita	Kandagoda Vidyalaya	False	False	RTHNPRKRWTKNDGDVDYLY		Ratnapura	LK-91	6.586826	80.566158	Kuruwita	PS-910112	6.778839	80.364712	6.773169	80.317655	Kuruwita, Sri Lanka	5.235705	
Rathnapura	Ayagama	Sinhalagoda Vidyalaya	False	False	RTHNPRYGMSNHLGDVDYLY		Ratnapura	LK-91	6.586826	80.566158	Ayagama	PS-910109	6.637727	80.312554	6.684109	80.29352	M7MV+JCR, Ratnapura, Sri Lanka	5.57117	
Rathnapura	Wewelwatta	Banagoda Viharaya	False	False	RTHNPRWWLWTTBNGDVHRY		Ratnapura	LK-91	6.586826	80.566158	Wewalwatta	PS-910102	6.707202	80.555569	6.670085	80.395352	Gnanalankara Mawatha, Ratnapura, Sri Lanka	18.174737	
Rathnapura	Wewelwatta	Batewela Vidyalaya	False	False	RTHNPRWWLWTTBTWLVDYLY		Ratnapura	LK-91	6.586826	80.566158	Wewalwatta	PS-910102	6.707202	80.555569	6.692702	80.546062	Batewela road, Batewela, Wewelwaththa, Sri Lanka	1.924639	
Rathnapura	Rathnapura	Dodampe Rahula Vidyalaya	False	False	RTHNPRRTHNPRDDMPRHLVDYLY		Ratnapura	LK-91	6.586826	80.566158	Ratnapura	PS-910101	6.679456	80.40223	6.726152	80.332768	Millakade Dodampe, Ratnapura - Horana - Panadura Hwy, Millakade, Sri Lanka	9.266021	
Rathnapura	Rathnapura	Pathulpana Bodhigiri Vidyalaya	False	False	RTHNPRRTHNPRPTHLPNBDHGRVDYLY		Ratnapura	LK-91	6.586826	80.566158	Ratnapura	PS-910101	6.679456	80.40223	6.664556	80.457868	MF75+R4H, Ratnapura, Sri Lanka	6.366205	
Rathnapura	Rathnapura	Rathnapura Seevali Central College	False	False	RTHNPRRTHNPRRTHNPRSVLCNTRLCLLG		Ratnapura	LK-91	6.586826	80.566158	Ratnapura	PS-910101	6.679456	80.40223	6.713215	80.385002	70000, 70000 A4, Ratnapura, Sri Lanka	4.209679	
Rathnapura	Kuttigala	Kachchigala Vidyalaya	False	False	RTHNPRKTTGLKCHCHGLVDYLY		Ratnapura	LK-91	6.586826	80.566158	Kuttigala	PS-910238	6.260475	80.907389	6.337086	80.845788	8RPW+R8M, Embilipitiya, Sri Lanka	10.908608	
Rathnapura	Kuttigala	Wlavanadi Vidyalaya	False	False	RTHNPRKTTGLWLVNDVDYLY		Ratnapura	LK-91	6.586826	80.566158	Kuttigala	PS-910238	6.260475	80.907389	6.337086	80.845788	8RPW+R8M, Embilipitiya, Sri Lanka	10.908608	
Rathnapura	Panamura	Diyapota Vidyalaya	False	False	RTHNPRPNMRDYPTVDYLY		Ratnapura	LK-91	6.586826	80.566158	Panamure	PS-910236	6.40194	80.687615	6.705517	80.384839	Ratnapura, Sri Lanka	47.535351	#CenterFarFromPolice
Rathnapura	Eheliyagoda	Erupola Mahinda Vidyalaya	False	False	RTHNPRHLYGDRPLMHNDVDYLY		Ratnapura	LK-91	6.586826	80.566158	Ehaliyagoda	PS-910113	6.854603	80.260446	6.81405	80.246297	B222, Sri Lanka	4.773698	
Rathnapura	Kahawatta	Atakalanpanna Vidyalaya	False	False	RTHNPRKHWTTTKLNPNNVDYLY		Ratnapura	LK-91	6.586826	80.566158	Kahawatta	PS-910107	6.591434	80.56893	6.54009	80.588877	GHRQ+2HJ, Atakalanpanna, Sri Lanka	6.12157	
Rathnapura	Kahawatta	Pilana Vidyalaya	False	False	RTHNPRKHWTTPLNVDYLY		Ratnapura	LK-91	6.586826	80.566158	Kahawatta	PS-910107	6.591434	80.56893	6.594629	80.579426	HHVH+VQ3, රත්නපුර, Sri Lanka	1.212975	
Rathnapura	Kahawatta	Kahawatta Theater Hall	False	False	RTHNPRKHWTTKHWTTTHTRHLL		Ratnapura	LK-91	6.586826	80.566158	Kahawatta	PS-910107	6.591434	80.56893	6.569151	80.573918	HH9F+MH7, Kahawatta, Sri Lanka	2.539076	
Rathnapura	Kahawatta	Dharmaraja Vidyalaya	False	False	RTHNPRKHWTTDHRMRJVDYLY		Ratnapura	LK-91	6.586826	80.566158	Kahawatta	PS-910107	6.591434	80.56893	6.611693	80.591317	JH6R+MGG, රත්නපුර, Sri Lanka	3.346116	
Rathnapura	Kahawatta	Bungiriya Vidyalaya	False	False	RTHNPRKHWTTBNGRYVDYLY		Ratnapura	LK-91	6.586826	80.566158	Kahawatta	PS-910107	6.591434	80.56893	6.555967	80.563288	Bungiriya, Sri Lanka	3.993946	
Rathnapura	Godakawela	Alpitiya Viaharaya	False	False	RTHNPRGDKWLLPTYVHRY		Ratnapura	LK-91	6.586826	80.566158	Godakawela	PS-910233	6.50224	80.655642	6.300766	80.170888	Avittava - Elpitiya Rd, 11 කණුව, Sri Lanka	58.08038	#CenterFarFromPolice
Rathnapura	Godakawela	Godakawela Pradeshiya Shabah	False	False	RTHNPRGDKWLGDKWLPRDSHYSHBH		Ratnapura	LK-91	6.586826	80.566158	Godakawela	PS-910233	6.50224	80.655642	6.50511	80.649036	GJ4X+2JV, Godakawela, Sri Lanka	0.796799	
Rathnapura	Godakawela	Werehera Vidyalaya	False	False	RTHNPRGDKWLWRHRVDYLY		Ratnapura	LK-91	6.586826	80.566158	Godakawela	PS-910233	6.50224	80.655642	6.506306	80.647741	Werahera Rd, Godakawela, Sri Lanka	0.983344	
Rathnapura	Godakawela	MOH Office Godakawela	False	False	RTHNPRGDKWLMHFFCGDKWL		Ratnapura	LK-91	6.586826	80.566158	Godakawela	PS-910233	6.50224	80.655642	6.502102	80.656733	GM24+RMX, Godakawela, Sri Lanka	0.121544	
Rathnapura	Godakawela	Warayaya Vidyalaya	False	False	RTHNPRGDKWLWRYYVDYLY		Ratnapura	LK-91	6.586826	80.566158	Godakawela	PS-910233	6.50224	80.655642	6.505873	80.640843	GJ4R+88W, Ratnapura, Sri Lanka	1.684679	
Rathnapura	Kolonna	Vijeriya Vidyalaya	False	False	RTHNPRKLNNVJRYVDYLY		Ratnapura	LK-91	6.586826	80.566158	Kolonna	PS-910235	6.40194	80.687615	6.423524	80.653169	B115, Sri Lanka	4.50116	
Rathnapura	Kolonna	Thalagahawtta Vidyalaya	False	False	RTHNPRKLNNTHLGHWTTVDYLY		Ratnapura	LK-91	6.586826	80.566158	Kolonna	PS-910235	6.40194	80.687615	6.401024	80.690117	Embilipitiya-Panamure-Bulutota Road, Sri Lanka	0.294733	
Rathnapura	Endana	Godakumbura Vidyalaya	False	False	RTHNPRNDNGDKMBRVDYLY		Ratnapura	LK-91	6.586826	80.566158									#PoliceLocationUnknown
Kegalle	Pindeniya	Bulgala Vidyalaya	False	False	KGLLPNDNYBLGLVDYLY		Kegalle	LK-92	7.104216	80.342866	Pindeniya	PS-920124	7.156486	80.295092	7.248596	80.350635	Bandaranayaka Ave, Kegalle, Sri Lanka	11.938843	
Kegalle	Pindeniya	KotiyaKumbura Viharaya	False	False	KGLLPNDNYKTYKMBRVHRY		Kegalle	LK-92	7.104216	80.342866	Pindeniya	PS-920124	7.156486	80.295092	7.122668	80.250799	Nelundeniya-Tuntota-Galapitamada Road, Sri Lanka	6.168215	
Kegalle	Pindeniya	Atugoda Viharaya	False	False	KGLLPNDNYTGDVHRY		Kegalle	LK-92	7.104216	80.342866	Pindeniya	PS-920124	7.156486	80.295092	7.223988	80.312954	Bisowela, Sri Lanka	7.762673	
Kegalle	Warakapola	MOH Office - Warakapola	False	False	KGLLWRKPLMHFFCWRKPL		Kegalle	LK-92	7.104216	80.342866	Wrakapola	PS-920119	7.227488	80.199696	7.226501	80.197818	65GX+J44, Warakapola, Sri Lanka	0.234514	
Kegalle	Mawanella	MOH Office - Mawanela	False	False	KGLLMWNLLMHFFCMWNL		Kegalle	LK-92	7.104216	80.342866	Mawanella	PS-920122	7.256966	80.445912	7.253248	80.44561	Rambukkana-Mawanella Rd, Mawanella, Sri Lanka	0.414893	
Kegalle	Kegalle	MOH Office - Kegalla	False	False	KGLLKGLLMHFFCKGLL		Kegalle	LK-92	7.104216	80.342866	Kegalle	PS-920118	7.255928	80.353156	7.24797	80.343583	Kegalle-Bulathkohupitiya-Karawanella Hwy, Kegalle, Sri Lanka	1.378052	
Kegalle	Aranayaka	Rahala West College.	False	False	KGLLRNYKRHLWSTCLLG		Kegalle	LK-92	7.104216	80.342866	Aranayaka	PS-920120	7.186505	80.455273	7.140014	80.480001	Rahala West, Aranayaka, Sri Lanka	5.847113	
Kegalle	Aranayaka	Manadi Maha Vidyalaya	False	False	KGLLRNYKMNDMHVDYLY		Kegalle	LK-92	7.104216	80.342866	Aranayaka	PS-920120	7.186505	80.455273	7.146016	80.465971	Mawanella-Aranayake-Horawela Rd, Aranayake, Sri Lanka	4.655769	
Kegalle	Rambukkana	Mangalagama Primary School	False	False	KGLLRMBKKNMNGLGMPRMRYSCHL		Kegalle	LK-92	7.104216	80.342866	Rambukkana	PS-920123	7.324319	80.387808	7.259716	80.406495	7C54+VHQ, Kegalle, Sri Lanka	7.475709	
Kegalle	Rambukkana	Bolagama Community Hall	False	False	KGLLRMBKKNBLGMCMMNTYHLL		Kegalle	LK-92	7.104216	80.342866	Rambukkana	PS-920123	7.324319	80.387808	7.300078	80.386253	Pinnalanda waththa, Bathambure, Rambukkana 71000, Sri Lanka	2.701775	
Kegalle	Rambukkana	Sujatha Vidyalaya	False	False	KGLLRMBKKNSJTHVDYLY		Kegalle	LK-92	7.104216	80.342866	Rambukkana	PS-920123	7.324319	80.387808	7.31736	80.392917	Karandupona - Rambukkana Rd, Rambukkana, Sri Lanka	0.957519	
Kegalle	Yatiyantota	Welihelatenna Primary School	False	False	KGLLYTYNTTWLHLTNNPRMRYSCHL		Kegalle	LK-92	7.104216	80.342866	Yatiyantota	PS-920230	7.027207	80.290753	7.027852	80.292443	27HR+4XW, Kegalle, Sri Lanka	0.199885	
Kegalle	Yatiyantota	GH - Salgolla	False	False	KGLLYTYNTTGHSLGLL		Kegalle	LK-92	7.104216	80.342866	Yatiyantota	PS-920230	7.027207	80.290753	7.028882	80.295542	Yatiyanthota, Sri Lanka	0.560545	
Kegalle	Yatiyantota	Polpitiya Priamry School	False	False	KGLLYTYNTTPLPTYPRMRYSCHL		Kegalle	LK-92	7.104216	80.342866	Yatiyantota	PS-920230	7.027207	80.290753	7.026523	80.366123	29G8+JC5, Kegalle, Sri Lanka	8.320661	
Kegalle	Yatiyantota	Weviyathalawa Tamil College	False	False	KGLLYTYNTTWVYTHLWTMLCLLG		Kegalle	LK-92	7.104216	80.342866	Yatiyantota	PS-920230	7.027207	80.290753	7.028882	80.295542	Yatiyanthota, Sri Lanka	0.560545	
Kegalle	Ruwanwella	Kadigamuwa Primary School	False	False	KGLLRWNWLLKDGMWPRMRYSCHL		Kegalle	LK-92	7.104216	80.342866	Ruwanwella	PS-920229	7.046189	80.254174	7.129747	80.232804	Ruwanwella Rd, Sri Lanka	9.588801	
Kegalle	Ruwanwella	Galapitamada Valagamba Vidyalaya	False	False	KGLLRWNWLLGLPTMDVLGMBVDYLY		Kegalle	LK-92	7.104216	80.342866	Ruwanwella	PS-920229	7.046189	80.254174	7.14118	80.234662	galapitamada, Ruwanwella Rd, Sri Lanka	10.783101	
Kegalle	Ruwanwella	Dunumala Rajapaksa Vidyalaya	False	False	KGLLRWNWLLDNMLRJPKSVDYLY		Kegalle	LK-92	7.104216	80.342866	Ruwanwella	PS-920229	7.046189	80.254174	7.147352	80.212611	Dunumala, Sri Lanka	12.151607	
Kegalle	Ruwanwella	Puranpotta Primary school	False	False	KGLLRWNWLLPRNPTTPRMRYSCHL		Kegalle	LK-92	7.104216	80.342866	Ruwanwella	PS-920229	7.046189	80.254174	7.088921	80.251446	37Q2+HH8, Galamuna, Sri Lanka	4.762603	
Anuradhapura	Anuradhapura	MOH Office - Nuwaragampalatha	False	False	NRDHPRNRDHPRMHFFCNWRGMPLTH		Anuradhapura	LK-71	8.39199	80.512958	Anuradapura	PS-710101	8.329752	80.407265	8.341215	80.374096	Unnamed Road, Anuradhapura, Sri Lanka	3.866675	
Anuradhapura	Anuradhapura	Pradeshiya Shabha - Vijayapura	False	False	NRDHPRNRDHPRPRDSHYSHBHVJYPR		Anuradhapura	LK-71	8.39199	80.512958	Anuradapura	PS-710101	8.329752	80.407265	8.304729	80.417186	Nagasena Mawatha, Anuradhapura, Sri Lanka	2.989822	
Anuradhapura	Anuradhapura	Walisinghe Harischandra Ground	False	False	NRDHPRNRDHPRWLSNGHHRSCHNDRGRND		Anuradhapura	LK-71	8.39199	80.512958	Anuradapura	PS-710101	8.329752	80.407265	8.337404	80.405697	8CP4+X78, Anuradhapura, Sri Lanka	0.868448	
Anuradhapura	Kahatagasdigiliya	Koonwewa Vidyalaya	False	False	NRDHPRKHTGSDGLYKNWWVDYLY		Anuradhapura	LK-71	8.39199	80.512958	Kahatagasdigiliya	PS-710118	8.427328	80.688349	8.426892	80.694672	Puttalam - Anuradhapura - Trincomalee Hwy, Kahatagasdigiliya, Sri Lanka	0.697401	
Anuradhapura	Kallanchiya	Kallanchiya Vidyalaya	False	False	NRDHPRKLLNCHYKLLNCHYVDYLY		Anuradhapura	LK-71	8.39199	80.512958									#PoliceLocationUnknown
Anuradhapura	Mihintale	MOH Office - Mihintale	False	False	NRDHPRMHNTLMHFFCMHNTL		Anuradhapura	LK-71	8.39199	80.512958	Mihintale	PS-710104	8.360062	80.511889	8.357612	80.509049	Puttalam - Anuradhapura - Trincomalee Hwy, Mihintale, Sri Lanka	0.41466	
Anuradhapura	Mihintale	Mihintale Yaya 2 Gamunu Vidyalaya	False	False	NRDHPRMHNTLMHNTLYYGMNVDYLY		Anuradhapura	LK-71	8.39199	80.512958	Mihintale	PS-710104	8.360062	80.511889	8.390156	80.533389	9GRM+396, Mihintale, Sri Lanka	4.099076	
Anuradhapura	Mahawilachchiya	MOH Office - Mahawilachchiya	False	False	NRDHPRMHWLCHCHYMHFFCMHWLCHCHY		Anuradhapura	LK-71	8.39199	80.512958	Mahawilachchiya	PS-710120	8.484987	80.193911	8.494303	80.186519	F5VP+PJC, Mahawilachchiya, Sri Lanka	1.317298	
Anuradhapura	Galenbindunuwewa	MOH Office - Galenbindunuwewa	False	False	NRDHPRGLNBNDNWWMHFFCGLNBNDNWW		Anuradhapura	LK-71	8.39199	80.512958	Galenbidunuwewa	PS-710121	8.29037	80.71501	8.292134	80.717284	7PR8+VW3, Galenbindunuwewa, Sri Lanka	0.318033	
Anuradhapura	Hidogama	Divulwewa Vidyalaya	False	False	NRDHPRHDGMDVLWWVDYLY		Anuradhapura	LK-71	8.39199	80.512958	Hidogama	PS-710102	8.31575	80.420358	8.265833	80.407222	Hidogama Wewa, Anuradhapura, Sri Lanka	5.737426	
Anuradhapura	Thanthirimale	Thanthirimale Community Hall	False	False	NRDHPRTHNTHRMLTHNTHRMLCMMNTYHLL		Anuradhapura	LK-71	8.39199	80.512958	Thanthirimalaya	PS-710119	6.909512	79.895156	8.57228	80.257222	Thanthirimale, Sri Lanka	189.205228	#CenterFarFromPolice
Anuradhapura	Thirappane	Ethungama Gemunu Vidyalaya	False	False	NRDHPRTHRPPNTHNGMGMNVDYLY		Anuradhapura	LK-71	8.39199	80.512958	Thirappone	PS-710106	6.907289	79.863819	8.214719	80.554802	6H73+VWM, Anuradhapura, Sri Lanka	164.173975	#CenterFarFromPolice
Anuradhapura	Polonnaruwa	Muslim Central College - Kaduruwela	False	False	NRDHPRPLNNRWMSLMCNTRLCLLGKDRWL		Anuradhapura	LK-71	8.39199	80.512958	Polonnaruwa	PS-720125	7.924307	81.036895	7.927202	81.038607	Kaduruwela, පොළොන්නරු, Sri Lanka	0.37318	
Anuradhapura	Polonnaruwa	Gallella Al Azhar Maha Vidyalaya	False	False	NRDHPRPLNNRWGLLLLLZHRMHVDYLY		Anuradhapura	LK-71	8.39199	80.512958	Polonnaruwa	PS-720125	7.924307	81.036895	7.908812	81.066664	221, Gallella, Sri Lanka	3.704934	
Anuradhapura	Polonnaruwa	Bediwewa Maha Vidyalaya	False	False	NRDHPRPLNNRWBDWWMHVDYLY		Anuradhapura	LK-71	8.39199	80.512958	Polonnaruwa	PS-720125	7.924307	81.036895	8.235692	80.747058	6PPW+7RF, Anuradhapura, Sri Lanka	47.099798	#CenterFarFromPolice
Jaffna	Nelliyady	MOH Office - Karaveddy	False	False	JFFNNLLYDYMHFFCKRVDDY		Jaffna	LK-41	9.691792	80.098594	Nelliadi	PS-410108	9.778397	80.113303	9.792126	80.201799	Q6R2+VP3, Point Pedro, Sri Lanka	9.819656	
Jaffna	Point Pedro	Vadamarachchi Hindu Girls' College	False	False	JFFNPNTPDRVDMRCHCHHNDGRLSCLLG		Jaffna	LK-41	9.691792	80.098594	Point Pedro	PS-410106	9.827018	80.233187	9.817623	80.23136	Vinayaga Muthaliyaar Veethy, Point Pedro, Sri Lanka	1.064016	
Jaffna	Kayts	MOH Office – Kayts	False	False	JFFNKYTSMHFFCKYTS		Jaffna	LK-41	9.691792	80.098594	Kayts	PS-410212	9.728654	79.94775	9.697759	79.866366	Sri Lanka, Kayts, Sri Lanka	9.561445	
Jaffna	Kayts	MOH Office - Velanai	False	False	JFFNKYTSMHFFCVLN		Jaffna	LK-41	9.691792	80.098594	Kayts	PS-410212	9.728654	79.94775	9.636317	79.903777	Chatty vangkalvady road, Velanai, Sri Lanka	11.346015	
Jaffna	Kayts	MOH Office - Karainagar	False	False	JFFNKYTSMHFFCKRNGR		Jaffna	LK-41	9.691792	80.098594	Kayts	PS-410212	9.728654	79.94775	9.725097	79.99772	Sri Lanka, Manipay, Sri Lanka	5.492521	
Jaffna	Kodikaman	DH – Kodikaman	False	False	JFFNKDKMNDHKDKMN		Jaffna	LK-41	9.691792	80.098594	Kodikamam	PS-410217	9.666459	80.132384	9.681381	80.219829	Kodikamam, Kandy - Jaffna Hwy, Sri Lanka	9.73078	
Jaffna	Thelippalai	Alaveddi Arunodaya Vidyalaya	False	False	JFFNTHLPPLLVDDRNDYVDYLY		Jaffna	LK-41	9.691792	80.098594	Thelippalay	PS-410104	6.933075	79.857181	9.748187	80.019698	Alaveddy, Sri Lanka	313.634721	#CenterFarFromPolice
Jaffna	Wadukkotte	MOH Office – Chankanai	False	False	JFFNWDKKTTMHFFCCHNKN		Jaffna	LK-41	9.691792	80.098594	Vaddukoddai		9.728886	79.947771	9.753617	79.976004	QX3G+CCR, Sri Lanka	4.140836	
Jaffna	Achchuveli	Puttur Sri Somaskanda Vidyalaya	False	False	JFFNCHCHVLPTTRSRSMSKNDVDYLY		Jaffna	LK-41	9.691792	80.098594	Achchuweli	PS-410103	6.934132	79.856305	9.745655	80.104632	AB20 - Point Pedro Road Puttur west, Jaffna 40000, Sri Lanka	313.916871	#CenterFarFromPolice
Jaffna	Chavakachcheri	Town Hall - Chavakachcheri	False	False	JFFNCHVKCHCHRTWNHLLCHVKCHCHR		Jaffna	LK-41	9.691792	80.098594	Chawakachcheri	PS-410215	9.666459	80.132384	9.659136	80.160946	M556+M94, Chavakachcheri, Sri Lanka	3.236063	
Jaffna	Chavakachcheri	Kodikamam Hospital	False	False	JFFNCHVKCHCHRKDKMMHSPTL		Jaffna	LK-41	9.691792	80.098594	Chawakachcheri	PS-410215	9.666459	80.132384	9.677952	80.236663	M6HP+5MM, Jaffna, Sri Lanka	11.505299	
Jaffna	Chavakachcheri	MOH Office – Madduwil	False	False	JFFNCHVKCHCHRMHFFCMDDWL		Jaffna	LK-41	9.691792	80.098594	Chawakachcheri	PS-410215	9.666459	80.132384	9.673947	80.027736	M2FH+H3H, Jaffna, Sri Lanka	11.504775	
Jaffna	Maruthankerny	MOH Office – Maruthankerny	False	False	JFFNMRTHNKRNYMHFFCMRTHNKRNY		Jaffna	LK-41	9.691792	80.098594	Maruthankerny		9.62311	80.397326	7.023407	80.262082	A7, Karawanella, Sri Lanka	289.547303	#CenterFarFromPolice
Jaffna	Pooneryn	MOH Office – Pooneryn	False	False	JFFNPNRYNMHFFCPNRYN		Jaffna	LK-41	9.691792	80.098594	Pooneryn		9.505717	80.21101	9.507968	80.208317	G655+58P, Pooneryn, Sri Lanka	0.387256	
Kilinochchi	Mulankavil	Mulankavil Hospital	False	False	KLNCHCHMLNKVLMLNKVLHSPTL		Kilinochchi	LK-45	9.415742	80.30358	Mulankavil	PS-450135	9.254463	80.141528	9.243423	80.143894	Base Hospital Mulankavil, A32 Road, Mulankavil, Kumulamunai, Sri Lanka	1.255148	
Kilinochchi	Kilinochchi	MOH Office – Karachchi	False	False	KLNCHCHKLNCHCHMHFFCKRCHCH		Kilinochchi	LK-45	9.415742	80.30358	Kilinochchi	PS-450131	9.392265	80.407846	7.683586	81.730767	MPMJ+C8J, Kattankudy, Sri Lanka	239.363691	#CenterFarFromPolice
Kilinochchi	Palei	MOH Office – Palei	False	False	KLNCHCHPLMHFFCPL		Kilinochchi	LK-45	9.415742	80.30358	Palei	PS-450132	6.900777	79.872638	9.610611	80.328165	Office of the Medical Officer for Health, Pallai Pradwshasaba, A9, Pachchilapalli, Sri Lanka	305.555993	#CenterFarFromPolice
Kilinochchi	Dharmapuram	MOH Office – Kandavalai	False	False	KLNCHCHDHRMPRMMHFFCKNDVL		Kilinochchi	LK-45	9.415742	80.30358	Dharmapuram	PS-450136	6.873107	79.86167	9.411006	80.516427	Parantan-Mullaitivu Hwy, Sri Lanka	291.349257	#CenterFarFromPolice
Mullaitivu	Puthukudiyiruppu	Sri Subramaniyam Vidyalaya	False	False	MLLTVPTHKDYRPPSRSBRMNYMVDYLY		Mullaitivu	LK-44	9.167643	80.549091	Pudukuduiruppu	PS-440149	7.00152	79.95003	9.314562	80.696594	8M7W+RJG, Puthukkudiyiruppu, Sri Lanka	270.089737	#CenterFarFromPolice
Mullaitivu	Puthukudiyiruppu	Devipuram Primary Clinic Centre	False	False	MLLTVPTHKDYRPPDVPRMPRMRYCLNCCNTR		Mullaitivu	LK-44	9.167643	80.549091	Pudukuduiruppu	PS-440149	7.00152	79.95003	9.313637	80.696168	Puthukudiyiruppu, Sri Lanka	269.977487	#CenterFarFromPolice
Mullaitivu	Puthukudiyiruppu	Mungilaru Hospital	False	False	MLLTVPTHKDYRPPMNGLRHSPTL		Mullaitivu	LK-44	9.167643	80.549091	Pudukuduiruppu	PS-440149	7.00152	79.95003	9.315321	80.704462	8P83+4QP Puthukkudiyiruppu Divisional Hospital, Parantan-Mullaitivu Hwy, Puthukkudiyiruppu, Sri Lanka	270.434821	#CenterFarFromPolice
Mullaitivu	Puthukudiyiruppu	Vishwamadu Bharathi Vidyalaya	False	False	MLLTVPTHKDYRPPVSHWMDBHRTHVDYLY		Mullaitivu	LK-44	9.167643	80.549091	Pudukuduiruppu	PS-440149	7.00152	79.95003	9.346216	80.738258	8PWQ+F8J, Ampalavanpokkanai, Sri Lanka	274.858191	#CenterFarFromPolice
Mullaitivu	Ambalavanpokkanai	Ambalavanpokkanai Maha Vidyalaya	False	False	MLLTVMBLVNPKKNMBLVNPKKNMHVDYLY		Mullaitivu	LK-44	9.167643	80.549091									#PoliceLocationUnknown
Mullaitivu	Oddusudan	Regional Medical Superintendent of Health	False	False	MLLTVDDSDNRGNLMDCLSPRNTNDNTFHLTH		Mullaitivu	LK-44	9.167643	80.549091	Oddusudan	PS-440151	9.160983	80.652821	9.153868	80.649731	Oddusuddan, Sri Lanka	0.861076	
Mullaitivu	Mankulam	Mankulam Hospital	False	False	MLLTVMNKLMMNKLMHSPTL		Mullaitivu	LK-44	9.167643	80.549091	Mankulam	PS-440147	9.124606	80.448404	9.12782	80.447093	A9, Mankulam, Sri Lanka	0.385396	
Mullaitivu	Mallavi	Vinayagapuram General Society Hall	False	False	MLLTVMLLVVNYGPRMGNRLSCTYHLL		Mullaitivu	LK-44	9.167643	80.549091	Mallavi	PS-440153	9.137878	80.307257	9.134704	80.308726	48M5+VFQ, Mallavi, Sri Lanka	0.388156	
Mannar	Adampan	MOH Office - Adampan	False	False	MNNRDMPNMHFFCDMPN		Mannar	LK-42	8.877429	80.088628	Adampan		8.939451	80.002055	8.944842	79.996862	WXVW+WPQ, Adampan, Sri Lanka	0.827737	
Mannar	Madu	Irana Iruppukulam Maha Vidyalaya	False	False	MNNRMDRNRPPKLMMHVDYLY		Mannar	LK-42	8.877429	80.088628	Madu	PS-420144	6.914115	79.849048	8.856361	80.204244	Madu, Sri Lanka	219.551368	#CenterFarFromPolice
Mannar	Madu	Irana Vilathikulam Maha Vidyalaya	False	False	MNNRMDRNVLTHKLMMHVDYLY		Mannar	LK-42	8.877429	80.088628	Madu	PS-420144	6.914115	79.849048	8.856361	80.204244	Madu, Sri Lanka	219.551368	#CenterFarFromPolice
Mannar	Mannar	Cursell RCTMS College	False	False	MNNRMNNRCRSLLRCTMSCLLG		Mannar	LK-42	8.877429	80.088628	Mannar	PS-420138	8.978123	79.911642	8.973301	80.006089	Navathkuli - Karativu - Mannar Hwy, Sri Lanka	10.390528	
Mannar	Talaimannar	Kaddu Karan RCTMS College	False	False	MNNRTLMNNRKDDKRNRCTMSCLLG		Mannar	LK-42	8.877429	80.088628	Thalaimannar	PS-420142	9.092083	79.727534	9.0909	79.727193	Talaimannar Pier, A14, Talaimannar, Sri Lanka	0.136811	
Trincomalee	Muttur	MOH Office – Muttur	False	False	TRNCMLMTTRMHFFCMTTR		Trincomalee	LK-53	8.551241	81.092014	Mutur	PS-530138	8.461133	81.259371	8.453916	81.264494	1 Old Batticaloa Rd, Mutur, Sri Lanka	0.980859	
Trincomalee	Kinniya	MOH Office - Kurungnakeni	False	False	TRNCMLKNNYMHFFCKRNGNKN		Trincomalee	LK-53	8.551241	81.092014	Kinnia	PS-530140	6.907289	79.863819	7.484932	80.353119	F9M3+X6H, Kurunegala 60000, Sri Lanka	83.927094	#CenterFarFromPolice
Trincomalee	Kinniya	Mahamar Al Hira Vidyalaya	False	False	TRNCMLKNNYMHMRLHRVDYLY		Trincomalee	LK-53	8.551241	81.092014	Kinnia	PS-530140	6.907289	79.863819	8.495277	81.185362	MEH Mahroof Rd, Kinniya, Sri Lanka	228.947124	#CenterFarFromPolice
Trincomalee	Kinniya	Majeeth Nagar Rural Hospital	False	False	TRNCMLKNNYMJTHNGRRRLHSPTL		Trincomalee	LK-53	8.551241	81.092014	Kinnia	PS-530140	6.907289	79.863819					#CenterLocationUnknown
Trincomalee	Kinniya	Base Hospital – Kinniya	False	False	TRNCMLKNNYBSHSPTLKNNY		Trincomalee	LK-53	8.551241	81.092014	Kinnia	PS-530140	6.907289	79.863819	8.501539	81.187539	Tampalakamam-Kinniya Rd, Kinniya 31100, Sri Lanka	229.636589	#CenterFarFromPolice
Trincomalee	Kinniya	MOH Office – Kinniya	False	False	TRNCMLKNNYMHFFCKNNY		Trincomalee	LK-53	8.551241	81.092014	Kinnia	PS-530140	6.907289	79.863819	8.498696	81.179644	F5XH+FVC, Kinniya 31100, Sri Lanka	228.840304	#CenterFarFromPolice
Trincomalee	Sripura	MOH Office – Sripura	False	False	TRNCMLSRPRMHFFCSRPR		Trincomalee	LK-53	8.551241	81.092014	Sripura	PS-530136	8.929617	80.81428	8.926697	80.814799	Padavi Sripura, Padaviya - Sripura Road, Welioya, Sri Lanka	0.329869	
Trincomalee	Kuchchaveli	MOH Office - Kuchchaveli	False	False	TRNCMLKCHCHVLMHFFCKCHCHVL		Trincomalee	LK-53	8.551241	81.092014	Kuchchaweli	PS-530133	8.81895	81.100438	8.740082	81.161616	P5R6+2JQ, Kumpurupiddi, Sri Lanka	11.053646	
Trincomalee	Kuchchaveli	Divisional Hospital - Kuchchaveli	False	False	TRNCMLKCHCHVLDVSNLHSPTLKCHCHVL		Trincomalee	LK-53	8.551241	81.092014	Kuchchaweli	PS-530133	8.81895	81.100438	8.814795	81.102358	R472+WW9, Kuchchaveli, Sri Lanka	0.508064	
Trincomalee	Kuchchaveli	Divisional Hospital - Nilaveli	False	False	TRNCMLKCHCHVLDVSNLHSPTLNLVL		Trincomalee	LK-53	8.551241	81.092014	Kuchchaweli	PS-530133	8.81895	81.100438	8.681035	81.193632	M5JV+CF6, Nilaveli, Sri Lanka	18.44695	
Trincomalee	Pulmoddai	Base Hospital - Pulmoddai	False	False	TRNCMLPLMDDBSHSPTLPLMDD		Trincomalee	LK-53	8.551241	81.092014	Pulmudai	PS-530135	6.915266	79.87829	8.941204	80.983139	WXRM+F7J, Pulmoddai, Sri Lanka	256.112801	#CenterFarFromPolice
Trincomalee	Serunuwara	Serunuwara Hospital	False	False	TRNCMLSRNWRSRNWRHSPTL		Trincomalee	LK-53	8.551241	81.092014	Serunuwara	PS-530244	8.321863	81.299322	8.322964	81.299734	Allai-Kantalai Rd, Sri Lanka	0.130589	
Trincomalee	Serunuwara	MOH Office - Serunuwara	False	False	TRNCMLSRNWRMHFFCSRNWR		Trincomalee	LK-53	8.551241	81.092014	Serunuwara	PS-530244	8.321863	81.299322	8.323143	81.299894	B10, Sri Lanka	0.155671	
Trincomalee	Harbour Police	MOH Office - Trincomalee	False	False	TRNCMLHRBRPLCMHFFCTRNCML		Trincomalee	LK-53	8.551241	81.092014	Trinco Harbour Police	PS-530131	8.56705	81.231407	8.598974	81.216963	MOH Office, Farm Rd, Trincomalee, Sri Lanka	3.890062	
Trincomalee	Harbour Police	Base Hospital - Trincomalee	False	False	TRNCMLHRBRPLCBSHSPTLTRNCML		Trincomalee	LK-53	8.551241	81.092014	Trinco Harbour Police	PS-530131	8.56705	81.231407	8.56486	81.239445	Hospital Ln, Trincomalee, Sri Lanka	0.917037	
Trincomalee	Uppuveli	MOH Office - Uppuveli	False	False	TRNCMLPPVLMHFFCPPVL		Trincomalee	LK-53	8.551241	81.092014	Uppuweli	PS-530134	8.593614	81.21743	8.607961	81.216512	Nilaveli Rd, Trincomalee, Sri Lanka	1.599005	
Trincomalee	Kantale	MOH Office - Kantale	False	False	TRNCMLKNTLMHFFCKNTL		Trincomalee	LK-53	8.551241	81.092014	Kantale	PS-530241	8.356129	81.007739	8.349617	81.009107	අග්‍රබෝධි මාවත, Kantale, Sri Lanka	0.739809	
Trincomalee	Ichchalampattu	MOH Office - Ichchalampattu	False	False	TRNCMLCHCHLMPTTMHFFCCHCHLMPTT	Eachchilampattu Hospital	Trincomalee	LK-53	8.551241	81.092014	Ichchalampattu		8.289549	81.359002	8.289644	81.358983	Highway, Ichchalampattu, Trincomalee, Sri Lanka	0.010772	
Trincomalee	Thambalagamuwa	MOH Office - Thambalagamuwa	False	False	TRNCMLTHMBLGMWMHFFCTHMBLGMW		Trincomalee	LK-53	8.551241	81.092014	Thambalagamuva	PS-530243	6.907289	79.863819	8.563603	81.239584	Hospital Ln, Trincomalee, Sri Lanka	238.604889	#CenterFarFromPolice
Trincomalee	Gomarankadawala	MOH Office - Gomarankadawala	False	False	TRNCMLGMRNKDWLMHFFCGMRNKDWL		Trincomalee	LK-53	8.551241	81.092014	Gomarankadawala	PS-530248	8.674487	80.967555	8.674726	80.955691	Unnamed Road, Gomarankadawala, Sri Lanka	1.304806	
Trincomalee	Batticaloa	Kokuvil Vigneshwara Vidyalaya	False	False	TRNCMLBTTCLKKVLVGNSHWRVDYLY		Trincomalee	LK-53	8.551241	81.092014	Batticaloa	PS-510101	7.717949	81.699294	8.576998	81.233351	Main St, Trincomalee 31000, Sri Lanka	108.453606	#CenterFarFromPolice
Batticaloa	Batticaloa	Karuwappankarni Vipulananda College	False	False	BTTCLBTTCLKRWPPNKRNVPLNNDCLLG		Batticaloa	LK-51	7.792772	81.486513	Batticaloa	PS-510101	7.717949	81.699294	7.733673	81.686842	School Rd, Batticaloa, Sri Lanka	2.22319	
Batticaloa	Batticaloa	Amruthakali Sri Sitti Vinayagar College	False	False	BTTCLBTTCLMRTHKLSRSTTVNYGRCLLG		Batticaloa	LK-51	7.792772	81.486513	Batticaloa	PS-510101	7.717949	81.699294	7.743106	81.692703	B46, Batticaloa, Sri Lanka	2.89097	
Batticaloa	Batticaloa	Vipulananda College	False	False	BTTCLBTTCLVPLNNDCLLG		Batticaloa	LK-51	7.792772	81.486513	Batticaloa	PS-510101	7.717949	81.699294	7.733673	81.686842	School Rd, Batticaloa, Sri Lanka	2.22319	
Batticaloa	Kokkadicholai	Pandariyanveli Nawamagal Vidyalaya	False	False	BTTCLKKKDCHLPNDRYNVLNWMGLVDYLY		Batticaloa	LK-51	7.792772	81.486513	Kokkadicholai	PS-510112	7.715979	81.698757	7.612375	81.709193	Kokkadicholai, Sri Lanka	11.581137	
Batticaloa	Kokkadicholai	Munekadu Wivekananda Vidyalaya	False	False	BTTCLKKKDCHLMNKDWVKNNDVDYLY		Batticaloa	LK-51	7.792772	81.486513	Kokkadicholai	PS-510112	7.715979	81.698757	7.705703	81.714267	New Kalmunai Rd, Batticaloa, Sri Lanka	2.056476	
Batticaloa	Vellawali	Palugamam Kandumani Maha Vidyalaya	False	False	BTTCLVLLWLPLGMMKNDMNMHVDYLY		Batticaloa	LK-51	7.792772	81.486513	Vellavali	PS-510111	6.907289	79.863819	7.543588	81.758413	GQV5+C9M, Batticaloa, Sri Lanka	220.715909	#CenterFarFromPolice
Batticaloa	Vellawali	Thumpan Karni Kannaki Vidyalaya	False	False	BTTCLVLLWLTHMPNKRNKNNKVDYLY		Batticaloa	LK-51	7.792772	81.486513	Vellavali	PS-510111	6.907289	79.863819	7.678873	81.672472	kannankudah, Batticaloa, Sri Lanka	217.220116	#CenterFarFromPolice
Batticaloa	Valachchenai	Nasiwantivu GN Office	False	False	BTTCLVLCHCHNNSWNTVGNFFC		Batticaloa	LK-51	7.792772	81.486513	Valachchanai	PS-510107	7.908015	81.533004	7.919334	81.531604	WG9J+PJQ, Sri Lanka	1.268423	
Batticaloa	Valachchenai	Kumburamulla Wembu GTM School	False	False	BTTCLVLCHCHNKMBRMLLWMBGTMSCHL		Batticaloa	LK-51	7.792772	81.486513	Valachchanai	PS-510107	7.908015	81.533004	7.920735	81.521581	Hairath Vidyalaya Road, Valaichenai, Oddamavadi, Sri Lanka	1.893553	
Batticaloa	Valachchenai	MOH Office - Oddamavadi	False	False	BTTCLVLCHCHNMHFFCDDMVD		Batticaloa	LK-51	7.792772	81.486513	Valachchanai	PS-510107	7.908015	81.533004	7.912281	81.532775	WG6M+W46, Batticaloa, Sri Lanka	0.475177	
Batticaloa	Valachchenai	Valachchenai Base Hospital	False	False	BTTCLVLCHCHNVLCHCHNBSHSPTL		Batticaloa	LK-51	7.792772	81.486513	Valachchanai	PS-510107	7.908015	81.533004	7.911315	81.533046	Valaichchenai-Nasuvantivu-Navaladi Road, Sri Lanka	0.367088	
Batticaloa	Valachchenai	Dewapuram Gajamugan Vidyalaya	False	False	BTTCLVLCHCHNDWPRMGJMGNVDYLY		Batticaloa	LK-51	7.792772	81.486513	Valachchanai	PS-510107	7.908015	81.533004	7.921328	81.52467	Valaichchenai, Sri Lanka	1.742353	
Batticaloa	Valachchenai	Valachchenai Annur Vidyalaya	False	False	BTTCLVLCHCHNVLCHCHNNNRVDYLY		Batticaloa	LK-51	7.792772	81.486513	Valachchanai	PS-510107	7.908015	81.533004	7.920735	81.521581	Hairath Vidyalaya Road, Valaichenai, Oddamavadi, Sri Lanka	1.893553	
Batticaloa	Vakarai	Amandaveli Rural Society Development Hall	False	False	BTTCLVKRMNDVLRRLSCTYDVLPMNTHLL		Batticaloa	LK-51	7.792772	81.486513	Wakarai	PS-510109	6.934132	79.856305	8.13691	81.434079	Vakarai, Sri Lanka	219.467947	#CenterFarFromPolice
Batticaloa	Vakarai	Vammi Wattuwan Vidyalaya	False	False	BTTCLVKRVMMWTTWNVDYLY		Batticaloa	LK-51	7.792772	81.486513	Wakarai	PS-510109	6.934132	79.856305	8.12458	81.43356	4CFM+RCM, Sri Lanka	218.591111	#CenterFarFromPolice
Batticaloa	Vakarai	Puliyan Kandalad Rural Development Society Hall	False	False	BTTCLVKRPLYNKNDLDRRLDVLPMNTSCTYHLL		Batticaloa	LK-51	7.792772	81.486513	Wakarai	PS-510109	6.934132	79.856305	7.754603	81.571807	Pulaiyaveli Rd, Pulaiyaveli, Sri Lanka	210.102911	#CenterFarFromPolice
Batticaloa	Kaluwanchikudy	Base Hospital - Kaluwanchikudy	False	False	BTTCLKLWNCHKDYBSHSPTLKLWNCHKDY		Batticaloa	LK-51	7.792772	81.486513	Kalawanchikudy	PS-510110	7.515908	81.787051	7.51724	81.785184	GQ8P+V3V, Kaluwanchikudy, Sri Lanka	0.25365	
Batticaloa	Aithamalei	GTM Vidyalaya Manipuram	False	False	BTTCLTHMLGTMVDYLYMNPRM		Batticaloa	LK-51	7.792772	81.486513	Aiththamalai	PS-510106	6.907289	79.863819	7.705703	81.714267	New Kalmunai Rd, Batticaloa, Sri Lanka	222.631407	#CenterFarFromPolice
Batticaloa	Aithamalei	Mahilawattuwan Vidyalaya	False	False	BTTCLTHMLMHLWTTWNVDYLY		Batticaloa	LK-51	7.792772	81.486513	Aiththamalai	PS-510106	6.907289	79.863819	7.720143	81.700516	PPC2+362, Batticaloa, Sri Lanka	221.887623	#CenterFarFromPolice
Batticaloa	Kattankudy	MOH Office - Arayampathy	False	False	BTTCLKTTNKDYMHFFCRYMPTHY		Batticaloa	LK-51	7.792772	81.486513	Kaththankudi	PS-510103	7.715979	81.698757	7.672862	81.735019	MPFP+42R, Sri Lanka	6.243191	
Batticaloa	Kattankudy	MOH Office - Kattankudy	False	False	BTTCLKTTNKDYMHFFCKTTNKDY		Batticaloa	LK-51	7.792772	81.486513	Kaththankudi	PS-510103	7.715979	81.698757	7.683586	81.730767	MPMJ+C8J, Kattankudy, Sri Lanka	5.042961	
Batticaloa	Eravur	Sandiveli Hospital	False	False	BTTCLRVRSNDVLHSPTL		Batticaloa	LK-51	7.792772	81.486513	Eravur	PS-510104	7.715979	81.698757	7.777289	81.602853	Trincomalee Hwy, Eravur, Sri Lanka	12.578998	
Batticaloa	Eravur	MOH Office – Eravur	False	False	BTTCLRVRMHFFCRVR		Batticaloa	LK-51	7.792772	81.486513	Eravur	PS-510104	7.715979	81.698757	7.783664	81.605626	QJM4+F76, Eravur, Sri Lanka	12.729342	
Batticaloa	Eravur	Rahumaniya Vidyalaya	False	False	BTTCLRVRRHMNYVDYLY		Batticaloa	LK-51	7.792772	81.486513	Eravur	PS-510104	7.715979	81.698757	7.774595	81.611809	Rahumaniya School Rd, Eravur, Sri Lanka	11.590597	
Batticaloa	Eravur	Kaluvankeni Wivekananda Vidyalaya	False	False	BTTCLRVRKLVNKNWVKNNDVDYLY		Batticaloa	LK-51	7.792772	81.486513	Eravur	PS-510104	7.715979	81.698757	7.776897	81.604203	Eravur, Sri Lanka	12.430415	
Batticaloa	Eravur	Dewapuram Vidyalaya	False	False	BTTCLRVRDWPRMVDYLY		Batticaloa	LK-51	7.792772	81.486513	Eravur	PS-510104	7.715979	81.698757	7.781715	81.601743	Eravur - 04, Chenkaladi, Sri Lanka	12.953304	
Batticaloa	Eravur	Al Akber Mosque	False	False	BTTCLRVRLKBRMSQ		Batticaloa	LK-51	7.792772	81.486513	Eravur	PS-510104	7.715979	81.698757	7.676382	81.742483	MPGR+HX5, Kattankudy, Sri Lanka	6.529101	
Batticaloa	Eravur	Wandaramullai Ganesha Vidyalaya	False	False	BTTCLRVRWNDRMLLGNSHVDYLY		Batticaloa	LK-51	7.792772	81.486513	Eravur	PS-510104	7.715979	81.698757	7.785947	81.590295	Trincomalee Road, Chenkaladi, Sri Lanka	14.264135	
Batticaloa	Eravur	Kiran Central College	False	False	BTTCLRVRKRNCNTRLCLLG		Batticaloa	LK-51	7.792772	81.486513	Eravur	PS-510104	7.715979	81.698757	7.785947	81.590295	Trincomalee Road, Chenkaladi, Sri Lanka	14.264135	
Batticaloa	Eravur	Mawadiwembu Hospital	False	False	BTTCLRVRMWDWMBHSPTL		Batticaloa	LK-51	7.792772	81.486513	Eravur	PS-510104	7.715979	81.698757	7.808545	81.566328	Mawadiwembu Hospital, Sri Lanka	17.861302	
Batticaloa	Eravur	Eravur Hospital	False	False	BTTCLRVRRVRHSPTL		Batticaloa	LK-51	7.792772	81.486513	Eravur	PS-510104	7.715979	81.698757	7.783168	81.605999	QJM4+799, Eravur 30300, Sri Lanka	12.663585	
Batticaloa	Eravur	MOH Office - Chenkaladi	False	False	BTTCLRVRMHFFCCHNKLD		Batticaloa	LK-51	7.792772	81.486513	Eravur	PS-510104	7.715979	81.698757	7.783599	81.593367	Trincomalee Hwy, Chenkaladi 30350, Sri Lanka	13.837876	
Batticaloa	Eravur	Chenkaladi Hospital	False	False	BTTCLRVRCHNKLDHSPTL		Batticaloa	LK-51	7.792772	81.486513	Eravur	PS-510104	7.715979	81.698757	7.783546	81.589961	Batticaloa Rd, Chenkaladi, Sri Lanka	14.151406	
Batticaloa	Karadiyanaru	Ambal Vidyalaya	False	False	BTTCLKRDYNRMBLVDYLY		Batticaloa	LK-51	7.792772	81.486513	Karadiyanaru	PS-510105	7.701992	81.537252	7.700747	81.538387	Karadiyanaru, Sri Lanka	0.186625	
Batticaloa	Karadiyanaru	Karadiyanaru Hospital	False	False	BTTCLKRDYNRKRDYNRHSPTL		Batticaloa	LK-51	7.792772	81.486513	Karadiyanaru	PS-510105	7.701992	81.537252	7.700216	81.539779	PG2Q+3WJ, Karadiyanaru, Sri Lanka	0.341482	
Ampara	Chavalakade	MOH Office - Navidanveli	False	False	MPRCHVLKDMHFFCNVDNVL		Ampara	LK-52	7.23699	81.550391	Chawalakade	PS-520125	7.413559	81.776822	7.420081	81.788401	B77, Sri Lanka	1.468805	
Ampara	Karaitivu	MOH Office – Karaitivu	False	False	MPRKRTVMHFFCKRTV		Ampara	LK-52	7.23699	81.550391	Karaitivu		9.744059	79.870587	7.377712	81.838796	Colombo-Ratnapura-Wellawaya-Batticaloa Highway, Karativu 32250, Sri Lanka	340.788666	#CenterFarFromPolice
Ampara	Kalmunai	Ashraff Memorial Hospital	False	False	MPRKLMNSHRFFMMRLHSPTL		Ampara	LK-52	7.23699	81.550391	Kalmunai	PS-520123	7.414289	81.825006	7.403172	81.831146	A4, Ashraff Memorial Base Hospital, A4 A4, Kalmunai 32300, Sri Lanka	1.409859	
Ampara	Kalmunai	MOH Office - Kalmunai North	False	False	MPRKLMNMHFFCKLMNNRTH		Ampara	LK-52	7.23699	81.550391	Kalmunai	PS-520123	7.414289	81.825006	7.411712	81.838462	CR6Q+M9P, Kalmunai 32300, Sri Lanka	1.511625	
Ampara	Kalmunai	Base Hospital - Kalmunai North	False	False	MPRKLMNBSHSPTLKLMNNRTH		Ampara	LK-52	7.23699	81.550391	Kalmunai	PS-520123	7.414289	81.825006	7.420034	81.82232	hospital near, Kalmunai 32300, Sri Lanka	0.704353	
Ampara	Kalmunai	MOH Office - Kalmunai South	False	False	MPRKLMNMHFFCKLMNSTH		Ampara	LK-52	7.23699	81.550391	Kalmunai	PS-520123	7.414289	81.825006	7.411712	81.838462	CR6Q+M9P, Kalmunai 32300, Sri Lanka	1.511625	
Ampara	Sainthamarthu	MOH Office – Sainthamarthu	False	False	MPRSNTHMRTHMHFFCSNTHMRTH		Ampara	LK-52	7.23699	81.550391									#PoliceLocationUnknown
Ampara	Sainthamarthu	Saindamarthu Hospital	False	False	MPRSNTHMRTHSNDMRTHHSPTL		Ampara	LK-52	7.23699	81.550391									#PoliceLocationUnknown
Ampara	Sammanthurai	Sammanthurai Base Hospital	False	False	MPRSMMNTHRSMMNTHRBSHSPTL		Ampara	LK-52	7.23699	81.550391	Samanthurai	PS-520124	7.365785	81.810859	7.368355	81.813042	9R96+MWM, Hospital Rd, Sammanthurai, Sri Lanka	0.373773	
Ampara	Sammanthurai	MOH Office – Nintavur	False	False	MPRSMMNTHRMHFFCNNTVR		Ampara	LK-52	7.23699	81.550391	Samanthurai	PS-520124	7.365785	81.810859	7.352821	81.856939	Hospital Rd, Nintavur 32340, Sri Lanka	5.283925	
Ampara	Sammanthurai	Nintavur Hospital	False	False	MPRSMMNTHRNNTVRHSPTL		Ampara	LK-52	7.23699	81.550391	Samanthurai	PS-520124	7.365785	81.810859	7.353372	81.856852	Hospital Rd, Nintavur, Sri Lanka	5.258159	
Ampara	Sammanthurai	MOH Office - Sammanthurai	False	False	MPRSMMNTHRMHFFCSMMNTHR		Ampara	LK-52	7.23699	81.550391	Samanthurai	PS-520124	7.365785	81.810859	7.369857	81.812264	9R96+WWR, Sammanthurai, Sri Lanka	0.478712	
Ampara	Thirukkovil	MOH Office – Thirukkovil	False	False	MPRTHRKKVLMHFFCTHRKKVL		Ampara	LK-52	7.23699	81.550391	Thirukkovil	PS-520127	7.113998	81.852219	7.111635	81.852892	Central Rd, Vinayagapuram, Sri Lanka	0.273131	
Ampara	Thirukkovil	Thirukkovil Hospital	False	False	MPRTHRKKVLTHRKKVLHSPTL		Ampara	LK-52	7.23699	81.550391	Thirukkovil	PS-520127	7.113998	81.852219	7.115713	81.851887	4V82+7QJ, Thirukkovil, Sri Lanka	0.194247	
Ampara	Akkaraipattu	MOH Office – Addalachenai	False	False	MPRKKRPTTMHFFCDDLCHN		Ampara	LK-52	7.23699	81.550391	Akkaraipattu	PS-520126	7.216084	81.853254	7.260916	81.853493	7V63+999, Addalaichenai, Sri Lanka	4.986726	
Ampara	Akkaraipattu	MOH Office - Akkaraipattu	False	False	MPRKKRPTTMHFFCKKRPTT		Ampara	LK-52	7.23699	81.550391	Akkaraipattu	PS-520126	7.216084	81.853254	7.228134	81.851123	6VH2+7C5, Akkaraipattu, Sri Lanka	1.360772	
Ampara	Pottuvil	Pottuvil Baduriya Vidyalaya	False	False	MPRPTTVLPTTVLBDRYVDYLY		Ampara	LK-52	7.23699	81.550391	Pothuvil	PS-520128	6.878387	81.826859	6.875271	81.830633	Pottuvil, Sri Lanka	0.542048	
Ampara	Pottuvil	MOH Office - Lahugala	False	False	MPRPTTVLMHFFCLHGL		Ampara	LK-52	7.23699	81.550391	Pothuvil	PS-520128	6.878387	81.826859	6.880658	81.765015	VQJ8+726, Sangamuwa, Sri Lanka	6.834041	
Ampara	Pottuvil	MOH Office - Pottuvil	False	False	MPRPTTVLMHFFCPTTVL		Ampara	LK-52	7.23699	81.550391	Pothuvil	PS-520128	6.878387	81.826859	6.877076	81.828969	B374, Pottuvil, Sri Lanka	0.274874	
Ampara	Pottuvil	Pottuvil Hospital	False	False	MPRPTTVLPTTVLHSPTL		Ampara	LK-52	7.23699	81.550391	Pothuvil	PS-520128	6.878387	81.826859	6.876098	81.830463	Main Street Colombo - Batticaloa Hwy, Pottuvil 32500, Sri Lanka	0.47246	
