district	police	center	dose1	dose2	fuzzy_key	alt_name	district_name_norm	district_id	district_lat	district_lng	ps_name_norm	ps_id	ps_lat	ps_lng	lat	lng	formatted_address	dis_center_to_police	tags
Colombo	Cinnamon Gardens	Viharamahadevi Park	True	True	CLMBCNNMNGRDNSVHRMHDVPRK		Colombo	LK-11	6.869636	80.019598	Cinnamon Garden	PS-110324	6.907289	79.863819	6.913391	79.86174	Viharamahadevi Park, Colombo, Sri Lanka	0.716497	
Colombo	Narahenpita	Army Hospital Narahenpita	False	False	CLMBNRHNPTRMYHSPTLNRHNPT		Colombo	LK-11	6.869636	80.019598	Narahenpita	PS-110321	6.891832	79.876715	6.900252	79.87618	08 Elvitigala Mawatha, Colombo 00800, Sri Lanka	0.938417	
Colombo	Narahenpita	Army Headquarters Mobitel Team	False	False	CLMBNRHNPTRMYHDQRTRSMBTLTM		Colombo	LK-11	6.869636	80.019598	Narahenpita	PS-110321	6.891832	79.876715	6.92129	79.881222	148, 15 Leslie Ranagala Mawatha, Colombo 00800, Sri Lanka	3.314188	
Colombo	Thalangama	Diyatha Uyana	True	True	CLMBTHLNGMDYTHYN		Colombo	LK-11	6.869636	80.019598	Thalangama	PS-110466	6.91089	79.929325	6.904575	79.909831	Diyatha Uyana, B240, Sri Jayawardenepura Kotte, Sri Lanka	2.264281	
Colombo	Maradana	Mobile Medical Team	False	False	CLMBMRDNMBLMDCLTM		Colombo	LK-11	6.869636	80.019598	Maradana	PS-110107	6.927939	79.865471					#CenterLocationUnknown
Colombo	Maradana	Colombo National Hospital	False	False	CLMBMRDNCLMBNTNLHSPTL		Colombo	LK-11	6.869636	80.019598	Maradana	PS-110107	6.927939	79.865471	6.918743	79.868992	Colombo 00700, Sri Lanka	1.094265	
Colombo	Boralesgamuwa	Kotelawala Defence Hospital	False	True	CLMBBRLSGMWKTLWLDFNCHSPTL		Colombo	LK-11	6.869636	80.019598	Boralesgamuwa	PS-110464	6.841331	79.901255	6.82518	79.907167	RWG4+3VF, Boralesgamuwa, Sri Lanka	1.911444	
Colombo	Boralesgamuwa	MOH Office - Werahera	False	False	CLMBBRLSGMWMHFFCWRHR		Colombo	LK-11	6.869636	80.019598	Boralesgamuwa	PS-110464	6.841331	79.901255	6.833094	79.905583	RWM4+66P, Boralesgamuwa, Sri Lanka	1.033386	
Colombo	Grandpass	Sugathadasa Outdoor Stadium	True	True	CLMBGRNDPSSSGTHDSTDRSTDM		Colombo	LK-11	6.869636	80.019598	Grandpass	PS-110215	6.949052	79.872983	6.94806	79.868842	Prince of Wales Ave, Colombo 01400, Sri Lanka	0.470345	
Colombo	Avissawella	Dehiowita National College	False	False	CLMBVSSWLLDHWTNTNLCLLG		Colombo	LK-11	6.869636	80.019598	Awissawella	PS-920226	6.947538	80.215422	6.957273	80.216446	Vidyala Road, Thalduwa, Avissawella, Sri Lanka	1.088709	
Colombo	Fort	Navy Headquarters	False	False	CLMBFRTNVYHDQRTRS		Colombo	LK-11	6.869636	80.019598	Fort	PS-110105	6.9334	79.842895	6.936952	79.842104	WRPR+QRQ, Colombo, Sri Lanka	0.404627	
Colombo	Wellampitiya	MOH Office - Kolonnawa	False	False	CLMBWLLMPTYMHFFCKLNNW		Colombo	LK-11	6.869636	80.019598	Wellampitiya	PS-110465	6.937514	79.896298	6.938303	79.889664	25 Pansalhena 1st Ln, 10600, Sri Lanka	0.737734	
Colombo	Mulleriyawa	MOH Office - Gothatuwa	False	False	CLMBMLLRYWMHFFCGTHTW		Colombo	LK-11	6.869636	80.019598	Mulleriyawa	PS-110469	6.927187	79.929108	6.922088	79.916237	Mandavila Rd, Kotikawatta, Sri Lanka	1.530186	
Colombo	Kaduwela	MOH Office - Kaduwela	False	False	CLMBKDWLMHFFCKDWL		Colombo	LK-11	6.869636	80.019598	Kaduwela		6.936234	79.970183	6.934127	79.984398	B263, Kaduwela, Sri Lanka	1.586964	
Colombo	Kosgama	Kosgama Hospital	False	False	CLMBKSGMKSGMHSPTL		Colombo	LK-11	6.869636	80.019598	Kosgama	PS-920227	6.946597	80.137869	6.940956	80.124888	Salawa-Akarawita, 10730, Sri Lanka	1.564606	
Colombo	Fore shore	MOH Office - Jinthupitiya	False	False	CLMBFRSHRMHFFCJNTHPTY		Colombo	LK-11	6.869636	80.019598	Fore shore	PS-110210	6.949589	79.857355	6.943258	79.859238	No.27 Vivekananda Hill, Colombo 01300, Sri Lanka	0.734247	
Gampaha	Gampaha	Mobile Medical Team	True	True	GMPHGMPHMBLMDCLTM		Gampaha	LK-12	7.123598	80.018508	Gampaha	PS-120237	7.087765	80.01228					#CenterLocationUnknown
Gampaha	Gampaha	Akarawita Viharaya	False	False	GMPHGMPHKRWTVHRY		Gampaha	LK-12	7.123598	80.018508	Gampaha	PS-120237	7.087765	80.01228	7.079663	80.05227	Yakkala - Radawana Rd, Sri Lanka	4.505205	
Gampaha	Gampaha	Oruthota Community Hall	False	False	GMPHGMPHRTHTCMMNTYHLL		Gampaha	LK-12	7.123598	80.018508	Gampaha	PS-120237	7.087765	80.01228	7.082963	79.986759	Orutota Rd, Gampaha, Sri Lanka	2.867209	
Gampaha	Gampaha	Baduwathugoda Clinic	False	False	GMPHGMPHBDWTHGDCLNC		Gampaha	LK-12	7.123598	80.018508	Gampaha	PS-120237	7.087765	80.01228	7.09136	80.000709	A33, Gampaha, Sri Lanka	1.338334	
Gampaha	Gampaha	Udugampola Senarth Paranavithana Vidyalaya	False	False	GMPHGMPHDGMPLSNRTHPRNVTHNVDYLY		Gampaha	LK-12	7.123598	80.018508	Gampaha	PS-120237	7.087765	80.01228	7.124257	79.975959	4XFG+P94, Udugampola, Sri Lanka	5.70501	
Gampaha	Gampaha	MOH Office - Gampaha	False	False	GMPHGMPHMHFFCGMPH		Gampaha	LK-12	7.123598	80.018508	Gampaha	PS-120237	7.087765	80.01228	7.090643	80.002094	Colombo Rd, Gampaha, Sri Lanka	1.16901	
Gampaha	Kadawata	MOH Office - Mahara	False	False	GMPHKDWTMHFFCMHR		Gampaha	LK-12	7.123598	80.018508	Kadawatha	PS-120136	7.00152	79.95003	7.020757	79.973481	Mahara, Eldeniya, Sri Lanka	3.358732	
Gampaha	Kadawata	Dalupitiya Maternity Clinic	False	False	GMPHKDWTDLPTYMTRNTYCLNC		Gampaha	LK-12	7.123598	80.018508	Kadawatha	PS-120136	7.00152	79.95003	6.995495	79.935121	Siri Niketharama Mawatha, Sri Lanka	1.777169	
Gampaha	Pugoda	MOH Office - Dompe	False	False	GMPHPGDMHFFCDMP		Gampaha	LK-12	7.123598	80.018508	Pugoda	PS-120241	6.98283	80.111189	6.976767	80.117422	Dompe, Pugoda-Mandawala Rd, Pugoda, Sri Lanka	0.963513	
Gampaha	Minuwangoda	Dagonna	False	False	GMPHMNWNGDDGNN		Gampaha	LK-12	7.123598	80.018508	Minuwangoda	PS-120238	7.174215	79.957874	7.210815	79.937731	Dagonna Rd, Sri Lanka	4.638351	
Gampaha	Divulapitiya	MOH Office - Divulapitiya	False	False	GMPHDVLPTYMHFFCDVLPTY		Gampaha	LK-12	7.123598	80.018508	Diulapitiya	PS-120355	7.174215	79.957874	7.215486	80.013606	6287+5CX, Divulapitiya, Sri Lanka	7.67456	
Gampaha	Divulapitiya	Dunagaha Maternity Clinic	False	False	GMPHDVLPTYDNGHMTRNTYCLNC		Gampaha	LK-12	7.123598	80.018508	Diulapitiya	PS-120355	7.174215	79.957874	7.233314	79.973984	6XMF+8HH, Dunagaha, Sri Lanka	6.809721	
Gampaha	Divulapitiya	Wekada Maternity Clinic	False	False	GMPHDVLPTYWKDMTRNTYCLNC		Gampaha	LK-12	7.123598	80.018508	Diulapitiya	PS-120355	7.174215	79.957874	7.09136	80.000709	A33, Gampaha, Sri Lanka	10.35782	
Gampaha	Katana	Katana Maternity Clinic	False	False	GMPHKTNKTNMTRNTYCLNC		Gampaha	LK-12	7.123598	80.018508	Katana	PS-120360	7.224796	79.880015	7.248028	79.899366	Katana, Sri Lanka	3.352146	
Gampaha	Kotadeniyawa	Kaluaggala Maternity Clinic	False	False	GMPHKTDNYWKLGGLMTRNTYCLNC		Gampaha	LK-12	7.123598	80.018508	Kotadeniyawa	PS-120354	7.283643	80.06649	7.093316	80.112892	34V7+85C, Kahatowita, Sri Lanka	21.78055	#CenterFarFromPolice
Gampaha	Kotadeniyawa	Kotadeniyawa Maternity Clinic	False	False	GMPHKTDNYWKTDNYWMTRNTYCLNC		Gampaha	LK-12	7.123598	80.018508	Kotadeniyawa	PS-120354	7.283643	80.06649	7.283881	80.066065	Kotadeniyawa, Sri Lanka	0.053848	
Gampaha	Seeduwa	Seeduwa Davisarama Maha Vidyalaya	False	False	GMPHSDWSDWDVSRMMHVDYLY		Gampaha	LK-12	7.123598	80.018508	Seeduwa	PS-120356	7.128721	79.877371	7.147948	79.883551	4VXM+5CF, Seeduwa, Sri Lanka	2.24475	
Gampaha	Dungalpitiya	Pitipana Maternity Clinic	False	False	GMPHDNGLPTYPTPNMTRNTYCLNC		Gampaha	LK-12	7.123598	80.018508	Dungalpitiya	PS-120361	7.139226	79.833543	7.170735	79.824995	5RCF+7XX, Negombo, Sri Lanka	3.629353	
Gampaha	Kochchikade	Halpe Maternity Clinic	False	False	GMPHKCHCHKDHLPMTRNTYCLNC		Gampaha	LK-12	7.123598	80.018508	Kochchikade	PS-120352	7.265049	79.857026	7.233314	79.973984	6XMF+8HH, Dunagaha, Sri Lanka	13.379278	
Gampaha	Mirigama	Maladeniya Government Dispensary	False	False	GMPHMRGMMLDNYGVRNMNTDSPNSRY		Gampaha	LK-12	7.123598	80.018508	Meerigama	PS-120248	7.245169	80.128647	7.290012	80.113095	74R7+265, Kithalawalana 11206, Sri Lanka	5.274791	
Gampaha	Mirigama	Ambepussa Government Dispensary	False	False	GMPHMRGMMBPSSGVRNMNTDSPNSRY		Gampaha	LK-12	7.123598	80.018508	Meerigama	PS-120248	7.245169	80.128647	7.252875	80.103935	Thalakolayaya Halpe Rd, Mirigama, Sri Lanka	2.858287	
Gampaha	Pallewela	Muddaragama Government Dispensary	False	False	GMPHPLLWLMDDRGMGVRNMNTDSPNSRY		Gampaha	LK-12	7.123598	80.018508	Pallewela	PS-120249	7.197365	80.094856	7.197393	80.094227	Kaleliya - Medagampitiya Rd, Pallewela, Sri Lanka	0.069482	
Gampaha	Pallewela	Pallewela Government Dispensary	False	False	GMPHPLLWLPLLWLGVRNMNTDSPNSRY		Gampaha	LK-12	7.123598	80.018508	Pallewela	PS-120249	7.197365	80.094856	7.197393	80.094227	Kaleliya - Medagampitiya Rd, Pallewela, Sri Lanka	0.069482	
Gampaha	Nittambuwa	Pasyala Government Dispensary	False	False	GMPHNTTMBWPSYLGVRNMNTDSPNSRY		Gampaha	LK-12	7.123598	80.018508	Nittambuwa	PS-120246	7.149726	80.10046	7.14649	80.088717	43WQ+HFW, Nittambuwa, Sri Lanka	1.345074	
Gampaha	Nittambuwa	Nambuluwa Government Dispensary	False	False	GMPHNTTMBWNMBLWGVRNMNTDSPNSRY		Gampaha	LK-12	7.123598	80.018508	Nittambuwa	PS-120246	7.149726	80.10046	7.119722	80.070471	439C+V5Q, Kalagedihena, Sri Lanka	4.700308	
Gampaha	Nittambuwa	Weweldeniya Government Dispensary	False	False	GMPHNTTMBWWWLDNYGVRNMNTDSPNSRY		Gampaha	LK-12	7.123598	80.018508	Nittambuwa	PS-120246	7.149726	80.10046	7.146549	80.088866	43WQ+JG9, Nittambuwa, Sri Lanka	1.327475	
Gampaha	Nittambuwa	Al-Azhar College	False	False	GMPHNTTMBWLZHRCLLG		Gampaha	LK-12	7.123598	80.018508	Nittambuwa	PS-120246	7.149726	80.10046	7.121335	80.072386	43CC+GXJ, Kalagedihena, Sri Lanka	4.424148	
Gampaha	Veyangoda	Veyangoda Primary School	False	False	GMPHVYNGDVYNGDPRMRYSCHL		Gampaha	LK-12	7.123598	80.018508	Weyangoda	PS-120247	7.144053	80.095511	7.15656	80.055425	Primary School Veyangoda, Muddaragama-Veyangoda Rd, Veyangoda 11100, Sri Lanka	4.637547	
Gampaha	Bemmulla	Bandarabatawala Pirivena	False	False	GMPHBMMLLBNDRBTWLPRVN		Gampaha	LK-12	7.123598	80.018508	Bemmulla		7.120846	80.026097	7.103522	80.007116	4234+CR5, Gampaha, Sri Lanka	2.846433	
Gampaha	Peliyagoda	Pagnananda Dharma Institute	False	False	GMPHPLYGDPGNNNDDHRMNSTTT		Gampaha	LK-12	7.123598	80.018508	Peliyagoda	PS-120125	6.955193	79.88612	6.966105	79.902011	XW82+CRR, Peliyagoda, Sri Lanka	2.13343	
Gampaha	Kiribathgoda	Dalugama Maternity Clinic	False	False	GMPHKRBTHGDDLGMMTRNTYCLNC		Gampaha	LK-12	7.123598	80.018508	Kiribathgoda	PS-120135	6.978005	79.929433	6.980847	79.929943	XWJH+8XP, Kiribathgoda, Sri Lanka	0.321091	
Gampaha	Ja Ela	MOH Office - Ja Ela	False	False	GMPHJLMHFFCJL		Gampaha	LK-12	7.123598	80.018508	Ja - Ela	PS-120133	7.081055	79.890504	7.075216	79.893879	60 Mount Kalvary Rd, Ja-Ela, Sri Lanka	0.748731	
Gampaha	Wattala	MOH Office - Wattala	False	False	GMPHWTTLMHFFCWTTL		Gampaha	LK-12	7.123598	80.018508	Wattala	PS-120128	6.993713	79.894506	6.995817	79.885793	301 Hendala Rd, Wattala, Sri Lanka	0.989991	
Gampaha	Ragama	MOH Office - Ragama	False	False	GMPHRGMMHFFCRGM		Gampaha	LK-12	7.123598	80.018508	Ragama	PS-120134	7.034975	79.924148	7.027386	79.920232	2WGC+X35, Ragama, Sri Lanka	0.948382	
Gampaha	Maligathenna	Maligathenna Government Dispensary	False	False	GMPHMLGTHNNMLGTHNNGVRNMNTDSPNSRY		Gampaha	LK-12	7.123598	80.018508									#PoliceLocationUnknown
Kalutara	Kalutara South	Mobile Medical Team	True	True	KLTRKLTRSTHMBLMDCLTM		Kalutara	LK-13	6.577316	80.127363	Kalutara South	PS-130296	6.58486	79.961043					#CenterLocationUnknown
Kalutara	Kalutara South	NIHS	False	False	KLTRKLTRSTHNHS		Kalutara	LK-13	6.577316	80.127363	Kalutara South	PS-130296	6.58486	79.961043	6.55864	79.977416	HX5G+FX3, Katukurunda, Sri Lanka	3.432035	
Kalutara	Beruwala	MOH Office - Beruwala	False	False	KLTRBRWLMHFFCBRWL		Kalutara	LK-13	6.577316	80.127363	Beruwala	PS-1302102	6.480329	79.983498	6.437559	79.999356	CXQX+2PH, Aluthgama, Sri Lanka	5.069893	
Kalutara	Dodangoda	MOH Office - Dodangoda	False	False	KLTRDDNGDMHFFCDDNGD	6.540366199937832,80.03661033076219	Kalutara	LK-13	6.577316	80.127363	Dodangoda	PS-130299	6.553375	80.023569	6.541731	80.04335	Dodangoda, Sri Lanka	2.540775	
Kalutara	Dodangoda	Dodangoda Hospital	False	False	KLTRDDNGDDDNGDHSPTL		Kalutara	LK-13	6.577316	80.127363	Dodangoda	PS-130299	6.553375	80.023569	6.540961	80.036553	Wilpatha Rd, Sri Lanka	1.991373	
Kalutara	Thebuwana	Nebada Hospital	False	False	KLTRTHBWNNBDHSPTL		Kalutara	LK-13	6.577316	80.127363	Thebuwana	PS-1302105	6.654997	80.058183	6.563228	79.985261	Kalutara-Matugama Rd, Sri Lanka	13.004249	
Kalutara	Matugama	MOH Office - Matugama	False	False	KLTRMTGMMHFFCMTGM		Kalutara	LK-13	6.577316	80.127363	Mathugama	PS-1302103	6.520881	80.117908	6.523544	80.126443	G4FG+CH8, Matugama, Sri Lanka	0.988725	
Kalutara	Matugama	Katugahahena Hospital	False	False	KLTRMTGMKTGHHNHSPTL		Kalutara	LK-13	6.577316	80.127363	Mathugama	PS-1302103	6.520881	80.117908	6.489328	80.08471	F3QM+PVP, Bopitiya, Sri Lanka	5.077192	
Kalutara	Matugama	Agalawatta Road Garment	False	False	KLTRMTGMGLWTTRDGRMNT		Kalutara	LK-13	6.577316	80.127363	Mathugama	PS-1302103	6.520881	80.117908	6.530197	80.143011	Nagoda - Mathugama - Kalawellawa - Bellapitiya Road, Matugama, Sri Lanka	2.961325	
Kalutara	Matugama	Weththewa Hospital	False	False	KLTRMTGMWTHTHWHSPTL		Kalutara	LK-13	6.577316	80.127363	Mathugama	PS-1302103	6.520881	80.117908	6.523087	80.125192	District Hospital, Hospital Road,Weththewa,., Matugama, Sri Lanka	0.841523	
Kalutara	Baduraliya	Baduraliya Hospital	False	False	KLTRBDRLYBDRLYHSPTL		Kalutara	LK-13	6.577316	80.127363	Baduraliya	PS-1302106	6.516756	80.226716	6.514727	80.232731	Tiruwanaketiya-Agalawatte Rd, Baduraliya, Sri Lanka	0.702098	
Kalutara	Panadura	Walana Maha Vidyalaya	False	False	KLTRPNDRWLNMHVDYLY		Kalutara	LK-13	6.577316	80.127363	Panadura North		6.756309	79.898939	6.713086	79.907765	PW75+64J, Panadura, Sri Lanka	4.905544	
Kalutara	Panadura	Town Hall - Panadura	False	False	KLTRPNDRTWNHLLPNDR		Kalutara	LK-13	6.577316	80.127363	Panadura North		6.756309	79.898939	6.719952	79.90707	A2, Panadura, Sri Lanka	4.142523	
Kalutara	Alubomulla	Arukgoda Viharaya	False	False	KLTRLBMLLRKGDVHRY		Kalutara	LK-13	6.577316	80.127363									#PoliceLocationUnknown
Kalutara	Millaniya	Mobile Vaccination	False	False	KLTRMLLNYMBLVCCNTN		Kalutara	LK-13	6.577316	80.127363	Millaniya	PS-130191	6.681692	80.020847					#CenterLocationUnknown
Kalutara	Welipenna	Rahumaniya Muslim Vidyalaya	False	False	KLTRWLPNNRHMNYMSLMVDYLY		Kalutara	LK-13	6.577316	80.127363	Welipanna	PS-1302101	6.467428	80.108313	6.467255	80.107717	Aluthgama - Mathugama Rd, Welipenna, Sri Lanka	0.068624	
Kalutara	Bandaragama	Walgama Saddathissa Vidyalaya	False	False	KLTRBNDRGMWLGMSDDTHSSVDYLY		Kalutara	LK-13	6.577316	80.127363	Bandaragama	PS-130189	6.715179	79.987674	6.732249	79.97977	B216, Sri Lanka	2.089824	
Kalutara	Meegahathenna	MOH Office - Meegahathenna	False	False	KLTRMGHTHNNMHFFCMGHTHNN		Kalutara	LK-13	6.577316	80.127363	Meegahathenna	PS-1302107	6.436941	80.1943	6.435016	80.198501	B158, Meegahathenna, Sri Lanka	0.511322	
Kalutara	Wadduwa	Mobile Vaccination	False	False	KLTRWDDWMBLVCCNTN		Kalutara	LK-13	6.577316	80.127363	Wadduwa	PS-130188	6.664403	79.929851					#CenterLocationUnknown
Kalutara	Ingiriya	Gamini Maha Vidyalaya	False	False	KLTRNGRYGMNMHVDYLY		Kalutara	LK-13	6.577316	80.127363	Ingiriya	PS-130193	6.743614	80.175077	6.744369	80.1724	P5VC+PXR, Ingiriya, Sri Lanka	0.307396	
Kalutara	Horana	Olaboduwa Maha Vidyalaya	False	False	KLTRHRNLBDWMHVDYLY		Kalutara	LK-13	6.577316	80.127363	Horana	PS-130192	6.714613	80.069091	6.76628	80.038877	Moragahahena Gonapola Rd, Sri Lanka	6.645783	
Kurunegala	Kurunegala	Konpola Primary School	False	False	KRNGLKRNGLKNPLPRMRYSCHL		Kurunegala	LK-61	7.66477	80.23677	Kurunegala	PS-610101	7.485852	80.364137	7.472981	80.354729	F9F3+5VX, Kurunegala, Sri Lanka	1.768076	
Kurunegala	Kurunegala	Mobile Medical Team	False	False	KRNGLKRNGLMBLMDCLTM		Kurunegala	LK-61	7.66477	80.23677	Kurunegala	PS-610101	7.485852	80.364137					#CenterLocationUnknown
Kurunegala	Gokarella	Medamulla Vidyalaya	False	False	KRNGLGKRLLMDMLLVDYLY		Kurunegala	LK-61	7.66477	80.23677	Gokarella	PS-610108	7.59543	80.480081	7.643644	80.509229	Ambepussa - Kurunegala - Trincomalee Hwy, Melsiripura, Sri Lanka	6.251927	
Kurunegala	Polgahawela	MOH Office - Polgahawela	False	False	KRNGLPLGHWLMHFFCPLGHWL		Kurunegala	LK-61	7.66477	80.23677	Polgahawela	PS-610102	7.333281	80.300363	7.330938	80.29484	06 A6, Polgahawela, Sri Lanka	0.662694	
Kurunegala	Nikaweratiya	Nikaweratiya Fair Premises	False	False	KRNGLNKWRTYNKWRTYFRPRMSS		Kurunegala	LK-61	7.66477	80.23677	Nikaweratiya	PS-610320	7.742612	80.121177	7.746386	80.131693	Nikaweratiya, Sri Lanka	1.232701	
Kurunegala	Nikaweratiya	Budumuththawa Viharaya	False	False	KRNGLNKWRTYBDMTHTHWVHRY		Kurunegala	LK-61	7.66477	80.23677	Nikaweratiya	PS-610320	7.742612	80.121177	7.762989	80.093623	Q37V+5CX, Nikaweratiya, Sri Lanka	3.789378	
Kurunegala	Nikaweratiya	Wasiwewa Vidyalaya	False	False	KRNGLNKWRTYWSWWVDYLY		Kurunegala	LK-61	7.66477	80.23677	Nikaweratiya	PS-610320	7.742612	80.121177	7.767167	80.218189	Wasiwewa, Sri Lanka	11.035277	
Kurunegala	Nikaweratiya	Samadarapitiya Viharaya	False	False	KRNGLNKWRTYSMDRPTYVHRY		Kurunegala	LK-61	7.66477	80.23677	Nikaweratiya	PS-610320	7.742612	80.121177	7.762989	80.093623	Q37V+5CX, Nikaweratiya, Sri Lanka	3.789378	
Kurunegala	Nikaweratiya	Danikithawa Central Dispensary	False	False	KRNGLNKWRTYDNKTHWCNTRLDSPNSRY		Kurunegala	LK-61	7.66477	80.23677	Nikaweratiya	PS-610320	7.742612	80.121177	7.763036	80.199408	Q57X+6Q7, Diullegoda, Sri Lanka	8.916343	
Kurunegala	Rasnayakapura	Abagammana Community Hall	False	False	KRNGLRSNYKPRBGMMNCMMNTYHLL		Kurunegala	LK-61	7.66477	80.23677	Rasnayakapura	PS-610323	7.776658	80.012692	7.775358	80.021998	Q2GC+4QX, Puttalam, Sri Lanka	1.03573	
Kurunegala	Rasnayakapura	Kongaswalayagama Community Hall	False	False	KRNGLRSNYKPRKNGSWLYGMCMMNTYHLL		Kurunegala	LK-61	7.66477	80.23677	Rasnayakapura	PS-610323	7.776658	80.012692	7.481465	80.35357	F9J3+HCP, Kurunegala, Sri Lanka	49.903468	#CenterFarFromPolice
Kurunegala	Rasnayakapura	Divulwewa Community Hall	False	False	KRNGLRSNYKPRDVLWWCMMNTYHLL		Kurunegala	LK-61	7.66477	80.23677	Rasnayakapura	PS-610323	7.776658	80.012692	7.775358	80.021998	Q2GC+4QX, Puttalam, Sri Lanka	1.03573	
Kurunegala	Rasnayakapura	Ottukulama Mosque	False	False	KRNGLRSNYKPRTTKLMMSQ		Kurunegala	LK-61	7.66477	80.23677	Rasnayakapura	PS-610323	7.776658	80.012692	7.791698	80.005598	Q2R4+M6H, පුත්තලම, Sri Lanka	1.84656	
Kurunegala	Kotawehera	Mahakirinda Vidyalaya	False	False	KRNGLKTWHRMHKRNDVDYLY		Kurunegala	LK-61	7.66477	80.23677	Kotawehera	PS-610322	7.809001	80.077977	7.809001	80.077977	Kotawehera, Kurunegala, Sri Lanka	0.0	
Kurunegala	Girilla	Girilla Vidyalaya	False	False	KRNGLGRLLGRLLVDYLY		Kurunegala	LK-61	7.66477	80.23677	Giriulla	PS-610215	7.334527	80.125021	7.829249	80.138325	R4HQ+M8W, Kurunegala, Sri Lanka	55.047393	#CenterFarFromPolice
Kurunegala	Girilla	Elagammillawa Vidyalaya	False	False	KRNGLGRLLLGMMLLWVDYLY		Kurunegala	LK-61	7.66477	80.23677	Giriulla	PS-610215	7.334527	80.125021	7.855227	80.171666	V54C+3MV, Kurunegala, Sri Lanka	58.145253	#CenterFarFromPolice
Kurunegala	Kuliyapitiya	Kuliyapitiya Hospital	False	False	KRNGLKLYPTYKLYPTYHSPTL		Kurunegala	LK-61	7.66477	80.23677	Kuliyapitiya	PS-610212	7.471205	80.024139	7.472045	80.044605	F2CV+RR9, Kuliyapitiya, Sri Lanka	2.259034	
Kurunegala	Giribawa	Paluwewa Society Hall	False	False	KRNGLGRBWPLWWSCTYHLL		Kurunegala	LK-61	7.66477	80.23677	Giribawa	PS-610329	8.117314	80.189061	8.080275	80.228091	36JH+464, Pahala Giribawa, Sri Lanka	5.953648	
Kurunegala	Giribawa	Perakumpura National College	False	False	KRNGLGRBWPRKMPRNTNLCLLG		Kurunegala	LK-61	7.66477	80.23677	Giribawa	PS-610329	8.117314	80.189061	8.155525	80.144228	544V+6M9, Perakumpura, Sri Lanka	6.514134	
Kurunegala	Giribawa	Warawewa Maha Vidyalaya	False	False	KRNGLGRBWWRWWMHVDYLY		Kurunegala	LK-61	7.66477	80.23677	Giribawa	PS-610329	8.117314	80.189061	8.124193	80.145301	Warawewa, Sri Lanka	4.878981	
Kurunegala	Giribawa	Thmbutta Maha Vidyalaya	False	False	KRNGLGRBWTHMBTTMHVDYLY		Kurunegala	LK-61	7.66477	80.23677	Giribawa	PS-610329	8.117314	80.189061	8.116653	80.192352	Mahagalkadawala - Warawewa, Pahala Giribawa, Sri Lanka	0.369773	
Kurunegala	Polpithigama	Hathigamuwa Vidyalaya	False	False	KRNGLPLPTHGMHTHGMWVDYLY		Kurunegala	LK-61	7.66477	80.23677	Polpithigama	PS-610326	7.835529	80.400637	7.842122	80.39705	Polpithigama, Sri Lanka	0.833073	
Kurunegala	Polpithigama	Meegaswewa Vidyalaya	False	False	KRNGLPLPTHGMMGSWWVDYLY		Kurunegala	LK-61	7.66477	80.23677	Polpithigama	PS-610326	7.835529	80.400637	7.785349	80.373962	Q9PF+4HP, කුරුණෑගල, Sri Lanka	6.308259	
Kurunegala	Polpithigama	Elagamuwa Communiy Hall	False	False	KRNGLPLPTHGMLGMWCMMNYHLL		Kurunegala	LK-61	7.66477	80.23677	Polpithigama	PS-610326	7.835529	80.400637	7.481465	80.35357	F9J3+HCP, Kurunegala, Sri Lanka	39.722799	#CenterFarFromPolice
Kurunegala	Alawwa	Pradeshiya Shabha - Alawwa	False	False	KRNGLLWWPRDSHYSHBHLWW		Kurunegala	LK-61	7.66477	80.23677	Alawwa	PS-610103	7.295909	80.24277	7.29706	80.232122	Alawwa, South, Sri Lanka	1.18174	
Kurunegala	Ambanpola	Udagama Society Hall	False	False	KRNGLMBNPLDGMSCTYHLL		Kurunegala	LK-61	7.66477	80.23677	Ambanpola	PS-610325	7.917018	80.243862	7.858322	80.241193	Udagama, Sri Lanka	6.535365	
Kurunegala	Ambanpola	Mediyana Society Hall	False	False	KRNGLMBNPLMDYNSCTYHLL		Kurunegala	LK-61	7.66477	80.23677	Ambanpola	PS-610325	7.917018	80.243862	7.920094	80.239117	Kurunegala Road, Galgamuwa, Sri Lanka	0.624766	
Kurunegala	Ambanpola	Keththapahuwa Community Hall	False	False	KRNGLMBNPLKTHTHPHWCMMNTYHLL		Kurunegala	LK-61	7.66477	80.23677	Ambanpola	PS-610325	7.917018	80.243862	7.422536	80.284287	C7FM+2P7, Dehikumbura, Sri Lanka	55.181378	#CenterFarFromPolice
Kurunegala	Ambanpola	Uidangawa Society Hall	False	False	KRNGLMBNPLDNGWSCTYHLL		Kurunegala	LK-61	7.66477	80.23677	Ambanpola	PS-610325	7.917018	80.243862	7.920094	80.239117	Kurunegala Road, Galgamuwa, Sri Lanka	0.624766	
Kurunegala	Ambanpola	Ambakolawewa North	False	False	KRNGLMBNPLMBKLWWNRTH		Kurunegala	LK-61	7.66477	80.23677	Ambanpola	PS-610325	7.917018	80.243862	7.918768	80.268372	Abakolawewa North, Sri Lanka	2.707259	
Kurunegala	Ambanpola	Kirimetiyawa Society Hall	False	False	KRNGLMBNPLKRMTYWSCTYHLL		Kurunegala	LK-61	7.66477	80.23677	Ambanpola	PS-610325	7.917018	80.243862	7.90775	80.257222	Kirimetiyawa, Sri Lanka	1.796983	
Kurunegala	Maho	Gala Ambagaswewa Vidyalaya	False	False	KRNGLMHGLMBGSWWVDYLY		Kurunegala	LK-61	7.66477	80.23677	Maho	PS-610324	7.824001	80.28038	7.761918	80.331042	gala ambagaswewa, Sri Lanka	8.880117	
Kurunegala	Maho	Galewewa Viharaya	False	False	KRNGLMHGLWWVHRY		Kurunegala	LK-61	7.66477	80.23677	Maho	PS-610324	7.824001	80.28038	7.768498	80.578409	A6, Galewela, Sri Lanka	33.418493	#CenterFarFromPolice
Puttalam	Puttalam	Kaladiya Vidyasagara Vidyalaya	False	False	PTTLMPTTLMKLDYVDYSGRVDYLY		Puttalam	LK-62	7.973531	79.913833	Puttalam	PS-620130	8.029904	79.834396	7.991272	79.898362	A10, Kalladiya, Sri Lanka	8.252489	
Puttalam	Puttalam	Hindu Vidyalaya	False	False	PTTLMPTTLMHNDVDYLY		Puttalam	LK-62	7.973531	79.913833	Puttalam	PS-620130	8.029904	79.834396	8.028082	79.840608	Katugastota-Kurunegala-Puttalam Hwy, Puttalam, Sri Lanka	0.71357	
Puttalam	Nawagattegama	Minra Garment - Welewewa	False	False	PTTLMNWGTTGMMNRGRMNTWLWW		Puttalam	LK-62	7.973531	79.913833	Nawagaththegama	PS-620133	8.002882	80.106543	8.056576	79.955642	Karuwalagaswewa, Sri Lanka	17.660634	
Puttalam	Nawagattegama	Next Garment - Nawagattegama	False	False	PTTLMNWGTTGMNXTGRMNTNWGTTGM		Puttalam	LK-62	7.973531	79.913833	Nawagaththegama	PS-620133	8.002882	80.106543	8.006422	80.10557	Galgamuwa Rd, Nawagattegama, Sri Lanka	0.408078	
Puttalam	Nawagattegama	Foster Garment - Nawagattegama	False	False	PTTLMNWGTTGMFSTRGRMNTNWGTTGM		Puttalam	LK-62	7.973531	79.913833	Nawagaththegama	PS-620133	8.002882	80.106543	8.007772	80.11746	Galgamuwa Road Nawagaththegama, Kirimetiyawa 61520, Sri Lanka	1.319757	
Puttalam	Karuwalagaswewa	Minra Garment - Karuwalagaswewa	False	False	PTTLMKRWLGSWWMNRGRMNTKRWLGSWW		Puttalam	LK-62	7.973531	79.913833	Karuwalagaswewa	PS-620135	8.055066	79.955817	8.056576	79.955642	Karuwalagaswewa, Sri Lanka	0.169059	
Puttalam	Mundalama	Kadayamatta Vidyalaya	False	False	PTTLMMNDLMKDYMTTVDYLY		Puttalam	LK-62	7.973531	79.913833	Mundal	PS-620138	7.808859	79.825729	8.028082	79.840608	Katugastota-Kurunegala-Puttalam Hwy, Puttalam, Sri Lanka	24.439173	#CenterFarFromPolice
Puttalam	Mundalama	Kanamulla Vidyalaya	False	False	PTTLMMNDLMKNMLLVDYLY		Puttalam	LK-62	7.973531	79.913833	Mundal	PS-620138	7.808859	79.825729	7.908066	79.82127	Madurankuli, Sri Lanka	11.04571	
Puttalam	Marawila	Sumanadamma School Marawila	False	False	PTTLMMRWLSMNDMMSCHLMRWL		Puttalam	LK-62	7.973531	79.913833	Marawila	PS-620243	7.415075	79.839776	7.415554	79.830995	A3, Marawila, Sri Lanka	0.970005	
Puttalam	Marawila	St Sebastian Primary School	False	False	PTTLMMRWLSTSBSTNPRMRYSCHL		Puttalam	LK-62	7.973531	79.913833	Marawila	PS-620243	7.415075	79.839776	7.364723	79.8323	Hiyu Fernando Road, Katuneriya, Sri Lanka	5.66103	
Puttalam	Wennappuwa	Sindaththriya Church	False	False	PTTLMWNNPPWSNDTHTHRYCHRCH		Puttalam	LK-62	7.973531	79.913833	Wennappuwa	PS-620245	7.339623	79.843017	7.358035	79.833193	9R5M+678, Wennappuwa, Sri Lanka	2.317037	
Puttalam	Wennappuwa	Muttuwa Church	False	False	PTTLMWNNPPWMTTWCHRCH		Puttalam	LK-62	7.973531	79.913833	Wennappuwa	PS-620245	7.339623	79.843017	7.328997	79.845591	8RHW+H6W, Wennappuwa, Sri Lanka	1.215561	
Puttalam	Wennappuwa	Josef Vass College Wennappuwa	False	False	PTTLMWNNPPWJSFVSSCLLGWNNPPW		Puttalam	LK-62	7.973531	79.913833	Wennappuwa	PS-620245	7.339623	79.843017	7.338961	79.841754	Puttalam Road, Wennappuwa, Sri Lanka	0.157593	
Puttalam	Chilaw	St Theres Church Thalwila	False	False	PTTLMCHLWSTTHRSCHRCHTHLWL		Puttalam	LK-62	7.973531	79.913833	Chilaw	PS-620241	7.576197	79.788003	7.430397	79.822772	Church Rd, Marawila, Sri Lanka	16.664408	
Puttalam	Chilaw	St Annes Primary School, Thalwila	False	False	PTTLMCHLWSTNNSPRMRYSCHLTHLWL		Puttalam	LK-62	7.973531	79.913833	Chilaw	PS-620241	7.576197	79.788003					#CenterLocationUnknown
Puttalam	Arachchikattuwa	Bangadeniya School	False	False	PTTLMRCHCHKTTWBNGDNYSCHL		Puttalam	LK-62	7.973531	79.913833	Arachchikattuwa	PS-620247	7.65944	79.837772	7.625459	79.83982	Bangadeniya-Andigama-Anamaduwa Rd, Bangadeniya, Sri Lanka	3.786438	
Puttalam	Arachchikattuwa	Nalladarankattuwa Viharaya	False	False	PTTLMRCHCHKTTWNLLDRNKTTWVHRY		Puttalam	LK-62	7.973531	79.913833	Arachchikattuwa	PS-620247	7.65944	79.837772	7.669298	79.835761	Puttalam - Colombo Rd, Nalladarankattuwa, Sri Lanka	1.118689	
Puttalam	Arachchikattuwa	Kumarakattuwa Vidyalaya	False	False	PTTLMRCHCHKTTWKMRKTTWVDYLY		Puttalam	LK-62	7.973531	79.913833	Arachchikattuwa	PS-620247	7.65944	79.837772	7.6518	79.885975	Kumarakattuwa Kanitu Vidyalaya,Kumarakattuwa, B45, Sri Lanka	5.381235	
Kandy	Kandy	Mobile Medical Team	False	False	KNDYKNDYMBLMDCLTM		Kandy	LK-21	7.27337	80.709602	Kandy	PS-210101	7.292948	80.642368					#CenterLocationUnknown
Kandy	Kandy	Pushpadana Balika Vidyalaya	False	False	KNDYKNDYPSHPDNBLKVDYLY		Kandy	LK-21	7.27337	80.709602	Kandy	PS-210101	7.292948	80.642368	7.293989	80.633	16 Kandy Rd, Kandy 20000, Sri Lanka	1.040036	
Kandy	Welambada	Al Kadija Cumber Maha Vidyalaya	False	False	KNDYWLMBDLKDJCMBRMHVDYLY		Kandy	LK-21	7.27337	80.709602	Welambada	PS-210114	7.201768	80.544166	7.256928	80.552973	127/8, Sandun Uyana, Pilimathalawa, Kandy 20450, Sri Lanka	6.211925	
Kandy	Welambada	Welambada Maha Vidyalaya	False	False	KNDYWLMBDWLMBDMHVDYLY		Kandy	LK-21	7.27337	80.709602	Welambada	PS-210114	7.201768	80.544166	7.200153	80.549306	6G2X+3P7, Welamboda, Sri Lanka	0.594978	
Kandy	Hatharaliyadda	Hatharaliyadda Maha Vidyalaya	False	False	KNDYHTHRLYDDHTHRLYDDMHVDYLY		Kandy	LK-21	7.27337	80.709602	Hatharaliyadda	PS-210106	7.336886	80.471814	7.33578	80.471154	Hatharaliyadda, Sri Lanka	0.142952	
Kandy	Katugastota	St. Anthony's College	False	False	KNDYKTGSTTSTNTHNYSCLLG		Kandy	LK-21	7.27337	80.709602	Katugastota	PS-210103	7.332014	80.623006	7.31563	80.624014	548 Peradeniya - Halloluwa - Katugastota Rd, Katugastota, Sri Lanka	1.825779	
Kandy	Galagedara	Galagedara Sujatha Balika Vidyalaya	False	False	KNDYGLGDRGLGDRSJTHBLKVDYLY		Kandy	LK-21	7.27337	80.709602	Galagedara	PS-210105	7.373683	80.526154	7.372389	80.518839	B122, Galagedara, Sri Lanka	0.819655	
Kandy	Alawatugoda	Akurana Zahira College	False	False	KNDYLWTGDKRNZHRCLLG		Kandy	LK-21	7.27337	80.709602	Alawathugoda	PS-210113	7.38828	80.618824	7.37133	80.609801	Akurana, Kandy, Sri Lanka, Kasawattha Road, Akurana, Sri Lanka	2.131942	
Kandy	Alawatugoda	Dunuwila Rathnapala Vidyalaya	False	False	KNDYLWTGDDNWLRTHNPLVDYLY		Kandy	LK-21	7.27337	80.709602	Alawathugoda	PS-210113	7.38828	80.618824	7.409661	80.609795	Alawatugoda, Sri Lanka	2.578321	
Kandy	Panwila	Madolkele Hospital	False	False	KNDYPNWLMDLKLHSPTL		Kandy	LK-21	7.27337	80.709602	Panwila	PS-210361	7.362355	80.713731	7.398005	80.733186	9PXM+673, Huluganga, Sri Lanka	4.508822	
Kandy	Gampola	Udagama Saranapala Vidyalaya	False	False	KNDYGMPLDGMSRNPLVDYLY		Kandy	LK-21	7.27337	80.709602	Gampola	PS-210216	7.132941	80.56799	7.122536	80.566502	Udagama, Ulapane, Kandy Rd, Sri Lanka	1.168941	
Kandy	Gampola	Wickramabahu Vidyalaya	False	False	KNDYGMPLWCKRMBHVDYLY		Kandy	LK-21	7.27337	80.709602	Gampola	PS-210216	7.132941	80.56799	7.153925	80.563839	Nawalapitiya Road, Gampola 20500, Sri Lanka, Sri Lanka	2.378605	
Kandy	Gampola	National Heritage Centre	False	False	KNDYGMPLNTNLHRTGCNTR		Kandy	LK-21	7.27337	80.709602	Gampola	PS-210216	7.132941	80.56799	7.162374	80.574165	Hindagala-Naranwita-Gampola Rd, Gampola, Sri Lanka	3.344009	
Kandy	Gampola	Ulapane Rathnawali Vidyalaya	False	False	KNDYGMPLLPNRTHNWLVDYLY		Kandy	LK-21	7.27337	80.709602	Gampola	PS-210216	7.132941	80.56799	7.145143	80.536914	Gampola - Dolosbage Rd, Sri Lanka	3.688558	
Kandy	Nawa	Kurunduwatta Royal College	False	False	KNDYNWKRNDWTTRYLCLLG		Kandy	LK-21	7.27337	80.709602									#PoliceLocationUnknown
Kandy	Nawa	Gray  Head Tamil College	False	False	KNDYNWGRYHDTMLCLLG		Kandy	LK-21	7.27337	80.709602									#PoliceLocationUnknown
Kandy	Rangala	Dunhinna Maha Vidyalaya	False	False	KNDYRNGLDNHNNMHVDYLY		Kandy	LK-21	7.27337	80.709602	Rangala	PS-210360	7.3309	80.773559	7.347453	80.752151	theldeniya,werapitiya., Sri Lanka	2.994595	
Kandy	Kadugannawa	Pilimathalawa Central College	False	False	KNDYKDGNNWPLMTHLWCNTRLCLLG		Kandy	LK-21	7.27337	80.709602	Kadugannawa	PS-210112	7.256285	80.516908	7.265915	80.550553	Colombo - Kandy Rd, Pilimathalawa 20450, Sri Lanka	3.86376	
Kandy	Kadugannawa	Kadugannawa Central College	False	False	KNDYKDGNNWKDGNNWCNTRLCLLG		Kandy	LK-21	7.27337	80.709602	Kadugannawa	PS-210112	7.256285	80.516908	7.263719	80.530822	Henawala Dambagoda Road, Henawala, Sri Lanka	1.743763	
Kandy	Peththapitiya	Danture Maha Vidyalaya	False	False	KNDYPTHTHPTYDNTRMHVDYLY		Kandy	LK-21	7.27337	80.709602	Peththapitiya		7.287977	80.493449	7.28447	80.550963	Dodanwala Natha Dewale Rd, Dodamwala, Sri Lanka	6.357593	
Nuwara Eliya	Nuwara Eliya	Mobile Medical Team	False	False	NWRLYNWRLYMBLMDCLTM		Nuwara Eliya	LK-23	6.97423	80.711222	Nuwaraeliya	PS-230131	6.974148	80.767627					#CenterLocationUnknown
Nuwara Eliya	Hanguranketa	Rikillagaskada Base Hospital	False	False	NWRLYHNGRNKTRKLLGSKDBSHSPTL		Nuwara Eliya	LK-23	6.97423	80.711222	Hanguranketha	PS-210108	7.176511	80.777388	7.145327	80.782574	B364, Rikillagaskada, Sri Lanka	3.515494	
Nuwara Eliya	Udupussellawa	Delmor Estate Hospital	False	False	NWRLYDPSSLLWDLMRSTTHSPTL		Nuwara Eliya	LK-23	6.97423	80.711222	Udupussellawa	PS-230143	6.958254	80.930291	6.974103	80.780151	Nuwara Eliya-Uda Pussellawa Rd, Nuwara Eliya 22200, Sri Lanka	16.670241	
Nuwara Eliya	Kothmale	MOH Office - Kothmale	False	False	NWRLYKTHMLMHFFCKTHML		Nuwara Eliya	LK-23	6.97423	80.711222	Kotmale	PS-230134	7.063602	80.685054	7.062013	80.685533	3M6P+R63, Kothmale New Town, Sri Lanka	0.184484	
Nuwara Eliya	Lindula	MOH Office - Lindula	False	False	NWRLYLNDLMHFFCLNDL		Nuwara Eliya	LK-23	6.97423	80.711222	Lindula	PS-230138	6.927027	80.686744	6.922513	80.686195	Agarapathana-Dayagama-Lindula Rd, Lindula, Sri Lanka	0.505724	
Nuwara Eliya	Agarapathana	Manrasi Sports Club	False	False	NWRLYGRPTHNMNRSSPRTSCLB		Nuwara Eliya	LK-23	6.97423	80.711222	Agarapathana	PS-230137	6.883809	80.692834	6.971737	80.765731	Nuwara Eliya 22200, Sri Lanka	12.666531	
Nuwara Eliya	Dayagama	Dayagama Hospital	False	False	NWRLYDYGMDYGMHSPTL		Nuwara Eliya	LK-23	6.97423	80.711222	Dayagama	PS-230140	6.854642	80.748918	6.853407	80.758032	VQ35+967, Dayagama, Sri Lanka	1.015835	
Matale	Mathale	Mobile Medical Team	False	False	MTLMTHLMBLMDCLTM		Matale	LK-22	7.667587	80.731008	Matale	PS-220121	7.462789	80.626211					#CenterLocationUnknown
Mathale	Galewela	Thalkiriyagama Budda Jayanthi Viharaya	False	False	MTHLGLWLTHLKRYGMBDDJYNTHVHRY		Matale	LK-22	7.667587	80.731008	Galewela	PS-220129	7.763244	80.574149	7.807298	80.611119	Thalakiriyagama Maha Vidyalaya, Dambulla, Sri Lanka	6.37266	
Mathale	Dambulla	Rangiri Dambulla Central College	False	False	MTHLDMBLLRNGRDMBLLCNTRLCLLG		Matale	LK-22	7.667587	80.731008	Dambulla	PS-220128	7.86208	80.649166	7.863027	80.646392	Nishshanka Road Link Rd, Dambulla 21100, Sri Lanka	0.323292	
Mathale	Sigiriya	Inamaluwa Vidyalaya	False	False	MTHLSGRYNMLWVDYLY		Matale	LK-22	7.667587	80.731008	Sigiriya	PS-220130	7.94243	80.732502	7.92425	80.684012	Inamaluwa, Sri Lanka	5.711845	
Mathale	Sigiriya	Digampathaha Magallena Viharaya	False	False	MTHLSGRYDGMPTHHMGLLNVHRY		Matale	LK-22	7.667587	80.731008	Sigiriya	PS-220130	7.94243	80.732502	7.973595	80.721609	XPFC+CJQ, Digampathaha, Sri Lanka	3.668292	
Mathale	Makulugaswewa	Makulugaswewa Maha Vidyalaya	False	False	MTHLMKLGSWWMKLGSWWMHVDYLY		Matale	LK-22	7.667587	80.731008									#PoliceLocationUnknown
Mathale	Naula	Ledora Hospital	False	False	MTHLNLLDRHSPTL		Matale	LK-22	7.667587	80.731008	Naula	PS-220126	7.692051	80.64963	7.461098	80.624713	FJ6F+CVP, Matale, Sri Lanka	25.835353	#CenterFarFromPolice
Badulla	Badulla	Badulla Base Hospital	False	False	BDLLBDLLBDLLBSHSPTL		Badulla	LK-81	7.074529	81.04486	Badulla	PS-810101	6.991337	81.055246	6.991808	81.05235	Daya Gunasekara Mawatha, Badulla, Sri Lanka	0.32399	
Badulla	Badulla	Mobile Medical Team	False	False	BDLLBDLLMBLMDCLTM		Badulla	LK-81	7.074529	81.04486	Badulla	PS-810101	6.991337	81.055246					#CenterLocationUnknown
Badulla	Passara	District Hospital - Passara	False	False	BDLLPSSRDSTRCTHSPTLPSSR		Badulla	LK-81	7.074529	81.04486	Passara	PS-810102	6.934481	81.154796	6.933517	81.152592	Demodera - Spring Valley - Badulla Road, Passara, Sri Lanka	0.265888	
Badulla	Passara	Passara  National College	False	False	BDLLPSSRPSSRNTNLCLLG		Badulla	LK-81	7.074529	81.04486	Passara	PS-810102	6.934481	81.154796	6.940355	81.167392	Peradeniya-Badulla-Chenkaladi Hwy, Passara, Sri Lanka	1.536617	
Badulla	Passara	Bibilegama Hospital	False	False	BDLLPSSRBBLGMHSPTL		Badulla	LK-81	7.074529	81.04486	Passara	PS-810102	6.934481	81.154796	6.895098	81.14174	Bibilegama Rd, Passara, Sri Lanka	4.611693	
Badulla	Passara	Meedumpitiya Hospital	False	False	BDLLPSSRMDMPTYHSPTL		Badulla	LK-81	7.074529	81.04486	Passara	PS-810102	6.934481	81.154796	6.945576	81.190338	Peradeniya-Badulla-Chenkaladi Hwy, Sri Lanka	4.113834	
Badulla	Passara	Kanawerella Hospital	False	False	BDLLPSSRKNWRLLHSPTL		Badulla	LK-81	7.074529	81.04486	Passara	PS-810102	6.934481	81.154796	6.933517	81.152592	Demodera - Spring Valley - Badulla Road, Passara, Sri Lanka	0.265888	
Badulla	Passara	Yuri watta Hospital	False	False	BDLLPSSRYRWTTHSPTL		Badulla	LK-81	7.074529	81.04486	Passara	PS-810102	6.934481	81.154796	6.933517	81.152592	Demodera - Spring Valley - Badulla Road, Passara, Sri Lanka	0.265888	
Badulla	Hali Ela	Etampitiya Hospital	False	False	BDLLHLLTMPTYHSPTL		Badulla	LK-81	7.074529	81.04486	Haliela	PS-810108	6.958216	81.034447	6.934746	80.989784	Etampitiya Rd, Sri Lanka	5.579755	
Badulla	Hali Ela	Isprinvally Hospital	False	False	BDLLHLLSPRNVLLYHSPTL		Badulla	LK-81	7.074529	81.04486	Haliela	PS-810108	6.958216	81.034447	6.950066	81.037391	X22P+2XC, Hali-ela, Sri Lanka	0.963001	
Badulla	Uva Paranagama	Uva Paranagama Hospital	False	False	BDLLVPRNGMVPRNGMHSPTL	Divisional Hospital - Uva Paranagama	Badulla	LK-81	7.074529	81.04486	Uvaparanagama	PS-810213	6.958341	80.930364	6.938076	80.890525	Rendapola-Galahagama-Ambagasdowa Rd, Himbiliyagahamadiththa, Sri Lanka	4.942648	
Badulla	Bandarawela	MOH Office - Bandarawela	False	False	BDLLBNDRWLMHFFCBNDRWL		Badulla	LK-81	7.074529	81.04486	Bandarawela	PS-810210	6.831526	80.986784	6.841272	80.98482	Hospital Junction Helamuduna Bus Stop, Etampitiya Rd, Bandarawela, Sri Lanka	1.105533	
Badulla	Haputale	MOH Office - Haputale	False	False	BDLLHPTLMHFFCHPTL		Badulla	LK-81	7.074529	81.04486	Haputale	PS-810215	6.767653	80.957218	6.779645	80.964114	QXH7+WC4, Badulla, Sri Lanka	1.536024	
Monaragala	Badalkumbura	Nishshanka National College	False	False	MNRGLBDLKMBRNSHSHNKNTNLCLLG		Moneragala	LK-82	6.787517	81.303744	Badalkumbura	PS-820128	6.889017	81.235441	6.892079	81.237627	Mo/ Nissanka National School, Buttala Rd, Badalkumbura, Sri Lanka	0.417455	
Moneragala	Bibila	Wellassa National College	False	False	MNRGLBBLWLLSSNTNLCLLG		Moneragala	LK-82	6.787517	81.303744	Bibila	PS-820125	7.165232	81.225463	7.134962	81.219121	Peradeniya-Badulla-Chenkaladi Hwy, Bibile, Sri Lanka	3.43891	
Moneragala	Bibila	Dodamgolla Vidyalaya	False	False	MNRGLBBLDDMGLLVDYLY		Moneragala	LK-82	6.787517	81.303744	Bibila	PS-820125	7.165232	81.225463	7.131231	81.23558	46JP+F6W, Kanulwela, Sri Lanka	3.943308	
Moneragala	Medagama	Dahagoniya Vidyalaya	False	False	MNRGLMDGMDHGNYVDYLY		Moneragala	LK-82	6.787517	81.303744	Medagama	PS-820126	7.033608	81.276708	7.052569	81.270192	Dahagoniya Rd, Sri Lanka	2.228318	
Moneragala	Medagama	Medagama National College	False	False	MNRGLMDGMMDGMNTNLCLLG		Moneragala	LK-82	6.787517	81.303744	Medagama	PS-820126	7.033608	81.276708	7.031205	81.276445	Moneragala Road,Medagama, B56, Monaragala 91550, Sri Lanka	0.268858	
Moneragala	Dambagalla	Madulla Central College	False	False	MNRGLDMBGLLMDLLCNTRLCLLG		Moneragala	LK-82	6.787517	81.303744	Dambagalla	PS-820123	6.978806	81.372037	6.98417	81.374688	Dambagalla,Monaragala, Sri Lanka	0.66456	
Moneragala	Dambagalla	Mariarawa Maha Vidyalaya	False	False	MNRGLDMBGLLMRRWMHVDYLY		Moneragala	LK-82	6.787517	81.303744	Dambagalla	PS-820123	6.978806	81.372037	6.97087	81.44684	Kolladeniya,Mariarawa,Monaragala, Sri Lanka	8.305791	
Moneragala	Dambagalla	Kolladeniya Maha Vidyalaya	False	False	MNRGLDMBGLLKLLDNYMHVDYLY		Moneragala	LK-82	6.787517	81.303744	Dambagalla	PS-820123	6.978806	81.372037	6.97087	81.44684	Kolladeniya,Mariarawa,Monaragala, Sri Lanka	8.305791	
Moneragala	Siyambalanduwa	Kodayana Primary school	False	False	MNRGLSYMBLNDWKDYNPRMRYSCHL		Moneragala	LK-82	6.787517	81.303744	Siyambalanduwa	PS-820122	6.906851	81.547598	6.909814	81.485557	WF5P+W6F, Monaragala, Sri Lanka	6.858522	
Moneragala	Athimale	Guruhela Primary School	False	False	MNRGLTHMLGRHLPRMRYSCHL		Moneragala	LK-82	6.787517	81.303744	Athimale	PS-820124	6.907289	79.863819	6.888323	81.329226	Kotigalhela road, Magandanamulla, Monaragala, Monaragala, Sri Lanka	161.830881	#CenterFarFromPolice
Moneragala	Govindupura	Buwanekaba Viharaya	False	False	MNRGLGVNDPRBWNKBVHRY		Moneragala	LK-82	6.787517	81.303744									#PoliceLocationUnknown
Moneragala	Govindupura	Kandaudapanguwa Maha Vidyalaya	False	False	MNRGLGVNDPRKNDDPNGWMHVDYLY		Moneragala	LK-82	6.787517	81.303744									#PoliceLocationUnknown
Galle	Galle	Mobile Medical Team	False	False	GLLGLLMBLMDCLTM		Galle	LK-31	6.222805	80.251977	Galle	PS-310120	6.032983	80.21714					#CenterLocationUnknown
Galle	Poddala	Balangoda Vidyalaya	False	False	GLLPDDLBLNGDVDYLY		Galle	LK-31	6.222805	80.251977	Poddala	PS-310126	6.121449	80.210629	6.097937	80.228305	Galduwa Rd, Narawala, Sri Lanka	3.265151	
Galle	Poddala	Pahala Kumbiya Siriniwasa Vidyalaya	False	False	GLLPDDLPHLKMBYSRNWSVDYLY		Galle	LK-31	6.222805	80.251977	Poddala	PS-310126	6.121449	80.210629	6.124569	80.228472	46FH+R9H, Galle, Sri Lanka	2.003635	
Galle	Poddala	Godakanda Viharaya	False	False	GLLPDDLGDKNDVHRY		Galle	LK-31	6.222805	80.251977	Poddala	PS-310126	6.121449	80.210629	6.100106	80.221057	462C+2CV, Poddala, Sri Lanka	2.6393	
Galle	Nagoda	Mapalagama Central College	False	False	GLLNGDMPLGMCNTRLCLLG		Galle	LK-31	6.222805	80.251977	Nagoda	PS-310130	6.197616	80.274707	6.227123	80.29788	67GX+R5R, Paranathanayamgoda, Sri Lanka	4.163864	
Galle	Yakkalamulla	MOH Office - Yakkalamulla	False	False	GLLYKKLMLLMHFFCYKKLMLL		Galle	LK-31	6.222805	80.251977	Yakkalamulla	PS-310125	6.106186	80.348152	6.104585	80.342213	483R+RVP, Galle, Sri Lanka	0.680559	
Galle	Hiniduma	MOH Office - Hiniduma	False	False	GLLHNDMMHFFCHNDM		Galle	LK-31	6.222805	80.251977	Hiniduma	PS-310131	6.329517	80.322442	6.305978	80.31774	Udugama - Hiniduma Rd, Hiniduma, Sri Lanka	2.669344	
Galle	Baddegama	Galahenkanda Maha Vidyalaya	False	False	GLLBDDGMGLHNKNDMHVDYLY		Galle	LK-31	6.222805	80.251977	Baddegama	PS-310239	6.172566	80.174966	6.18483	80.154892	Weniyarawela, Baddegama., B143, Weniyarawela, Sri Lanka	2.605494	
Galle	Baddegama	Baddegama Hospital	False	False	GLLBDDGMBDDGMHSPTL		Galle	LK-31	6.222805	80.251977	Baddegama	PS-310239	6.172566	80.174966	6.16299	80.179593	B128, Baddegama 80200, Sri Lanka	1.181666	
Galle	Baddegama	Maddewila Primary School	False	False	GLLBDDGMMDDWLPRMRYSCHL		Galle	LK-31	6.222805	80.251977	Baddegama	PS-310239	6.172566	80.174966	6.162184	80.210955	Weihena Baddegama, Sri Lanka	4.144031	
Galle	Pitigala	Bambarawana Primary School	False	False	GLLPTGLBMBRWNPRMRYSCHL		Galle	LK-31	6.222805	80.251977	Pitigala	PS-310237	6.335202	80.221149	6.252055	80.323771	Eppala Panangala Galle, Sri Lanka	14.637668	
Galle	Hikkaduwa	Dodanduwa Rohana Vidyalaya	False	False	GLLHKKDWDDNDWRHNVDYLY		Galle	LK-31	6.222805	80.251977	Hikkaduwa	PS-310122	6.145115	80.099693	6.103687	80.128854	443H+FGH, Dodanduwa, Sri Lanka	5.624496	
Galle	Hikkaduwa	Hikkaduwa Police Station	False	False	GLLHKKDWHKKDWPLCSTTN		Galle	LK-31	6.222805	80.251977	Hikkaduwa	PS-310122	6.145115	80.099693	6.145115	80.099693	Galle Rd, Hikkaduwa, Sri Lanka	0.0	
Galle	Kosgoda	Galbada Athuruwella Maha Vidyalaya	False	False	GLLKSGDGLBDTHRWLLMHVDYLY		Galle	LK-31	6.222805	80.251977	Kosgoda	PS-310245	6.335782	80.030182	6.388974	80.009126	Colombo-Galle-Hambantota-Wellawaya Hwy, Induruwa, Sri Lanka	6.35793	
Galle	Kosgoda	Mullegoda Sri Sunandarama Viharaya	False	False	GLLKSGDMLLGDSRSNNDRMVHRY		Galle	LK-31	6.222805	80.251977	Kosgoda	PS-310245	6.335782	80.030182	6.389174	80.029739	Mullegoda, Sri Lanka	5.938985	
Galle	Ambalangoda	Wathugedara Sripathi Maha Vidyalaya	False	False	GLLMBLNGDWTHGDRSRPTHMHVDYLY		Galle	LK-31	6.222805	80.251977	Ambalangoda	PS-310243	6.244958	80.047598	6.257693	80.0552	Berathuduwa Rd, Ambalangoda, Sri Lanka	1.647123	
Matara	Matara	Mobile Medical Team	False	False	MTRMTRMBLMDCLTM		Matara	LK-32	6.142734	80.539994	Matara	PS-320101	5.94904	80.533659					#CenterLocationUnknown
Matara	Deiyandara	Ransegoda Primary School	False	False	MTRDYNDRRNSGDPRMRYSCHL		Matara	LK-32	6.142734	80.539994	Deyyandara	PS-320119	6.198061	80.587045	6.155168	80.492691	5F4V+338, Matara, Sri Lanka	11.473089	
Matara	Gandara	Devinuwara Bomure Viharaya	False	False	MTRGNDRDVNWRBMRVHRY		Matara	LK-32	6.142734	80.539994	Gandara	PS-320102	5.941629	80.614037	5.94704	80.602733	WJW3+R39, Matara, Sri Lanka	1.387874	
Matara	Dickwella	Thuparama Viharaya - Belideniya	False	False	MTRDCKWLLTHPRMVHRYBLDNY		Matara	LK-32	6.142734	80.539994	Dikwella	PS-320103	5.964296	80.693198	6.064384	80.180706	357J+Q74, Galle, Sri Lanka	57.773395	#CenterFarFromPolice
Matara	Dickwella	Kumarthunga Munidasa Maha Vidyalaya	False	False	MTRDCKWLLKMRTHNGMNDSMHVDYLY		Matara	LK-32	6.142734	80.539994	Dikwella	PS-320103	5.964296	80.693198	5.965899	80.694907	XM8V+9X3, Dikwella, Sri Lanka	0.259877	
Matara	Hakmana	Narawelpita North Viharaya	False	False	MTRHKMNNRWLPTNRTHVHRY		Matara	LK-32	6.142734	80.539994	Hakmana	PS-320106	6.084824	80.643227	6.079554	80.657662	Hakmana, Sri Lanka	1.700772	
Matara	Hakmana	Narawelpita Central College	False	False	MTRHKMNNRWLPTCNTRLCLLG		Matara	LK-32	6.142734	80.539994	Hakmana	PS-320106	6.084824	80.643227	6.090854	80.61892	B309, Sri Lanka	2.77082	
Matara	Hakmana	Kongala Sudarshanarama Viharaya	False	False	MTRHKMNKNGLSDRSHNRMVHRY		Matara	LK-32	6.142734	80.539994	Hakmana	PS-320106	6.084824	80.643227	6.076221	80.635112	Kongala, Hakmana, Sri Lanka	1.311974	
Matara	Hakmana	Sanasa Office	False	False	MTRHKMNSNSFFC		Matara	LK-32	6.142734	80.539994	Hakmana	PS-320106	6.084824	80.643227	6.0757	80.634441	3JGM+7QP, Hakmana, Sri Lanka	1.405089	
Matara	Hakmana	Udupillagoda Viharaya	False	False	MTRHKMNDPLLGDVHRY		Matara	LK-32	6.142734	80.539994	Hakmana	PS-320106	6.084824	80.643227	6.084067	80.650128	Aththadassi Rd, Hakmana, Sri Lanka	0.767903	
Matara	Kamburupitiya	MOH Office - Kamburupitiya	False	False	MTRKMBRPTYMHFFCKMBRPTY		Matara	LK-32	6.142734	80.539994	Kamburupitiya	PS-320105	6.073875	80.564579	6.06554	80.565998	3H88+699, මාතර, Sri Lanka	0.940292	
Matara	Rotumba	Pasgoda Maha Vidyalaya	False	False	MTRRTMBPSGDMHVDYLY		Matara	LK-32	6.142734	80.539994	Rotumba	PS-320118	6.229548	80.559097	6.235844	80.57894	6HPH+8HP, Matara, Sri Lanka	2.303138	
Matara	Rotumba	Gomila Maha Vidyalaya	False	False	MTRRTMBGMLMHVDYLY		Matara	LK-32	6.142734	80.539994	Rotumba	PS-320118	6.229548	80.559097	6.235844	80.57894	6HPH+8HP, Matara, Sri Lanka	2.303138	
Matara	Rotumba	Belgamuwa Maha Vidyalaya	False	False	MTRRTMBBLGMWMHVDYLY		Matara	LK-32	6.142734	80.539994	Rotumba	PS-320118	6.229548	80.559097	6.235844	80.57894	6HPH+8HP, Matara, Sri Lanka	2.303138	
Matara	Rotumba	Beralapanatharama Maha Vidyalaya	False	False	MTRRTMBBRLPNTHRMMHVDYLY		Matara	LK-32	6.142734	80.539994	Rotumba	PS-320118	6.229548	80.559097	6.235844	80.57894	6HPH+8HP, Matara, Sri Lanka	2.303138	
Matara	Rotumba	Kirilipana Primary School	False	False	MTRRTMBKRLPNPRMRYSCHL		Matara	LK-32	6.142734	80.539994	Rotumba	PS-320118	6.229548	80.559097	6.29657	80.58657	Kirilipana, Sri Lanka	8.049945	
Matara	Rotumba	Batandura Primary school	False	False	MTRRTMBBTNDRPRMRYSCHL		Matara	LK-32	6.142734	80.539994	Rotumba	PS-320118	6.229548	80.559097	6.319829	80.57489	Batandura Rd, Sri Lanka	10.192622	
Matara	Weligama	MOH Office - Weligama	False	False	MTRWLGMMHFFCWLGM		Matara	LK-32	6.142734	80.539994	Weligama	PS-320111	5.973301	80.426455	5.97486	80.419739	Walana Hospital Rd, Weligama, Sri Lanka	0.762931	
Matara	Weligama	Penetiyana Primary School	False	False	MTRWLGMPNTYNPRMRYSCHL		Matara	LK-32	6.142734	80.539994	Weligama	PS-320111	5.973301	80.426455					#CenterLocationUnknown
Matara	Deniyaya	Pallegama Maha Vidyalaya	False	False	MTRDNYYPLLGMMHVDYLY		Matara	LK-32	6.142734	80.539994	Deniyaya	PS-320110	6.341435	80.558719	6.338408	80.53601	Deniyaya Pallegama Road, Deniyaya 81522, Sri Lanka	2.532948	
Matara	Deniyaya	Waralla AD Yapa Vidyalaya	False	False	MTRDNYYWRLLDYPVDYLY		Matara	LK-32	6.142734	80.539994	Deniyaya	PS-320110	6.341435	80.558719	6.100459	80.478017	4F2H+56J, Akuressa, Sri Lanka	28.250135	#CenterFarFromPolice
Matara	Deniyaya	MOH Office - Kotapola	False	False	MTRDNYYMHFFCKTPL		Matara	LK-32	6.142734	80.539994	Deniyaya	PS-320110	6.341435	80.558719	6.327334	80.556547	Deniyaya - Galle Main Rd, Deniyaya, Sri Lanka	1.586725	
Matara	Pitabeddara	Dudley Senanayake National College	False	False	MTRPTBDDRDDLYSNNYKNTNLCLLG		Matara	LK-32	6.142734	80.539994	Pitabeddara	PS-320114	6.203675	80.475004	6.199502	80.478204	5FXH+R74, Matara, Sri Lanka	0.583659	
Matara	Pitabeddara	Morawaka Hospital	False	False	MTRPTBDDRMRWKHSPTL		Matara	LK-32	6.142734	80.539994	Pitabeddara	PS-320114	6.203675	80.475004	6.243083	80.492626	A17, Sri Lanka	4.796929	
Matara	Akuressa	Athuraliya Maha Vidyalaya	False	False	MTRKRSSTHRLYMHVDYLY		Matara	LK-32	6.142734	80.539994	Akuressa	PS-320112	6.099044	80.4776	6.066071	80.502276	Akuressa - Malimbada Rd, Sri Lanka	4.57165	
Matara	Malimbada	Dampella Maha Vidyalaya	False	False	MTRMLMBDDMPLLMHVDYLY		Matara	LK-32	6.142734	80.539994	Malimbada	PS-320117	6.010503	80.517438	6.04717	80.502418	Dampella maha vidyalaya Dampella, Sri Lanka	4.403888	
Hambantota	Hambantota	Mobile Medical Team	False	False	HMBNTTHMBNTTMBLMDCLTM		Hambantota	LK-33	6.259779	81.098619	Hambantota	PS-330156	6.125872	81.12521					#CenterLocationUnknown
Hambantota	Sooriyawewa	Town Hall - Sooriyawewa	False	False	HMBNTTSRYWWTWNHLLSRYWW		Hambantota	LK-33	6.259779	81.098619	Sooriyawewa	PS-330155	6.306022	81.003873	6.308418	80.996606	School Rd, Sooriyawewa, Sri Lanka	0.846464	
Hambantota	Tangalle	Town Hall - Tangalle	False	False	HMBNTTTNGLLTWNHLLTNGLL		Hambantota	LK-33	6.259779	81.098619	Tangalle	PS-330147	6.023954	80.797255	6.026547	80.795587	Matara Rd, Tangalle, Sri Lanka	0.342386	
Hambantota	Tangalle	Danketiya Viharaya	False	False	HMBNTTTNGLLDNKTYVHRY		Hambantota	LK-33	6.259779	81.098619	Tangalle	PS-330147	6.023954	80.797255	6.040062	80.799757	A2, Tangalle, Sri Lanka	1.812956	
Hambantota	Tangalle	Kandurupokuna Jayasumanaramaya	False	False	HMBNTTTNGLLKNDRPKNJYSMNRMY		Hambantota	LK-33	6.259779	81.098619	Tangalle	PS-330147	6.023954	80.797255	6.005759	80.756813	A2, Tangalle, Sri Lanka	4.910036	
Hambantota	Beliatta	Beliatta Maha Vidyalaya	False	False	HMBNTTBLTTBLTTMHVDYLY		Hambantota	LK-33	6.259779	81.098619	Beliatta	PS-330152	6.046936	80.735408	6.048157	80.733914	Beliatta, Sri Lanka	0.2139	
Hambantota	Katuwana	MOH Office - Katuwana	False	False	HMBNTTKTWNMHFFCKTWN		Hambantota	LK-33	6.259779	81.098619	Katuwana	PS-330153	6.269722	80.690963	6.26627	80.693035	7M8V+G63, Katuwana, Sri Lanka	0.447115	
Hambantota	Walasmulla	Walasmulla Fair Permises	False	False	HMBNTTWLSMLLWLSMLLFRPRMSS		Hambantota	LK-33	6.259779	81.098619	Walasmulla	PS-330151	6.154102	80.698256	6.148552	80.697555	4MXX+C2F, Walasmulla, Sri Lanka	0.622174	
Hambantota	Walasmulla	Kanumuldeniya Primary School	False	False	HMBNTTWLSMLLKNMLDNYPRMRYSCHL		Hambantota	LK-33	6.259779	81.098619	Walasmulla	PS-330151	6.154102	80.698256	6.150889	80.693718	5M2V+9F4, Walasmulla, Sri Lanka	0.616099	
Hambantota	Agunukolapelessa	MOH Office - Agunukolapelessa	False	False	HMBNTTGNKLPLSSMHFFCGNKLPLSS		Hambantota	LK-33	6.259779	81.098619	Angunakolapelessa	PS-330150	6.321993	80.844883	6.164691	80.898963	Unnamed Road, Agunukolapelessa, Sri Lanka	18.490258	
Rathnapura	Opanayaka	Kandeketiya Vidyalaya	False	False	RTHNPRPNYKKNDKTYVDYLY		Ratnapura	LK-91	6.586826	80.566158	Opanayaka	PS-910104	6.608519	80.619285	6.618238	80.62379	Galhira Rd, Opanayake,, Sri Lanka	1.190132	
Rathnapura	Opanayaka	Galhira Vidyalaya	False	False	RTHNPRPNYKGLHRVDYLY		Ratnapura	LK-91	6.586826	80.566158	Opanayaka	PS-910104	6.608519	80.619285	6.618238	80.62379	Galhira Rd, Opanayake,, Sri Lanka	1.190132	
Rathnapura	Opanayaka	Madola Viharaya	False	False	RTHNPRPNYKMDLVHRY		Ratnapura	LK-91	6.586826	80.566158	Opanayaka	PS-910104	6.608519	80.619285	6.621938	80.652802	Colombo - Batticaloa Hwy, Sri Lanka	3.992748	
Rathnapura	Pinnawala	Welahinna Viharaya	False	False	RTHNPRPNNWLWLHNNVHRY		Ratnapura	LK-91	6.586826	80.566158	Pinnawala	PS-910115	7.299943	80.386604	7.300971	80.387156	Elephant Orphanage, B199, Rambukkana 71100, Sri Lanka	0.129551	
Rathnapura	Pinnawala	Mamalgaha Viharaya	False	False	RTHNPRPNNWLMMLGHVHRY		Ratnapura	LK-91	6.586826	80.566158	Pinnawala	PS-910115	7.299943	80.386604	6.686418	80.690929	Morahela, Balangoda, Sri Lanka	76.064737	#CenterFarFromPolice
Rathnapura	Pinnawala	Pinnawala Primary School	False	False	RTHNPRPNNWLPNNWLPRMRYSCHL		Ratnapura	LK-91	6.586826	80.566158	Pinnawala	PS-910115	7.299943	80.386604	6.648995	80.67309	JMXF+H6W, Pettigala, Sri Lanka	79.012061	#CenterFarFromPolice
Rathnapura	Pinnawala	Denagama Primary Health Unit	False	False	RTHNPRPNNWLDNGMPRMRYHLTHNT		Ratnapura	LK-91	6.586826	80.566158	Pinnawala	PS-910115	7.299943	80.386604	6.702167	80.72453	Nelliwala Rd, Sri Lanka	76.241744	#CenterFarFromPolice
Rathnapura	Pinnawala	Marathenna Hospital	False	False	RTHNPRPNNWLMRTHNNHSPTL		Ratnapura	LK-91	6.586826	80.566158	Pinnawala	PS-910115	7.299943	80.386604	6.739118	80.698827	PMQX+JGW, Ratnapura, Sri Lanka	71.269702	#CenterFarFromPolice
Rathnapura	Godakawela	Pussathota Community Hall	False	False	RTHNPRGDKWLPSSTHTCMMNTYHLL		Ratnapura	LK-91	6.586826	80.566158	Godakawela	PS-910233	6.50224	80.655642	6.514233	80.725816	GP7G+M8W, Pussathota, Sri Lanka	7.869035	
Rathnapura	Godakawela	Ambevila Vidyalaya	False	False	RTHNPRGDKWLMBVLVDYLY		Ratnapura	LK-91	6.586826	80.566158	Godakawela	PS-910233	6.50224	80.655642	6.504906	80.652114	Godakawela, Sri Lanka	0.489849	
Rathnapura	Godakawela	Ranwala Vidyalaya	False	False	RTHNPRGDKWLRNWLVDYLY		Ratnapura	LK-91	6.586826	80.566158	Godakawela	PS-910233	6.50224	80.655642	6.548117	80.671963	Ranwala Rd, Godakawela, Sri Lanka	5.412259	
Rathnapura	Godakawela	Udaranwala Vidyalaya	False	False	RTHNPRGDKWLDRNWLVDYLY		Ratnapura	LK-91	6.586826	80.566158	Godakawela	PS-910233	6.50224	80.655642	6.503065	80.650553	GM32+66F, Godakawela, Sri Lanka	0.569844	
Rathnapura	Godakawela	Elamalpe Vidyalaya	False	False	RTHNPRGDKWLLMLPVDYLY		Ratnapura	LK-91	6.586826	80.566158	Godakawela	PS-910233	6.50224	80.655642	6.505873	80.640843	GJ4R+88W, Ratnapura, Sri Lanka	1.684679	
Rathnapura	Godakawela	Ranwala Hospital	False	False	RTHNPRGDKWLRNWLHSPTL		Ratnapura	LK-91	6.586826	80.566158	Godakawela	PS-910233	6.50224	80.655642	6.542584	80.683712	GMVM+2FP, Ratnapura, Sri Lanka	5.45525	
Rathnapura	Godakawela	Welkeniyaya Vidyalaya	False	False	RTHNPRGDKWLWLKNYYVDYLY		Ratnapura	LK-91	6.586826	80.566158	Godakawela	PS-910233	6.50224	80.655642	6.514872	80.682233	Rathnapura State Rd, Sri Lanka	3.257275	
Rathnapura	Godakawela	Niyangama Vidyalaya	False	False	RTHNPRGDKWLNYNGMVDYLY		Ratnapura	LK-91	6.586826	80.566158	Godakawela	PS-910233	6.50224	80.655642	6.505873	80.640843	GJ4R+88W, Ratnapura, Sri Lanka	1.684679	
Rathnapura	Godakawela	Thambagamuwa Vidyalaya	False	False	RTHNPRGDKWLTHMBGMWVDYLY		Ratnapura	LK-91	6.586826	80.566158	Godakawela	PS-910233	6.50224	80.655642	6.470417	80.705781	Thambagamuwa, Pallebedda., Pelmadulla - Embilipitiya Hwy, Sri Lanka	6.575312	
Rathnapura	Godakawela	Mahagama Health Centre	False	False	RTHNPRGDKWLMHGMHLTHCNTR		Ratnapura	LK-91	6.586826	80.566158	Godakawela	PS-910233	6.50224	80.655642	6.502044	80.657016	Pelmadulla - Embilipitiya Hwy, Godakawela, Sri Lanka	0.153404	
Rathnapura	Embilipitiya	DH - Pabahinna	False	False	RTHNPRMBLPTYDHPBHNN		Ratnapura	LK-91	6.586826	80.566158	Embilipitiya	PS-910237	6.321993	80.844883	6.719904	80.783786	Pambahinna, Sri Lanka	44.77161	#CenterFarFromPolice
Rathnapura	Ayagama	Colony Vidyalaya	False	False	RTHNPRYGMCLNYVDYLY		Ratnapura	LK-91	6.586826	80.566158	Ayagama	PS-910109	6.637727	80.312554	6.63323	80.312619	Ayagama, Sri Lanka	0.500252	
Rathnapura	Ayagama	Dumbara Manana Viharaya	False	False	RTHNPRYGMDMBRMNNVHRY		Ratnapura	LK-91	6.586826	80.566158	Ayagama	PS-910109	6.637727	80.312554	6.721764	80.221942	P6CC+PQ4, Ratnapura, Sri Lanka	13.696029	
Rathnapura	Ayagama	Udagama Primary School	False	False	RTHNPRYGMDGMPRMRYSCHL		Ratnapura	LK-91	6.586826	80.566158	Ayagama	PS-910109	6.637727	80.312554	6.828119	80.159247	R5H5+6MX, Padukka, Sri Lanka	27.115782	#CenterFarFromPolice
Rathnapura	Rathnapura	Balangoda Vidyaloka Vidyalaya	False	False	RTHNPRRTHNPRBLNGDVDYLKVDYLY		Ratnapura	LK-91	6.586826	80.566158	Ratnapura	PS-910101	6.679456	80.40223	6.695088	80.382654	M9WM+23J, Ratnapura, Sri Lanka	2.774917	
Rathnapura	Rathnapura	Dahamana Vidyalaya	False	False	RTHNPRRTHNPRDHMNVDYLY		Ratnapura	LK-91	6.586826	80.566158	Ratnapura	PS-910101	6.679456	80.40223	6.683533	80.399526	A4, Ratnapura, Sri Lanka	0.543031	
Rathnapura	Rathnapura	Mawela Community Hall	False	False	RTHNPRRTHNPRMWLCMMNTYHLL		Ratnapura	LK-91	6.586826	80.566158	Ratnapura	PS-910101	6.679456	80.40223	6.701381	80.367479	PNR Hwy, Ratnapura, Sri Lanka	4.548125	
Rathnapura	Rathnapura	Welage Viharaya	False	False	RTHNPRRTHNPRWLGVHRY		Ratnapura	LK-91	6.586826	80.566158	Ratnapura	PS-910101	6.679456	80.40223	6.690487	80.379893	Panadura-Nambapana-Ratnapura Hwy, Ratnapura, Sri Lanka	2.75586	
Rathnapura	Rathnapura	Gawarahena Communitya Hall	False	False	RTHNPRRTHNPRGWRHNCMMNTYHLL		Ratnapura	LK-91	6.586826	80.566158	Ratnapura	PS-910101	6.679456	80.40223	6.701381	80.367479	PNR Hwy, Ratnapura, Sri Lanka	4.548125	
Rathnapura	Rathnapura	Vikiliya Narada Vidyalaya	False	False	RTHNPRRTHNPRVKLYNRDVDYLY		Ratnapura	LK-91	6.586826	80.566158	Ratnapura	PS-910101	6.679456	80.40223	6.621247	80.75179	JQC2+FPV, Balangoda, Sri Lanka	39.158846	#CenterFarFromPolice
Rathnapura	Rathnapura	Bowatta Communitya Hall	False	False	RTHNPRRTHNPRBWTTCMMNTYHLL		Ratnapura	LK-91	6.586826	80.566158	Ratnapura	PS-910101	6.679456	80.40223	6.705574	80.384734	Ratnapura, Sri Lanka	3.489325	
Rathnapura	Rathnapura	Samanalagama Viharaya	False	False	RTHNPRRTHNPRSMNLGMVHRY		Ratnapura	LK-91	6.586826	80.566158	Ratnapura	PS-910101	6.679456	80.40223	6.399254	80.88148	No 525 Samanalagama, Sewanagala 70250, Sri Lanka	61.450259	#CenterFarFromPolice
Rathnapura	Rathnapura	Kotamulla Viharaya	False	False	RTHNPRRTHNPRKTMLLVHRY		Ratnapura	LK-91	6.586826	80.566158	Ratnapura	PS-910101	6.679456	80.40223	6.666909	80.382503	M98M+Q26, Ratnapura, Sri Lanka	2.587921	
Rathnapura	Kottigala	Halmillaketiya Vidyalaya	False	False	RTHNPRKTTGLHLMLLKTYVDYLY		Ratnapura	LK-91	6.586826	80.566158	Kuttigala	PS-910238	6.260475	80.907389	6.337086	80.845788	8RPW+R8M, Embilipitiya, Sri Lanka	10.908608	
Rathnapura	Kottigala	Kachchigala Vidyalaya	False	False	RTHNPRKTTGLKCHCHGLVDYLY		Ratnapura	LK-91	6.586826	80.566158	Kuttigala	PS-910238	6.260475	80.907389	6.337086	80.845788	8RPW+R8M, Embilipitiya, Sri Lanka	10.908608	
Rathnapura	Kottigala	Padalangala Jayanthi Vidyalaya	False	False	RTHNPRKTTGLPDLNGLJYNTHVDYLY		Ratnapura	LK-91	6.586826	80.566158	Kuttigala	PS-910238	6.260475	80.907389	6.594632	80.401586	Ratnapura-Palawela-Karawita Rd, Gangulwitiya, Sri Lanka	67.134428	#CenterFarFromPolice
Rathnapura	Sewanagala	Kiriwewa Sanasa Society Hall	False	False	RTHNPRSWNGLKRWWSNSSCTYHLL		Ratnapura	LK-91	6.586826	80.566158	Sewanagala	PS-910239	6.360663	80.918555	6.51371	80.520636	Sri Godakumbura, Endana, Kahwatta., Sri Lanka	47.160998	#CenterFarFromPolice
Rathnapura	Kolonna	Buthkanda Maha Vidyalaya	False	False	RTHNPRKLNNBTHKNDMHVDYLY		Ratnapura	LK-91	6.586826	80.566158	Kolonna	PS-910235	6.40194	80.687615	6.382773	80.681984	9MMJ+4Q5, Ratnapura, Sri Lanka	2.220948	
Rathnapura	Kolonna	Ullinduwawa Vidyalaya	False	False	RTHNPRKLNNLLNDWWVDYLY		Ratnapura	LK-91	6.586826	80.566158	Kolonna	PS-910235	6.40194	80.687615	6.358281	80.615652	9J58+876, Heis, Sri Lanka	9.319993	
Rathnapura	Kalawana	Sambuddha Jayanthi Viharaya	False	False	RTHNPRKLWNSMBDDHJYNTHVHRY		Ratnapura	LK-91	6.586826	80.566158	Kalawana	PS-910110	6.530738	80.390719	6.567208	80.158359	H585+V8Q, Pimbura, Sri Lanka	25.995179	#CenterFarFromPolice
Rathnapura	Kalawana	Colony Vidyalaya	False	False	RTHNPRKLWNCLNYVDYLY		Ratnapura	LK-91	6.586826	80.566158	Kalawana	PS-910110	6.530738	80.390719	6.535423	80.401004	GCP2+5C6, Kalawana, Sri Lanka	1.25034	
Rathnapura	Kalawana	Delgolla Viharaya	False	False	RTHNPRKLWNDLGLLVHRY		Ratnapura	LK-91	6.586826	80.566158	Kalawana	PS-910110	6.530738	80.390719	7.434223	80.443251	Katugastota-Kurunegala-Puttalam Hwy, Mawathagama, Sri Lanka	100.661703	#CenterFarFromPolice
Rathnapura	Kalawana	Wathurawala Viharaya	False	False	RTHNPRKLWNWTHRWLVHRY		Ratnapura	LK-91	6.586826	80.566158	Kalawana	PS-910110	6.530738	80.390719	6.686493	80.389229	Ratnapura - Horana - Panadura Hwy, Ratnapura, Sri Lanka	17.325385	
Rathnapura	Kalawana	Weddagala Pirivena	False	False	RTHNPRKLWNWDDGLPRVN		Ratnapura	LK-91	6.586826	80.566158	Kalawana	PS-910110	6.530738	80.390719	6.464585	80.432029	Weddagala, Sri Lanka	8.659428	
Rathnapura	Nivithigala	Delwala Maha Vidyalaya	False	False	RTHNPRNVTHGLDLWLMHVDYLY		Ratnapura	LK-91	6.586826	80.566158	Nivithigala	PS-910111	6.592765	80.459492	6.541958	80.484774	GFRM+QWJ, රත්නපුර, Sri Lanka	6.304063	
Rathnapura	Nivithigala	Doloswala Vidyalaya	False	False	RTHNPRNVTHGLDLSWLVDYLY		Ratnapura	LK-91	6.586826	80.566158	Nivithigala	PS-910111	6.592765	80.459492	6.560499	80.463909	HF67+5HV, Ratnapura, Sri Lanka	3.621977	
Rathnapura	Rakwana	Lenagala Viharaya	False	False	RTHNPRRKWNLNGLVHRY		Ratnapura	LK-91	6.586826	80.566158	Rakwana	PS-910108	6.470133	80.613684	6.877829	80.037339	V2HP+4WP, Lenagala, Sri Lanka	78.170237	#CenterFarFromPolice
Rathnapura	Pelmadulla	Godagama Vidyalaya	False	False	RTHNPRPLMDLLGDGMVDYLY		Ratnapura	LK-91	6.586826	80.566158	Pelmadulla	PS-910117	6.632692	80.521315	6.621499	80.54323	A18, Pelmadulla, Sri Lanka	2.722642	
Rathnapura	Pelmadulla	Dombawinna Vidyalaya	False	False	RTHNPRPLMDLLDMBWNNVDYLY		Ratnapura	LK-91	6.586826	80.566158	Pelmadulla	PS-910117	6.632692	80.521315	6.620139	80.543979	JGCV+3H5, Pelmadulla, Sri Lanka	2.867044	
Kegalle	Mawanella	MOH Office - Mawanella	False	False	KGLLMWNLLMHFFCMWNLL		Kegalle	LK-92	7.104216	80.342866	Mawanella	PS-920122	7.256966	80.445912	7.253248	80.44561	Rambukkana-Mawanella Rd, Mawanella, Sri Lanka	0.414893	
Kegalle	Kegalle	MOH Office - Kegalle	False	False	KGLLKGLLMHFFCKGLL		Kegalle	LK-92	7.104216	80.342866	Kegalle	PS-920118	7.255928	80.353156	7.24797	80.343583	Kegalle-Bulathkohupitiya-Karawanella Hwy, Kegalle, Sri Lanka	1.378052	
Kegalle	Aranayaka	MOH Office - Aranayaka	False	False	KGLLRNYKMHFFCRNYK		Kegalle	LK-92	7.104216	80.342866	Aranayaka	PS-920120	7.186505	80.455273	7.177667	80.457992	5FH5+359, Dippitiya, Sri Lanka	1.027824	
Kegalle	Yatiyanthota	MOH Office - Yatiyanthota	False	False	KGLLYTYNTHTMHFFCYTYNTHT		Kegalle	LK-92	7.104216	80.342866	Yatiyantota	PS-920230	7.027207	80.290753	7.0275	80.301658	Yatiyantota-Punugala-Meenagala Road, Sri Lanka	1.20429	
Kegalle	Bulathkohupitiya	MOH Office - Bulathkohupitiya	False	False	KGLLBLTHKHPTYMHFFCBLTHKHPTY		Kegalle	LK-92	7.104216	80.342866	Bulathkohupitiya	PS-920232	7.106684	80.3347	7.109127	80.334565	485M+MR4, Bulathkohupitiya, Sri Lanka	0.272143	
Kegalle	Warakapola	MOH Office - Warakapola	False	False	KGLLWRKPLMHFFCWRKPL		Kegalle	LK-92	7.104216	80.342866	Wrakapola	PS-920119	7.227488	80.199696	7.226501	80.197818	65GX+J44, Warakapola, Sri Lanka	0.234514	
Kegalle	Pindeniya	Atala Dispensary	False	False	KGLLPNDNYTLDSPNSRY		Kegalle	LK-92	7.104216	80.342866	Pindeniya	PS-920124	7.156486	80.295092	7.235116	80.264212	67P7+2MW, Nelundeniya, Sri Lanka	9.386433	
Kegalle	Pindeniya	Pindeniya Hospital	False	False	KGLLPNDNYPNDNYHSPTL		Kegalle	LK-92	7.104216	80.342866	Pindeniya	PS-920124	7.156486	80.295092	7.175033	80.293362	57GV+289, Nadeniya, Sri Lanka	2.071796	
Kegalle	Dewalagama	Galigamuwa Hospital	False	False	KGLLDWLGMGLGMWHSPTL		Kegalle	LK-92	7.104216	80.342866	Dewalagama		7.285171	80.321988	7.235941	80.311561	68P6+9JF, Galigamuwa, Sri Lanka	5.595401	
Anuradhapura	Anuradhapura	Army Hospital Anuradhapura	False	False	NRDHPRNRDHPRRMYHSPTLNRDHPR		Anuradhapura	LK-71	8.39199	80.512958	Anuradapura	PS-710101	8.329752	80.407265	8.338302	80.407646	AB02, Anuradhapura, Sri Lanka	0.951939	
Anuradhapura	Anuradhapura	62 DIV	False	False	NRDHPRNRDHPRDV		Anuradhapura	LK-71	8.39199	80.512958	Anuradapura	PS-710101	8.329752	80.407265	8.311352	80.403651	Anuradhapura, Sri Lanka	2.084922	
Anuradhapura	Anuradhapura	Wijayapura Hospital	False	False	NRDHPRNRDHPRWJYPRHSPTL		Anuradhapura	LK-71	8.39199	80.512958	Anuradapura	PS-710101	8.329752	80.407265	8.137113	81.044885	42PV+RXR, Anuradhapura, Sri Lanka	73.389003	#CenterFarFromPolice
Anuradhapura	Anuradhapura	Selasthi Maduwa Vidyalaya	False	False	NRDHPRNRDHPRSLSTHMDWVDYLY		Anuradhapura	LK-71	8.39199	80.512958	Anuradapura	PS-710101	8.329752	80.407265	8.335922	80.407513	Maithripala Senanayake Mawatha, Anuradhapura 50000, Sri Lanka	0.686831	
Anuradhapura	Anuradhapura	Walisinghe Harischandra Ground	False	False	NRDHPRNRDHPRWLSNGHHRSCHNDRGRND		Anuradhapura	LK-71	8.39199	80.512958	Anuradapura	PS-710101	8.329752	80.407265	8.337404	80.405697	8CP4+X78, Anuradhapura, Sri Lanka	0.868448	
Anuradhapura	Kekirawa	Kekirawa Hospital	False	False	NRDHPRKKRWKKRWHSPTL		Anuradhapura	LK-71	8.39199	80.512958	Kekirawa	PS-710105	8.039692	80.59865	8.043833	80.5959	A9, Kekirawa, Sri Lanka	0.551353	
Anuradhapura	Kahatagasdigiliya	MOH Office - Kahatagasdigiliya	False	False	NRDHPRKHTGSDGLYMHFFCKHTGSDGLY		Anuradhapura	LK-71	8.39199	80.512958	Kahatagasdigiliya	PS-710118	8.427328	80.688349	8.427329	80.689909	Puttalam - Anuradhapura - Trincomalee Hwy, Kahatagasdigiliya, Sri Lanka	0.171645	
Polonnaruwa	Polonnaruwa	Mobile Medical Team	False	False	PLNNRWPLNNRWMBLMDCLTM		Polonnaruwa	LK-72	7.993659	81.026061	Polonnaruwa	PS-720125	7.924307	81.036895					#CenterLocationUnknown
Polonnaruwa	Polonnaruwa	Thopawewa Maha Vidyalaya	False	False	PLNNRWPLNNRWTHPWWMHVDYLY		Polonnaruwa	LK-72	7.993659	81.026061	Polonnaruwa	PS-720125	7.924307	81.036895	7.938857	81.003164	Polonnaruwa, Sri Lanka	4.05313	
Polonnaruwa	Polonnaruwa	Royal College	False	False	PLNNRWPLNNRWRYLCLLG		Polonnaruwa	LK-72	7.993659	81.026061	Polonnaruwa	PS-720125	7.924307	81.036895	7.919643	81.003574	Newtown 51000, Sri Lanka	3.707395	
Polonnaruwa	Polonnaruwa	Kaduruwela Muslim Maha Vidyalaya	False	False	PLNNRWPLNNRWKDRWLMSLMMHVDYLY		Polonnaruwa	LK-72	7.993659	81.026061	Polonnaruwa	PS-720125	7.924307	81.036895	7.927202	81.038607	Kaduruwela, පොළොන්නරු, Sri Lanka	0.37318	
Polonnaruwa	Polonnaruwa	Wijayapura Maha Vidyalaya	False	False	PLNNRWPLNNRWWJYPRMHVDYLY		Polonnaruwa	LK-72	7.993659	81.026061	Polonnaruwa	PS-720125	7.924307	81.036895	7.954439	81.024595	Somawathiya Rd, Polonnaruwa, Sri Lanka	3.615125	
Polonnaruwa	Polonnaruwa	Shanthi Maha Vidyalaya	False	False	PLNNRWPLNNRWSHNTHMHVDYLY		Polonnaruwa	LK-72	7.993659	81.026061	Polonnaruwa	PS-720125	7.924307	81.036895	8.016026	81.008769	2285+CG6, Unagalawehera, Sri Lanka	10.661968	
Polonnaruwa	Polonnaruwa	Sewamuktha Kadaura Maha Vidyalaya	False	False	PLNNRWPLNNRWSWMKTHKDRMHVDYLY		Polonnaruwa	LK-72	7.993659	81.026061	Polonnaruwa	PS-720125	7.924307	81.036895	7.972665	81.029577	959, Polonnaruwa, Sri Lanka	5.438929	
Polonnaruwa	Hingurakgoda	Minneriya Central College	False	False	PLNNRWHNGRKGDMNNRYCNTRLCLLG		Polonnaruwa	LK-72	7.993659	81.026061	Hingurakgoda	PS-720129	8.048819	80.965751	8.042234	80.936498	Hingurakgoda, Nel Road, Sri Lanka	3.303989	
Polonnaruwa	Hingurakgoda	Bubula Viharaya	False	False	PLNNRWHNGRKGDBBLVHRY		Polonnaruwa	LK-72	7.993659	81.026061	Hingurakgoda	PS-720129	8.048819	80.965751	8.027834	80.954401	2XH3+4QJ, Bubula, Sri Lanka	2.647816	
Polonnaruwa	Hingurakgoda	Thambalawewa Vidyalaya	False	False	PLNNRWHNGRKGDTHMBLWWVDYLY		Polonnaruwa	LK-72	7.993659	81.026061	Hingurakgoda	PS-720129	8.048819	80.965751	8.044334	80.966734	Polonaruva, Hospital Junction, Hingurakgoda, Sri Lanka	0.510478	
Polonnaruwa	Hingurakgoda	Gunawardhana Vidyalaya	False	False	PLNNRWHNGRKGDGNWRDHNVDYLY		Polonnaruwa	LK-72	7.993659	81.026061	Hingurakgoda	PS-720129	8.048819	80.965751	8.044334	80.966734	Polonaruva, Hospital Junction, Hingurakgoda, Sri Lanka	0.510478	
Polonnaruwa	Hingurakgoda	Jayanthipura Vidyalaya	False	False	PLNNRWHNGRKGDJYNTHPRVDYLY		Polonnaruwa	LK-72	7.993659	81.026061	Hingurakgoda	PS-720129	8.048819	80.965751	7.992943	80.964115	XXV7+5JH, Polonnaruwa, Sri Lanka	6.21769	
Polonnaruwa	Hingurakgoda	Chandana Pokuna Vidyalaya	False	False	PLNNRWHNGRKGDCHNDNPKNVDYLY		Polonnaruwa	LK-72	7.993659	81.026061	Hingurakgoda	PS-720129	8.048819	80.965751	8.019671	81.007135	Chandana Pokuna, Sri Lanka	5.593419	
Polonnaruwa	Hingurakgoda	CP Pura Vidyalaya	False	False	PLNNRWHNGRKGDCPPRVDYLY		Polonnaruwa	LK-72	7.993659	81.026061	Hingurakgoda	PS-720129	8.048819	80.965751	8.014886	80.91352	Maradankadawala-Habarana-Thirukkondaiadimadu Hwy, Girithale, Sri Lanka	6.880324	
Polonnaruwa	Hingurakgoda	Rajaelagama Community Hall	False	False	PLNNRWHNGRKGDRJLGMCMMNTYHLL		Polonnaruwa	LK-72	7.993659	81.026061	Hingurakgoda	PS-720129	8.048819	80.965751	8.047316	80.961229	2XW6+WFH, Hingurakgoda, Sri Lanka	0.525338	
Polonnaruwa	Hingurakgoda	Ulpathwewa Community Hall	False	False	PLNNRWHNGRKGDLPTHWWCMMNTYHLL		Polonnaruwa	LK-72	7.993659	81.026061	Hingurakgoda	PS-720129	8.048819	80.965751	8.047316	80.961229	2XW6+WFH, Hingurakgoda, Sri Lanka	0.525338	
Polonnaruwa	Hingurakgoda	Moragaswewa Vidyalaya	False	False	PLNNRWHNGRKGDMRGSWWVDYLY		Polonnaruwa	LK-72	7.993659	81.026061	Hingurakgoda	PS-720129	8.048819	80.965751	8.032713	80.774091	Moragaswewa, Sri Lanka	21.184599	#CenterFarFromPolice
Polonnaruwa	Hingurakgoda	Suriyagama Vidyalaya	False	False	PLNNRWHNGRKGDSRYGMVDYLY		Polonnaruwa	LK-72	7.993659	81.026061	Hingurakgoda	PS-720129	8.048819	80.965751	8.044334	80.966734	Polonaruva, Hospital Junction, Hingurakgoda, Sri Lanka	0.510478	
Jaffna	Jaffna	Mobile Medical Team	False	False	JFFNJFFNMBLMDCLTM		Jaffna	LK-41	9.691792	80.098594	Jaffna	PS-410209	9.659919	80.010965					#CenterLocationUnknown
Jaffna	Jaffna	Mobile Medical Team	False	False	JFFNJFFNMBLMDCLTM		Jaffna	LK-41	9.691792	80.098594	Jaffna	PS-410209	9.659919	80.010965					#CenterLocationUnknown
Jaffna	Ilavalai	Pandathirappu Hospital	False	False	JFFNLVLPNDTHRPPHSPTL		Jaffna	LK-41	9.691792	80.098594	Ilavalai	PS-410102	9.775967	79.983146	9.780582	79.972024	QXJC+6RJ, Pandatharippu, Sri Lanka	1.322789	
Jaffna	Manippai	Manippai Hospital	False	False	JFFNMNPPMNPPHSPTL		Jaffna	LK-41	9.691792	80.098594	Manippai	PS-410210	9.727151	79.996905	9.725939	79.998028	Manipay, Sri Lanka	0.182569	
Jaffna	Kayts	MOH Office - Karainagar	False	False	JFFNKYTSMHFFCKRNGR		Jaffna	LK-41	9.691792	80.098594	Kayts	PS-410212	9.728654	79.94775	9.725097	79.99772	Sri Lanka, Manipay, Sri Lanka	5.492521	
Jaffna	Kayts	MOH Office - Kayts	False	False	JFFNKYTSMHFFCKYTS		Jaffna	LK-41	9.691792	80.098594	Kayts	PS-410212	9.728654	79.94775	9.697759	79.866366	Sri Lanka, Kayts, Sri Lanka	9.561445	
Jaffna	Wadukkotte	MOH Office - Chankanai	False	False	JFFNWDKKTTMHFFCCHNKN		Jaffna	LK-41	9.691792	80.098594	Vaddukoddai		9.728886	79.947771	9.753617	79.976004	QX3G+CCR, Sri Lanka	4.140836	
Jaffna	Chavakachcheri	MOH Office - Chavakachcheri	False	False	JFFNCHVKCHCHRMHFFCCHVKCHCHR		Jaffna	LK-41	9.691792	80.098594	Chawakachcheri	PS-410215	9.666459	80.132384	9.663455	80.166068	Dutch Rd, Chavakachcheri, Sri Lanka	3.70857	
Kilinochchi	Kilinochchi	Mobile Medical Team	False	False	KLNCHCHKLNCHCHMBLMDCLTM		Kilinochchi	LK-45	9.415742	80.30358	Kilinochchi	PS-450131	9.392265	80.407846					#CenterLocationUnknown
Kilinochchi	Pooneryn	MOH Office - Pooneryn	False	False	KLNCHCHPNRYNMHFFCPNRYN		Kilinochchi	LK-45	9.415742	80.30358	Pooneryn		9.505717	80.21101	9.507968	80.208317	G655+58P, Pooneryn, Sri Lanka	0.387256	
Mullaitivu	Mullaitivu	Mobile Medical Team	False	False	MLLTVMLLTVMBLMDCLTM		Mullaitivu	LK-44	9.167643	80.549091	Mullativu	PS-440148	9.212825	80.760159					#CenterLocationUnknown
Mullaitivu	Mullaitivu	MOH Office - Mullaitivu	False	False	MLLTVMLLTVMHFFCMLLTV		Mullaitivu	LK-44	9.167643	80.549091	Mullativu	PS-440148	9.212825	80.760159	9.261573	80.813807	Mullaittivu-Kokkilai Rd, Mullaitivu, Sri Lanka	8.0057	
Mullaitivu	Oddusuddan	MOH Office - Oddusuddan	False	False	MLLTVDDSDDNMHFFCDDSDDN		Mullaitivu	LK-44	9.167643	80.549091	Oddusudan	PS-440151	9.160983	80.652821	9.162816	80.661584	5M76+4JG, Oddusuddan, Sri Lanka	0.983634	
Mullaitivu	Pudukudiruppu	MOH Office - Pudukudiruppu	False	False	MLLTVPDKDRPPMHFFCPDKDRPP		Mullaitivu	LK-44	9.167643	80.549091	Pudukuduiruppu	PS-440149	7.00152	79.95003	9.320965	80.683013	Parantan-Mullaitivu Hwy, Velikkandal, Sri Lanka	270.317914	#CenterFarFromPolice
Mannar	Mannar	Director of Health Office	False	False	MNNRMNNRDRCTRFHLTHFFC		Mannar	LK-42	8.877429	80.088628	Mannar	PS-420138	8.978123	79.911642	8.983382	79.902565	Thalvupadu - Mannar Rd, Mannar 41000, Sri Lanka	1.156155	
Mannar	Mannar	Mobile Medical Team	False	False	MNNRMNNRMBLMDCLTM		Mannar	LK-42	8.877429	80.088628	Mannar	PS-420138	8.978123	79.911642					#CenterLocationUnknown
Mannar	Pesalai	Pesalai Hospital	False	False	MNNRPSLPSLHSPTL		Mannar	LK-42	8.877429	80.088628									#PoliceLocationUnknown
Vavuniya	Vavuniya	Mobile Medical Team	False	False	VVNYVVNYMBLMDCLTM		Vavuniya	LK-43	8.852071	80.467404	Vavuniya	PS-430119	8.754431	80.498604					#CenterLocationUnknown
Trincomalee	Trincomalee	Mobile Medical Team	False	False	TRNCMLTRNCMLMBLMDCLTM		Trincomalee	LK-53	8.551241	81.092014	Trincomalee	PS-530130	8.563946	81.234023					#CenterLocationUnknown
Trincomalee	Muttur	MOH Office – Muttur	False	False	TRNCMLMTTRMHFFCMTTR		Trincomalee	LK-53	8.551241	81.092014	Mutur	PS-530138	8.461133	81.259371	8.453916	81.264494	1 Old Batticaloa Rd, Mutur, Sri Lanka	0.980859	
Trincomalee	Kinniya	MOH Office - Kuruggankeni	False	False	TRNCMLKNNYMHFFCKRGGNKN		Trincomalee	LK-53	8.551241	81.092014	Kinnia	PS-530140	6.907289	79.863819	8.498696	81.179644	F5XH+FVC, Kinniya 31100, Sri Lanka	228.840304	#CenterFarFromPolice
Trincomalee	Kinniya	MOH Office – Kinniya	False	False	TRNCMLKNNYMHFFCKNNY		Trincomalee	LK-53	8.551241	81.092014	Kinnia	PS-530140	6.907289	79.863819	8.498696	81.179644	F5XH+FVC, Kinniya 31100, Sri Lanka	228.840304	#CenterFarFromPolice
Trincomalee	Sripura	MOH Office – Sripura	False	False	TRNCMLSRPRMHFFCSRPR		Trincomalee	LK-53	8.551241	81.092014	Sripura	PS-530136	8.929617	80.81428	8.926697	80.814799	Padavi Sripura, Padaviya - Sripura Road, Welioya, Sri Lanka	0.329869	
Trincomalee	Kuchchaveli	MOH Office - Kuchchaveli	False	False	TRNCMLKCHCHVLMHFFCKCHCHVL		Trincomalee	LK-53	8.551241	81.092014	Kuchchaweli	PS-530133	8.81895	81.100438	8.740082	81.161616	P5R6+2JQ, Kumpurupiddi, Sri Lanka	11.053646	
Trincomalee	Kuchchaveli	Divisional Hospital - Kuchchaveli	False	False	TRNCMLKCHCHVLDVSNLHSPTLKCHCHVL		Trincomalee	LK-53	8.551241	81.092014	Kuchchaweli	PS-530133	8.81895	81.100438	8.814795	81.102358	R472+WW9, Kuchchaveli, Sri Lanka	0.508064	
Trincomalee	Kuchchaveli	Divisional Hospital - Nilaveli	False	False	TRNCMLKCHCHVLDVSNLHSPTLNLVL		Trincomalee	LK-53	8.551241	81.092014	Kuchchaweli	PS-530133	8.81895	81.100438	8.681035	81.193632	M5JV+CF6, Nilaveli, Sri Lanka	18.44695	
Trincomalee	Kantale	MOH Office – Kantale	False	False	TRNCMLKNTLMHFFCKNTL		Trincomalee	LK-53	8.551241	81.092014	Kantale	PS-530241	8.356129	81.007739	8.349617	81.009107	අග්‍රබෝධි මාවත, Kantale, Sri Lanka	0.739809	
Trincomalee	Pulmoddai	Pulmoddai Base Hospital	False	False	TRNCMLPLMDDPLMDDBSHSPTL	Base Hospital - Pulmoddai	Trincomalee	LK-53	8.551241	81.092014	Pulmudai	PS-530135	6.915266	79.87829	8.941204	80.983139	WXRM+F7J, Pulmoddai, Sri Lanka	256.112801	#CenterFarFromPolice
Trincomalee	Serunuwara	MOH Office - Serunuwara	False	False	TRNCMLSRNWRMHFFCSRNWR		Trincomalee	LK-53	8.551241	81.092014	Serunuwara	PS-530244	8.321863	81.299322	8.323143	81.299894	B10, Sri Lanka	0.155671	
Trincomalee	Harbour Police	MOH Office - Trincomalee	False	False	TRNCMLHRBRPLCMHFFCTRNCML		Trincomalee	LK-53	8.551241	81.092014	Trinco Harbour Police	PS-530131	8.56705	81.231407	8.598974	81.216963	MOH Office, Farm Rd, Trincomalee, Sri Lanka	3.890062	
Trincomalee	Uppuveli	MOH Office - Uppuveli	False	False	TRNCMLPPVLMHFFCPPVL		Trincomalee	LK-53	8.551241	81.092014	Uppuweli	PS-530134	8.593614	81.21743	8.607961	81.216512	Nilaveli Rd, Trincomalee, Sri Lanka	1.599005	
Trincomalee	Ichchalampattu	MOH Office - Ichchalampattu	False	False	TRNCMLCHCHLMPTTMHFFCCHCHLMPTT	Eachchilampattu Hospital	Trincomalee	LK-53	8.551241	81.092014	Ichchalampattu		8.289549	81.359002	8.289644	81.358983	Highway, Ichchalampattu, Trincomalee, Sri Lanka	0.010772	
Trincomalee	Thambalagamuwa	MOH Office - Thambalagamuwa	False	False	TRNCMLTHMBLGMWMHFFCTHMBLGMW		Trincomalee	LK-53	8.551241	81.092014	Thambalagamuva	PS-530243	6.907289	79.863819	8.563603	81.239584	Hospital Ln, Trincomalee, Sri Lanka	238.604889	#CenterFarFromPolice
Trincomalee	Gomarankadawala	MOH Office - Gomarankadawala	False	False	TRNCMLGMRNKDWLMHFFCGMRNKDWL		Trincomalee	LK-53	8.551241	81.092014	Gomarankadawala	PS-530248	8.674487	80.967555	8.674726	80.955691	Unnamed Road, Gomarankadawala, Sri Lanka	1.304806	
Batticaloa	Kokkadichcholai	Mahaladithivu Hospital	False	False	BTTCLKKKDCHCHLMHLDTHVHSPTL		Batticaloa	LK-51	7.792772	81.486513	Kokkadicholai	PS-510112	7.715979	81.698757	7.623207	81.718327	Muthalaikudah Kanchirankudah Rd, Sri Lanka	10.542105	
Batticaloa	Vellawali	Vellawali Kakattivatte Vidyalaya	False	False	BTTCLVLLWLVLLWLKKTTVTTVDYLY		Batticaloa	LK-51	7.792772	81.486513	Vellavali	PS-510111	6.907289	79.863819	7.720143	81.700516	PPC2+362, Batticaloa, Sri Lanka	221.887623	#CenterFarFromPolice
Batticaloa	Vellawali	Sinnawatta Vidyalaya	False	False	BTTCLVLLWLSNNWTTVDYLY		Batticaloa	LK-51	7.792772	81.486513	Vellavali	PS-510111	6.907289	79.863819	7.72385	81.698238	PMFX+G7Q, Batticaloa, Sri Lanka	221.825865	#CenterFarFromPolice
Batticaloa	Kaluwanchikudy	Ondachimadam  Vidyalaya	False	False	BTTCLKLWNCHKDYNDCHMDMVDYLY		Batticaloa	LK-51	7.792772	81.486513	Kalawanchikudy	PS-510110	7.515908	81.787051	7.720143	81.700516	PPC2+362, Batticaloa, Sri Lanka	24.63901	#CenterFarFromPolice
Batticaloa	Kaluwanchikudy	Kotta Kallar Vidyalaya	False	False	BTTCLKLWNCHKDYKTTKLLRVDYLY		Batticaloa	LK-51	7.792772	81.486513	Kalawanchikudy	PS-510110	7.515908	81.787051	7.720987	81.697673	PMCX+93V, Batticaloa, Sri Lanka	24.848209	#CenterFarFromPolice
Batticaloa	Valachchenai	MOH Office - Valachchenai	False	False	BTTCLVLCHCHNMHFFCVLCHCHN		Batticaloa	LK-51	7.792772	81.486513	Valachchanai	PS-510107	7.908015	81.533004	7.912281	81.532775	WG6M+W46, Batticaloa, Sri Lanka	0.475177	
Batticaloa	Valachchenai	Valachchenai Base Hospital	False	False	BTTCLVLCHCHNVLCHCHNBSHSPTL		Batticaloa	LK-51	7.792772	81.486513	Valachchanai	PS-510107	7.908015	81.533004	7.911315	81.533046	Valaichchenai-Nasuvantivu-Navaladi Road, Sri Lanka	0.367088	
Batticaloa	Vakarai	MOH Office - Vakarai	False	False	BTTCLVKRMHFFCVKR	Divisional Hospital Vakarai	Batticaloa	LK-51	7.792772	81.486513	Wakarai	PS-510109	6.934132	79.856305	8.134552	81.435328	Trincomalee Hwy, Vakarai, Sri Lanka	219.417822	#CenterFarFromPolice
Batticaloa	Kattankudy	Jami Ul Alfar Mosque	False	False	BTTCLKTTNKDYJMLLFRMSQ		Batticaloa	LK-51	7.792772	81.486513	Kaththankudi	PS-510103	7.715979	81.698757	6.938504	79.851594	2nd Cross Street, Colombo, Sri Lanka	221.370332	#CenterFarFromPolice
Batticaloa	Eravur	Sandiveli Hospital	False	False	BTTCLRVRSNDVLHSPTL		Batticaloa	LK-51	7.792772	81.486513	Eravur	PS-510104	7.715979	81.698757	7.777289	81.602853	Trincomalee Hwy, Eravur, Sri Lanka	12.578998	
Batticaloa	Eravur	MOH Office - Chenkaladi	False	False	BTTCLRVRMHFFCCHNKLD		Batticaloa	LK-51	7.792772	81.486513	Eravur	PS-510104	7.715979	81.698757	7.783599	81.593367	Trincomalee Hwy, Chenkaladi 30350, Sri Lanka	13.837876	
Batticaloa	Eravur	Palayadithona Vidyalaya	False	False	BTTCLRVRPLYDTHNVDYLY		Batticaloa	LK-51	7.792772	81.486513	Eravur	PS-510104	7.715979	81.698757	7.785947	81.590295	Trincomalee Road, Chenkaladi, Sri Lanka	14.264135	
Batticaloa	Eravur	GN - Thewapuram	False	False	BTTCLRVRGNTHWPRM		Batticaloa	LK-51	7.792772	81.486513	Eravur	PS-510104	7.715979	81.698757	7.776897	81.604203	Eravur, Sri Lanka	12.430415	
Batticaloa	Vavunathivu	Vavunathivu Clinic	False	False	BTTCLVVNTHVVVNTHVCLNC		Batticaloa	LK-51	7.792772	81.486513	Vavunathive	PS-510102	6.933075	79.857181	7.716638	81.700109	Vavunathivu, Batticaloa, Sri Lanka	221.20723	#CenterFarFromPolice
Batticaloa	Vavunathivu	Navatkadu Clinic	False	False	BTTCLVVNTHVNVTKDCLNC		Batticaloa	LK-51	7.792772	81.486513	Vavunathive	PS-510102	6.933075	79.857181	7.713686	81.640546	Navatladu, Batticaloa, Sri Lanka	215.05111	#CenterFarFromPolice
Batticaloa	Vavunathivu	Panchenai Clinic	False	False	BTTCLVVNTHVPNCHNCLNC		Batticaloa	LK-51	7.792772	81.486513	Vavunathive	PS-510102	6.933075	79.857181	7.716638	81.700109	Vavunathivu, Batticaloa, Sri Lanka	221.20723	#CenterFarFromPolice
Batticaloa	Vavunathivu	Pavakkodichenai Clinic	False	False	BTTCLVVNTHVPVKKDCHNCLNC		Batticaloa	LK-51	7.792772	81.486513	Vavunathive	PS-510102	6.933075	79.857181	7.708032	81.690622	Hospital Ln, Batticaloa 30000, Sri Lanka	219.870447	#CenterFarFromPolice
Batticaloa	Vavunathivu	Pudumandapaththadi Clinic	False	False	BTTCLVVNTHVPDMNDPTHTHDCLNC		Batticaloa	LK-51	7.792772	81.486513	Vavunathive	PS-510102	6.933075	79.857181	7.708032	81.690622	Hospital Ln, Batticaloa 30000, Sri Lanka	219.870447	#CenterFarFromPolice
Batticaloa	Vavunathivu	Kannankuda Clinic	False	False	BTTCLVVNTHVKNNNKDCLNC		Batticaloa	LK-51	7.792772	81.486513	Vavunathive	PS-510102	6.933075	79.857181	7.708032	81.690622	Hospital Ln, Batticaloa 30000, Sri Lanka	219.870447	#CenterFarFromPolice
Batticaloa	Vavunathivu	Kothiyapulai Clinic	False	False	BTTCLVVNTHVKTHYPLCLNC		Batticaloa	LK-51	7.792772	81.486513	Vavunathive	PS-510102	6.933075	79.857181	7.708032	81.690622	Hospital Ln, Batticaloa 30000, Sri Lanka	219.870447	#CenterFarFromPolice
Batticaloa	Vavunathivu	Mandapathadi Hospital	False	False	BTTCLVVNTHVMNDPTHDHSPTL		Batticaloa	LK-51	7.792772	81.486513	Vavunathive	PS-510102	6.933075	79.857181	7.719015	81.701193	91 Pioneer Rd, Batticaloa, Sri Lanka	221.420894	#CenterFarFromPolice
Batticaloa	Arayampathy	MOH Office - Arayampathy	False	False	BTTCLRYMPTHYMHFFCRYMPTHY		Batticaloa	LK-51	7.792772	81.486513	Arayampathy		7.670333	81.745783	7.672862	81.735019	MPFP+42R, Sri Lanka	1.21945	
Batticaloa	Arayampathy	RKM Vidyalaya	False	False	BTTCLRYMPTHYRKMVDYLY		Batticaloa	LK-51	7.792772	81.486513	Arayampathy		7.670333	81.745783	7.66884	81.72948	Old kalmunai road, Sri Lanka	1.804814	
Batticaloa	Karadiyanaru	Koduwamadu Clinic	False	False	BTTCLKRDYNRKDWMDCLNC		Batticaloa	LK-51	7.792772	81.486513	Karadiyanaru	PS-510105	7.701992	81.537252	7.700216	81.539779	PG2Q+3WJ, Karadiyanaru, Sri Lanka	0.341482	
Batticaloa	Ayithiyamalai	Unnachchiya Clinic	False	False	BTTCLYTHYMLNNCHCHYCLNC		Batticaloa	LK-51	7.792772	81.486513	Aiththamalai	PS-510106	6.907289	79.863819	7.673587	81.570262	Ayithiyamalai, Batticaloa, Sri Lanka	206.666704	#CenterFarFromPolice
Batticaloa	Ayithiyamalai	Ayithamalai Clinic	False	False	BTTCLYTHYMLYTHMLCLNC		Batticaloa	LK-51	7.792772	81.486513	Aiththamalai	PS-510106	6.907289	79.863819	7.708032	81.690622	Hospital Ln, Batticaloa 30000, Sri Lanka	220.345845	#CenterFarFromPolice
Batticaloa	Ayithiyamalai	Mahilawattuwan Clinic	False	False	BTTCLYTHYMLMHLWTTWNCLNC		Batticaloa	LK-51	7.792772	81.486513	Aiththamalai	PS-510106	6.907289	79.863819	7.708032	81.690622	Hospital Ln, Batticaloa 30000, Sri Lanka	220.345845	#CenterFarFromPolice
Ampara	Chavalakade	5th Colony Health Centre	False	False	MPRCHVLKDTHCLNYHLTHCNTR		Ampara	LK-52	7.23699	81.550391	Chawalakade	PS-520125	7.413559	81.776822	7.418836	81.781436	Chavalakade, Sri Lanka	0.776867	
Ampara	Karaitivu	MOH Office – Karaitivu	False	False	MPRKRTVMHFFCKRTV		Ampara	LK-52	7.23699	81.550391	Karaitivu		9.744059	79.870587	7.377712	81.838796	Colombo-Ratnapura-Wellawaya-Batticaloa Highway, Karativu 32250, Sri Lanka	340.788666	#CenterFarFromPolice
Ampara	Karaitivu	Mavadipalli Health Centre	False	False	MPRKRTVMVDPLLHLTHCNTR		Ampara	LK-52	7.23699	81.550391	Karaitivu		9.744059	79.870587	7.372549	81.824772	Karativu-Ampara Hwy, Karaitivu, Sri Lanka	340.256929	#CenterFarFromPolice
Ampara	Pottuvil	Pottuvil Base Hospital	False	False	MPRPTTVLPTTVLBSHSPTL		Ampara	LK-52	7.23699	81.550391	Pothuvil	PS-520128	6.878387	81.826859	6.876098	81.830463	Main Street Colombo - Batticaloa Hwy, Pottuvil 32500, Sri Lanka	0.47246	
Ampara	Pottuvil	MOH Office - Pottuvil	False	False	MPRPTTVLMHFFCPTTVL		Ampara	LK-52	7.23699	81.550391	Pothuvil	PS-520128	6.878387	81.826859	6.877076	81.828969	B374, Pottuvil, Sri Lanka	0.274874	
Ampara	Pottuvil	Nuraniya Vidyalaya	False	False	MPRPTTVLNRNYVDYLY		Ampara	LK-52	7.23699	81.550391	Pothuvil	PS-520128	6.878387	81.826859	6.873639	81.838108	VRFQ+F65, Pottuvil, Sri Lanka	1.349827	
Ampara	Pottuvil	Al Kalam Vidyalaya	False	False	MPRPTTVLLKLMVDYLY		Ampara	LK-52	7.23699	81.550391	Pothuvil	PS-520128	6.878387	81.826859	6.873537	81.823156	VRFF+C76, Pottuvil, Sri Lanka	0.676934	
Ampara	Pottuvil	Panama Viharaya	False	False	MPRPTTVLPNMVHRY		Ampara	LK-52	7.23699	81.550391	Pothuvil	PS-520128	6.878387	81.826859	6.867891	81.839008	Muhudu Maha Vihara Mawatha, Pottuvil, Sri Lanka	1.778462	
Ampara	Pottuvil	Al Isaq Vidyalaya	False	False	MPRPTTVLLSQVDYLY		Ampara	LK-52	7.23699	81.550391	Pothuvil	PS-520128	6.878387	81.826859	7.296968	81.850033	7VW2+Q2M, Oluvil, Sri Lanka	46.628908	#CenterFarFromPolice
Ampara	Dehiattakandiya	Thuwaragala Vidyalaya	False	False	MPRDHTTKNDYTHWRGLVDYLY		Ampara	LK-52	7.23699	81.550391	Dehiaththakandiya	PS-520121	7.672072	81.044241	7.688447	81.079553	M3QH+9RF, Bandanagala, Sri Lanka	4.297571	
Ampara	Dehiattakandiya	Kudagala Vidyalaya	False	False	MPRDHTTKNDYKDGLVDYLY		Ampara	LK-52	7.23699	81.550391	Dehiaththakandiya	PS-520121	7.672072	81.044241	7.67128	81.046484	Dehiattakandiya, Sri Lanka	0.26248	
Ampara	Dehiattakandiya	Samanalathenna Vidyalaya	False	False	MPRDHTTKNDYSMNLTHNNVDYLY		Ampara	LK-52	7.23699	81.550391	Dehiaththakandiya	PS-520121	7.672072	81.044241	7.66769	81.080464	M39J+35G, Balukekulakada, Sri Lanka	4.02267	
Ampara	Dehiattakandiya	Sooriyapokuna Vidyalaya	False	False	MPRDHTTKNDYSRYPKNVDYLY		Ampara	LK-52	7.23699	81.550391	Dehiaththakandiya	PS-520121	7.672072	81.044241	7.662275	81.103263	Unnamed Road, Sri Lanka	6.59694	
Ampara	Dehiattakandiya	Pussalavinna Vidyalaya	False	False	MPRDHTTKNDYPSSLVNNVDYLY		Ampara	LK-52	7.23699	81.550391	Dehiaththakandiya	PS-520121	7.672072	81.044241	7.668027	81.047433	M29W+6X7, Dehiattakandiya, Sri Lanka	0.571178	
Ampara	Dehiattakandiya	Henanigala North Vidyalaya	False	False	MPRDHTTKNDYHNNGLNRTHVDYLY		Ampara	LK-52	7.23699	81.550391	Dehiaththakandiya	PS-520121	7.672072	81.044241	7.588722	81.066877	H3Q8+FQJ, Sri Lanka	9.600995	
Ampara	Dehiattakandiya	Henanigala South Vidyalaya	False	False	MPRDHTTKNDYHNNGLSTHVDYLY		Ampara	LK-52	7.23699	81.550391	Dehiaththakandiya	PS-520121	7.672072	81.044241	7.588722	81.066877	H3Q8+FQJ, Sri Lanka	9.600995	
Ampara	Dehiattakandiya	Kelegama Viharaya	False	False	MPRDHTTKNDYKLGMVHRY		Ampara	LK-52	7.23699	81.550391	Dehiaththakandiya	PS-520121	7.672072	81.044241	7.66769	81.080464	M39J+35G, Balukekulakada, Sri Lanka	4.02267	
Ampara	Dehiattakandiya	Wewgama Vidyalaya	False	False	MPRDHTTKNDYWWGMVDYLY		Ampara	LK-52	7.23699	81.550391	Dehiaththakandiya	PS-520121	7.672072	81.044241	7.554659	81.03733	H23P+VW8, Wewugama, Sri Lanka	13.082036	
Ampara	Dehiattakandiya	Diyaviddagama Vidyalaya	False	False	MPRDHTTKNDYDYVDDGMVDYLY		Ampara	LK-52	7.23699	81.550391	Dehiaththakandiya	PS-520121	7.672072	81.044241	7.196723	81.660143	5MW6+M3J, Damana, Sri Lanka	86.082032	#CenterFarFromPolice
Ampara	Dehiattakandiya	Wewmedagama Vidyalaya	False	False	MPRDHTTKNDYWWMDGMVDYLY		Ampara	LK-52	7.23699	81.550391	Dehiaththakandiya	PS-520121	7.672072	81.044241	7.533823	81.045377	G2MW+G5C, Diyawiddagama, Sri Lanka	15.377923	
Ampara	Dehiattakandiya	Ihalagama Vidyalaya	False	False	MPRDHTTKNDYHLGMVDYLY		Ampara	LK-52	7.23699	81.550391	Dehiaththakandiya	PS-520121	7.672072	81.044241	7.62279	81.05119	J3F2+4F8, Sandunpura, Sri Lanka	5.534899	
Ampara	Dehiattakandiya	Pahalagama Viharaya	False	False	MPRDHTTKNDYPHLGMVHRY		Ampara	LK-52	7.23699	81.550391	Dehiaththakandiya	PS-520121	7.672072	81.044241	7.594037	81.024321	H2VF+JP8, Diyawiddagama, Sri Lanka	8.953349	
Ampara	Dehiattakandiya	Kudagama Vidyalaya	False	False	MPRDHTTKNDYKDGMVDYLY		Ampara	LK-52	7.23699	81.550391	Dehiaththakandiya	PS-520121	7.672072	81.044241	7.578603	81.040792	Kudagama Vidyalaya, Sri Lanka	10.403492	
Ampara	Dehiattakandiya	Dolakanda Viharaya	False	False	MPRDHTTKNDYDLKNDVHRY		Ampara	LK-52	7.23699	81.550391	Dehiaththakandiya	PS-520121	7.672072	81.044241	7.66769	81.080464	M39J+35G, Balukekulakada, Sri Lanka	4.02267	
Ampara	Dehiattakandiya	Paragaswewa Vidyalaya	False	False	MPRDHTTKNDYPRGSWWVDYLY		Ampara	LK-52	7.23699	81.550391	Dehiaththakandiya	PS-520121	7.672072	81.044241	7.719115	81.033065	P29M+J6W, Bandanagala, Sri Lanka	5.375644	
Ampara	Dehiattakandiya	Namalgamuwa Vidyalaya	False	False	MPRDHTTKNDYNMLGMWVDYLY		Ampara	LK-52	7.23699	81.550391	Dehiaththakandiya	PS-520121	7.672072	81.044241	7.196723	81.660143	5MW6+M3J, Damana, Sri Lanka	86.082032	#CenterFarFromPolice
Ampara	Dehiattakandiya	Hungamalagama Vidyalaya	False	False	MPRDHTTKNDYHNGMLGMVDYLY		Ampara	LK-52	7.23699	81.550391	Dehiaththakandiya	PS-520121	7.672072	81.044241	7.697204	81.017168	hungamalagama, Dehiattakandiya, Sri Lanka	4.089053	
Ampara	Dehiattakandiya	Rideella Viharaya	False	False	MPRDHTTKNDYRDLLVHRY		Ampara	LK-52	7.23699	81.550391	Dehiaththakandiya	PS-520121	7.672072	81.044241	7.690307	81.022949	M2RF+45G, Dehiattakandiya, Sri Lanka	3.102027	
Ampara	Dehiattakandiya	Damunnaruwa Vidyalaya	False	False	MPRDHTTKNDYDMNNRWVDYLY		Ampara	LK-52	7.23699	81.550391	Dehiaththakandiya	PS-520121	7.672072	81.044241	7.632387	81.047864	J2JX+X45, Sandunpura, Sri Lanka	4.432188	
Ampara	Dehiattakandiya	Muruthgaspitiy vidyalaya	False	False	MPRDHTTKNDYMRTHGSPTYVDYLY		Ampara	LK-52	7.23699	81.550391	Dehiaththakandiya	PS-520121	7.672072	81.044241	7.196723	81.660143	5MW6+M3J, Damana, Sri Lanka	86.082032	#CenterFarFromPolice
Ampara	Dehiattakandiya	Lathpandura Vidyalaya	False	False	MPRDHTTKNDYLTHPNDRVDYLY		Ampara	LK-52	7.23699	81.550391	Dehiaththakandiya	PS-520121	7.672072	81.044241	6.524242	80.214005	Lathpandura, Sri Lanka	157.155454	#CenterFarFromPolice
Ampara	Dehiattakandiya	Mawanagama Vidyalaya	False	False	MPRDHTTKNDYMWNGMVDYLY		Ampara	LK-52	7.23699	81.550391	Dehiaththakandiya	PS-520121	7.672072	81.044241	7.596979	81.152698	Mawanagama, Sri Lanka	14.585222	
Ampara	Dehiattakandiya	Bambarawana Vidyalaya	False	False	MPRDHTTKNDYBMBRWNVDYLY		Ampara	LK-52	7.23699	81.550391	Dehiaththakandiya	PS-520121	7.672072	81.044241	7.608425	81.065057	J358+927, Sandunpura, Sri Lanka	7.442122	
Ampara	Dehiattakandiya	Nagasthalawa Vidyalaya	False	False	MPRDHTTKNDYNGSTHLWVDYLY		Ampara	LK-52	7.23699	81.550391	Dehiaththakandiya	PS-520121	7.672072	81.044241	7.621732	81.028883	J2CH+MHR, Sri Lanka	5.849682	
Ampara	Dehiattakandiya	Wiyapura Vidyalaya	False	False	MPRDHTTKNDYWYPRVDYLY		Ampara	LK-52	7.23699	81.550391	Dehiaththakandiya	PS-520121	7.672072	81.044241	7.210268	81.845672	6R6W+473, Akkaraipattu, Sri Lanka	102.233352	#CenterFarFromPolice
Ampara	Dehiattakandiya	Sadamadulla Vidyalaya	False	False	MPRDHTTKNDYSDMDLLVDYLY		Ampara	LK-52	7.23699	81.550391	Dehiaththakandiya	PS-520121	7.672072	81.044241	7.210268	81.845672	6R6W+473, Akkaraipattu, Sri Lanka	102.233352	#CenterFarFromPolice
Ampara	Dehiattakandiya	Webadagama Viharaya	False	False	MPRDHTTKNDYWBDGMVHRY		Ampara	LK-52	7.23699	81.550391	Dehiaththakandiya	PS-520121	7.672072	81.044241	7.66769	81.080464	M39J+35G, Balukekulakada, Sri Lanka	4.02267	
Ampara	Thirukkovil	Mobile Vaccination	False	False	MPRTHRKKVLMBLVCCNTN		Ampara	LK-52	7.23699	81.550391	Thirukkovil	PS-520127	7.113998	81.852219					#CenterLocationUnknown
Ampara	Akkaraipattu	Nuraniya Church	False	False	MPRKKRPTTNRNYCHRCH		Ampara	LK-52	7.23699	81.550391	Akkaraipattu	PS-520126	7.216084	81.853254	7.217154	81.849717	Sagama Rd, Akkaraipattu, Sri Lanka	0.408046	
Ampara	Akkaraipattu	Al Siraj Vidyalaya	False	False	MPRKKRPTTLSRJVDYLY		Ampara	LK-52	7.23699	81.550391	Akkaraipattu	PS-520126	7.216084	81.853254	7.219333	81.85313	Akkaraipattu, Sri Lanka	0.361645	
Ampara	Akkaraipattu	Badur Mosque	False	False	MPRKKRPTTBDRMSQ		Ampara	LK-52	7.23699	81.550391	Akkaraipattu	PS-520126	7.216084	81.853254	7.21798	81.859573	Deens Road, Akkaraipattu, Sri Lanka	0.728487	
Ampara	Akkaraipattu	MOH Office - Alayadiwembuwa	False	False	MPRKKRPTTMHFFCLYDWMBW		Ampara	LK-52	7.23699	81.550391	Akkaraipattu	PS-520126	7.216084	81.853254	7.228134	81.851123	6VH2+7C5, Akkaraipattu, Sri Lanka	1.360772	
Ampara	Akkaraipattu	Kolavil Vinayagar Vidyalaya	False	False	MPRKKRPTTKLVLVNYGRVDYLY		Ampara	LK-52	7.23699	81.550391	Akkaraipattu	PS-520126	7.216084	81.853254	7.198526	81.849358	Akkaraipattu-Sagamam Rd, Sri Lanka	1.999736	
Ampara	Akkaraipattu	Addalachchenai National College	False	False	MPRKKRPTTDDLCHCHNNTNLCLLG		Ampara	LK-52	7.23699	81.550391	Akkaraipattu	PS-520126	7.216084	81.853254	7.248937	81.857951	Addalaichenai, Sri Lanka	3.690806	
Ampara	Akkaraipattu	Oluvil Hamra Vidyalaya	False	False	MPRKKRPTTLVLHMRVDYLY		Ampara	LK-52	7.23699	81.550391	Akkaraipattu	PS-520126	7.216084	81.853254	7.290277	81.857414	7VR4+4X7, Oluvil, Sri Lanka	8.265231	
Ampara	Akkaraipattu	MOH Office - Addalachchenai	False	False	MPRKKRPTTMHFFCDDLCHCHN		Ampara	LK-52	7.23699	81.550391	Akkaraipattu	PS-520126	7.216084	81.853254	7.260916	81.853493	7V63+999, Addalaichenai, Sri Lanka	4.986726	
Ampara	Akkaraipattu	Palamunai Muslim College	False	False	MPRKKRPTTPLMNMSLMCLLG		Ampara	LK-52	7.23699	81.550391	Akkaraipattu	PS-520126	7.216084	81.853254	7.272888	81.848374	Jummah Grand Mosque, Palamunai, Sri Lanka	6.341203	
Ampara	Akkaraipattu	Addalachchenai Hospital	False	False	MPRKKRPTTDDLCHCHNHSPTL		Ampara	LK-52	7.23699	81.550391	Akkaraipattu	PS-520126	7.216084	81.853254	7.253287	81.853598	Colombo - Batticaloa Hwy, Addalachchena, Sri Lanka	4.138258	
Ampara	Kalmunai	MOH Office - Kalmunai North	False	False	MPRKLMNMHFFCKLMNNRTH		Ampara	LK-52	7.23699	81.550391	Kalmunai	PS-520123	7.414289	81.825006	7.411712	81.838462	CR6Q+M9P, Kalmunai 32300, Sri Lanka	1.511625	
Ampara	Kalmunai	Mobile Vaccination	False	False	MPRKLMNMBLVCCNTN		Ampara	LK-52	7.23699	81.550391	Kalmunai	PS-520123	7.414289	81.825006					#CenterLocationUnknown
Ampara	Kalmunai	Periyanilawa Clinic	False	False	MPRKLMNPRYNLWCLNC		Ampara	LK-52	7.23699	81.550391	Kalmunai	PS-520123	7.414289	81.825006	7.420034	81.82232	hospital near, Kalmunai 32300, Sri Lanka	0.704353	
Ampara	Kalmunai	Maradamunai Almanar Central College	False	False	MPRKLMNMRDMNLMNRCNTRLCLLG		Ampara	LK-52	7.23699	81.550391	Kalmunai	PS-520123	7.414289	81.825006	7.436331	81.812701	Maruthamunai, Sri Lanka	2.802316	
Ampara	Kalmunai	Kalmunai Al Mishba Maha Vidyalaya	False	False	MPRKLMNKLMNLMSHBMHVDYLY		Ampara	LK-52	7.23699	81.550391	Kalmunai	PS-520123	7.414289	81.825006	7.401673	81.840708	Kalmunai 32300, Sri Lanka	2.22909	
Ampara	Kalmunai	Narappattimunai Al Ashka Maha Vidyalaya	False	False	MPRKLMNNRPPTTMNLSHKMHVDYLY		Ampara	LK-52	7.23699	81.550391	Kalmunai	PS-520123	7.414289	81.825006	7.414638	81.81151	CR76+VJ2, Kalmunai, Sri Lanka	1.489112	
Ampara	Saindamarudu	APC Clinic	False	False	MPRSNDMRDPCCLNC		Ampara	LK-52	7.23699	81.550391	Saindamarudu		7.397352	81.842377	7.298334	81.690841	Dharmapala Mawatha, Ampara, Sri Lanka	20.018935	#CenterFarFromPolice
Ampara	Saindamarudu	Saindamarudu Hospital	False	False	MPRSNDMRDSNDMRDHSPTL		Ampara	LK-52	7.23699	81.550391	Saindamarudu		7.397352	81.842377	6.900252	79.87618	08 Elvitigala Mawatha, Colombo 00800, Sri Lanka	223.932389	#CenterFarFromPolice
Ampara	Saindamarudu	MOH Office - Saindamarudu	False	False	MPRSNDMRDMHFFCSNDMRD		Ampara	LK-52	7.23699	81.550391	Saindamarudu		7.397352	81.842377	7.939573	81.000275	Thamankaduwa, Sri Lanka	110.700687	#CenterFarFromPolice
Ampara	Sammanthurai	Miranagar Health Centre	False	False	MPRSMMNTHRMRNGRHLTHCNTR		Ampara	LK-52	7.23699	81.550391	Samanthurai	PS-520124	7.365785	81.810859	7.359802	81.793874	Vilinaiyadi Rd, Sammanthurai, Sri Lanka	1.988336	
Ampara	Sammanthurai	Vavalodai Health Centre	False	False	MPRSMMNTHRVVLDHLTHCNTR		Ampara	LK-52	7.23699	81.550391	Samanthurai	PS-520124	7.365785	81.810859	7.359802	81.793874	Vilinaiyadi Rd, Sammanthurai, Sri Lanka	1.988336	
Ampara	Sammanthurai	Arasady Health Centre	False	False	MPRSMMNTHRRSDYHLTHCNTR		Ampara	LK-52	7.23699	81.550391	Samanthurai	PS-520124	7.365785	81.810859	7.368169	81.812056	Hospital Rd, Sammanthurai, Sri Lanka	0.296229	
Ampara	Sammanthurai	Attapalam Health Centre	False	False	MPRSMMNTHRTTPLMHLTHCNTR		Ampara	LK-52	7.23699	81.550391	Samanthurai	PS-520124	7.365785	81.810859	7.359802	81.793874	Vilinaiyadi Rd, Sammanthurai, Sri Lanka	1.988336	
Ampara	Sammanthurai	Sammanthurai Base Hospital	False	False	MPRSMMNTHRSMMNTHRBSHSPTL		Ampara	LK-52	7.23699	81.550391	Samanthurai	PS-520124	7.365785	81.810859	7.368355	81.813042	9R96+MWM, Hospital Rd, Sammanthurai, Sri Lanka	0.373773	
Ampara	Sammanthurai	Town Hall - Sammanthurai	False	False	MPRSMMNTHRTWNHLLSMMNTHR		Ampara	LK-52	7.23699	81.550391	Samanthurai	PS-520124	7.365785	81.810859	7.363356	81.804123	9R73+8JX, Sammanthurai, Sri Lanka	0.790657	
Ampara	Sammanthurai	Malwatta Hospital	False	False	MPRSMMNTHRMLWTTHSPTL		Ampara	LK-52	7.23699	81.550391	Samanthurai	PS-520124	7.365785	81.810859	7.368355	81.813042	9R96+MWM, Hospital Rd, Sammanthurai, Sri Lanka	0.373773	
Ampara	Sammanthurai	Al Arshath College - Sammanthurai	False	False	MPRSMMNTHRLRSHTHCLLGSMMNTHR		Ampara	LK-52	7.23699	81.550391	Samanthurai	PS-520124	7.365785	81.810859	7.372726	81.802532	9RF3+32V, Sammanthurai, Sri Lanka	1.19992	
Ampara	Sammanthurai	Al Azhar Maha Vidyalaya - Sammanthurai	False	False	MPRSMMNTHRLZHRMHVDYLYSMMNTHR		Ampara	LK-52	7.23699	81.550391	Samanthurai	PS-520124	7.365785	81.810859	7.35018	81.80359	Kallarichchel 02, Sammanthurai, Sri Lanka	1.912014	
