district	police	center	dose1	dose2	fuzzy_key	alt_name	district_name_norm	district_id	district_lat	district_lng	ps_name_norm	ps_id	ps_lat	ps_lng	lat	lng	formatted_address	dis_center_to_police	tags
Colombo	Cinnamon Gardens	Viharamahadevi Park	True	True	CLMBCNNMNGRDNSVHRMHDVPRK		Colombo	LK-11	6.869636	80.019598	Cinnamon Garden	PS-110324	6.907289	79.863819	6.913391	79.86174	Viharamahadevi Park, Colombo, Sri Lanka	0.716497	
Colombo	Thalangama	Diyatha Uyana	True	True	CLMBTHLNGMDYTHYN		Colombo	LK-11	6.869636	80.019598	Thalangama	PS-110466	6.91089	79.929325	6.904575	79.909831	Diyatha Uyana, B240, Sri Jayawardenepura Kotte, Sri Lanka	2.264281	
Colombo	Narahenpita	Army Headquarters Mobile Team	False	False	CLMBNRHNPTRMYHDQRTRSMBLTM		Colombo	LK-11	6.869636	80.019598	Narahenpita	PS-110321	6.891832	79.876715					#CenterLocationUnknown
Colombo	Narahenpita	Army Hospital Narahenpita	False	False	CLMBNRHNPTRMYHSPTLNRHNPT		Colombo	LK-11	6.869636	80.019598	Narahenpita	PS-110321	6.891832	79.876715	6.900252	79.87618	08 Elvitigala Mawatha, Colombo 00800, Sri Lanka	0.938417	
Colombo	Maradana	Mobile Medical Team	True	True	CLMBMRDNMBLMDCLTM		Colombo	LK-11	6.869636	80.019598	Maradana	PS-110107	6.927939	79.865471					#CenterLocationUnknown
Colombo	Maradana	Colombo National Hospital	False	False	CLMBMRDNCLMBNTNLHSPTL		Colombo	LK-11	6.869636	80.019598	Maradana	PS-110107	6.927939	79.865471	6.918743	79.868992	Colombo 00700, Sri Lanka	1.094265	
Colombo	Boralesgamuwa	Kotelawala Defence Hospital	False	True	CLMBBRLSGMWKTLWLDFNCHSPTL		Colombo	LK-11	6.869636	80.019598	Boralesgamuwa	PS-110464	6.841331	79.901255	6.82518	79.907167	RWG4+3VF, Boralesgamuwa, Sri Lanka	1.911444	
Colombo	Boralesgamuwa	MOH Office - Werahera	False	False	CLMBBRLSGMWMHFFCWRHR		Colombo	LK-11	6.869636	80.019598	Boralesgamuwa	PS-110464	6.841331	79.901255	6.833094	79.905583	RWM4+66P, Boralesgamuwa, Sri Lanka	1.033386	
Colombo	Grandpass	Sugathadasa Outdoor Stadium	False	False	CLMBGRNDPSSSGTHDSTDRSTDM		Colombo	LK-11	6.869636	80.019598	Grandpass	PS-110215	6.949052	79.872983	6.94806	79.868842	Prince of Wales Ave, Colombo 01400, Sri Lanka	0.470345	
Colombo	Dehiwala	MOH Office - Dehiwala	False	False	CLMBDHWLMHFFCDHWL		Colombo	LK-11	6.869636	80.019598	Dehiwala	PS-110580	6.850088	79.871696	6.861346	79.865943	VV68+G9P, Dehiwala-Mount Lavinia, Sri Lanka	1.404177	
Colombo	Borella	St. Luke's Church - Borella	False	False	CLMBBRLLSTLKSCHRCHBRLL		Colombo	LK-11	6.869636	80.019598	Borella	PS-110323	6.915266	79.87829	6.918035	79.874548	1091 Gnanartha Pradeepa Mawatha, Colombo 00800, Sri Lanka	0.515354	
Colombo	Wellawatta	MOH Office - Wellawatta	False	False	CLMBWLLWTTMHFFCWLLWTT		Colombo	LK-11	6.869636	80.019598	Wellawatta	PS-110320	6.873107	79.86167	6.874483	79.861558	235 Galle Rd, Colombo, Sri Lanka	0.153551	
Colombo	Fort	Navy Headquarters	False	False	CLMBFRTNVYHDQRTRS		Colombo	LK-11	6.869636	80.019598	Fort	PS-110105	6.9334	79.842895	6.936952	79.842104	WRPR+QRQ, Colombo, Sri Lanka	0.404627	
Colombo	Wellampitiya	MOH Office - Kolonnawa	False	False	CLMBWLLMPTYMHFFCKLNNW		Colombo	LK-11	6.869636	80.019598	Wellampitiya	PS-110465	6.937514	79.896298	6.938303	79.889664	25 Pansalhena 1st Ln, 10600, Sri Lanka	0.737734	
Colombo	Mulleriyawa	MOH Office - Gothatuwa	False	False	CLMBMLLRYWMHFFCGTHTW		Colombo	LK-11	6.869636	80.019598	Mulleriyawa	PS-110469	6.927187	79.929108	6.922088	79.916237	Mandavila Rd, Kotikawatta, Sri Lanka	1.530186	
Colombo	Kaduwela	MOH Office - Kaduwela	False	False	CLMBKDWLMHFFCKDWL		Colombo	LK-11	6.869636	80.019598	Kaduwela		6.936234	79.970183	6.934127	79.984398	B263, Kaduwela, Sri Lanka	1.586964	
Colombo	Kosgama	Kosgama Hospital	False	False	CLMBKSGMKSGMHSPTL		Colombo	LK-11	6.869636	80.019598	Kosgama	PS-920227	6.946597	80.137869	6.940956	80.124888	Salawa-Akarawita, 10730, Sri Lanka	1.564606	
Colombo	Fore shore	MOH Office - Jinthupitiya	False	False	CLMBFRSHRMHFFCJNTHPTY		Colombo	LK-11	6.869636	80.019598	Fore shore	PS-110210	6.949589	79.857355	6.943258	79.859238	No.27 Vivekananda Hill, Colombo 01300, Sri Lanka	0.734247	
Gampaha	Gampaha	Mobile Medical Team	True	True	GMPHGMPHMBLMDCLTM		Gampaha	LK-12	7.123598	80.018508	Gampaha	PS-120237	7.087765	80.01228					#CenterLocationUnknown
Gampaha	Gampaha	MOH Office - Gampaha	False	False	GMPHGMPHMHFFCGMPH		Gampaha	LK-12	7.123598	80.018508	Gampaha	PS-120237	7.087765	80.01228	7.090643	80.002094	Colombo Rd, Gampaha, Sri Lanka	1.16901	
Gampaha	Kadawata	MOH Office - Mahara	False	False	GMPHKDWTMHFFCMHR		Gampaha	LK-12	7.123598	80.018508	Kadawatha	PS-120136	7.00152	79.95003	7.020757	79.973481	Mahara, Eldeniya, Sri Lanka	3.358732	
Gampaha	Kadawata	Dalupitiya Maternity Clinic	False	False	GMPHKDWTDLPTYMTRNTYCLNC		Gampaha	LK-12	7.123598	80.018508	Kadawatha	PS-120136	7.00152	79.95003	6.995495	79.935121	Siri Niketharama Mawatha, Sri Lanka	1.777169	
Gampaha	Pugoda	MOH Office - Dompe	False	False	GMPHPGDMHFFCDMP		Gampaha	LK-12	7.123598	80.018508	Pugoda	PS-120241	6.98283	80.111189	6.976767	80.117422	Dompe, Pugoda-Mandawala Rd, Pugoda, Sri Lanka	0.963513	
Gampaha	Ganemulla	Dharmasiriwardanaramaya	False	False	GMPHGNMLLDHRMSRWRDNRMY		Gampaha	LK-12	7.123598	80.018508	Ganemulla	PS-120242	7.066804	79.959751	7.062396	79.966831	Ganemulla, Sri Lanka	0.922595	
Gampaha	Minuwangoda	Dagonna	False	False	GMPHMNWNGDDGNN		Gampaha	LK-12	7.123598	80.018508	Minuwangoda	PS-120238	7.174215	79.957874	7.210815	79.937731	Dagonna Rd, Sri Lanka	4.638351	
Gampaha	Minuwangoda	MOH Office - Minuwangoda	False	False	GMPHMNWNGDMHFFCMNWNGD		Gampaha	LK-12	7.123598	80.018508	Minuwangoda	PS-120238	7.174215	79.957874	7.17227	79.956823	Katunayake-Veyangoda Rd, Minuwangoda, Sri Lanka	0.245525	
Gampaha	Minuwangoda	Paliyatiyana Community Hall	False	False	GMPHMNWNGDPLYTYNCMMNTYHLL		Gampaha	LK-12	7.123598	80.018508	Minuwangoda	PS-120238	7.174215	79.957874	7.172714	80.004314	Paliyatiyana, Gampaha - Marandagahamula Rd, Minuwangoda 11102, Sri Lanka	5.1278	
Gampaha	Minuwangoda	Horampella Viharaya	False	False	GMPHMNWNGDHRMPLLVHRY		Gampaha	LK-12	7.123598	80.018508	Minuwangoda	PS-120238	7.174215	79.957874	7.189012	79.984445	Kirindiwita - Assennawatte Rd, Gampaha, Sri Lanka	3.362629	
Gampaha	Divulapitiya	MOH Office - Divulapitiya	False	False	GMPHDVLPTYMHFFCDVLPTY		Gampaha	LK-12	7.123598	80.018508	Diulapitiya	PS-120355	7.174215	79.957874	7.215486	80.013606	6287+5CX, Divulapitiya, Sri Lanka	7.67456	
Gampaha	Divulapitiya	Dunagaha Maternity Clinic	False	False	GMPHDVLPTYDNGHMTRNTYCLNC		Gampaha	LK-12	7.123598	80.018508	Diulapitiya	PS-120355	7.174215	79.957874	7.233314	79.973984	6XMF+8HH, Dunagaha, Sri Lanka	6.809721	
Gampaha	Divulapitiya	Wekada Maternity Clinic	False	False	GMPHDVLPTYWKDMTRNTYCLNC		Gampaha	LK-12	7.123598	80.018508	Diulapitiya	PS-120355	7.174215	79.957874	7.09136	80.000709	A33, Gampaha, Sri Lanka	10.35782	
Gampaha	Katana	Katana Maternity Clinic	False	False	GMPHKTNKTNMTRNTYCLNC		Gampaha	LK-12	7.123598	80.018508	Katana	PS-120360	7.224796	79.880015	7.248028	79.899366	Katana, Sri Lanka	3.352146	
Gampaha	Katana	MOH Office - Seeduwa	False	False	GMPHKTNMHFFCSDW		Gampaha	LK-12	7.123598	80.018508	Katana	PS-120360	7.224796	79.880015	7.131527	79.879964	24 Kotugoda Rd, Katunayake 11410, Sri Lanka	10.374297	
Gampaha	Katana	MOH Office - Katana	False	False	GMPHKTNMHFFCKTN		Gampaha	LK-12	7.123598	80.018508	Katana	PS-120360	7.224796	79.880015	7.22436	79.88271	Katana, Negombo - Mirigama Rd, Negombo, Sri Lanka	0.301313	
Gampaha	Kotadeniyawa	Kaluaggala Maternity Clinic	False	False	GMPHKTDNYWKLGGLMTRNTYCLNC		Gampaha	LK-12	7.123598	80.018508	Kotadeniyawa	PS-120354	7.283643	80.06649	7.093316	80.112892	34V7+85C, Kahatowita, Sri Lanka	21.78055	#CenterFarFromPolice
Gampaha	Kotadeniyawa	Kotadeniyawa Maternity Clinic	False	False	GMPHKTDNYWKTDNYWMTRNTYCLNC		Gampaha	LK-12	7.123598	80.018508	Kotadeniyawa	PS-120354	7.283643	80.06649	7.283881	80.066065	Kotadeniyawa, Sri Lanka	0.053848	
Gampaha	Kochchikade	Halpe Maternity Clinic	False	False	GMPHKCHCHKDHLPMTRNTYCLNC		Gampaha	LK-12	7.123598	80.018508	Kochchikade	PS-120352	7.265049	79.857026	7.233314	79.973984	6XMF+8HH, Dunagaha, Sri Lanka	13.379278	
Gampaha	Katunayaka	18 Kanuwa Viharaya	False	False	GMPHKTNYKKNWVHRY		Gampaha	LK-12	7.123598	80.018508	Katunayaka	PS-120358	7.165898	79.882607	7.020539	80.026375	Kirikiththa Rd, Weliweriya, Sri Lanka	22.654679	#CenterFarFromPolice
Gampaha	Mirigama	Maladeniya Viharaya	False	False	GMPHMRGMMLDNYVHRY		Gampaha	LK-12	7.123598	80.018508	Meerigama	PS-120248	7.245169	80.128647	7.110015	79.989902	4X6Q+2X2, Gampaha, Sri Lanka	21.457918	#CenterFarFromPolice
Gampaha	Mirigama	Bogahawatta Viharaya	False	False	GMPHMRGMBGHWTTVHRY		Gampaha	LK-12	7.123598	80.018508	Meerigama	PS-120248	7.245169	80.128647	7.113799	80.135467	Nittambuwa - Ruwanwella Rd, Sri Lanka	14.631634	
Gampaha	Pallewela	Loluwagoda Primary School	False	False	GMPHPLLWLLLWGDPRMRYSCHL		Gampaha	LK-12	7.123598	80.018508	Pallewela	PS-120249	7.197365	80.094856	7.304085	80.132936	AB29, Loluwagoda, Sri Lanka	12.592153	
Gampaha	Nittambuwa	Debahera Viharaya	False	False	GMPHNTTMBWDBHRVHRY		Gampaha	LK-12	7.123598	80.018508	Nittambuwa	PS-120246	7.149726	80.10046	7.113799	80.135467	Nittambuwa - Ruwanwella Rd, Sri Lanka	5.558543	
Gampaha	Nittambuwa	Urapola Centarl College	False	False	GMPHNTTMBWRPLCNTRLCLLG		Gampaha	LK-12	7.123598	80.018508	Nittambuwa	PS-120246	7.149726	80.10046	7.098949	80.144672	No. 280, Nittambuwa - Ruwanwella Rd, Urapola, Sri Lanka	7.463959	
Gampaha	Nittambuwa	Kahatowita Al Badrinaya Vidyalaya	False	False	GMPHNTTMBWKHTWTLBDRNYVDYLY		Gampaha	LK-12	7.123598	80.018508	Nittambuwa	PS-120246	7.149726	80.10046	7.096006	80.111179	Main Street - Kahatowita, Kahatowita 11144, Sri Lanka	6.091262	
Gampaha	Nittambuwa	Vidyananda Pirivena	False	False	GMPHNTTMBWVDYNNDPRVN		Gampaha	LK-12	7.123598	80.018508	Nittambuwa	PS-120246	7.149726	80.10046	7.144907	80.092391	Negambo road, Nittambuwa, Sri Lanka	1.039411	
Gampaha	Kiribathgoda	Hunupitiya Maternity Clinic	False	False	GMPHKRBTHGDHNPTYMTRNTYCLNC		Gampaha	LK-12	7.123598	80.018508	Kiribathgoda	PS-120135	6.978005	79.929433	6.984855	79.92903	219 Sri Sudarshanarama Rd, Sri Lanka	0.763222	
Gampaha	Ja Ela	MOH Office - Ja Ela	False	False	GMPHJLMHFFCJL		Gampaha	LK-12	7.123598	80.018508	Ja - Ela	PS-120133	7.081055	79.890504	7.075216	79.893879	60 Mount Kalvary Rd, Ja-Ela, Sri Lanka	0.748731	
Gampaha	Wattala	MOH Office - Wattala	False	False	GMPHWTTLMHFFCWTTL		Gampaha	LK-12	7.123598	80.018508	Wattala	PS-120128	6.993713	79.894506	6.995817	79.885793	301 Hendala Rd, Wattala, Sri Lanka	0.989991	
Gampaha	Ragama	MOH Office - Ragama	False	False	GMPHRGMMHFFCRGM		Gampaha	LK-12	7.123598	80.018508	Ragama	PS-120134	7.034975	79.924148	7.027386	79.920232	2WGC+X35, Ragama, Sri Lanka	0.948382	
Kalutara	Kalutara	Mobile Medical Team	True	True	KLTRKLTRMBLMDCLTM		Kalutara	LK-13	6.577316	80.127363	Kalutara South		6.584968	79.96102					#CenterLocationUnknown
Kalutara	Kalutara	NIHS	False	False	KLTRKLTRNHS		Kalutara	LK-13	6.577316	80.127363	Kalutara South		6.584968	79.96102	6.559269	79.973486	Janatha Ln, Kalutara, Sri Lanka	3.173081	
Kalutara	Aluthgama	Mobile Vaccination	False	False	KLTRLTHGMMBLVCCNTN		Kalutara	LK-13	6.577316	80.127363	Aluthgama	PS-1302100	6.432842	79.998032					#CenterLocationUnknown
Kalutara	Matugama	Panthiya Maha Vidyalaya	False	False	KLTRMTGMPNTHYMHVDYLY		Kalutara	LK-13	6.577316	80.127363	Mathugama	PS-1302103	6.520881	80.117908	6.527789	80.094924	Panthiya, Nagoda - Mathugama - Kalawellawa - Bellapitiya Road, Matugama, Sri Lanka	2.653629	
Kalutara	Matugama	Katugahahena Hospital	False	False	KLTRMTGMKTGHHNHSPTL		Kalutara	LK-13	6.577316	80.127363	Mathugama	PS-1302103	6.520881	80.117908	6.489328	80.08471	F3QM+PVP, Bopitiya, Sri Lanka	5.077192	
Kalutara	Baduraliya	Baduraliya Hospital	False	False	KLTRBDRLYBDRLYHSPTL		Kalutara	LK-13	6.577316	80.127363	Baduraliya	PS-1302106	6.516756	80.226716	6.514727	80.232731	Tiruwanaketiya-Agalawatte Rd, Baduraliya, Sri Lanka	0.702098	
Kalutara	Baduraliya	MOH Office - Baduraliya	False	False	KLTRBDRLYMHFFCBDRLY		Kalutara	LK-13	6.577316	80.127363	Baduraliya	PS-1302106	6.516756	80.226716	6.523544	80.126443	G4FG+CH8, Matugama, Sri Lanka	11.106791	
Kalutara	Panadura	Walana Maha Vidyalaya	False	False	KLTRPNDRWLNMHVDYLY		Kalutara	LK-13	6.577316	80.127363	Panadura North		6.756309	79.898939	6.713086	79.907765	PW75+64J, Panadura, Sri Lanka	4.905544	
Kalutara	Panadura	Town Hall Panadura	False	False	KLTRPNDRTWNHLLPNDR		Kalutara	LK-13	6.577316	80.127363	Panadura North		6.756309	79.898939	6.719952	79.90707	A2, Panadura, Sri Lanka	4.142523	
Kalutara	Welipenna	Pallegoda Estate Office	False	False	KLTRWLPNNPLLGDSTTFFC		Kalutara	LK-13	6.577316	80.127363	Welipanna	PS-1302101	6.467428	80.108313	6.466373	80.06542	F388+G5V, Kirantidiya, Sri Lanka	4.742076	
Kalutara	Agalawatta	Pimbura Hospital	False	False	KLTRGLWTTPMBRHSPTL		Kalutara	LK-13	6.577316	80.127363	Agalawatta		6.542566	80.157178	6.575949	80.158371	H5G5+98H, කළුතර, Sri Lanka	3.715525	
Kalutara	Meegahathenna	Pahala Hewessa Viharaya	False	False	KLTRMGHTHNNPHLHWSSVHRY		Kalutara	LK-13	6.577316	80.127363	Meegahathenna	PS-1302107	6.436941	80.1943	6.416475	80.266304	pahala Hewessa, Neherihena, Sri Lanka	8.277829	
Kalutara	Wadduwa	Mobile Vaccination	False	False	KLTRWDDWMBLVCCNTN		Kalutara	LK-13	6.577316	80.127363	Wadduwa	PS-130188	6.664403	79.929851					#CenterLocationUnknown
Kalutara	Ingiriya	Gamini Maha Vidyalaya	False	False	KLTRNGRYGMNMHVDYLY		Kalutara	LK-13	6.577316	80.127363	Ingiriya	PS-130193	6.743614	80.175077	6.744369	80.1724	P5VC+PXR, Ingiriya, Sri Lanka	0.307396	
Kalutara	Ingiriya	Handapangoda Maha Vidyalaya	False	False	KLTRNGRYHNDPNGDMHVDYLY		Kalutara	LK-13	6.577316	80.127363	Ingiriya	PS-130193	6.743614	80.175077	6.790569	80.140067	Handapangoda, Sri Lanka	6.498577	
Kurunegala	Kurunegala	Mobile Medical Team	False	False	KRNGLKRNGLMBLMDCLTM		Kurunegala	LK-61	7.66477	80.23677	Kurunegala	PS-610101	7.485852	80.364137					#CenterLocationUnknown
Kurunegala	Bingiriya	Kiniyama Muslim Vidyalaya	False	False	KRNGLBNGRYKNYMMSLMVDYLY		Kurunegala	LK-61	7.66477	80.23677	Bingiriya	PS-610219	7.596799	79.948965	7.661501	79.996194	Kiniyama, Sri Lanka	8.882809	
Kurunegala	Nikaweratiya	Galagedara Vidyalaya	False	False	KRNGLNKWRTYGLGDRVDYLY		Kurunegala	LK-61	7.66477	80.23677	Nikaweratiya	PS-610320	7.742612	80.121177	7.770216	80.163134	Q5C7+37J, Nikaweratiya, Sri Lanka	5.550698	
Kurunegala	Nikaweratiya	Dalukgolla Vidyalaya	False	False	KRNGLNKWRTYDLKGLLVDYLY		Kurunegala	LK-61	7.66477	80.23677	Nikaweratiya	PS-610320	7.742612	80.121177	7.784931	80.171207	Dalukgolla School, Nikaweratiya-Maho Rd, Nikaweratiya, Sri Lanka	7.24978	
Kurunegala	Nikaweratiya	Halmillewa Vidyalaya	False	False	KRNGLNKWRTYHLMLLWVDYLY		Kurunegala	LK-61	7.66477	80.23677	Nikaweratiya	PS-610320	7.742612	80.121177	7.751422	80.117599	Nikaweratiya-Moragollagama-Siyambangamuwa Rd, Nikaweratiya, Sri Lanka	1.056306	
Kurunegala	Nikaweratiya	Kumbukwewa Vidyalaya	False	False	KRNGLNKWRTYKMBKWWVDYLY		Kurunegala	LK-61	7.66477	80.23677	Nikaweratiya	PS-610320	7.742612	80.121177	7.739226	80.152004	P5Q2+MRR, Nikaweratiya, Sri Lanka	3.418446	
Kurunegala	Nikaweratiya	Randenigama Vidyalaya	False	False	KRNGLNKWRTYRNDNGMVDYLY		Kurunegala	LK-61	7.66477	80.23677	Nikaweratiya	PS-610320	7.742612	80.121177	7.758905	80.174131	Q55F+HM6, Randenigama, Sri Lanka	6.111151	
Kurunegala	Rasnayakapura	Thalakolawewa Community Hall	False	False	KRNGLRSNYKPRTHLKLWWCMMNTYHLL		Kurunegala	LK-61	7.66477	80.23677	Rasnayakapura	PS-610323	7.776658	80.012692	7.775358	80.021998	Q2GC+4QX, Puttalam, Sri Lanka	1.03573	
Kurunegala	Rasnayakapura	Kuruvikulama Viharaya	False	False	KRNGLRSNYKPRKRVKLMVHRY		Kurunegala	LK-61	7.66477	80.23677	Rasnayakapura	PS-610323	7.776658	80.012692	7.48751	80.370935	F9QC+293, Kurunegala, Sri Lanka	50.933134	#CenterFarFromPolice
Kurunegala	Rasnayakapura	Kadigawa Vidyalaya	False	False	KRNGLRSNYKPRKDGWVDYLY		Kurunegala	LK-61	7.66477	80.23677	Rasnayakapura	PS-610323	7.776658	80.012692	7.775358	80.021998	Q2GC+4QX, Puttalam, Sri Lanka	1.03573	
Kurunegala	Rasnayakapura	Kadigawa Clinic	False	False	KRNGLRSNYKPRKDGWCLNC		Kurunegala	LK-61	7.66477	80.23677	Rasnayakapura	PS-610323	7.776658	80.012692	7.775358	80.021998	Q2GC+4QX, Puttalam, Sri Lanka	1.03573	
Kurunegala	Rasnayakapura	Kunugullewa Clinic	False	False	KRNGLRSNYKPRKNGLLWCLNC		Kurunegala	LK-61	7.66477	80.23677	Rasnayakapura	PS-610323	7.776658	80.012692	7.775358	80.021998	Q2GC+4QX, Puttalam, Sri Lanka	1.03573	
Kurunegala	Rasnayakapura	Udahengama Viharaya	False	False	KRNGLRSNYKPRDHNGMVHRY		Kurunegala	LK-61	7.66477	80.23677	Rasnayakapura	PS-610323	7.776658	80.012692	7.762989	80.093623	Q37V+5CX, Nikaweratiya, Sri Lanka	9.047954	
Kurunegala	Kotawehera	Unale Viharaya	False	False	KRNGLKTWHRNLVHRY		Kurunegala	LK-61	7.66477	80.23677	Kotawehera	PS-610322	7.809001	80.077977	7.537105	80.490915	Ridee Vihara Rd, Ridigama, Sri Lanka	54.650438	#CenterFarFromPolice
Kurunegala	Kotawehera	Digennawa Vidyalaya	False	False	KRNGLKTWHRDGNNWVDYLY		Kurunegala	LK-61	7.66477	80.23677	Kotawehera	PS-610322	7.809001	80.077977	7.809001	80.077977	Kotawehera, Kurunegala, Sri Lanka	0.0	
Kurunegala	Kotawehera	Mahameethawa Viharaya	False	False	KRNGLKTWHRMHMTHWVHRY		Kurunegala	LK-61	7.66477	80.23677	Kotawehera	PS-610322	7.809001	80.077977	7.762989	80.093623	Q37V+5CX, Nikaweratiya, Sri Lanka	5.400559	
Kurunegala	Kuliyapitiya	Kuliyapitiya Hospital	False	False	KRNGLKLYPTYKLYPTYHSPTL		Kurunegala	LK-61	7.66477	80.23677	Kuliyapitiya	PS-610212	7.471205	80.024139	7.472045	80.044605	F2CV+RR9, Kuliyapitiya, Sri Lanka	2.259034	
Kurunegala	Katupotha	Moragane Maha Vidyalaya	False	False	KRNGLKTPTHMRGNMHVDYLY		Kurunegala	LK-61	7.66477	80.23677	Katupotha	PS-610217	7.531173	80.187438	7.547898	80.143094	Munamldeniya Katupotha road, Sri Lanka	5.231661	
Kurunegala	Giribawa	Paluwewa Society Hall	False	False	KRNGLGRBWPLWWSCTYHLL		Kurunegala	LK-61	7.66477	80.23677	Giribawa	PS-610329	8.117314	80.189061	8.080275	80.228091	36JH+464, Pahala Giribawa, Sri Lanka	5.953648	
Kurunegala	Giribawa	Perakumpura National College	False	False	KRNGLGRBWPRKMPRNTNLCLLG		Kurunegala	LK-61	7.66477	80.23677	Giribawa	PS-610329	8.117314	80.189061	8.155525	80.144228	544V+6M9, Perakumpura, Sri Lanka	6.514134	
Kurunegala	Giribawa	Warawewa Maha Vidyalaya	False	False	KRNGLGRBWWRWWMHVDYLY		Kurunegala	LK-61	7.66477	80.23677	Giribawa	PS-610329	8.117314	80.189061	8.124193	80.145301	Warawewa, Sri Lanka	4.878981	
Kurunegala	Giribawa	Thmbutta Maha Vidyalaya	False	False	KRNGLGRBWTHMBTTMHVDYLY		Kurunegala	LK-61	7.66477	80.23677	Giribawa	PS-610329	8.117314	80.189061	8.116653	80.192352	Mahagalkadawala - Warawewa, Pahala Giribawa, Sri Lanka	0.369773	
Kurunegala	Polpithigama	Galketiyagama Vidyalaya	False	False	KRNGLPLPTHGMGLKTYGMVDYLY		Kurunegala	LK-61	7.66477	80.23677	Polpithigama	PS-610326	7.835529	80.400637	7.754383	80.363081	Galketiyagama, Sri Lanka	9.929517	
Kurunegala	Polpithigama	Thawattagama Vidyalaya	False	False	KRNGLPLPTHGMTHWTTGMVDYLY		Kurunegala	LK-61	7.66477	80.23677	Polpithigama	PS-610326	7.835529	80.400637	7.842122	80.39705	Polpithigama, Sri Lanka	0.833073	
Kurunegala	Pansiyagama	Thambuwa Cultural Centre	False	False	KRNGLPNSYGMTHMBWCLTRLCNTR		Kurunegala	LK-61	7.66477	80.23677	Pansiyagama		7.746874	80.482945	7.735212	80.496866	pansiyagama, Polgahangoda, Sri Lanka	2.009171	
Puttalam	Kalpitiya	District Hospital - Kalpitiya	False	False	PTTLMKLPTYDSTRCTHSPTLKLPTY		Puttalam	LK-62	7.973531	79.913833	Kalpitiya	PS-620137	8.235145	79.764567	8.235596	79.766951	6QP8+6QP, Kalpitiya, Sri Lanka	0.267189	
Puttalam	Kalpitiya	Al Aksha Vidyalaya	False	False	PTTLMKLPTYLKSHVDYLY		Puttalam	LK-62	7.973531	79.913833	Kalpitiya	PS-620137	8.235145	79.764567	8.232071	79.760981	Al Aqsa School Rd, Kalpitiya, Sri Lanka	0.522249	
Puttalam	Kalpitiya	Daluwa Vidyalaya	False	False	PTTLMKLPTYDLWVDYLY		Puttalam	LK-62	7.973531	79.913833	Kalpitiya	PS-620137	8.235145	79.764567	7.979176	79.755536	XQH4+M6F, Puttalam, Sri Lanka	28.488752	#CenterFarFromPolice
Puttalam	Kalpitiya	Mundala Palliya Muslim Vidyalaya	False	False	PTTLMKLPTYMNDLPLLYMSLMVDYLY		Puttalam	LK-62	7.973531	79.913833	Kalpitiya	PS-620137	8.235145	79.764567	8.229528	79.759614	Kalpitiya, Sri Lanka	0.82924	
Puttalam	Norochcholai	Norochcholai Muslim Maha Vidyalaya	False	False	PTTLMNRCHCHLNRCHCHLMSLMMHVDYLY		Puttalam	LK-62	7.973531	79.913833	Norochcholey	PS-620139	6.900777	79.872638	8.050195	79.736044	3P2P+3CF, Norochcholai, Sri Lanka	128.73397	#CenterFarFromPolice
Puttalam	Chilaw	Jayabima Community Hall	False	False	PTTLMCHLWJYBMCMMNTYHLL		Puttalam	LK-62	7.973531	79.913833	Chilaw	PS-620241	7.576197	79.788003	7.578569	79.7947	A3, Chilaw, Sri Lanka	0.784122	
Puttalam	Chilaw	Wella Primary School	False	False	PTTLMCHLWWLLPRMRYSCHL		Puttalam	LK-62	7.973531	79.913833	Chilaw	PS-620241	7.576197	79.788003	7.57773	79.791757	HQHR+3PR, Chilaw, Sri Lanka	0.447658	
Puttalam	Chilaw	Marawala Vidyalaya	False	False	PTTLMCHLWMRWLVDYLY		Puttalam	LK-62	7.973531	79.913833	Chilaw	PS-620241	7.576197	79.788003	7.580259	79.795395	HQJW+452, Chilaw, Sri Lanka	0.931982	
Puttalam	Arachchikattuwa	Kottapitiya Church	False	False	PTTLMRCHCHKTTWKTTPTYCHRCH		Puttalam	LK-62	7.973531	79.913833	Arachchikattuwa	PS-620247	7.65944	79.837772	7.628661	79.822272	Puttalam Road, A3, Bangadeniya, Sri Lanka	3.826283	
Puttalam	Arachchikattuwa	Nalladarankattuwa Vidyalaya	False	False	PTTLMRCHCHKTTWNLLDRNKTTWVDYLY		Puttalam	LK-62	7.973531	79.913833	Arachchikattuwa	PS-620247	7.65944	79.837772	7.663717	79.839303	Nalladarankattuwa, Sri Lanka	0.50478	
Puttalam	Arachchikattuwa	Muthupanthiya Churach	False	False	PTTLMRCHCHKTTWMTHPNTHYCHRCH		Puttalam	LK-62	7.973531	79.913833	Arachchikattuwa	PS-620247	7.65944	79.837772	7.710763	79.80039	PR62+852, Nalladarankattuwa, Sri Lanka	7.040483	
Puttalam	Madampe	Theater Premises	False	False	PTTLMMDMPTHTRPRMSS		Puttalam	LK-62	7.973531	79.913833	Madampe	PS-620242	7.49496	79.840268	7.495245	79.840572	FRWR+36W, Madampe, Sri Lanka	0.046139	
Puttalam	Madampe	Tow Hall - Madampe	False	False	PTTLMMDMPTWHLLMDMP		Puttalam	LK-62	7.973531	79.913833	Madampe	PS-620242	7.49496	79.840268	7.494409	79.909344	Kurunegala-Narammala-Madampe Rd, Dummalasuriya, Sri Lanka	7.61792	
Puttalam	Madampe	Pambala Primary School	False	False	PTTLMMDMPPMBLPRMRYSCHL		Puttalam	LK-62	7.973531	79.913833	Madampe	PS-620242	7.49496	79.840268	7.52498	79.828118	GRFH+X6X, Puttalam, Sri Lanka	3.597905	
Puttalam	Puttalam	Puttalam Base Hospital	False	False	PTTLMPTTLMPTTLMBSHSPTL		Puttalam	LK-62	7.973531	79.913833	Puttalam	PS-620130	8.029904	79.834396	8.027902	79.83874	Katugastota-Kurunegala-Puttalam Hwy, Puttalam, Sri Lanka	0.527729	
Puttalam	Puttalam	Zahira College, Puttalam	False	False	PTTLMPTTLMZHRCLLGPTTLM		Puttalam	LK-62	7.973531	79.913833	Puttalam	PS-620130	8.029904	79.834396	8.039642	79.828624	Mannar Rd, Puttalam, Sri Lanka	1.255931	
Puttalam	Puttalam	Tiladiya Muslim Maha Vidyalaya	False	False	PTTLMPTTLMTLDYMSLMMHVDYLY		Puttalam	LK-62	7.973531	79.913833	Puttalam	PS-620130	8.029904	79.834396	8.041369	79.844314	2RRV+GPW, Puttalam, Sri Lanka	1.679131	
Puttalam	Puttalam	Erukkalampindi Muslim Maha Vidyalaya	False	False	PTTLMPTTLMRKKLMPNDMSLMMHVDYLY		Puttalam	LK-62	7.973531	79.913833	Puttalam	PS-620130	8.029904	79.834396	7.96212	79.831909	Erukkalampiddy, Palavi, Puttalam - Colombo Rd, Erukkalampiddy, Sri Lanka	7.544578	
Puttalam	Wanathavilluwa	Karaitivu Central Dispensary	False	False	PTTLMWNTHVLLWKRTVCNTRLDSPNSRY		Puttalam	LK-62	7.973531	79.913833	Wanathawilluwa	PS-620134	8.188137	79.858447	7.536644	79.871898	Kakkapalliya-Medagama Road, Thambagalla,, Madampe, Sri Lanka	72.480612	#CenterFarFromPolice
Puttalam	Mundalama	Kandathoduwawa Central Dispensary	False	False	PTTLMMNDLMKNDTHDWWCNTRLDSPNSRY		Puttalam	LK-62	7.973531	79.913833	Mundal	PS-620138	7.808859	79.825729	7.891957	79.766623	Kandathoduwawa, Sri Lanka	11.307004	
Puttalam	Mundalama	Kottantivu Central Dispensary	False	False	PTTLMMNDLMKTTNTVCNTRLDSPNSRY		Puttalam	LK-62	7.973531	79.913833	Mundal	PS-620138	7.808859	79.825729	7.99587	79.851101	XVW2+8CX, Puttalam, Sri Lanka	20.988184	#CenterFarFromPolice
Puttalam	Mundalama	Udappuwa Central Dispensary	False	False	PTTLMMNDLMDPPWCNTRLDSPNSRY		Puttalam	LK-62	7.973531	79.913833	Mundal	PS-620138	7.808859	79.825729	7.99587	79.851101	XVW2+8CX, Puttalam, Sri Lanka	20.988184	#CenterFarFromPolice
Kandy	Kandy	Mobile Medical Team	False	False	KNDYKNDYMBLMDCLTM		Kandy	LK-21	7.27337	80.709602	Kandy	PS-210101	7.292948	80.642368					#CenterLocationUnknown
Kandy	Kandy	Pushpadana Balika Vidyalaya	False	False	KNDYKNDYPSHPDNBLKVDYLY		Kandy	LK-21	7.27337	80.709602	Kandy	PS-210101	7.292948	80.642368	7.293989	80.633	16 Kandy Rd, Kandy 20000, Sri Lanka	1.040036	
Kandy	Hatharaliyadda	Hatharaliyadda Maha Vidyalaya	False	False	KNDYHTHRLYDDHTHRLYDDMHVDYLY		Kandy	LK-21	7.27337	80.709602	Hatharaliyadda	PS-210106	7.336886	80.471814	7.33578	80.471154	Hatharaliyadda, Sri Lanka	0.142952	
Kandy	Katugastota	St. Anthony's College	False	False	KNDYKTGSTTSTNTHNYSCLLG		Kandy	LK-21	7.27337	80.709602	Katugastota	PS-210103	7.332014	80.623006	7.31563	80.624014	548 Peradeniya - Halloluwa - Katugastota Rd, Katugastota, Sri Lanka	1.825779	
Kandy	Katugastota	Gohagoda Dharmavijaya Vidyalaya	False	False	KNDYKTGSTTGHGDDHRMVJYVDYLY		Kandy	LK-21	7.27337	80.709602	Katugastota	PS-210103	7.332014	80.623006	7.305057	80.618816	Gohagoda, Katugastota, Sri Lanka	3.033846	
Kandy	Udadumbara	Medamahanuwara Central College	False	False	KNDYDDMBRMDMHNWRCNTRLCLLG		Kandy	LK-21	7.27337	80.709602	Ududumbara	PS-210358	7.318133	80.8791	7.286062	80.813902	A26, Medamahanuwara, Sri Lanka	8.029113	
Kandy	Galagedara	Galagedara Sujatha Balika Vidyalaya	False	False	KNDYGLGDRGLGDRSJTHBLKVDYLY		Kandy	LK-21	7.27337	80.709602	Galagedara	PS-210105	7.373683	80.526154	7.372389	80.518839	B122, Galagedara, Sri Lanka	0.819655	
Kandy	Alawatugoda	Akurana Zahira College	False	False	KNDYLWTGDKRNZHRCLLG		Kandy	LK-21	7.27337	80.709602	Alawathugoda	PS-210113	7.38828	80.618824	7.37133	80.609801	Akurana, Kandy, Sri Lanka, Kasawattha Road, Akurana, Sri Lanka	2.131942	
Kandy	Alawatugoda	Dunuwila Rathnapala Vidyalaya	False	False	KNDYLWTGDDNWLRTHNPLVDYLY		Kandy	LK-21	7.27337	80.709602	Alawathugoda	PS-210113	7.38828	80.618824	7.409661	80.609795	Alawatugoda, Sri Lanka	2.578321	
Kandy	Panwila	Madolkele Hospital	False	False	KNDYPNWLMDLKLHSPTL		Kandy	LK-21	7.27337	80.709602	Panwila	PS-210361	7.362355	80.713731	7.398005	80.733186	9PXM+673, Huluganga, Sri Lanka	4.508822	
Kandy	Gampola	Wickramabahu National College	False	False	KNDYGMPLWCKRMBHNTNLCLLG		Kandy	LK-21	7.27337	80.709602	Gampola	PS-210216	7.132941	80.56799	7.153925	80.563839	Nawalapitiya Road, Gampola 20500, Sri Lanka, Sri Lanka	2.378605	
Kandy	Gampola	National Heritage Centre	False	False	KNDYGMPLNTNLHRTGCNTR		Kandy	LK-21	7.27337	80.709602	Gampola	PS-210216	7.132941	80.56799	7.162374	80.574165	Hindagala-Naranwita-Gampola Rd, Gampola, Sri Lanka	3.344009	
Kandy	Pussellawa	Town Hall - Pussellawa	False	False	KNDYPSSLLWTWNHLLPSSLLW		Kandy	LK-21	7.27337	80.709602	Pussellawa	PS-210217	7.115334	80.635553	7.106515	80.636264	Peradeniya - Badulla - Chenkaladi Hwy, Pussellawa, Sri Lanka	0.98407	
Kandy	Pussellawa	Weerasekera Vidyalaya	False	False	KNDYPSSLLWWRSKRVDYLY		Kandy	LK-21	7.27337	80.709602	Pussellawa	PS-210217	7.115334	80.635553	7.275593	80.612802	676, 674 Colombo - Kandy Rd, Kandy 20000, Sri Lanka	18.001522	
Kandy	Nawa Kurunduwatta	Kurunduwatta Royal College	False	False	KNDYNWKRNDWTTKRNDWTTRYLCLLG		Kandy	LK-21	7.27337	80.709602	Nawa Kurunduwatta	PS-210218	7.126357	80.530286	7.130783	80.533673	Gampola, Kurunduwaththa Rd, kurunduwaththa 20509, Sri Lanka	0.618148	
Kandy	Nawa Kurunduwatta	Udagama Saranapala Vidyalaya	False	False	KNDYNWKRNDWTTDGMSRNPLVDYLY		Kandy	LK-21	7.27337	80.709602	Nawa Kurunduwatta	PS-210218	7.126357	80.530286	7.122536	80.566502	Udagama, Ulapane, Kandy Rd, Sri Lanka	4.019729	
Kandy	Nawa Kurunduwatta	Ulapane Rathnawali Vidyalaya	False	False	KNDYNWKRNDWTTLPNRTHNWLVDYLY		Kandy	LK-21	7.27337	80.709602	Nawa Kurunduwatta	PS-210218	7.126357	80.530286	7.126357	80.530286	Kurunduwaththa Rd, Sri Lanka	0.0	
Kandy	Nawa Kurunduwatta	Cray Head Tamil College	False	False	KNDYNWKRNDWTTCRYHDTMLCLLG		Kandy	LK-21	7.27337	80.709602	Nawa Kurunduwatta	PS-210218	7.126357	80.530286	7.126357	80.530286	Kurunduwaththa Rd, Sri Lanka	0.0	
Kandy	Daulagala	DB Wijethunga National College	False	False	KNDYDLGLDBWJTHNGNTNLCLLG		Kandy	LK-21	7.27337	80.709602	Daulagala	PS-210111	7.227283	80.574409	7.208613	80.578297	D.B. Wijetunga National School , Daskara , Muruthagahamula., Geli Oya - Embekke Rd, Kovilakanda, Sri Lanka	2.120517	
Kandy	Daulagala	Almanar Vidyalaya	False	False	KNDYDLGLLMNRVDYLY		Kandy	LK-21	7.27337	80.709602	Daulagala	PS-210111	7.227283	80.574409	7.218709	80.57419	6H9F+FMP, Daulagala 20480, Sri Lanka	0.953991	
Kandy	Daulagala	Alapalawala Pirivena	False	False	KNDYDLGLLPLWLPRVN		Kandy	LK-21	7.27337	80.709602	Daulagala	PS-210111	7.227283	80.574409	7.238425	80.576046	Embilmeegama-Daulagala-Penideniya Rd, Sri Lanka	1.252418	
Kandy	Daulagala	Gadaladeniya Rajamaha Viharaya	False	False	KNDYDLGLGDLDNYRJMHVHRY		Kandy	LK-21	7.27337	80.709602	Daulagala	PS-210111	7.227283	80.574409	7.249123	80.548831	Gadaladeniya, Sri Lanka	3.723848	
Kandy	Kadugannawa	Pilimathalawa Central College	False	False	KNDYKDGNNWPLMTHLWCNTRLCLLG		Kandy	LK-21	7.27337	80.709602	Kadugannawa	PS-210112	7.256285	80.516908	7.265915	80.550553	Colombo - Kandy Rd, Pilimathalawa 20450, Sri Lanka	3.86376	
Kandy	Kadugannawa	Kadugannawa Central College	False	False	KNDYKDGNNWKDGNNWCNTRLCLLG		Kandy	LK-21	7.27337	80.709602	Kadugannawa	PS-210112	7.256285	80.516908	7.263719	80.530822	Henawala Dambagoda Road, Henawala, Sri Lanka	1.743763	
Kandy	Peththapitiya	Danture Maha Vidyalaya	False	False	KNDYPTHTHPTYDNTRMHVDYLY		Kandy	LK-21	7.27337	80.709602	Peththapitiya		7.287977	80.493449	7.28447	80.550963	Dodanwala Natha Dewale Rd, Dodamwala, Sri Lanka	6.357593	
Nuwara Eliya	Nuwara Eliya	Mobile Medical Team	False	False	NWRLYNWRLYMBLMDCLTM		Nuwara Eliya	LK-23	6.97423	80.711222	Nuwaraeliya	PS-230131	6.974148	80.767627					#CenterLocationUnknown
Nuwara Eliya	Nuwara Eliya	Fedro Tea Factory	False	False	NWRLYNWRLYFDRTFCTRY		Nuwara Eliya	LK-23	6.97423	80.711222	Nuwaraeliya	PS-230131	6.974148	80.767627	6.949717	80.789107	WQXQ+VJQ, Nuwara Eliya 22200, Sri Lanka	3.606807	
Nuwara Eliya	Hanguranketa	Rikillagaskada Base Hospital	False	False	NWRLYHNGRNKTRKLLGSKDBSHSPTL		Nuwara Eliya	LK-23	6.97423	80.711222	Hanguranketha	PS-210108	7.176511	80.777388	7.145327	80.782574	B364, Rikillagaskada, Sri Lanka	3.515494	
Nuwara Eliya	Kothmale	Wijesekara National College	False	False	NWRLYKTHMLWJSKRNTNLCLLG		Nuwara Eliya	LK-23	6.97423	80.711222	Kotmale	PS-230134	7.063602	80.685054	7.063564	80.683808	Tawalantenne - Talawakele Rd, Kothmale New Town, Sri Lanka	0.137605	
Nuwara Eliya	Pundaluoya	Jayahela National College	False	False	NWRLYPNDLYJYHLNTNLCLLG		Nuwara Eliya	LK-23	6.97423	80.711222	Pudalu oya	PS-230132	6.907289	79.863819	7.01668	80.668529	2M89+MCC, Pundaluoya, Sri Lanka	89.677066	#CenterFarFromPolice
Nuwara Eliya	Kandapola	Mahinda Vidyalaya	False	False	NWRLYKNDPLMHNDVDYLY		Nuwara Eliya	LK-23	6.97423	80.711222	Kandapola	PS-230135	6.997489	80.823635	6.993379	80.820046	B332, Kandapola, Sri Lanka	0.604971	
Nuwara Eliya	Ragala	Ragala TBM Herath Vidyalaya	False	False	NWRLYRGLRGLTBMHRTHVDYLY		Nuwara Eliya	LK-23	6.97423	80.711222	Ragala	PS-230142	7.012347	80.858498	7.008783	80.855595	Ragala, Sri Lanka	0.509698	
Matale	Mathale	Mobile Medical Team	False	False	MTLMTHLMBLMDCLTM		Matale	LK-22	7.667587	80.731008	Matale	PS-220121	7.462789	80.626211					#CenterLocationUnknown
Badulla	Badulla	Mobile Medical Team	False	False	BDLLBDLLMBLMDCLTM		Badulla	LK-81	7.074529	81.04486	Badulla	PS-810101	6.991337	81.055246					#CenterLocationUnknown
Badulla	Bandarawela	MOH Office - Bandarawela	False	False	BDLLBNDRWLMHFFCBNDRWL		Badulla	LK-81	7.074529	81.04486	Bandarawela	PS-810210	6.831526	80.986784	6.841272	80.98482	Hospital Junction Helamuduna Bus Stop, Etampitiya Rd, Bandarawela, Sri Lanka	1.105533	
Badulla	Welimada	MOH Office - Welimada	False	False	BDLLWLMDMHFFCWLMD		Badulla	LK-81	7.074529	81.04486	Welimada	PS-810212	6.900481	80.905809	6.927934	80.896475	Udapussellawa-Welimada Road, Ambagasdowa, Sri Lanka	3.222841	
Badulla	Haputale	MOH Office - Haputale	False	False	BDLLHPTLMHFFCHPTL		Badulla	LK-81	7.074529	81.04486	Haputale	PS-810215	6.767653	80.957218	6.779645	80.964114	QXH7+WC4, Badulla, Sri Lanka	1.536024	
Badulla	Haldummulla	MOH Office - Haldumulla	False	False	BDLLHLDMMLLMHFFCHLDMLL		Badulla	LK-81	7.074529	81.04486	Haldummulla		6.762216	80.885856	6.761089	80.876292	QV6G+CGM, Badulla, Sri Lanka	1.063814	
Badulla	Ella	MOH Office – Ella	False	False	BDLLLLMHFFCLL		Badulla	LK-81	7.074529	81.04486	Ella	PS-810211	6.876609	81.048276	6.779645	80.964114	QXH7+WC4, Badulla, Sri Lanka	14.237912	
Moneragala	Monaragala	Mobile Medical Team	False	False	MNRGLMNRGLMBLMDCLTM		Moneragala	LK-82	6.787517	81.303744	Monaragala	PS-820121	6.869866	81.348106					#CenterLocationUnknown
Moneragala	Dambagalla	Madulla Hospital	False	False	MNRGLDMBGLLMDLLHSPTL		Moneragala	LK-82	6.787517	81.303744	Dambagalla	PS-820123	6.978806	81.372037	6.891356	81.342578	Colombo - Batticaloa Hwy, Monaragala, Sri Lanka	10.256502	
Moneragala	Dambagalla	Obbegoda Maha Vidyalaya	False	False	MNRGLDMBGLLBBGDMHVDYLY		Moneragala	LK-82	6.787517	81.303744	Dambagalla	PS-820123	6.978806	81.372037	6.925916	81.351185	W9G2+9F7, Monaragala, Sri Lanka	6.317411	
Moneragala	Dambagalla	Thampalawela Sewa Piyasa	False	False	MNRGLDMBGLLTHMPLWLSWPYS		Moneragala	LK-82	6.787517	81.303744	Dambagalla	PS-820123	6.978806	81.372037	6.974657	81.371953	Madulla,Monaragala, Sri Lanka	0.461586	
Moneragala	Siyambalanduwa	Buddama Maha Vidyalaya	False	False	MNRGLSYMBLNDWBDDMMHVDYLY		Moneragala	LK-82	6.787517	81.303744	Siyambalanduwa	PS-820122	6.906851	81.547598	7.043494	81.485724	Buddama, Sri Lanka	16.663417	
Moneragala	Siyambalanduwa	Dombagahawela Maha Vidyalaya	False	False	MNRGLSYMBLNDWDMBGHWLMHVDYLY		Moneragala	LK-82	6.787517	81.303744	Siyambalanduwa	PS-820122	6.906851	81.547598	6.872778	81.350683	Moneragala, Sri Lanka	22.072463	#CenterFarFromPolice
Moneragala	Siyambalanduwa	Galabedda Maha Vidyalaya	False	False	MNRGLSYMBLNDWGLBDDMHVDYLY		Moneragala	LK-82	6.787517	81.303744	Siyambalanduwa	PS-820122	6.906851	81.547598	6.914629	81.391337	Colombo - Batticaloa Hwy, Sri Lanka	17.276285	
Galle	Galle	Mobile Medical Team	False	False	GLLGLLMBLMDCLTM		Galle	LK-31	6.222805	80.251977	Galle	PS-310120	6.032983	80.21714					#CenterLocationUnknown
Galle	Galle	Dadalla BBS Vidyalaya	False	False	GLLGLLDDLLBBSVDYLY		Galle	LK-31	6.222805	80.251977	Galle	PS-310120	6.032983	80.21714	6.049885	80.201896	Dadalla, Galle 80000, Sri Lanka	2.52539	
Galle	Rathgama	Maliduwa Sriputta Vidyalaya	False	False	GLLRTHGMMLDWSRPTTVDYLY		Galle	LK-31	6.222805	80.251977	Ratgama	PS-310121	6.145115	80.099693	6.071357	80.217823	Uluwitike School Bus Stop, Galle - Baddegama Rd, Galle, Sri Lanka	15.427369	
Galle	Poddala	Karapitiya Medical Faculty	False	False	GLLPDDLKRPTYMDCLFCLTY		Galle	LK-31	6.222805	80.251977	Poddala	PS-310126	6.121449	80.210629	6.068112	80.226444	Inland Hill Rd, Galle, Sri Lanka	6.185149	
Galle	Poddala	Kalegana Polkandawila Viharaya	False	False	GLLPDDLKLGNPLKNDWLVHRY		Galle	LK-31	6.222805	80.251977	Poddala	PS-310126	6.121449	80.210629	6.060251	80.202401	Wakwella Rd, Galle, Sri Lanka	6.867605	
Galle	Habaraduwa	Yatigala Viharaya	False	False	GLLHBRDWYTGLVHRY		Galle	LK-31	6.222805	80.251977	Habaraduwa	PS-310127	5.9871	80.327098	5.993965	80.302544	Habaraduwa, Galle, Sri Lanka, 80000 Habaraduwa Central, Sri Lanka, Habaraduwa 80000, Sri Lanka	2.821514	
Galle	Habaraduwa	Padinnoruwa Swarnapala Jayanthi Vidyalaya	False	False	GLLHBRDWPDNNRWSWRNPLJYNTHVDYLY		Galle	LK-31	6.222805	80.251977	Habaraduwa	PS-310127	5.9871	80.327098	6.025848	80.284032	Padinnoruwa Rd, Sri Lanka	6.424213	
Galle	Nenuwa	Neluwa National College	False	False	GLLNNWNLWNTNLCLLG		Galle	LK-31	6.222805	80.251977	Neluwa	PS-310132	6.379651	80.358956	6.37678	80.358703	B411, Neluwa, Sri Lanka	0.320563	
Galle	Nagoda	Mapalagama Central College	False	False	GLLNGDMPLGMCNTRLCLLG		Galle	LK-31	6.222805	80.251977	Nagoda	PS-310130	6.197616	80.274707	6.227123	80.29788	67GX+R5R, Paranathanayamgoda, Sri Lanka	4.163864	
Galle	Yakkalamulla	Karagoda Purwaramaya	False	False	GLLYKKLMLLKRGDPRWRMY		Galle	LK-31	6.222805	80.251977	Yakkalamulla	PS-310125	6.106186	80.348152	6.086661	80.392308	Karagoda, Sri Lanka	5.344807	
Galle	Hiniduma	Sri Purwarama Panangala Viharaya	False	False	GLLHNDMSRPRWRMPNNGLVHRY		Galle	LK-31	6.222805	80.251977	Hiniduma	PS-310131	6.329517	80.322442	6.299397	80.314804	78X7+QW3, Galle, Sri Lanka	3.455021	
Galle	Baddegama	Baddegama Occupation Training Centre	False	False	GLLBDDGMBDDGMCCPTNTRNNGCNTR		Galle	LK-31	6.222805	80.251977	Baddegama	PS-310239	6.172566	80.174966	6.179982	80.191346	Kotagoda, Baddegama, Sri Lanka	1.990348	
Galle	Baddegama	St. Anthony's College - Baddegama	False	False	GLLBDDGMSTNTHNYSCLLGBDDGM		Galle	LK-31	6.222805	80.251977	Baddegama	PS-310239	6.172566	80.174966	6.147575	80.191582	Seethagangula, Ganegama, Baddegama B128, 80200 B128, 80200, Sri Lanka	3.332187	
Galle	Uragasmanhandiya	Horawala Primary School	False	False	GLLRGSMNHNDYHRWLPRMRYSCHL		Galle	LK-31	6.222805	80.251977	Uragasmanhandiya	PS-310236	6.343756	80.080679	6.39881	80.048518	Haburugala - Uragasmanhandiya Rd, Bentota, Sri Lanka	7.080839	
Galle	Uragasmanhandiya	Sri Wijayarama Viharaya	False	False	GLLRGSMNHNDYSRWJYRMVHRY		Galle	LK-31	6.222805	80.251977	Uragasmanhandiya	PS-310236	6.343756	80.080679	6.245269	80.057509	Dhirakkanda Buddhist Temple, Dhirakkanda Mawatha, Kaluwadumulla, Ambalangada., Ambalangoda 80300, Sri Lanka	11.250217	
Galle	Pitigala	Godamuna Viharaya	False	False	GLLPTGLGDMNVHRY		Galle	LK-31	6.222805	80.251977	Pitigala	PS-310237	6.335202	80.221149	6.338373	80.243452	Godamuna Road, Pitigala, Sri Lanka	2.490702	
Galle	Hikkaduwa	Narigama Vocational Training Centre	False	False	GLLHKKDWNRGMVCTNLTRNNGCNTR		Galle	LK-31	6.222805	80.251977	Hikkaduwa	PS-310122	6.145115	80.099693	6.126925	80.11246	Narigama, Hikkaduwa, Sri Lanka	2.467314	
Galle	Ambalangoda	Siddhartha Vidyalaya	False	False	GLLMBLNGDSDDHRTHVDYLY		Galle	LK-31	6.222805	80.251977	Ambalangoda	PS-310243	6.244958	80.047598	6.270872	80.039343	A2, Balapitiya, Sri Lanka	3.023469	
Matara	Matara	Mobile Medical Team	False	False	MTRMTRMBLMDCLTM		Matara	LK-32	6.142734	80.539994	Matara	PS-320101	5.94904	80.533659					#CenterLocationUnknown
Matara	Matara	Pushparama Viharaya	False	False	MTRMTRPSHPRMVHRY		Matara	LK-32	6.142734	80.539994	Matara	PS-320101	5.94904	80.533659	5.953038	80.575286	Weherahena Rd, Matara, Sri Lanka	4.626633	
Matara	Mawarala	Makandura Maha Vidyalaya	False	False	MTRMWRLMKNDRMHVDYLY		Matara	LK-32	6.142734	80.539994	Mawarala	PS-320109	6.198061	80.587045	6.196075	80.582372	Thihagoda - Kamburupitiya - Mawarala - Kotapola Rd, Mawarala, Sri Lanka	0.561977	
Matara	Kotawila	Sultanagoda Gunaratana Vivekarama Viharaya	False	False	MTRKTWLSLTNGDGNRTNVVKRMVHRY		Matara	LK-32	6.142734	80.539994	Kotawila	PS-320115	5.967553	80.493921	5.953038	80.575286	Weherahena Rd, Matara, Sri Lanka	9.144936	
Matara	Kotawila	Sultanagoda Ramagiri Viharaya	False	False	MTRKTWLSLTNGDRMGRVHRY		Matara	LK-32	6.142734	80.539994	Kotawila	PS-320115	5.967553	80.493921	5.983469	80.494691	XFMV+9VP, Matara, Sri Lanka	1.772493	
Matara	Deiyandara	Deiyandara National College	False	False	MTRDYNDRDYNDRNTNLCLLG		Matara	LK-32	6.142734	80.539994	Deyyandara	PS-320119	6.198061	80.587045	6.154714	80.603723	National School, Deiyandara, Sri Lanka	5.162189	
Matara	Urubokka	Urubokka Maha Vidyalaya	False	False	MTRRBKKRBKKMHVDYLY		Matara	LK-32	6.142734	80.539994	Urubokka	PS-320108	6.310257	80.629013	6.316869	80.595089	Kotapola - Urubokka - Mulatiyana Rd, Sri Lanka	3.821904	
Matara	Urubokka	Dampahala Primary School	False	False	MTRRBKKDMPHLPRMRYSCHL		Matara	LK-32	6.142734	80.539994	Urubokka	PS-320108	6.310257	80.629013	6.271525	80.64011	Dampahala K.V., School lane Kotapola - Urubokka - Mulatiyana Rd, 81612, Sri Lanka	4.479446	
Matara	Urubokka	Ginnaliya Maha Vidyalaya	False	False	MTRRBKKGNNLYMHVDYLY		Matara	LK-32	6.142734	80.539994	Urubokka	PS-320108	6.310257	80.629013	6.321623	80.649867	8JCX+JWX, Matara, Sri Lanka	2.629385	
Matara	Urubokka	Kiripitiya Primary School	False	False	MTRRBKKKRPTYPRMRYSCHL		Matara	LK-32	6.142734	80.539994	Urubokka	PS-320108	6.310257	80.629013	6.271525	80.64011	Dampahala K.V., School lane Kotapola - Urubokka - Mulatiyana Rd, 81612, Sri Lanka	4.479446	
Matara	Urubokka	Pattigala Primary School	False	False	MTRRBKKPTTGLPRMRYSCHL		Matara	LK-32	6.142734	80.539994	Urubokka	PS-320108	6.310257	80.629013	6.319119	80.625275	Kotapola - Urubokka - Mulatiyana Rd, Sri Lanka	1.068884	
Matara	Urubokka	Mologgamuwa Primary School	False	False	MTRRBKKMLGGMWPRMRYSCHL		Matara	LK-32	6.142734	80.539994	Urubokka	PS-320108	6.310257	80.629013	6.279467	80.583993	Thihagoda - Kamburupitiya - Mawarala - Kotapola Rd, Sri Lanka	6.041795	
Matara	Gandara	Mandalaramaya Thalalla	False	False	MTRGNDRMNDLRMYTHLLL		Matara	LK-32	6.142734	80.539994	Gandara	PS-320102	5.941629	80.614037	6.045496	80.631391	B630, Sri Lanka	11.71152	
Matara	Gandara	Siri Niketharamaya Thalalla	False	False	MTRGNDRSRNKTHRMYTHLLL		Matara	LK-32	6.142734	80.539994	Gandara	PS-320102	5.941629	80.614037	5.942382	80.62088	No 350/A, Mahamudiyansege, Tangalle Rd, Talalla 81170, Sri Lanka	0.761675	
Matara	Gandara	Devinuwara Aparekka Maha Vidyalaya	False	False	MTRGNDRDVNWRPRKKMHVDYLY		Matara	LK-32	6.142734	80.539994	Gandara	PS-320102	5.941629	80.614037	6.002758	80.604168	2J33+4M3, Aparekka, Sri Lanka	6.886463	
Matara	Dickwella	Divisional Secretariat - Dickwella	False	False	MTRDCKWLLDVSNLSCRTRTDCKWLL		Matara	LK-32	6.142734	80.539994	Dikwella	PS-320103	5.964296	80.693198	5.964398	80.689583	Tnagalle Road, Batigama, Sri Lanka	0.40008	
Matara	Dickwella	Kumarthunga Munidasa Vidyalaya	False	False	MTRDCKWLLKMRTHNGMNDSVDYLY		Matara	LK-32	6.142734	80.539994	Dikwella	PS-320103	5.964296	80.693198	5.965899	80.694907	XM8V+9X3, Dikwella, Sri Lanka	0.259877	
Matara	Dickwella	Kumarthunga Munidasa Mawatha	False	False	MTRDCKWLLKMRTHNGMNDSMWTH		Matara	LK-32	6.142734	80.539994	Dikwella	PS-320103	5.964296	80.693198	5.966208	80.70185	XP82+FPQ, Matara, Sri Lanka	0.980492	
Matara	Dickwella	Gunawardhana Muchalindaramaya	False	False	MTRDCKWLLGNWRDHNMCHLNDRMY		Matara	LK-32	6.142734	80.539994	Dikwella	PS-320103	5.964296	80.693198	5.964296	80.693198	Tangalle Rd, Dikwella, Sri Lanka	0.0	
Matara	Dickwella	Radampala Vidyalaya	False	False	MTRDCKWLLRDMPLVDYLY		Matara	LK-32	6.142734	80.539994	Dikwella	PS-320103	5.964296	80.693198	5.999241	80.667599	Radampola, Sri Lanka	4.809125	
Matara	Hakmana	Panwela Pirivena	False	False	MTRHKMNPNWLPRVN		Matara	LK-32	6.142734	80.539994	Hakmana	PS-320106	6.084824	80.643227	5.948345	80.547404	A2, Matara, Sri Lanka	18.514901	
Matara	Hakmana	Kandagoda Viharaya	False	False	MTRHKMNKNDGDVHRY		Matara	LK-32	6.142734	80.539994	Hakmana	PS-320106	6.084824	80.643227	5.948345	80.547404	A2, Matara, Sri Lanka	18.514901	
Matara	Hakmana	Ellewela Eswattaramaya	False	False	MTRHKMNLLWLSWTTRMY		Matara	LK-32	6.142734	80.539994	Hakmana	PS-320106	6.084824	80.643227	6.097219	80.594267	Ellawala Reservoir, Sri Lanka	5.58785	
Matara	Hakmana	Kongala Kosmo Lanka Garment	False	False	MTRHKMNKNGLKSMLNKGRMNT		Matara	LK-32	6.142734	80.539994	Hakmana	PS-320106	6.084824	80.643227	6.076221	80.635112	Kongala, Hakmana, Sri Lanka	1.311974	
Matara	Thihagoda	Mandalarama Viharaya	False	False	MTRTHHGDMNDLRMVHRY		Matara	LK-32	6.142734	80.539994	Thihagoda	PS-320104	6.01331	80.567932	5.953038	80.575286	Weherahena Rd, Matara, Sri Lanka	6.753224	
Matara	Thihagoda	Puhulwela Centarl College	False	False	MTRTHHGDPHLWLCNTRLCLLG		Matara	LK-32	6.142734	80.539994	Thihagoda	PS-320104	6.01331	80.567932	6.044135	80.626892	B275, Sri Lanka	7.368182	
Matara	Thihagoda	Walakanda Maha Vidyalaya	False	False	MTRTHHGDWLKNDMHVDYLY		Matara	LK-32	6.142734	80.539994	Thihagoda	PS-320104	6.01331	80.567932	6.014342	80.565771	Sri Lanka, Thihagoda, シハゴダ - カンバーウピティヤ＝マワララ＝コタポラ・ロード	0.265177	
Matara	Kamburupitiya	Malana Cultural Centre	False	False	MTRKMBRPTYMLNCLTRLCNTR		Matara	LK-32	6.142734	80.539994	Kamburupitiya	PS-320105	6.073875	80.564579	6.076918	80.581339	Malana, Sri Lanka	1.884389	
Matara	Kamburupitiya	Ganethenna Uparathana Primary School	False	False	MTRKMBRPTYGNTHNNPRTHNPRMRYSCHL		Matara	LK-32	6.142734	80.539994	Kamburupitiya	PS-320105	6.073875	80.564579	6.08864	80.578747	Horapawita Road, Sri Lanka	2.269973	
Matara	Morawaka	Morawaka Primary School	False	False	MTRMRWKMRWKPRMRYSCHL		Matara	LK-32	6.142734	80.539994	Morawaka	PS-320107	6.256777	80.493654	6.269144	80.496085	A17, Morawaka, Sri Lanka	1.401594	
Matara	Morawaka	Kosnilgoda Hospital	False	False	MTRMRWKKSNLGDHSPTL		Matara	LK-32	6.142734	80.539994	Morawaka	PS-320107	6.256777	80.493654	6.243083	80.492626	A17, Sri Lanka	1.527416	
Matara	Weligama	Welihinda Viharaya	False	False	MTRWLGMWLHNDVHRY		Matara	LK-32	6.142734	80.539994	Weligama	PS-320111	5.973301	80.426455	5.98909	80.458075	Welihinda Junction, Weligama - Telijjawila Rd, Sri Lanka	3.914059	
Matara	Deniyaya	Viharahena Viharaya	False	False	MTRDNYYVHRHNVHRY		Matara	LK-32	6.142734	80.539994	Deniyaya	PS-320110	6.341435	80.558719	6.386058	80.602922	Deniyaya, Enasalwaththa Rd, Viharahena, Sri Lanka	6.965077	
Matara	Kananke	Kananke Primary School	False	False	MTRKNNKKNNKPRMRYSCHL		Matara	LK-32	6.142734	80.539994	Kananke	PS-320113	6.041372	80.407222	6.042383	80.411265	A17, Sri Lanka	0.461126	
Matara	Akuressa	Walpita Maha Vidyalaya	False	False	MTRKRSSWLPTMHVDYLY		Matara	LK-32	6.142734	80.539994	Akuressa	PS-320112	6.099044	80.4776	6.088958	80.476156	A24, Amalagoda 81400, Sri Lanka	1.133175	
Matara	Akuressa	Godapitiya Maha Vidyalaya	False	False	MTRKRSSGDPTYMHVDYLY		Matara	LK-32	6.142734	80.539994	Akuressa	PS-320112	6.099044	80.4776	6.097759	80.480499	B3, Akuressa, Sri Lanka	0.351046	
Hambantota	Hambantota	Mobile Medical Team	False	False	HMBNTTHMBNTTMBLMDCLTM		Hambantota	LK-33	6.259779	81.098619	Hambantota	PS-330156	6.125872	81.12521					#CenterLocationUnknown
Hambantota	Hambantota	MOH Office - Hambantota	False	False	HMBNTTHMBNTTMHFFCHMBNTT		Hambantota	LK-33	6.259779	81.098619	Hambantota	PS-330156	6.125872	81.12521	6.171162	81.127	54CG+FQ9, Hambantota, Sri Lanka	5.041487	
Hambantota	Sooriyawewa	Hathporuwa Viharaya	False	False	HMBNTTSRYWWHTHPRWVHRY		Hambantota	LK-33	6.259779	81.098619	Sooriyawewa	PS-330155	6.306022	81.003873	6.288525	80.953136	alioluara,, Sooriyawewa, Sri Lanka	5.937441	
Hambantota	Sooriyawewa	Mahawelikadaara Viharaya	False	False	HMBNTTSRYWWMHWLKDRVHRY		Hambantota	LK-33	6.259779	81.098619	Sooriyawewa	PS-330155	6.306022	81.003873	6.194762	80.94959	5WVX+WR4, Hambantota, Sri Lanka	13.7541	
Hambantota	Ambalantota	Girihadu Viharaya	False	False	HMBNTTMBLNTTGRHDVHRY		Hambantota	LK-33	6.259779	81.098619	Ambalantota	PS-330157	6.12516	81.023981	6.122531	81.01996	A2, Ambalantota, Sri Lanka	0.532233	
Hambantota	Ambalantota	Bolana Maha Vidyalaya	False	False	HMBNTTMBLNTTBLNMHVDYLY		Hambantota	LK-33	6.259779	81.098619	Ambalantota	PS-330157	6.12516	81.023981	6.163388	81.005539	3rd Mile Post, Ridiyagama Road, Bolana, Sri Lanka	4.715923	
Hambantota	Tangalle	Kudawella Fisheries Harbour	False	False	HMBNTTTNGLLKDWLLFSHRSHRBR		Hambantota	LK-33	6.259779	81.098619	Tangalle	PS-330147	6.023954	80.797255	5.976542	80.733193	Fishery Harbour Kudawella, Sri Lanka	8.833493	
Hambantota	Tangalle	Kudawella Walukaramaya	False	False	HMBNTTTNGLLKDWLLWLKRMY		Hambantota	LK-33	6.259779	81.098619	Tangalle	PS-330147	6.023954	80.797255	5.952205	80.64283	Tangalle Rd, Pathegama, Sri Lanka	18.855169	
Hambantota	Tangalle	Nakulugamuwa Hospital	False	False	HMBNTTTNGLLNKLGMWHSPTL		Hambantota	LK-33	6.259779	81.098619	Tangalle	PS-330147	6.023954	80.797255	5.984641	80.724518	Tangalle Rd, Kudawella, Sri Lanka	9.157596	
Hambantota	Tangalle	Moraketiara Viharaya	False	False	HMBNTTTNGLLMRKTRVHRY		Hambantota	LK-33	6.259779	81.098619	Tangalle	PS-330147	6.023954	80.797255	6.122468	80.738218	4PCQ+X7P, Mulgirigala, Sri Lanka	12.755769	
Hambantota	Beliatta	Beliatta Sunandarama Viharaya	False	False	HMBNTTBLTTBLTTSNNDRMVHRY		Hambantota	LK-33	6.259779	81.098619	Beliatta	PS-330152	6.046936	80.735408	6.044645	80.733274	Dikwella - Beliatte Rd, Beliatta, Sri Lanka	0.347353	
Hambantota	Katuwana	Horawinna Maha Vidyalaya	False	False	HMBNTTKTWNHRWNNMHVDYLY		Hambantota	LK-33	6.259779	81.098619	Katuwana	PS-330153	6.269722	80.690963	6.249382	80.70948	Julampitiya Rd, Katuwana, Sri Lanka	3.051265	
Hambantota	Middeniya	Middeniya Primary School	False	False	HMBNTTMDDNYMDDNYPRMRYSCHL		Hambantota	LK-33	6.259779	81.098619	Middeniya	PS-330154	6.248275	80.765018	6.25259	80.764518	Panamura Rd, Middeniya, Sri Lanka	0.48313	
Hambantota	Walasmulla	Kirama Dammananda Vidyalaya	False	False	HMBNTTWLSMLLKRMDMMNNDVDYLY		Hambantota	LK-33	6.259779	81.098619	Walasmulla	PS-330151	6.154102	80.698256	6.210225	80.663487	Dammanada Prathamika Vidyalaya, Kirama, Sri Lanka	7.331603	
Hambantota	Walasmulla	Hadungala Maha Vidyalaya	False	False	HMBNTTWLSMLLHDNGLMHVDYLY		Hambantota	LK-33	6.259779	81.098619	Walasmulla	PS-330151	6.154102	80.698256	6.185472	80.684011	Walasmulla - Katuwana - Middeniya Road, Ethpitiya, Sri Lanka	3.828396	
Hambantota	Agunukolapelessa	Mahanaga National College	False	False	HMBNTTGNKLPLSSMHNGNTNLCLLG		Hambantota	LK-33	6.259779	81.098619	Angunakolapelessa	PS-330150	6.321993	80.844883	6.164902	80.895901	5V7W+X96, Agunukolapelessa, Sri Lanka	18.361223	
Hambantota	Weeraketiya	Hakuruwala Hospital	False	False	HMBNTTWRKTYHKRWLHSPTL		Hambantota	LK-33	6.259779	81.098619	Weeraketiya	PS-330149	6.153899	80.76737	6.143782	80.833594	4RVM+GC8, Agrahara, Sri Lanka	7.409657	
Rathnapura	Opanayaka	Opanayaka Dammaraja Vidyalaya	False	False	RTHNPRPNYKPNYKDMMRJVDYLY		Ratnapura	LK-91	6.586826	80.566158	Opanayaka	PS-910104	6.608519	80.619285	6.611693	80.591317	JH6R+MGG, රත්නපුර, Sri Lanka	3.110298	
Rathnapura	Opanayaka	Dandeniya Vidyalaya	False	False	RTHNPRPNYKDNDNYVDYLY		Ratnapura	LK-91	6.586826	80.566158	Opanayaka	PS-910104	6.608519	80.619285	6.599179	80.615271	HJX8+M4C, Ratnapura, Sri Lanka	1.129597	
Rathnapura	Balangoda	Pattigala Vidyalaya	False	False	RTHNPRBLNGDPTTGLVDYLY		Ratnapura	LK-91	6.586826	80.566158	Balangoda	PS-910103	6.649474	80.700276	6.641498	80.714138	JPR7+HMR, Balangoda, Sri Lanka	1.769912	
Rathnapura	Balangoda	Balangoda Dharmaloka Vidyalaya	False	False	RTHNPRBLNGDBLNGDDHRMLKVDYLY		Ratnapura	LK-91	6.586826	80.566158	Balangoda	PS-910103	6.649474	80.700276	6.641498	80.714138	JPR7+HMR, Balangoda, Sri Lanka	1.769912	
Rathnapura	Balangoda	Thalangama Vidyalaya	False	False	RTHNPRBLNGDTHLNGMVDYLY		Ratnapura	LK-91	6.586826	80.566158	Balangoda	PS-910103	6.649474	80.700276	6.641498	80.714138	JPR7+HMR, Balangoda, Sri Lanka	1.769912	
Rathnapura	Balangoda	Ellepola Vidyalaya	False	False	RTHNPRBLNGDLLPLVDYLY		Ratnapura	LK-91	6.586826	80.566158	Balangoda	PS-910103	6.649474	80.700276	6.630783	80.686023	JMJP+8C6, Balangoda, Sri Lanka	2.607973	
Rathnapura	Balangoda	Hapugahakumbura Vidyalaya	False	False	RTHNPRBLNGDHPGHKMBRVDYLY		Ratnapura	LK-91	6.586826	80.566158	Balangoda	PS-910103	6.649474	80.700276	6.643827	80.729681	Kahatapitiya Rd, Balangoda, Sri Lanka	3.308894	
Rathnapura	Balangoda	Batugammana Youth Corps	False	False	RTHNPRBLNGDBTGMMNYTHCRPS		Ratnapura	LK-91	6.586826	80.566158	Balangoda	PS-910103	6.649474	80.700276	6.59583	80.478836	Watapotha - Kahawatta Road, Sri Lanka	25.183457	#CenterFarFromPolice
Rathnapura	Balangoda	Thotupalatenna Viharaya	False	False	RTHNPRBLNGDTHTPLTNNVHRY		Ratnapura	LK-91	6.586826	80.566158	Balangoda	PS-910103	6.649474	80.700276	6.684101	80.746813	MPMW+JPW, Aluthnuwara, Sri Lanka	6.423975	
Rathnapura	Pinnawala	Morahela Medical Centre	False	False	RTHNPRPNNWLMRHLMDCLCNTR		Ratnapura	LK-91	6.586826	80.566158	Pinnawala	PS-910115	7.299943	80.386604	6.686755	80.69521	Pinnawala Road,Morahala, Balangoda, Sri Lanka	76.241188	#CenterFarFromPolice
Rathnapura	Pinnawala	Geta Eraluwa Vidyalaya	False	False	RTHNPRPNNWLGTRLWVDYLY		Ratnapura	LK-91	6.586826	80.566158	Pinnawala	PS-910115	7.299943	80.386604	6.683533	80.399526	A4, Ratnapura, Sri Lanka	68.578022	#CenterFarFromPolice
Rathnapura	Pinnawala	Hatharabage Vidyalaya	False	False	RTHNPRPNNWLHTHRBGVDYLY		Ratnapura	LK-91	6.586826	80.566158	Pinnawala	PS-910115	7.299943	80.386604	6.658241	80.749144	MP5X+7MR, Ratnapura, Sri Lanka	81.833322	#CenterFarFromPolice
Rathnapura	Pinnawala	Ulupitiya Vidyalaya	False	False	RTHNPRPNNWLLPTYVDYLY		Ratnapura	LK-91	6.586826	80.566158	Pinnawala	PS-910115	7.299943	80.386604	6.773169	80.317655	Kuruwita, Sri Lanka	59.085287	#CenterFarFromPolice
Rathnapura	Godakawela	Muththettupala Vidyalaya	False	False	RTHNPRGDKWLMTHTHTTPLVDYLY		Ratnapura	LK-91	6.586826	80.566158	Godakawela	PS-910233	6.50224	80.655642	6.505873	80.640843	GJ4R+88W, Ratnapura, Sri Lanka	1.684679	
Rathnapura	Godakawela	Galpaya Vidyalaya	False	False	RTHNPRGDKWLGLPYVDYLY		Ratnapura	LK-91	6.586826	80.566158	Godakawela	PS-910233	6.50224	80.655642	6.504662	80.755842	Unnamed Road,, Sri Lanka	11.076787	
Rathnapura	Godakawela	Bambaragala Communty Hall	False	False	RTHNPRGDKWLBMBRGLCMMNTYHLL		Ratnapura	LK-91	6.586826	80.566158	Godakawela	PS-910233	6.50224	80.655642	6.5207	80.64428	OwinRich Resort, Werahera, Godakawela, [70160] District: Rathnapura /, Province: Sabaragamuwa, Godakawela 70160, Sri Lanka	2.4068	
Rathnapura	Godakawela	Welkeniyaya Vidyalaya	False	False	RTHNPRGDKWLWLKNYYVDYLY		Ratnapura	LK-91	6.586826	80.566158	Godakawela	PS-910233	6.50224	80.655642	6.514872	80.682233	Rathnapura State Rd, Sri Lanka	3.257275	
Rathnapura	Godakawela	Niyangama Vidyalaya	False	False	RTHNPRGDKWLNYNGMVDYLY		Ratnapura	LK-91	6.586826	80.566158	Godakawela	PS-910233	6.50224	80.655642	6.505873	80.640843	GJ4R+88W, Ratnapura, Sri Lanka	1.684679	
Rathnapura	Godakawela	Thambalagamuwa Vidyalaya	False	False	RTHNPRGDKWLTHMBLGMWVDYLY		Ratnapura	LK-91	6.586826	80.566158	Godakawela	PS-910233	6.50224	80.655642	6.505873	80.640843	GJ4R+88W, Ratnapura, Sri Lanka	1.684679	
Rathnapura	Godakawela	Ukkungoda Vidyalaya	False	False	RTHNPRGDKWLKKNGDVDYLY		Ratnapura	LK-91	6.586826	80.566158	Godakawela	PS-910233	6.50224	80.655642	6.505873	80.640843	GJ4R+88W, Ratnapura, Sri Lanka	1.684679	
Rathnapura	Godakawela	Mahagama Dispensary	False	False	RTHNPRGDKWLMHGMDSPNSRY		Ratnapura	LK-91	6.586826	80.566158	Godakawela	PS-910233	6.50224	80.655642	6.73847	80.273073	P7QF+96P, Ratnapura, Sri Lanka	49.770604	#CenterFarFromPolice
Rathnapura	Godakawela	Bisokutuwa Viharaya	False	False	RTHNPRGDKWLBSKTWVHRY		Ratnapura	LK-91	6.586826	80.566158	Godakawela	PS-910233	6.50224	80.655642	7.57635	81.288109	H7GQ+G6X, Sri Lanka	138.377559	#CenterFarFromPolice
Rathnapura	Embilipitiya	Padalangala Viharaya	False	False	RTHNPRMBLPTYPDLNGLVHRY		Ratnapura	LK-91	6.586826	80.566158	Embilipitiya	PS-910237	6.321993	80.844883	6.440955	80.759711	Pelmadulla - Embilipitiya Hwy, Ratnapura, Sri Lanka	16.239723	
Rathnapura	Kuttigala	Moraketiya Vidyalaya	False	False	RTHNPRKTTGLMRKTYVDYLY		Ratnapura	LK-91	6.586826	80.566158	Kuttigala	PS-910238	6.260475	80.907389	6.340635	80.880629	8VRJ+772, Embilipitiya, Sri Lanka	9.394213	
Rathnapura	Kolonna	Omalpe Vidyalaya	False	False	RTHNPRKLNNMLPVDYLY		Ratnapura	LK-91	6.586826	80.566158	Kolonna	PS-910235	6.40194	80.687615	6.326763	80.69649	Omalpe, Sri Lanka	8.419282	
Rathnapura	Kolonna	Koppakanda Vidyalaya	False	False	RTHNPRKLNNKPPKNDVDYLY		Ratnapura	LK-91	6.586826	80.566158	Kolonna	PS-910235	6.40194	80.687615	6.345406	80.684299	Urubokka Rd,Koppakanda, Sri Lanka	6.298942	
Rathnapura	Ayagama	Pimbura Vidyalaya	False	False	RTHNPRYGMPMBRVDYLY		Ratnapura	LK-91	6.586826	80.566158	Ayagama	PS-910109	6.637727	80.312554	6.584387	80.35261	H9M3+Q25, Ratnapura, Sri Lanka	7.401902	
Rathnapura	Ayagama	Udagala Vidyalaya	False	False	RTHNPRYGMDGLVDYLY		Ratnapura	LK-91	6.586826	80.566158	Ayagama	PS-910109	6.637727	80.312554	6.63323	80.312619	Ayagama, Sri Lanka	0.500252	
Rathnapura	Ayagama	Gongodakanda Viharaya	False	False	RTHNPRYGMGNGDKNDVHRY		Ratnapura	LK-91	6.586826	80.566158	Ayagama	PS-910109	6.637727	80.312554	6.638532	80.311821	J8Q6+CP8, Ayagama, Sri Lanka	0.120731	
Rathnapura	Ayagama	Gawaragiriya Vidyalaya	False	False	RTHNPRYGMGWRGRYVDYLY		Ratnapura	LK-91	6.586826	80.566158	Ayagama	PS-910109	6.637727	80.312554	6.650406	80.262797	Gawaragiriya, Sri Lanka	5.675309	
Rathnapura	Rathnapura	MOH Office - Rathnapura	False	False	RTHNPRRTHNPRMHFFCRTHNPR		Ratnapura	LK-91	6.586826	80.566158	Ratnapura	PS-910101	6.679456	80.40223	6.687915	80.393434	M9QV+597, Ratnapura, Sri Lanka	1.352603	
Rathnapura	Rathnapura	Kotamulla Viharaya	False	False	RTHNPRRTHNPRKTMLLVHRY		Ratnapura	LK-91	6.586826	80.566158	Ratnapura	PS-910101	6.679456	80.40223	6.666909	80.382503	M98M+Q26, Ratnapura, Sri Lanka	2.587921	
Rathnapura	Kahawatta	Divisional Secretariat - Kahawatta	False	False	RTHNPRKHWTTDVSNLSCRTRTKHWTT		Ratnapura	LK-91	6.586826	80.566158	Kahawatta	PS-910107	6.591434	80.56893	6.533551	80.593332	Pelmadulla - Embilipitiya Hwy, Kavuduwawa 70294, Sri Lanka	6.980168	
Rathnapura	Nivithigala	Sri Dewananda Pirivena	False	False	RTHNPRNVTHGLSRDWNNDPRVN		Ratnapura	LK-91	6.586826	80.566158	Nivithigala	PS-910111	6.592765	80.459492	6.586644	80.503381	Watapotha-Manadola Rd, Watapotha, Sri Lanka	4.897074	
Rathnapura	Rakwana	Demuwatha Viharaya	False	False	RTHNPRRKWNDMWTHVHRY		Ratnapura	LK-91	6.586826	80.566158	Rakwana	PS-910108	6.470133	80.613684	6.501917	80.580039	Digandala - Demuwawatha Rd, Sri Lanka	5.130776	
Rathnapura	Rakwana	Pannila Viharaya	False	False	RTHNPRRKWNPNNLVHRY		Ratnapura	LK-91	6.586826	80.566158	Rakwana	PS-910108	6.470133	80.613684	6.464724	80.61604	Rakwana, Sri Lanka	0.655573	
Rathnapura	Pelmadulla	Mahinda Vidyalaya	False	False	RTHNPRPLMDLLMHNDVDYLY		Ratnapura	LK-91	6.586826	80.566158	Pelmadulla	PS-910117	6.632692	80.521315	6.630199	80.53881	Colombo - Batticaloa Hwy, Pelmadulla, Sri Lanka	1.952735	
Rathnapura	Kuruwita	Kuruwita Central College	False	False	RTHNPRKRWTKRWTCNTRLCLLG		Ratnapura	LK-91	6.586826	80.566158	Kuruwita	PS-910112	6.778839	80.364712	6.781492	80.362037	A4, Ratnapura 70500, Sri Lanka	0.417583	
Rathnapura	Kuruwita	Sugathanagabodhi Viharaya	False	False	RTHNPRKRWTSGTHNGBDHVHRY		Ratnapura	LK-91	6.586826	80.566158	Kuruwita	PS-910112	6.778839	80.364712	6.77558	80.35651	Q9G4+6JJ, Kuruwita, Sri Lanka	0.975765	
Rathnapura	Kuruwita	Wanaihalaketiya Viharaya	False	False	RTHNPRKRWTWNHLKTYVHRY		Ratnapura	LK-91	6.586826	80.566158	Kuruwita	PS-910112	6.778839	80.364712	6.77558	80.35651	Q9G4+6JJ, Kuruwita, Sri Lanka	0.975765	
Rathnapura	Kuruwita	Paladeniya Vidyalaya	False	False	RTHNPRKRWTPLDNYVDYLY		Ratnapura	LK-91	6.586826	80.566158	Kuruwita	PS-910112	6.778839	80.364712	6.831625	80.425437	Erathna, Sri Lanka	8.913744	
Rathnapura	Kuruwita	Ekneligoda Vidyalaya	False	False	RTHNPRKRWTKNLGDVDYLY		Ratnapura	LK-91	6.586826	80.566158	Kuruwita	PS-910112	6.778839	80.364712	6.778372	80.377222	Kuruwita Erathna Rd, Kuruwita, Sri Lanka	1.382734	
Rathnapura	Kuruwita	Batathota Vidyalaya	False	False	RTHNPRKRWTBTTHTVDYLY		Ratnapura	LK-91	6.586826	80.566158	Kuruwita	PS-910112	6.778839	80.364712	6.776506	80.395949	Q9GW+J94, Kuruwita, Sri Lanka	3.45995	
Rathnapura	Kuruwita	Omega Hotel	False	False	RTHNPRKRWTMGHTL		Ratnapura	LK-91	6.586826	80.566158	Kuruwita	PS-910112	6.778839	80.364712	6.829136	80.399616	Lassakanda, Erathna, Kuruwita 70500, Sri Lanka	6.794111	
Kegalle	Mawanella	Makadawara Health Centre	False	False	KGLLMWNLLMKDWRHLTHCNTR		Kegalle	LK-92	7.104216	80.342866	Mawanella	PS-920122	7.256966	80.445912	7.252871	80.446512	61 Rambukkana-Mawanella Rd, Mawanella, Sri Lanka	0.460272	
Kegalle	Kegalle	MOH Office - Kegalle	False	False	KGLLKGLLMHFFCKGLL		Kegalle	LK-92	7.104216	80.342866	Kegalle	PS-920118	7.255928	80.353156	7.24797	80.343583	Kegalle-Bulathkohupitiya-Karawanella Hwy, Kegalle, Sri Lanka	1.378052	
Kegalle	Kegalle	Debatanpitiya Health Centre	False	False	KGLLKGLLDBTNPTYHLTHCNTR		Kegalle	LK-92	7.104216	80.342866	Kegalle	PS-920118	7.255928	80.353156	7.247767	80.345253	Bandaranayaka Ave, Kegalle 71000, Sri Lanka	1.258737	
Kegalle	Bulathkohupitiya	MOH Office - Bulathkohupitiya	False	False	KGLLBLTHKHPTYMHFFCBLTHKHPTY		Kegalle	LK-92	7.104216	80.342866	Bulathkohupitiya	PS-920232	7.106684	80.3347	7.109127	80.334565	485M+MR4, Bulathkohupitiya, Sri Lanka	0.272143	
Kegalle	Dewalagama	MOH Office - Galigamuwa	False	False	KGLLDWLGMMHFFCGLGMW		Kegalle	LK-92	7.104216	80.342866	Dewalagama		7.285171	80.321988	7.240448	80.300505	ballapana, galigamuwa town, Sri Lanka	5.510414	
Anuradhapura	Anuradhapura	Army Hospital Anuradhapura	False	False	NRDHPRNRDHPRRMYHSPTLNRDHPR		Anuradhapura	LK-71	8.39199	80.512958	Anuradapura	PS-710101	8.329752	80.407265	8.338302	80.407646	AB02, Anuradhapura, Sri Lanka	0.951939	
Anuradhapura	Anuradhapura	62 DIV	False	False	NRDHPRNRDHPRDV		Anuradhapura	LK-71	8.39199	80.512958	Anuradapura	PS-710101	8.329752	80.407265	8.311352	80.403651	Anuradhapura, Sri Lanka	2.084922	
Anuradhapura	Anuradhapura	Walisinghe Harischandra Ground	False	False	NRDHPRNRDHPRWLSNGHHRSCHNDRGRND		Anuradhapura	LK-71	8.39199	80.512958	Anuradapura	PS-710101	8.329752	80.407265	8.337404	80.405697	8CP4+X78, Anuradhapura, Sri Lanka	0.868448	
Anuradhapura	Anuradhapura	Youth Corps Training Centre	False	False	NRDHPRNRDHPRYTHCRPSTRNNGCNTR		Anuradhapura	LK-71	8.39199	80.512958	Anuradapura	PS-710101	8.329752	80.407265	8.284354	80.426406	7CMG+PHR, Anuradhapura, Sri Lanka	5.471455	
Anuradhapura	Anuradhapura	Pradeshiya Shabha - Vijayapura	False	False	NRDHPRNRDHPRPRDSHYSHBHVJYPR		Anuradhapura	LK-71	8.39199	80.512958	Anuradapura	PS-710101	8.329752	80.407265	8.304729	80.417186	Nagasena Mawatha, Anuradhapura, Sri Lanka	2.989822	
Anuradhapura	Anuradhapura	Nelumvila Clinic	False	False	NRDHPRNRDHPRNLMVLCLNC		Anuradhapura	LK-71	8.39199	80.512958	Anuradapura	PS-710101	8.329752	80.407265	8.309455	80.442131	Opposite Medical Corps camp, New Kandy Road, Anuradhapura 50000, Sri Lanka	4.452188	
Anuradhapura	Mihintale	MOH Office - Mihintale	False	False	NRDHPRMHNTLMHFFCMHNTL		Anuradhapura	LK-71	8.39199	80.512958	Mihintale	PS-710104	8.360062	80.511889	8.357612	80.509049	Puttalam - Anuradhapura - Trincomalee Hwy, Mihintale, Sri Lanka	0.41466	
Anuradhapura	Galenbindunuwewa	MOH Office - Galenbindunuwewa	False	False	NRDHPRGLNBNDNWWMHFFCGLNBNDNWW		Anuradhapura	LK-71	8.39199	80.512958	Galenbidunuwewa	PS-710121	8.29037	80.71501	8.292134	80.717284	7PR8+VW3, Galenbindunuwewa, Sri Lanka	0.318033	
Polonnaruwa	Dimbulagala	Mobile Medical Team - Dimbulagala	False	False	PLNNRWDMBLGLMBLMDCLTMDMBLGL		Polonnaruwa	LK-72	7.993659	81.026061	Daulagala	PS-210111	7.227283	80.574409					#CenterLocationUnknown
Polonnaruwa	Welikanda	Mobile Medical Team - Welikanda	False	False	PLNNRWWLKNDMBLMDCLTMWLKND		Polonnaruwa	LK-72	7.993659	81.026061	Welikanda	PS-720127	7.946441	81.245381					#CenterLocationUnknown
Polonnaruwa	Lankapura	Mobile Medical Team - Lankapura	False	False	PLNNRWLNKPRMBLMDCLTMLNKPR		Polonnaruwa	LK-72	7.993659	81.026061	Lankapura		8.02851	81.032467					#CenterLocationUnknown
Polonnaruwa	Lankapura	Kegalugama Vidyalaya	False	False	PLNNRWLNKPRKGLGMVDYLY		Polonnaruwa	LK-72	7.993659	81.026061	Lankapura		8.02851	81.032467	8.017975	81.050281	2392+54J, Polonnaruwa, Sri Lanka	2.285341	
Polonnaruwa	Lankapura	Abhayapura Vidyalaya	False	False	PLNNRWLNKPRBHYPRVDYLY		Polonnaruwa	LK-72	7.993659	81.026061	Lankapura		8.02851	81.032467	8.017975	81.050281	2392+54J, Polonnaruwa, Sri Lanka	2.285341	
Polonnaruwa	Lankapura	Al Iraq Vidyalaya	False	False	PLNNRWLNKPRLRQVDYLY		Polonnaruwa	LK-72	7.993659	81.026061	Lankapura		8.02851	81.032467	8.017975	81.050281	2392+54J, Polonnaruwa, Sri Lanka	2.285341	
Polonnaruwa	Lankapura	Sungawila Vidyalaya	False	False	PLNNRWLNKPRSNGWLVDYLY		Polonnaruwa	LK-72	7.993659	81.026061	Lankapura		8.02851	81.032467	8.073131	81.090156	School Rd, Sungavila, Sri Lanka	8.062266	
Polonnaruwa	Lankapura	Alhilalpura Vidyalaya	False	False	PLNNRWLNKPRLHLLPRVDYLY		Polonnaruwa	LK-72	7.993659	81.026061	Lankapura		8.02851	81.032467	8.014314	81.079627	Al Hilalpura, Thambala, Polonnaruwa, Somawathiya Rd, Thambala, Sri Lanka	5.428978	
Polonnaruwa	Lankapura	Weerapura Vidyalaya	False	False	PLNNRWLNKPRWRPRVDYLY		Polonnaruwa	LK-72	7.993659	81.026061	Lankapura		8.02851	81.032467	8.000985	81.062406	2326+9XR, Polonnaruwa, Sri Lanka	4.499717	
Polonnaruwa	Lankapura	Wijithapura Maha Vidyalaya	False	False	PLNNRWLNKPRWJTHPRMHVDYLY		Polonnaruwa	LK-72	7.993659	81.026061	Lankapura		8.02851	81.032467	8.017975	81.050281	2392+54J, Polonnaruwa, Sri Lanka	2.285341	
Polonnaruwa	Polonnaruwa	Yaya 13 Community Hall	False	False	PLNNRWPLNNRWYYCMMNTYHLL		Polonnaruwa	LK-72	7.993659	81.026061	Polonnaruwa	PS-720125	7.924307	81.036895	7.940338	81.018798	Polonnaruwa, Sri Lanka	2.674741	
Polonnaruwa	Polonnaruwa	Kadawalawewa Vidyalaya	False	False	PLNNRWPLNNRWKDWLWWVDYLY		Polonnaruwa	LK-72	7.993659	81.026061	Polonnaruwa	PS-720125	7.924307	81.036895	7.959279	80.966211	Sri Lanka	8.704322	
Polonnaruwa	Polonnaruwa	Bandiwewa Vidyalaya	False	False	PLNNRWPLNNRWBNDWWVDYLY		Polonnaruwa	LK-72	7.993659	81.026061	Polonnaruwa	PS-720125	7.924307	81.036895	7.9151	80.998913	WX8X+2HM, පොළොන්නරු, Sri Lanka	4.307932	
Polonnaruwa	Polonnaruwa	Kalahagala Viharaya	False	False	PLNNRWPLNNRWKLHGLVHRY		Polonnaruwa	LK-72	7.993659	81.026061	Polonnaruwa	PS-720125	7.924307	81.036895	7.966052	81.004948	X283+CXG, Nissankamallapura, Sri Lanka	5.826316	
Polonnaruwa	Polonnaruwa	Nelumvila Clinic	False	False	PLNNRWPLNNRWNLMVLCLNC		Polonnaruwa	LK-72	7.993659	81.026061	Polonnaruwa	PS-720125	7.924307	81.036895	7.943206	81.009552	District Genaral Hospital, Polonnaruwa, Sri Lanka	3.673226	
Polonnaruwa	Polonnaruwa	Parakrama Samudra Vidyalaya	False	False	PLNNRWPLNNRWPRKRMSMDRVDYLY		Polonnaruwa	LK-72	7.993659	81.026061	Polonnaruwa	PS-720125	7.924307	81.036895	7.888895	80.978645	VXQH+HF2, Polonnaruwa, Sri Lanka	7.529912	
Polonnaruwa	Polonnaruwa	Al Amina Primary School	False	False	PLNNRWPLNNRWLMNPRMRYSCHL		Polonnaruwa	LK-72	7.993659	81.026061	Polonnaruwa	PS-720125	7.924307	81.036895	7.933826	81.042611	W2MV+G2Q, Polonnaruwa, Sri Lanka	1.231904	
Jaffna	Jaffna	Mobile Medical Team	False	False	JFFNJFFNMBLMDCLTM		Jaffna	LK-41	9.691792	80.098594	Jaffna	PS-410209	9.659919	80.010965					#CenterLocationUnknown
Jaffna	Jaffna	Mobile Medical Team	False	False	JFFNJFFNMBLMDCLTM		Jaffna	LK-41	9.691792	80.098594	Jaffna	PS-410209	9.659919	80.010965					#CenterLocationUnknown
Jaffna	Ilavalai	Sahayamatha Church - Sahayapuram Ilavalai	False	False	JFFNLVLSHYMTHCHRCHSHYPRMLVL		Jaffna	LK-41	9.691792	80.098594	Ilavalai	PS-410102	9.775967	79.983146	9.801442	79.976681	Mathagal Rd, Ilavalai, Sri Lanka	2.920845	
Jaffna	Manippai	Manippai Hospital	False	False	JFFNMNPPMNPPHSPTL		Jaffna	LK-41	9.691792	80.098594	Manippai	PS-410210	9.727151	79.996905	9.725939	79.998028	Manipay, Sri Lanka	0.182569	
Jaffna	Kayts	MOH Office - Karainagar	False	False	JFFNKYTSMHFFCKRNGR		Jaffna	LK-41	9.691792	80.098594	Kayts	PS-410212	9.728654	79.94775	9.725097	79.99772	Sri Lanka, Manipay, Sri Lanka	5.492521	
Jaffna	Kayts	MOH Office - Kayts	False	False	JFFNKYTSMHFFCKYTS		Jaffna	LK-41	9.691792	80.098594	Kayts	PS-410212	9.728654	79.94775	9.697759	79.866366	Sri Lanka, Kayts, Sri Lanka	9.561445	
Jaffna	Wadukkotte	MOH Office - Chankanai	False	False	JFFNWDKKTTMHFFCCHNKN		Jaffna	LK-41	9.691792	80.098594	Vaddukoddai		9.728886	79.947771	9.753617	79.976004	QX3G+CCR, Sri Lanka	4.140836	
Jaffna	Kodikamam	Varani Base Hospital	False	False	JFFNKDKMMVRNBSHSPTL		Jaffna	LK-41	9.691792	80.098594	Kodikamam	PS-410217	9.666459	80.132384	9.677952	80.236663	M6HP+5MM, Jaffna, Sri Lanka	11.505299	
Jaffna	Chavakachcheri	MOH Office - Chavakachcheri	False	False	JFFNCHVKCHCHRMHFFCCHVKCHCHR		Jaffna	LK-41	9.691792	80.098594	Chawakachcheri	PS-410215	9.666459	80.132384	9.663455	80.166068	Dutch Rd, Chavakachcheri, Sri Lanka	3.70857	
Kilinochchi	Kilinochchi	Mobile Medical Team	False	False	KLNCHCHKLNCHCHMBLMDCLTM		Kilinochchi	LK-45	9.415742	80.30358	Kilinochchi	PS-450131	9.392265	80.407846					#CenterLocationUnknown
Kilinochchi	Pooneryn	MOH Office - Pooneryn	False	False	KLNCHCHPNRYNMHFFCPNRYN		Kilinochchi	LK-45	9.415742	80.30358	Pooneryn		9.505717	80.21101	9.507968	80.208317	G655+58P, Pooneryn, Sri Lanka	0.387256	
Mullaitivu	Mullaitivu	Mobile Medical Team	False	False	MLLTVMLLTVMBLMDCLTM		Mullaitivu	LK-44	9.167643	80.549091	Mullativu	PS-440148	9.212825	80.760159					#CenterLocationUnknown
Mullaitivu	Oddusuddan	MOH Office - Oddusuddan	False	False	MLLTVDDSDDNMHFFCDDSDDN		Mullaitivu	LK-44	9.167643	80.549091	Oddusudan	PS-440151	9.160983	80.652821	9.162816	80.661584	5M76+4JG, Oddusuddan, Sri Lanka	0.983634	
Mullaitivu	Pudukudiruppu	MOH Office - Pudukudiruppu	False	False	MLLTVPDKDRPPMHFFCPDKDRPP		Mullaitivu	LK-44	9.167643	80.549091	Pudukuduiruppu	PS-440149	7.00152	79.95003	9.320965	80.683013	Parantan-Mullaitivu Hwy, Velikkandal, Sri Lanka	270.317914	#CenterFarFromPolice
Mullaitivu	Mallavi	Mobile Vaccination	False	False	MLLTVMLLVMBLVCCNTN		Mullaitivu	LK-44	9.167643	80.549091	Mallavi	PS-440153	9.137878	80.307257					#CenterLocationUnknown
Mullaitivu	Mallavi	MOH Office - Mallavi	False	False	MLLTVMLLVMHFFCMLLV		Mullaitivu	LK-44	9.167643	80.549091	Mallavi	PS-440153	9.137878	80.307257	9.136526	80.307948	48P5+J58, Mallavi, Sri Lanka	0.168444	
Mannar	Mannar	Mobile Medical Team	False	False	MNNRMNNRMBLMDCLTM		Mannar	LK-42	8.877429	80.088628	Mannar	PS-420138	8.978123	79.911642					#CenterLocationUnknown
Vavuniya	Vavuniya	Mobile Medical Team	False	False	VVNYVVNYMBLMDCLTM		Vavuniya	LK-43	8.852071	80.467404	Vavuniya	PS-430119	8.754431	80.498604					#CenterLocationUnknown
Trincomalee	Trincomalee	Mobile Medical Team	False	False	TRNCMLTRNCMLMBLMDCLTM		Trincomalee	LK-53	8.551241	81.092014	Trincomalee	PS-530130	8.563946	81.234023					#CenterLocationUnknown
Trincomalee	Muttur	MOH Office – Muttur	False	False	TRNCMLMTTRMHFFCMTTR		Trincomalee	LK-53	8.551241	81.092014	Mutur	PS-530138	8.461133	81.259371	8.453916	81.264494	1 Old Batticaloa Rd, Mutur, Sri Lanka	0.980859	
Trincomalee	Kinniya	MOH Office - Kuruggankeni	False	False	TRNCMLKNNYMHFFCKRGGNKN		Trincomalee	LK-53	8.551241	81.092014	Kinnia	PS-530140	6.907289	79.863819	8.498696	81.179644	F5XH+FVC, Kinniya 31100, Sri Lanka	228.840304	#CenterFarFromPolice
Trincomalee	Kinniya	MOH Office – Kinniya	False	False	TRNCMLKNNYMHFFCKNNY		Trincomalee	LK-53	8.551241	81.092014	Kinnia	PS-530140	6.907289	79.863819	8.498696	81.179644	F5XH+FVC, Kinniya 31100, Sri Lanka	228.840304	#CenterFarFromPolice
Trincomalee	Sripura	MOH Office – Sripura	False	False	TRNCMLSRPRMHFFCSRPR		Trincomalee	LK-53	8.551241	81.092014	Sripura	PS-530136	8.929617	80.81428	8.926697	80.814799	Padavi Sripura, Padaviya - Sripura Road, Welioya, Sri Lanka	0.329869	
Trincomalee	Kuchchaveli	MOH Office - Kuchchaveli	False	False	TRNCMLKCHCHVLMHFFCKCHCHVL		Trincomalee	LK-53	8.551241	81.092014	Kuchchaweli	PS-530133	8.81895	81.100438	8.740082	81.161616	P5R6+2JQ, Kumpurupiddi, Sri Lanka	11.053646	
Trincomalee	Kuchchaveli	Divisional Hospital - Kuchchaveli	False	False	TRNCMLKCHCHVLDVSNLHSPTLKCHCHVL		Trincomalee	LK-53	8.551241	81.092014	Kuchchaweli	PS-530133	8.81895	81.100438	8.814795	81.102358	R472+WW9, Kuchchaveli, Sri Lanka	0.508064	
Trincomalee	Kuchchaveli	Divisional Hospital - Nilaveli	False	False	TRNCMLKCHCHVLDVSNLHSPTLNLVL		Trincomalee	LK-53	8.551241	81.092014	Kuchchaweli	PS-530133	8.81895	81.100438	8.681035	81.193632	M5JV+CF6, Nilaveli, Sri Lanka	18.44695	
Trincomalee	Kantale	MOH Office – Kantale	False	False	TRNCMLKNTLMHFFCKNTL		Trincomalee	LK-53	8.551241	81.092014	Kantale	PS-530241	8.356129	81.007739	8.349617	81.009107	අග්‍රබෝධි මාවත, Kantale, Sri Lanka	0.739809	
Trincomalee	Pulmoddai	Pulmoddai Base Hospital	False	False	TRNCMLPLMDDPLMDDBSHSPTL	Base Hospital - Pulmoddai	Trincomalee	LK-53	8.551241	81.092014	Pulmudai	PS-530135	6.915266	79.87829	8.941204	80.983139	WXRM+F7J, Pulmoddai, Sri Lanka	256.112801	#CenterFarFromPolice
Trincomalee	Serunuwara	MOH Office - Serunuwara	False	False	TRNCMLSRNWRMHFFCSRNWR		Trincomalee	LK-53	8.551241	81.092014	Serunuwara	PS-530244	8.321863	81.299322	8.323143	81.299894	B10, Sri Lanka	0.155671	
Trincomalee	Harbour Police	MOH Office - Trincomalee	False	False	TRNCMLHRBRPLCMHFFCTRNCML		Trincomalee	LK-53	8.551241	81.092014	Trinco Harbour Police	PS-530131	8.56705	81.231407	8.598974	81.216963	MOH Office, Farm Rd, Trincomalee, Sri Lanka	3.890062	
Trincomalee	Uppuveli	MOH Office - Uppuveli	False	False	TRNCMLPPVLMHFFCPPVL		Trincomalee	LK-53	8.551241	81.092014	Uppuweli	PS-530134	8.593614	81.21743	8.607961	81.216512	Nilaveli Rd, Trincomalee, Sri Lanka	1.599005	
Trincomalee	Ichchalampattu	MOH Office - Ichchalampattu	False	False	TRNCMLCHCHLMPTTMHFFCCHCHLMPTT		Trincomalee	LK-53	8.551241	81.092014	Ichchalampattu		8.289549	81.359002	6.788131	79.883651	Station Road, Rawathawaththa, Moratuwa, Lunawa Station Rd, Moratuwa 10400, Sri Lanka	233.14046	#CenterFarFromPolice
Trincomalee	Thambalagamuwa	MOH Office - Thambalagamuwa	False	False	TRNCMLTHMBLGMWMHFFCTHMBLGMW		Trincomalee	LK-53	8.551241	81.092014	Thambalagamuva	PS-530243	6.907289	79.863819	8.563603	81.239584	Hospital Ln, Trincomalee, Sri Lanka	238.604889	#CenterFarFromPolice
Trincomalee	Gomarankadawala	MOH Office - Gomarankadawala	False	False	TRNCMLGMRNKDWLMHFFCGMRNKDWL		Trincomalee	LK-53	8.551241	81.092014	Gomarankadawala	PS-530248	8.674487	80.967555	8.674726	80.955691	Unnamed Road, Gomarankadawala, Sri Lanka	1.304806	
Batticaloa	Batticaloa	Mobile Medical Team	False	False	BTTCLBTTCLMBLMDCLTM		Batticaloa	LK-51	7.792772	81.486513	Batticaloa	PS-510101	7.717949	81.699294					#CenterLocationUnknown
Batticaloa	Batticaloa	Kalladi Sivananda Vidyalaya	False	False	BTTCLBTTCLKLLDSVNNDVDYLY		Batticaloa	LK-51	7.792772	81.486513	Batticaloa	PS-510101	7.717949	81.699294	7.70372	81.716302	Batticaloa, Sri Lanka	2.453441	
Batticaloa	Batticaloa	Swami Vipulananda Vidyalaya	False	False	BTTCLBTTCLSWMVPLNNDVDYLY		Batticaloa	LK-51	7.792772	81.486513	Batticaloa	PS-510101	7.717949	81.699294	7.718067	81.712712	PP97+63G, Kallady, Sri Lanka	1.47902	
Batticaloa	Batticaloa	Anunodaya Vidyalaya	False	False	BTTCLBTTCLNNDYVDYLY		Batticaloa	LK-51	7.792772	81.486513	Batticaloa	PS-510101	7.717949	81.699294	7.720143	81.700516	PPC2+362, Batticaloa, Sri Lanka	0.278741	
Batticaloa	Batticaloa	Sisiliya Vidyalaya	False	False	BTTCLBTTCLSSLYVDYLY		Batticaloa	LK-51	7.792772	81.486513	Batticaloa	PS-510101	7.717949	81.699294	7.71171	81.694749	Mahilady Rd, Batticaloa, Sri Lanka	0.855891	
Batticaloa	Batticaloa	RDHS Office	False	False	BTTCLBTTCLRDHSFFC		Batticaloa	LK-51	7.792772	81.486513	Batticaloa	PS-510101	7.717949	81.699294	7.718332	81.698836	Trinco Rd, Batticaloa, Sri Lanka	0.066055	
Batticaloa	Batticaloa	RKM Kalladi	False	False	BTTCLBTTCLRKMKLLD		Batticaloa	LK-51	7.792772	81.486513	Batticaloa	PS-510101	7.717949	81.699294	7.706131	81.713372	PP47+F85, Kallady, Sri Lanka	2.03367	
Batticaloa	Kokkadichcholai	Ambalanthurai Vidyalaya	False	False	BTTCLKKKDCHCHLMBLNTHRVDYLY		Batticaloa	LK-51	7.792772	81.486513	Kokkadicholai	PS-510112	7.715979	81.698757	7.669096	81.735067	Village Ct Rd, Kattankudy, Sri Lanka	6.573682	
Batticaloa	Kokkadichcholai	Arasaditich Vidyalaya	False	False	BTTCLKKKDCHCHLRSDTCHVDYLY		Batticaloa	LK-51	7.792772	81.486513	Kokkadicholai	PS-510112	7.715979	81.698757	7.598673	81.724562	HPXF+FR7, Batticaloa, Sri Lanka	13.354425	
Batticaloa	Vellawali	Vellawali Kalemagal Vidyalaya	False	False	BTTCLVLLWLVLLWLKLMGLVDYLY		Batticaloa	LK-51	7.792772	81.486513	Vellavali	PS-510111	6.907289	79.863819	7.720143	81.700516	PPC2+362, Batticaloa, Sri Lanka	221.887623	#CenterFarFromPolice
Batticaloa	Vellawali	Kovil Portich Vidyalaya	False	False	BTTCLVLLWLKVLPRTCHVDYLY		Batticaloa	LK-51	7.792772	81.486513	Vellavali	PS-510111	6.907289	79.863819	7.5182	81.75479	kovilporathivu, Sri Lanka	219.452145	#CenterFarFromPolice
Batticaloa	Kaluwanchikudy	Thurenilamune Hospital	False	False	BTTCLKLWNCHKDYTHRNLMNHSPTL		Batticaloa	LK-51	7.792772	81.486513	Kalawanchikudy	PS-510110	7.515908	81.787051	7.51724	81.785184	GQ8P+V3V, Kaluwanchikudy, Sri Lanka	0.25365	
Batticaloa	Kaluwanchikudy	Periya Kallar Arulananda Vidyalaya	False	False	BTTCLKLWNCHKDYPRYKLLRRLNNDVDYLY		Batticaloa	LK-51	7.792772	81.486513	Kalawanchikudy	PS-510110	7.515908	81.787051	7.517234	81.786135	Paddiruppu M.M.V National School, Base Hospital Road Kaluwanchikudi - Vellaveli Rd, Kaluwanchikudy 038975, Sri Lanka	0.178765	
Batticaloa	Kaluwanchikudy	Periya Kallar Udayapura Vidyalaya	False	False	BTTCLKLWNCHKDYPRYKLLRDYPRVDYLY		Batticaloa	LK-51	7.792772	81.486513	Kalawanchikudy	PS-510110	7.515908	81.787051	7.517234	81.786135	Paddiruppu M.M.V National School, Base Hospital Road Kaluwanchikudi - Vellaveli Rd, Kaluwanchikudy 038975, Sri Lanka	0.178765	
Batticaloa	Valachchenai	MOH Office - Valachchenai	False	False	BTTCLVLCHCHNMHFFCVLCHCHN		Batticaloa	LK-51	7.792772	81.486513	Valachchanai	PS-510107	7.908015	81.533004	7.912281	81.532775	WG6M+W46, Batticaloa, Sri Lanka	0.475177	
Batticaloa	Valachchenai	MOH Office - Oddamavadi	False	False	BTTCLVLCHCHNMHFFCDDMVD		Batticaloa	LK-51	7.792772	81.486513	Valachchanai	PS-510107	7.908015	81.533004	7.912281	81.532775	WG6M+W46, Batticaloa, Sri Lanka	0.475177	
Batticaloa	Valachchenai	Saduliya Vidyalaya	False	False	BTTCLVLCHCHNSDLYVDYLY		Batticaloa	LK-51	7.792772	81.486513	Valachchanai	PS-510107	7.908015	81.533004	7.921328	81.52467	WGCF+GVM, Oddamavadi, Sri Lanka	1.742353	
Batticaloa	Valachchenai	Asker Vidyalaya	False	False	BTTCLVLCHCHNSKRVDYLY		Batticaloa	LK-51	7.792772	81.486513	Valachchanai	PS-510107	7.908015	81.533004	7.920735	81.521581	Hairath Vidyalaya Road, Valaichenai, Oddamavadi, Sri Lanka	1.893553	
Batticaloa	Valachchenai	Valachchenai Base Hospital	False	False	BTTCLVLCHCHNVLCHCHNBSHSPTL		Batticaloa	LK-51	7.792772	81.486513	Valachchanai	PS-510107	7.908015	81.533004	7.911315	81.533046	Valaichchenai-Nasuvantivu-Navaladi Road, Sri Lanka	0.367088	
Batticaloa	Vakarai	MOH Office - Vakarai	False	False	BTTCLVKRMHFFCVKR	Divisional Hospital Vakarai	Batticaloa	LK-51	7.792772	81.486513	Wakarai	PS-510109	6.934132	79.856305	8.134552	81.435328	Trincomalee Hwy, Vakarai, Sri Lanka	219.417822	#CenterFarFromPolice
Batticaloa	Kattankudy	Kattankudy  Meera Jumma Church	False	False	BTTCLKTTNKDYKTTNKDYMRJMMCHRCH		Batticaloa	LK-51	7.792772	81.486513	Kaththankudi	PS-510103	7.715979	81.698757	7.655681	81.733646	MP4M+7FC, Kattankudy, Sri Lanka	7.731328	
Batticaloa	Eravur	Eravur Hospital	False	False	BTTCLRVRRVRHSPTL		Batticaloa	LK-51	7.792772	81.486513	Eravur	PS-510104	7.715979	81.698757	7.783168	81.605999	QJM4+799, Eravur 30300, Sri Lanka	12.663585	
Batticaloa	Eravur	MOH Office - Chenkaladi	False	False	BTTCLRVRMHFFCCHNKLD		Batticaloa	LK-51	7.792772	81.486513	Eravur	PS-510104	7.715979	81.698757	7.783599	81.593367	Trincomalee Hwy, Chenkaladi 30350, Sri Lanka	13.837876	
Batticaloa	Eravur	Chenkaladi Hospital	False	False	BTTCLRVRCHNKLDHSPTL		Batticaloa	LK-51	7.792772	81.486513	Eravur	PS-510104	7.715979	81.698757	7.783546	81.589961	Batticaloa Rd, Chenkaladi, Sri Lanka	14.151406	
Batticaloa	Eravur	Mawadivembu Hospital	False	False	BTTCLRVRMWDVMBHSPTL		Batticaloa	LK-51	7.792772	81.486513	Eravur	PS-510104	7.715979	81.698757	7.911315	81.533046	Valaichchenai-Nasuvantivu-Navaladi Road, Sri Lanka	28.381861	#CenterFarFromPolice
Batticaloa	Eravur	Al Ilma Vidyalaya	False	False	BTTCLRVRLLMVDYLY		Batticaloa	LK-51	7.792772	81.486513	Eravur	PS-510104	7.715979	81.698757	7.776897	81.604203	Eravur, Sri Lanka	12.430415	
Batticaloa	Eravur	Badurideen Vidyalaya	False	False	BTTCLRVRBDRDNVDYLY		Batticaloa	LK-51	7.792772	81.486513	Eravur	PS-510104	7.715979	81.698757	7.720143	81.700516	PPC2+362, Batticaloa, Sri Lanka	0.502103	
Batticaloa	Eravur	Wigneswara Vidyalaya	False	False	BTTCLRVRWGNSWRVDYLY		Batticaloa	LK-51	7.792772	81.486513	Eravur	PS-510104	7.715979	81.698757	7.777732	81.603631	Trincomalee Road, Eravur, Sri Lanka	12.533962	
Batticaloa	Eravur	Kaluwankeni Vidyalaya	False	False	BTTCLRVRKLWNKNVDYLY		Batticaloa	LK-51	7.792772	81.486513	Eravur	PS-510104	7.715979	81.698757	7.777732	81.603631	Trincomalee Road, Eravur, Sri Lanka	12.533962	
Batticaloa	Eravur	Palacholai Vipulananda Vidyalaya	False	False	BTTCLRVRPLCHLVPLNNDVDYLY		Batticaloa	LK-51	7.792772	81.486513	Eravur	PS-510104	7.715979	81.698757	7.718067	81.712712	PP97+63G, Kallady, Sri Lanka	1.555589	
Batticaloa	Eravur	Sithandi Maha Vidyalaya	False	False	BTTCLRVRSTHNDMHVDYLY		Batticaloa	LK-51	7.792772	81.486513	Eravur	PS-510104	7.715979	81.698757	7.911415	81.524957	WG6F+HX8, Batticaloa, Sri Lanka	28.971759	#CenterFarFromPolice
Batticaloa	Eravur	Sandiveli Hospital	False	False	BTTCLRVRSNDVLHSPTL		Batticaloa	LK-51	7.792772	81.486513	Eravur	PS-510104	7.715979	81.698757	7.777289	81.602853	Trincomalee Hwy, Eravur, Sri Lanka	12.578998	
Batticaloa	Eravur	MOH Office - Kiran Mobile Vaccination	False	False	BTTCLRVRMHFFCKRNMBLVCCNTN		Batticaloa	LK-51	7.792772	81.486513	Eravur	PS-510104	7.715979	81.698757					#CenterLocationUnknown
Batticaloa	Vavunathivu	Kanchanakuda Kamachchi Vidyalaya	False	False	BTTCLVVNTHVKNCHNKDKMCHCHVDYLY		Batticaloa	LK-51	7.792772	81.486513	Vavunathive	PS-510102	6.933075	79.857181	7.720143	81.700516	PPC2+362, Batticaloa, Sri Lanka	221.401617	#CenterFarFromPolice
Batticaloa	Vavunathivu	Navatkadu Hospital	False	False	BTTCLVVNTHVNVTKDHSPTL		Batticaloa	LK-51	7.792772	81.486513	Vavunathive	PS-510102	6.933075	79.857181	7.713686	81.640546	Navatladu, Batticaloa, Sri Lanka	215.05111	#CenterFarFromPolice
Batticaloa	Vavunathivu	MOH Office - Vavunathivu	False	False	BTTCLVVNTHVMHFFCVVNTHV		Batticaloa	LK-51	7.792772	81.486513	Vavunathive	PS-510102	6.933075	79.857181	7.708253	81.691368	Hospital Rd, Batticaloa, Sri Lanka	219.95575	#CenterFarFromPolice
Batticaloa	Vavunathivu	Mahilattuwan Vidyalaya	False	False	BTTCLVVNTHVMHLTTWNVDYLY		Batticaloa	LK-51	7.792772	81.486513	Vavunathive	PS-510102	6.933075	79.857181	7.720143	81.700516	PPC2+362, Batticaloa, Sri Lanka	221.401617	#CenterFarFromPolice
Batticaloa	Vavunathivu	MOH Office - Karaveddy	False	False	BTTCLVVNTHVMHFFCKRVDDY		Batticaloa	LK-51	7.792772	81.486513	Vavunathive	PS-510102	6.933075	79.857181	9.792126	80.201799	Q6R2+VP3, Point Pedro, Sri Lanka	320.264599	#CenterFarFromPolice
Batticaloa	Vavunathivu	Kannankuda Maha Vidyalaya	False	False	BTTCLVVNTHVKNNNKDMHVDYLY		Batticaloa	LK-51	7.792772	81.486513	Vavunathive	PS-510102	6.933075	79.857181	7.604351	81.764784	JQ37+PWV, Kirankulam, Sri Lanka	223.327233	#CenterFarFromPolice
Batticaloa	Vavunathivu	Kothiyapulai Kalaivani Vidyalaya	False	False	BTTCLVVNTHVKTHYPLKLVNVDYLY		Batticaloa	LK-51	7.792772	81.486513	Vavunathive	PS-510102	6.933075	79.857181	7.716638	81.700109	Vavunathivu, Batticaloa, Sri Lanka	221.20723	#CenterFarFromPolice
Batticaloa	Vavunathivu	Mandapathadi Hospital	False	False	BTTCLVVNTHVMNDPTHDHSPTL		Batticaloa	LK-51	7.792772	81.486513	Vavunathive	PS-510102	6.933075	79.857181	7.719015	81.701193	91 Pioneer Rd, Batticaloa, Sri Lanka	221.420894	#CenterFarFromPolice
Batticaloa	Arayampathy	MOH Office - Arayampathy	False	False	BTTCLRYMPTHYMHFFCRYMPTHY		Batticaloa	LK-51	7.792772	81.486513	Arayampathy		7.670333	81.745783	7.672862	81.735019	MPFP+42R, Sri Lanka	1.21945	
Batticaloa	Arayampathy	Palamunai Aligarh Vidyalaya	False	False	BTTCLRYMPTHYPLMNLGRHVDYLY		Batticaloa	LK-51	7.792772	81.486513	Arayampathy		7.670333	81.745783	7.662491	81.749842	Palamunai Rd, Kattankudy, Sri Lanka	0.980333	
Batticaloa	Karadiyanaru	Karadiyanaru Hospital	False	False	BTTCLKRDYNRKRDYNRHSPTL		Batticaloa	LK-51	7.792772	81.486513	Karadiyanaru	PS-510105	7.701992	81.537252	7.700216	81.539779	PG2Q+3WJ, Karadiyanaru, Sri Lanka	0.341482	
Batticaloa	Karadiyanaru	Kumaraveli Siddi Vinayagar Vidyalaya	False	False	BTTCLKRDYNRKMRVLSDDVNYGRVDYLY		Batticaloa	LK-51	7.792772	81.486513	Karadiyanaru	PS-510105	7.701992	81.537252	7.604351	81.764784	JQ37+PWV, Kirankulam, Sri Lanka	27.333215	#CenterFarFromPolice
Batticaloa	Karadiyanaru	Amibala Vidyalaya	False	False	BTTCLKRDYNRMBLVDYLY		Batticaloa	LK-51	7.792772	81.486513	Karadiyanaru	PS-510105	7.701992	81.537252	7.720143	81.700516	PPC2+362, Batticaloa, Sri Lanka	18.108512	
Batticaloa	Karadiyanaru	Marapalam Vidyalaya	False	False	BTTCLKRDYNRMRPLMVDYLY		Batticaloa	LK-51	7.792772	81.486513	Karadiyanaru	PS-510105	7.701992	81.537252	7.5182	81.75479	kovilporathivu, Sri Lanka	31.514043	#CenterFarFromPolice
Batticaloa	Ayithiyamalai	Mahilawattuwan Maha Vidyalaya	False	False	BTTCLYTHYMLMHLWTTWNMHVDYLY		Batticaloa	LK-51	7.792772	81.486513	Aiththamalai	PS-510106	6.907289	79.863819	7.604351	81.764784	JQ37+PWV, Kirankulam, Sri Lanka	223.620887	#CenterFarFromPolice
Batticaloa	Ayithiyamalai	GTM Vidyalaya	False	False	BTTCLYTHYMLGTMVDYLY		Batticaloa	LK-51	7.792772	81.486513	Aiththamalai	PS-510106	6.907289	79.863819	7.705703	81.714267	New Kalmunai Rd, Batticaloa, Sri Lanka	222.631407	#CenterFarFromPolice
Batticaloa	Ayithiyamalai	08 Post GTM Vidyalaya	False	False	BTTCLYTHYMLPSTGTMVDYLY		Batticaloa	LK-51	7.792772	81.486513	Aiththamalai	PS-510106	6.907289	79.863819	7.673587	81.570262	Ayithiyamalai, Batticaloa, Sri Lanka	206.666704	#CenterFarFromPolice
Ampara	Chavalakade	MOH Office - Navidanveli	False	False	MPRCHVLKDMHFFCNVDNVL		Ampara	LK-52	7.23699	81.550391	Chawalakade	PS-520125	7.413559	81.776822	7.420081	81.788401	B77, Sri Lanka	1.468805	
Ampara	Karaitivu	MOH Office – Karaitivu	False	False	MPRKRTVMHFFCKRTV		Ampara	LK-52	7.23699	81.550391	Karaitivu		9.744059	79.870587	7.377712	81.838796	Colombo-Ratnapura-Wellawaya-Batticaloa Highway, Karativu 32250, Sri Lanka	340.788666	#CenterFarFromPolice
Ampara	Pottuvil	Pottuvil Base Hospital	False	False	MPRPTTVLPTTVLBSHSPTL		Ampara	LK-52	7.23699	81.550391	Pothuvil	PS-520128	6.878387	81.826859	6.876098	81.830463	Main Street Colombo - Batticaloa Hwy, Pottuvil 32500, Sri Lanka	0.47246	
Ampara	Pottuvil	MOH Office - Pottuvil	False	False	MPRPTTVLMHFFCPTTVL		Ampara	LK-52	7.23699	81.550391	Pothuvil	PS-520128	6.878387	81.826859	6.877076	81.828969	B374, Pottuvil, Sri Lanka	0.274874	
Ampara	Pottuvil	Methodist Tamil College	False	False	MPRPTTVLMTHDSTTMLCLLG		Ampara	LK-52	7.23699	81.550391	Pothuvil	PS-520128	6.878387	81.826859	6.876712	81.83058	VRGJ+M6P, Pottuvil, Sri Lanka	0.451173	
Ampara	Pottuvil	Asroff Vidyalaya - Kalapukattuwa	False	False	MPRPTTVLSRFFVDYLYKLPKTTW		Ampara	LK-52	7.23699	81.550391	Pothuvil	PS-520128	6.878387	81.826859	6.867891	81.839008	Muhudu Maha Vihara Mawatha, Pottuvil, Sri Lanka	1.778462	
Ampara	Pottuvil	Pottuvil Central  College	False	False	MPRPTTVLPTTVLCNTRLCLLG		Ampara	LK-52	7.23699	81.550391	Pothuvil	PS-520128	6.878387	81.826859	6.879508	81.835585	Pottuvil, Sri Lanka	0.971748	
Ampara	Lahugala	MOH Office - Lahugala	False	False	MPRLHGLMHFFCLHGL		Ampara	LK-52	7.23699	81.550391	Laggala	PS-220125	7.549634	80.835428	6.880658	81.765015	VQJ8+726, Sangamuwa, Sri Lanka	126.724879	#CenterFarFromPolice
Ampara	Lahugala	Lannuge Clinic	False	False	MPRLHGLLNNGCLNC		Ampara	LK-52	7.23699	81.550391	Laggala	PS-220125	7.549634	80.835428	6.878284	81.717966	Colombo - Batticaloa Hwy, Lahugala, Sri Lanka	122.72097	#CenterFarFromPolice
Ampara	Ampara	DS Senanayaka National College	False	False	MPRMPRDSSNNYKNTNLCLLG		Ampara	LK-52	7.23699	81.550391	Ampara	PS-520113	7.296771	81.677161	7.303531	81.671966	Dharmapala Mawatha, Ampara, Sri Lanka	0.945453	
Ampara	Inginiyagala	Polwatta Maha Vidyalaya	False	False	MPRNGNYGLPLWTTMHVDYLY		Ampara	LK-52	7.23699	81.550391	Inginiyagala	PS-520115	7.220476	81.545357	7.234484	81.568726	Polwatta, Sri Lanka	3.012851	
Ampara	Inginiyagala	Inginiyagala Hospital	False	False	MPRNGNYGLNGNYGLHSPTL		Ampara	LK-52	7.23699	81.550391	Inginiyagala	PS-520115	7.220476	81.545357	7.226634	81.542347	Dam Road, Inginiyagala, Sri Lanka	0.761237	
Ampara	Uhana	Uhana National College	False	False	MPRHNHNNTNLCLLG		Ampara	LK-52	7.23699	81.550391	Uhana	PS-520116	7.362435	81.636035	7.363322	81.635476	Uhana, Sri Lanka	0.116347	
Ampara	Uhana	Walagampura Vidyalaya	False	False	MPRHNWLGMPRVDYLY		Ampara	LK-52	7.23699	81.550391	Uhana	PS-520116	7.362435	81.636035	7.39218	81.609345	Walagampura Road, Weranketagoda, Sri Lanka	4.428814	
Ampara	Uhana	Bokkabedda Vidyalaya	False	False	MPRHNBKKBDDVDYLY		Ampara	LK-52	7.23699	81.550391	Uhana	PS-520116	7.362435	81.636035	7.420995	81.7514	CQC2+9HR, Kalmunai, Sri Lanka	14.295553	
Ampara	Uhana	Lathugala Vidyalaya	False	False	MPRHNLTHGLVDYLY		Ampara	LK-52	7.23699	81.550391	Uhana	PS-520116	7.362435	81.636035	7.383141	81.55735	9HM4+7W5, Bandaraduwa, Sri Lanka	8.980122	
Ampara	Uhana	Weranketagoda Vidyalaya	False	False	MPRHNWRNKTGDVDYLY		Ampara	LK-52	7.23699	81.550391	Uhana	PS-520116	7.362435	81.636035	7.405066	81.620317	CJ4C+24G, Weranketagoda, Sri Lanka	5.048876	
Ampara	Uhana	Senagama Vidyalaya	False	False	MPRHNSNGMVDYLY		Ampara	LK-52	7.23699	81.550391	Uhana	PS-520116	7.362435	81.636035	7.405059	81.644091	Senagama, Sri Lanka	4.823622	
Ampara	Uhana	Mayadunna Vidyalaya	False	False	MPRHNMYDNNVDYLY		Ampara	LK-52	7.23699	81.550391	Uhana	PS-520116	7.362435	81.636035	7.425998	81.635873	Sri Lanka	7.070124	
Ampara	Uhana	Gonagala Vidyalaya	False	False	MPRHNGNGLVDYLY		Ampara	LK-52	7.23699	81.550391	Uhana	PS-520116	7.362435	81.636035	7.367509	81.640912	9J9R+293, Uhana, Sri Lanka	0.779718	
Ampara	Uhana	Abhayapura Vidyalaya	False	False	MPRHNBHYPRVDYLY		Ampara	LK-52	7.23699	81.550391	Uhana	PS-520116	7.362435	81.636035	7.365668	81.634018	9J8M+7J6, Ampara, Sri Lanka	0.422874	
Ampara	Uhana	Himidurawa Vidyalaya	False	False	MPRHNHMDRWVDYLY		Ampara	LK-52	7.23699	81.550391	Uhana	PS-520116	7.362435	81.636035	7.300132	81.610953	Himidurawa Water Treatmant Plant,Himidurawa Uhana Ampara, Himidurawa Rd, Sri Lanka	7.461961	
Ampara	Uhana	Dematamalpelessa Viharaya	False	False	MPRHNDMTMLPLSSVHRY		Ampara	LK-52	7.23699	81.550391	Uhana	PS-520116	7.362435	81.636035	7.297852	81.671478	Ampara - Uhana Road, Ampara, Sri Lanka	8.178775	
Ampara	Uhana	Galhitiyagoda Vidyalaya	False	False	MPRHNGLHTYGDVDYLY		Ampara	LK-52	7.23699	81.550391	Uhana	PS-520116	7.362435	81.636035	7.196723	81.660143	5MW6+M3J, Damana, Sri Lanka	18.623053	
Ampara	Uhana	Mahakandiya Vidyalaya	False	False	MPRHNMHKNDYVDYLY		Ampara	LK-52	7.23699	81.550391	Uhana	PS-520116	7.362435	81.636035	7.365668	81.634018	9J8M+7J6, Ampara, Sri Lanka	0.422874	
Ampara	Uhana	Kahatagasyaya Viharaya	False	False	MPRHNKHTGSYYVHRY		Ampara	LK-52	7.23699	81.550391	Uhana	PS-520116	7.362435	81.636035	7.297852	81.671478	Ampara - Uhana Road, Ampara, Sri Lanka	8.178775	
Ampara	Bandaraduwa	Galapitagala Vidyalaya	False	False	MPRBNDRDWGLPTGLVDYLY		Ampara	LK-52	7.23699	81.550391	Bandarawela	PS-810210	6.831526	80.986784	7.434883	81.636387	Galapitagala, Senagama, Sri Lanka	98.204839	#CenterFarFromPolice
Ampara	Bandaraduwa	Nawagiriyawa Vidyalaya	False	False	MPRBNDRDWNWGRYWVDYLY		Ampara	LK-52	7.23699	81.550391	Bandarawela	PS-810210	6.831526	80.986784	7.441804	81.615343	Nawagiriyawa vidyalaya,Gonagolla,Ampara., 32064, Sri Lanka	97.058703	#CenterFarFromPolice
Ampara	Bandaraduwa	Bandaraduwa Vidyalaya	False	False	MPRBNDRDWBNDRDWVDYLY		Ampara	LK-52	7.23699	81.550391	Bandarawela	PS-810210	6.831526	80.986784	7.432338	81.563927	Bandaraduwa, Sri Lanka	92.322871	#CenterFarFromPolice
Ampara	Bandaraduwa	Dudley Senanayake Vidyalaya	False	False	MPRBNDRDWDDLYSNNYKVDYLY		Ampara	LK-52	7.23699	81.550391	Bandarawela	PS-810210	6.831526	80.986784	7.441363	81.629614	CJRH+GRX, Gonagolla, Sri Lanka	98.15677	#CenterFarFromPolice
Ampara	Bakkiella	Rajagalathenna Vidyalaya	False	False	MPRBKKLLRJGLTHNNVDYLY		Ampara	LK-52	7.23699	81.550391	Bakkiella	PS-520117	7.489231	81.643668	7.474507	81.632449	Ampara-Uhana-Maha Oya Hwy, Sri Lanka	2.052569	
Ampara	Central Camp	Malwatta Thissapura Vidyalaya	False	False	MPRCNTRLCMPMLWTTTHSSPRVDYLY		Ampara	LK-52	7.23699	81.550391	Central Camp	PS-520118	7.414282	81.733257	7.417153	81.73351	Central Camp Rd, Ampara, Sri Lanka	0.320558	
Ampara	Central Camp	Siyambalawewa Vidyalaya	False	False	MPRCNTRLCMPSYMBLWWVDYLY		Ampara	LK-52	7.23699	81.550391	Central Camp	PS-520118	7.414282	81.733257	7.417153	81.73351	Central Camp Rd, Ampara, Sri Lanka	0.320558	
Ampara	Central Camp	Weeragoda Vidyalaya	False	False	MPRCNTRLCMPWRGDVDYLY		Ampara	LK-52	7.23699	81.550391	Central Camp	PS-520118	7.414282	81.733257	7.390125	81.696588	4th Ave, Ampara, Sri Lanka	4.855865	
Ampara	Central Camp	Ruhunugama Vidyalaya	False	False	MPRCNTRLCMPRHNGMVDYLY		Ampara	LK-52	7.23699	81.550391	Central Camp	PS-520118	7.414282	81.733257	7.414282	81.733257	CP7M+P86, Sammanthurai, Sri Lanka	0.0	
Ampara	Thirukkovil	Thirukkovil Hospital	False	False	MPRTHRKKVLTHRKKVLHSPTL		Ampara	LK-52	7.23699	81.550391	Thirukkovil	PS-520127	7.113998	81.852219	7.115713	81.851887	4V82+7QJ, Thirukkovil, Sri Lanka	0.194247	
Ampara	Thirukkovil	Thirukkovil Kumara Vidyalaya	False	False	MPRTHRKKVLTHRKKVLKMRVDYLY		Ampara	LK-52	7.23699	81.550391	Thirukkovil	PS-520127	7.113998	81.852219	7.113425	81.852484	4V72+9X9, Thirukkovil, Sri Lanka	0.070126	
Ampara	Akkaraipattu	Kolavil Vinegar Vidyalaya	False	False	MPRKKRPTTKLVLVNGRVDYLY		Ampara	LK-52	7.23699	81.550391	Akkaraipattu	PS-520126	7.216084	81.853254	7.198526	81.849358	Akkaraipattu-Sagamam Rd, Sri Lanka	1.999736	
Ampara	Akkaraipattu	Ramakrishna Vidyalaya	False	False	MPRKKRPTTRMKRSHNVDYLY		Ampara	LK-52	7.23699	81.550391	Akkaraipattu	PS-520126	7.216084	81.853254	7.210268	81.845672	6R6W+473, Akkaraipattu, Sri Lanka	1.057598	
Ampara	Akkaraipattu	MOH Office - Alayadiwembu	False	False	MPRKKRPTTMHFFCLYDWMB		Ampara	LK-52	7.23699	81.550391	Akkaraipattu	PS-520126	7.216084	81.853254	7.413484	81.826588	Colombo - Batticaloa Hwy, Kalmunai 32300, Sri Lanka	22.152981	#CenterFarFromPolice
Ampara	Akkaraipattu	MOH Office - Akkaraipattu	False	False	MPRKKRPTTMHFFCKKRPTT		Ampara	LK-52	7.23699	81.550391	Akkaraipattu	PS-520126	7.216084	81.853254	7.228134	81.851123	6VH2+7C5, Akkaraipattu, Sri Lanka	1.360772	
Ampara	Akkaraipattu	Cadelia Jumma Church	False	False	MPRKKRPTTCDLJMMCHRCH		Ampara	LK-52	7.23699	81.550391	Akkaraipattu	PS-520126	7.216084	81.853254	7.224605	81.825536	6RFG+R6V, Akkaraipattu, Sri Lanka	3.202103	
Ampara	Akkaraipattu	Addalachchenai National College	False	False	MPRKKRPTTDDLCHCHNNTNLCLLG		Ampara	LK-52	7.23699	81.550391	Akkaraipattu	PS-520126	7.216084	81.853254	7.248937	81.857951	Addalaichenai, Sri Lanka	3.690806	
Ampara	Akkaraipattu	Oluvil Hamra Vidyalaya	False	False	MPRKKRPTTLVLHMRVDYLY		Ampara	LK-52	7.23699	81.550391	Akkaraipattu	PS-520126	7.216084	81.853254	7.290277	81.857414	7VR4+4X7, Oluvil, Sri Lanka	8.265231	
Ampara	Akkaraipattu	MOH Office - Addalachchenai	False	False	MPRKKRPTTMHFFCDDLCHCHN		Ampara	LK-52	7.23699	81.550391	Akkaraipattu	PS-520126	7.216084	81.853254	7.260916	81.853493	7V63+999, Addalaichenai, Sri Lanka	4.986726	
Ampara	Akkaraipattu	Palamunai Muslim College	False	False	MPRKKRPTTPLMNMSLMCLLG		Ampara	LK-52	7.23699	81.550391	Akkaraipattu	PS-520126	7.216084	81.853254	7.272888	81.848374	Jummah Grand Mosque, Palamunai, Sri Lanka	6.341203	
Ampara	Akkaraipattu	Addalachchenai Hospital	False	False	MPRKKRPTTDDLCHCHNHSPTL		Ampara	LK-52	7.23699	81.550391	Akkaraipattu	PS-520126	7.216084	81.853254	7.253287	81.853598	Colombo - Batticaloa Hwy, Addalachchena, Sri Lanka	4.138258	
Ampara	Kalmunai	MOH Office - Kalmunai North	False	False	MPRKLMNMHFFCKLMNNRTH		Ampara	LK-52	7.23699	81.550391	Kalmunai	PS-520123	7.414289	81.825006	7.411712	81.838462	CR6Q+M9P, Kalmunai 32300, Sri Lanka	1.511625	
Ampara	Kalmunai	MOH Office - Kalmunai South	False	False	MPRKLMNMHFFCKLMNSTH		Ampara	LK-52	7.23699	81.550391	Kalmunai	PS-520123	7.414289	81.825006	7.411712	81.838462	CR6Q+M9P, Kalmunai 32300, Sri Lanka	1.511625	
Ampara	Saindamarudu	MOH Office - Saindamarudu	False	False	MPRSNDMRDMHFFCSNDMRD		Ampara	LK-52	7.23699	81.550391	Saindamarudu		7.397352	81.842377	7.939573	81.000275	Thamankaduwa, Sri Lanka	110.700687	#CenterFarFromPolice
Ampara	Sammanthurai	MOH Office - Sammanthurai	False	False	MPRSMMNTHRMHFFCSMMNTHR		Ampara	LK-52	7.23699	81.550391	Samanthurai	PS-520124	7.365785	81.810859	7.369857	81.812264	9R96+WWR, Sammanthurai, Sri Lanka	0.478712	
Ampara	Sammanthurai	MOH Office - Nintavur	False	False	MPRSMMNTHRMHFFCNNTVR		Ampara	LK-52	7.23699	81.550391	Samanthurai	PS-520124	7.365785	81.810859	7.352821	81.856939	Hospital Rd, Nintavur 32340, Sri Lanka	5.283925	
