district	police	center	dose1	dose2	fuzzy_key	alt_name	district_name_norm	district_id	district_lat	district_lng	ps_name_norm	ps_id	ps_lat	ps_lng	lat	lng	formatted_address	dis_center_to_police	tags	district_si	police_si	center_si	district_ta	police_ta	center_ta	formatted_address_si	formatted_address_ta
Colombo	Cinnamon Gardens	Viharamahadevi Park	False	False	CLMBCNNMNGRDNSVHRMHDVPRK		Colombo	LK-11	6.869636	80.019598	Cinnamon Garden	PS-110324	6.907289	79.863819	6.913391	79.86174	Viharamahadevi Park, Colombo, Sri Lanka	0.716497		කොළඹ	කුරුඳු උද්‍යාන	විහාරමහාදේවි උද්‍යානය	கொழும்பு	இலவங்கப்பட்டை தோட்டங்கள்	விஹாரமஹாதேவி பூங்கா	විහාරමහාදේවි උද්‍යානය, කොළඹ, ශ්‍රී ලංකාව	விஹாரமஹாதேவி பூங்கா, கொழும்பு, இலங்கை
Colombo	Thalangama	Diyatha Uyana	False	False	CLMBTHLNGMDYTHYN		Colombo	LK-11	6.869636	80.019598	Thalangama	PS-110466	6.91089	79.929325	6.904575	79.909831	Diyatha Uyana, B240, Sri Jayawardenepura Kotte, Sri Lanka	2.264281		කොළඹ	තලංගම	දියත උයන	கொழும்பு	தலங்கம	தியாத உயனா	දියත උයන, බී 240, ශ්‍රී ජයවර්ධනපුර කෝට්ටේ, ශ්‍රී ලංකාව	தியாத உயனா, B240, ஸ்ரீ ஜெயவர்தனபுர கோட்டே, இலங்கை
Colombo	Thalangama	MOH Office - Battaramulla	False	False	CLMBTHLNGMMHFFCBTTRMLL		Colombo	LK-11	6.869636	80.019598	Thalangama	PS-110466	6.91089	79.929325	6.901538	79.919128	WW29+JM6, Battaramulla 10120, Sri Lanka	1.532936		කොළඹ	තලංගම	MOH කාර්යාලය - බත්තරමුල්ල	கொழும்பு	தலங்கம	MOH அலுவலகம் - பத்தரமுல்ல	WW29+JM6, බත්තරමුල්ල 10120, ශ්‍රී ලංකාව	WW29+JM6, பத்தரமுல்ல 10120, இலங்கை
Colombo	Grandpass	Sugathadasa Outdoor Stadium	False	False	CLMBGRNDPSSSGTHDSTDRSTDM		Colombo	LK-11	6.869636	80.019598	Grandpass	PS-110215	6.949052	79.872983	6.94806	79.868842	Prince of Wales Ave, Colombo 01400, Sri Lanka	0.470345		කොළඹ	ග්‍රෑන්ඩ්පාස්	සුගතදාස එළිමහන් ක්‍රීඩාංගනය	கொழும்பு	கிராண்ட்பாஸ்	சுகததாச வெளிப்புற அரங்கம்	වේල්ස් කුමර මාවත, කොළඹ 01400, ශ්‍රී ලංකාව	பிரின்ஸ் ஆஃப் வேல்ஸ் அவே, கொழும்பு 01400, இலங்கை
Colombo	Narahenpita	Army Hospital Narahenpita	False	False	CLMBNRHNPTRMYHSPTLNRHNPT		Colombo	LK-11	6.869636	80.019598	Narahenpita	PS-110321	6.891832	79.876715	6.900252	79.87618	08 Elvitigala Mawatha, Colombo 00800, Sri Lanka	0.938417		කොළඹ	නාරාහේන්පිට	නාරාහේන්පිට හමුදා රෝහල	கொழும்பு	நரஹேன்பிட்ட	இராணுவ மருத்துவமனை நாரஹேன்பிட்ட	08 ඇල්විටිගල මාවත, කොළඹ 00800, ශ්‍රී ලංකාව	08 எல்விட்டிகல மாவத்தை, கொழும்பு 00800, இலங்கை
Colombo	Narahenpita	Army Headquarters Mobile Team	False	False	CLMBNRHNPTRMYHDQRTRSMBLTM		Colombo	LK-11	6.869636	80.019598	Narahenpita	PS-110321	6.891832	79.876715					#CenterLocationUnknown	කොළඹ	නාරාහේන්පිට	යුද හමුදා මූලස්ථානයේ ජංගම කණ්ඩායම	கொழும்பு	நரஹேன்பிட்ட	இராணுவ தலைமையகம் மொபைல் குழு		
Colombo	Narahenpita	MOH Office – Narahenpita	False	False	CLMBNRHNPTMHFFCNRHNPT		Colombo	LK-11	6.869636	80.019598	Narahenpita	PS-110321	6.891832	79.876715	6.891268	79.878754	75 Narahenpita Rd, Colombo 00500, Sri Lanka	0.233735		කොළඹ	නාරාහේන්පිට	MOH කාර්යාලය - නාරාහේන්පිට	கொழும்பு	நரஹேன்பிட்ட	MOH அலுவலகம் - நாரஹேன்பிட்ட	75 නාරාහේන්පිට පාර, කොළඹ 00500, ශ්‍රී ලංකාව	75 நாரஹேன்பிட்ட சாலை, கொழும்பு 00500, இலங்கை
Colombo	Boralesgamuwa	Kotelawala Defence Hospital	False	False	CLMBBRLSGMWKTLWLDFNCHSPTL		Colombo	LK-11	6.869636	80.019598	Boralesgamuwa	PS-110464	6.841331	79.901255	6.82518	79.907167	RWG4+3VF, Boralesgamuwa, Sri Lanka	1.911444		කොළඹ	බොරලැස්ගමුව	කොතලාවල ආරක්‍ෂක රෝහල	கொழும்பு	பொரலஸ்கமுவா	கொத்தலாவல பாதுகாப்பு மருத்துவமனை	RWG4+3VF, බොරලැස්ගමුව, ශ්‍රී ලංකාව	RWG4+3VF, பொரலஸ்கமுவா, இலங்கை
Colombo	Boralesgamuwa	MOH Office – Werahera	False	False	CLMBBRLSGMWMHFFCWRHR		Colombo	LK-11	6.869636	80.019598	Boralesgamuwa	PS-110464	6.841331	79.901255	6.833094	79.905583	RWM4+66P, Boralesgamuwa, Sri Lanka	1.033386		කොළඹ	බොරලැස්ගමුව	MOH කාර්යාලය - වේරහැර	கொழும்பு	பொரலஸ்கமுவா	MOH அலுவலகம் - வெரஹெரா	RWM4+66P, බොරලැස්ගමුව, ශ්‍රී ලංකාව	RWM4+66P, பொரலஸ்கமுவா, இலங்கை
Colombo	Homagama	Panagoda Bodhirajarama Viharaya	False	False	CLMBHMGMPNGDBDHRJRMVHRY		Colombo	LK-11	6.869636	80.019598	Homagama	PS-110470	6.836155	80.003474	6.929161	79.88265	Gnanawimala Rd, Colombo, Sri Lanka	16.883101		කොළඹ	හෝමාගම	පනාගොඩ බෝධිරාජාරාම විහාරය	கொழும்பு	ஹோமாகம	பனகொட போதிராஜாராம விஹாராயா	ඥානවිමල පාර, කොළඹ, ශ්‍රී ලංකාව	ஞானவிமல வீதி, கொழும்பு, இலங்கை
Colombo	Homagama	Sri Vardhanarama Viharaya - Dipangoda	False	False	CLMBHMGMSRVRDHNRMVHRYDPNGD		Colombo	LK-11	6.869636	80.019598	Homagama	PS-110470	6.836155	80.003474	6.854503	80.004271	Purana Viharaya, Athurugiriya road, Homagama, Homagama, Sri Lanka	2.042742		කොළඹ	හෝමාගම	ශ්‍රී වර්ධනාරාම විහාරය - දීපංගොඩ	கொழும்பு	ஹோமாகம	ஸ்ரீ வர்தனராம விஹாராயா - தீபன்கொட	පුරාණ විහාරය, අතුරුගිරිය පාර, හෝමාගම, හෝමාගම, ශ්‍රී ලංකාව	புராண விகாரை, அதுருகிரிய சாலை, ஹோமாகம, ஹோமாகம, இலங்கை
Colombo	Homagama	Uduwana Sri Supeksharama Viharaya	False	False	CLMBHMGMDWNSRSPKSHRMVHRY		Colombo	LK-11	6.869636	80.019598	Homagama	PS-110470	6.836155	80.003474	6.823529	80.007377	Uduwana, Homagama, Sri Lanka	1.46905		කොළඹ	හෝමාගම	උඩුවාන ශ්‍රී උපේක්‍ෂාරාම විහාරය	கொழும்பு	ஹோமாகம	உடுவான ஸ்ரீ சுபேக்ஷராம விகாரை	උඩුවාන, හෝමාගම, ශ්‍රී ලංකාව	உடுவானா, ஹோமாகம, இலங்கை
Colombo	Kotahena	Wiwekananda Vidyalaya	False	False	CLMBKTHNWWKNNDVDYLY		Colombo	LK-11	6.869636	80.019598	Kotahena	PS-110212	6.950879	79.862496	6.943047	79.860046	55-57, Colombo 01300, Sri Lanka	0.912186		කොළඹ	කොටහේන	විවේකානන්ද විද්‍යාලය	கொழும்பு	கோட்டஹேனா	விவேகானந்தா வித்யாலயா	55-57, කොළඹ 01300, ශ්‍රී ලංකාව	55-57, கொழும்பு 01300, இலங்கை
Colombo	Mount Lavinia	Mihindu Mawatha Maternity Clinic	False	False	CLMBMNTLVNMHNDMWTHMTRNTYCLNC		Colombo	LK-11	6.869636	80.019598	Mount Lavinia	PS-110577	6.825006	79.87009	6.849978	79.866137	73 Galle Rd, Dehiwala-Mount Lavinia, Sri Lanka	2.81173		කොළඹ	ගල්කිස්ස	මිහිඳු මාවත මාතෘ සායනය	கொழும்பு	கல்கிசை	மிஹிந்து மாவத்தை மகப்பேறு மருத்துவமனை	73 ගාල්ල පාර, දෙහිවල-ගල්කිස්ස, ශ්‍රී ලංකාව	73 காலி சாலை, தெஹிவளை-கல்கிசை, இலங்கை
Colombo	Dehiwala	S. De. S. Jayasinghe Hall	False	False	CLMBDHWLSDSJYSNGHHLL		Colombo	LK-11	6.869636	80.019598	Dehiwala	PS-110580	6.850088	79.871696	6.861489	79.865045	B11, Dehiwala-Mount Lavinia, Sri Lanka	1.465485		කොළඹ	දෙහිවල	එස්. ද. එස්. ජයසිංහ ශාලාව	கொழும்பு	தெஹிவளை	எஸ். டி. எஸ். ஜெயசிங்க மண்டபம்	බී 11, දෙහිවල-ගල්කිස්ස, ශ්‍රී ලංකාව	பி 11, தெஹிவளை-கல்கிசை, இலங்கை
Colombo	Mirihana	MOH Office - Beddagana	False	False	CLMBMRHNMHFFCBDDGN		Colombo	LK-11	6.869636	80.019598	Mirihana	PS-110462	6.873714	79.901724	6.885731	79.908328	Baddagana Rd, Sri Jayawardenepura Kotte 10100, Sri Lanka	1.522652		කොළඹ	මිරිහාන	MOH කාර්යාලය - බැද්දගාන	கொழும்பு	மிரிஹானா	MOH அலுவலகம் - பெத்தகனா	බද්දගාන පාර, ශ්‍රී ජයවර්ධනපුර කෝට්ටේ 10100, ශ්‍රී ලංකාව	பதகனா சாலை, ஸ்ரீ ஜெயவர்தனபுரா கோட்டே 10100, இலங்கை
Colombo	Maharagama	Ranmal Deniya Viharaya – Arawwala	False	False	CLMBMHRGMRNMLDNYVHRYRWWL		Colombo	LK-11	6.869636	80.019598	Maharagama	PS-110463	6.845422	79.928928	6.818648	79.998854	Magammana Vidyalaya Bus Stop, B452, Sri Lanka	8.276948		කොළඹ	මහරගම	රන්මල් දෙනියා විහාරය - ඇරැව්වල	கொழும்பு	மஹரகம	ரன்மல் தெனியா விஹாராயா - ஆரவ்வாலா	මාගම්මන විද්‍යාලයීය බස් නැවතුම, බී 452, ශ්‍රී ලංකාව	மகம்மனா வித்யாலயா பஸ் ஸ்டாப், பி 452, இலங்கை
Colombo	Maharagama	Godigamuwa Bhikku Centre	False	False	CLMBMHRGMGDGMWBHKKCNTR		Colombo	LK-11	6.869636	80.019598	Maharagama	PS-110463	6.845422	79.928928	6.851095	79.921201	Maharagama, Sri Lanka	1.061301		කොළඹ	මහරගම	ගොඩිගමුව භික්ෂු මධ්‍යස්ථානය	கொழும்பு	மஹரகம	கொடிகமுவா பிக்கு மையம்	මහරගම, ශ්‍රී ලංකාව	மஹரகம, இலங்கை
Colombo	Maradana	National Hospital – Colombo	False	False	CLMBMRDNNTNLHSPTLCLMB		Colombo	LK-11	6.869636	80.019598	Maradana	PS-110107	6.927939	79.865471	6.918743	79.868992	Colombo 00700, Sri Lanka	1.094265		කොළඹ	මරදාන	ජාතික රෝහල - කොළඹ	கொழும்பு	மரதானா	தேசிய மருத்துவமனை - கொழும்பு	කොළඹ 00700, ශ්‍රී ලංකාව	கொழும்பு 00700, இலங்கை
Colombo	Maradana	Forbes Road Community Hall	False	False	CLMBMRDNFRBSRDCMMNTYHLL		Colombo	LK-11	6.869636	80.019598	Maradana	PS-110107	6.927939	79.865471	6.876704	79.879161	00600, Mugalan Rd, Colombo 00600, Sri Lanka	5.895952		කොළඹ	මරදාන	ෆෝබ්ස් පාරේ ප්‍රජා ශාලාව	கொழும்பு	மரதானா	ஃபோர்ப்ஸ் சாலை சமூக மண்டபம்	00600, මුගලන් පාර, කොළඹ 00600, ශ්‍රී ලංකාව	00600, முகலான் சாலை, கொழும்பு 00600, இலங்கை
Colombo	Fort	Navy Headquarters	False	False	CLMBFRTNVYHDQRTRS		Colombo	LK-11	6.869636	80.019598	Fort	PS-110105	6.9334	79.842895	6.936952	79.842104	WRPR+QRQ, Colombo, Sri Lanka	0.404627		කොළඹ	කොටුව	නාවික හමුදා මූලස්ථානය	கொழும்பு	கோட்டை	கடற்படை தலைமையகம்	WRPR+QRQ, කොළඹ, ශ්‍රී ලංකාව	WRPR+QRQ, கொழும்பு, இலங்கை
Colombo	Dematagoda	Vidyalankara Pirivena	False	False	CLMBDMTGDVDYLNKRPRVN		Colombo	LK-11	6.869636	80.019598	Dematagoda	PS-110216	6.930385	79.877161	6.931633	79.879104	AC27, Colombo, Sri Lanka	0.255533		කොළඹ	දෙමටගොඩ	විද් යාලංකාර පිරිවෙන	கொழும்பு	தெமடகொட	வித்யாலங்கார பிரிவேனா	ඒසී 27, කොළඹ, ශ්‍රී ලංකාව	ஏசி 27, கொழும்பு, இலங்கை
Colombo	Wellawatta	Roxy Gardens Premises	False	False	CLMBWLLWTTRXYGRDNSPRMSS		Colombo	LK-11	6.869636	80.019598	Wellawatta	PS-110320	6.873107	79.86167	6.863747	79.862088	Dehiwala Canal, Colombo, Sri Lanka	1.042134		කොළඹ	වැල්ලවත්ත	රොක්සි උද්‍යාන පරිශ්‍රය	கொழும்பு	வெள்ளவத்தை	ராக்ஸி கார்டன்ஸ் வளாகம்	දෙහිවල ඇල, කොළඹ, ශ්‍රී ලංකාව	தெஹிவளை கால்வாய், கொழும்பு, இலங்கை
Colombo	Wellawatta	MOH Office – Wellawatta	False	False	CLMBWLLWTTMHFFCWLLWTT		Colombo	LK-11	6.869636	80.019598	Wellawatta	PS-110320	6.873107	79.86167	6.861346	79.865943	VV68+G9P, Dehiwala-Mount Lavinia, Sri Lanka	1.390678		කොළඹ	වැල්ලවත්ත	MOH කාර්යාලය - වැල්ලවත්ත	கொழும்பு	வெள்ளவத்தை	MOH அலுவலகம் - வெள்ளவத்தை	VV68+G9P, දෙහිවල-ගල්කිස්ස, ශ්‍රී ලංකාව	VV68+G9P, தெஹிவளை-கல்கிசை, இலங்கை
Colombo	Wellampitiya	MOH Office – Kolonnawa	False	False	CLMBWLLMPTYMHFFCKLNNW		Colombo	LK-11	6.869636	80.019598	Wellampitiya	PS-110465	6.937514	79.896298	6.922088	79.916237	Mandavila Rd, Kotikawatta, Sri Lanka	2.791266		කොළඹ	වැල්ලම්පිටිය	MOH කාර්යාලය - කොළොන්නාව	கொழும்பு	வெல்லம்பிட்டிய	MOH அலுவலகம் - கொலன்னாவா	මණ්ඩවිල පාර, කොටිකාවත්ත, ශ්‍රී ලංකාව	மண்டவில வீதி, கொட்டிகாவத்த, இலங்கை
Colombo	Kaduwela	MOH Office – Kaduwela	False	False	CLMBKDWLMHFFCKDWL		Colombo	LK-11	6.869636	80.019598	Kaduwela		6.936234	79.970183	6.934127	79.984398	B263, Kaduwela, Sri Lanka	1.586964		කොළඹ	කඩුවෙල	MOH කාර්යාලය - කඩුවෙල	கொழும்பு	கடுவெல	MOH அலுவலகம் - கடுவெல	බී 263, කඩුවෙල, ශ්‍රී ලංකාව	பி 263, கடுவெல, இலங்கை
Colombo	Mulleriyawa	MOH Office - Gothatuwa	False	False	CLMBMLLRYWMHFFCGTHTW		Colombo	LK-11	6.869636	80.019598	Mulleriyawa	PS-110469	6.927187	79.929108	6.922088	79.916237	Mandavila Rd, Kotikawatta, Sri Lanka	1.530186		කොළඹ	මුල්ලේරියාව	MOH කාර්යාලය - ගොතටුව	கொழும்பு	முல்லேரியாவா	MOH அலுவலகம் - கோததுவா	මණ්ඩවිල පාර, කොටිකාවත්ත, ශ්‍රී ලංකාව	மண்டவில வீதி, கொட்டிகாவத்த, இலங்கை
Colombo	Kottawa	Rukmale Community Hall	False	False	CLMBKTTWRKMLCMMNTYHLL		Colombo	LK-11	6.869636	80.019598	Kottawa	PS-110471	6.841333	79.963553	6.855958	79.986274	Athurugiriya Rd, Pannipitiya, Sri Lanka	2.990394		කොළඹ	කොට්ටාව	රුක්මලේ ප්‍රජා ශාලාව	கொழும்பு	கொட்டாவா	ருக்மலே சமுதாயக் கூடம்	අතුරුගිරිය පාර, පන්නිපිටිය, ශ්‍රී ලංකාව	அதுருகிரிய வீதி, பன்னிப்பிட்டிய, இலங்கை
Colombo	Fore shore	MOH Office - Jinthupitiya	False	False	CLMBFRSHRMHFFCJNTHPTY		Colombo	LK-11	6.869636	80.019598	Fore shore	PS-110210	6.949589	79.857355	6.943258	79.859238	No.27 Vivekananda Hill, Colombo 01300, Sri Lanka	0.734247		කොළඹ	ඉදිරිපස වෙරළ	MOH කාර්යාලය - ජින්තුපිටිය	கொழும்பு	முன் கரை	MOH அலுவலகம் - ஜிந்துபிடியா	අංක 27 විවේකානන්ද කන්ද, කොළඹ 01300, ශ්‍රී ලංකාව	எண் .27 விவேகானந்த மலை, கொழும்பு 01300, இலங்கை
Colombo	Avissawella	Avissawella Hospital	False	False	CLMBVSSWLLVSSWLLHSPTL		Colombo	LK-11	6.869636	80.019598	Awissawella	PS-920226	6.947538	80.215422	6.957085	80.207381	Avissawella Rd, Avissawella, Sri Lanka	1.384155		කොළඹ	අවිස්සාවේල්ල	අවිස්සාවේල්ල රෝහල	கொழும்பு	அவிசாவெல்லா	அவிசாவளை மருத்துவமனை	අවිස්සාවේල්ල පාර, අවිස්සාවේල්ල, ශ්‍රී ලංකාව	அவிசாவெல்லா சாலை, அவிசாவல்லா, இலங்கை
Colombo	Avissawella	Kiriwandala Tamil College	False	False	CLMBVSSWLLKRWNDLTMLCLLG		Colombo	LK-11	6.869636	80.019598	Awissawella	PS-920226	6.947538	80.215422	6.956526	80.204418	43 Kudagama Road, Avissawella, Sri Lanka	1.573413		කොළඹ	අවිස්සාවේල්ල	කිරිවන්දල දෙමළ විද්‍යාලය	கொழும்பு	அவிசாவெல்லா	கிரிவந்தலா தமிழ் கல்லூரி	43 කුඩාගම පාර, අවිස්සාවේල්ල, ශ්‍රී ලංකාව	43 குடகம சாலை, அவிசாவளை, இலங்கை
Colombo	Kosgama	Kosgama Hospital	False	False	CLMBKSGMKSGMHSPTL		Colombo	LK-11	6.869636	80.019598	Kosgama	PS-920227	6.946597	80.137869	6.940956	80.124888	Salawa-Akarawita, 10730, Sri Lanka	1.564606		කොළඹ	කොස්ගම	කොස්ගම රෝහල	கொழும்பு	கொஸ்கம	கொஸ்கம மருத்துவமனை	සාලාව-අකරවිට, 10730, ශ්‍රී ලංකාව	சலாவா-அகரவிட, 10730, இலங்கை
Gampaha	Minuwangoda	MOH Office - Minuwangoda	False	False	GMPHMNWNGDMHFFCMNWNGD		Gampaha	LK-12	7.123598	80.018508	Minuwangoda	PS-120238	7.174215	79.957874	7.17227	79.956823	Katunayake-Veyangoda Rd, Minuwangoda, Sri Lanka	0.245525		ගම්පහ	මිනුවන්ගොඩ	MOH කාර්යාලය - මිනුවන්ගොඩ	கம்பஹா	மினுவாங்கொட	MOH அலுவலகம் - மினுவாங்கொட	කටුනායක-වේයන්ගොඩ පාර, මිනුවන්ගොඩ, ශ්‍රී ලංකාව	கட்டுநாயக்க-வெயங்கொட வீதி, மினுவாங்கொட, இலங்கை
Gampaha	Minuwangoda	Paththaduwana Viharaya	False	False	GMPHMNWNGDPTHTHDWNVHRY		Gampaha	LK-12	7.123598	80.018508	Minuwangoda	PS-120238	7.174215	79.957874	7.148114	79.940256	Paththanduwana, Sri Lanka	3.494162		ගම්පහ	මිනුවන්ගොඩ	පත්තදුවන විහාරය	கம்பஹா	மினுவாங்கொட	பத்தடுவான விஹாராயா	පත්තන්දුවාන, ශ්‍රී ලංකාව	பத்தாண்டுவானா, இலங்கை
Gampaha	Katana	MOH Office - Katana	False	False	GMPHKTNMHFFCKTN		Gampaha	LK-12	7.123598	80.018508	Katana	PS-120360	7.224796	79.880015	7.22436	79.88271	Katana, Negombo - Mirigama Rd, Negombo, Sri Lanka	0.301313		ගම්පහ	කටාන	MOH කාර්යාලය - කටාන	கம்பஹா	கட்டானா	MOH அலுவலகம் - கட்டானா	කටාන, මීගමුව - මීරිගම පාර, මීගමුව, ශ්‍රී ලංකාව	கட்டானா, நீர்கொழும்பு - மீரிகம வீதி, நீர்கொழும்பு, இலங்கை
Gampaha	Katana	St. Joseph's Primary School - Katuwapitiya	False	False	GMPHKTNSTJSPHSPRMRYSCHLKTWPTY		Gampaha	LK-12	7.123598	80.018508	Katana	PS-120360	7.224796	79.880015	7.211355	79.843639	6R6V+GFR, Negombo, Sri Lanka	4.283306		ගම්පහ	කටාන	ශාන්ත ජෝශප් ප්‍රාථමික විද්‍යාලය - කටුවාපිටිය	கம்பஹா	கட்டானா	செயின்ட் ஜோசப் தொடக்கப்பள்ளி - கட்டுவாபிட்டிய	6R6V+GFR, මීගමුව, ශ්‍රී ලංකාව	6R6V+GFR, நீர்கொழும்பு, இலங்கை
Gampaha	Nittambuwa	Ellakkala Maha Vidyalaya	False	False	GMPHNTTMBWLLKKLMHVDYLY		Gampaha	LK-12	7.123598	80.018508	Nittambuwa	PS-120246	7.149726	80.10046	7.132287	80.137212	Pasyala - Attanagalla Rd, Allalamulla, Sri Lanka	4.496156		ගම්පහ	නිට්ටඹුව	ඇල්ලක්කල මහා විද්‍යාලය	கம்பஹா	நிட்டம்புவா	எல்லக்கல மகா வித்தியாலயம்	පස්යාල - අත්තනගල්ල පාර, අල්ලමුල්ල, ශ්‍රී ලංකාව	பாஸ்யாலா - அத்தனகல்லா சாலை, அல்லாமல்லா, இலங்கை
Gampaha	Nittambuwa	Al Azhar Central College	False	False	GMPHNTTMBWLZHRCNTRLCLLG		Gampaha	LK-12	7.123598	80.018508	Nittambuwa	PS-120246	7.149726	80.10046	7.121335	80.072386	43CC+GXJ, Kalagedihena, Sri Lanka	4.424148		ගම්පහ	නිට්ටඹුව	අල් අසාර් මධ්‍ය විද්‍යාලය	கம்பஹா	நிட்டம்புவா	அல் அசார் மத்திய கல்லூரி	43CC+GXJ, කලගෙඩිහේන, ශ්‍රී ලංකාව	43CC+GXJ, கலகெடிஹேனா, இலங்கை
Gampaha	Nittambuwa	Alawala Maha Vidyalaya	False	False	GMPHNTTMBWLWLMHVDYLY		Gampaha	LK-12	7.123598	80.018508	Nittambuwa	PS-120246	7.149726	80.10046	7.119872	80.188904	Alawala-Polgahakumbura Rd, Sri Lanka	10.310789		ගම්පහ	නිට්ටඹුව	අලවල මහා විද්‍යාලය	கம்பஹா	நிட்டம்புவா	அலவாலா மகா வித்தியாலயம்	අලවල-පොල්ගහකුඹුර පාර, ශ්‍රී ලංකාව	அலவாலா-பொல்கஹகும்புரா சாலை, இலங்கை
Gampaha	Nittambuwa	Maligathenna Viharaya –Pasyalaya	False	False	GMPHNTTMBWMLGTHNNVHRYPSYLY		Gampaha	LK-12	7.123598	80.018508	Nittambuwa	PS-120246	7.149726	80.10046	7.174494	80.060652	Veyangoda, Sri Lanka	5.185622		ගම්පහ	නිට්ටඹුව	මාලිගාතැන්න විහාරය - පස්යාලය	கம்பஹா	நிட்டம்புவா	மாளிகாதென்னா விஹாராயா –பஸ்யாலயா	වේයන්ගොඩ, ශ්‍රී ලංකාව	வேயங்கொட, இலங்கை
Gampaha	Veyangoda	Kubaloluwa Delgahamedilla Viharaya	False	False	GMPHVYNGDKBLLWDLGHMDLLVHRY		Gampaha	LK-12	7.123598	80.018508	Weyangoda	PS-120247	7.144053	80.095511	7.176157	80.085338	Kottala Rd, Veyangoda, Sri Lanka	3.743258		ගම්පහ	වේයන්ගොඩ	කුබලොළුව දෙල්ගහමඩිල්ල විහාරය	கம்பஹா	வேயங்கொட	குபலோலுவ டெல்கமஹெடில்லா விஹாராயா	කොට්ටල පාර, වේයන්ගොඩ, ශ්‍රී ලංකාව	கோட்டலா வீதி, வேயங்கொட, இலங்கை
Gampaha	Ganemulla	Parakandeniya Siriperakum Vidyalaya	False	False	GMPHGNMLLPRKNDNYSRPRKMVDYLY		Gampaha	LK-12	7.123598	80.018508	Ganemulla	PS-120242	7.066804	79.959751	7.031485	79.978508	2XJH+HCR, Parakandeniya, Sri Lanka	4.440785		ගම්පහ	ගනේමුල්ල	පරකන්දෙණිය සිරිපෙරකුම් විද්‍යාලය	கம்பஹா	கணேமுல்லா	பரகந்தெனிய சிரிபெராகும் வித்தியாலயம்	2XJH+HCR, පරකන්දෙණිය, ශ්‍රී ලංකාව	2XJH+HCR, பரகந்தெனியா, இலங்கை
Gampaha	Pallewela	Bataliya Bubula Viharaya	False	False	GMPHPLLWLBTLYBBLVHRY		Gampaha	LK-12	7.123598	80.018508	Pallewela	PS-120249	7.197365	80.094856	7.186784	80.127642	54PH+P36, Bataliya, Sri Lanka	3.804696		ගම්පහ	පල්ලෙවෙල	බටලිය බුබුල විහාරය	கம்பஹா	பல்லெவெல	படாலியா புபுலா விஹாராயா	54 පීඑච්+පී 36, බටලිය, ශ්‍රී ලංකාව	54PH+P36, படாலியா, இலங்கை
Gampaha	Kadawata	Mahara Cultural Centre	False	False	GMPHKDWTMHRCLTRLCNTR		Gampaha	LK-12	7.123598	80.018508	Kadawatha	PS-120136	7.00152	79.95003	7.073592	80.017024	32F8+CRJ, Gampaha, Sri Lanka	10.906875		ගම්පහ	කඩවත	මහර සංස්කෘතික මධ්‍යස්ථානය	கம்பஹா	கடவாடா	மஹாரா கலாச்சார மையம்	32F8+CRJ, ගම්පහ, ශ්‍රී ලංකාව	32F8+CRJ, கம்பஹா, இலங்கை
Gampaha	Kadawata	Kirillawala Central College	False	False	GMPHKDWTKRLLWLCNTRLCLLG		Gampaha	LK-12	7.123598	80.018508	Kadawatha	PS-120136	7.00152	79.95003	7.015981	79.969223	2X89+9MX, Eldeniya, Sri Lanka	2.660247		ගම්පහ	කඩවත	කිරිල්ලවල මධ්‍ය මහා විද්‍යාලය	கம்பஹா	கடவாடா	கிரில்லாவாலா மத்திய கல்லூரி	2X89+9MX, ඇල්දෙනිය, ශ්‍රී ලංකාව	2X89+9MX, எல்டெனியா, இலங்கை
Gampaha	Biyagama	MOH Office – Biyagama	False	False	GMPHBYGMMHFFCBYGM		Gampaha	LK-12	7.123598	80.018508	Biyagama	PS-120131	6.962284	80.009037	6.946824	79.994052	Hospital Rd, Sri Lanka	2.386313		ගම්පහ	බියගම	MOH කාර්යාලය - බියගම	கம்பஹா	பியகம	MOH அலுவலகம் - பியாகம	රෝහල පාර, ශ්‍රී ලංකාව	மருத்துவமனை Rd, இலங்கை
Gampaha	Gampaha	MOH Office – Gampaha	False	False	GMPHGMPHMHFFCGMPH		Gampaha	LK-12	7.123598	80.018508	Gampaha	PS-120237	7.087765	80.01228	7.17227	79.956823	Katunayake-Veyangoda Rd, Minuwangoda, Sri Lanka	11.216745		ගම්පහ	ගම්පහ	MOH කාර්යාලය - ගම්පහ	கம்பஹா	கம்பஹா	MOH அலுவலகம் - கம்பஹா	කටුනායක-වේයන්ගොඩ පාර, මිනුවන්ගොඩ, ශ්‍රී ලංකාව	கட்டுநாயக்க-வெயங்கொட வீதி, மினுவாங்கொட, இலங்கை
Gampaha	Gampaha	Asgiriya Purana Viharaya	False	False	GMPHGMPHSGRYPRNVHRY		Gampaha	LK-12	7.123598	80.018508	Gampaha	PS-120237	7.087765	80.01228	7.110015	79.989902	4X6Q+2X2, Gampaha, Sri Lanka	3.496563		ගම්පහ	ගම්පහ	අස්ගිරි පුරාණ විහාරය	கம்பஹா	கம்பஹா	அஸ்கிரிய புராண விகாரை	4X6Q+2X2, ගම්පහ, ශ්‍රී ලංකාව	4X6Q+2X2, கம்பஹா, இலங்கை
Gampaha	Kirindiwela	Putupagala Clinic	False	False	GMPHKRNDWLPTPGLCLNC		Gampaha	LK-12	7.123598	80.018508	Kirindiwela	PS-120239	7.043011	80.120449	7.03481	80.108246	Weliweriya - Kirindiwela Rd, 11725, Sri Lanka	1.626899		ගම්පහ	කිරිඳිවැල	පුටුපාගල සායනය	கம்பஹா	கிரிந்திவெல	புதுபாகலா கிளினிக்	වැලිවේරිය - කිරිඳිවැල පාර, 11725, ශ්‍රී ලංකාව	வெலிவேரிய - கிரிந்திவெல வீதி, 11725, இலங்கை
Gampaha	Pugoda	MOH Office – Dompe	False	False	GMPHPGDMHFFCDMP		Gampaha	LK-12	7.123598	80.018508	Pugoda	PS-120241	6.98283	80.111189	6.976767	80.117422	Dompe, Pugoda-Mandawala Rd, Pugoda, Sri Lanka	0.963513		ගම්පහ	පූගොඩ	MOH කාර්යාලය - දොම්පේ	கம்பஹா	புகோடா	MOH அலுவலகம் - Dompe	දොම්පේ, පූගොඩ-මණ්ඩාවල පාර, පූගොඩ, ශ්‍රී ලංකාව	டோம்பே, புகோடா-மண்டவாலா சாலை, புகோடா, இலங்கை
Gampaha	Pamunugama	Pamunugama Hospital	False	False	GMPHPMNGMPMNGMHSPTL		Gampaha	LK-12	7.123598	80.018508	Pamunugama	PS-120353	7.078892	79.859696	7.093543	79.850191	3VV2+C38, Negombo, Sri Lanka	1.938152		ගම්පහ	පමුණුගම	පමුණුගම රෝහල	கம்பஹா	பமுனுகம	பமுனுகம மருத்துவமனை	3VV2+C38, මීගමුව, ශ්‍රී ලංකාව	3VV2+C38, நீர்கொழும்பு, இலங்கை
Gampaha	Pamunugama	St. Anthoney's Church – Pubudugama	False	False	GMPHPMNGMSTNTHNYSCHRCHPBDGM		Gampaha	LK-12	7.123598	80.018508	Pamunugama	PS-120353	7.078892	79.859696	7.04803	79.873948	Bopitiya Kandana Rd, Bopitiya, Sri Lanka	3.776103		ගම්පහ	පමුණුගම	ශාන්ත අන්තෝනි දේවස්ථානය - පුබුදුගම	கம்பஹா	பமுனுகம	புனித அந்தோனியார் தேவாலயம் - புபுடுகம	බෝපිටිය කඳාන පාර, බෝපිටිය, ශ්‍රී ලංකාව	போபிட்டிய கண்டனா சாலை, போபிடியா, இலங்கை
Gampaha	Negombo	Periyamulla Mosque	False	False	GMPHNGMBPRYMLLMSQ		Gampaha	LK-12	7.123598	80.018508	Negombo	PS-120351	7.224796	79.880015	7.222194	79.847618	Mosque Rd, Negombo, Sri Lanka	3.586609		ගම්පහ	මීගමුව	පෙරියමුල්ල මුස්ලිම් පල්ලිය	கம்பஹா	நீர்கொழும்பு	பெரியமுல்லா மசூதி	පල්ලිය පාර, මීගමුව, ශ්‍රී ලංකාව	மசூதி சாலை, நீர்கொழும்பு, இலங்கை
Gampaha	Negombo	Lewis Place Maternity Clinic	False	False	GMPHNGMBLWSPLCMTRNTYCLNC		Gampaha	LK-12	7.123598	80.018508	Negombo	PS-120351	7.224796	79.880015	7.209309	79.849748	169 Colombo Rd, Negombo, Sri Lanka	3.757989		ගම්පහ	මීගමුව	ලුවිස් පෙදෙස මාතෘ සායනය	கம்பஹா	நீர்கொழும்பு	லூயிஸ் பிளேஸ் மகப்பேறு மருத்துவமனை	169 කොළඹ පාර, මීගමුව, ශ්‍රී ලංකාව	169 கொழும்பு வீதி, நீர்கொழும்பு, இலங்கை
Gampaha	Kochchikade	Al Falal Muslim College	False	False	GMPHKCHCHKDLFLLMSLMCLLG		Gampaha	LK-12	7.123598	80.018508	Kochchikade	PS-120352	7.265049	79.857026	7.259185	79.845987	Thakkiya Rd, Poruthota, Negombo, Sri Lanka	1.381664		ගම්පහ	කොච්චිකඩේ	අල් ෆලාල් මුස්ලිම් විද්‍යාලය	கம்பஹா	கொச்சிக்கடே	அல் ஃபலால் முஸ்லிம் கல்லூரி	තක්කියා පාර, පෝරුතොට, මීගමුව, ශ්‍රී ලංකාව	தக்கியா சாலை, பொருத்தோட்டை, நீர்கொழும்பு, இலங்கை
Gampaha	Seeduwa	MOH Office – Seeduwa	False	False	GMPHSDWMHFFCSDW		Gampaha	LK-12	7.123598	80.018508	Seeduwa	PS-120356	7.128721	79.877371	7.131527	79.879964	24 Kotugoda Rd, Katunayake 11410, Sri Lanka	0.423459		ගම්පහ	සීදුව	MOH කාර්යාලය - සීදුව	கம்பஹா	சீதுவா	MOH அலுவலகம் - சீதுவா	24 කොටුගොඩ පාර, කටුනායක 11410, ශ්‍රී ලංකාව	24 கொடுகொட வீதி, கட்டுநாயக்க 11410, இலங்கை
Gampaha	Divulapitiya	MOH Office – Divulapitiya	False	False	GMPHDVLPTYMHFFCDVLPTY		Gampaha	LK-12	7.123598	80.018508	Diulapitiya	PS-120355	7.174215	79.957874	7.215486	80.013606	6287+5CX, Divulapitiya, Sri Lanka	7.67456		ගම්පහ	දිවුලපිටිය	එම්ඕඑච් කාර්යාලය - දිවුලපිටිය	கம்பஹா	திவுலபிட்டிய	MOH அலுவலகம் - திவுலபிட்டிய	6287+5CX, දිවුලපිටිය, ශ්‍රී ලංකාව	6287+5CX, திவுலபிட்டிய, இலங்கை
Gampaha	Divulapitiya	Kehelella Maha Vidyalaya	False	False	GMPHDVLPTYKHLLLMHVDYLY		Gampaha	LK-12	7.123598	80.018508	Diulapitiya	PS-120355	7.174215	79.957874	7.224837	80.015468	B22, Divulapitiya, Sri Lanka	8.491111		ගම්පහ	දිවුලපිටිය	කෙහෙලැල්ල මහා විද්‍යාලය	கம்பஹா	திவுலபிட்டிய	கெஹெல்லெல்லா மகா வித்தியாலயம்	බී 22, දිවුලපිටිය, ශ්‍රී ලංකාව	பி 22, திவுலபிட்டிய, இலங்கை
Gampaha	Divulapitiya	Kehelella Community Hall	False	False	GMPHDVLPTYKHLLLCMMNTYHLL		Gampaha	LK-12	7.123598	80.018508	Diulapitiya	PS-120355	7.174215	79.957874	7.286371	79.98504	B503, Badalgama, Sri Lanka	12.830299		ගම්පහ	දිවුලපිටිය	කෙහෙලැල්ල ප්‍රජා ශාලාව	கம்பஹா	திவுலபிட்டிய	கெஹெல்லெல்லா சமுதாயக் கூடம்	බී 503, බඩල්ගම, ශ්‍රී ලංකාව	B503, பதல்கம, இலங்கை
Gampaha	Divulapitiya	Gnanodaya Maha Vidyalaya	False	False	GMPHDVLPTYGNNDYMHVDYLY		Gampaha	LK-12	7.123598	80.018508	Diulapitiya	PS-120355	7.174215	79.957874	7.222331	80.019709	62C9+WVP, Divulapitiya 11250, Sri Lanka	8.672135		ගම්පහ	දිවුලපිටිය	ඥානෝදය මහා විද්‍යාලය	கம்பஹா	திவுலபிட்டிய	ஞானோதயா மகா வித்தியாலயம்	62 සී 9+ඩබ්ලිව්වීපී, දිවුලපිටිය 11250, ශ්‍රී ලංකාව	62C9+WVP, திவுலபிட்டிய 11250, இலங்கை
Gampaha	Ja Ela	MOH Office - Ja Ela	False	False	GMPHJLMHFFCJL		Gampaha	LK-12	7.123598	80.018508	Ja - Ela	PS-120133	7.081055	79.890504	7.075216	79.893879	60 Mount Kalvary Rd, Ja-Ela, Sri Lanka	0.748731		ගම්පහ	ජා ඇල	MOH කාර්යාලය - ජා ඇල	கம்பஹா	ஜா எல	MOH அலுவலகம் - ஜா எல	60 කල්වාරි පාර, ජා-ඇල, ශ්‍රී ලංකාව	60 மவுண்ட் கல்வாரி சாலை, ஜா-எல, இலங்கை
Gampaha	Wattala	MOH Office – Wattala	False	False	GMPHWTTLMHFFCWTTL		Gampaha	LK-12	7.123598	80.018508	Wattala	PS-120128	6.993713	79.894506	6.995817	79.885793	301 Hendala Rd, Wattala, Sri Lanka	0.989991		ගම්පහ	වත්තල	MOH කාර්යාලය - වත්තල	கம்பஹா	வத்தளை	MOH அலுவலகம் - வத்தளை	301 හැඳල පාර, වත්තල, ශ්‍රී ලංකාව	301 ஹெந்தலா சாலை, வத்தளை, இலங்கை
Gampaha	Ragama	MOH Office – Ragama	False	False	GMPHRGMMHFFCRGM		Gampaha	LK-12	7.123598	80.018508	Ragama	PS-120134	7.034975	79.924148	7.027386	79.920232	2WGC+X35, Ragama, Sri Lanka	0.948382		ගම්පහ	රාගම	MOH කාර්යාලය - රාගම	கம்பஹா	ராகம	MOH அலுவலகம் - ராகம	2WGC+X35, රාගම, ශ්‍රී ලංකාව	2WGC+X35, ராகம, இலங்கை
Kalutara	Ingiriya	Ingiriya Hospital	False	False	KLTRNGRYNGRYHSPTL		Kalutara	LK-13	6.577316	80.127363	Ingiriya	PS-130193	6.743614	80.175077	6.741133	80.162046	Panadura-Nambapana-Ratnapura Hwy, Ingiriya, Sri Lanka	1.465626		කළුතර	ඉංගිරිය	ඉංගිරිය රෝහල	களுத்துறை	இங்கிரிய	இங்கிரிய மருத்துவமனை	පානදුර-නාම්බපන-රත්නපුර හ්වි, ඉංගිරිය, ශ්‍රී ලංකාව	பாணாதுரா-நம்பபனா-ரத்னபுரா ஹ்வி, இங்கிரிய, இலங்கை
Kalutara	Ingiriya	Hadapangoda Vidyalaya	False	False	KLTRNGRYHDPNGDVDYLY		Kalutara	LK-13	6.577316	80.127363	Ingiriya	PS-130193	6.743614	80.175077	6.792142	80.14164	Poruwadanda-Handapangoda Road, Handapangoda, Sri Lanka	6.540345		කළුතර	ඉංගිරිය	හදපංගොඩ විද්‍යාලය	களுத்துறை	இங்கிரிய	ஹடபன்கொட வித்தியாலயம்	පෝරුවදණ්ඩ-හඳපාන්ගොඩ පාර, හඳපාන්ගොඩ, ශ්‍රී ලංකාව	பொருவதண்ட-ஹந்தபங்கொட சாலை, ஹந்தபங்கொட, இலங்கை
Kalutara	Anguruwatota	MOH Office – Madurawala	False	False	KLTRNGRWTTMHFFCMDRWL		Kalutara	LK-13	6.577316	80.127363	Anguruwatota	PS-130190	6.654997	80.058183	6.654814	80.057811	M335+W4F, Keselhenawa, Sri Lanka	0.045863		කළුතර	අඟුරුවාතොට	MOH කාර්යාලය - මදුරාවල	களுத்துறை	அங்குருவடோட்டா	MOH அலுவலகம் - மதுரவாலா	M335+W4F, කෙසෙල්හේනාව, ශ්‍රී ලංකාව	M335+W4F, கெசல்ஹேனாவா, இலங்கை
Kalutara	Horana	Base Hospital - Horana	False	False	KLTRHRNBSHSPTLHRN		Kalutara	LK-13	6.577316	80.127363	Horana	PS-130192	6.714613	80.069091	6.710644	80.066589	Hospital Ln, Horana, Sri Lanka	0.520853		කළුතර	හොරණ	මූලික රෝහල - හොරණ	களுத்துறை	ஹொரானா	அடிப்படை மருத்துவமனை - ஹொரணை	හොරණ රෝහල, ශ්‍රී ලංකාව	மருத்துவமனை Ln, ஹொரானா, இலங்கை
Kalutara	Horana	Kananwila Subhadraramaya	False	False	KLTRHRNKNNWLSBHDRRMY		Kalutara	LK-13	6.577316	80.127363	Horana	PS-130192	6.714613	80.069091	6.756612	80.057254	No 25 Kahatagahalanda, Kananwila Rd, Horana, Sri Lanka	4.851079		කළුතර	හොරණ	කනන්විල සුභද්‍රාරාමය	களுத்துறை	ஹொரானா	கனன்வில சுபத்ரராமாய	අංක 25 කහටගහලන්ද, කනන්විල පාර, හොරණ, ශ්‍රී ලංකාව	எண் 25 கஹதகஹலாந்தா, கனன்வில வீதி, ஹொரானா, இலங்கை
Kalutara	Horana	Kananwila Kande Viharaya	False	False	KLTRHRNKNNWLKNDVHRY		Kalutara	LK-13	6.577316	80.127363	Horana	PS-130192	6.714613	80.069091	6.756366	80.053445	Kananwila Rd, Horana, Sri Lanka	4.955301		කළුතර	හොරණ	කනන්විල කන්දේ විහාරය	களுத்துறை	ஹொரானா	கனன்வில கண்டே விஹாராயா	කනන්විල පාර, හොරණ, ශ්‍රී ලංකාව	கனன்வில வீதி, ஹொரணை, இலங்கை
Kalutara	Thebuwana	Divisional Hospital – Neboda	False	False	KLTRTHBWNDVSNLHSPTLNBD		Kalutara	LK-13	6.577316	80.127363	Thebuwana	PS-1302105	6.654997	80.058183	6.570354	80.073048	wellatha Neboda ., Neboda - Wellatha Rd, Sri Lanka	9.557015		කළුතර	තෙබුවන	ප්‍රාදේශීය රෝහල - නැබොඩ	களுத்துறை	தேபுவானா	பிரிவு மருத்துவமனை - நெபோடா	වෙල්ලතා නැබොඩ., නැබොඩ - වෙල්ලත පාර, ශ්‍රී ලංකාව	வெல்லதா நெபோடா., நெபோடா - வெல்லதா ஆர்ட், இலங்கை
Kalutara	Dodangoda	Dodangoda Hospital	False	False	KLTRDDNGDDDNGDHSPTL		Kalutara	LK-13	6.577316	80.127363	Dodangoda	PS-130299	6.553375	80.023569	6.540961	80.036553	Wilpatha Rd, Sri Lanka	1.991373		කළුතර	දොඩන්ගොඩ	දොඩන්ගොඩ රෝහල	களுத்துறை	தொடங்கொட	தொடங்கொட மருத்துவமனை	විල්පත පාර, ශ්‍රී ලංකාව	வில்பதா சாலை, இலங்கை
Kalutara	Dodangoda	Dodangoda Eladuwa Vidyalaya	False	False	KLTRDDNGDDDNGDLDWVDYLY		Kalutara	LK-13	6.577316	80.127363	Dodangoda	PS-130299	6.553375	80.023569	6.505918	80.038034	G24Q+967, Maggona, Sri Lanka	5.515359		කළුතර	දොඩන්ගොඩ	දොඩන්ගොඩ ඇලදුව විද්‍යාලය	களுத்துறை	தொடங்கொட	தொடங்கொட எலடுவ வித்தியாலயம்	G24Q+967, මග්ගොන, ශ්‍රී ලංකාව	G24Q+967, மாகோனா, இலங்கை
Kalutara	Katutara	Nagoda District General Hospital	False	False	KLTRKTTRNGDDSTRCTGNRLHSPTL		Kalutara	LK-13	6.577316	80.127363									#PoliceLocationUnknown	කළුතර	කටුතර	නාගොඩ දිසා මහ රෝහල	களுத்துறை	கடுதாரா	நாகோடா மாவட்ட பொது மருத்துவமனை		
Kalutara	Katutara	NIHS	False	False	KLTRKTTRNHS		Kalutara	LK-13	6.577316	80.127363									#PoliceLocationUnknown	කළුතර	කටුතර	NIHS	களுத்துறை	கடுதாரா	என்ஐஎச்எஸ்		
Kalutara	Wadduwa	Gonaduwa Primary School	False	False	KLTRWDDWGNDWPRMRYSCHL		Kalutara	LK-13	6.577316	80.127363	Wadduwa	PS-130188	6.664403	79.929851	6.650788	79.935438	MW2P+858, Wadduwa, Sri Lanka	1.635356		කළුතර	වාද්දුව	ගෝනඩුව ප්‍රාථමික විද්‍යාලය	களுத்துறை	வாத்துவா	கோனடுவ ஆரம்பப் பள்ளி	MW2P+858, වාද්දුව, ශ්‍රී ලංකාව	MW2P+858, வாத்துவா, இலங்கை
Kalutara	Wadduwa	Prime Minister's College – Panapitiya	False	False	KLTRWDDWPRMMNSTRSCLLGPNPTY		Kalutara	LK-13	6.577316	80.127363	Wadduwa	PS-130188	6.664403	79.929851	6.629266	79.978548	B224, Wadduwa, Sri Lanka	6.649865		කළුතර	වාද්දුව	අග්‍රාමාත්‍ය විද්‍යාලය - පනාපිටිය	களுத்துறை	வாத்துவா	பிரதமரின் கல்லூரி - பனாபிட்டிய	බී 224, වාද්දුව, ශ්‍රී ලංකාව	பி 224, வாட்டுவா, இலங்கை
Kalutara	Millaniya	Dobagoda Seelarathana Vidyalaya	False	False	KLTRMLLNYDBGDSLRTHNVDYLY		Kalutara	LK-13	6.577316	80.127363	Millaniya	PS-130191	6.681692	80.020847	6.655961	80.044536	Seelarathana Vidyalaya Rd, Sri Lanka	3.878214		කළුතර	මිල්ලනිය	දොබගොඩ සීලරතන විද්‍යාලය	களுத்துறை	மில்லனியா	டோபகொட சீலரதன வித்யாலயா	සීලරතන විද්‍යාලය පාර, ශ්‍රී ලංකාව	சீலாரத்தன வித்யாலயா சாலை, இலங்கை
Kalutara	Beruwala	Alhadi Paniya Muslim Girls' College	False	False	KLTRBRWLLHDPNYMSLMGRLSCLLG		Kalutara	LK-13	6.577316	80.127363	Beruwala	PS-1302102	6.480329	79.983498	6.442537	80.018445	C2V9+298, Dharga Town, Sri Lanka	5.708661		කළුතර	බේරුවල	අල්හාඩි පානියා මුස්ලිම් බාලිකා විද්‍යාලය	களுத்துறை	பேருவளை	அல்ஹாடி பனியா முஸ்லிம் பெண்கள் கல்லூரி	සී 2 වී 9+298, දර්ගා නගරය, ශ්‍රී ලංකාව	சி 2 வி 9+298, தர்கா டவுன், இலங்கை
Kalutara	Beruwala	Beruwala Bubulalanda Viharaya	False	False	KLTRBRWLBRWLBBLLNDVHRY		Kalutara	LK-13	6.577316	80.127363	Beruwala	PS-1302102	6.480329	79.983498	6.449296	80.000796	Kandavihara Yati Rd, Beruwala, Sri Lanka	3.945877		කළුතර	බේරුවල	බේරුවල බුබුලලන්ද විහාරය	களுத்துறை	பேருவளை	பேருவளை புபுலலாந்த விஹாராயா	කඳවිහාර යටි පාර, බේරුවල, ශ්‍රී ලංකාව	கந்தவிஹார யதி வீதி, பேருவளை, இலங்கை
Kalutara	Bandragama	Maithri Hall - Bandaragama	False	False	KLTRBNDRGMMTHRHLLBNDRGM		Kalutara	LK-13	6.577316	80.127363	Bandaragama	PS-130189	6.715179	79.987674	6.713508	79.990766	PX7R+C82, Bandaragama, Sri Lanka	0.388859		කළුතර	බණ්ඩාරගම	මෛත් රී ශාලාව - බණ්ඩාරගම	களுத்துறை	பந்த்ரகம	மைத்திரி மண்டபம் - பண்டாரகம	PX7R+C82, බණ්ඩාරගම, ශ්‍රී ලංකාව	PX7R+C82, பண்டாரகம, இலங்கை
Kalutara	Bandragama	District Hospital Bandaragama	False	False	KLTRBNDRGMDSTRCTHSPTLBNDRGM		Kalutara	LK-13	6.577316	80.127363	Bandaragama	PS-130189	6.715179	79.987674	6.716162	79.991484	Horana Rd, Bandaragama, Sri Lanka	0.434849		කළුතර	බණ්ඩාරගම	බණ්ඩාරගම දිසා රෝහල	களுத்துறை	பந்த்ரகம	மாவட்ட மருத்துவமனை பண்டாரகம	හොරණ පාර, බණ්ඩාරගම, ශ්‍රී ලංකාව	ஹொரானா வீதி, பண்டாரகம, இலங்கை
Kalutara	Bandragama	Atulugama Algasali	False	False	KLTRBNDRGMTLGMLGSL		Kalutara	LK-13	6.577316	80.127363	Bandaragama	PS-130189	6.715179	79.987674	6.713096	79.995265	Atulugama Rd, Bandaragama, Sri Lanka	0.869974		කළුතර	බණ්ඩාරගම	අටුලුගම අල්ගසාලි	களுத்துறை	பந்த்ரகம	அதுலுகம அல்கசாலி	අතුළුගම පාර, බණ්ඩාරගම, ශ්‍රී ලංකාව	அதுலுகம வீதி, பண்டாரகம, இலங்கை
Kalutara	Panadura South	Mahanama Vidyalaya	False	False	KLTRPNDRSTHMHNMVDYLY		Kalutara	LK-13	6.577316	80.127363	Panadura South	PS-130186	6.720941	79.907315	6.725866	79.907901	PWG5+85R, Panadura, Sri Lanka	0.551618		කළුතර	පානදුර දකුණ	මහානාම විද්‍යාලය	களுத்துறை	பாணந்துறை தெற்கு	மகாநாம வித்யாலயா	PWG5+85R, පානදුර, ශ්‍රී ලංකාව	PWG5+85R, பாணந்துரா, இலங்கை
Kalutara	Panadura South	Sumangala Boy's College	False	False	KLTRPNDRSTHSMNGLBYSCLLG		Kalutara	LK-13	6.577316	80.127363	Panadura South	PS-130186	6.720941	79.907315	6.710155	79.914215	Sri Sumangala College, Panadura 12500, Sri Lanka	1.421379		කළුතර	පානදුර දකුණ	සුමංගල පිරිමි විද්‍යාලය	களுத்துறை	பாணந்துறை தெற்கு	சுமங்கல பாய்ஸ் கல்லூரி	ශ්‍රී සුමංගල විද්‍යාලය, පානදුර 12500, ශ්‍රී ලංකාව	ஸ்ரீ சுமங்கலா கல்லூரி, பாணந்துரா 12500, இலங்கை
Kurunegala	Kurunegala	Mobile Medical Team	False	False	KRNGLKRNGLMBLMDCLTM		Kurunegala	LK-61	7.66477	80.23677	Kurunegala	PS-610101	7.485852	80.364137					#CenterLocationUnknown	කුරුණෑගල	කුරුණෑගල	ජංගම වෛද්‍ය කණ්ඩායම	குருநாகல்	குருநாகல்	மொபைல் மருத்துவ குழு		
Kurunegala	Kurunegala	Thorayaya Muslim Vidyalaya	False	False	KRNGLKRNGLTHRYYMSLMVDYLY		Kurunegala	LK-61	7.66477	80.23677	Kurunegala	PS-610101	7.485852	80.364137	7.511024	80.413707	Ambepussa - Kurunegala - Trincomalee Hwy, Thorayaya, Sri Lanka	6.141829		කුරුණෑගල	කුරුණෑගල	තෝරයාය මුස්ලිම් විද්යාලය	குருநாகல்	குருநாகல்	தோராயா முஸ்லிம் வித்யாலயா	අඹේපුස්ස - කුරුණෑගල - ත්‍රිකුණාමලය හ්වි, තෝරයයා, ශ්‍රී ලංකාව	அம்பேபுஸ்ஸா - குருநாகல் - திருகோணமலை ஹ்வி, தொராயய்யா, இலங்கை
Kurunegala	Kobeigane	Welewewa Viharaya	False	False	KRNGLKBGNWLWWVHRY		Kurunegala	LK-61	7.66477	80.23677	Kobeigane	PS-610321	7.656934	80.126283	7.969458	80.074921	Galgamuwa Rd, Miyallawa, Sri Lanka	35.219754	#CenterFarFromPolice	කුරුණෑගල	කොබෙයිගනේ	වෙලේවැව විහාරය	குருநாகல்	கோபிகனே	வெலேவெவ விஹாராயா	ගල්ගමුව පාර, මියල්ලෑව, ශ්‍රී ලංකාව	கல்கமுவா சாலை, மியல்லவா, இலங்கை
Kurunegala	Rasnayakapura	Rasnayakapura Vidyalaya	False	False	KRNGLRSNYKPRRSNYKPRVDYLY		Kurunegala	LK-61	7.66477	80.23677	Rasnayakapura	PS-610323	7.776658	80.012692	7.777734	80.016779	Adigama Road, Rasnayakapura,l, Nikaweratiya, Sri Lanka	0.466045		කුරුණෑගල	රස්නායකපුර	රස්නායකපුර විද්‍යාලය	குருநாகல்	ரஸ்நாயகாபுரா	ரஸ்நாயகாபுரா வித்யாலயா	අඩිගම පාර, රස්නායකපුර, එල්, නිකවැරටිය, ශ්‍රී ලංකාව	அடிகம சாலை, ரஸ்நாயக்கபுரா, எல், நிகவெரட்டிய, இலங்கை
Kurunegala	Polpithigama	GN – Thalpathwewa	False	False	KRNGLPLPTHGMGNTHLPTHWW		Kurunegala	LK-61	7.66477	80.23677	Polpithigama	PS-610326	7.835529	80.400637	7.468605	80.366996	Henamulla Road, Kurunegala, Sri Lanka	40.980931	#CenterFarFromPolice	කුරුණෑගල	පොල්පිතිගම	ජීඑන් - තල්පත්වැව	குருநாகல்	பொல்பிதிகம	GN - தல்பத்வெவா	හේනමුල්ල පාර, කුරුණෑගල, ශ්‍රී ලංකාව	ஹெனாமுல்லா சாலை, குருநாகல், இலங்கை
Kurunegala	Polpithigama	Galtangwewa Vidyalaya	False	False	KRNGLPLPTHGMGLTNGWWVDYLY		Kurunegala	LK-61	7.66477	80.23677	Polpithigama	PS-610326	7.835529	80.400637	7.7831	80.398343	Polpithigama road Galtenwewa, Polpithigama, Sri Lanka	5.837141		කුරුණෑගල	පොල්පිතිගම	ගල්තංවැව විද්‍යාලය	குருநாகல்	பொல்பிதிகம	கல்தங்வெவா வித்தியாலயம்	පොල්පිතිගම පාර, ගල්ටන්වැව, පොල්පිතිගම, ශ්‍රී ලංකාව	பொல்பித்திகம சாலை கால்டன்வெவ, பொல்பித்திகம, இலங்கை
Kurunegala	Polpithigama	Borawewa Vidyalaya	False	False	KRNGLPLPTHGMBRWWVDYLY		Kurunegala	LK-61	7.66477	80.23677	Polpithigama	PS-610326	7.835529	80.400637	7.906808	80.422529	WC4F+P2C, Kurunegala, Sri Lanka	8.287158		කුරුණෑගල	පොල්පිතිගම	බොරවැව විද්‍යාලය	குருநாகல்	பொல்பிதிகம	போராவெவ வித்தியாலயம்	ඩබ්ලිව්සී 4 එෆ්+පී 2 සී, කුරුණෑගල, ශ්‍රී ලංකාව	WC4F+P2C, குருநாகல், இலங்கை
Kurunegala	Maho	Daladagama Vidyalaya	False	False	KRNGLMHDLDGMVDYLY		Kurunegala	LK-61	7.66477	80.23677	Maho	PS-610324	7.824001	80.28038	7.472981	80.354729	F9F3+5VX, Kurunegala, Sri Lanka	39.894914	#CenterFarFromPolice	කුරුණෑගල	මහෝ	දළදාගම විද්‍යාලය	குருநாகல்	மஹோ	தலதகம வித்தியாலயம்	F9F3+5VX, කුරුණෑගල, ශ්‍රී ලංකාව	F9F3+5VX, குருநாகல், இலங்கை
Kurunegala	Maho	Ihalagama Vidyalaya	False	False	KRNGLMHHLGMVDYLY		Kurunegala	LK-61	7.66477	80.23677	Maho	PS-610324	7.824001	80.28038	8.331086	80.579419	Ihalagama,Mihintale, Sri Lanka	65.313162	#CenterFarFromPolice	කුරුණෑගල	මහෝ	ඉහළගම විද්‍යාලය	குருநாகல்	மஹோ	இஹலகம வித்யாலயா	ඉහළගම, මිහින්තලය, ශ්‍රී ලංකාව	இஹலகம, மிஹிந்தலை, இலங்கை
Kurunegala	Maho	Kekunawa Viharaya	False	False	KRNGLMHKKNWVHRY		Kurunegala	LK-61	7.66477	80.23677	Maho	PS-610324	7.824001	80.28038	7.817871	80.31162	R896+4JX, Maho, Sri Lanka	3.509373		කුරුණෑගල	මහෝ	කැකුණාව විහාරය	குருநாகல்	மஹோ	கேகுநாவா விஹாராயா	R896+4JX, මහෝ, ශ්‍රී ලංකාව	R896+4JX, மஹோ, இலங்கை
Kurunegala	Kumbukgete	Gassandalupotha Maha Vidyalaya	False	False	KRNGLKMBKGTGSSNDLPTHMHVDYLY		Kurunegala	LK-61	7.66477	80.23677	Kumbukgatey	PS-610111	6.934132	79.856305	7.688405	80.397086	kubukgate, northwestern province, Waduwawa, Sri Lanka	102.948082	#CenterFarFromPolice	කුරුණෑගල	කුඹුක්ගැටේ	ගස්සඳළුපොත මහා විද්‍යාලය	குருநாகல்	கும்புகெட்டே	கசந்தலுபோத மகா வித்தியாலயம்	කුබුක්ගේට්, වයඹ පළාත, වාඩුවාව, ශ්‍රී ලංකාව	குபுக்கேட், வடமேற்கு மாகாணம், வடுவாவா, இலங்கை
Kurunegala	Kumbukgete	Welgala Vidyalaya	False	False	KRNGLKMBKGTWLGLVDYLY		Kurunegala	LK-61	7.66477	80.23677	Kumbukgatey	PS-610111	6.934132	79.856305	7.686387	80.440997	Welgala, Sri Lanka	105.651493	#CenterFarFromPolice	කුරුණෑගල	කුඹුක්ගැටේ	වෙල්ගල විද්‍යාලය	குருநாகல்	கும்புகெட்டே	வெல்கல வித்யாலயா	වෙල්ගල, ශ්‍රී ලංකාව	வெல்கலா, இலங்கை
Kurunegala	Polgahawela	Nungamuwa Damseth Maha Vidyalaya	False	False	KRNGLPLGHWLNNGMWDMSTHMHVDYLY		Kurunegala	LK-61	7.66477	80.23677	Polgahawela	PS-610102	7.333281	80.300363	7.33121	80.29554	A6, Polgahawela, Sri Lanka	0.5798		කුරුණෑගල	පොල්ගහවෙල	නුංගමුව දම්සත් මහා විද්‍යාලය	குருநாகல்	பொல்கஹவெல	நுங்கமுவ டாம்சேத் மகா வித்தியாலயம்	ඒ 6, පොල්ගහවෙල, ශ්‍රී ලංකාව	A6, பொல்கஹவெல, இலங்கை
Kurunegala	Rideegama	Kelemulla Primary School	False	False	KRNGLRDGMKLMLLPRMRYSCHL		Kurunegala	LK-61	7.66477	80.23677	Rideegama	PS-610110	7.589247	80.61027	7.557805	80.473098	HF5F+46H, Kurunegala, Sri Lanka	15.523598		කුරුණෑගල	රිදීගම	කැලේමුල්ල ප්‍රාථමික විද්‍යාලය	குருநாகல்	ரிதேகம	கெலெமுல்லா ஆரம்பப் பள்ளி	එච්එෆ් 5 එෆ්+46 එච්, කුරුණෑගල, ශ්‍රී ලංකාව	HF5F+46H, குருநாகல், இலங்கை
Kurunegala	Rideegama	Dodangaslanada Maha Vidyalaya	False	False	KRNGLRDGMDDNGSLNDMHVDYLY		Kurunegala	LK-61	7.66477	80.23677	Rideegama	PS-610110	7.589247	80.61027	7.537105	80.490915	Ridee Vihara Rd, Ridigama, Sri Lanka	14.381743		කුරුණෑගල	රිදීගම	දොඩංගස්ලනාද මහා විද්‍යාලය	குருநாகல்	ரிதேகம	தோடாங்கஸ்லானடா மகா வித்தியாலயம்	රිදී විහාර පාර, රිදිගම, ශ්‍රී ලංකාව	ரைடி விஹார வீதி, ரிதிகம, இலங்கை
Kurunegala	Rideegama	Delwita Maha Vidyalaya	False	False	KRNGLRDGMDLWTMHVDYLY		Kurunegala	LK-61	7.66477	80.23677	Rideegama	PS-610110	7.589247	80.61027	7.536358	80.465316	GFP8+G4W, Kurunegala, Sri Lanka	17.031225		කුරුණෑගල	රිදීගම	දෙල්විට මහා විද්‍යාලය	குருநாகல்	ரிதேகம	தெல்விட மகா வித்தியாலயம்	GFP8+G4W, කුරුණෑගල, ශ්‍රී ලංකාව	GFP8+G4W, குருநாகல், இலங்கை
Kurunegala	Alawwa	Walakumbura Maha Vidyalaya	False	False	KRNGLLWWWLKMBRMHVDYLY		Kurunegala	LK-61	7.66477	80.23677	Alawwa	PS-610103	7.295909	80.24277	7.316048	80.26541	Sri Lanka	3.355124		කුරුණෑගල	අලව්ව	වලකුඹුර මහා විද්‍යාලය	குருநாகல்	அலவ்வா	வளகும்புர மகா வித்தியாலயம்	ශ්රී ලංකාව	இலங்கை
Kurunegala	Alawwa	Maramadala Maha Vidyalaya	False	False	KRNGLLWWMRMDLMHVDYLY		Kurunegala	LK-61	7.66477	80.23677	Alawwa	PS-610103	7.295909	80.24277	7.301775	80.237185	Alawwa-Dampelessa Rd, Alawwa 60280, Sri Lanka	0.897444		කුරුණෑගල	අලව්ව	මාරමඩල මහා විද්‍යාලය	குருநாகல்	அலவ்வா	மரமடல மகா வித்தியாலயம்	අලව්ව-දම්පැලැස්ස පාර, අලව්ව 60280, ශ්‍රී ලංකාව	அலவ்வா-டம்பெலெஸா சாலை, அலவ்வா 60280, இலங்கை
Puttalam	Chilaw	St. Mary's Boys' College	False	False	PTTLMCHLWSTMRYSBYSCLLG		Puttalam	LK-62	7.973531	79.913833	Chilaw	PS-620241	7.576197	79.788003	7.581823	79.795774	HQJW+P8C, Chilaw, Sri Lanka	1.061006		පුත්තලම	භලාවත	ශාන්ත මරියා පිරිමි විද්යාලය	புத்தளம்	சிலாபம்	செயின்ட் மேரீஸ் ஆண்கள் கல்லூரி	HQJW+P8C, හලාවත, ශ්‍රී ලංකාව	HQJW+P8C, சிலாபம், இலங்கை
Puttalam	Wennappuwa	Lunugala Primary Vidyalaya	False	False	PTTLMWNNPPWLNGLPRMRYVDYLY		Puttalam	LK-62	7.973531	79.913833	Wennappuwa	PS-620245	7.339623	79.843017	7.041862	81.206524	26R4+PJR, Lunugala, Sri Lanka	154.071493	#CenterFarFromPolice	පුත්තලම	වෙන්නප්පුව	ලුණුගල ප්‍රාථමික විද්‍යාලය	புத்தளம்	வென்னப்புவா	லுனுகலா ஆரம்ப வித்தியாலயம்	26 ආර් 4+පීජේආර්, ලුණුගල, ශ්‍රී ලංකාව	26R4+PJR, லுனுகலா, இலங்கை
Puttalam	Wennappuwa	St. Anne's College	False	False	PTTLMWNNPPWSTNNSCLLG		Puttalam	LK-62	7.973531	79.913833	Wennappuwa	PS-620245	7.339623	79.843017	7.314871	79.861441	8V86+5PV, Puttalam, Sri Lanka	3.422164		පුත්තලම	වෙන්නප්පුව	ශාන්ත ආනා විද්‍යාලය	புத்தளம்	வென்னப்புவா	செயின்ட் அன்னீஸ் கல்லூரி	8V86+5PV, පුත්තලම, ශ්‍රී ලංකාව	8V86+5PV, புத்தளம், இலங்கை
Puttalam	Dankotuwa	BOM - Bujjampola	False	False	PTTLMDNKTWBMBJJMPL		Puttalam	LK-62	7.973531	79.913833	Dankotuwa	PS-620246	7.300337	79.882595	7.320595	79.916598	Dankotuwa-Hettirrippuwa Rd, Sri Lanka	4.376113		පුත්තලම	දන්කොටුව	BOM - බුජ්ජම්පොල	புத்தளம்	டாங்கொட்டுவா	BOM - புஜ்ஜம்பொல	දංකොටුව-හෙට්ටිරිප්පුව පාර, ශ්‍රී ලංකාව	டாங்கொட்டுவா-ஹெத்திரிப்புவா சாலை, இலங்கை
Puttalam	Dankotuwa	Dankotuwa Porcelain PLC	False	False	PTTLMDNKTWDNKTWPRCLNPLC		Puttalam	LK-62	7.973531	79.913833	Dankotuwa	PS-620246	7.300337	79.882595	7.298093	79.89761	Kurunegala Rd, Dankotuwa, Sri Lanka	1.67528		පුත්තලම	දන්කොටුව	දංකොටුව පෝසිලේන් පීඑල්සී	புத்தளம்	டாங்கொட்டுவா	டாங்கொட்டுவா பீங்கான் பிஎல்சி	කුරුණෑගල පාර, දන්කොටුව, ශ්‍රී ලංකාව	குருநாகல் சாலை, தங்கொட்டுவா, இலங்கை
Puttalam	Marawila	Thummodara Muslim Vidyalaya	False	False	PTTLMMRWLTHMMDRMSLMVDYLY		Puttalam	LK-62	7.973531	79.913833	Marawila	PS-620243	7.415075	79.839776	7.391416	79.858623	9VR5+HC9, Marawila, Sri Lanka	3.353717		පුත්තලම	මාරවිල	තුම්මෝදර මුස්ලිම් විද්යාලය	புத்தளம்	மாரவில	தும்மோதரா முஸ்லிம் வித்தியாலயம்	9VR5+HC9, මාරවිල, ශ්‍රී ලංකාව	9VR5+HC9, மாரவில, இலங்கை
Puttalam	Pallama	Adigama Vidyalaya	False	False	PTTLMPLLMDGMVDYLY		Puttalam	LK-62	7.973531	79.913833	Pallama	PS-620132	7.691904	79.922555	7.779019	79.948628	B45, Andigama, Sri Lanka	10.106936		පුත්තලම	පල්ලම	අඩිගම විද්‍යාලය	புத்தளம்	பல்லாமா	அடிகம வித்யாலயா	බී 45, අන්ඩිගම, ශ්‍රී ලංකාව	பி 45, ஆண்டிகாமா, இலங்கை
Puttalam	Pallama	Medawakkulama Vidyalaya	False	False	PTTLMPLLMMDWKKLMVDYLY		Puttalam	LK-62	7.973531	79.913833	Pallama	PS-620132	7.691904	79.922555	7.684519	79.918904	Puttalam, Pallama, Sri Lanka	0.914722		පුත්තලම	පල්ලම	මැදවක්කුලම විද්‍යාලය	புத்தளம்	பல்லாமா	மேடவாக்குலமா வித்தியாலயம்	පුත්තලම, පල්ලම, ශ්‍රී ලංකාව	புத்தளம், பல்லாமா, இலங்கை
Puttalam	Anamaduwa	MOH Office - Anamaduwa	False	False	PTTLMNMDWMHFFCNMDW		Puttalam	LK-62	7.973531	79.913833	Anamaduwa	PS-620131	7.874852	80.01316	7.889992	80.010421	V2Q6+X5V, Anamaduwa, Sri Lanka	1.710846		පුත්තලම	ආණමඩුව	MOH කාර්යාලය - ආණමඩුව	புத்தளம்	ஆனமடுவா	MOH அலுவலகம் - ஆனமடுவா	V2Q6+X5V, ආණමඩුව, ශ්‍රී ලංකාව	V2Q6+X5V, ஆனமடுவா, இலங்கை
Puttalam	Anamaduwa	Kannangara Vidyalaya	False	False	PTTLMNMDWKNNNGRVDYLY		Puttalam	LK-62	7.973531	79.913833	Anamaduwa	PS-620131	7.874852	80.01316	7.873454	80.015251	V2F8+94J, Anamaduwa, Sri Lanka	0.277955		පුත්තලම	ආණමඩුව	කන්නන්ගර විද්‍යාලය	புத்தளம்	ஆனமடுவா	கன்னங்கரா வித்யாலயா	V2F8+94J, ආණමඩුව, ශ්‍රී ලංකාව	V2F8+94J, ஆனமடுவா, இலங்கை
Puttalam	Karuwalagaswewa	Karuwalagaswewa – Kubukwewa	False	False	PTTLMKRWLGSWWKRWLGSWWKBKWW		Puttalam	LK-62	7.973531	79.913833	Karuwalagaswewa	PS-620135	8.055066	79.955817	8.057613	79.961308	Karuwalagaswewa, Sri Lanka	0.667806		පුත්තලම	කරුවලගස්වැව	කරුවලගස්වැව - කුබුක්වැව	புத்தளம்	கருவலகஸ்வெவ	கருவலகஸ்வெவ - குபுக்வெவ	කරුවලගස්වැව, ශ්‍රී ලංකාව	கருவலகஸ்வெவ, இலங்கை
Puttalam	Karuwalagaswewa	Aluthgama Dutugemunu Vidyalaya	False	False	PTTLMKRWLGSWWLTHGMDTGMNVDYLY		Puttalam	LK-62	7.973531	79.913833	Karuwalagaswewa	PS-620135	8.055066	79.955817	8.126194	80.047904	Aluthgama, Sri Lanka	12.861958		පුත්තලම	කරුවලගස්වැව	අලුත්ගම දුටුගැමුණු විද්‍යාලය	புத்தளம்	கருவலகஸ்வெவ	அளுத்கம துதுகேமுனு வித்தியாலயம்	අලුත්ගම, ශ්‍රී ලංකාව	அளுத்கம, இலங்கை
Nuwara Eliya	Kotmale	MOH Office - Kotmale	False	False	NWRLYKTMLMHFFCKTML		Nuwara Eliya	LK-23	6.97423	80.711222	Kotmale	PS-230134	7.063602	80.685054	7.062013	80.685533	3M6P+R63, Kothmale New Town, Sri Lanka	0.184484		නුවරඑලිය	කොත්මලේ	MOH කාර්යාලය - කොත්මලේ	நுவரெலியா	கொத்மலை	MOH அலுவலகம் - கொத்மலை	3 එම් 6 පී+ආර් 63, කොත්මලේ නව නගරය, ශ්‍රී ලංකාව	3M6P+R63, கொத்தமலை புதிய நகரம், இலங்கை
Nuwara Eliya	Ragala	TBM Herath Maha Vidyalaya	False	False	NWRLYRGLTBMHRTHMHVDYLY		Nuwara Eliya	LK-23	6.97423	80.711222	Ragala	PS-230142	7.012347	80.858498	7.008783	80.855595	Ragala, Sri Lanka	0.509698		නුවරඑලිය	රාගල	ටීබීඑම් හේරත් මහා විද්‍යාලය	நுவரெலியா	ராகலா	டிபிஎம் ஹேரத் மகா வித்தியாலயம்	රාගල, ශ්‍රී ලංකාව	ராகலா, இலங்கை
Nuwara Eliya	Lindula	Meraya Tamil College	False	False	NWRLYLNDLMRYTMLCLLG		Nuwara Eliya	LK-23	6.97423	80.711222	Lindula	PS-230138	6.927027	80.686744	6.908287	80.680199	WM5J+838, Nagasena Watagoda, Sri Lanka	2.206176		නුවරඑලිය	ලිඳුල	මේරායා දෙමළ විද්‍යාලය	நுவரெலியா	லிந்துலா	மெராயா தமிழ் கல்லூரி	ඩබ්ලිව්එම් 5 ජේ+838, නාගසේන වටගොඩ, ශ්‍රී ලංකාව	WM5J+838, நாகசேனா வடகொட, இலங்கை
Nuwara Eliya	Lindula	Lipa Kele Tami College	False	False	NWRLYLNDLLPKLTMCLLG		Nuwara Eliya	LK-23	6.97423	80.711222	Lindula	PS-230138	6.927027	80.686744	6.908287	80.680199	WM5J+838, Nagasena Watagoda, Sri Lanka	2.206176		නුවරඑලිය	ලිඳුල	ලිපා කෙලේ තමී විද්‍යාලය	நுவரெலியா	லிந்துலா	லிபா கெலே தமிழ் கல்லூரி	ඩබ්ලිව්එම් 5 ජේ+838, නාගසේන වටගොඩ, ශ්‍රී ලංකාව	WM5J+838, நாகசேனா வடகொட, இலங்கை
Nuwara Eliya	Lindula	Thangakelle Tamil College	False	False	NWRLYLNDLTHNGKLLTMLCLLG		Nuwara Eliya	LK-23	6.97423	80.711222	Lindula	PS-230138	6.927027	80.686744	6.908287	80.680199	WM5J+838, Nagasena Watagoda, Sri Lanka	2.206176		නුවරඑලිය	ලිඳුල	තංගකැලේ දෙමළ විද්‍යාලය	நுவரெலியா	லிந்துலா	தங்ககெல்லே தமிழ் கல்லூரி	ඩබ්ලිව්එම් 5 ජේ+838, නාගසේන වටගොඩ, ශ්‍රී ලංකාව	WM5J+838, நாகசேனா வடகொட, இலங்கை
Nuwara Eliya	Nuwara Eliya	Kudaoya Vidyalaya	False	False	NWRLYNWRLYKDYVDYLY		Nuwara Eliya	LK-23	6.97423	80.711222	Nuwaraeliya	PS-230131	6.974148	80.767627	6.96	80.770172	Gamini College, PBC Hwy, Nuwara Eliya 22200, Sri Lanka	1.598569		නුවරඑලිය	නුවරඑලිය	කුඩාඔය විද්‍යාලය	நுவரெலியா	நுவரெலியா	குடோயா வித்யாலயா	ගාමිණී විද්‍යාලය, පීබීසී හ්වි, නුවරඑළිය 22200, ශ්‍රී ලංකාව	காமினி கல்லூரி, PBC Hwy, நுவரெலியா 22200, இலங்கை
Nuwara Eliya	Hanguranketha	Diyathilaka Vidyalaya	False	False	NWRLYHNGRNKTHDYTHLKVDYLY		Nuwara Eliya	LK-23	6.97423	80.711222	Hanguranketha	PS-210108	7.176511	80.777388	7.140571	80.774587	Poramadulla central college, Poramadulla - Palle Bowala Rd, Rikillagaskada, Sri Lanka	4.009534		නුවරඑලිය	හඟුරන්කෙත	දියතිලක විද්‍යාලය	நுவரெலியா	ஹங்குரன்கெதா	தியதிலக வித்யாலயா	පොරමඩුල්ල මධ්‍ය මහා විද්‍යාලය, පොරමඩුල්ල - පල්ලේ බෝවල පාර, රිකිල්ලගස්කඩ, ශ්‍රී ලංකාව	பொரமடுல்லா மத்திய கல்லூரி, பொரமடுல்லா - பல்லே போவல சாலை, ரிகிலகஸ்கட, இலங்கை
Nuwara Eliya	Hanguranketha	MOH Office – Rikillagaskada	False	False	NWRLYHNGRNKTHMHFFCRKLLGSKD		Nuwara Eliya	LK-23	6.97423	80.711222	Hanguranketha	PS-210108	7.176511	80.777388	7.144287	80.781529	4QVJ+PJ6, Rikillagaskada, Sri Lanka	3.613288		නුවරඑලිය	හඟුරන්කෙත	MOH කාර්යාලය - රිකිල්ලගස්කඩ	நுவரெலியா	ஹங்குரன்கெதா	MOH அலுவலகம் - ரிகிலகஸ்கடா	4QVJ+PJ6, රිකිල්ලගස්කඩ, ශ්‍රී ලංකාව	4QVJ+PJ6, ரிக்கிலகஸ்கட, இலங்கை
Nuwara Eliya	Rattota	Divisional Medical Centre - Kande Nuwara	False	False	NWRLYRTTTDVSNLMDCLCNTRKNDNWR		Nuwara Eliya	LK-23	6.97423	80.711222	Rattota	PS-220122	7.520684	80.678809	6.97225	80.780644	B332, Nuwara Eliya 22200, Sri Lanka	62.028475	#CenterFarFromPolice	නුවරඑලිය	රත්තොට	ප්‍රාදේශීය වෛද්‍ය මධ්‍යස්ථානය - කන්දේ නුවර	நுவரெலியா	ரத்தோட்டா	பிரிவு மருத்துவ மையம் - கண்டே நுவரா	බී 322, නුවරඑළිය 22200, ශ්‍රී ලංකාව	B332, நுவரெலியா 22200, இலங்கை
Nuwara Eliya	Rattota	Divisional Medical Centre - Bandarapola	False	False	NWRLYRTTTDVSNLMDCLCNTRBNDRPL		Nuwara Eliya	LK-23	6.97423	80.711222	Rattota	PS-220122	7.520684	80.678809	6.97225	80.780644	B332, Nuwara Eliya 22200, Sri Lanka	62.028475	#CenterFarFromPolice	නුවරඑලිය	රත්තොට	ප්‍රාදේශීය වෛද්‍ය මධ්‍යස්ථානය - බණ්ඩාරපොළ	நுவரெலியா	ரத்தோட்டா	பிரதேச மருத்துவ மையம் - பண்டாரபொல	බී 322, නුවරඑළිය 22200, ශ්‍රී ලංකාව	B332, நுவரெலியா 22200, இலங்கை
Nuwara Eliya	Rattota	Divisional Hospital – Rattota	False	False	NWRLYRTTTDVSNLHSPTLRTTT		Nuwara Eliya	LK-23	6.97423	80.711222	Rattota	PS-220122	7.520684	80.678809	7.518413	80.676557	GM9G+9J7, Rattota, Sri Lanka	0.35423		නුවරඑලිය	රත්තොට	ප්‍රාදේශීය රෝහල - රත්තොට	நுவரெலியா	ரத்தோட்டா	பிரதேச மருத்துவமனை - ரத்தோட்டை	GM9G+9J7, රත්තොට, ශ්‍රී ලංකාව	GM9G+9J7, ரத்தோட்டா, இலங்கை
Badulla	Passara	Passara National College	False	False	BDLLPSSRPSSRNTNLCLLG		Badulla	LK-81	7.074529	81.04486	Passara	PS-810102	6.934481	81.154796	6.940355	81.167392	Peradeniya-Badulla-Chenkaladi Hwy, Passara, Sri Lanka	1.536617		බදුල්ල	පස්සර	පස්සර ජාතික විද්‍යාලය	பதுளை	பசர	பசாரா தேசிய கல்லூரி	පේරාදෙණිය-බදුල්ල-චෙන්කලාඩි හ්වි, පස්සර, ශ්‍රී ලංකාව	பேராதனை-பதுளை-செங்கலடி ஹ்வி, பசர, இலங்கை
Badulla	Passara	Bibilegama Hospital	False	False	BDLLPSSRBBLGMHSPTL		Badulla	LK-81	7.074529	81.04486	Passara	PS-810102	6.934481	81.154796	6.895098	81.14174	Bibilegama Rd, Passara, Sri Lanka	4.611693		බදුල්ල	පස්සර	බිබිලේගම රෝහල	பதுளை	பசர	பிபிலேகம மருத்துவமனை	බිබිලේගම පාර, පස්සර, ශ්‍රී ලංකාව	பிபிலேகம வீதி, பசர, இலங்கை
Badulla	Passara	Ury Hospital	False	False	BDLLPSSRRYHSPTL		Badulla	LK-81	7.074529	81.04486	Passara	PS-810102	6.934481	81.154796	6.94256	81.126231	W4VG+2FH, Pelgahatenna, Sri Lanka	3.279529		බදුල්ල	පස්සර	යූරි රෝහල	பதுளை	பசர	யூரி மருத்துவமனை	ඩබ්ලිව් 4 වීජී+2 එෆ්එච්, පැල්ගහතැන්න, ශ්‍රී ලංකාව	W4VG+2FH, பெல்கஹதென்ன, இலங்கை
Badulla	Passara	Meedumpitiya Hospital	False	False	BDLLPSSRMDMPTYHSPTL		Badulla	LK-81	7.074529	81.04486	Passara	PS-810102	6.934481	81.154796	6.945576	81.190338	Peradeniya-Badulla-Chenkaladi Hwy, Sri Lanka	4.113834		බදුල්ල	පස්සර	මීදුම්පිටිය රෝහල	பதுளை	பசர	மீடும்பிட்டிய மருத்துவமனை	පේරාදෙණිය-බදුල්ල-චෙන්කලාඩි හ්වි, ශ්‍රී ලංකාව	பேராதனை-பதுளை-செங்கலடி ஹ்வி, இலங்கை
Badulla	Passara	Kanawerella Hospital	False	False	BDLLPSSRKNWRLLHSPTL		Badulla	LK-81	7.074529	81.04486	Passara	PS-810102	6.934481	81.154796	6.933517	81.152592	Demodera - Spring Valley - Badulla Road, Passara, Sri Lanka	0.265888		බදුල්ල	පස්සර	කනවැරැල්ල රෝහල	பதுளை	பசர	கானவெரெல்லா மருத்துவமனை	දෙමෝදර - වසන්ත නිම්නය - බදුල්ල පාර, පස්සර, ශ්‍රී ලංකාව	டெமோடெரா - வசந்த பள்ளத்தாக்கு - பதுல்லா சாலை, பசாரா, இலங்கை
Badulla	Kahataruppa	Kahataruppa Hospital	False	False	BDLLKHTRPPKHTRPPHSPTL		Badulla	LK-81	7.074529	81.04486									#PoliceLocationUnknown	බදුල්ල	කහටරුප්ප	කහටරුප්ප රෝහල	பதுளை	கஹடருப்பா	கஹடருப்பா மருத்துவமனை		
Badulla	Badulla	Base Hospital - Badulla	False	False	BDLLBDLLBSHSPTLBDLL		Badulla	LK-81	7.074529	81.04486	Badulla	PS-810101	6.991337	81.055246	6.991808	81.05235	Daya Gunasekara Mawatha, Badulla, Sri Lanka	0.32399		බදුල්ල	බදුල්ල	මූලික රෝහල - බදුල්ල	பதுளை	பதுளை	அடிப்படை மருத்துவமனை - பதுளை	දයා ගුණසේකර මාවත, බදුල්ල, ශ්‍රී ලංකාව	தயா குணசேகர மாவத்தை, பதுளை, இலங்கை
Badulla	Haliela	Neluwa Tamil Vidyalaya	False	False	BDLLHLLNLWTMLVDYLY		Badulla	LK-81	7.074529	81.04486	Haliela	PS-810108	6.958216	81.034447	6.951162	81.03182	Bandarawela - Badulla Rd, Hali-ela, Sri Lanka	0.836511		බදුල්ල	හාලිලා	නෙළුව දෙමළ විද්‍යාලය	பதுளை	ஹாலீலா	நெலுவ தமிழ் வித்தியாலயம்	බණ්ඩාරවෙල - බදුල්ල පාර, හාලි ඇල, ශ්‍රී ලංකාව	பண்டாரவளை - பதுல்லா சாலை, ஹாலி -எல, இலங்கை
Badulla	Haliela	Mahaththegama Kovil	False	False	BDLLHLLMHTHTHGMKVL		Badulla	LK-81	7.074529	81.04486	Haliela	PS-810108	6.958216	81.034447	6.954858	81.040098	X23R+W2X, Hali-ela, Sri Lanka	0.727187		බදුල්ල	හාලිලා	මහත්තේගම කෝවිල	பதுளை	ஹாலீலா	மஹதேகம கோவில்	X23R+W2X, හාලි ඇල, ශ්‍රී ලංකාව	X23R+W2X, ஹாலி-எல, இலங்கை
Badulla	Haliela	Kandegolla Community Hall	False	False	BDLLHLLKNDGLLCMMNTYHLL		Badulla	LK-81	7.074529	81.04486	Haliela	PS-810108	6.958216	81.034447	6.956535	81.035933	No-36 ,Ekanayaka Mw, Egodagama Rd, Hali-ela 90060, Sri Lanka	0.248756		බදුල්ල	හාලිලා	කන්දේගොල්ල ප්‍රජා ශාලාව	பதுளை	ஹாலீலா	கண்டேகொல்லா சமுதாயக் கூடம்	අංක 36, ඒකනායක මාවත, එගොඩගම පාර, හාලි ඇල 90060, ශ්‍රී ලංකාව	எண் 36
Badulla	Haliela	Kirinda Viharaya	False	False	BDLLHLLKRNDVHRY		Badulla	LK-81	7.074529	81.04486	Haliela	PS-810108	6.958216	81.034447	6.984218	81.061356	Muthiyangana Temple, Station Rd, Badulla, Sri Lanka	4.14625		බදුල්ල	හාලිලා	කිරින්ද විහාරය	பதுளை	ஹாலீலா	கிரிந்தா விஹாராயா	මුතියංගන පන්සල, දුම්රිය ස්ථානය පාර, බදුල්ල, ශ්‍රී ලංකාව	முத்தியங்கனா கோவில், நிலையம் சாலை, பதுளை, இலங்கை
Badulla	Haldummulla	Kirawanagama Vidyalaya	False	False	BDLLHLDMMLLKRWNGMVDYLY		Badulla	LK-81	7.074529	81.04486	Haldummulla		6.762216	80.885856	6.968079	80.911923	XW96+6QM, Badulla, Sri Lanka	23.078328	#CenterFarFromPolice	බදුල්ල	හල්දුම්මුල්ල	කිරවනාගම විද්‍යාලය	பதுளை	ஹல்தும்முல்லா	கிரவனகம வித்தியாலயம்	XW96+6QM, බදුල්ල, ශ්‍රී ලංකාව	XW96+6QM, பதுளை, இலங்கை
Badulla	Haldummulla	Gampaha Vidyalaya	False	False	BDLLHLDMMLLGMPHVDYLY		Badulla	LK-81	7.074529	81.04486	Haldummulla		6.762216	80.885856	6.761391	80.886057	QV6P+HC3, Badulla, Sri Lanka	0.094412		බදුල්ල	හල්දුම්මුල්ල	ගම්පහ විද්‍යාලය	பதுளை	ஹல்தும்முல்லா	கம்பஹா வித்யாலயா	QV6P+HC3, බදුල්ල, ශ්‍රී ලංකාව	QV6P+HC3, பதுளை, இலங்கை
Badulla	Haldummulla	District Hospital Koslanada	False	False	BDLLHLDMMLLDSTRCTHSPTLKSLND		Badulla	LK-81	7.074529	81.04486	Haldummulla		6.762216	80.885856	6.772723	80.956317	Haputale -Bandarawela, Diyatalawa, Sri Lanka	7.870127		බදුල්ල	හල්දුම්මුල්ල	කොස්ලනාද දිස්ත්‍රික් රෝහල	பதுளை	ஹல்தும்முல்லா	கோஸ்லானடா மாவட்ட மருத்துவமனை	හපුතලේ -බණ්ඩාරවෙල, දියතලාව, ශ්‍රී ලංකාව	ஹப்புதலே -பண்டாரவளை, தியத்தலாவ, இலங்கை
Badulla	Welimada	Diyamuthugama Viharaya	False	False	BDLLWLMDDYMTHGMVHRY		Badulla	LK-81	7.074529	81.04486	Welimada	PS-810212	6.900481	80.905809	6.953504	80.858534	Sri wijayarama maha viharaya uva paranagama Uduhawara, Welimada 90226, Sri Lanka	7.876027		බදුල්ල	වැලිමඞ	දියමුතුගම විහාරය	பதுளை	வெலிமடா	தியமுத்துகம விஹாராயா	ශ්‍රී විජයාරාම මහා විහාරය paව පරණගම උඩුහාරව, වැලිමඩ 90226, ශ්‍රී ලංකාව	ஸ்ரீ விஜயராம மஹா விஹாராய உவா பரணகம உடஹவாரா, வெலிமடா 90226, இலங்கை
Badulla	Welimada	Hinnarangolla Vidyalaya	False	False	BDLLWLMDHNNRNGLLVDYLY		Badulla	LK-81	7.074529	81.04486	Welimada	PS-810212	6.900481	80.905809	6.900188	80.906947	Peradeniya-Badulla-Chenkaladi Hwy, Welimada, Sri Lanka	0.12982		බදුල්ල	වැලිමඞ	හින්නරංගොල්ල විද්‍යාලය	பதுளை	வெலிமடா	ஹின்னரங்கொல்லா வித்யாலயா	පේරාදෙණිය-බදුල්ල-චෙන්කලාඩි හ්වි, වැලිමඩ, ශ්‍රී ලංකාව	பேராதனை-பதுளை-செங்கலடி ஹ்வி, வெலிமடா, இலங்கை
Badulla	Welimada	Rathkarawwa Viharaya	False	False	BDLLWLMDRTHKRWWVHRY		Badulla	LK-81	7.074529	81.04486	Welimada	PS-810212	6.900481	80.905809	6.806914	80.905564	Rathkarawwa, Sri Lanka	10.407477		බදුල්ල	වැලිමඞ	රත්කරව්ව විහාරය	பதுளை	வெலிமடா	ரத்கரவ்வ விஹாராயா	රත්කරව්ව, ශ්‍රී ලංකාව	ரத்கரவ்வா, இலங்கை
Badulla	Welimada	Dambawinna Viharaya	False	False	BDLLWLMDDMBWNNVHRY		Badulla	LK-81	7.074529	81.04486	Welimada	PS-810212	6.900481	80.905809	6.893891	80.921983	Dambawinna Purana Raja Maha Viharaya, Dambawinna, Welimada, Bandarawela - Welimada Rd, Dambawinna 90200, Sri Lanka	1.930579		බදුල්ල	වැලිමඞ	දඹවින්න විහාරය	பதுளை	வெலிமடா	டம்பவின்னா விஹாராயா	දඹවින්න පුරාණ රජ මහා විහාරය, දඹවින්න, වැලිමඩ, බණ්ඩාරවෙල - වැලිමඩ පාර, දඹවින්න 90200, ශ්‍රී ලංකාව	தம்பவின்ன புராண ராஜ மகா விகாரை, தம்பாவிண்ணா, வெலிமடை, பண்டாரவளை - வெலிமட வீதி, தம்பவின்னா 90200, இலங்கை
Badulla	Welimada	Hewanakumbura Viharaya	False	False	BDLLWLMDHWNKMBRVHRY		Badulla	LK-81	7.074529	81.04486	Welimada	PS-810212	6.900481	80.905809	6.953504	80.858534	Sri wijayarama maha viharaya uva paranagama Uduhawara, Welimada 90226, Sri Lanka	7.876027		බදුල්ල	වැලිමඞ	හෙවනකුඹුර විහාරය	பதுளை	வெலிமடா	ஹேவனகும்புற விஹாராயா	ශ්‍රී විජයාරාම මහා විහාරය paව පරණගම උඩුහාරව, වැලිමඩ 90226, ශ්‍රී ලංකාව	ஸ்ரீ விஜயராம மஹா விஹாராய உவா பரணகம உடஹவாரா, வெலிமடா 90226, இலங்கை
Badulla	Welimada	Nawela Viharaya	False	False	BDLLWLMDNWLVHRY		Badulla	LK-81	7.074529	81.04486	Welimada	PS-810212	6.900481	80.905809	6.953504	80.858534	Sri wijayarama maha viharaya uva paranagama Uduhawara, Welimada 90226, Sri Lanka	7.876027		බදුල්ල	වැලිමඞ	නාවල විහාරය	பதுளை	வெலிமடா	நாவேல விஹாராயா	ශ්‍රී විජයාරාම මහා විහාරය paව පරණගම උඩුහාරව, වැලිමඩ 90226, ශ්‍රී ලංකාව	ஸ்ரீ விஜயராம மஹா விஹாராய உவா பரணகம உடஹவாரா, வெலிமடா 90226, இலங்கை
Badulla	Welimada	Bogahkumbura Hospital	False	False	BDLLWLMDBGHKMBRHSPTL		Badulla	LK-81	7.074529	81.04486	Welimada	PS-810212	6.900481	80.905809	6.862306	80.875527	B48, Sri Lanka	5.404861		බදුල්ල	වැලිමඞ	බෝගකුඹුර රෝහල	பதுளை	வெலிமடா	போகஹ்கும்புரா மருத்துவமனை	බී 48, ශ්‍රී ලංකාව	பி 48, இலங்கை
Badulla	Haputale	Panketiya Hospital	False	False	BDLLHPTLPNKTYHSPTL		Badulla	LK-81	7.074529	81.04486	Haputale	PS-810215	6.767653	80.957218	6.782692	80.96483	Beragala-Hali Ela Highway, Sri Lanka	1.872192		බදුල්ල	හපුතලේ	පන්කැටිය රෝහල	பதுளை	ஹப்புதலே	பங்கெட்டிய மருத்துவமனை	බෙරගල-හාලි ඇල අධිවේගී මාර්ගය, ශ්‍රී ලංකාව	பெரகலா-ஹாலி எல நெடுஞ்சாலை, இலங்கை
Badulla	Haputale	Bingethenna Community Hall	False	False	BDLLHPTLBNGTHNNCMMNTYHLL		Badulla	LK-81	7.074529	81.04486	Haputale	PS-810215	6.767653	80.957218	6.772444	80.930934	Adisham Bungalow, Adisham Rd, Haputale 90160, Sri Lanka	2.951684		බදුල්ල	හපුතලේ	බිංගෙතැන්න ප්‍රජා ශාලාව	பதுளை	ஹப்புதலே	பிங்கேதென்னா சமுதாயக் கூடம்	අඩිෂාම් බංගලාව, අඩිෂාම් පාර, හපුතලේ 90160, ශ්‍රී ලංකාව	ஆதிஷாம் பங்களா, ஆதிஷாம் சாலை, ஹப்புடலே 90160, இலங்கை
Badulla	Haputale	Pitarathmale Vidyalaya	False	False	BDLLHPTLPTRTHMLVDYLY		Badulla	LK-81	7.074529	81.04486	Haputale	PS-810215	6.767653	80.957218	6.78509	80.996105	QXPW+2CQ, Bandarawela, Sri Lanka	4.712778		බදුල්ල	හපුතලේ	පිටරත්මලේ විද්‍යාලය	பதுளை	ஹப்புதலே	பிதரத்மலே வித்யாலயா	QXPW+2CQ, බණ්ඩාරවෙල, ශ්‍රී ලංකාව	QXPW+2CQ, பண்டாரவளை, இலங்கை
Badulla	Haputale	Diyatalawa Cultural Centre	False	False	BDLLHPTLDYTLWCLTRLCNTR		Badulla	LK-81	7.074529	81.04486	Haputale	PS-810215	6.767653	80.957218	6.807134	80.956348	Fair Rd, Diyatalawa, Sri Lanka	4.392516		බදුල්ල	හපුතලේ	දියතලාව සංස්කෘතික මධ්‍යස්ථානය	பதுளை	ஹப்புதலே	தியத்தலாவ கலாச்சார மையம்	සාධාරණ පාර, දියතලාව, ශ්‍රී ලංකාව	ஃபேர் ஆர்ட், தியத்தலாவா, இலங்கை
Badulla	Haputale	Dodanwatta Viayalaya	False	False	BDLLHPTLDDNWTTVYLY		Badulla	LK-81	7.074529	81.04486	Haputale	PS-810215	6.767653	80.957218	7.28447	80.550963	Dodanwala Natha Dewale Rd, Dodamwala, Sri Lanka	72.910484	#CenterFarFromPolice	බදුල්ල	හපුතලේ	දොඩන්වත්ත වියාලය	பதுளை	ஹப்புதலே	தோடன்வத்த வயலயா	දොඩන්වල නාථ දේවාලේ පාර, දොඩම්වල, ශ්‍රී ලංකාව	டோடான்வாலா நாதா தேவாலே சாலை, தோடம்வாலா, இலங்கை
Badulla	Ella	Pupula Vidyalaya	False	False	BDLLLLPPLVDYLY		Badulla	LK-81	7.074529	81.04486	Ella	PS-810211	6.876609	81.048276	7.152473	81.106571	5424+XJP, Badulla, Sri Lanka	31.351933	#CenterFarFromPolice	බදුල්ල	ඇලා	පුපුල විද්‍යාලය	பதுளை	எல்ல	புபுலா வித்யாலயா	5424+XJP, බදුල්ල, ශ්‍රී ලංකාව	5424+XJP, பதுளை, இலங்கை
Badulla	Ella	Piyarapandowa Vidyalaya	False	False	BDLLLLPYRPNDWVDYLY		Badulla	LK-81	7.074529	81.04486	Ella	PS-810211	6.876609	81.048276	6.873531	81.052607	Passara Rd, Bandarawela, Sri Lanka	0.588183		බදුල්ල	ඇලා	පියරපන්දෝව විද්‍යාලය	பதுளை	எல்ல	பியரபாண்டோவ வித்யாலயா	පස්සර පාර, බණ්ඩාරවෙල, ශ්‍රී ලංකාව	பசர வீதி, பண்டாரவளை, இலங்கை
Badulla	Ella	Halpe Vidyalaya	False	False	BDLLLLHLPVDYLY		Badulla	LK-81	7.074529	81.04486	Ella	PS-810211	6.876609	81.048276	6.888923	81.045671	Helahalpe, Bandarawela - Badulla Rd, Bandarawela, Sri Lanka	1.399566		බදුල්ල	ඇලා	හල්පේ විද්‍යාලය	பதுளை	எல்ல	ஹல்பே வித்யாலயா	හෙළහාල්පේ, බණ්ඩාරවෙල - බදුල්ල පාර, බණ්ඩාරවෙල, ශ්‍රී ලංකාව	ஹெலஹல்பே, பண்டாரவளை - பதுல்லா வீதி, பண்டாரவளை, இலங்கை
Badulla	Bandarawela	MOH Office - Bandarawela	False	False	BDLLBNDRWLMHFFCBNDRWL		Badulla	LK-81	7.074529	81.04486	Bandarawela	PS-810210	6.831526	80.986784	6.841272	80.98482	Hospital Junction Helamuduna Bus Stop, Etampitiya Rd, Bandarawela, Sri Lanka	1.105533		බදුල්ල	බණ්ඩාරවෙල	MOH කාර්යාලය - බණ්ඩාරවෙල	பதுளை	பண்டாரவளை	MOH அலுவலகம் - பண்டாரவளை	රෝහල් හන්දිය හෙළමුදුන බස් නැවතුම, ඇටම්පිටිය පාර, බණ්ඩාරවෙල, ශ්‍රී ලංකාව	மருத்துவமனை சந்திப்பு ஹெலமுதுனா பேருந்து நிறுத்தம், இடம்பிட்டிய சாலை, பண்டாரவளை, இலங்கை
Badulla	Bandarawela	Municipal Council - Bandarawela	False	False	BDLLBNDRWLMNCPLCNCLBNDRWL		Badulla	LK-81	7.074529	81.04486	Bandarawela	PS-810210	6.831526	80.986784	6.832052	80.987194	Esplanade Road Beragala-Hali Ela Highway, Bandarawela 90100, Sri Lanka	0.073982		බදුල්ල	බණ්ඩාරවෙල	නගර සභාව - බණ්ඩාරවෙල	பதுளை	பண்டாரவளை	மாநகர சபை - பண்டாரவளை	එස්ප්ලනාඩ් පාර බෙරගල-හාලි ඇල අධිවේගී මාර්ගය, බණ්ඩාරවෙල 90100, ශ්‍රී ලංකාව	எஸ்ப்ளனேட் சாலை பெரகலா-ஹாலி எல நெடுஞ்சாலை, பண்டாரவளை 90100, இலங்கை
Badulla	Uva Paranagama	Kendagolla Vidyalaya	False	False	BDLLVPRNGMKNDGLLVDYLY		Badulla	LK-81	7.074529	81.04486	Uvaparanagama	PS-810213	6.958341	80.930364	6.992757	81.108477	Kendagolla, Sri Lanka	20.033971	#CenterFarFromPolice	බදුල්ල	Vaව පරණගම	කණ්ඩගොල්ල විද්‍යාලය	பதுளை	ஊவ பரணகம	கெண்டகொல்லா வித்யாலயா	කෙන්දගොල්ල, ශ්‍රී ලංකාව	கெண்டகொல்லா, இலங்கை
Badulla	Uva Paranagama	Maspanna Viharaya	False	False	BDLLVPRNGMMSPNNVHRY		Badulla	LK-81	7.074529	81.04486	Uvaparanagama	PS-810213	6.958341	80.930364	6.953504	80.858534	Sri wijayarama maha viharaya uva paranagama Uduhawara, Welimada 90226, Sri Lanka	7.94906		බදුල්ල	Vaව පරණගම	මස්පන්න විහාරය	பதுளை	ஊவ பரணகம	மஸ்பண்ணா விஹாராயா	ශ්‍රී විජයාරාම මහා විහාරය paව පරණගම උඩුහාරව, වැලිමඩ 90226, ශ්‍රී ලංකාව	ஸ்ரீ விஜயராம மஹா விஹாராய உவா பரணகம உடஹவாரா, வெலிமடா 90226, இலங்கை
Badulla	Uva Paranagama	Wethalawa Viharaya	False	False	BDLLVPRNGMWTHLWVHRY		Badulla	LK-81	7.074529	81.04486	Uvaparanagama	PS-810213	6.958341	80.930364	6.953504	80.858534	Sri wijayarama maha viharaya uva paranagama Uduhawara, Welimada 90226, Sri Lanka	7.94906		බදුල්ල	Vaව පරණගම	වෙතලාව විහාරය	பதுளை	ஊவ பரணகம	வெத்தலாவ விஹாராயா	ශ්‍රී විජයාරාම මහා විහාරය paව පරණගම උඩුහාරව, වැලිමඩ 90226, ශ්‍රී ලංකාව	ஸ்ரீ விஜயராம மஹா விஹாராய உவா பரணகம உடஹவாரா, வெலிமடா 90226, இலங்கை
Badulla	Siyambalanduwa	Buddama Maha Vidyalaya	False	False	BDLLSYMBLNDWBDDMMHVDYLY		Badulla	LK-81	7.074529	81.04486	Siyambalanduwa	PS-820122	6.906851	81.547598	7.043494	81.485724	Buddama, Sri Lanka	16.663417		බදුල්ල	සියඹලාණ්ඩුව	බුද්ධ මහා විද්‍යාලය	பதுளை	சியம்பலாண்டுவா	புத்தமா மகா வித்தியாலயம்	බුද්ධාගම, ශ්‍රී ලංකාව	புத்தமா, இலங்கை
Monaragala	Ethimale	Ethimale Maha Vidyalaya	False	False	MNRGLTHMLTHMLMHVDYLY		Moneragala	LK-82	6.787517	81.303744	Athimale	PS-820124	6.907289	79.863819	6.811151	81.502033	Ethimale, Sri Lanka	181.229707	#CenterFarFromPolice	මොනරාගල	ඇතිමලේ	ඇතිමලේ මහා විද්‍යාලය	மொனராகலை	எதிமலை	எதிமலை மகா வித்தியாலயம்	ඇතිමලේ, ශ්‍රී ලංකාව	எதிமலை, இலங்கை
Galle	Uragasmanhandiya	Kobbekaduwa Maha Vidyalaya	False	False	GLLRGSMNHNDYKBBKDWMHVDYLY		Galle	LK-31	6.222805	80.251977	Uragasmanhandiya	PS-310236	6.343756	80.080679	6.344654	80.090004	83VR+V26, Uragasmanhandiya, Sri Lanka	1.035694		ගාල්ල	Raරගස්මංහන්දිය	කොබ්බෑකඩුව මහා විද්‍යාලය	காலி	உரகஸ்மன்ஹந்தியா	கொப்பேகடுவ மகா வித்தியாலயம்	83 වීආර්+වී 26, raරගස්මංහන්දිය, ශ්‍රී ලංකාව	83VR+V26, உரகஸ்மன்ஹந்தியா, இலங்கை
Galle	Uragasmanhandiya	Uragaha Maha Vidyalaya	False	False	GLLRGSMNHNDYRGHMHVDYLY		Galle	LK-31	6.222805	80.251977	Uragasmanhandiya	PS-310236	6.343756	80.080679	6.342973	80.101407	84V2+5HM, Uragasmanhandiya, Sri Lanka	2.293115		ගාල්ල	Raරගස්මංහන්දිය	Raරගහ මහා විද්‍යාලය	காலி	உரகஸ்மன்ஹந்தியா	உரகஹா மகா வித்தியாலயம்	84V2+5HM, raරගස්මංහන්දිය, ශ්‍රී ලංකාව	84V2+5HM, உரகஸ்மன்ஹந்தியா, இலங்கை
Galle	Kosgoda	Hegalla Vidyalaya	False	False	GLLKSGDHGLLVDYLY		Galle	LK-31	6.222805	80.251977	Kosgoda	PS-310245	6.335782	80.030182	6.325095	80.033058	A2, Ahungalla, Sri Lanka	1.2305		ගාල්ල	කොස්ගොඩ	හෑගල්ල විද්‍යාලය	காலி	கொஸ்கொட	ஹெகல்லா வித்யாலயா	ඒ 2, අහුන්ගල්ල, ශ්‍රී ලංකාව	ஏ 2, அஹுங்கல்லா, இலங்கை
Galle	Habaraduw	Unawatuna Maha Vidyalaya	False	False	GLLHBRDWNWTNMHVDYLY		Galle	LK-31	6.222805	80.251977	Habaraduwa	PS-310127	5.9871	80.327098	6.020558	80.249382	Maharamba Rd, Unawatuna, Sri Lanka	9.367862		ගාල්ල	හබරාදූව	උණවටුන මහා විද්‍යාලය	காலி	ஹபரதுவ்	உனவடுனா மகா வித்தியாலயம்	මහරම්බ පාර, උණවටුන, ශ්‍රී ලංකාව	மகரம்பா சாலை, உனவடுனா, இலங்கை
Galle	Habaraduw	Hinatigala Shariputhra Maha Vidyalaya	False	False	GLLHBRDWHNTGLSHRPTHRMHVDYLY		Galle	LK-31	6.222805	80.251977	Habaraduwa	PS-310127	5.9871	80.327098	6.016251	80.277486	278G+GX5, Heenatigala, Sri Lanka	6.374375		ගාල්ල	හබරාදූව	හිනාටිගල ශාරීපුත්‍ර මහා විද්‍යාලය	காலி	ஹபரதுவ்	ஹினடிகலா ஷரிபுத்ரா மகா வித்தியாலயம்	278 ජී+ජීඑක්ස් 5, හීනටිගල, ශ්‍රී ලංකාව	278 ஜி+ஜிஎக்ஸ் 5, ஹீனடிகலா, இலங்கை
Galle	Rathgama	Mahahegoda Nigrodharama Viharaya	False	False	GLLRTHGMMHHGDNGRDHRMVHRY		Galle	LK-31	6.222805	80.251977	Ratgama	PS-310121	6.145115	80.099693	6.027007	80.215356	Parawa St, Galle 80000, Sri Lanka	18.336752		ගාල්ල	රත්ගම	මහහේගොඩ නිග්‍රෝධාරාම විහාරය	காலி	ரத்கம	மஹாஹெகொட நிக்ரோதராம விஹாராயா	පරාව ශාන්ත, ගාල්ල 80000, ශ්‍රී ලංකාව	பரவா செயின்ட், காலி 80000, இலங்கை
Galle	Galle	Sanghamitta Balika Vidyalaya	False	False	GLLGLLSNGHMTTBLKVDYLY		Galle	LK-31	6.222805	80.251977	Galle	PS-310120	6.032983	80.21714	6.047235	80.212517	Wakwella Rd, Galle 80000, Sri Lanka	1.665683		ගාල්ල	ගාල්ල	සංඝමිත්තා බාලිකා විද්‍යාලය	காலி	காலி	சங்கமித்த பாலிகா வித்யாலயா	වක්වැල්ල පාර, ගාල්ල 80000, ශ්‍රී ලංකාව	வாக்வெல்லா சாலை, காலி 80000, இலங்கை
Galle	Poddala	Hapugala Viharaya	False	False	GLLPDDLHPGLVHRY		Galle	LK-31	6.222805	80.251977	Poddala	PS-310126	6.121449	80.210629	6.076585	80.195875	Hapugala, Sri Lanka	5.250204		ගාල්ල	පෝද්දල	හපුගල විහාරය	காலி	போடல	ஹபுகல விஹாராயா	හපුගල, ශ්‍රී ලංකාව	ஹபுகலா, இலங்கை
Galle	Akmeemana	Hiyare Maha Vidyalaya	False	False	GLLKMMNHYRMHVDYLY		Galle	LK-31	6.222805	80.251977	Akmeemana	PS-310123	6.073453	80.276627	6.069303	80.297763	Hiyare, Sri Lanka	2.382904		ගාල්ල	අක්මීමන	හියාරේ මහා විද්‍යාලය	காலி	அக்மீமானா	ஹியாரே மகா வித்தியாலயம்	හියාරේ, ශ්‍රී ලංකාව	ஹியாரே, இலங்கை
Galle	Akmeemana	Ketandola Mahindarama Viharaya	False	False	GLLKMMNKTNDLMHNDRMVHRY		Galle	LK-31	6.222805	80.251977	Akmeemana	PS-310123	6.073453	80.276627	6.027007	80.215356	Parawa St, Galle 80000, Sri Lanka	8.52173		ගාල්ල	අක්මීමන	කැටන්දොල මහින්දාරාම විහාරය	காலி	அக்மீமானா	கேடந்தோலா மஹிந்தராம விஹாராயா	පරාව ශාන්ත, ගාල්ල 80000, ශ්‍රී ලංකාව	பரவா செயின்ட், காலி 80000, இலங்கை
Galle	Nagoda	Mapalagama Central College	False	False	GLLNGDMPLGMCNTRLCLLG		Galle	LK-31	6.222805	80.251977	Nagoda	PS-310130	6.197616	80.274707	6.227123	80.29788	67GX+R5R, Paranathanayamgoda, Sri Lanka	4.163864		ගාල්ල	නාගොඩ	මාපලගම මධ්‍ය විද්‍යාලය	காலி	நாகோடா	மாபலகம மத்திய கல்லூரி	67GX+R5R, පරණතනායම්ගොඩ, ශ්‍රී ලංකාව	67GX+R5R, பரனதனயம்கொட, இலங்கை
Galle	Nagoda	Thalagaswala Tamil College	False	False	GLLNGDTHLGSWLTMLCLLG		Galle	LK-31	6.222805	80.251977	Nagoda	PS-310130	6.197616	80.274707	6.193905	80.276953	B454, Nagoda, Sri Lanka	0.481733		ගාල්ල	නාගොඩ	තලගස්වල දෙමළ විද්‍යාලය	காலி	நாகோடா	தலாகஸ்வாலா தமிழ் கல்லூரி	බී 454, නාගොඩ, ශ්‍රී ලංකාව	பி 454, நாகோடா, இலங்கை
Galle	Nagoda	Waduluwita Sanasa Hall	False	False	GLLNGDWDLWTSNSHLL		Galle	LK-31	6.222805	80.251977	Nagoda	PS-310130	6.197616	80.274707	6.227031	80.184735	Miriswaththa Tea Factory, Yakkatuwa-Kahaduwa Road, Dikkubura, Sri Lanka	10.47299		ගාල්ල	නාගොඩ	වඩුළුවිට සණස ශාලාව	காலி	நாகோடா	வடுலுவிட சனச மண்டபம்	මිරිස්වත්ත තේ කර්මාන්ත ශාලාව, යක්කටුව-කහදූව පාර, දික්කුබුර, ශ්‍රී ලංකාව	மிரிஸ்வத்த தேயிலை தொழிற்சாலை, யக்கத்துவ-கஹடுவா சாலை, திக்குபுரா, இலங்கை
Galle	Yakkalamulla	Uduwelwala Primary Scholl	False	False	GLLYKKLMLLDWLWLPRMRYSCHLL		Galle	LK-31	6.222805	80.251977	Yakkalamulla	PS-310125	6.106186	80.348152	6.108656	80.354664	4953+FV7, Yakkalamulla, Sri Lanka	0.77084		ගාල්ල	යක්කලමුල්ල	උඩුවැවලවල ප්‍රාථමික විද්‍යාලය	காலி	யக்கலாமுல்லா	உடுவெல்வாலா முதன்மை பள்ளி	4953+FV7, යක්කලමුල්ල, ශ්‍රී ලංකාව	4953+FV7, யக்கலமுல்லா, இலங்கை
Galle	Pitigala	Maligathenna Purana Viharaya - Haththaka	False	False	GLLPTGLMLGTHNNPRNVHRYHTHTHK		Galle	LK-31	6.222805	80.251977	Pitigala	PS-310237	6.335202	80.221149	6.360052	80.240225	B158, Hattaka, Sri Lanka	3.476654		ගාල්ල	පිටිගල	මාලිගාතැන්න පුරාණ විහාරය - හත්ථක	காலி	பிடிகலா	மாளிகதென்ன புராண விகாரை - ஹதகா	බී 158, හත්තක, ශ්‍රී ලංකාව	பி 158, ஹட்டகா, இலங்கை
Galle	Baddegama	National Vocational Training Institute	False	False	GLLBDDGMNTNLVCTNLTRNNGNSTTT		Galle	LK-31	6.222805	80.251977	Baddegama	PS-310239	6.172566	80.174966	6.163263	80.1754	Gothatuwa Road, Baddegama, Sri Lanka	1.035884		ගාල්ල	බද්දේගම	ජාතික වෘත්තීය පුහුණු ආයතනය	காலி	பத்தேகம	தேசிய தொழிற்பயிற்சி நிறுவனம்	ගොතටුව පාර, බද්දේගම, ශ්‍රී ලංකාව	கோதத்துவ சாலை, பத்தேகம, இலங்கை
Galle	Elpitiya	Kahaduwa Maha Vidyalaya	False	False	GLLLPTYKHDWMHVDYLY		Galle	LK-31	6.222805	80.251977	Elpitiya	PS-310235	6.279163	80.142917	6.220777	80.212991	112 Yakkatuwa-Kahaduwa Road, Kahaduwa, Sri Lanka	10.109741		ගාල්ල	ඇල්පිටිය	කහදූව මහා විද්‍යාලය	காலி	எல்பிட்டிய	கஹடுவா மகா வித்தியாலயம்	112 යක්කටුව-කහදූව පාර, කහදූව, ශ්‍රී ලංකාව	112 யக்கத்துவ-கஹடுவா சாலை, கஹடுவா, இலங்கை
Galle	Elpitiya	Waturawila Dhamma School Building	False	False	GLLLPTYWTRWLDHMMSCHLBLDNG		Galle	LK-31	6.222805	80.251977	Elpitiya	PS-310235	6.279163	80.142917	6.228271	80.229604	66HH+8R5, Kahaduwa, Sri Lanka	11.131579		ගාල්ල	ඇල්පිටිය	වතුරවිල දහම් පාසල් ගොඩනැගිල්ල	காலி	எல்பிட்டிய	வதுரவில தம்ம பாடசாலை கட்டிடம்	66HH+8R5, කහදූව, ශ්‍රී ලංකාව	66HH+8R5, கஹடுவா, இலங்கை
Matara	Dickwella	Radampala Maha Vidyalaya	False	False	MTRDCKWLLRDMPLMHVDYLY		Matara	LK-32	6.142734	80.539994	Dikwella	PS-320103	5.964296	80.693198	5.97916	80.699701	XMHX+MV8, Dikwella, Sri Lanka	1.803055		මාතර	දික්වැල්ල	රදම්පල මහා විද්‍යාලය	மாத்தறை	டிக்வெல்லா	ராதம்பலா மகா வித்தியாலயம்	XMHX+MV8, දික්වැල්ල, ශ්‍රී ලංකාව	XMHX+MV8, திக்வெல்லா, இலங்கை
Matara	Mawarala	Gombadla Shailaramaya	False	False	MTRMWRLGMBDLSHLRMY		Matara	LK-32	6.142734	80.539994	Mawarala	PS-320109	6.198061	80.587045	6.203807	80.5886	Mawarala, Sri Lanka	0.661961		මාතර	මාවරල	ගොම්බඩ්ලා ශයිලාරාමය	மாத்தறை	மவரல	கோம்பட்லா ஷைலராமயா	මාවරල, ශ්‍රී ලංකාව	மாவராலா, இலங்கை
Matara	Pasgoda	Bengamuwa Central College	False	False	MTRPSGDBNGMWCNTRLCLLG		Matara	LK-32	6.142734	80.539994									#PoliceLocationUnknown	මාතර	පස්ගොඩ	බෙංගමුව මධ්‍ය විද්‍යාලය	மாத்தறை	பாஸ்கோடா	பெங்கமுவ மத்திய கல்லூரி		
Matara	Matara	Godagama Pantharamaya	False	False	MTRMTRGDGMPNTHRMY		Matara	LK-32	6.142734	80.539994	Matara	PS-320101	5.94904	80.533659	5.96977	80.520275	Matara - Akuressa Hwy, Godagama 81000, Sri Lanka	2.74026		මාතර	මාතර	ගොඩගම පන්තරාමය	மாத்தறை	மாத்தறை	கோடகம பண்டாராமயா	මාතර - අකුරැස්ස හ්වි, ගොඩගම 81000, ශ්‍රී ලංකාව	மாத்தறை - அகுரஸ்ஸா ஹ்வி, கோடகம 81000, இலங்கை
Matara	Hakmana	Henry Ariyaratne College	False	False	MTRHKMNHNRYRYRTNCLLG		Matara	LK-32	6.142734	80.539994	Hakmana	PS-320106	6.084824	80.643227	6.079554	80.657662	Hakmana, Sri Lanka	1.700772		මාතර	හක්මන	හෙන්රි ආරියරත්න විද්‍යාලය	மாத்தறை	ஹக்மனா	ஹென்றி ஆரியரத்ன கல்லூரி	හක්මන, ශ්‍රී ලංකාව	ஹக்மனா, இலங்கை
Matara	Kosmodara	Kotapola National College	False	False	MTRKSMDRKTPLNTNLCLLG		Matara	LK-32	6.142734	80.539994	Kosmodara	PS-320116	6.290019	80.560337	6.295409	80.542109	A17, Kotapola, Sri Lanka	2.102569		මාතර	කොස්මෝදර	කොටපොළ ජාතික විද්‍යාලය	மாத்தறை	கோஸ்மோதரா	கோட்டபொல தேசிய கல்லூரி	ඒ 17, කොටපොල, ශ්‍රී ලංකාව	ஏ 17, கொட்டபொல, இலங்கை
Matara	Kamburupitiya	Narandeniya Maha Vidyalaya	False	False	MTRKMBRPTYNRNDNYMHVDYLY		Matara	LK-32	6.142734	80.539994	Kamburupitiya	PS-320105	6.073875	80.564579	6.080974	80.566708	School Road, Kamburupitiya, Sri Lanka	0.823984		මාතර	කඹුරුපිටිය	නාරන්දෙණිය මහා විද්‍යාලය	மாத்தறை	கம்புருபிட்டிய	நாரந்தெனிய மகா வித்தியாலயம்	පාසල් පාර, කඹුරුපිටිය, ශ්‍රී ලංකාව	பள்ளி சாலை, கம்புருபிட்டிய, இலங்கை
Matara	Akuressa	Godapitiya National College	False	False	MTRKRSSGDPTYNTNLCLLG		Matara	LK-32	6.142734	80.539994	Akuressa	PS-320112	6.099044	80.4776	6.088827	80.479639	Sri Vardhanaramaya Paraduwa, Matara-Akuressa Highway, Akuressa, Sri Lanka	1.158595		මාතර	අකුරැස්ස	ගොඩපිටිය ජාතික විද්‍යාලය	மாத்தறை	அக்குரஸ்ஸா	கோதாபிட்டிய தேசிய கல்லூரி	ශ්‍රී වර්ධනාරාමය පරාඩුව, මාතර-අකුරැස්ස මහා මාර්ගය, අකුරැස්ස, ශ්‍රී ලංකාව	ஸ்ரீ வர்தனராமய பரடுவா, மாத்தறை-அகுரஸ்ஸா நெடுஞ்சாலை, அக்குரஸ்ஸா, இலங்கை
Matara	Akuressa	Wilpita Maha Vidyalaya	False	False	MTRKRSSWLPTMHVDYLY		Matara	LK-32	6.142734	80.539994	Akuressa	PS-320112	6.099044	80.4776	6.100691	80.512979	4G27+75H, Matara, Sri Lanka	3.917206		මාතර	අකුරැස්ස	විල්පිට මහා විද්‍යාලය	மாத்தறை	அக்குரஸ்ஸா	வில்பித்த மகா வித்தியாலயம்	4G27+75H, මාතර, ශ්‍රී ලංකාව	4G27+75H, மாத்தறை, இலங்கை
Matara	Akuressa	Sadath Muslim College	False	False	MTRKRSSSDTHMSLMCLLG		Matara	LK-32	6.142734	80.539994	Akuressa	PS-320112	6.099044	80.4776	6.088827	80.479639	Sri Vardhanaramaya Paraduwa, Matara-Akuressa Highway, Akuressa, Sri Lanka	1.158595		මාතර	අකුරැස්ස	සදාත් මුස්ලිම් විද්‍යාලය	மாத்தறை	அக்குரஸ்ஸா	சதத் முஸ்லிம் கல்லூரி	ශ්‍රී වර්ධනාරාමය පරාඩුව, මාතර-අකුරැස්ස මහා මාර්ගය, අකුරැස්ස, ශ්‍රී ලංකාව	ஸ்ரீ வர்தனராமய பரடுவா, மாத்தறை-அகுரஸ்ஸா நெடுஞ்சாலை, அக்குரஸ்ஸா, இலங்கை
Matara	Morawaka	Paragala Viharaya	False	False	MTRMRWKPRGLVHRY		Matara	LK-32	6.142734	80.539994	Morawaka	PS-320107	6.256777	80.493654	6.287425	80.539557	A17, Kotapola, Sri Lanka	6.113833		මාතර	මොරවක	පරගල විහාරය	மாத்தறை	மொரவாகா	பரகல விஹாராயா	ඒ 17, කොටපොල, ශ්‍රී ලංකාව	ஏ 17, கொட்டபொல, இலங்கை
Matara	Malimbada	Sri Sumedha Maha Vidyalaya	False	False	MTRMLMBDSRSMDHMHVDYLY		Matara	LK-32	6.142734	80.539994	Malimbada	PS-320117	6.010503	80.517438	6.00944	80.51813	Malimbada, Matara 81000, Sri Lanka	0.140853		මාතර	මාලිම්බඩ	ශ්‍රී සුමේධ මහා විද්‍යාලය	மாத்தறை	மாலிம்படா	ஸ்ரீ சுமேதா மகா வித்யாலயா	මාලිම්බඩ, මාතර 81000, ශ්‍රී ලංකාව	மாலிம்படா, மாத்தாரா 81000, இலங்கை
Matara	Malimbada	Akurugoda Nagarukkaramaya	False	False	MTRMLMBDKRGDNGRKKRMY		Matara	LK-32	6.142734	80.539994	Malimbada	PS-320117	6.010503	80.517438	6.014169	80.493823	Akurugoda Rd, Sri Lanka	2.643879		මාතර	මාලිම්බඩ	අකුරුගොඩ නාගරුක්කාරාමය	மாத்தறை	மாலிம்படா	அக்குருகொட நகருக்கராமையா	අකුරුගොඩ පාර, ශ්‍රී ලංකාව	அகுருகொட வீதி, இலங்கை
Hambantota	Hambantota	Mobile Medical Team	False	False	HMBNTTHMBNTTMBLMDCLTM		Hambantota	LK-33	6.259779	81.098619	Hambantota	PS-330156	6.125872	81.12521					#CenterLocationUnknown	හම්බන්තොට	හම්බන්තොට	ජංගම වෛද්‍ය කණ්ඩායම	அம்பாந்தோட்டை	அம்பாந்தோட்டை	மொபைல் மருத்துவ குழு		
Hambantota	Hambantota	MOH Office – Hambantota	False	False	HMBNTTHMBNTTMHFFCHMBNTT		Hambantota	LK-33	6.259779	81.098619	Hambantota	PS-330156	6.125872	81.12521	6.171162	81.127	54CG+FQ9, Hambantota, Sri Lanka	5.041487		හම්බන්තොට	හම්බන්තොට	MOH කාර්යාලය - හම්බන්තොට	அம்பாந்தோட்டை	அம்பாந்தோட்டை	MOH அலுவலகம் - அம்பாந்தோட்டை	54CG+FQ9, හම්බන්තොට, ශ්‍රී ලංකාව	54CG+FQ9, ஹம்பாந்தோட்டை, இலங்கை
Hambantota	Ambalantota	MOH Office – Ambalantota	False	False	HMBNTTMBLNTTMHFFCMBLNTT		Hambantota	LK-33	6.259779	81.098619	Ambalantota	PS-330157	6.12516	81.023981	6.122767	81.005973	Walawa watta Road, Malpeththawa, Ambalantota, Sri Lanka	2.009195		හම්බන්තොට	අම්බලන්තොට	MOH කාර්යාලය - අම්බලන්තොට	அம்பாந்தோட்டை	அம்பலாந்தோட்டை	MOH அலுவலகம் - அம்பலாந்தோட்டை	වලව වත්ත පාර, මල්පෙත්තාව, අම්බලන්තොට, ශ්‍රී ලංකාව	வலவா வாட்டா சாலை, மால்பெத்தவா, அம்பலாந்தோட்டை, இலங்கை
Hambantota	Walasmulla	Muruthawela Maha Vidyalaya	False	False	HMBNTTWLSMLLMRTHWLMHVDYLY		Hambantota	LK-33	6.259779	81.098619	Walasmulla	PS-330151	6.154102	80.698256	6.184092	80.683769	Walasmulla - Katuwana - Middeniya Road, Ethpitiya, Sri Lanka	3.700544		හම්බන්තොට	වලස්මුල්ල	මුරුතවෙල මහා විද්‍යාලය	அம்பாந்தோட்டை	வலஸ்முல்லா	முருதவெல மகா வித்தியாலயம்	වලස්මුල්ල - කටුවාන - මිද්දෙණිය පාර, ඇත්පිටිය, ශ්‍රී ලංකාව	வலஸ்முல்ல - கட்டுவானா - மித்தெனியா சாலை, எத்பிட்டிய, இலங்கை
Hambantota	Walasmulla	Dhammananda Maha Vidyalaya	False	False	HMBNTTWLSMLLDHMMNNDMHVDYLY		Hambantota	LK-33	6.259779	81.098619	Walasmulla	PS-330151	6.154102	80.698256	6.218377	80.636298	6J9P+9G3, Hambantota, Sri Lanka	9.902261		හම්බන්තොට	වලස්මුල්ල	ධම්මානන්ද මහා විද්‍යාලය	அம்பாந்தோட்டை	வலஸ்முல்லா	தம்மானந்தா மகா வித்தியாலயம்	6J9P+9G3, හම්බන්තොට, ශ්‍රී ලංකාව	6J9P+9G3, ஹம்பாந்தோட்டை, இலங்கை
Hambantota	Walasmulla	MOH Office – Okewela	False	False	HMBNTTWLSMLLMHFFCKWL		Hambantota	LK-33	6.259779	81.098619	Walasmulla	PS-330151	6.154102	80.698256	6.098886	80.715898	Okewela, Sri Lanka	6.444136		හම්බන්තොට	වලස්මුල්ල	MOH කාර්යාලය - ඕකේවෙල	அம்பாந்தோட்டை	வலஸ்முல்லா	MOH அலுவலகம் - ஒகேவெலா	ඕකේවෙල, ශ්‍රී ලංකාව	ஒகேவெலா, இலங்கை
Hambantota	Weeraketiya	MOH Office – Weeraketiya	False	False	HMBNTTWRKTYMHFFCWRKTY		Hambantota	LK-33	6.259779	81.098619	Weeraketiya	PS-330149	6.153899	80.76737	6.144703	80.765287	4QV8+V4M, Weeraketiya, Sri Lanka	1.048488		හම්බන්තොට	වීරකැටිය	MOH කාර්යාලය - වීරකැටිය	அம்பாந்தோட்டை	வீரகெட்டிய	MOH அலுவலகம் - வீரகெட்டிய	4QV8+V4M, වීරකැටිය, ශ්‍රී ලංකාව	4QV8+V4M, வீரகெட்டிய, இலங்கை
Hambantota	Weeraketiya	Hakuruwela Hospital	False	False	HMBNTTWRKTYHKRWLHSPTL		Hambantota	LK-33	6.259779	81.098619	Weeraketiya	PS-330149	6.153899	80.76737	6.143782	80.833594	4RVM+GC8, Agrahara, Sri Lanka	7.409657		හම්බන්තොට	වීරකැටිය	හකුරුවෙල රෝහල	அம்பாந்தோட்டை	வீரகெட்டிய	ஹகுருவெல மருத்துவமனை	4RVM+GC8, අග්‍රහාර, ශ්‍රී ලංකාව	4RVM+GC8, அக்ரஹாரா, இலங்கை
Hambantota	Weeraketiya	Aththanayaya Vidyalaya	False	False	HMBNTTWRKTYTHTHNYYVDYLY		Hambantota	LK-33	6.259779	81.098619	Weeraketiya	PS-330149	6.153899	80.76737	6.135024	80.77105	Tangalle - Weeraketiya Rd, Weeraketiya, Sri Lanka	2.138545		හම්බන්තොට	වීරකැටිය	අත්තානය විද්‍යාලය	அம்பாந்தோட்டை	வீரகெட்டிய	அத்தனாயா வித்யாலயா	තංගල්ල - වීරකැටිය පාර, වීරකැටිය, ශ්‍රී ලංකාව	தங்காலை - வீரகெட்டிய வீதி, வீரகெட்டிய, இலங்கை
Hambantota	Hungama	Hungama Vijayaba National College	False	False	HMBNTTHNGMHNGMVJYBNTNLCLLG		Hambantota	LK-33	6.259779	81.098619	Hungama	PS-330148	6.111262	80.932642	6.111747	80.930389	B622, Hungama, Sri Lanka	0.254949		හම්බන්තොට	හුංගම	හුංගම විජයබා ජාතික විද්‍යාලය	அம்பாந்தோட்டை	ஹங்காமா	ஹங்கம விஜயபா தேசிய கல்லூரி	බී 622, හුංගම, ශ්‍රී ලංකාව	B622, ஹங்காமா, இலங்கை
Hambantota	Angunukolapelessa	National Youth Service Centre	False	False	HMBNTTNGNKLPLSSNTNLYTHSRVCCNTR		Hambantota	LK-33	6.259779	81.098619	Angunakolapelessa	PS-330150	6.321993	80.844883	6.155856	80.905564	Eraminiyaya, Sri Lanka	19.659758		හම්බන්තොට	අඟුණුකොළපැලැස්ස	ජාතික තරුණ සේවා මධ්‍යස්ථානය	அம்பாந்தோட்டை	அங்குனுகோலபெலெஸ்ஸா	தேசிய இளைஞர் சேவை மையம்	එරමිණියාය, ශ්‍රී ලංකාව	எரமினியாயா, இலங்கை
Hambantota	Weerawila	Nedigamwila Maha Vidyalaya	False	False	HMBNTTWRWLNDGMWLMHVDYLY		Hambantota	LK-33	6.259779	81.098619	Weeravila	PS-330161	6.26109	81.236724	6.267019	81.228933	Randunu Kele Watte, Weerawila, Hambantota District, Sri Lanka., A2, Wirawila, Sri Lanka	1.084876		හම්බන්තොට	වීරවිල	නැදිගම්විල මහා විද්‍යාලය	அம்பாந்தோட்டை	வீரவில	நெடிகம்வில மகா வித்தியாலயம்	රන්දුණු කැලේ වත්තේ, වීරවිල, හම්බන්තොට දිස්ත්‍රික්කය, ශ්‍රී ලංකාව., ඒ 2, විරවිල, ශ්‍රී ලංකාව	ரந்துனு கெலே வாட்டே, வீரவில, ஹம்பாந்தோட்டை மாவட்டம், இலங்கை., ஏ 2, விரவில, இலங்கை
Hambantota	Beliatta	MOH Office – Beliatta	False	False	HMBNTTBLTTMHFFCBLTT		Hambantota	LK-33	6.259779	81.098619	Beliatta	PS-330152	6.046936	80.735408	6.051828	80.741735	3P2R+PMQ, Hambantota, Sri Lanka	0.886482		හම්බන්තොට	බෙලිඅත්ත	MOH කාර්යාලය - බෙලිඅත්ත	அம்பாந்தோட்டை	பெலியாட்டா	MOH அலுவலகம் - பெலியாட்ட	3P2R+PMQ, හම්බන්තොට, ශ්‍රී ලංකාව	3P2R+PMQ, ஹம்பாந்தோட்டை, இலங்கை
Hambantota	Tangalla	MOH Office – Tangalla	False	False	HMBNTTTNGLLMHFFCTNGLL		Hambantota	LK-33	6.259779	81.098619	Tangalle	PS-330147	6.023954	80.797255	6.02363	80.795742	2QFW+F75, Tangalle, Sri Lanka	0.171198		හම්බන්තොට	තංගල්ල	MOH කාර්යාලය - තංගල්ල	அம்பாந்தோட்டை	தங்கல்லா	MOH அலுவலகம் - தங்கல்லா	2QFW+F75, තංගල්ල, ශ්‍රී ලංකාව	2QFW+F75, தங்காலை, இலங்கை
Hambantota	Sooriyawewa	MOH Office – Sooriyawewa	False	False	HMBNTTSRYWWMHFFCSRYWW		Hambantota	LK-33	6.259779	81.098619	Sooriyawewa	PS-330155	6.306022	81.003873	6.304862	81.004768	8233+WWR, Sooriyawewa, Sri Lanka	0.1626		හම්බන්තොට	සූරියවැව	MOH කාර්යාලය - සූරියවැව	அம்பாந்தோட்டை	சூரியவெவ	MOH அலுவலகம் - சூரியவெவ	8233+ඩබ්ලිව්ඩබ්ලිව්ආර්, සූරියවැව, ශ්‍රී ලංකාව	8233+WWR, சூரியவெவ, இலங்கை
Hambantota	Katuwana	Rukmalpitiya Maha Vidyalaya	False	False	HMBNTTKTWNRKMLPTYMHVDYLY		Hambantota	LK-33	6.259779	81.098619	Katuwana	PS-330153	6.269722	80.690963	6.249382	80.70948	Julampitiya Rd, Katuwana, Sri Lanka	3.051265		හම්බන්තොට	කටුවන	රුක්මල්පිටිය මහා විද්‍යාලය	அம்பாந்தோட்டை	கட்டுவானா	ருக்மல்பிட்டிய மகா வித்தியாலயம்	ජුලම්පිටිය පාර, කටුවාන, ශ්‍රී ලංකාව	ஜுலாம்பிட்டிய சாலை, கட்டுவானா, இலங்கை
Rathnapura	Opanayaka	Hunuwala Tamil College	False	False	RTHNPRPNYKHNWLTMLCLLG		Ratnapura	LK-91	6.586826	80.566158	Opanayaka	PS-910104	6.608519	80.619285	6.611693	80.591317	JH6R+MGG, රත්නපුර, Sri Lanka	3.110298		රත්නපුර	ඕපනායක	හුණුවල දෙමළ විද්‍යාලය	இரத்தினபுரி	ஓபநாயக்கா	ஹுனுவலா தமிழ் கல்லூரி	JH6R+MGG, රත්නපුර, ශ්‍රී ලංකාව	JH6R+MGG, ரத்னபுரம், இலங்கை
Rathnapura	Opanayaka	Vidyakara Vidyalaya	False	False	RTHNPRPNYKVDYKRVDYLY		Ratnapura	LK-91	6.586826	80.566158	Opanayaka	PS-910104	6.608519	80.619285	6.610286	80.620812	JJ6C+487, Opanayake, Sri Lanka	0.259028		රත්නපුර	ඕපනායක	විද්‍යාකර විද්‍යාලය	இரத்தினபுரி	ஓபநாயக்கா	வித்யாகரா வித்யாலயா	JJ6C+487, ඕපනායක, ශ්‍රී ලංකාව	JJ6C+487, ஓபநாயக்க, இலங்கை
Rathnapura	Opanayaka	Dharamaraja Vidyalaya	False	False	RTHNPRPNYKDHRMRJVDYLY		Ratnapura	LK-91	6.586826	80.566158	Opanayaka	PS-910104	6.608519	80.619285	6.611693	80.591317	JH6R+MGG, රත්නපුර, Sri Lanka	3.110298		රත්නපුර	ඕපනායක	ධර්මරාජ විද්යාලය	இரத்தினபுரி	ஓபநாயக்கா	தரமராஜா வித்யாலயா	JH6R+MGG, රත්නපුර, ශ්‍රී ලංකාව	JH6R+MGG, ரத்னபுரம், இலங்கை
Rathnapura	Pinnawala	Gurubewila Vidyalaya	False	False	RTHNPRPNNWLGRBWLVDYLY		Ratnapura	LK-91	6.586826	80.566158	Pinnawala	PS-910115	7.299943	80.386604	6.703086	80.664111	PM37+6JQ, Sri Lanka	73.116458	#CenterFarFromPolice	රත්නපුර	පින්නවල	ගුරුබෙවිල විද්‍යාලය	இரத்தினபுரி	பின்னாவாலா	குருபேவில வித்யாலயா	PM37+6JQ, ශ්‍රී ලංකාව	PM37+6JQ, இலங்கை
Rathnapura	Pinnawala	Sumanadewa Vidyalaya	False	False	RTHNPRPNNWLSMNDWVDYLY		Ratnapura	LK-91	6.586826	80.566158	Pinnawala	PS-910115	7.299943	80.386604	6.726907	80.663883	Pahala Waleboda Rd, Sri Lanka	70.708149	#CenterFarFromPolice	රත්නපුර	පින්නවල	සුමනදේව විද්‍යාලය	இரத்தினபுரி	பின்னாவாலா	சுமனதேவா வித்யாலயா	පහළ වලේබොඩ පාර, ශ්‍රී ලංකාව	பஹலா வாலேபோடா சாலை, இலங்கை
Rathnapura	Balangoda	Thalangama Vidyalaya	False	False	RTHNPRBLNGDTHLNGMVDYLY		Ratnapura	LK-91	6.586826	80.566158	Balangoda	PS-910103	6.649474	80.700276	6.641498	80.714138	JPR7+HMR, Balangoda, Sri Lanka	1.769912		රත්නපුර	බලන්ගොඩ	තලංගම විද්‍යාලය	இரத்தினபுரி	பலாங்கொடை	தலங்கம வித்தியாலயம்	JPR7+HMR, බලංගොඩ, ශ්‍රී ලංකාව	JPR7+HMR, பலாங்கோடா, இலங்கை
Rathnapura	Balangoda	Guwaranhena Vidyalaya	False	False	RTHNPRBLNGDGWRNHNVDYLY		Ratnapura	LK-91	6.586826	80.566158	Balangoda	PS-910103	6.649474	80.700276	6.641498	80.714138	JPR7+HMR, Balangoda, Sri Lanka	1.769912		රත්නපුර	බලන්ගොඩ	ගුවාරන්හේන විද්‍යාලය	இரத்தினபுரி	பலாங்கொடை	குவரன்ஹேனா வித்யாலயா	JPR7+HMR, බලංගොඩ, ශ්‍රී ලංකාව	JPR7+HMR, பலாங்கோடா, இலங்கை
Rathnapura	Balangoda	Ellepola Vidyalaya	False	False	RTHNPRBLNGDLLPLVDYLY		Ratnapura	LK-91	6.586826	80.566158	Balangoda	PS-910103	6.649474	80.700276	6.630783	80.686023	JMJP+8C6, Balangoda, Sri Lanka	2.607973		රත්නපුර	බලන්ගොඩ	ඇල්ලේපොළ විද්‍යාලය	இரத்தினபுரி	பலாங்கொடை	எல்லெபோலா வித்யாலயா	JMJP+8C6, බලංගොඩ, ශ්‍රී ලංකාව	JMJP+8C6, பலாங்கோடா, இலங்கை
Rathnapura	Balangoda	Egoda Waleboda Vidyalaya	False	False	RTHNPRBLNGDGDWLBDVDYLY		Ratnapura	LK-91	6.586826	80.566158	Balangoda	PS-910103	6.649474	80.700276	6.720519	80.607713	Egoda Waleboda, Sri Lanka	12.923352		රත්නපුර	බලන්ගොඩ	එගොඩ වලේබොඩ විද්‍යාලය	இரத்தினபுரி	பலாங்கொடை	எகோட வலேபோடா வித்யாலயா	එගොඩ වලේබොඩ, ශ්‍රී ලංකාව	ஈகோடா வலேபோடா, இலங்கை
Rathnapura	Samanalawewa	Pambahina Hospital	False	False	RTHNPRSMNLWWPMBHNHSPTL		Ratnapura	LK-91	6.586826	80.566158									#PoliceLocationUnknown	රත්නපුර	සමනලවැව	පඹහින රෝහල	இரத்தினபுரி	சமனலவெவ	பம்பஹினா மருத்துவமனை		
Rathnapura	Panamura	Mulediyawala Vidyalaya	False	False	RTHNPRPNMRMLDYWLVDYLY		Ratnapura	LK-91	6.586826	80.566158	Panamure	PS-910236	6.40194	80.687615	6.681597	80.40321	St.Aloysius' College , Church Road , Ratnapura , Srilanka, Cathedral Road, Ratnapura 70000, Sri Lanka	44.21917	#CenterFarFromPolice	රත්නපුර	පනාමුර	මුලේදියාවල විද්‍යාලය	இரத்தினபுரி	பனமுரா	முலேதியவாலா வித்யாலயா	ශාන්ත ඇලෝසියස් විද්‍යාලය, පල්ලිය පාර, රත්නපුර, ශ්‍රී ලංකාව, ආසන දෙව්මැදුර පාර, රත්නපුර 70000, ශ්‍රී ලංකාව	செயின்ட் அலோசியஸ் கல்லூரி, சர்ச் சாலை, இரத்தினபுரா, இலங்கை, கதீட்ரல் சாலை, இரத்தினபுரா 70000, இலங்கை
Rathnapura	Panamura	Walalgoda Vidyalaya	False	False	RTHNPRPNMRWLLGDVDYLY		Ratnapura	LK-91	6.586826	80.566158	Panamure	PS-910236	6.40194	80.687615	6.32955	80.757703	Embilipitiya-Panamure-Urubokka Rd, Sri Lanka	11.174171		රත්නපුර	පනාමුර	වලල්ගොඩ විද්‍යාලය	இரத்தினபுரி	பனமுரா	வலல்கொட வித்யாலயா	ඇඹිලිපිටිය-පනාමුරේ-ruරුබොක්ක පාර, ශ්‍රී ලංකාව	எம்பிலிபிட்டிய-பனமுரே-ஊருபொக்க வீதி, இலங்கை
Rathnapura	Panamura	Panamura Vidyalaya	False	False	RTHNPRPNMRPNMRVDYLY		Ratnapura	LK-91	6.586826	80.566158	Panamure	PS-910236	6.40194	80.687615	6.342085	80.776645	B115, Panamure, Sri Lanka	11.881996		රත්නපුර	පනාමුර	පනාමුර විද්‍යාලය	இரத்தினபுரி	பனமுரா	பனமுரா வித்யாலயா	බී 115, පනාමුරේ, ශ්‍රී ලංකාව	B115, பனமுரே, இலங்கை
Rathnapura	Wewelwatta	Rathagama Vidyalaya	False	False	RTHNPRWWLWTTRTHGMVDYLY		Ratnapura	LK-91	6.586826	80.566158	Wewalwatta	PS-910102	6.707202	80.555569	6.683533	80.399526	A4, Ratnapura, Sri Lanka	17.438145		රත්නපුර	වේවැල්වත්ත	රත්ගම විද්‍යාලය	இரத்தினபுரி	வெவெல்வத்தை	ரதகம வித்தியாலயம்	ඒ 4, රත්නපුර, ශ්‍රී ලංකාව	A4, இரத்தினபுரா, இலங்கை
Rathnapura	Wewelwatta	Dehenakanda Vidyalaya	False	False	RTHNPRWWLWTTDHNKNDVDYLY		Ratnapura	LK-91	6.586826	80.566158	Wewalwatta	PS-910102	6.707202	80.555569	6.728651	80.532736	Hapugasthenna, Sri Lanka	3.471852		රත්නපුර	වේවැල්වත්ත	දෙහෙනකන්ද විද්‍යාලය	இரத்தினபுரி	வெவெல்வத்தை	தெஹனகந்தா வித்தியாலயம்	හපුගස්තැන්න, ශ්‍රී ලංකාව	ஹபுகஸ்தென்னா, இலங்கை
Rathnapura	Wewelwatta	Kompanawatta Vidyalaya	False	False	RTHNPRWWLWTTKMPNWTTVDYLY		Ratnapura	LK-91	6.586826	80.566158	Wewalwatta	PS-910102	6.707202	80.555569	6.683533	80.399526	A4, Ratnapura, Sri Lanka	17.438145		රත්නපුර	වේවැල්වත්ත	කොම්පනාවත්ත විද්‍යාලය	இரத்தினபுரி	வெவெல்வத்தை	கொம்பனாவத்த வித்யாலயா	ඒ 4, රත්නපුර, ශ්‍රී ලංකාව	A4, இரத்தினபுரா, இலங்கை
Rathnapura	Rathnapura	Mudduwa Pirivena	False	False	RTHNPRRTHNPRMDDWPRVN		Ratnapura	LK-91	6.586826	80.566158	Ratnapura	PS-910101	6.679456	80.40223	6.674151	80.401313	MCF2+MG8, Ratnapura, Sri Lanka	0.598707		රත්නපුර	රත්නපුර	මුද්දුව පිරිවෙන	இரத்தினபுரி	இரத்தினபுரி	முட்டுவா பிரிவேனா	MCF2+MG8, රත්නපුර, ශ්‍රී ලංකාව	MCF2+MG8, இரத்தினபுரி, இலங்கை
Rathnapura	Rathnapura	Gagulwitiya Vidyalaya	False	False	RTHNPRRTHNPRGGLWTYVDYLY		Ratnapura	LK-91	6.586826	80.566158	Ratnapura	PS-910101	6.679456	80.40223	6.681597	80.40321	St.Aloysius' College , Church Road , Ratnapura , Srilanka, Cathedral Road, Ratnapura 70000, Sri Lanka	0.261598		රත්නපුර	රත්නපුර	ගගුල්විටිය විද්‍යාලය	இரத்தினபுரி	இரத்தினபுரி	Gagulwitiya Vidyalaya	ශාන්ත ඇලෝසියස් විද්‍යාලය, පල්ලිය පාර, රත්නපුර, ශ්‍රී ලංකාව, ආසන දෙව්මැදුර පාර, රත්නපුර 70000, ශ්‍රී ලංකාව	செயின்ட் அலோசியஸ் கல்லூரி, சர்ச் சாலை, இரத்தினபுரா, இலங்கை, கதீட்ரல் சாலை, இரத்தினபுரா 70000, இலங்கை
Rathnapura	Eheliyagoda	Mitipola Vidyalaya	False	False	RTHNPRHLYGDMTPLVDYLY		Ratnapura	LK-91	6.586826	80.566158	Ehaliyagoda	PS-910113	6.854603	80.260446	6.852911	80.26275	A4 Ratnapura Road, Eheliyagoda 10600, Sri Lanka	0.316481		රත්නපුර	ඇහැලියගොඩ	මිටිපොල විද්‍යාලය	இரத்தினபுரி	எஹெலியகொட	மிடிபொல வித்யாலயா	ඒ 4 රත්නපුර පාර, ඇහැලියගොඩ 10600, ශ්‍රී ලංකාව	A4 இரத்தினபுரி சாலை, எஹெலியகொட 10600, இலங்கை
Rathnapura	Endana	Howpa Vidyalaya	False	False	RTHNPRNDNHWPVDYLY		Ratnapura	LK-91	6.586826	80.566158									#CenterLocationUnknown	රත්නපුර	එන්දනා	හෝපා විද්‍යාලය	இரத்தினபுரி	எண்டனா	ஹpaபா வித்யாலயா		
Rathnapura	Endana	Gabbela Vidyalaya	False	False	RTHNPRNDNGBBLVDYLY		Ratnapura	LK-91	6.586826	80.566158									#PoliceLocationUnknown	රත්නපුර	එන්දනා	ගබ්බෙලා විද්‍යාලය	இரத்தினபுரி	எண்டனா	கபேலா வித்யாலயா		
Rathnapura	Kolonna	Eggbirth Tamil College	False	False	RTHNPRKLNNGGBRTHTMLCLLG		Ratnapura	LK-91	6.586826	80.566158	Kolonna	PS-910235	6.40194	80.687615	6.44173	80.635519	Embilipitiya - Panamure - Bulutota Rd, Suriyakanda, Sri Lanka	7.262623		රත්නපුර	කොළොන්න	බිත්තර උපත දෙමළ විද්‍යාලය	இரத்தினபுரி	கொலோன்னா	முட்டை பிறப்புக் கல்லூரி	ඇඹිලිපිටිය - පනාමුරේ - බුලුතොට පාර, සූරියකන්ද, ශ්‍රී ලංකාව	எம்பிலிப்பிட்டிய - பனமுரே - புளுடோட்டா சாலை, சூரியகந்தா, இலங்கை
Rathnapura	Ayagama	Ellahena Community Hall	False	False	RTHNPRYGMLLHNCMMNTYHLL		Ratnapura	LK-91	6.586826	80.566158	Ayagama	PS-910109	6.637727	80.312554	6.63556	80.312954	Ayagama, Sri Lanka	0.245053		රත්නපුර	අයගම	එල්ලහේන ප්‍රජා ශාලාව	இரத்தினபுரி	அயகம	எல்லஹேனா சமூக மண்டபம்	අයගම, ශ්‍රී ලංකාව	அயகாமா, இலங்கை
Rathnapura	Ayagama	Pallekada Vidyalaya	False	False	RTHNPRYGMPLLKDVDYLY		Ratnapura	LK-91	6.586826	80.566158	Ayagama	PS-910109	6.637727	80.312554	6.652164	80.295693	Gavaragiriya Road, Pallekada, Sri Lanka	2.459446		රත්නපුර	අයගම	පල්ලේකඩ විද්‍යාලය	இரத்தினபுரி	அயகம	பல்லேகடா வித்யாலயா	ගවරගිරිය පාර, පල්ලේකඩ, ශ්‍රී ලංකාව	கவரகிரியா சாலை, பல்லேகடா, இலங்கை
Rathnapura	Godakawela	Ranwala Vidyalaya	False	False	RTHNPRGDKWLRNWLVDYLY		Ratnapura	LK-91	6.586826	80.566158	Godakawela	PS-910233	6.50224	80.655642	6.548117	80.671963	Ranwala Rd, Godakawela, Sri Lanka	5.412259		රත්නපුර	ගොඩකවෙල	රන්වල විද්‍යාලය	இரத்தினபுரி	கோடகவேலா	ரன்வாலா வித்யாலயா	රන්වල පාර, ගොඩකවෙල, ශ්‍රී ලංකාව	ரன்வாலா ஆர்ட், கோடகவேலா, இலங்கை
Rathnapura	Godakawela	Udaranawala Vidyalaya	False	False	RTHNPRGDKWLDRNWLVDYLY		Ratnapura	LK-91	6.586826	80.566158	Godakawela	PS-910233	6.50224	80.655642	6.505873	80.640843	GJ4R+88W, Ratnapura, Sri Lanka	1.684679		රත්නපුර	ගොඩකවෙල	උදාරණවල විද්‍යාලය	இரத்தினபுரி	கோடகவேலா	உடரணவாலா வித்தியாலயம்	ජීජේ 4 ආර්+88 ඩබ්, රත්නපුර, ශ්‍රී ලංකාව	GJ4R+88W, இரத்தினபுரி, இலங்கை
Rathnapura	Godakawela	Mahaomara Vidyalaya	False	False	RTHNPRGDKWLMHMRVDYLY		Ratnapura	LK-91	6.586826	80.566158	Godakawela	PS-910233	6.50224	80.655642	6.541417	80.698329	GMRX+H88, Ratnapura, Sri Lanka	6.422027		රත්නපුර	ගොඩකවෙල	මහෝමාරා විද්‍යාලය	இரத்தினபுரி	கோடகவேலா	மஹோமாரா வித்யாலயா	GMRX+H88, රත්නපුර, ශ්‍රී ලංකාව	GMRX+H88, இரத்தினபுரா, இலங்கை
Rathnapura	Godakawela	Elamalpe Vidyalaya	False	False	RTHNPRGDKWLLMLPVDYLY		Ratnapura	LK-91	6.586826	80.566158	Godakawela	PS-910233	6.50224	80.655642	6.505873	80.640843	GJ4R+88W, Ratnapura, Sri Lanka	1.684679		රත්නපුර	ගොඩකවෙල	එලමල්පේ විද්‍යාලය	இரத்தினபுரி	கோடகவேலா	எலமல்பே வித்யாலயா	ජීජේ 4 ආර්+88 ඩබ්, රත්නපුර, ශ්‍රී ලංකාව	GJ4R+88W, இரத்தினபுரி, இலங்கை
Rathnapura	Godakawela	Panawela Vidyalaya	False	False	RTHNPRGDKWLPNWLVDYLY		Ratnapura	LK-91	6.586826	80.566158	Godakawela	PS-910233	6.50224	80.655642	6.505873	80.640843	GJ4R+88W, Ratnapura, Sri Lanka	1.684679		රත්නපුර	ගොඩකවෙල	පනාවල විද්‍යාලය	இரத்தினபுரி	கோடகவேலா	பனாவெல வித்யாலயா	ජීජේ 4 ආර්+88 ඩබ්, රත්නපුර, ශ්‍රී ලංකාව	GJ4R+88W, இரத்தினபுரி, இலங்கை
Rathnapura	Godakawela	Makandura Vidyalaya	False	False	RTHNPRGDKWLMKNDRVDYLY		Ratnapura	LK-91	6.586826	80.566158	Godakawela	PS-910233	6.50224	80.655642	6.553101	80.63009	Makandura, Sri Lanka	6.322815		රත්නපුර	ගොඩකවෙල	මාකඳුර විද්‍යාලය	இரத்தினபுரி	கோடகவேலா	மகந்துரா வித்யாலயா	මාකඳුර, ශ්‍රී ලංකාව	மகந்துரா, இலங்கை
Rathnapura	Godakawela	Agaregama Vidyalaya	False	False	RTHNPRGDKWLGRGMVDYLY		Ratnapura	LK-91	6.586826	80.566158	Godakawela	PS-910233	6.50224	80.655642	6.505873	80.640843	GJ4R+88W, Ratnapura, Sri Lanka	1.684679		රත්නපුර	ගොඩකවෙල	අගරෙගම විද්‍යාලය	இரத்தினபுரி	கோடகவேலா	அகரேகம வித்யாலயா	ජීජේ 4 ආර්+88 ඩබ්, රත්නපුර, ශ්‍රී ලංකාව	GJ4R+88W, இரத்தினபுரி, இலங்கை
Rathnapura	Godakawela	Kotakethana Vidyalaya	False	False	RTHNPRGDKWLKTKTHNVDYLY		Ratnapura	LK-91	6.586826	80.566158	Godakawela	PS-910233	6.50224	80.655642	6.572314	80.591057	Kotakethana, Sri Lanka	10.56831		රත්නපුර	ගොඩකවෙල	කොටකෙතන විද්‍යාලය	இரத்தினபுரி	கோடகவேலா	கோடகேதன வித்யாலயா	කොටකෙතන, ශ්‍රී ලංකාව	கோடகேதனா, இலங்கை
Rathnapura	Godakawela	Dimbulwala Vidyalaya.	False	False	RTHNPRGDKWLDMBLWLVDYLY		Ratnapura	LK-91	6.586826	80.566158	Godakawela	PS-910233	6.50224	80.655642	6.505873	80.640843	GJ4R+88W, Ratnapura, Sri Lanka	1.684679		රත්නපුර	ගොඩකවෙල	දිඹුල්වල විද්‍යාලය.	இரத்தினபுரி	கோடகவேலா	திம்புல்வாலா வித்யாலயா.	ජීජේ 4 ආර්+88 ඩබ්, රත්නපුර, ශ්‍රී ලංකාව	GJ4R+88W, இரத்தினபுரி, இலங்கை
Rathnapura	Godakawela	Hiramadagama Vidyalaya	False	False	RTHNPRGDKWLHRMDGMVDYLY		Ratnapura	LK-91	6.586826	80.566158	Godakawela	PS-910233	6.50224	80.655642	6.53071	80.615995	GJJ8+79Q, Ratnapura, Sri Lanka	5.406022		රත්නපුර	ගොඩකවෙල	හිරමඩගම විද්‍යාලය	இரத்தினபுரி	கோடகவேலா	ஹிரமடகம வித்யாலயா	GJJ8+79Q, රත්නපුර, ශ්‍රී ලංකාව	GJJ8+79Q, இரத்தினபுரி, இலங்கை
Rathnapura	Pelmadulla	Kamarangapititya Vidyalaya	False	False	RTHNPRPLMDLLKMRNGPTTYVDYLY		Ratnapura	LK-91	6.586826	80.566158	Pelmadulla	PS-910117	6.632692	80.521315	6.634485	80.529954	Pelmadulla, Sri Lanka	0.975094		රත්නපුර	පැල්මඩුල්ල	කාමරංගපිටිය විද්‍යාලය	இரத்தினபுரி	பெல்மடுல்லா	கமரங்கபிடித்ய வித்யாலயா	පැල්මඩුල්ල, ශ්‍රී ලංකාව	பெல்மடுல்லா, இலங்கை
Rathnapura	Pelmadulla	Sri Khettarama Viharaya	False	False	RTHNPRPLMDLLSRKHTTRMVHRY		Ratnapura	LK-91	6.586826	80.566158	Pelmadulla	PS-910117	6.632692	80.521315	6.632226	80.547508	JGJX+V2R, Pelmadulla, Sri Lanka	2.894409		රත්නපුර	පැල්මඩුල්ල	ශ්‍රී ඛෙත්තාරාම විහාරය	இரத்தினபுரி	பெல்மடுல்லா	ஸ்ரீ கெட்டாராம விஹாராயா	JGJX+V2R, පැල්මඩුල්ල, ශ්‍රී ලංකාව	JGJX+V2R, பெல்மடுல்லா, இலங்கை
Rathnapura	Pelmadulla	Meegahagoda Rajamaha Viharaya	False	False	RTHNPRPLMDLLMGHGDRJMHVHRY		Ratnapura	LK-91	6.586826	80.566158	Pelmadulla	PS-910117	6.632692	80.521315	6.61745	80.560453	JH86+X5P, Pelmadulla, Sri Lanka	4.644711		රත්නපුර	පැල්මඩුල්ල	මීගහගොඩ රජමහා විහාරය	இரத்தினபுரி	பெல்மடுல்லா	மீகஹகொட ராஜமஹா விஹாராயா	JH86+X5P, පැල්මඩුල්ල, ශ්‍රී ලංකාව	JH86+X5P, பெல்மடுல்லா, இலங்கை
Rathnapura	Kuruwita	Waladura Viharaya	False	False	RTHNPRKRWTWLDRVHRY		Ratnapura	LK-91	6.586826	80.566158	Kuruwita	PS-910112	6.778839	80.364712	6.77558	80.35651	Q9G4+6JJ, Kuruwita, Sri Lanka	0.975765		රත්නපුර	කුරුවිට	වලදුර විහාරය	இரத்தினபுரி	குருவிடா	வாலாதுரா விஹாராயா	Q9G4+6JJ, කුරුවිට, ශ්‍රී ලංකාව	Q9G4+6JJ, குருவிட, இலங்கை
Rathnapura	Kuruwita	Sudagala Maha Vidyalaya	False	False	RTHNPRKRWTSDGLMHVDYLY		Ratnapura	LK-91	6.586826	80.566158	Kuruwita	PS-910112	6.778839	80.364712	6.80349	80.379989	Kuruwita Erathna Rd, Kuruwita, Sri Lanka	3.219513		රත්නපුර	කුරුවිට	සුදගල මහා විද්‍යාලය	இரத்தினபுரி	குருவிடா	சுடகல மகா வித்தியாலயம்	කුරුවිට එරත්න පාර, කුරුවිට, ශ්‍රී ලංකාව	குருவிட எரத்னா சாலை, குருவிட, இலங்கை
Rathnapura	Kuruwita	Sugatha Naga Bodhi Viharaya	False	False	RTHNPRKRWTSGTHNGBDHVHRY		Ratnapura	LK-91	6.586826	80.566158	Kuruwita	PS-910112	6.778839	80.364712	6.468211	80.607487	FJ94+7XQ, Rakwana, Sri Lanka	43.741073	#CenterFarFromPolice	රත්නපුර	කුරුවිට	සුගත නාග බෝධි විහාරය	இரத்தினபுரி	குருவிடா	சுகதா நாக போதி விஹாராயா	FJ94+7XQ, රක්වාන, ශ්‍රී ලංකාව	FJ94+7XQ, ரக்வானா, இலங்கை
Rathnapura	Kahawatta	Atakalanpanna Vidyalaya	False	False	RTHNPRKHWTTTKLNPNNVDYLY		Ratnapura	LK-91	6.586826	80.566158	Kahawatta	PS-910107	6.591434	80.56893	6.54009	80.588877	GHRQ+2HJ, Atakalanpanna, Sri Lanka	6.12157		රත්නපුර	කහවත්ත	අතකාලන්පන්න විද්‍යාලය	இரத்தினபுரி	கஹவத்த	அடகளன்பண்ணா வித்யாலயா	GHRQ+2HJ, අටකාලන්පන්න, ශ්‍රී ලංකාව	GHRQ+2HJ, அடகளன்பண்ணா, இலங்கை
Rathnapura	Kahawatta	Yayinna Vidyalaya	False	False	RTHNPRKHWTTYYNNVDYLY		Ratnapura	LK-91	6.586826	80.566158	Kahawatta	PS-910107	6.591434	80.56893	6.571516	80.553136	HHC3+J72, Allagewaththa, Sri Lanka	2.820285		රත්නපුර	කහවත්ත	යෙයින්න විද්‍යාලය	இரத்தினபுரி	கஹவத்த	யாயின்னா வித்யாலயா	HHC3+J72, අලගේවත්ත, ශ්‍රී ලංකාව	HHC3+J72, அல்லகேவத்த, இலங்கை
Rathnapura	Kahawatta	MoratotaVidyalaya	False	False	RTHNPRKHWTTMRTTVDYLY		Ratnapura	LK-91	6.586826	80.566158	Kahawatta	PS-910107	6.591434	80.56893	6.602533	80.584906	JH3M+2X6, Pelmadulla, Sri Lanka	2.154105		රත්නපුර	කහවත්ත	මොරටොට විද්‍යාලය	இரத்தினபுரி	கஹவத்த	மொரடோட்டா வித்யாலயா	JH3M+2X6, පැල්මඩුල්ල, ශ්‍රී ලංකාව	JH3M+2X6, பெல்மடுல்லா, இலங்கை
Rathnapura	Bulathkohupitiya	MOH Office – Bulathkohupitiya	False	False	RTHNPRBLTHKHPTYMHFFCBLTHKHPTY		Ratnapura	LK-91	6.586826	80.566158	Bulathkohupitiya	PS-920232	7.106684	80.3347	7.109127	80.334565	485M+MR4, Bulathkohupitiya, Sri Lanka	0.272143		රත්නපුර	බුලත්කොහුපිටිය	MOH කාර්යාලය - බුලත්කොහුපිටිය	இரத்தினபுரி	புலத்கோஹுபிடியா	MOH அலுவலகம் - புலத்கோஹுபிட்டிய	485 එම්+එම්ආර් 4, බුලත්කොහුපිටිය, ශ්‍රී ලංකාව	485M+MR4, புலத்கோஹுபிட்டிய, இலங்கை
Rathnapura	Warakapola	MOH Office – Warakapola	False	False	RTHNPRWRKPLMHFFCWRKPL		Ratnapura	LK-91	6.586826	80.566158	Wrakapola	PS-920119	7.227488	80.199696	7.226501	80.197818	65GX+J44, Warakapola, Sri Lanka	0.234514		රත්නපුර	වරකාපොල	MOH කාර්යාලය - වරකාපොල	இரத்தினபுரி	வாரகபொல	MOH அலுவலகம் - வாரகபொல	65GX+J44, වරකාපොල, ශ්‍රී ලංකාව	65GX+J44, வராகபொல, இலங்கை
Rathnapura	Mawanella	MOH Office – Mawanella	False	False	RTHNPRMWNLLMHFFCMWNLL		Ratnapura	LK-91	6.586826	80.566158	Mawanella	PS-920122	7.256966	80.445912	7.253248	80.44561	Rambukkana-Mawanella Rd, Mawanella, Sri Lanka	0.414893		රත්නපුර	මාවනැල්ල	MOH කාර්යාලය - මාවනැල්ල	இரத்தினபுரி	மாவனெல்லா	MOH அலுவலகம் - மாவனெல்லா	රඹුක්කන-මාවනැල්ල පාර, මාවනැල්ල, ශ්‍රී ලංකාව	ரம்புக்கான-மாவனெல்லா சாலை, மாவனெல்லா, இலங்கை
Anuradhapura	Anuradhapura	Army Hospital Anuradhapura	False	False	NRDHPRNRDHPRRMYHSPTLNRDHPR		Anuradhapura	LK-71	8.39199	80.512958	Anuradapura	PS-710101	8.329752	80.407265	8.338302	80.407646	AB02, Anuradhapura, Sri Lanka	0.951939		අනුරාධපුර	අනුරාධපුර	අනුරාධපුර හමුදා රෝහල	அனுராதபுரம்	அனுராதபுரம்	அனுராதபுரம் இராணுவ மருத்துவமனை	ඒබී 02, අනුරාධපුර, ශ්‍රී ලංකාව	ஏபி 02, அனுராதபுரம், இலங்கை
Anuradhapura	Anuradhapura	MOH Office – Anuradhapura	False	False	NRDHPRNRDHPRMHFFCNRDHPR		Anuradhapura	LK-71	8.39199	80.512958	Anuradapura	PS-710101	8.329752	80.407265	8.324809	80.412262	Kandy Rd, Anuradhapura, Sri Lanka	0.777651		අනුරාධපුර	අනුරාධපුර	MOH කාර්යාලය - අනුරාධපුර	அனுராதபுரம்	அனுராதபுரம்	MOH அலுவலகம் - அனுராதபுரம்	මහනුවර පාර, අනුරාධපුර, ශ්‍රී ලංකාව	கண்டி வீதி, அனுராதபுரம், இலங்கை
Anuradhapura	Anuradhapura	Teaching Hospital – Anuradhapura	False	False	NRDHPRNRDHPRTCHNGHSPTLNRDHPR		Anuradhapura	LK-71	8.39199	80.512958	Anuradapura	PS-710101	8.329752	80.407265	8.324765	80.413968	Harischandra Mawatha, Anuradhapura, Sri Lanka	0.922993		අනුරාධපුර	අනුරාධපුර	ශික්ෂණ රෝහල - අනුරාධපුර	அனுராதபுரம்	அனுராதபுரம்	போதனா மருத்துவமனை - அனுராதபுரம்	හරිශ්චන්ද්‍ර මාවත, අනුරාධපුර, ශ්‍රී ලංකාව	ஹரிச்சந்திர மாவத்தை, அனுராதபுரம், இலங்கை
Anuradhapura	Galenbindunuwewa	Dutuwewa Vidyalaya	False	False	NRDHPRGLNBNDNWWDTWWVDYLY		Anuradhapura	LK-71	8.39199	80.512958	Galenbidunuwewa	PS-710121	8.29037	80.71501	8.329143	80.761406	Dutuwewa Central collage, dutuwewa, galenbindunuwewa, Sri Lanka	6.683953		අනුරාධපුර	ගලෙන්බිඳුණුවැව	දුටුවැව විද්‍යාලය	அனுராதபுரம்	கலென்பிந்துனுவேவா	தூதுவெவ வித்தியாலயம்	දුටුවැව මධ්‍යම කොලාජ්, දුටුවැව, ගලෙන්බිඳුණුවැව, ශ්‍රී ලංකාව	தூதுவெவ மத்திய படத்தொகுப்பு, தூதுவெவ, கலென்பிந்துனுவேவா, இலங்கை
Anuradhapura	Galenbindunuwewa	Yakalla Hospital	False	False	NRDHPRGLNBNDNWWYKLLHSPTL		Anuradhapura	LK-71	8.39199	80.512958	Galenbidunuwewa	PS-710121	8.29037	80.71501	8.2193	80.70284	6P93+P4G, Yakalla, Sri Lanka	8.017812		අනුරාධපුර	ගලෙන්බිඳුණුවැව	යකල්ල රෝහල	அனுராதபுரம்	கலென்பிந்துனுவேவா	யாகல்லா மருத்துவமனை	6 පී 93+පී 4 ජී, යකල්ල, ශ්‍රී ලංකාව	6P93+P4G, யகல்லா, இலங்கை
Anuradhapura	Galenbindunuwewa	Getalawa Mahagaswewa Vidyalaya	False	False	NRDHPRGLNBNDNWWGTLWMHGSWWVDYLY		Anuradhapura	LK-71	8.39199	80.512958	Galenbidunuwewa	PS-710121	8.29037	80.71501	8.301571	80.747087	8P2W+JRG, Anuradhapura, Sri Lanka	3.743963		අනුරාධපුර	ගලෙන්බිඳුණුවැව	ගැටලාව මහගස්වැව විද්‍යාලය	அனுராதபுரம்	கலென்பிந்துனுவேவா	கெடலாவ மஹாகஸ்வெவ வித்தியாலயம்	8P2W+JRG, අනුරාධපුර, ශ්‍රී ලංකාව	8P2W+JRG, அனுராதபுரம், இலங்கை
Anuradhapura	Horowpothana	Walahawiddawewa Vidyalaya	False	False	NRDHPRHRWPTHNWLHWDDWWVDYLY		Anuradhapura	LK-71	8.39199	80.512958	Horowpathana	PS-710117	8.553878	80.830734	8.540103	80.726091	GPRG+2CW, Anuradhapura, Sri Lanka	11.611692		අනුරාධපුර	හොරොව්පොතාන	වලහවිද්දවැව විද්‍යාලය	அனுராதபுரம்	ஹோரோபோதனா	வலஹவித்தவெவ வித்தியாலயம்	ජීපීආර්ජී+2 සීඩබ්ලිව්, අනුරාධපුර, ශ්‍රී ලංකාව	GPRG+2CW, அனுராதபுரம், இலங்கை
Anuradhapura	Horowpothana	Rasnayakawewa Vidyalaya	False	False	NRDHPRHRWPTHNRSNYKWWVDYLY		Anuradhapura	LK-71	8.39199	80.512958	Horowpathana	PS-710117	8.553878	80.830734	8.552126	80.830957	A29, Horowupotana, Sri Lanka	0.196412		අනුරාධපුර	හොරොව්පොතාන	රත්නායකවැව විද්‍යාලය	அனுராதபுரம்	ஹோரோபோதனா	ரஸ்நாயக்கவெவ வித்தியாலயம்	ඒ 29, හොරොවුපොතාන, ශ්‍රී ලංකාව	ஏ 29, ஹொரோவுபோதனா, இலங்கை
Anuradhapura	Kahatagasdigiliya	MOH Office – Kahatagasdigiliya	False	False	NRDHPRKHTGSDGLYMHFFCKHTGSDGLY		Anuradhapura	LK-71	8.39199	80.512958	Kahatagasdigiliya	PS-710118	8.427328	80.688349	8.427329	80.689909	Puttalam - Anuradhapura - Trincomalee Hwy, Kahatagasdigiliya, Sri Lanka	0.171645		අනුරාධපුර	කහටගස්දිගිලිය	MOH කාර්යාලය - කහටගස්දිගිලිය	அனுராதபுரம்	கஹதகஸ்திகிலியா	MOH அலுவலகம் - கஹதகஸ்திகிலியா	පුත්තලම - අනුරාධපුර - ත්‍රිකුණාමලය හ්වි, කහටගස්දිගිලිය, ශ්‍රී ලංකාව	புத்தளம் - அனுராதபுரம் - திருகோணமலை Hwy, கஹதகஸ்திகிலியா, இலங்கை
Anuradhapura	Thirappane	Kuttikulama Sirisilawansa Vidyalaya	False	False	NRDHPRTHRPPNKTTKLMSRSLWNSVDYLY		Anuradhapura	LK-71	8.39199	80.512958	Thirappone	PS-710106	6.907289	79.863819	8.213268	80.527191	Vocational Training Center, Pradesiya sabawa, Thirappane, Tirappane, Sri Lanka	162.639397	#CenterFarFromPolice	අනුරාධපුර	තිරප්පනේ	කුට්ටිකුලම සිරිසිලවංශ විද්‍යාලය	அனுராதபுரம்	திரப்பனே	குட்டிகுலமா சிறிசிலவன்ச வித்தியாலயம்	වෘත්තීය පුහුණු මධ්‍යස්ථානය, ප්‍රාදේශිය සබාව, තිරප්පනේ, තිරප්පනේ, ශ්‍රී ලංකාව	தொழிற்பயிற்சி மையம், பிரதேச சபாவா, திரப்பனே, திறப்பனே, இலங்கை
Anuradhapura	Mihintale	Mihintale Hospital	False	False	NRDHPRMHNTLMHNTLHSPTL		Anuradhapura	LK-71	8.39199	80.512958	Mihintale	PS-710104	8.360062	80.511889	8.35505	80.509287	Kandy Rd, Mihintale, Sri Lanka	0.626724		අනුරාධපුර	මිහින්තලය	මිහින්තලේ රෝහල	அனுராதபுரம்	மிஹிந்தலை	மிஹிந்தலை மருத்துவமனை	මහනුවර පාර, මිහින්තලය, ශ්‍රී ලංකාව	கண்டி வீதி, மிஹிந்தலை, இலங்கை
Anuradhapura	Hidogama	Nachchaduwa Muslim Maha Vidyalaya	False	False	NRDHPRHDGMNCHCHDWMSLMMHVDYLY		Anuradhapura	LK-71	8.39199	80.512958	Hidogama	PS-710102	8.31575	80.420358	8.246907	80.463426	6FW7+Q97, Nachchaduwa, Sri Lanka	9.005998		අනුරාධපුර	හිදෝගම	නාච්චාදූව මුස්ලිම් මහා විද්‍යාලය	அனுராதபுரம்	ஹிடோகாமா	நச்சடுவ முஸ்லிம் மகா வித்தியாலயம்	6FW7+Q97, නාච්චදූව, ශ්‍රී ලංකාව	6FW7+Q97, நச்சடுவா, இலங்கை
Anuradhapura	Hingurakgoda	MOH Office – Hingurakgoda	False	False	NRDHPRHNGRKGDMHFFCHNGRKGD		Anuradhapura	LK-71	8.39199	80.512958	Hingurakgoda	PS-720129	8.048819	80.965751	8.046007	80.96576	2XW8+C82, Hingurakgoda, Sri Lanka	0.31278		අනුරාධපුර	හිඟුරක්ගොඩ	MOH කාර්යාලය - හිඟුරක්ගොඩ	அனுராதபுரம்	ஹிங்குரகொட	MOH அலுவலகம் - ஹிங்குரகொட	2XW8+C82, හිඟුරක්ගොඩ, ශ්‍රී ලංකාව	2XW8+C82, ஹிங்குரகொட, இலங்கை
Jaffna	Jaffna	Mobile Medical Team	False	False	JFFNJFFNMBLMDCLTM		Jaffna	LK-41	9.691792	80.098594	Jaffna	PS-410209	9.659919	80.010965					#CenterLocationUnknown	යාපනය	යාපනය	ජංගම වෛද්‍ය කණ්ඩායම	யாழ்	யாழ்	மொபைல் மருத்துவ குழு		
Jaffna	Kopay	MOH Office – Nallur	False	False	JFFNKPYMHFFCNLLR		Jaffna	LK-41	9.691792	80.098594	Kopai	PS-410216	9.686887	80.03856	9.673947	80.027736	M2FH+H3H, Jaffna, Sri Lanka	1.865513		යාපනය	කෝපායි	එම්ඕඑච් කාර්යාලය - නල්ලූර්	யாழ்	கோப்பாய்	MOH அலுவலகம் - நல்லூர்	M2FH+H3H, යාපනය, ශ්‍රී ලංකාව	M2FH+H3H, யாழ்ப்பாணம், இலங்கை
Jaffna	Kopay	Mobile Vaccination	False	False	JFFNKPYMBLVCCNTN		Jaffna	LK-41	9.691792	80.098594	Kopai	PS-410216	9.686887	80.03856					#CenterLocationUnknown	යාපනය	කෝපායි	ජංගම එන්නත	யாழ்	கோப்பாய்	மொபைல் தடுப்பூசி		
Jaffna	Kopay	Sirupiddy Tamil College	False	False	JFFNKPYSRPDDYTMLCLLG		Jaffna	LK-41	9.691792	80.098594	Kopai	PS-410216	9.686887	80.03856	9.701425	80.066057	Kopay Christian College, B71, Jaffna, Sri Lanka	3.421108		යාපනය	කෝපායි	සිරුපිඩ්ඩි දෙමළ විද්‍යාලය	யாழ்	கோப்பாய்	சிறுப்பிட்டி தமிழ் கல்லூரி	කෝපායි ක්‍රිස්තියානි විද්‍යාලය, බී 71, යාපනය, ශ්‍රී ලංකාව	கோப்பாய் கிறிஸ்டியன் கல்லூரி, பி 71, யாழ்ப்பாணம், இலங்கை
Jaffna	Kopay	Karanthan Ramapillai Vidyalaya	False	False	JFFNKPYKRNTHNRMPLLVDYLY		Jaffna	LK-41	9.691792	80.098594	Kopai	PS-410216	9.686887	80.03856	9.711206	80.059962	Kopay Base Hospital, Jaffna, Sri Lanka	3.580942		යාපනය	කෝපායි	කරන්තන් රාමපිල්ලෙයි විද්‍යාලය	யாழ்	கோப்பாய்	கரந்தன் ராமப்பிள்ளை வித்தியாலயம்	කෝපායි මූලික රෝහල, යාපනය, ශ්‍රී ලංකාව	கோப்பாய் அடிப்படை மருத்துவமனை, யாழ்ப்பாணம், இலங்கை
Jaffna	Kopay	MOH Office - Kopay	False	False	JFFNKPYMHFFCKPY		Jaffna	LK-41	9.691792	80.098594	Kopai	PS-410216	9.686887	80.03856	9.706729	80.065433	B268, Jaffna, Sri Lanka	3.681313		යාපනය	කෝපායි	MOH කාර්යාලය - කෝපායි	யாழ்	கோப்பாய்	MOH அலுவலகம் - கோப்பாய்	බී 268, යාපනය, ශ්‍රී ලංකාව	பி 268, யாழ்ப்பாணம், இலங்கை
Jaffna	Chunnagam	MOH Office - Uduvil	False	False	JFFNCHNNGMMHFFCDVL		Jaffna	LK-41	9.691792	80.098594	Chunnakam	PS-410211	9.745309	80.029151	9.742938	80.035132	P2VP+53C, Chunnakam, Sri Lanka	0.706719		යාපනය	චුන්නාගම්	MOH කාර්යාලය - උඩුවිල්	யாழ்	சுன்னாகம்	MOH அலுவலகம் - உடுவில்	පී 2 වීපී+53 සී, චුන්නාකම්, ශ්‍රී ලංකාව	P2VP+53C, சுன்னாகம், இலங்கை
Jaffna	Chunnagam	Selvapuram Comman Hall – Urumpirai	False	False	JFFNCHNNGMSLVPRMCMMNHLLRMPR		Jaffna	LK-41	9.691792	80.098594	Chunnakam	PS-410211	9.745309	80.029151	9.702664	80.036018	Kondavil Junction, Palali Rd, Kondavil, Sri Lanka	4.802768		යාපනය	චුන්නාගම්	සෙල්වපුරම් කොමන් ශාලාව - උරුම්පිරායි	யாழ்	சுன்னாகம்	செல்வபுரம் கமான் மண்டபம் - உரும்பிராய்	කොණ්ඩාවිල් හන්දිය, පලාලි පාර, කොණ්ඩාවිල්, ශ්‍රී ලංකාව	கொண்டவில் சந்திப்பு, பலாலி வீதி, கொண்டவில், இலங்கை
Jaffna	Chunnagam	Kuppilan Wigneswara Hall	False	False	JFFNCHNNGMKPPLNWGNSWRHLL		Jaffna	LK-41	9.691792	80.098594	Chunnakam	PS-410211	9.745309	80.029151	9.664467	80.010483	AB16, Jaffna, Sri Lanka	9.222033		යාපනය	චුන්නාගම්	කුප්පිලාන් විග්නේෂ්වර ශාලාව	யாழ்	சுன்னாகம்	குப்பிலன் விக்னேஸ்வரா மண்டபம்	ඒබී 16, යාපනය, ශ්‍රී ලංකාව	ஏபி 16, யாழ்ப்பாணம், இலங்கை
Jaffna	Chunnagam	Mylankadu Community Hall	False	False	JFFNCHNNGMMYLNKDCMMNTYHLL		Jaffna	LK-41	9.691792	80.098594	Chunnakam	PS-410211	9.745309	80.029151	9.689313	80.031016	M2QJ+PCC, Jaffna, Sri Lanka	6.231781		යාපනය	චුන්නාගම්	මයිලංකඩු ප්‍රජා ශාලාව	யாழ்	சுன்னாகம்	மயிலங்காடு சமுதாயக் கூடம்	M2QJ+PCC, යාපනය, ශ්‍රී ලංකාව	M2QJ+PCC, யாழ்ப்பாணம், இலங்கை
Jaffna	Kodikaman	Eludumattuval Health Centre	False	False	JFFNKDKMNLDMTTVLHLTHCNTR		Jaffna	LK-41	9.691792	80.098594	Kodikamam	PS-410217	9.666459	80.132384	9.677952	80.236663	M6HP+5MM, Jaffna, Sri Lanka	11.505299		යාපනය	කොඩිකාමන්	එළුදුමට්ටුවල් සෞඛ්‍ය මධ්‍යස්ථානය	யாழ்	கொடிகாமன்	எலுதுமட்டுவல் சுகாதார மையம்	M6HP+5MM, යාපනය, ශ්‍රී ලංකාව	M6HP+5MM, யாழ்ப்பாணம், இலங்கை
Jaffna	Kodikaman	PHC – Kodikaman	False	False	JFFNKDKMNPHCKDKMN		Jaffna	LK-41	9.691792	80.098594	Kodikamam	PS-410217	9.666459	80.132384	9.652561	80.065318	Semmani-Ariyalai Rd, Jaffna, Sri Lanka	7.5147		යාපනය	කොඩිකාමන්	පීඑච්සී - කොඩිකාමන්	யாழ்	கொடிகாமன்	PHC - கொடிகாமன்	සෙම්මනි-අරියාලෙයි පාර, යාපනය, ශ්‍රී ලංකාව	செம்மணி-அரியாலை வீதி, யாழ்ப்பாணம், இலங்கை
Jaffna	Thelippalai	MOH Office – Thelippalai	False	False	JFFNTHLPPLMHFFCTHLPPL		Jaffna	LK-41	9.691792	80.098594	Thelippalay	PS-410104	6.933075	79.857181	9.785272	80.032899	Q2PM+452, Tellippalai, Sri Lanka	317.838063	#CenterFarFromPolice	යාපනය	තෙලිප්පලෙයි	MOH කාර්යාලය - තෙලිප්පලෙයි	யாழ்	தெளிப்பளை	MOH அலுவலகம் - தெல்லிப்பழை	Q2PM+452, තෙලිප්පලෙයි, ශ්‍රී ලංකාව	Q2PM+452, தெல்லிப்பழை, இலங்கை
Jaffna	Thelippalai	Mobile Vaccination	False	False	JFFNTHLPPLMBLVCCNTN		Jaffna	LK-41	9.691792	80.098594	Thelippalay	PS-410104	6.933075	79.857181					#CenterLocationUnknown	යාපනය	තෙලිප්පලෙයි	ජංගම එන්නත	யாழ்	தெளிப்பளை	மொபைல் தடுப்பூசி		
Jaffna	Valvettithurai	Vettilaikerny Parameshwara Vidyalayam	False	False	JFFNVLVTTTHRVTTLKRNYPRMSHWRVDYLYM		Jaffna	LK-41	9.691792	80.098594	Valvettiththurai	PS-410107	9.823216	80.169633	9.573938	80.472629	HFFF+H3C, Jaffna, Sri Lanka	43.271183	#CenterFarFromPolice	යාපනය	වැල්වැටිතුරෙයි	වෙට්ලෙයිකර්නි පරමේෂ්වර විද්‍යාලය	யாழ்	வல்வெட்டித்துறை	வெட்டிலைகர்னி பரமேஸ்வரா வித்யாலயம்	HFFF+H3C, යාපනය, ශ්‍රී ලංකාව	HFFF+H3C, யாழ்ப்பாணம், இலங்கை
Jaffna	Wadukkotte	MOH Office – Chankanai	False	False	JFFNWDKKTTMHFFCCHNKN		Jaffna	LK-41	9.691792	80.098594	Vaddukoddai		9.728886	79.947771	9.753617	79.976004	QX3G+CCR, Sri Lanka	4.140836		යාපනය	වඩුක්කෝට්ටේ	MOH කාර්යාලය - චංකනායි	யாழ்	வட்டுக்கோட்டை	MOH அலுவலகம் - சங்கனை	QX3G+CCR, ශ්‍රී ලංකාව	QX3G+CCR, இலங்கை
Jaffna	Achchuveli	Achchuveli Hospital	False	False	JFFNCHCHVLCHCHVLHSPTL		Jaffna	LK-41	9.691792	80.098594	Achchuweli	PS-410103	6.934132	79.856305	9.772721	80.115501	Avarankal-Tondaimanar Rd, Sri Lanka	317.021383	#CenterFarFromPolice	යාපනය	අච්චුවේලි	අච්චුවේලි රෝහල	யாழ்	அச்சுவேலி	அச்சுவேலி மருத்துவமனை	අවරන්කල්-තොණ්ඩයිමානර් පාර, ශ්‍රී ලංකාව	அவரங்கால்-தொண்டைமானார் சாலை, இலங்கை
Jaffna	Kayts	MOH Office – Karainagar	False	False	JFFNKYTSMHFFCKRNGR		Jaffna	LK-41	9.691792	80.098594	Kayts	PS-410212	9.728654	79.94775	9.725097	79.99772	Sri Lanka, Manipay, Sri Lanka	5.492521		යාපනය	කයිට්ස්	MOH කාර්යාලය - කරෙයිනගර්	யாழ்	ஊர்காவற்துறையினர்	MOH அலுவலகம் - காரைநகர்	ශ්‍රී ලංකාව, මනිපායි, ශ්‍රී ලංකාව	இலங்கை, மானிப்பாய், இலங்கை
Jaffna	Kayts	MOH Office – Valanai	False	False	JFFNKYTSMHFFCVLN		Jaffna	LK-41	9.691792	80.098594	Kayts	PS-410212	9.728654	79.94775	9.636317	79.903777	Chatty vangkalvady road, Velanai, Sri Lanka	11.346015		යාපනය	කයිට්ස්	MOH කාර්යාලය - වලනායි	யாழ்	ஊர்காவற்துறையினர்	MOH அலுவலகம் - வளணை	චැටි වංගල්වඩි පාර, වෙලනායි, ශ්‍රී ලංකාව	சட்டி வாங்கல்வாடி சாலை, வேலணை, இலங்கை
Jaffna	Kayts	Thampadi Community Hall	False	False	JFFNKYTSTHMPDCMMNTYHLL		Jaffna	LK-41	9.691792	80.098594	Kayts	PS-410212	9.728654	79.94775	9.692334	79.870598	MVRC+W6Q, Kayts, Sri Lanka	9.373864		යාපනය	කයිට්ස්	තම්පාඩි ප්‍රජා ශාලාව	யாழ்	ஊர்காவற்துறையினர்	தம்பாடி சமுதாயக் கூடம்	MVRC+W6Q, කයිට්ස්, ශ්‍රී ලංකාව	MVRC+W6Q, ஊர்காவற்துறை, இலங்கை
Jaffna	Kayts	MOH Office – Kayts	False	False	JFFNKYTSMHFFCKYTS		Jaffna	LK-41	9.691792	80.098594	Kayts	PS-410212	9.728654	79.94775	9.697759	79.866366	Sri Lanka, Kayts, Sri Lanka	9.561445		යාපනය	කයිට්ස්	MOH කාර්යාලය - කයිට්ස්	யாழ்	ஊர்காவற்துறையினர்	MOH அலுவலகம் - ஊர்காவற்துறை	ශ්‍රී ලංකාව, කයිට්ස්, ශ්‍රී ලංකාව	இலங்கை, ஊர்காவற்துறை, இலங்கை
Jaffna	Chavakachcheri	Golden Jubilee Hall	False	False	JFFNCHVKCHCHRGLDNJBLHLL		Jaffna	LK-41	9.691792	80.098594	Chawakachcheri	PS-410215	9.666459	80.132384	9.659136	80.160946	M556+M94, Chavakachcheri, Sri Lanka	3.236063		යාපනය	චාවකච්චේරි	ස්වර්ණ ජුබිළි ශාලාව	யாழ்	சாவகச்சேரி	கோல்டன் ஜூபிலி ஹால்	එම් 556+එම් 94, චාවකච්චේරි, ශ්‍රී ලංකාව	M556+M94, சாவகச்சேரி, இலங்கை
Kilinochchi	Kilinochchi	MOH Office – Kanadawala	False	False	KLNCHCHKLNCHCHMHFFCKNDWL		Kilinochchi	LK-45	9.415742	80.30358	Kilinochchi	PS-450131	9.392265	80.407846	9.396965	80.407782	Kandy - Jaffna Hwy, Kilinochchi, Sri Lanka	0.522827		කිලිනොච්චි	කිලිනොච්චි	MOH කාර්යාලය - කැනඩවල	கிளிநொச்சி	கிளிநொச்சி	MOH அலுவலகம் - கனடாவாலா	මහනුවර - යාපනය හ්වි, කිලිනොච්චි, ශ්‍රී ලංකාව	கண்டி - யாழ்ப்பாணம், கிளிநொச்சி, இலங்கை
Kilinochchi	Kilinochchi	MOH Office - Karachchi	False	False	KLNCHCHKLNCHCHMHFFCKRCHCH		Kilinochchi	LK-45	9.415742	80.30358	Kilinochchi	PS-450131	9.392265	80.407846	9.396965	80.407782	Kandy - Jaffna Hwy, Kilinochchi, Sri Lanka	0.522827		කිලිනොච්චි	කිලිනොච්චි	MOH කාර්යාලය - කරච්චි	கிளிநொச்சி	கிளிநொச்சி	MOH அலுவலகம் - கராச்சி	මහනුවර - යාපනය හ්වි, කිලිනොච්චි, ශ්‍රී ලංකාව	கண்டி - யாழ்ப்பாணம், கிளிநொச்சி, இலங்கை
Kilinochchi	Kilinochchi	MOH Office - Punakar	False	False	KLNCHCHKLNCHCHMHFFCPNKR		Kilinochchi	LK-45	9.415742	80.30358	Kilinochchi	PS-450131	9.392265	80.407846	9.396965	80.407782	Kandy - Jaffna Hwy, Kilinochchi, Sri Lanka	0.522827		කිලිනොච්චි	කිලිනොච්චි	MOH කාර්යාලය - පුනාකාර්	கிளிநொச்சி	கிளிநொச்சி	MOH அலுவலகம் - புனகர்	මහනුවර - යාපනය හ්වි, කිලිනොච්චි, ශ්‍රී ලංකාව	கண்டி - யாழ்ப்பாணம், கிளிநொச்சி, இலங்கை
Kilinochchi	Kilinochchi	MOH Office – Palai	False	False	KLNCHCHKLNCHCHMHFFCPL		Kilinochchi	LK-45	9.415742	80.30358	Kilinochchi	PS-450131	9.392265	80.407846	7.330938	80.29484	06 A6, Polgahawela, Sri Lanka	229.618032	#CenterFarFromPolice	කිලිනොච්චි	කිලිනොච්චි	MOH කාර්යාලය - පලෙයි	கிளிநொச்சி	கிளிநொச்சி	MOH அலுவலகம் - பாளை	06 ඒ 6, පොල්ගහවෙල, ශ්‍රී ලංකාව	06 A6, பொல்கஹவெல, இலங்கை
Kilinochchi	Pooneryn	MOH Office – Pooneryn	False	False	KLNCHCHPNRYNMHFFCPNRYN		Kilinochchi	LK-45	9.415742	80.30358	Pooneryn		9.505717	80.21101	9.507968	80.208317	G655+58P, Pooneryn, Sri Lanka	0.387256		කිලිනොච්චි	පුනරීන්	MOH කාර්යාලය - පුනරීන්	கிளிநொச்சி	பூனெரின்	MOH அலுவலகம் - பூனெரின்	ජී 655+58 පී, පූනරීන්, ශ්‍රී ලංකාව	G655+58P, பூனெரின், இலங்கை
Kilinochchi	Pooneryn	Mukkampan Family Health Services Office	False	False	KLNCHCHPNRYNMKKMPNFMLYHLTHSRVCSFFC		Kilinochchi	LK-45	9.415742	80.30358	Pooneryn		9.505717	80.21101	9.396965	80.407782	Kandy - Jaffna Hwy, Kilinochchi, Sri Lanka	24.747612	#CenterFarFromPolice	කිලිනොච්චි	පුනරීන්	මුක්කම්පන් පවුල් සෞඛ්‍ය සේවා කාර්‍යයාලය	கிளிநொச்சி	பூனெரின்	முக்கம்பன் குடும்ப சுகாதார சேவைகள் அலுவலகம்	මහනුවර - යාපනය හ්වි, කිලිනොච්චි, ශ්‍රී ලංකාව	கண்டி - யாழ்ப்பாணம், கிளிநொச்சி, இலங்கை
Kilinochchi	Jayapuram	Jayapuram Hospital	False	False	KLNCHCHJYPRMJYPRMHSPTL		Kilinochchi	LK-45	9.415742	80.30358	Jayapuram		9.312838	80.159865	9.372728	80.411786	Ananthapuram, A9, Kilinochchi, Sri Lanka	28.440585	#CenterFarFromPolice	කිලිනොච්චි	ජයපුරම්	ජයපුරම් රෝහල	கிளிநொச்சி	ஜெயபுரம்	ஜெயபுரம் மருத்துவமனை	අනන්තරපුරම්, ඒ 9, කිලිනොච්චිය, ශ්‍රී ලංකාව	அனந்தபுரம், ஏ 9, கிளிநொச்சி, இலங்கை
Kilinochchi	Mulankavil	Mulankavil Hospital	False	False	KLNCHCHMLNKVLMLNKVLHSPTL		Kilinochchi	LK-45	9.415742	80.30358	Mulankavil	PS-450135	9.254463	80.141528	9.243423	80.143894	Base Hospital Mulankavil, A32 Road, Mulankavil, Kumulamunai, Sri Lanka	1.255148		කිලිනොච්චි	මුලංකාවිල්	මුලංකාවිල් රෝහල	கிளிநொச்சி	முழங்காவில்	முழங்காவில் மருத்துவமனை	මුලික රෝහල මුලංකාවිල්, ඒ 32 පාර, මුලංකාවිල්, කුමුලමුනෙයි, ශ්‍රී ලංකාව	அடிப்படை மருத்துவமனை முழங்காவில், A32 சாலை, முழங்காவில், குமுலமுனை, இலங்கை
Mullaitivu	Welioya	Sri Mayuravapi Viharaya	False	False	MLLTVWLYSRMYRVPVHRY		Mullaitivu	LK-44	9.167643	80.549091	Welioya	PS-440152	8.980582	80.773572	8.9862	80.824066	XRPF+FJP, Welioya, Sri Lanka	5.58263		මුලතිව්	වැලිඔය	ශ්‍රී මයුරවාපි විහාරය	முல்லைத்தீவு	வெலிஓயா	ஸ்ரீ மயூரவாபி விஹாராயா	XRPF+FJP, වැලිඔය, ශ්‍රී ලංකාව	XRPF+FJP, வெலிஓயா, இலங்கை
Mullaitivu	Mullaitivu	Unnapilavu Hospital	False	False	MLLTVMLLTVNNPLVHSPTL		Mullaitivu	LK-44	9.167643	80.549091	Mullativu	PS-440148	9.212825	80.760159	9.26205	80.81366	Unnappulavu, Mullaitivu, Sri Lanka	8.029915		මුලතිව්	මුලතිව්	උන්නපිලව් රෝහල	முல்லைத்தீவு	முல்லைத்தீவு	உன்னபிலவு மருத்துவமனை	උන්නප්පුලවු, මුලතිව්, ශ්‍රී ලංකාව	உன்னப்புலவு, முல்லைத்தீவு, இலங்கை
Mullaitivu	Puthukudiyiruppu	Puthukudiyiruppu Bharathi Vidyalaya	False	False	MLLTVPTHKDYRPPPTHKDYRPPBHRTHVDYLY		Mullaitivu	LK-44	9.167643	80.549091	Pudukuduiruppu	PS-440149	7.00152	79.95003	9.31067	80.699589	8M6X+7R8, Puthukkudiyiruppu, Sri Lanka	269.778207	#CenterFarFromPolice	මුලතිව්	පුදුකුඩියිරුප්පු	පුදුකුඩියිරුප්පු භාරතී විද්‍යාලය	முல்லைத்தீவு	புதுக்குடியிருப்பு	புதுக்குடியிருப்பு பாரதி வித்தியாலயம்	8M6X+7R8, පුදුක්කුඩියිරුප්පු, ශ්‍රී ලංකාව	8M6X+7R8, புதுக்குடியிருப்பு, இலங்கை
Mullaitivu	Puthukudiyiruppu	Mungilaru Primary School	False	False	MLLTVPTHKDYRPPMNGLRPRMRYSCHL		Mullaitivu	LK-44	9.167643	80.549091	Pudukuduiruppu	PS-440149	7.00152	79.95003	9.322944	80.702342	Puthukkudiyiruppu-Mathalan Rd, Puthukkudiyiruppu, Sri Lanka	271.170338	#CenterFarFromPolice	මුලතිව්	පුදුකුඩියිරුප්පු	මුංගිලාරු ප්‍රාථමික විද්‍යාලය	முல்லைத்தீவு	புதுக்குடியிருப்பு	முங்கிலாறு தொடக்கப்பள்ளி	පුදුක්කුඩියිරුප්පු-මාතලන් පාර, පුදුක්කුඩියිරුප්පු, ශ්‍රී ලංකාව	புதுக்குடியிருப்பு-மாத்தலன் சாலை, புதுக்குடியிருப்பு, இலங்கை
Mullaitivu	Puthukudiyiruppu	Devipuram Treatment Centre	False	False	MLLTVPTHKDYRPPDVPRMTRTMNTCNTR		Mullaitivu	LK-44	9.167643	80.549091	Pudukuduiruppu	PS-440149	7.00152	79.95003	9.313637	80.696168	Puthukudiyiruppu, Sri Lanka	269.977487	#CenterFarFromPolice	මුලතිව්	පුදුකුඩියිරුප්පු	දෙවිපුරම් ප්‍රතිකාර මධ්‍යස්ථානය	முல்லைத்தீவு	புதுக்குடியிருப்பு	தேவிபுரம் சிகிச்சை மையம்	පුදුකුඩියිරුප්පු, ශ්‍රී ලංකාව	புதுக்குடியிருப்பு, இலங்கை
Mullaitivu	Puthukudiyiruppu	Sri Subramaniyam Vidyalaya	False	False	MLLTVPTHKDYRPPSRSBRMNYMVDYLY		Mullaitivu	LK-44	9.167643	80.549091	Pudukuduiruppu	PS-440149	7.00152	79.95003	9.314562	80.696594	8M7W+RJG, Puthukkudiyiruppu, Sri Lanka	270.089737	#CenterFarFromPolice	මුලතිව්	පුදුකුඩියිරුප්පු	ශ්‍රී සුබ්‍රමනියම් විද්‍යාලය	முல்லைத்தீவு	புதுக்குடியிருப்பு	ஸ்ரீ சுப்பிரமணியம் வித்யாலயா	8M7W+ආර්ජේජී, පුදුක්කුඩියිරුප්පු, ශ්‍රී ලංකාව	8M7W+RJG, புதுக்குடியிருப்பு, இலங்கை
Mullaitivu	Mulliyawalai	Mulliyawalai Vidyananda Vidyalaya	False	False	MLLTVMLLYWLMLLYWLVDYNNDVDYLY		Mullaitivu	LK-44	9.167643	80.549091	Muliyaweli	PS-440150	6.915266	79.87829	9.224239	80.774541	6QFF+MRV, Tanniyutttu, Sri Lanka	275.137621	#CenterFarFromPolice	මුලතිව්	මුල්ලියාවලෙයි	මුල්ලියවලෙයි විද්‍යානන්ද විද්‍යාලය	முல்லைத்தீவு	முள்ளியவளை	முள்ளியவளை வித்யானந்தா வித்தியாலயம்	6QFF+එම්ආර්වී, තනියූත්තු, ශ්‍රී ලංකාව	6QFF+MRV, தன்னியூட்டு, இலங்கை
Mullaitivu	Oddusuddan	MOH Office – Oddusuddan	False	False	MLLTVDDSDDNMHFFCDDSDDN		Mullaitivu	LK-44	9.167643	80.549091	Oddusudan	PS-440151	9.160983	80.652821	9.162816	80.661584	5M76+4JG, Oddusuddan, Sri Lanka	0.983634		මුලතිව්	ඔඩ්ඩුසුඩාන්	MOH කාර්යාලය - ඔඩ්ඩුසුඩාන්	முல்லைத்தீவு	ஒட்டுசுட்டான்	MOH அலுவலகம் - ஒட்டுசுட்டான்	5 එම් 76+4 ජේජී, ඔඩ්ඩුසුඩාන්, ශ්‍රී ලංකාව	5M76+4JG, ஒட்டுசுட்டான், இலங்கை
Mullaitivu	Mallavi	Anichchankulam Tamil Maha Vidyalaya	False	False	MLLTVMLLVNCHCHNKLMTMLMHVDYLY		Mullaitivu	LK-44	9.167643	80.549091	Mallavi	PS-440153	9.137878	80.307257	9.130417	80.307209	Hospital road mallavi mullaitivu, 42000, Sri Lanka	0.829903		මුලතිව්	මල්ලාවි	අනිච්චන්කුලම් දෙමළ මහා විද්‍යාලය	முல்லைத்தீவு	மல்லவி	அனிச்சங்குளம் தமிழ் மகா வித்தியாலயம்	රෝහල් පාර මල්ලාවි මුලතිව්, 42000, ශ්‍රී ලංකාව	மருத்துவமனை சாலை மல்லாவி முல்லைத்தீவு, 42000, இலங்கை
Mullaitivu	Mankulam	Nattankandal Hospital	False	False	MLLTVMNKLMNTTNKNDLHSPTL		Mullaitivu	LK-44	9.167643	80.549091	Mankulam	PS-440147	9.124606	80.448404	9.12782	80.447093	A9, Mankulam, Sri Lanka	0.385396		මුලතිව්	මාන්කුලම්	නාත්තන්කන්දල් රෝහල	முல்லைத்தீவு	மாங்குளம்	நாட்டங்கண்டல் மருத்துவமனை	ඒ 9, මාන්කුලම්, ශ්‍රී ලංකාව	ஏ 9, மாங்குளம், இலங்கை
Mullaitivu	Mankulam	Mankulam Hospital	False	False	MLLTVMNKLMMNKLMHSPTL		Mullaitivu	LK-44	9.167643	80.549091	Mankulam	PS-440147	9.124606	80.448404	9.12782	80.447093	A9, Mankulam, Sri Lanka	0.385396		මුලතිව්	මාන්කුලම්	මාන්කුලම් රෝහල	முல்லைத்தீவு	மாங்குளம்	மாங்குளம் மருத்துவமனை	ඒ 9, මාන්කුලම්, ශ්‍රී ලංකාව	ஏ 9, மாங்குளம், இலங்கை
Mannar	Adampan	MOH Office – Adampan	False	False	MNNRDMPNMHFFCDMPN		Mannar	LK-42	8.877429	80.088628	Adampan		8.939451	80.002055	8.944842	79.996862	WXVW+WPQ, Adampan, Sri Lanka	0.827737		මන්නාරම	අඩම්පන්	එම්ඕඑච් කාර්යාලය - අඩම්පන්	மன்னார்	அடம்பன்	MOH அலுவலகம் - அடம்பன்	WXVW+WPQ, අඩම්පන්, ශ්‍රී ලංකාව	WXVW+WPQ, அடம்பன், இலங்கை
Mannar	Mannar	Siththi Vinayakar Hindu College	False	False	MNNRMNNRSTHTHVNYKRHNDCLLG		Mannar	LK-42	8.877429	80.088628	Mannar	PS-420138	8.978123	79.911642	8.97968	79.919795	Pallimunai Rd, Mannar, Sri Lanka	0.912332		මන්නාරම	මන්නාරම	සිත්ති විනයකර් හින්දු විද්‍යාලය	மன்னார்	மன்னார்	சித்தி விநாயகர் இந்து கல்லூரி	පල්ලිමුනෙයි පාර, මන්නාරම, ශ්‍රී ලංකාව	பள்ளிமுனை வீதி, மன்னார், இலங்கை
Mannar	Mannar	RDHS Office	False	False	MNNRMNNRRDHSFFC		Mannar	LK-42	8.877429	80.088628	Mannar	PS-420138	8.978123	79.911642	8.983382	79.902565	Thalvupadu - Mannar Rd, Mannar 41000, Sri Lanka	1.156155		මන්නාරම	මන්නාරම	ආර්ඩීඑච්එස් කාර්යාලය	மன்னார்	மன்னார்	RDHS அலுவலகம்	තල්වුපාඩු - මන්නාරම පාර, මන්නාරම 41000, ශ්‍රී ලංකාව	தல்வுபடு - மன்னார் சாலை, மன்னார் 41000, இலங்கை
Mannar	Mannar	J J Mills	False	False	MNNRMNNRJJMLLS		Mannar	LK-42	8.877429	80.088628	Mannar	PS-420138	8.978123	79.911642	8.992898	79.902285	Sinnakadai, Sri Lanka	1.93846		මන්නාරම	මන්නාරම	ජේ ජේ මිල්ස්	மன்னார்	மன்னார்	ஜே ஜே மில்ஸ்	සින්නකඩයි, ශ්‍රී ලංකාව	சின்னக்கடை, இலங்கை
Mannar	Murunkan	De La Salle School - Nanatton MOH	False	False	MNNRMRNKNDLSLLSCHLNNTTNMH		Mannar	LK-42	8.877429	80.088628	Murunkan	PS-420143	8.838186	80.038298	6.962404	79.86236	De La Salle St, Colombo, Sri Lanka	209.541319	#CenterFarFromPolice	මන්නාරම	මුරුන්කන්	ද ලා සැලේ පාසල - නැනටන් MOH	மன்னார்	முருங்கன்	டி லா சாலே பள்ளி - நானாட்டன் MOH	ද ලා සැලේ ශාන්ත, කොළඹ, ශ්‍රී ලංකාව	டி லா சாலே செயின்ட், கொழும்பு, இலங்கை
Mannar	Silawathura	Marichchukaddy Al Jazeer School	False	False	MNNRSLWTHRMRCHCHKDDYLJZRSCHL		Mannar	LK-42	8.877429	80.088628	Silawathura	PS-420139	6.891461	79.856199	8.756592	79.947031	South-Coast Rd, Silavathurai, Sri Lanka	207.699502	#CenterFarFromPolice	මන්නාරම	සිලාවතුර	මරිච්චුකඩි අල් ජසීර් පාසල	மன்னார்	சிலவத்துரா	மரிச்சுகட்டி அல் ஜசீர் பள்ளி	දකුණු වෙරළ පාර, සිලාවතුරේ, ශ්‍රී ලංකාව	தென்-கடற்கரை சாலை, சிலவத்துரை, இலங்கை
Mannar	Vavunia	Mobile Medical Team	False	False	MNNRVVNMBLMDCLTM		Mannar	LK-42	8.877429	80.088628	Vavuniya	PS-430119	8.754431	80.498604					#CenterLocationUnknown	මන්නාරම	වවුනියාව	ජංගම වෛද්‍ය කණ්ඩායම	மன்னார்	வவுனியா	மொபைல் மருத்துவ குழு		
Trincomalee	Muttur	MOH Office – Muttur	False	False	TRNCMLMTTRMHFFCMTTR		Trincomalee	LK-53	8.551241	81.092014	Mutur	PS-530138	8.461133	81.259371	8.453916	81.264494	1 Old Batticaloa Rd, Mutur, Sri Lanka	0.980859		ත්රිකුණාමලය	මුතූර්	MOH කාර්යාලය - මුතූර්	திருகோணமலை	மூதூர்	MOH அலுவலகம் - மூதூர்	1 පරණ මඩකලපුව පාර, මුතූර්, ශ්‍රී ලංකාව	1 பழைய மட்டக்களப்பு வீதி, மூதூர், இலங்கை
Trincomalee	Kinniya	MOH Office – Kurungnakeni	False	False	TRNCMLKNNYMHFFCKRNGNKN		Trincomalee	LK-53	8.551241	81.092014	Kinnia	PS-530140	6.907289	79.863819	7.484932	80.353119	F9M3+X6H, Kurunegala 60000, Sri Lanka	83.927094	#CenterFarFromPolice	ත්රිකුණාමලය	කින්නියා	එම්ඕඑච් කාර්යාලය - කුරුංග්ණකේනි	திருகோணமலை	கிண்ணியா	MOH அலுவலகம் - குருங்நகேணி	F9M3+X6H, කුරුණෑගල 60000, ශ්‍රී ලංකාව	F9M3+X6H, குருநாகல் 60000, இலங்கை
Trincomalee	Kinniya	MOH Office – Kinniya	False	False	TRNCMLKNNYMHFFCKNNY		Trincomalee	LK-53	8.551241	81.092014	Kinnia	PS-530140	6.907289	79.863819	8.498696	81.179644	F5XH+FVC, Kinniya 31100, Sri Lanka	228.840304	#CenterFarFromPolice	ත්රිකුණාමලය	කින්නියා	MOH කාර්යාලය - කින්නියා	திருகோணமலை	கிண்ணியா	MOH அலுவலகம் - கிண்ணியா	F5XH+FVC, කින්නියා 31100, ශ්‍රී ලංකාව	F5XH+FVC, கிண்ணியா 31100, இலங்கை
Trincomalee	Sripura	MOH Office – Sripura	False	False	TRNCMLSRPRMHFFCSRPR		Trincomalee	LK-53	8.551241	81.092014	Sripura	PS-530136	8.929617	80.81428	8.926697	80.814799	Padavi Sripura, Padaviya - Sripura Road, Welioya, Sri Lanka	0.329869		ත්රිකුණාමලය	ශ්‍රීපුර	MOH කාර්යාලය - ශ්‍රීපුර	திருகோணமலை	ஸ்ரீபுரா	MOH அலுவலகம் - ஸ்ரீபுரா	පදවි ශ්‍රීපුර, පදවිය - ශ්‍රීපුර පාර, වැලිඔය, ශ්‍රී ලංකාව	படவி ஸ்ரீபுரா, படாவியா - ஸ்ரீபுரா சாலை, வெலிஓயா, இலங்கை
Trincomalee	Kuchchaveli	MOH Office – Kuchchaveli	False	False	TRNCMLKCHCHVLMHFFCKCHCHVL		Trincomalee	LK-53	8.551241	81.092014	Kuchchaweli	PS-530133	8.81895	81.100438	8.740082	81.161616	P5R6+2JQ, Kumpurupiddi, Sri Lanka	11.053646		ත්රිකුණාමලය	කුච්චවේලි	MOH කාර්යාලය - කුච්චවේලි	திருகோணமலை	குச்சவெளி	MOH அலுவலகம் - குச்சவெளி	P5R6+2JQ, කුඹුරුපිඩි, ශ්‍රී ලංකාව	P5R6+2JQ, கும்புறுப்பிடி, இலங்கை
Trincomalee	Kuchchaveli	Divisional Hospital – Kuchchaveli	False	False	TRNCMLKCHCHVLDVSNLHSPTLKCHCHVL		Trincomalee	LK-53	8.551241	81.092014	Kuchchaweli	PS-530133	8.81895	81.100438	8.814795	81.102358	R472+WW9, Kuchchaveli, Sri Lanka	0.508064		ත්රිකුණාමලය	කුච්චවේලි	ප්‍රාදේශීය රෝහල - කුච්චවේලි	திருகோணமலை	குச்சவெளி	பிரதேச மருத்துவமனை - குச்சவெளி	ආර් 472+WW9, කුච්චවේලි, ශ්‍රී ලංකාව	R472+WW9, குச்சவெளி, இலங்கை
Trincomalee	Kuchchaveli	Divisional Hospital – Nilaveli	False	False	TRNCMLKCHCHVLDVSNLHSPTLNLVL		Trincomalee	LK-53	8.551241	81.092014	Kuchchaweli	PS-530133	8.81895	81.100438	8.681035	81.193632	M5JV+CF6, Nilaveli, Sri Lanka	18.44695		ත්රිකුණාමලය	කුච්චවේලි	ප්‍රාදේශීය රෝහල - නිලාවේලි	திருகோணமலை	குச்சவெளி	பிரதேச மருத்துவமனை - நிலாவெளி	M5JV+CF6, නිලාවේලි, ශ්‍රී ලංකාව	M5JV+CF6, நிலவேலி, இலங்கை
Trincomalee	Pulmoddai	Base Hospital -Pulmoddai	False	False	TRNCMLPLMDDBSHSPTLPLMDD		Trincomalee	LK-53	8.551241	81.092014	Pulmudai	PS-530135	6.915266	79.87829	8.941204	80.983139	WXRM+F7J, Pulmoddai, Sri Lanka	256.112801	#CenterFarFromPolice	ත්රිකුණාමලය	පුල්මොඩෙයි	මූලික රෝහල -පුල්මොඩෙයි	திருகோணமலை	புல்மோட்டை	அடிப்படை மருத்துவமனை -புல்மோடை	ඩබ්ලිව්එක්ස්ආර්එම්+එෆ් 7 ජේ, පුල්මොඩෙයි, ශ්‍රී ලංකාව	WXRM+F7J, புல்மோடை, இலங்கை
Trincomalee	Serunuwara	MOH Office – Serunuwara	False	False	TRNCMLSRNWRMHFFCSRNWR		Trincomalee	LK-53	8.551241	81.092014	Serunuwara	PS-530244	8.321863	81.299322	8.323143	81.299894	B10, Sri Lanka	0.155671		ත්රිකුණාමලය	සේරුනුවර	MOH කාර්යාලය - සේරුනුවර	திருகோணமலை	சேருநுவரா	MOH அலுவலகம் - சேருநுவரா	බී 10, ශ්‍රී ලංකාව	பி 10, இலங்கை
Trincomalee	Harbour Police	MOH Office – Trincomalee	False	False	TRNCMLHRBRPLCMHFFCTRNCML		Trincomalee	LK-53	8.551241	81.092014	Trinco Harbour Police	PS-530131	8.56705	81.231407	8.598974	81.216963	MOH Office, Farm Rd, Trincomalee, Sri Lanka	3.890062		ත්රිකුණාමලය	වරාය පොලිසිය	එම්ඕඑච් කාර්යාලය - ත්‍රිකුණාමලය	திருகோணமலை	துறைமுக காவல்துறை	MOH அலுவலகம் - திருகோணமலை	එම්ඕඑච් කාර්යාලය, ගොවිපල පාර, ත්‍රිකුණාමලය, ශ්‍රී ලංකාව	MOH அலுவலகம், பண்ணை சாலை, திருகோணமலை, இலங்கை
Trincomalee	Harbour Police	Base Hospital – Trincomalee	False	False	TRNCMLHRBRPLCBSHSPTLTRNCML		Trincomalee	LK-53	8.551241	81.092014	Trinco Harbour Police	PS-530131	8.56705	81.231407	8.56486	81.239445	Hospital Ln, Trincomalee, Sri Lanka	0.917037		ත්රිකුණාමලය	වරාය පොලිසිය	මූලික රෝහල - ත්‍රිකුණාමලය	திருகோணமலை	துறைமுக காவல்துறை	அடிப்படை மருத்துவமனை - திருகோணமலை	රෝහල, ත්‍රිකුණාමලය, ශ්‍රී ලංකාව	மருத்துவமனை Ln, திருகோணமலை, இலங்கை
Trincomalee	Uppuveli	MOH Office - Uppuveli	False	False	TRNCMLPPVLMHFFCPPVL		Trincomalee	LK-53	8.551241	81.092014	Uppuweli	PS-530134	8.593614	81.21743	8.607961	81.216512	Nilaveli Rd, Trincomalee, Sri Lanka	1.599005		ත්රිකුණාමලය	උප්පුවේලි	MOH කාර්යාලය - උප්පුවේලි	திருகோணமலை	உப்புவேலி	MOH அலுவலகம் - உப்புவேலி	නිලාවේලි පාර, ත්‍රිකුණාමලය, ශ්‍රී ලංකාව	நிலவேலி வீதி, திருகோணமலை, இலங்கை
Trincomalee	Kantale	MOH Office - Kantale	False	False	TRNCMLKNTLMHFFCKNTL		Trincomalee	LK-53	8.551241	81.092014	Kantale	PS-530241	8.356129	81.007739	8.349617	81.009107	අග්‍රබෝධි මාවත, Kantale, Sri Lanka	0.739809		ත්රිකුණාමලය	කන්තලේ	MOH කාර්යාලය - කන්තලේ	திருகோணமலை	கந்தலே	MOH அலுவலகம் - கந்தலே	වැඩි දියුණු කිරීම මාවත, කන්තලේ, ශ්‍රී ලංකාව	தீவிரப்படுத்தி மாவத்த, கந்தலே, இலங்கை
Trincomalee	Ichchalampattu	MOH Office – Ichchalampattu	False	False	TRNCMLCHCHLMPTTMHFFCCHCHLMPTT	Eachchilampattu Hospital	Trincomalee	LK-53	8.551241	81.092014	Ichchalampattu		8.289549	81.359002	8.289644	81.358983	Highway, Ichchalampattu, Trincomalee, Sri Lanka	0.010772		ත්රිකුණාමලය	ඉච්චලම්පත්තු	එක්ර්චිලම්පත්තු රෝහල	திருகோணமலை	இச்சலம்பட்டு	ஒவ்வொருசிலம்பட்டு மருத்துவமனை	අධිවේගී මාර්ගය, ඉච්චලම්පත්තු, ත්‍රිකුණාමලය, ශ්‍රී ලංකාව	நெடுஞ்சாலை, ஈச்சலாம்பட்டு, திருகோணமலை, இலங்கை
Trincomalee	Ichchalampattu	Sanpaha Vidyalaya	False	False	TRNCMLCHCHLMPTTSNPHVDYLY		Trincomalee	LK-53	8.551241	81.092014	Ichchalampattu		8.289549	81.359002	8.653949	81.21274	M637+H3H, Trincomalee, Sri Lanka	43.609409	#CenterFarFromPolice	ත්රිකුණාමලය	ඉච්චලම්පත්තු	සන්පහා විද්‍යාලය	திருகோணமலை	இச்சலம்பட்டு	சன்பஹா வித்யாலயா	M637+H3H, ත්‍රිකුණාමලය, ශ්‍රී ලංකාව	M637+H3H, திருகோணமலை, இலங்கை
Trincomalee	Thambalagamuwa	MOH Office - Thambalagamuwa	False	False	TRNCMLTHMBLGMWMHFFCTHMBLGMW		Trincomalee	LK-53	8.551241	81.092014	Thambalagamuva	PS-530243	6.907289	79.863819	8.563603	81.239584	Hospital Ln, Trincomalee, Sri Lanka	238.604889	#CenterFarFromPolice	ත්රිකුණාමලය	තඹලගමුව	MOH කාර්යාලය - තඹලගමුව	திருகோணமலை	தம்பலகாமுவா	MOH அலுவலகம் - தம்பலகமுவ	රෝහල, ත්‍රිකුණාමලය, ශ්‍රී ලංකාව	மருத்துவமனை Ln, திருகோணமலை, இலங்கை
Trincomalee	Gomarankadawala	MOH Office – Gomarankadawala	False	False	TRNCMLGMRNKDWLMHFFCGMRNKDWL		Trincomalee	LK-53	8.551241	81.092014	Gomarankadawala	PS-530248	8.674487	80.967555	8.674726	80.955691	Unnamed Road, Gomarankadawala, Sri Lanka	1.304806		ත්රිකුණාමලය	ගෝමරන්කඩවල	එම්ඕඑච් කාර්යාලය - ගෝමරන්කඩවල	திருகோணமலை	கோமரன்கடவாலா	MOH அலுவலகம் - கோமரன்கடவாலா	නම් නොකළ පාර, ගෝමරන්කඩවල, ශ්‍රී ලංකාව	பெயரிடப்படாத சாலை, கோமரன்கடவாலா, இலங்கை
Batticaloa	Batticaloa	Mobile Medical Team	False	False	BTTCLBTTCLMBLMDCLTM		Batticaloa	LK-51	7.792772	81.486513	Batticaloa	PS-510101	7.717949	81.699294					#CenterLocationUnknown	මඩකලපුව	මඩකලපුව	ජංගම වෛද්‍ය කණ්ඩායම	மட்டக்களப்பு	மட்டக்களப்பு	மொபைல் மருத்துவ குழு		
Batticaloa	Kokkadicholai	MOH Office – Kokkadicholai	False	False	BTTCLKKKDCHLMHFFCKKKDCHL		Batticaloa	LK-51	7.792772	81.486513	Kokkadicholai	PS-510112	7.715979	81.698757	7.607311	81.712525	Kokkaddicholai, Batticaloa, Sri Lanka	12.18204		මඩකලපුව	කොක්කඩිචෝලේ	MOH කාර්යාලය - කොක්කඩිචෝලේ	மட்டக்களப்பு	கொக்கடிச்சோலை	MOH அலுவலகம் - கொக்கட்டிச்சோலை	කොක්කඩිචෝලේ, මඩකලපුව, ශ්‍රී ලංකාව	கொக்கட்டிச்சோலை, மட்டக்களப்பு, இலங்கை
Batticaloa	Vellawali	Kalaimagal Vidyalaya	False	False	BTTCLVLLWLKLMGLVDYLY		Batticaloa	LK-51	7.792772	81.486513	Vellavali	PS-510111	6.907289	79.863819	7.503251	81.730235	Ampilanturai-Veeramunai Rd, Sri Lanka	216.365388	#CenterFarFromPolice	මඩකලපුව	වෙල්ලවාලි	කලෙයිමාගල් විද්‍යාලය	மட்டக்களப்பு	வெல்லவாலி	கலைமகள் வித்யாலயா	අම්පිලතුරෙයි-වීරමුණේ පාර, ශ්‍රී ලංකාව	அம்பிலந்துறை-வீரமுனை சாலை, இலங்கை
Batticaloa	Valachchenai	Valachchenai Base Hospital	False	False	BTTCLVLCHCHNVLCHCHNBSHSPTL		Batticaloa	LK-51	7.792772	81.486513	Valachchanai	PS-510107	7.908015	81.533004	7.911315	81.533046	Valaichchenai-Nasuvantivu-Navaladi Road, Sri Lanka	0.367088		මඩකලපුව	වාලච්චේන	වාලච්චේන මූලික රෝහල	மட்டக்களப்பு	வாலாச்சேனை	வாலாச்சேனை ஆதார மருத்துவமனை	වාලච්චේනයි-නසුවන්ටිව්-නවාලාඩි පාර, ශ්‍රී ලංකාව	வாழைச்சேனை-நசுவந்திவு-நாவலடி சாலை, இலங்கை
Batticaloa	Valachchenai	MOH Office – Oddamavadi	False	False	BTTCLVLCHCHNMHFFCDDMVD		Batticaloa	LK-51	7.792772	81.486513	Valachchanai	PS-510107	7.908015	81.533004	7.912281	81.532775	WG6M+W46, Batticaloa, Sri Lanka	0.475177		මඩකලපුව	වාලච්චේන	එම්ඕඑච් කාර්යාලය - ඔද්දමවඩි	மட்டக்களப்பு	வாலாச்சேனை	MOH அலுவலகம் - ஓட்டமாவடி	WG6M+W46, මඩකලපුව, ශ්‍රී ලංකාව	WG6M+W46, மட்டக்களப்பு, இலங்கை
Batticaloa	Valachchenai	MOH Office - Koralepattu Central	False	False	BTTCLVLCHCHNMHFFCKRLPTTCNTRL		Batticaloa	LK-51	7.792772	81.486513	Valachchanai	PS-510107	7.908015	81.533004	7.922593	81.530022	Batticaloa, Sri Lanka	1.654455		මඩකලපුව	වාලච්චේන	MOH කාර්යාලය - කෝරළේපත්තු මධ්‍යම	மட்டக்களப்பு	வாலாச்சேனை	MOH அலுவலகம் - கோரலேப்பட்டு மத்திய	මඩකලපුව, ශ්‍රී ලංකාව	மட்டக்களப்பு, இலங்கை
Batticaloa	Valachchenai	MOH Office - Koralepattu	False	False	BTTCLVLCHCHNMHFFCKRLPTT		Batticaloa	LK-51	7.792772	81.486513	Valachchanai	PS-510107	7.908015	81.533004	7.922593	81.530022	WGFJ+22J, Sri Lanka	1.654455		මඩකලපුව	වාලච්චේන	MOH කාර්යාලය - කෝරළේපත්තු	மட்டக்களப்பு	வாலாச்சேனை	MOH அலுவலகம் - கோரலேபட்டு	WGFJ+22J, ශ්‍රී ලංකාව	WGFJ+22J, இலங்கை
Batticaloa	Valachchenai	MOH Office – Kiran	False	False	BTTCLVLCHCHNMHFFCKRN		Batticaloa	LK-51	7.792772	81.486513	Valachchanai	PS-510107	7.908015	81.533004	7.623441	81.717877	Muthalaikudah Kanchirankudah Rd, Sri Lanka	37.64378	#CenterFarFromPolice	මඩකලපුව	වාලච්චේන	MOH කාර්යාලය - කිරාන්	மட்டக்களப்பு	வாலாச்சேனை	MOH அலுவலகம் - கிரண்	මුතලෙයිකුඩා කාංචිරන්කුඩා පාර, ශ්‍රී ලංකාව	முத்தலைக்கூடா காஞ்சிரங்குடா சாலை, இலங்கை
Batticaloa	Vakarai	MOH Office - Vakarai	False	False	BTTCLVKRMHFFCVKR	Divisional Hospital Vakarai	Batticaloa	LK-51	7.792772	81.486513	Wakarai	PS-510109	6.934132	79.856305	8.134552	81.435328	Trincomalee Hwy, Vakarai, Sri Lanka	219.417822	#CenterFarFromPolice	මඩකලපුව	වාකරේ	වාකරේ ප්‍රාදේශීය රෝහල	மட்டக்களப்பு	வாகரை	வாகரை பிரதேச மருத்துவமனை	ත්‍රිකුණාමලය හ්වි, වාකරේ, ශ්‍රී ලංකාව	திருகோணமலை Hwy, வாகரை, இலங்கை
Batticaloa	Kaluwanchikudy	MOH Office – Kaluwanchikudy	False	False	BTTCLKLWNCHKDYMHFFCKLWNCHKDY	Medical Officer of Health Kaluwanchikudy	Batticaloa	LK-51	7.792772	81.486513	Kalawanchikudy	PS-510110	7.515908	81.787051	7.509333	81.79204	Colombo - Batticaloa Hwy, Kaluwanchikudy, Sri Lanka	0.915167		මඩකලපුව	කළුවන්චිකුඩි	කළුවන්චිකුඩි සෞඛ්‍ය වෛද්‍ය නිලධාරී	மட்டக்களப்பு	களுவாஞ்சிக்குடி	சுகாதார மருத்துவ அதிகாரி களுவாஞ்சிக்குடி	කොළඹ - මඩකලපුව හ්වි, කලුවාංචිකුඩි, ශ්‍රී ලංකාව	கொழும்பு - மட்டக்களப்பு Hwy, களுவாஞ்சிக்குடி, இலங்கை
Batticaloa	Vavunathivu	MOH Office - Vavunathivu	False	False	BTTCLVVNTHVMHFFCVVNTHV		Batticaloa	LK-51	7.792772	81.486513	Vavunathive	PS-510102	6.933075	79.857181	7.708253	81.691368	Hospital Rd, Batticaloa, Sri Lanka	219.95575	#CenterFarFromPolice	මඩකලපුව	වවුනතිව්	MOH කාර්යාලය - වවුනතිව්	மட்டக்களப்பு	வவுணதீவு	MOH அலுவலகம் - வவுணதீவு	රෝහල පාර, මඩකලපුව, ශ්‍රී ලංකාව	மருத்துவமனை சாலை, மட்டக்களப்பு, இலங்கை
Batticaloa	Vavunathivu	Pudumandapattadi Hospital	False	False	BTTCLVVNTHVPDMNDPTTDHSPTL		Batticaloa	LK-51	7.792772	81.486513	Vavunathive	PS-510102	6.933075	79.857181	7.708032	81.690622	Hospital Ln, Batticaloa 30000, Sri Lanka	219.870447	#CenterFarFromPolice	මඩකලපුව	වවුනතිව්	පුදුමණ්ඩපට්ටඩි රෝහල	மட்டக்களப்பு	வவுணதீவு	புதுமண்டப்பட்டி மருத்துவமனை	රෝහල, මඩකලපුව 30000, ශ්‍රී ලංකාව	மருத்துவமனை Ln, மட்டக்களப்பு 30000, இலங்கை
Batticaloa	Kattankudy	Kattankudy Base Hospital	False	False	BTTCLKTTNKDYKTTNKDYBSHSPTL		Batticaloa	LK-51	7.792772	81.486513	Kaththankudi	PS-510103	7.715979	81.698757	7.685147	81.739078	Dr Badhiudeen Mahmood Mawatha, Kattankudy, Sri Lanka	5.613752		මඩකලපුව	කාත්තන්කුඩි	කාත්තන්කුඩි මූලික රෝහල	மட்டக்களப்பு	காத்தான்குடி	காத்தான்குடி ஆதார மருத்துவமனை	ආචාර්ය බදියුදීන් මහමුද් මාවත, කාත්තාන්කුඩි, ශ්‍රී ලංකාව	டாக்டர் பதியுதீன் மஹ்மூத் மாவத்தை, காத்தான்குடி, இலங்கை
Batticaloa	Kattankudy	MOH Office – Kattankudy	False	False	BTTCLKTTNKDYMHFFCKTTNKDY		Batticaloa	LK-51	7.792772	81.486513	Kaththankudi	PS-510103	7.715979	81.698757	7.683586	81.730767	MPMJ+C8J, Kattankudy, Sri Lanka	5.042961		මඩකලපුව	කාත්තන්කුඩි	MOH කාර්යාලය - කාත්තන්කුඩි	மட்டக்களப்பு	காத்தான்குடி	MOH அலுவலகம் - காத்தான்குடி	එම්පීඑම්ජේ+සී 8 ජේ, කාත්තන්කුඩි, ශ්‍රී ලංකාව	MPMJ+C8J, காத்தான்குடி, இலங்கை
Batticaloa	Eravur	Sandiveli Hospital	False	False	BTTCLRVRSNDVLHSPTL		Batticaloa	LK-51	7.792772	81.486513	Eravur	PS-510104	7.715979	81.698757	7.777289	81.602853	Trincomalee Hwy, Eravur, Sri Lanka	12.578998		මඩකලපුව	එරාවුර්	සඳිවේලි රෝහල	மட்டக்களப்பு	ஏறாவூர்	சண்டிவேலி மருத்துவமனை	ත්‍රිකුණාමලය හ්වි, එරාවුර්, ශ්‍රී ලංකාව	திருகோணமலை Hwy, ஏறாவூர், இலங்கை
Batticaloa	Eravur	MOH Office – Eravur	False	False	BTTCLRVRMHFFCRVR		Batticaloa	LK-51	7.792772	81.486513	Eravur	PS-510104	7.715979	81.698757	7.783664	81.605626	QJM4+F76, Eravur, Sri Lanka	12.729342		මඩකලපුව	එරාවුර්	MOH කාර්යාලය - එරාවුර්	மட்டக்களப்பு	ஏறாவூர்	MOH அலுவலகம் - ஏறாவூர்	QJM4+F76, එරාවුර්, ශ්‍රී ලංකාව	QJM4+F76, ஏறாவூர், இலங்கை
Batticaloa	Eravur	MOH Office - Chenkaladi	False	False	BTTCLRVRMHFFCCHNKLD		Batticaloa	LK-51	7.792772	81.486513	Eravur	PS-510104	7.715979	81.698757	7.783599	81.593367	Trincomalee Hwy, Chenkaladi 30350, Sri Lanka	13.837876		මඩකලපුව	එරාවුර්	MOH කාර්යාලය - චෙන්කලාඩි	மட்டக்களப்பு	ஏறாவூர்	MOH அலுவலகம் - செங்கலடி	ත්‍රිකුණාමලය හ්වි, චෙන්කලාඩි 30350, ශ්‍රී ලංකාව	திருகோணமலை Hwy, செங்கலடி 30350, இலங்கை
Batticaloa	Eravur	Eravur Hospital	False	False	BTTCLRVRRVRHSPTL		Batticaloa	LK-51	7.792772	81.486513	Eravur	PS-510104	7.715979	81.698757	7.783168	81.605999	QJM4+799, Eravur 30300, Sri Lanka	12.663585		මඩකලපුව	එරාවුර්	එරාවුර් රෝහල	மட்டக்களப்பு	ஏறாவூர்	ஏறாவூர் மருத்துவமனை	QJM4+799, එරාවුර් 30300, ශ්‍රී ලංකාව	QJM4+799, ஏறாவூர் 30300, இலங்கை
Batticaloa	Eravur	Maiyawadi Mosque	False	False	BTTCLRVRMYWDMSQ		Batticaloa	LK-51	7.792772	81.486513	Eravur	PS-510104	7.715979	81.698757	7.662027	81.739072	Old Kalmunai Road, Batticaloa, Sri Lanka	7.467344		මඩකලපුව	එරාවුර්	මයියාවාඩි මුස්ලිම් පල්ලිය	மட்டக்களப்பு	ஏறாவூர்	மையவாடி மசூதி	පැරණි කල්මුණේ පාර, මඩකලපුව, ශ්‍රී ලංකාව	பழைய கல்முனை சாலை, மட்டக்களப்பு, இலங்கை
Batticaloa	Eravur	Public Library	False	False	BTTCLRVRPBLCLBRRY		Batticaloa	LK-51	7.792772	81.486513	Eravur	PS-510104	7.715979	81.698757	7.770608	81.608183	QJC5+67V, Eravur, Sri Lanka	11.686573		මඩකලපුව	එරාවුර්	මහජන පුස්තකාලය	மட்டக்களப்பு	ஏறாவூர்	பொது நூலகம்	QJC5+67V, එරාවුර්, ශ්‍රී ලංකාව	QJC5+67V, ஏறாவூர், இலங்கை
Batticaloa	Eravur	Mawadiwembu Hospital	False	False	BTTCLRVRMWDWMBHSPTL		Batticaloa	LK-51	7.792772	81.486513	Eravur	PS-510104	7.715979	81.698757	7.808545	81.566328	Mawadiwembu Hospital, Sri Lanka	17.861302		මඩකලපුව	එරාවුර්	මාවඩිවේඹු රෝහල	மட்டக்களப்பு	ஏறாவூர்	மாவடிவெம்பு மருத்துவமனை	මාවඩිවේඹු රෝහල, ශ්‍රී ලංකාව	மாவடிவெம்பு மருத்துவமனை, இலங்கை
Batticaloa	Eravur	MOH Office – Chenkaladi	False	False	BTTCLRVRMHFFCCHNKLD		Batticaloa	LK-51	7.792772	81.486513	Eravur	PS-510104	7.715979	81.698757	7.783599	81.593367	Trincomalee Hwy, Chenkaladi 30350, Sri Lanka	13.837876		මඩකලපුව	එරාවුර්	MOH කාර්යාලය - චෙන්කලාඩි	மட்டக்களப்பு	ஏறாவூர்	MOH அலுவலகம் - செங்கலடி	ත්‍රිකුණාමලය හ්වි, චෙන්කලාඩි 30350, ශ්‍රී ලංකාව	திருகோணமலை Hwy, செங்கலடி 30350, இலங்கை
Batticaloa	Eravur	Chenkaladi Hospital	False	False	BTTCLRVRCHNKLDHSPTL		Batticaloa	LK-51	7.792772	81.486513	Eravur	PS-510104	7.715979	81.698757	7.783546	81.589961	Batticaloa Rd, Chenkaladi, Sri Lanka	14.151406		මඩකලපුව	එරාවුර්	චෙන්කලාඩි රෝහල	மட்டக்களப்பு	ஏறாவூர்	செங்கலடி மருத்துவமனை	මඩකලපුව පාර, චෙන්කලාඩි, ශ්‍රී ලංකාව	மட்டக்களப்பு வீதி, செங்கலடி, இலங்கை
Batticaloa	Karadiyanaru	Karadiyanaru Hospital	False	False	BTTCLKRDYNRKRDYNRHSPTL		Batticaloa	LK-51	7.792772	81.486513	Karadiyanaru	PS-510105	7.701992	81.537252	7.700216	81.539779	PG2Q+3WJ, Karadiyanaru, Sri Lanka	0.341482		මඩකලපුව	කරදියනාරු	කරදියනාරු රෝහල	மட்டக்களப்பு	கரடியனாறு	கரடியனாறு மருத்துவமனை	PG2Q+3WJ, කරදියනාරු, ශ්‍රී ලංකාව	PG2Q+3WJ, கரடியனாறு, இலங்கை
Batticaloa	Ampara	Ds Senanayaka Vidyalaya	False	False	BTTCLMPRDSSNNYKVDYLY		Batticaloa	LK-51	7.792772	81.486513	Ampara	PS-520113	7.296771	81.677161	7.303531	81.671966	Dharmapala Mawatha, Ampara, Sri Lanka	0.945453		මඩකලපුව	අම්පාර	ඩී එස් සේනානායක විද්‍යාලය	மட்டக்களப்பு	அம்பாறை	டிஎஸ் சேனாநாயக்க வித்யாலயா	ධර්මපාල මාවත, අම්පාර, ශ්‍රී ලංකාව	தர்மபால மாவத்தை, அம்பாறை, இலங்கை
Batticaloa	Ampara	Uhana Maha Vidyalaya	False	False	BTTCLMPRHNMHVDYLY		Batticaloa	LK-51	7.792772	81.486513	Ampara	PS-520113	7.296771	81.677161	7.367509	81.640912	9J9R+293, Uhana, Sri Lanka	8.826109		මඩකලපුව	අම්පාර	උහන මහා විද්‍යාලය	மட்டக்களப்பு	அம்பாறை	உஹன மகா வித்தியாலயம்	9J9R+293, උහන, ශ්‍රී ලංකාව	9J9R+293, உஹானா, இலங்கை
Batticaloa	Ampara	MOH Office - Damana	False	False	BTTCLMPRMHFFCDMN		Batticaloa	LK-51	7.792772	81.486513	Ampara	PS-520113	7.296771	81.677161	7.197982	81.65538	5MX4+55R, Damana, Sri Lanka	11.248041		මඩකලපුව	අම්පාර	MOH කාර්යාලය - දමන	மட்டக்களப்பு	அம்பாறை	MOH அலுவலகம் - தமனா	5MX4+55R, දමන, ශ්‍රී ලංකාව	5MX4+55R, டாமனா, இலங்கை
Ampara	Chavalakade	MOH Office – Navidanveli	False	False	MPRCHVLKDMHFFCNVDNVL		Ampara	LK-52	7.23699	81.550391	Chawalakade	PS-520125	7.413559	81.776822	7.420081	81.788401	B77, Sri Lanka	1.468805		අම්පාර	චවලකඩේ	MOH කාර්යාලය - නාවිදන්වේලි	அம்பாறை	சவளகடே	MOH அலுவலகம் - நாவிதன்வெளி	බී 77, ශ්‍රී ලංකාව	பி 77, இலங்கை
Ampara	Karaitivu	MOH Office – Karaitivu	False	False	MPRKRTVMHFFCKRTV		Ampara	LK-52	7.23699	81.550391	Karaitivu		9.744059	79.870587	7.377712	81.838796	Colombo-Ratnapura-Wellawaya-Batticaloa Highway, Karativu 32250, Sri Lanka	340.788666	#CenterFarFromPolice	අම්පාර	කාරතිව්	MOH කාර්යාලය - කරෙයිතිව්	அம்பாறை	காரைதீவு	MOH அலுவலகம் - காரைதீவு	කොළඹ-රත්නපුර-වැල්ලවාය-මඩකලපුව අධිවේගී මාර්ගය, කරතිවු 32250, ශ්‍රී ලංකාව	கொழும்பு-இரத்தினபுரி-வெள்ளவாயா-மட்டக்களப்பு நெடுஞ்சாலை, காரடிவு 32250, இலங்கை
Ampara	Karaitivu	Sanmuha Vidyalaya	False	False	MPRKRTVSNMHVDYLY		Ampara	LK-52	7.23699	81.550391	Karaitivu		9.744059	79.870587	7.368576	81.84344	Shanmuga Maha Vidyalaya, Karaitivu 32250, Sri Lanka	341.89962	#CenterFarFromPolice	අම්පාර	කාරතිව්	සන්මුහා විද්‍යාලය	அம்பாறை	காரைதீவு	சண்முக வித்யாலயா	ශන්මුග මහා විද්‍යාලය, කාරතිව් 32250, ශ්‍රී ලංකාව	சண்முக மகா வித்தியாலயம், காரைதீவு 32250, இலங்கை
Ampara	Karaitivu	RKM Vidyalaya	False	False	MPRKRTVRKMVDYLY		Ampara	LK-52	7.23699	81.550391	Karaitivu		9.744059	79.870587	7.382042	81.843013	Central Rd, Karaitivu 32250, Sri Lanka	340.711182	#CenterFarFromPolice	අම්පාර	කාරතිව්	ආර්කේඑම් විද්‍යාලය	அம்பாறை	காரைதீவு	ஆர்.கே.எம் வித்யாலயா	මධ්‍යම පාර, කාරතිව් 32250, ශ්‍රී ලංකාව	மத்திய சாலை, காரைதீவு 32250, இலங்கை
Ampara	Karaitivu	Al Husen Vidyalaya	False	False	MPRKRTVLHSNVDYLY		Ampara	LK-52	7.23699	81.550391	Karaitivu		9.744059	79.870587	7.388044	81.841647	Maligaroad, Karaitivu, Kalmunai 32250, Sri Lanka	340.099835	#CenterFarFromPolice	අම්පාර	කාරතිව්	අල් හුසෙන් විද්‍යාලය	அம்பாறை	காரைதீவு	அல் ஹூசன் வித்யாலயா	මාලිගාආඩ්, කාරතිව්, කල්මුණේ 32250, ශ්‍රී ලංකාව	மாளிகரோட், காரைதீவு, கல்முனை 32250, இலங்கை
Ampara	Kalmunai	Ashraff Memorial Hospital	False	False	MPRKLMNSHRFFMMRLHSPTL		Ampara	LK-52	7.23699	81.550391	Kalmunai	PS-520123	7.414289	81.825006	7.403172	81.831146	A4, Ashraff Memorial Base Hospital, A4 A4, Kalmunai 32300, Sri Lanka	1.409859		අම්පාර	කල්මුණේ	අෂ්රොෆ් අනුස්මරණ රෝහල	அம்பாறை	கல்முனை	அஷ்ரஃப் நினைவு மருத்துவமனை	ඒ 4, අෂ්රොෆ් අනුස්මරණ මූලික රෝහල, ඒ 4 ඒ 4, කල්මුණේ 32300, ශ්‍රී ලංකාව	A4, அஷ்ரஃப் மெமோரியல் பேஸ் ஹாஸ்பிடல், A4 A4, கல்முனை 32300, இலங்கை
Ampara	Kalmunai	Ramakrishna Mission College	False	False	MPRKLMNRMKRSHNMSSNCLLG		Ampara	LK-52	7.23699	81.550391	Kalmunai	PS-520123	7.414289	81.825006	7.412373	81.828629	Udyar Rd, Kalmunai 32300, Sri Lanka	0.452893		අම්පාර	කල්මුණේ	රාමක්‍රිෂ්ණා මිෂන් විද්‍යාලය	அம்பாறை	கல்முனை	ராமகிருஷ்ணா மிஷன் கல்லூரி	උද්‍යාර් පාර, කල්මුණේ 32300, ශ්‍රී ලංකාව	உடியார் சாலை, கல்முனை 32300, இலங்கை
Ampara	Kalmunai	Base Hospital - Kalmunai North	False	False	MPRKLMNBSHSPTLKLMNNRTH		Ampara	LK-52	7.23699	81.550391	Kalmunai	PS-520123	7.414289	81.825006	7.420034	81.82232	hospital near, Kalmunai 32300, Sri Lanka	0.704353		අම්පාර	කල්මුණේ	මූලික රෝහල - කල්මුණේ උතුර	அம்பாறை	கல்முனை	அடிப்படை மருத்துவமனை - கல்முனை வடக்கு	රෝහල අසල, කල්මුණේ 32300, ශ්‍රී ලංකාව	மருத்துவமனை அருகில், கல்முனை 32300, இலங்கை
Ampara	Kalmunai	MOH Office - Kalmunai South	False	False	MPRKLMNMHFFCKLMNSTH		Ampara	LK-52	7.23699	81.550391	Kalmunai	PS-520123	7.414289	81.825006	7.411712	81.838462	CR6Q+M9P, Kalmunai 32300, Sri Lanka	1.511625		අම්පාර	කල්මුණේ	MOH කාර්යාලය - කල්මුණේ දකුණ	அம்பாறை	கல்முனை	MOH அலுவலகம் - கல்முனை தெற்கு	CR6Q+M9P, කල්මුණේ 32300, ශ්‍රී ලංකාව	CR6Q+M9P, கல்முனை 32300, இலங்கை
Ampara	Kalmunai	Al Bahariya National College	False	False	MPRKLMNLBHRYNTNLCLLG		Ampara	LK-52	7.23699	81.550391	Kalmunai	PS-520123	7.414289	81.825006	7.399481	81.839854	Zahira College Rd, Sainthamaruthu 32280, Sri Lanka	2.32275		අම්පාර	කල්මුණේ	අල් බහාරියා ජාතික විද්‍යාලය	அம்பாறை	கல்முனை	அல் பஹாரியா தேசிய கல்லூரி	සහිරා විද්‍යාලය පාර, සාන්තමරුතු 32280, ශ්‍රී ලංකාව	ஸாஹிரா கல்லூரி வீதி, சாய்ந்தமருது 32280, இலங்கை
Ampara	Kalmunai	Al Manar Central College	False	False	MPRKLMNLMNRCNTRLCLLG		Ampara	LK-52	7.23699	81.550391	Kalmunai	PS-520123	7.414289	81.825006	7.436331	81.812701	Maruthamunai, Sri Lanka	2.802316		අම්පාර	කල්මුණේ	අල් මනාර් මධ්‍ය විද්‍යාලය	அம்பாறை	கல்முனை	அல் மனார் மத்திய கல்லூரி	මරුතාමුණේ, ශ්‍රී ලංකාව	மருதமுனை, இலங்கை
Ampara	Kalmunai	Al Madina Vidyalaya	False	False	MPRKLMNLMDNVDYLY		Ampara	LK-52	7.23699	81.550391	Kalmunai	PS-520123	7.414289	81.825006	7.434363	81.817655	03 Mashoor Moulana Rd, Maruthamunai 32314, Sri Lanka	2.375481		අම්පාර	කල්මුණේ	අල් මදීනා විද්‍යාලය	அம்பாறை	கல்முனை	அல் மதீனா வித்யாலயா	03 මාෂූර් මවුලානා පාර, මරුතාමුණේ 32314, ශ්‍රී ලංකාව	03 மஷூர் மouலானா சாலை, மருதமுனை 32314, இலங்கை
Ampara	Kalmunai	MOH Office - Kalmunai North	False	False	MPRKLMNMHFFCKLMNNRTH		Ampara	LK-52	7.23699	81.550391	Kalmunai	PS-520123	7.414289	81.825006	7.411712	81.838462	CR6Q+M9P, Kalmunai 32300, Sri Lanka	1.511625		අම්පාර	කල්මුණේ	MOH කාර්යාලය - කල්මුණේ උතුර	அம்பாறை	கல்முனை	MOH அலுவலகம் - கல்முனை வடக்கு	CR6Q+M9P, කල්මුණේ 32300, ශ්‍රී ලංකාව	CR6Q+M9P, கல்முனை 32300, இலங்கை
Ampara	Sainthamarthu	MOH Office – Sainthamarthu	False	False	MPRSNTHMRTHMHFFCSNTHMRTH		Ampara	LK-52	7.23699	81.550391									#PoliceLocationUnknown	අම්පාර	සයින්දමර්තු	MOH කාර්යාලය - සයින්දමර්තු	அம்பாறை	சாய்ந்தமருது	MOH அலுவலகம் - சாய்ந்தமருது		
Ampara	Sainthamarthu	Saindamarudu Hospital	False	False	MPRSNTHMRTHSNDMRDHSPTL		Ampara	LK-52	7.23699	81.550391									#PoliceLocationUnknown	අම්පාර	සයින්දමර්තු	සයින්දමරුදු රෝහල	அம்பாறை	சாய்ந்தமருது	சைந்தமருது மருத்துவமனை		
Ampara	Sammanthurai	Sammanthurai Base Hospital	False	False	MPRSMMNTHRSMMNTHRBSHSPTL		Ampara	LK-52	7.23699	81.550391	Samanthurai	PS-520124	7.365785	81.810859	7.368355	81.813042	9R96+MWM, Hospital Rd, Sammanthurai, Sri Lanka	0.373773		අම්පාර	සමන්තුරේ	සමන්තුරේ මූලික රෝහල	அம்பாறை	சம்மாந்துறை	சம்மாந்துறை அடிப்படை மருத்துவமனை	9R96+MWM, රෝහල් පාර, සමන්තුරේ, ශ්‍රී ලංකාව	9R96+MWM, மருத்துவமனை சாலை, சம்மாந்துறை, இலங்கை
Ampara	Sammanthurai	MOH Office – Nintavur	False	False	MPRSMMNTHRMHFFCNNTVR		Ampara	LK-52	7.23699	81.550391	Samanthurai	PS-520124	7.365785	81.810859	7.352821	81.856939	Hospital Rd, Nintavur 32340, Sri Lanka	5.283925		අම්පාර	සමන්තුරේ	එම්ඕඑච් කාර්යාලය - නින්දවූර්	அம்பாறை	சம்மாந்துறை	MOH அலுவலகம் - நிந்தவூர்	රෝහල පාර, නින්දවූර් 32340, ශ්‍රී ලංකාව	மருத்துவமனை Rd, நிந்தவூர் 32340, இலங்கை
Ampara	Sammanthurai	Nintavur Hospital	False	False	MPRSMMNTHRNNTVRHSPTL		Ampara	LK-52	7.23699	81.550391	Samanthurai	PS-520124	7.365785	81.810859	7.353372	81.856852	Hospital Rd, Nintavur, Sri Lanka	5.258159		අම්පාර	සමන්තුරේ	නින්දවූර් රෝහල	அம்பாறை	சம்மாந்துறை	நிந்தவூர் மருத்துவமனை	රෝහල පාර, නින්දවූර්, ශ්‍රී ලංකාව	மருத்துவமனை Rd, நிந்தவூர், இலங்கை
Ampara	Sammanthurai	Al Maskar Balika Vidyalaya	False	False	MPRSMMNTHRLMSKRBLKVDYLY		Ampara	LK-52	7.23699	81.550391	Samanthurai	PS-520124	7.365785	81.810859	7.357484	81.795105	Sammanthurai, Sri Lanka	1.967921		අම්පාර	සමන්තුරේ	අල් මස්කාර් බාලිකා විද්‍යාලය	அம்பாறை	சம்மாந்துறை	அல் மஸ்கர் பாலிகா வித்யாலயா	සමන්තුරේ, ශ්‍රී ලංකාව	சம்மாந்துறை, இலங்கை
Ampara	Sammanthurai	Darussalam Vidyalaya	False	False	MPRSMMNTHRDRSSLMVDYLY		Ampara	LK-52	7.23699	81.550391	Samanthurai	PS-520124	7.365785	81.810859	7.357562	81.802725	9R53+23H, Sammanthurai, Sri Lanka	1.281286		අම්පාර	සමන්තුරේ	දරුස්සලාම් විද්‍යාලය	அம்பாறை	சம்மாந்துறை	தாருஸ்ஸலாம் வித்யாலயா	9 ආර් 53+23 එච්, සමන්තුරේ, ශ්‍රී ලංකාව	9R53+23H, சம்மாந்துறை, இலங்கை
Ampara	Sammanthurai	Madina Vidyalaya	False	False	MPRSMMNTHRMDNVDYLY		Ampara	LK-52	7.23699	81.550391	Samanthurai	PS-520124	7.365785	81.810859	7.35018	81.80359	Kallarichchel 02, Sammanthurai, Sri Lanka	1.912014		අම්පාර	සමන්තුරේ	මදීනා විද්‍යාලය	அம்பாறை	சம்மாந்துறை	மதீனா வித்யாலயா	කල්ලරිචෙල් 02, සම්මන්තුරේ, ශ්‍රී ලංකාව	கல்லறிச்செல் 02, சம்மாந்துறை, இலங்கை
Ampara	Sammanthurai	Kannahi Vidyalaya	False	False	MPRSMMNTHRKNNHVDYLY		Ampara	LK-52	7.23699	81.550391	Samanthurai	PS-520124	7.365785	81.810859	7.35018	81.80359	Kallarichchel 02, Sammanthurai, Sri Lanka	1.912014		අම්පාර	සමන්තුරේ	කන්නහි විද්‍යාලය	அம்பாறை	சம்மாந்துறை	கண்ணாஹி வித்யாலயா	කල්ලරිචෙල් 02, සම්මන්තුරේ, ශ්‍රී ලංකාව	கல்லறிச்செல் 02, சம்மாந்துறை, இலங்கை
Ampara	Sammanthurai	Al Marjan Vidyalaya	False	False	MPRSMMNTHRLMRJNVDYLY		Ampara	LK-52	7.23699	81.550391	Samanthurai	PS-520124	7.365785	81.810859	7.363356	81.799869	9Q7X+8WX, Sammanthurai, Sri Lanka	1.242072		අම්පාර	සමන්තුරේ	අල් මර්ජාන් විද්‍යාලය	அம்பாறை	சம்மாந்துறை	அல் மர்ஜன் வித்யாலயா	9Q7X+8WX, සම්මන්තුරේ, ශ්‍රී ලංකාව	9Q7X+8WX, சம்மாந்துறை, இலங்கை
Ampara	Thirukkovil	MOH Office – Thirukkovil	False	False	MPRTHRKKVLMHFFCTHRKKVL		Ampara	LK-52	7.23699	81.550391	Thirukkovil	PS-520127	7.113998	81.852219	7.111635	81.852892	Central Rd, Vinayagapuram, Sri Lanka	0.273131		අම්පාර	තිරුක්කෝවිල්	MOH කාර්යාලය - තිරුක්කෝවිල්	அம்பாறை	திருக்கோவில்	MOH அலுவலகம் - திருக்கோவில்	මධ්‍යම පාර, විනයාගපුරම්, ශ්‍රී ලංකාව	மத்திய வீதி, விநாயகபுரம், இலங்கை
Ampara	Akkaraipattu	Akkaraipattu Nuraniya Church	False	False	MPRKKRPTTKKRPTTNRNYCHRCH		Ampara	LK-52	7.23699	81.550391	Akkaraipattu	PS-520126	7.216084	81.853254	7.217154	81.849717	Sagama Rd, Akkaraipattu, Sri Lanka	0.408046		අම්පාර	අක්කරපත්තුව	අක්කරෙයිපත්තු නුරානිය පල්ලිය	அம்பாறை	அக்கரைப்பற்று	அக்கரைப்பற்று நூரானிய தேவாலயம்	සගම පාර, අක්කරපත්තුව, ශ්‍රී ලංකාව	சாகம வீதி, அக்கரைப்பற்று, இலங்கை
Ampara	Akkaraipattu	MOH Office – Akkaraipattu	False	False	MPRKKRPTTMHFFCKKRPTT		Ampara	LK-52	7.23699	81.550391	Akkaraipattu	PS-520126	7.216084	81.853254	7.228134	81.851123	6VH2+7C5, Akkaraipattu, Sri Lanka	1.360772		අම්පාර	අක්කරපත්තුව	MOH කාර්යාලය - අක්කරපත්තුව	அம்பாறை	அக்கரைப்பற்று	MOH அலுவலகம் - அக்கரைப்பற்று	6VH2+7C5, අක්කරපත්තුව, ශ්‍රී ලංකාව	6VH2+7C5, அக்கரைப்பற்று, இலங்கை
Ampara	Akkaraipattu	Kovil Vinayagar Vidayalaya	False	False	MPRKKRPTTKVLVNYGRVDYLY		Ampara	LK-52	7.23699	81.550391	Akkaraipattu	PS-520126	7.216084	81.853254	7.198526	81.849358	Akkaraipattu-Sagamam Rd, Sri Lanka	1.999736		අම්පාර	අක්කරපත්තුව	කෝවිල විනයගර් විද්‍යාලය	அம்பாறை	அக்கரைப்பற்று	கோவில் விநாயகர் வித்யாலயா	අක්කරපත්තුව-සගමම් පාර, ශ්‍රී ලංකාව	அக்கரைப்பற்று-சாகமம் வீதி, இலங்கை
Ampara	Akkaraipattu	Palamuna Muslim Vidyalaya	False	False	MPRKKRPTTPLMNMSLMVDYLY		Ampara	LK-52	7.23699	81.550391	Akkaraipattu	PS-520126	7.216084	81.853254	7.225665	81.838179	MCC Road, Akkaraipattu-06, Akkaraipattu 32400, Sri Lanka	1.975577		අම්පාර	අක්කරපත්තුව	පලමුන මුස්ලිම් විද්‍යාලය	அம்பாறை	அக்கரைப்பற்று	பாலமுனா முஸ்லிம் வித்யாலயா	එම්සීසී පාර, අක්කරපත්තුව -06, අක්කරෙයිපත්තු 32400, ශ්‍රී ලංකාව	MCC சாலை, அக்கரைப்பற்று -06, அக்கரைப்பற்று 32400, இலங்கை
Ampara	Akkaraipattu	Oluwil Hamra Vidyalaya	False	False	MPRKKRPTTLWLHMRVDYLY		Ampara	LK-52	7.23699	81.550391	Akkaraipattu	PS-520126	7.216084	81.853254	7.290277	81.857414	7VR4+4X7, Oluvil, Sri Lanka	8.265231		අම්පාර	අක්කරපත්තුව	ඔළුවිල් හම්රා විද්‍යාලය	அம்பாறை	அக்கரைப்பற்று	ஒலுவில் ஹம்ரா வித்தியாலயம்	7VR4+4X7, ඔලුවිල්, ශ්‍රී ලංකාව	7VR4+4X7, ஒலுவில், இலங்கை
Ampara	Akkaraipattu	Badur Mosque	False	False	MPRKKRPTTBDRMSQ		Ampara	LK-52	7.23699	81.550391	Akkaraipattu	PS-520126	7.216084	81.853254	7.21798	81.859573	Deens Road, Akkaraipattu, Sri Lanka	0.728487		අම්පාර	අක්කරපත්තුව	බදුර් පල්ලිය	அம்பாறை	அக்கரைப்பற்று	படூர் மசூதி	ඩීන්ස් පාර, අක්කරපත්තුව, ශ්‍රී ලංකාව	டீன்ஸ் சாலை, அக்கரைப்பற்று, இலங்கை
Ampara	Akkaraipattu	Alsiraj Vidyalaya	False	False	MPRKKRPTTLSRJVDYLY		Ampara	LK-52	7.23699	81.550391	Akkaraipattu	PS-520126	7.216084	81.853254	7.219333	81.85313	Akkaraipattu, Sri Lanka	0.361645		අම්පාර	අක්කරපත්තුව	අල්සිරාජ් විද්‍යාලය	அம்பாறை	அக்கரைப்பற்று	அல்சிராஜ் வித்யாலயா	අක්කරපත්තුව, ශ්‍රී ලංකාව	அக்கரைப்பற்று, இலங்கை
Ampara	Akkaraipattu	MOH Office – Addalachenai	False	False	MPRKKRPTTMHFFCDDLCHN		Ampara	LK-52	7.23699	81.550391	Akkaraipattu	PS-520126	7.216084	81.853254	7.260916	81.853493	7V63+999, Addalaichenai, Sri Lanka	4.986726		අම්පාර	අක්කරපත්තුව	MOH කාර්යාලය - අද්දලචේනයි	அம்பாறை	அக்கரைப்பற்று	MOH அலுவலகம் - ஆடலச்சேனை	7V63+999, අද්දලෙයිචේනෙයි, ශ්‍රී ලංකාව	7V63+999, அடிலைச்சேனை, இலங்கை
Ampara	Akkaraipattu	Addalachenai Hospital	False	False	MPRKKRPTTDDLCHNHSPTL		Ampara	LK-52	7.23699	81.550391	Akkaraipattu	PS-520126	7.216084	81.853254	7.253287	81.853598	Colombo - Batticaloa Hwy, Addalachchena, Sri Lanka	4.138258		අම්පාර	අක්කරපත්තුව	අද්දලචේනෙයි රෝහල	அம்பாறை	அக்கரைப்பற்று	அத்தலச்சேனை மருத்துவமனை	කොළඹ - මඩකලපුව හ්වි, අද්දලච්චේන, ශ්‍රී ලංකාව	கொழும்பு - மட்டக்களப்பு Hwy, Addalachchena, இலங்கை
Ampara	Akkaraipattu	Addalachenai National College	False	False	MPRKKRPTTDDLCHNNTNLCLLG		Ampara	LK-52	7.23699	81.550391	Akkaraipattu	PS-520126	7.216084	81.853254	7.248937	81.857951	Addalaichenai, Sri Lanka	3.690806		අම්පාර	අක්කරපත්තුව	අද්දලචේනයි ජාතික විද්‍යාලය	அம்பாறை	அக்கரைப்பற்று	அத்தலச்சேனை தேசியக் கல்லூரி	අද්දලෙයිචේනෙයි, ශ්‍රී ලංකාව	அடிலைச்சேனை, இலங்கை
Ampara	Akkaraipattu	MOH Office - Alayadivembu	False	False	MPRKKRPTTMHFFCLYDVMB		Ampara	LK-52	7.23699	81.550391	Akkaraipattu	PS-520126	7.216084	81.853254	7.228134	81.851123	6VH2+7C5, Akkaraipattu, Sri Lanka	1.360772		අම්පාර	අක්කරපත්තුව	එම්ඕඑච් කාර්යාලය - අලයාදිවෙම්බු	அம்பாறை	அக்கரைப்பற்று	MOH அலுவலகம் - ஆலையடிவேம்பு	6VH2+7C5, අක්කරපත්තුව, ශ්‍රී ලංකාව	6VH2+7C5, அக்கரைப்பற்று, இலங்கை
Ampara	Pottuvil	Sinnapudikudi Iruppu Health Centre	False	False	MPRPTTVLSNNPDKDRPPHLTHCNTR		Ampara	LK-52	7.23699	81.550391	Pothuvil	PS-520128	6.878387	81.826859	6.867891	81.839008	Muhudu Maha Vihara Mawatha, Pottuvil, Sri Lanka	1.778462		අම්පාර	පොතුවිල්	සින්නපුඩිකුඩි ඉරුප්පු සෞඛ්‍ය මධ්‍යස්ථානය	அம்பாறை	பொட்டுவில்	சின்னபுடிக்குடி இருப்பு சுகாதார மையம்	මුහුදු මහා විහාර මාවත, පොතුවිල්, ශ්‍රී ලංකාව	முஹுது மகா விகார மாவத்தை, பொத்துவில், இலங்கை
Ampara	Pottuvil	Pottuvil Hospital	False	False	MPRPTTVLPTTVLHSPTL		Ampara	LK-52	7.23699	81.550391	Pothuvil	PS-520128	6.878387	81.826859	6.876098	81.830463	Main Street Colombo - Batticaloa Hwy, Pottuvil 32500, Sri Lanka	0.47246		අම්පාර	පොතුවිල්	පොතුවිල් රෝහල	அம்பாறை	பொட்டுவில்	பொத்துவில் மருத்துவமனை	කොළඹ ප්‍රධාන වීදිය - මඩකලපුව හ්වි, පොතුවිල් 32500, ශ්‍රී ලංකාව	பிரதான வீதி கொழும்பு - மட்டக்களப்பு Hwy, பொத்துவில் 32500, இலங்கை
Ampara	Pottuvil	Komari Hospital	False	False	MPRPTTVLKMRHSPTL		Ampara	LK-52	7.23699	81.550391	Pothuvil	PS-520128	6.878387	81.826859	6.876098	81.830463	Main Street,, Base Hospital, Main Street Colombo - Batticaloa Hwy, Pottuvil 32500, Sri Lanka	0.47246		අම්පාර	පොතුවිල්	කෝමාරි රෝහල	அம்பாறை	பொட்டுவில்	கோமாரி மருத்துவமனை	ප්‍රධාන වීදිය, මූලික රෝහල, කොළඹ ප්‍රධාන වීදිය - මඩකලපුව හ්වි, පොතුවිල් 32500, ශ්‍රී ලංකාව	மெயின் ஸ்ட்ரீட், பேஸ் ஹாஸ்பிடல், மெயின் ஸ்ட்ரீட் கொழும்பு - மட்டக்களப்பு Hwy, பொத்துவில் 32500, இலங்கை
Ampara	Pottuvil	Pottuvil Cultural Centre	False	False	MPRPTTVLPTTVLCLTRLCNTR		Ampara	LK-52	7.23699	81.550391	Pothuvil	PS-520128	6.878387	81.826859	6.867891	81.839008	Muhudu Maha Vihara Mawatha, Pottuvil, Sri Lanka	1.778462		අම්පාර	පොතුවිල්	පොතුවිල් සංස්කෘතික මධ්‍යස්ථානය	அம்பாறை	பொட்டுவில்	பொத்துவில் கலாச்சார மையம்	මුහුදු මහා විහාර මාවත, පොතුවිල්, ශ්‍රී ලංකාව	முஹுது மகா விகார மாவத்தை, பொத்துவில், இலங்கை
Ampara	Pottuvil	Al Aksha Vidyalaya - Ulla	False	False	MPRPTTVLLKSHVDYLYLL		Ampara	LK-52	7.23699	81.550391	Pothuvil	PS-520128	6.878387	81.826859	6.867891	81.839008	Muhudu Maha Vihara Mawatha, Pottuvil, Sri Lanka	1.778462		අම්පාර	පොතුවිල්	අල් අක්ෂා විද්‍යාලය - උල්ල	அம்பாறை	பொட்டுவில்	அல் அக்ஷா வித்யாலயா - உல்லா	මුහුදු මහා විහාර මාවත, පොතුවිල්, ශ්‍රී ලංකාව	முஹுது மகா விகார மாவத்தை, பொத்துவில், இலங்கை
