district	police	center	dose1	dose2	fuzzy_key	alt_name	district_name_norm	district_id	district_lat	district_lng	ps_name_norm	ps_id	ps_lat	ps_lng	lat	lng	formatted_address	dis_center_to_police	tags
Colombo	Cinnamon Gardens	Viharamahadevi Park	False	False	CLMBCNNMNGRDNSVHRMHDVPRK		Colombo	LK-11	6.869636	80.019598	Cinnamon Garden	PS-110324	6.907289	79.863819	6.913391	79.86174	Viharamahadevi Park, Colombo, Sri Lanka	0.716497	
Colombo	Grandpass	Sugathadasa Outdoor Stadium	False	False	CLMBGRNDPSSSGTHDSTDRSTDM		Colombo	LK-11	6.869636	80.019598	Grandpass	PS-110215	6.949052	79.872983	6.94806	79.868842	Prince of Wales Ave, Colombo 01400, Sri Lanka	0.470345	
Colombo	Narahenpita	Army Hospital Narahenpita	False	False	CLMBNRHNPTRMYHSPTLNRHNPT		Colombo	LK-11	6.869636	80.019598	Narahenpita	PS-110321	6.891832	79.876715	6.900252	79.87618	08 Elvitigala Mawatha, Colombo 00800, Sri Lanka	0.938417	
Colombo	Dehiwala	MOH Office - Dehiwala	False	False	CLMBDHWLMHFFCDHWL		Colombo	LK-11	6.869636	80.019598	Dehiwala	PS-110580	6.850088	79.871696	6.861346	79.865943	VV68+G9P, Dehiwala-Mount Lavinia, Sri Lanka	1.404177	
Colombo	Maradana	National Hospital - Colombo	False	False	CLMBMRDNNTNLHSPTLCLMB		Colombo	LK-11	6.869636	80.019598	Maradana	PS-110107	6.927939	79.865471	6.918743	79.868992	Colombo 00700, Sri Lanka	1.094265	
Colombo	Homagama	Panagoda Bodhirajarama Viharaya	False	False	CLMBHMGMPNGDBDHRJRMVHRY		Colombo	LK-11	6.869636	80.019598	Homagama	PS-110470	6.836155	80.003474	6.929161	79.88265	Gnanawimala Rd, Colombo, Sri Lanka	16.883101	
Colombo	Borella	St. Luke's Church - Borella	False	False	CLMBBRLLSTLKSCHRCHBRLL		Colombo	LK-11	6.869636	80.019598	Borella	PS-110323	6.915266	79.87829	6.918035	79.874548	1091 Gnanartha Pradeepa Mawatha, Colombo 00800, Sri Lanka	0.515354	
Colombo	Wellampitiya	MOH Office - Kolonnawa	False	False	CLMBWLLMPTYMHFFCKLNNW		Colombo	LK-11	6.869636	80.019598	Wellampitiya	PS-110465	6.937514	79.896298	6.938303	79.889664	25 Pansalhena 1st Ln, 10600, Sri Lanka	0.737734	
Colombo	Kaduwela	MOH Office - Kaduwela	False	False	CLMBKDWLMHFFCKDWL		Colombo	LK-11	6.869636	80.019598	Kaduwela		6.936234	79.970183	6.934127	79.984398	B263, Kaduwela, Sri Lanka	1.586964	
Colombo	Kosgama	Kosgama Hospital	False	False	CLMBKSGMKSGMHSPTL		Colombo	LK-11	6.869636	80.019598	Kosgama	PS-920227	6.946597	80.137869	6.940956	80.124888	Salawa-Akarawita, 10730, Sri Lanka	1.564606	
Colombo	Fore shore	MOH Office - Jinthupitiya	False	False	CLMBFRSHRMHFFCJNTHPTY		Colombo	LK-11	6.869636	80.019598	Fore shore	PS-110210	6.949589	79.857355	6.943258	79.859238	No.27 Vivekananda Hill, Colombo 01300, Sri Lanka	0.734247	
Colombo	Awissawella	Awissawella Hospital	False	False	CLMBWSSWLLWSSWLLHSPTL		Colombo	LK-11	6.869636	80.019598	Awissawella	PS-920226	6.947538	80.215422	6.957085	80.207381	Avissawella Rd, Avissawella, Sri Lanka	1.384155	
Gampaha	Gampaha	MOH Office - Gampaha	False	False	GMPHGMPHMHFFCGMPH		Gampaha	LK-12	7.123598	80.018508	Gampaha	PS-120237	7.087765	80.01228	7.090643	80.002094	Colombo Rd, Gampaha, Sri Lanka	1.16901	
Gampaha	Minuwangoda	MOH Office - Minuwangoda	False	False	GMPHMNWNGDMHFFCMNWNGD		Gampaha	LK-12	7.123598	80.018508	Minuwangoda	PS-120238	7.174215	79.957874	7.17227	79.956823	Katunayake-Veyangoda Rd, Minuwangoda, Sri Lanka	0.245525	
Gampaha	Minuwangoda	Katuwellegama Maternity Clinic	False	False	GMPHMNWNGDKTWLLGMMTRNTYCLNC		Gampaha	LK-12	7.123598	80.018508	Minuwangoda	PS-120238	7.174215	79.957874	7.172386	79.957553	Katunayake-Veyangoda Rd, Minuwangoda, Sri Lanka	0.206501	
Gampaha	Nittambuwa	Mobile Vaccination -Thihariya	False	False	GMPHNTTMBWMBLVCCNTNTHHRY		Gampaha	LK-12	7.123598	80.018508	Nittambuwa	PS-120246	7.149726	80.10046					#CenterLocationUnknown
Gampaha	Mirigama	Nambuluwa Government Dispensary	False	False	GMPHMRGMNMBLWGVRNMNTDSPNSRY		Gampaha	LK-12	7.123598	80.018508	Meerigama	PS-120248	7.245169	80.128647	7.197393	80.094227	Kaleliya - Medagampitiya Rd, Pallewela, Sri Lanka	6.531912	
Gampaha	Kadawata	MOH Office – Mahara	False	False	GMPHKDWTMHFFCMHR		Gampaha	LK-12	7.123598	80.018508	Kadawatha	PS-120136	7.00152	79.95003	7.020757	79.973481	Mahara, Eldeniya, Sri Lanka	3.358732	
Gampaha	Biyagama	MOH Office - Biyagama	False	False	GMPHBYGMMHFFCBYGM		Gampaha	LK-12	7.123598	80.018508	Biyagama	PS-120131	6.962284	80.009037	6.946824	79.994052	Hospital Rd, Sri Lanka	2.386313	
Gampaha	Pugoda	MOH Office – Dompe	False	False	GMPHPGDMHFFCDMP		Gampaha	LK-12	7.123598	80.018508	Pugoda	PS-120241	6.98283	80.111189	6.976767	80.117422	Dompe, Pugoda-Mandawala Rd, Pugoda, Sri Lanka	0.963513	
Gampaha	Pamunugama	Pamunugama Hospital	False	False	GMPHPMNGMPMNGMHSPTL		Gampaha	LK-12	7.123598	80.018508	Pamunugama	PS-120353	7.078892	79.859696	7.093543	79.850191	3VV2+C38, Negombo, Sri Lanka	1.938152	
Gampaha	Seeduwa	MOH Office - Seeduwa	False	False	GMPHSDWMHFFCSDW		Gampaha	LK-12	7.123598	80.018508	Seeduwa	PS-120356	7.128721	79.877371	7.131527	79.879964	24 Kotugoda Rd, Katunayake 11410, Sri Lanka	0.423459	
Gampaha	Divulapitiya	MOH Office - Divulapitiya	False	False	GMPHDVLPTYMHFFCDVLPTY		Gampaha	LK-12	7.123598	80.018508	Diulapitiya	PS-120355	7.174215	79.957874	7.215486	80.013606	6287+5CX, Divulapitiya, Sri Lanka	7.67456	
Gampaha	Ja Ela	MOH Office - Ja Ela	False	False	GMPHJLMHFFCJL		Gampaha	LK-12	7.123598	80.018508	Ja - Ela	PS-120133	7.081055	79.890504	7.075216	79.893879	60 Mount Kalvary Rd, Ja-Ela, Sri Lanka	0.748731	
Gampaha	Wattala	MOH Office – Wattala	False	False	GMPHWTTLMHFFCWTTL		Gampaha	LK-12	7.123598	80.018508	Wattala	PS-120128	6.993713	79.894506	6.995817	79.885793	301 Hendala Rd, Wattala, Sri Lanka	0.989991	
Gampaha	Ragama	MOH Office – Ragama	False	False	GMPHRGMMHFFCRGM		Gampaha	LK-12	7.123598	80.018508	Ragama	PS-120134	7.034975	79.924148	7.027386	79.920232	2WGC+X35, Ragama, Sri Lanka	0.948382	
Kalutara	Thebuwana	Divisional Hospital - Neboda	False	False	KLTRTHBWNDVSNLHSPTLNBD		Kalutara	LK-13	6.577316	80.127363	Thebuwana	PS-1302105	6.654997	80.058183	6.570354	80.073048	wellatha Neboda ., Neboda - Wellatha Rd, Sri Lanka	9.557015	
Kalutara	Dodangoda	Dodangoda Hospital	False	False	KLTRDDNGDDDNGDHSPTL		Kalutara	LK-13	6.577316	80.127363	Dodangoda	PS-130299	6.553375	80.023569	6.540961	80.036553	Wilpatha Rd, Sri Lanka	1.991373	
Kalutara	Dodangoda	MOH Office - Dodangoda	False	False	KLTRDDNGDMHFFCDDNGD	6.540366199937832,80.03661033076219	Kalutara	LK-13	6.577316	80.127363	Dodangoda	PS-130299	6.553375	80.023569	6.541731	80.04335	Dodangoda, Sri Lanka	2.540775	
Kalutara	Horana	Poruwadanda Thilakarama Viharaya	False	False	KLTRHRNPRWDNDTHLKRMVHRY		Kalutara	LK-13	6.577316	80.127363	Horana	PS-130192	6.714613	80.069091	6.734825	80.117154	P4M8+WVC, Poruwadanda, Sri Lanka	5.765635	
Kalutara	Ingiriya	Ingiriya Hospital	False	False	KLTRNGRYNGRYHSPTL		Kalutara	LK-13	6.577316	80.127363	Ingiriya	PS-130193	6.743614	80.175077	6.741133	80.162046	Panadura-Nambapana-Ratnapura Hwy, Ingiriya, Sri Lanka	1.465626	
Kalutara	Ingiriya	Handapangoda Maha Vidyalaya	False	False	KLTRNGRYHNDPNGDMHVDYLY		Kalutara	LK-13	6.577316	80.127363	Ingiriya	PS-130193	6.743614	80.175077	6.790569	80.140067	Handapangoda, Sri Lanka	6.498577	
Kalutara	Ingiriya	Kotigala Clinic	False	False	KLTRNGRYKTGLCLNC		Kalutara	LK-13	6.577316	80.127363	Ingiriya	PS-130193	6.743614	80.175077	6.743882	80.176689	Ingiriya, Sri Lanka	0.18054	
Kalutara	Agalawatta	Pimbura Hospital	False	False	KLTRGLWTTPMBRHSPTL		Kalutara	LK-13	6.577316	80.127363	Agalawatta		6.542566	80.157178	6.575949	80.158371	H5G5+98H, කළුතර, Sri Lanka	3.715525	
Kalutara	Matugama	Weththewa Hospital	False	False	KLTRMTGMWTHTHWHSPTL		Kalutara	LK-13	6.577316	80.127363	Mathugama	PS-1302103	6.520881	80.117908	6.523087	80.125192	District Hospital, Hospital Road,Weththewa,., Matugama, Sri Lanka	0.841523	
Kalutara	Matugama	Katuhena Hospital	False	False	KLTRMTGMKTHNHSPTL		Kalutara	LK-13	6.577316	80.127363	Mathugama	PS-1302103	6.520881	80.117908	6.946064	79.860912	WVW6+99, 213 Jampettah St, Colombo 01300, Sri Lanka	55.159144	#CenterFarFromPolice
Kalutara	Matugama	MOH Office - Matugama	False	False	KLTRMTGMMHFFCMTGM		Kalutara	LK-13	6.577316	80.127363	Mathugama	PS-1302103	6.520881	80.117908	6.523544	80.126443	G4FG+CH8, Matugama, Sri Lanka	0.988725	
Kalutara	Baduraliya	Baduraliya Hospital	False	False	KLTRBDRLYBDRLYHSPTL		Kalutara	LK-13	6.577316	80.127363	Baduraliya	PS-1302106	6.516756	80.226716	6.514727	80.232731	Tiruwanaketiya-Agalawatte Rd, Baduraliya, Sri Lanka	0.702098	
Kalutara	Beruwala	MOH Office - Beruwala	False	False	KLTRBRWLMHFFCBRWL		Kalutara	LK-13	6.577316	80.127363	Beruwala	PS-1302102	6.480329	79.983498	6.437559	79.999356	CXQX+2PH, Aluthgama, Sri Lanka	5.069893	
Kalutara	Beruwala	Beruwala Hospital	False	False	KLTRBRWLBRWLHSPTL		Kalutara	LK-13	6.577316	80.127363	Beruwala	PS-1302102	6.480329	79.983498	6.472087	79.983492	FXCM+R9Q, Beruwala, Sri Lanka	0.916757	
Kalutara	Bulathsinhala	MOH Office - Bulathsinhala	False	False	KLTRBLTHSNHLMHFFCBLTHSNHL		Kalutara	LK-13	6.577316	80.127363	Bulathsinhala	PS-1302104	6.650425	80.17703	6.644683	80.179607	J5VH+VRH, Bulathsinhala, Sri Lanka	0.699369	
Kalutara	Bandragama	MOH Office - Bandaragama	False	False	KLTRBNDRGMMHFFCBNDRGM		Kalutara	LK-13	6.577316	80.127363	Bandaragama	PS-130189	6.715179	79.987674	6.713351	79.991671	Library Path, Bandaragama, Sri Lanka	0.486104	
Kalutara	Bandragama	Bandaragama Hospital	False	False	KLTRBNDRGMBNDRGMHSPTL		Kalutara	LK-13	6.577316	80.127363	Bandaragama	PS-130189	6.715179	79.987674	6.716162	79.991484	Horana Rd, Bandaragama, Sri Lanka	0.434849	
Kalutara	Bandragama	Al Ghazali Vidyalaya - Atalugama	False	False	KLTRBNDRGMLGHZLVDYLYTLGM		Kalutara	LK-13	6.577316	80.127363	Bandaragama	PS-130189	6.715179	79.987674	6.704854	79.996315	Atulugama Rd, Bandaragama, Sri Lanka	1.493354	
Kurunegala	Nikaweratiya	Divullegoda Vidyalaya	False	False	KRNGLNKWRTYDVLLGDVDYLY		Kurunegala	LK-61	7.66477	80.23677	Nikaweratiya	PS-610320	7.742612	80.121177	7.762665	80.201634	Diullegoda, Sri Lanka	9.143644	
Kurunegala	Nikaweratiya	Thumbulla Vidyalaya	False	False	KRNGLNKWRTYTHMBLLVDYLY		Kurunegala	LK-61	7.66477	80.23677	Nikaweratiya	PS-610320	7.742612	80.121177	7.788099	80.100061	Nebadawa, Nikaweratiya, Sri Lanka	5.569064	
Kurunegala	Nikaweratiya	Dalukgolla Vidyalaya	False	False	KRNGLNKWRTYDLKGLLVDYLY		Kurunegala	LK-61	7.66477	80.23677	Nikaweratiya	PS-610320	7.742612	80.121177	7.784931	80.171207	Dalukgolla School, Nikaweratiya-Maho Rd, Nikaweratiya, Sri Lanka	7.24978	
Kurunegala	Rasnayakapura	Abokkagama Vidyalaya	False	False	KRNGLRSNYKPRBKKGMVDYLY		Kurunegala	LK-61	7.66477	80.23677	Rasnayakapura	PS-610323	7.776658	80.012692	7.775358	80.021998	Q2GC+4QX, Puttalam, Sri Lanka	1.03573	
Kurunegala	Mawathagama	Pilessa Viharaya	False	False	KRNGLMWTHGMPLSSVHRY		Kurunegala	LK-61	7.66477	80.23677	Mawathagama	PS-610109	7.432976	80.449904	7.434223	80.443251	Katugastota-Kurunegala-Puttalam Hwy, Mawathagama, Sri Lanka	0.746787	
Kurunegala	Mawathagama	Udagama Clinic	False	False	KRNGLMWTHGMDGMCLNC		Kurunegala	LK-61	7.66477	80.23677	Mawathagama	PS-610109	7.432976	80.449904	7.471418	80.351438	1st Lane. Masangwatte, Vahara,, 1lane Ambepussa - Kurunegala - Trincomalee Hwy, Kurunegala 60000, Sri Lanka	11.671314	
Kurunegala	Ganewatta	Nambiriththawewa Maha Vidyalaya	False	False	KRNGLGNWTTNMBRTHTHWWMHVDYLY		Kurunegala	LK-61	7.66477	80.23677									#PoliceLocationUnknown
Kurunegala	Gokarella	Polgolla Hospital	False	False	KRNGLGKRLLPLGLLHSPTL		Kurunegala	LK-61	7.66477	80.23677	Gokarella	PS-610108	7.59543	80.480081	7.585624	80.475057	A6, Gokarella, Sri Lanka	1.223315	
Kurunegala	Polgahawela	Hadugala Maha Vidyalaya	False	False	KRNGLPLGHWLHDGLMHVDYLY		Kurunegala	LK-61	7.66477	80.23677	Polgahawela	PS-610102	7.333281	80.300363	7.33121	80.29554	A6, Polgahawela, Sri Lanka	0.5798	
Kurunegala	Pothuhera	Kolabalamulla Vidyalaya	False	False	KRNGLPTHHRKLBLMLLVDYLY		Kurunegala	LK-61	7.66477	80.23677	Pothuhera	PS-610104	7.416243	80.327534	7.418023	80.327718	Ambepussa - Kurunegala - Trincomalee Hwy, Pothuhera, Sri Lanka	0.199027	
Kurunegala	Maduragoda	Kavisigamuwa Maha Vidyalaya	False	False	KRNGLMDRGDKVSGMWMHVDYLY		Kurunegala	LK-61	7.66477	80.23677									#PoliceLocationUnknown
Kurunegala	Kumbukgete	Kumbukwewa Maha Vidyalaya	False	False	KRNGLKMBKGTKMBKWWMHVDYLY		Kurunegala	LK-61	7.66477	80.23677	Kumbukgatey	PS-610111	6.934132	79.856305	7.635819	80.434563	JCPM+8RG, Kumbukwewa, Sri Lanka	100.806824	#CenterFarFromPolice
Kurunegala	Kurunegala	Thorayaya Muslim Vidyalaya	False	False	KRNGLKRNGLTHRYYMSLMVDYLY		Kurunegala	LK-61	7.66477	80.23677	Kurunegala	PS-610101	7.485852	80.364137	7.511024	80.413707	Ambepussa - Kurunegala - Trincomalee Hwy, Thorayaya, Sri Lanka	6.141829	
Kurunegala	Kurunegala	Doratiyawa Vidyalaya	False	False	KRNGLKRNGLDRTYWVDYLY		Kurunegala	LK-61	7.66477	80.23677	Kurunegala	PS-610101	7.485852	80.364137	7.456644	80.391148	F94R+MF2, Kurunegala, Sri Lanka	4.407798	
Puttalam	Marawila	Nattandiya Dhammissara Vidyalaya	False	False	PTTLMMRWLNTTNDYDHMMSSRVDYLY		Puttalam	LK-62	7.973531	79.913833	Marawila	PS-620243	7.415075	79.839776	7.411623	79.858074	Nattandiya, Sri Lanka	2.05447	
Puttalam	Kalpitiya	Kalpitiya Hospital	False	False	PTTLMKLPTYKLPTYHSPTL		Puttalam	LK-62	7.973531	79.913833	Kalpitiya	PS-620137	8.235145	79.764567	8.235596	79.766951	6QP8+6QP, Kalpitiya, Sri Lanka	0.267189	
Puttalam	Wennappuwa	St Mary's College - Nainamadama	False	False	PTTLMWNNPPWSTMRYSCLLGNNMDM		Puttalam	LK-62	7.973531	79.913833	Wennappuwa	PS-620245	7.339623	79.843017	7.306523	79.850256	St Mary's College, Nainamadama, Sri Lanka	3.76733	
Puttalam	Wennappuwa	Waikkala Government School	False	False	PTTLMWNNPPWWKKLGVRNMNTSCHL		Puttalam	LK-62	7.973531	79.913833	Wennappuwa	PS-620245	7.339623	79.843017	7.283262	79.855145	Waikkala Government School, Waikkal, Sri Lanka	6.410225	
Puttalam	Koswatta	Kirimetiyana Vidyalaya	False	False	PTTLMKSWTTKRMTYNVDYLY		Puttalam	LK-62	7.973531	79.913833	Koswatta	PS-620244	7.374528	79.898302	7.3289	79.862086	Kirimetiyana, Sri Lanka	6.459032	
Puttalam	Dankotuwa	Atiyawala Maha Vidyalaya	False	False	PTTLMDNKTWTYWLMHVDYLY		Puttalam	LK-62	7.973531	79.913833	Dankotuwa	PS-620246	7.300337	79.882595	7.28868	79.899265	Matikotuwa Road, Dankotuwa, Sri Lanka	2.250294	
Puttalam	Dankotuwa	Dankotuwa Balika Vidyalaya	False	False	PTTLMDNKTWDNKTWBLKVDYLY		Puttalam	LK-62	7.973531	79.913833	Dankotuwa	PS-620246	7.300337	79.882595	7.29238	79.878239	Toppuwa - Madampe Rd, Dankotuwa, Sri Lanka	1.007122	
Puttalam	Wanathavilluwa	Karativi Muslim College	False	False	PTTLMWNTHVLLWKRTVMSLMCLLG		Puttalam	LK-62	7.973531	79.913833	Wanathawilluwa	PS-620134	8.188137	79.858447	8.039642	79.828624	Mannar Rd, Puttalam, Sri Lanka	16.84038	
Kandy	Peradeniya	Gelioya Sri Janaranjanaramaya	False	False	KNDYPRDNYGLYSRJNRNJNRMY		Kandy	LK-21	7.27337	80.709602	Peradeniya	PS-210110	7.267283	80.601901	7.214088	80.596913	B135, Gelioya, Sri Lanka	5.942415	
Kandy	Kandy	Pushpadana Girls' College	False	False	KNDYKNDYPSHPDNGRLSCLLG		Kandy	LK-21	7.27337	80.709602	Kandy	PS-210101	7.292948	80.642368	7.293989	80.633	16 Kandy Rd, Kandy 20000, Sri Lanka	1.040036	
Kandy	Kandy	St.Sylvester's Primary School	False	False	KNDYKNDYSTSYLVSTRSPRMRYSCHL		Kandy	LK-21	7.27337	80.709602	Kandy	PS-210101	7.292948	80.642368	7.29757	80.634654	Wariyapola Sri Sumangala Mawatha, Kandy, Sri Lanka	0.994305	
Kandy	Kandy	Mahanama Vidyalaya	False	False	KNDYKNDYMHNMVDYLY		Kandy	LK-21	7.27337	80.709602	Kandy	PS-210101	7.292948	80.642368	7.272228	80.607279	396, 17 Peradeniya Rd, Kandy 20000, Sri Lanka	4.505525	
Kandy	Daulagala	Alapalawala Piriven Viharaya	False	False	KNDYDLGLLPLWLPRVNVHRY		Kandy	LK-21	7.27337	80.709602	Daulagala	PS-210111	7.227283	80.574409	7.238425	80.576046	Embilmeegama-Daulagala-Penideniya Rd, Sri Lanka	1.252418	
Kandy	Panvila	Madolkele Hospital	False	False	KNDYPNVLMDLKLHSPTL		Kandy	LK-21	7.27337	80.709602	Panwila	PS-210361	7.362355	80.713731	7.398005	80.733186	9PXM+673, Huluganga, Sri Lanka	4.508822	
Kandy	Balagolla	Bandaranayaka National College	False	False	KNDYBLGLLBNDRNYKNTNLCLLG		Kandy	LK-21	7.27337	80.709602									#PoliceLocationUnknown
Kandy	Balagolla	Kengalla National College	False	False	KNDYBLGLLKNGLLNTNLCLLG		Kandy	LK-21	7.27337	80.709602									#PoliceLocationUnknown
Kandy	Thalathuoya	Social Services Institute	False	False	KNDYTHLTHYSCLSRVCSNSTTT		Kandy	LK-21	7.27337	80.709602	Thalathuoya	PS-210107	7.25166	80.689528	7.276897	80.618109	37 Bodhiyangana Mawatha, Kandy 32350, Sri Lanka	8.365213	
Kandy	Wattegama	Walala A.Rathnayake Central College	False	False	KNDYWTTGMWLLRTHNYKCNTRLCLLG		Kandy	LK-21	7.27337	80.709602	Wattegama	PS-210357	7.350603	80.68335	7.318909	80.693359	8M9V+H89, Menikhinna, Sri Lanka	3.694199	
Kandy	Wattegama	Wattegama Baliak Vidyalaya	False	False	KNDYWTTGMWTTGMBLKVDYLY		Kandy	LK-21	7.27337	80.709602	Wattegama	PS-210357	7.350603	80.68335	7.351534	80.682953	Pitiyagedera - Wattegama - Iriyagastenne Rd, Wattegama, Sri Lanka	0.112435	
Kandy	Nawalapitiya	Anurudda Kumara Primary School	False	False	KNDYNWLPTYNRDDKMRPRMRYSCHL		Kandy	LK-21	7.27337	80.709602	Nawalapitiya	PS-210219	7.057355	80.536075	7.053484	80.527436	Nawalapitiya - Ginigathena Rd, Nawalapitiya, Sri Lanka	1.046335	
Kandy	Nawalapitiya	Nawalapitiya Central College	False	False	KNDYNWLPTYNWLPTYCNTRLCLLG		Kandy	LK-21	7.27337	80.709602	Nawalapitiya	PS-210219	7.057355	80.536075	7.046305	80.537454	Weligampola Road, Nawalapitiya, Sri Lanka	1.238481	
Kandy	Pussellawa	Town Hall - Pussellawa	False	False	KNDYPSSLLWTWNHLLPSSLLW		Kandy	LK-21	7.27337	80.709602	Pussellawa	PS-210217	7.115334	80.635553	7.106515	80.636264	Peradeniya - Badulla - Chenkaladi Hwy, Pussellawa, Sri Lanka	0.98407	
Nuwara Eliya	Kotmale	MOH Office – Kotmale	False	False	NWRLYKTMLMHFFCKTML		Nuwara Eliya	LK-23	6.97423	80.711222	Kotmale	PS-230134	7.063602	80.685054	7.062013	80.685533	3M6P+R63, Kothmale New Town, Sri Lanka	0.184484	
Nuwara Eliya	Mathurata	Denike National College	False	False	NWRLYMTHRTDNKNTNLCLLG		Nuwara Eliya	LK-23	6.97423	80.711222	Maturata	PS-230144	7.079873	80.801871	6.96	80.770172	Gamini College, PBC Hwy, Nuwara Eliya 22200, Sri Lanka	13.785031	
Nuwara Eliya	Hanguranketa	Victoria National School - Adhikarigama	False	False	NWRLYHNGRNKTVCTRNTNLSCHLDHKRGM		Nuwara Eliya	LK-23	6.97423	80.711222	Hanguranketha	PS-210108	7.176511	80.777388	7.219271	80.786858	Adhikarigama, Mahaweli Raja Mawatha, Sri Lanka	4.869645	
Nuwara Eliya	Ragala	T B M Herath Maha Vidyalaya	False	False	NWRLYRGLTBMHRTHMHVDYLY		Nuwara Eliya	LK-23	6.97423	80.711222	Ragala	PS-230142	7.012347	80.858498	7.008783	80.855595	Ragala, Sri Lanka	0.509698	
Nuwara Eliya	Nuwara Eliya	MOH Office - Nuwara Eliya	False	False	NWRLYNWRLYMHFFCNWRLY		Nuwara Eliya	LK-23	6.97423	80.711222	Nuwaraeliya	PS-230131	6.974148	80.767627	6.97244	80.78051	XQCJ+X6C, Nuwara Eliya 22200, Sri Lanka	1.435005	
Nuwara Eliya	Kandapola	Kandapola Mahinda Vidyalaya	False	False	NWRLYKNDPLKNDPLMHNDVDYLY		Nuwara Eliya	LK-23	6.97423	80.711222	Kandapola	PS-230135	6.997489	80.823635	6.993379	80.820046	B332, Kandapola, Sri Lanka	0.604971	
Nuwara Eliya	Pudaluoya	Jayahela Vidyalaya	False	False	NWRLYPDLYJYHLVDYLY		Nuwara Eliya	LK-23	6.97423	80.711222	Pudalu oya	PS-230132	6.907289	79.863819	7.01668	80.668529	2M89+MCC, Pundaluoya, Sri Lanka	89.677066	#CenterFarFromPolice
Matale	Galewela	Silwathgama Viharaya	False	False	MTLGLWLSLWTHGMVHRY		Matale	LK-22	7.667587	80.731008	Galewela	PS-220129	7.763244	80.574149	7.855404	80.651345	Kandy - Jaffna Hwy, Dambulla, Sri Lanka	13.320981	
Matale	Rattota	Kaikawela Central College	False	False	MTLRTTTKKWLCNTRLCLLG		Matale	LK-22	7.667587	80.731008	Rattota	PS-220122	7.520684	80.678809	7.505709	80.663587	B274, kaikawela, Sri Lanka	2.364775	
Matale	Mahawela	Kirimbaruwa Viharaya	False	False	MTLMHWLKRMBRWVHRY		Matale	LK-22	7.667587	80.731008	Mahawela	PS-220123	7.589247	80.61027	7.5875	80.608831	HJQ5+2G4, Matale, Sri Lanka	0.250863	
Matale	Makulugaswewa	Nilagama Viharaya	False	False	MTLMKLGSWWNLGMVHRY		Matale	LK-22	7.667587	80.731008									#PoliceLocationUnknown
Matale	Dambulla	Dambulla National College	False	False	MTLDMBLLDMBLLNTNLCLLG		Matale	LK-22	7.667587	80.731008	Dambulla	PS-220128	7.86208	80.649166	7.863027	80.646392	Nishshanka Road Link Rd, Dambulla 21100, Sri Lanka	0.323292	
Matale	Dambulla	MOH Office - Dambulla	False	False	MTLDMBLLMHFFCDMBLL		Matale	LK-22	7.667587	80.731008	Dambulla	PS-220128	7.86208	80.649166	7.870886	80.650631	A36,Bus stand, Dambulla, Sri Lanka	0.992702	
Matale	Naula	MOH Office – Naula	False	False	MTLNLMHFFCNL		Matale	LK-22	7.667587	80.731008	Naula	PS-220126	7.692051	80.64963	7.70502	80.6517	PM42+2M4, Naula, Sri Lanka	1.460473	
Matale	Wilgamuwa	Nugagolla Vidyalaya	False	False	MTLWLGMWNGGLLVDYLY		Matale	LK-22	7.667587	80.731008	Wilgamuwa	PS-220127	7.542012	80.916496	7.503824	80.923539	Nugagolla, Sri Lanka	4.318063	
Matale	Matale	Aluviharaya	False	False	MTLMTLLVHRY		Matale	LK-22	7.667587	80.731008	Matale	PS-220121	7.462789	80.626211	7.497535	80.624366	Aluvihare, Sri Lanka	3.870144	
Matale	Matale	Hindu Vidyalaya	False	False	MTLMTLHNDVDYLY		Matale	LK-22	7.667587	80.731008	Matale	PS-220121	7.462789	80.626211	7.4855	80.624027	A9, Matale, Sri Lanka	2.537598	
Matale	Matale	Warakamura	False	False	MTLMTLWRKMR		Matale	LK-22	7.667587	80.731008	Matale	PS-220121	7.462789	80.626211	7.436128	80.62321	Warakamura, Sri Lanka	2.983912	
Matale	Matale	Annuur Muslim College -Warakamura	False	False	MTLMTLNNRMSLMCLLGWRKMR		Matale	LK-22	7.667587	80.731008	Matale	PS-220121	7.462789	80.626211	7.476746	80.627364	Zahira College Office Building, Matale, Sri Lanka	1.557634	
Matale	Matale	Udupihilla Maha Vidyalaya	False	False	MTLMTLDPHLLMHVDYLY		Matale	LK-22	7.667587	80.731008	Matale	PS-220121	7.462789	80.626211	7.437811	80.609941	Mt/Sri Saranankara Maha Vidyalaya, Udupihilla, Matale 21000, Sri Lanka	3.307405	
Matale	Yatawatta	Dullewa Maha Vidyalaya	False	False	MTLYTWTTDLLWMHVDYLY		Matale	LK-22	7.667587	80.731008	Yatawatta	PS-220124	7.563527	80.567967	7.507898	80.597512	GH5X+522, Matale, Sri Lanka	6.992881	
Badulla	Girandurukotte	Girandurukotte Hospital	False	False	BDLLGRNDRKTTGRNDRKTTHSPTL		Badulla	LK-81	7.074529	81.04486	Giradurukotte	PS-810106	7.469138	81.016938	7.469386	81.019097	F299+QJ5, Girandurukotte, Sri Lanka	0.2397	
Badulla	Bandarawela	Town Hall - Bandarawela	False	False	BDLLBNDRWLTWNHLLBNDRWL		Badulla	LK-81	7.074529	81.04486	Bandarawela	PS-810210	6.831526	80.986784	6.83182	80.987414	32/9 Esplanade Rd, Bandarawela, Sri Lanka	0.076879	
Badulla	Bandarawela	Kirioruwa Vidyalaya	False	False	BDLLBNDRWLKRRWVDYLY		Badulla	LK-81	7.074529	81.04486	Bandarawela	PS-810210	6.831526	80.986784	6.863648	80.993754	VX7V+FG2, Bandarawela, Sri Lanka	3.6549	
Badulla	Bandarawela	Dulgolla Vidyalaya	False	False	BDLLBNDRWLDLGLLVDYLY		Badulla	LK-81	7.074529	81.04486	Bandarawela	PS-810210	6.831526	80.986784	6.830621	80.992983	RXJV+65X, Bandarawela, Sri Lanka	0.692089	
Badulla	Haldummulla	MOH Office - Haldummulla	False	False	BDLLHLDMMLLMHFFCHLDMMLL		Badulla	LK-81	7.074529	81.04486	Haldummulla		6.762216	80.885856	6.761089	80.876292	QV6G+CGM, Badulla, Sri Lanka	1.063814	
Badulla	Haldummulla	Haldummulla Hospital	False	False	BDLLHLDMMLLHLDMMLLHSPTL		Badulla	LK-81	7.074529	81.04486	Haldummulla		6.762216	80.885856	6.758168	80.879938	Colombo - Ratnapura - Wellawaya - Batticaloa Rd, Sri Lanka	0.793746	
Badulla	Uva Paranagama	District Hospital - Uva Paranagama	False	False	BDLLVPRNGMDSTRCTHSPTLVPRNGM		Badulla	LK-81	7.074529	81.04486	Uvaparanagama	PS-810213	6.958341	80.930364	6.938076	80.890525	Rendapola-Galahagama-Ambagasdowa Rd, Himbiliyagahamadiththa, Sri Lanka	4.942648	
Badulla	Welimada	Girimbe Vidyalaya	False	False	BDLLWLMDGRMBVDYLY		Badulla	LK-81	7.074529	81.04486	Welimada	PS-810212	6.900481	80.905809	6.900188	80.906947	Peradeniya-Badulla-Chenkaladi Hwy, Welimada, Sri Lanka	0.12982	
Badulla	Welimada	YWCA Hall	False	False	BDLLWLMDYWCHLL		Badulla	LK-81	7.074529	81.04486	Welimada	PS-810212	6.900481	80.905809	6.902423	80.90244	Peradeniya-Badulla-Chenkaladi Hwy, Sri Lanka	0.430183	
Badulla	Welimada	Bogahakumbura Hospital	False	False	BDLLWLMDBGHKMBRHSPTL		Badulla	LK-81	7.074529	81.04486	Welimada	PS-810212	6.900481	80.905809	6.862306	80.875527	B48, Sri Lanka	5.404861	
Badulla	Haputale	Kahaththawela Vidyalaya	False	False	BDLLHPTLKHTHTHWLVDYLY		Badulla	LK-81	7.074529	81.04486	Haputale	PS-810215	6.767653	80.957218	6.768414	80.962064	QX96+9R8, Haputale, Sri Lanka	0.541915	
Badulla	Haputale	Haputale Hospital	False	False	BDLLHPTLHPTLHSPTL		Badulla	LK-81	7.074529	81.04486	Haputale	PS-810215	6.767653	80.957218	6.772723	80.956317	Haputale -Bandarawela, Diyatalawa, Sri Lanka	0.57263	
Badulla	Haputale	Yahalabedda Hospital	False	False	BDLLHPTLYHLBDDHSPTL		Badulla	LK-81	7.074529	81.04486	Haputale	PS-810215	6.767653	80.957218	6.778743	80.937291	Boralanda Road, 90150, Sri Lanka	2.523104	
Badulla	Haputale	Town Hall – Haputale	False	False	BDLLHPTLTWNHLLHPTL		Badulla	LK-81	7.074529	81.04486	Haputale	PS-810215	6.767653	80.957218	6.768965	80.959255	Station Rd, Haputale, Sri Lanka	0.268271	
Badulla	Haputale	Pitarathmale Vidyalaya	False	False	BDLLHPTLPTRTHMLVDYLY		Badulla	LK-81	7.074529	81.04486	Haputale	PS-810215	6.767653	80.957218	6.78509	80.996105	QXPW+2CQ, Bandarawela, Sri Lanka	4.712778	
Badulla	Ella	Ella Vidyalaya	False	False	BDLLLLLLVDYLY		Badulla	LK-81	7.074529	81.04486	Ella	PS-810211	6.876609	81.048276	6.873531	81.052607	Passara Rd, Bandarawela, Sri Lanka	0.588183	
Badulla	Ella	Demodara Hospital	False	False	BDLLLLDMDRHSPTL		Badulla	LK-81	7.074529	81.04486	Ella	PS-810211	6.876609	81.048276	6.900561	81.057232	W324+6VH, Demodara, Sri Lanka	2.841818	
Badulla	Mahiyanganaya	Dambana Hospital	False	False	BDLLMHYNGNYDMBNHSPTL		Badulla	LK-81	7.074529	81.04486	Mahiyangane	PS-810105	7.334975	80.993108	7.396058	81.121672	94WC+CMF, Badulla, Sri Lanka	15.725627	
Badulla	Passara	Medawelagama Maha Vidyalaya	False	False	BDLLPSSRMDWLGMMHVDYLY		Badulla	LK-81	7.074529	81.04486	Passara	PS-810102	6.934481	81.154796	6.940187	81.167598	Peradeniya-Badulla-Chenkaladi Hwy, Passara 90500, Sri Lanka	1.549487	
Badulla	Passara	Bibilegama Hospital	False	False	BDLLPSSRBBLGMHSPTL		Badulla	LK-81	7.074529	81.04486	Passara	PS-810102	6.934481	81.154796	6.895098	81.14174	Bibilegama Rd, Passara, Sri Lanka	4.611693	
Badulla	Passara	Meedumpitiya Hospital	False	False	BDLLPSSRMDMPTYHSPTL		Badulla	LK-81	7.074529	81.04486	Passara	PS-810102	6.934481	81.154796	6.945576	81.190338	Peradeniya-Badulla-Chenkaladi Hwy, Sri Lanka	4.113834	
Badulla	Passara	Kanawerella Hospital	False	False	BDLLPSSRKNWRLLHSPTL		Badulla	LK-81	7.074529	81.04486	Passara	PS-810102	6.934481	81.154796	6.933517	81.152592	Demodera - Spring Valley - Badulla Road, Passara, Sri Lanka	0.265888	
Badulla	Passara	Eltab Clinic	False	False	BDLLPSSRLTBCLNC		Badulla	LK-81	7.074529	81.04486	Passara	PS-810102	6.934481	81.154796	6.933352	81.149887	149A Badulla road, Passara 90500, Sri Lanka	0.556391	
Badulla	Passara	Ury Hospital	False	False	BDLLPSSRRYHSPTL		Badulla	LK-81	7.074529	81.04486	Passara	PS-810102	6.934481	81.154796	6.94256	81.126231	W4VG+2FH, Pelgahatenna, Sri Lanka	3.279529	
Badulla	Passara	Kahataruppa Hospital	False	False	BDLLPSSRKHTRPPHSPTL		Badulla	LK-81	7.074529	81.04486	Passara	PS-810102	6.934481	81.154796	7.02379	81.116022	Muthumala - Kahataruppa Rd, Sri Lanka	10.816965	
Badulla	Badulla	Kandegolla Vidyalaya	False	False	BDLLBDLLKNDGLLVDYLY		Badulla	LK-81	7.074529	81.04486	Badulla	PS-810101	6.991337	81.055246	7.003669	81.095163	233W+F37, Kendagolla, Sri Lanka	4.615431	
Badulla	Badulla	Hegoda Community Hall	False	False	BDLLBDLLHGDCMMNTYHLL		Badulla	LK-81	7.074529	81.04486	Badulla	PS-810101	6.991337	81.055246	7.001622	81.059928	Kshethrarama Road, Badulla, Sri Lanka	1.255356	
Badulla	Badulla	Udawela Vidyalaya	False	False	BDLLBDLLDWLVDYLY		Badulla	LK-81	7.074529	81.04486	Badulla	PS-810101	6.991337	81.055246	6.976003	81.08561	Udawela, Passara Road, Peradeniya-Badulla-Chenkaladi Hwy, Sri Lanka	3.76127	
Monaragala	Wellawaya	Weherayaya Maha Vidyalaya	False	False	MNRGLWLLWYWHRYYMHVDYLY		Moneragala	LK-82	6.787517	81.303744	wellawaya	PS-820130	6.730804	81.100708	6.635121	81.113894	J4P7+2HR, Telulla, Sri Lanka	10.742034	
Monaragala	Dambagalla	Madulla Central College	False	False	MNRGLDMBGLLMDLLCNTRLCLLG		Moneragala	LK-82	6.787517	81.303744	Dambagalla	PS-820123	6.978806	81.372037	6.98417	81.374688	Dambagalla,Monaragala, Sri Lanka	0.66456	
Monaragala	Dambagalla	Thampalawela Sewa Piyasa	False	False	MNRGLDMBGLLTHMPLWLSWPYS		Moneragala	LK-82	6.787517	81.303744	Dambagalla	PS-820123	6.978806	81.372037	6.95	81.366667	Dambagalla, Sri Lanka	3.258481	
Monaragala	Dambagalla	Elpitiya Maha Vidyalaya	False	False	MNRGLDMBGLLLPTYMHVDYLY		Moneragala	LK-82	6.787517	81.303744	Dambagalla	PS-820123	6.978806	81.372037	7.873054	80.771797	Sri Lanka	119.484951	#CenterFarFromPolice
Monaragala	Kataragama	Mathikamatha Hall	False	False	MNRGLKTRGMMTHKMTHHLL		Moneragala	LK-82	6.787517	81.303744	Kataragama	PS-330159	6.41352	81.331368	6.418507	81.333278	Main Office Ruhunu Maha Kataragama Dewalaya, Kataragama 91400, Sri Lanka	0.59352	
Monaragala	Kataragama	Gothamigama Primary School	False	False	MNRGLKTRGMGTHMGMPRMRYSCHL		Moneragala	LK-82	6.787517	81.303744	Kataragama	PS-330159	6.41352	81.331368	6.435258	81.331831	C8PJ+4P4, Kataragama, Sri Lanka	2.418456	
Monaragala	Kudaoya	Kudaoya Vidyalaya	False	False	MNRGLKDYKDYVDYLY		Moneragala	LK-82	6.787517	81.303744	Kudaoya	PS-820134	6.523777	81.123696	6.528089	81.125799	Wellawaya Road, A2, Kuda Oya, Sri Lanka	0.532962	
Monaragala	Kudaoya	Theilla Viharaya	False	False	MNRGLKDYTHLLVHRY		Moneragala	LK-82	6.787517	81.303744	Kudaoya	PS-820134	6.523777	81.123696	6.531545	81.122881	Kuda Oya Cottages, Uva, Kuda Oya, Kuda Oya, 91000, Kuda Oya 91000, Sri Lanka	0.868715	
Monaragala	Hambegamuwa	Kotaweheramankada Vidyalaya	False	False	MNRGLHMBGMWKTWHRMNKDVDYLY		Moneragala	LK-82	6.787517	81.303744	Hambegamuwa	PS-820132	6.545791	80.947866	6.539485	80.948994	Bodagama-Hambegamuwa-Kaltota Rd, Sri Lanka	0.712405	
Monaragala	Hambegamuwa	Laginagala Vidyalaya	False	False	MNRGLHMBGMWLGNGLVDYLY		Moneragala	LK-82	6.787517	81.303744	Hambegamuwa	PS-820132	6.545791	80.947866	6.534546	80.959523	Janapadaya Junction, Bodagama-Hambegamuwa-Kaltota Rd, Sri Lanka	1.795502	
Monaragala	Hambegamuwa	Aluthwewa Primary School	False	False	MNRGLHMBGMWLTHWWPRMRYSCHL		Moneragala	LK-82	6.787517	81.303744	Hambegamuwa	PS-820132	6.545791	80.947866	6.58493	80.92818	Bodagama-Hambegamuwa-Kaltota Rd, Sri Lanka	4.86665	
Monaragala	Thanamalwila	Kahakurullanpelessa Primary School	False	False	MNRGLTHNMLWLKHKRLLNPLSSPRMRYSCHL		Moneragala	LK-82	6.787517	81.303744	Thanamalwila	PS-820131	6.437696	81.131051	6.440337	81.130949	A2, Thanamalwila, Sri Lanka	0.293974	
Monaragala	Thanamalwila	Kithulkote Vidyalaya	False	False	MNRGLTHNMLWLKTHLKTVDYLY		Moneragala	LK-82	6.787517	81.303744	Thanamalwila	PS-820131	6.437696	81.131051	6.428482	81.100816	Sri Lanka	3.49548	
Monaragala	Thanamalwila	Balaharuwa Vidyalaya	False	False	MNRGLTHNMLWLBLHRWVDYLY		Moneragala	LK-82	6.787517	81.303744	Thanamalwila	PS-820131	6.437696	81.131051	6.566306	81.046303	Balaharuwa, Uva-kudaoya, Sri Lanka, 91200, Sri Lanka	17.098485	
Monaragala	Badalkumbura	Nishshanka National College	False	False	MNRGLBDLKMBRNSHSHNKNTNLCLLG		Moneragala	LK-82	6.787517	81.303744	Badalkumbura	PS-820128	6.889017	81.235441	6.892079	81.237627	Mo/ Nissanka National School, Buttala Rd, Badalkumbura, Sri Lanka	0.417455	
Monaragala	Medagama	Nannapura Vidyalaya	False	False	MNRGLMDGMNNNPRVDYLY		Moneragala	LK-82	6.787517	81.303744	Medagama	PS-820126	7.033608	81.276708	7.031205	81.276445	Moneragala Road,Medagama, B56, Monaragala 91550, Sri Lanka	0.268858	
Monaragala	Medagama	Medagama National College	False	False	MNRGLMDGMMDGMNTNLCLLG		Moneragala	LK-82	6.787517	81.303744	Medagama	PS-820126	7.033608	81.276708	7.031205	81.276445	Moneragala Road,Medagama, B56, Monaragala 91550, Sri Lanka	0.268858	
Monaragala	Medagama	Dahagoniaya Vidyalaya	False	False	MNRGLMDGMDHGNYVDYLY		Moneragala	LK-82	6.787517	81.303744	Medagama	PS-820126	7.033608	81.276708	7.031205	81.276445	Moneragala Road,Medagama, B56, Monaragala 91550, Sri Lanka	0.268858	
Monaragala	Medagama	Thambana Vidyalaya	False	False	MNRGLMDGMTHMBNVDYLY		Moneragala	LK-82	6.787517	81.303744	Medagama	PS-820126	7.033608	81.276708	7.061966	81.357426	3964+QXM, Monaragala, Sri Lanka	9.452236	
Moneragala	Bibila	Wegama Vidyalaya	False	False	MNRGLBBLWGMVDYLY		Moneragala	LK-82	6.787517	81.303744	Bibila	PS-820125	7.165232	81.225463	7.031205	81.276445	Moneragala Road,Medagama, B56, Monaragala 91550, Sri Lanka	15.934508	
Moneragala	Bibila	Samadhi Resort	False	False	MNRGLBBLSMDHRSRT		Moneragala	LK-82	6.787517	81.303744	Bibila	PS-820125	7.165232	81.225463	7.158847	81.19934	No.96A, Bibile 91500, Sri Lanka	2.969174	
Moneragala	Bibila	Kotagama Viharaya	False	False	MNRGLBBLKTGMVHRY		Moneragala	LK-82	6.787517	81.303744	Bibila	PS-820125	7.165232	81.225463	7.132273	81.183688	Bibile - kotagama, Badullagammana Rd, Sri Lanka	5.890373	
Moneragala	Bibila	Mallehewa Vidyalaya	False	False	MNRGLBBLMLLHWVDYLY		Moneragala	LK-82	6.787517	81.303744	Bibila	PS-820125	7.165232	81.225463	7.162409	81.22159	Bibile, Sri Lanka	0.530371	
Moneragala	Buttala	Viharamahadevi Primary School	False	False	MNRGLBTTLVHRMHDVPRMRYSCHL		Moneragala	LK-82	6.787517	81.303744	Buttala	PS-820127	6.762499	81.250445	6.640574	81.189278	J5RQ+6PC, මොණරාගල, Sri Lanka	15.151837	
Moneragala	Buttala	Buttala Hospital	False	False	MNRGLBTTLBTTLHSPTL		Moneragala	LK-82	6.787517	81.303744	Buttala	PS-820127	6.762499	81.250445	6.75781	81.239724	Colombo - Batticaloa Hwy, Buttala, Sri Lanka	1.293971	
Moneragala	Buttala	Kukuranpola Maha Vidyalaya	False	False	MNRGLBTTLKKRNPLMHVDYLY		Moneragala	LK-82	6.787517	81.303744	Buttala	PS-820127	6.762499	81.250445	6.761476	81.247194	Q66W+HVW, Buttala, Sri Lanka	0.37669	
Moneragala	Buttala	Pelwatta Maha Vidyalaya	False	False	MNRGLBTTLPLWTTMHVDYLY		Moneragala	LK-82	6.787517	81.303744	Buttala	PS-820127	6.762499	81.250445	6.747501	81.194213	A4, Pelwatta, Sri Lanka	6.431383	
Moneragala	Buttala	Siddharitha Maha Vidyalaya	False	False	MNRGLBTTLSDDHRTHMHVDYLY		Moneragala	LK-82	6.787517	81.303744	Buttala	PS-820127	6.762499	81.250445	6.761476	81.247194	Q66W+HVW, Buttala, Sri Lanka	0.37669	
Matara	Urubokka	Kirilapana Primary School	False	False	MTRRBKKKRLPNPRMRYSCHL		Matara	LK-32	6.142734	80.539994	Urubokka	PS-320108	6.310257	80.629013	6.319119	80.625275	Kotapola - Urubokka - Mulatiyana Rd, Sri Lanka	1.068884	
Matara	Urubokka	Baralapanathara Maha Vidyalaya	False	False	MTRRBKKBRLPNTHRMHVDYLY		Matara	LK-32	6.142734	80.539994	Urubokka	PS-320108	6.310257	80.629013	6.316869	80.595089	Kotapola - Urubokka - Mulatiyana Rd, Sri Lanka	3.821904	
Matara	Akuressa	Godapita Primary School	False	False	MTRKRSSGDPTPRMRYSCHL		Matara	LK-32	6.142734	80.539994	Akuressa	PS-320112	6.099044	80.4776	6.088958	80.476156	A24, Amalagoda 81400, Sri Lanka	1.133175	
Matara	Akuressa	MOH Office - Athuraliya	False	False	MTRKRSSMHFFCTHRLY		Matara	LK-32	6.142734	80.539994	Akuressa	PS-320112	6.099044	80.4776	6.096437	80.479606	3FWH+HRH, Matara, Sri Lanka	0.365117	
Matara	Matara	Uyanwatta Ground	False	False	MTRMTRYNWTTGRND		Matara	LK-32	6.142734	80.539994	Matara	PS-320101	5.94904	80.533659	5.949299	80.549097	WGXX+PJ9, Matara, Sri Lanka	1.708161	
Matara	Thihagoda	Parayakanaththa Viaharaya	False	False	MTRTHHGDPRYKNTHTHVHRY		Matara	LK-32	6.142734	80.539994	Thihagoda	PS-320104	6.01331	80.567932	6.013226	80.564285	Mahindagiri Vihara Mawatha, Thihagoda 81280, Sri Lanka	0.403531	
Matara	Thihagoda	Owitigala Purana Viaharaya	False	False	MTRTHHGDWTGLPRNVHRY		Matara	LK-32	6.142734	80.539994	Thihagoda	PS-320104	6.01331	80.567932	5.999928	80.562421	B275, Matara, Sri Lanka	1.608521	
Matara	Hakmana	Henry Ariyaratne Maha Vidyalaya	False	False	MTRHKMNHNRYRYRTNMHVDYLY		Matara	LK-32	6.142734	80.539994	Hakmana	PS-320106	6.084824	80.643227	6.079554	80.657662	Hakmana, Sri Lanka	1.700772	
Matara	Hakmana	Gangodagama Jayawardhana Maha Vidyalaya	False	False	MTRHKMNGNGDGMJYWRDHNMHVDYLY		Matara	LK-32	6.142734	80.539994	Hakmana	PS-320106	6.084824	80.643227	6.077814	80.677187	Gangodagama, Hakmana, Hakmana - Beliatte - Tangalle Rd, Sri Lanka	3.836185	
Matara	Mawarala	Makandura Central College	False	False	MTRMWRLMKNDRCNTRLCLLG		Matara	LK-32	6.142734	80.539994	Mawarala	PS-320109	6.198061	80.587045	6.141498	80.55999	Mulatiyana Kamburupitiya Rd, Makandura, Sri Lanka	6.966657	
Matara	Pitabeddara	Derangala Maha Vidyalaya	False	False	MTRPTBDDRDRNGLMHVDYLY		Matara	LK-32	6.142734	80.539994	Pitabeddara	PS-320114	6.203675	80.475004	6.253488	80.446914	7C3W+9QV, Matara, Sri Lanka	6.351891	
Matara	Pitabeddara	Dudley Senanayake Vidyalaya - Dehigassa	False	False	MTRPTBDDRDDLYSNNYKVDYLYDHGSS		Matara	LK-32	6.142734	80.539994	Pitabeddara	PS-320114	6.203675	80.475004	6.199502	80.478204	5FXH+R74, Matara, Sri Lanka	0.583659	
Matara	Deniyaya	Viharahena Viharaya	False	False	MTRDNYYVHRHNVHRY		Matara	LK-32	6.142734	80.539994	Deniyaya	PS-320110	6.341435	80.558719	6.386058	80.602922	Deniyaya, Enasalwaththa Rd, Viharahena, Sri Lanka	6.965077	
Hambantota	Hambantota	Bundala Primary School	False	False	HMBNTTHMBNTTBNDLPRMRYSCHL		Hambantota	LK-33	6.259779	81.098619	Hambantota	PS-330156	6.125872	81.12521	6.253094	81.271784	773C+6PM, Hambantota, Sri Lanka	21.516469	#CenterFarFromPolice
Hambantota	Hambantota	Gonnoruwa Primary School	False	False	HMBNTTHMBNTTGNNRWPRMRYSCHL		Hambantota	LK-33	6.259779	81.098619	Hambantota	PS-330156	6.125872	81.12521	6.127164	81.120617	New Rd, Hambantota, Sri Lanka	0.527898	
Hambantota	Lunugamvehera	Samanpura Maha Vidyalaya	False	False	HMBNTTLNGMVHRSMNPRMHVDYLY		Hambantota	LK-33	6.259779	81.098619	Lunugamwehera	PS-330160	6.341544	81.202699	6.34061	81.203129	86R3+67R, Hambantota, Sri Lanka	0.114248	
Hambantota	Lunugamvehera	Kuda Gammana 03 Primary School	False	False	HMBNTTLNGMVHRKDGMMNPRMRYSCHL		Hambantota	LK-33	6.259779	81.098619	Lunugamwehera	PS-330160	6.341544	81.202699	6.32746	81.204876	Unnamed Road, Sri Lanka	1.58494	
Hambantota	Lunugamvehera	Ranawaranawa Primary School	False	False	HMBNTTLNGMVHRRNWRNWPRMRYSCHL		Hambantota	LK-33	6.259779	81.098619	Lunugamwehera	PS-330160	6.341544	81.202699	6.34061	81.203129	86R3+67R, Hambantota, Sri Lanka	0.114248	
Hambantota	Lunugamvehera	Mahaaluthgam Ara Seva Piyasa	False	False	HMBNTTLNGMVHRMHLTHGMRSVPYS		Hambantota	LK-33	6.259779	81.098619	Lunugamwehera	PS-330160	6.341544	81.202699	6.34682	81.196851	Lunugamvehera, Sri Lanka	0.87312	
Hambantota	Weerawila	Vidyartha Vidyalaya	False	False	HMBNTTWRWLVDYRTHVDYLY		Hambantota	LK-33	6.259779	81.098619	Weeravila	PS-330161	6.26109	81.236724	6.268602	81.250606	7792+C6X, Hambantota, Sri Lanka	1.747566	
Hambantota	Ambalantota	Malpeththawa Maha Vidyalaya	False	False	HMBNTTMBLNTTMLPTHTHWMHVDYLY		Hambantota	LK-33	6.259779	81.098619	Ambalantota	PS-330157	6.12516	81.023981	6.121096	81.008692	42C5+CFP, Ambalantota, Sri Lanka	1.750272	
Hambantota	Walasmulla	Nathuwala Maha Vidyalaya	False	False	HMBNTTWLSMLLNTHWLMHVDYLY		Hambantota	LK-33	6.259779	81.098619	Walasmulla	PS-330151	6.154102	80.698256	6.184092	80.683769	Walasmulla - Katuwana - Middeniya Road, Ethpitiya, Sri Lanka	3.700544	
Hambantota	Weeraketiya	MOH Office - Weeraketiya	False	False	HMBNTTWRKTYMHFFCWRKTY		Hambantota	LK-33	6.259779	81.098619	Weeraketiya	PS-330149	6.153899	80.76737	6.144703	80.765287	4QV8+V4M, Weeraketiya, Sri Lanka	1.048488	
Hambantota	Katuwana	MOH Office - Katuwana	False	False	HMBNTTKTWNMHFFCKTWN		Hambantota	LK-33	6.259779	81.098619	Katuwana	PS-330153	6.269722	80.690963	6.26627	80.693035	7M8V+G63, Katuwana, Sri Lanka	0.447115	
Hambantota	Sooriyawewa	MOH Office - Sooriyawewa	False	False	HMBNTTSRYWWMHFFCSRYWW		Hambantota	LK-33	6.259779	81.098619	Sooriyawewa	PS-330155	6.306022	81.003873	6.304862	81.004768	8233+WWR, Sooriyawewa, Sri Lanka	0.1626	
Hambantota	Beliatta	MOH Office – Beliatta	False	False	HMBNTTBLTTMHFFCBLTT		Hambantota	LK-33	6.259779	81.098619	Beliatta	PS-330152	6.046936	80.735408	6.051828	80.741735	3P2R+PMQ, Hambantota, Sri Lanka	0.886482	
Hambantota	Tangalla	MOH Office – Tangalla	False	False	HMBNTTTNGLLMHFFCTNGLL		Hambantota	LK-33	6.259779	81.098619	Tangalle	PS-330147	6.023954	80.797255	6.02363	80.795742	2QFW+F75, Tangalle, Sri Lanka	0.171198	
Rathnapura	Kiriella	Galathura Maha Vidyalaya	False	False	RTHNPRKRLLGLTHRMHVDYLY		Ratnapura	LK-91	6.586826	80.566158	Kiriella	PS-910114	6.735338	80.276481	6.714894	80.288574	Mada galathura, Sri Lanka	2.637325	
Rathnapura	Kiriella	Kiriella Devarakkhita Vidyalaya	False	False	RTHNPRKRLLKRLLDVRKKHTVDYLY		Ratnapura	LK-91	6.586826	80.566158	Kiriella	PS-910114	6.735338	80.276481	6.736789	80.272832	Kiriella-Nadurana-Eheliyagoda Rd, Idangoda, Sri Lanka	0.434187	
Rathnapura	Kiriella	Ghanarama Viharaya	False	False	RTHNPRKRLLGHNRMVHRY		Ratnapura	LK-91	6.586826	80.566158	Kiriella	PS-910114	6.735338	80.276481	6.735464	80.221828	Ratnapura - Horana - Panadura Hwy, Sri Lanka	6.037105	
Rathnapura	Kiriella	Sangikaramaya	False	False	RTHNPRKRLLSNGKRMY		Ratnapura	LK-91	6.586826	80.566158	Kiriella	PS-910114	6.735338	80.276481	6.74486	80.248221	Kiriella, Hadunkanda Rd, Sri Lanka	3.296412	
Rathnapura	Pinnawala	Denagama Health Centre	False	False	RTHNPRPNNWLDNGMHLTHCNTR		Ratnapura	LK-91	6.586826	80.566158	Pinnawala	PS-910115	7.299943	80.386604	6.114211	80.661644	Denagama, Sri Lanka	135.343112	#CenterFarFromPolice
Rathnapura	Pinnawala	Divisional Secretariat - Imbulpe	False	False	RTHNPRPNNWLDVSNLSCRTRTMBLP		Ratnapura	LK-91	6.586826	80.566158	Pinnawala	PS-910115	7.299943	80.386604	6.732373	80.674305	Pinnawala, Sri Lanka	70.670072	#CenterFarFromPolice
Rathnapura	Pinnawala	Pinnawala Health Centre	False	False	RTHNPRPNNWLPNNWLHLTHCNTR		Ratnapura	LK-91	6.586826	80.566158	Pinnawala	PS-910115	7.299943	80.386604	6.732373	80.674305	Pinnawala, Sri Lanka	70.670072	#CenterFarFromPolice
Rathnapura	Balangoda	Sri Sudarshana Rankoth Viharaya - Rassagala	False	False	RTHNPRBLNGDSRSDRSHNRNKTHVHRYRSSGL		Ratnapura	LK-91	6.586826	80.566158	Balangoda	PS-910103	6.649474	80.700276	6.696751	80.634952	Balangoda - Rassagala - Uwella Rd, 70100, Sri Lanka	8.929419	
Rathnapura	Balangoda	Balangoda Vidyaloka Maha Vidyalaya	False	False	RTHNPRBLNGDBLNGDVDYLKMHVDYLY		Ratnapura	LK-91	6.586826	80.566158	Balangoda	PS-910103	6.649474	80.700276	6.648651	80.698377	Barns Rathwathta Mawatha, Balangoda 70100, Sri Lanka	0.228906	
Rathnapura	Balangoda	Massenna Udumulla Viharaya	False	False	RTHNPRBLNGDMSSNNDMLLVHRY		Ratnapura	LK-91	6.586826	80.566158	Balangoda	PS-910103	6.649474	80.700276	6.651852	80.695029	66/3 Pettigala Rd, Balangoda, Sri Lanka	0.637189	
Rathnapura	Balangoda	Damahana Vidyalaya	False	False	RTHNPRBLNGDDMHNVDYLY		Ratnapura	LK-91	6.586826	80.566158	Balangoda	PS-910103	6.649474	80.700276	6.602628	80.734181	JP3M+3M3, Ratnapura, Sri Lanka	6.41748	
Rathnapura	Balangoda	Thalangama Vidyalaya	False	False	RTHNPRBLNGDTHLNGMVDYLY		Ratnapura	LK-91	6.586826	80.566158	Balangoda	PS-910103	6.649474	80.700276	6.641498	80.714138	JPR7+HMR, Balangoda, Sri Lanka	1.769912	
Rathnapura	Balangoda	Ellepola Vidyalaya	False	False	RTHNPRBLNGDLLPLVDYLY		Ratnapura	LK-91	6.586826	80.566158	Balangoda	PS-910103	6.649474	80.700276	6.630783	80.686023	JMJP+8C6, Balangoda, Sri Lanka	2.607973	
Rathnapura	Balangoda	Kirimetithenna Vidyalaya	False	False	RTHNPRBLNGDKRMTTHNNVDYLY		Ratnapura	LK-91	6.586826	80.566158	Balangoda	PS-910103	6.649474	80.700276	6.641498	80.714138	JPR7+HMR, Balangoda, Sri Lanka	1.769912	
Rathnapura	Balangoda	Pettigala Vidyalaya	False	False	RTHNPRBLNGDPTTGLVDYLY		Ratnapura	LK-91	6.586826	80.566158	Balangoda	PS-910103	6.649474	80.700276	6.648651	80.698377	Barns Rathwathta Mawatha, Balangoda 70100, Sri Lanka	0.228906	
Rathnapura	Kalawana	Delgoda Colony Vidyalaya	False	False	RTHNPRKLWNDLGDCLNYVDYLY		Ratnapura	LK-91	6.586826	80.566158	Kalawana	PS-910110	6.530738	80.390719	6.489049	80.411009	DAUGALA, Kalawana, Sri Lanka	5.150752	
Rathnapura	Kalawana	Veddagala North Vidyalaya	False	False	RTHNPRKLWNVDDGLNRTHVDYLY		Ratnapura	LK-91	6.586826	80.566158	Kalawana	PS-910110	6.530738	80.390719	6.535423	80.401004	GCP2+5C6, Kalawana, Sri Lanka	1.25034	
Rathnapura	Kalawana	Gamini Central College	False	False	RTHNPRKLWNGMNCNTRLCLLG		Ratnapura	LK-91	6.586826	80.566158	Kalawana	PS-910110	6.530738	80.390719	6.519315	80.393873	Kalawana-Depedene-Rakwana Rd, Sri Lanka	1.317518	
Rathnapura	Kalawana	Wewagama Vidyalaya	False	False	RTHNPRKLWNWWGMVDYLY		Ratnapura	LK-91	6.586826	80.566158	Kalawana	PS-910110	6.530738	80.390719	6.479826	80.383687	Wewagama kokkavita, Kalawana, Sri Lanka	5.716008	
Rathnapura	Kalawana	Pitigalakanda Vidyalaya	False	False	RTHNPRKLWNPTGLKNDVDYLY		Ratnapura	LK-91	6.586826	80.566158	Kalawana	PS-910110	6.530738	80.390719	6.496845	80.351883	F9W2+PQJ, Pitigalakanda, Sri Lanka	5.712451	
Rathnapura	Kalawana	Wembiyagoda Vidyalaya	False	False	RTHNPRKLWNWMBYGDVDYLY		Ratnapura	LK-91	6.586826	80.566158	Kalawana	PS-910110	6.530738	80.390719	6.535423	80.401004	GCP2+5C6, Kalawana, Sri Lanka	1.25034	
Rathnapura	Kalawana	Wathurawa Colony Vidyalaya	False	False	RTHNPRKLWNWTHRWCLNYVDYLY		Ratnapura	LK-91	6.586826	80.566158	Kalawana	PS-910110	6.530738	80.390719	6.517913	80.423724	GC9F+5F9, රත්නපුර, Sri Lanka	3.916407	
Rathnapura	Kalawana	Hagarangala Model School	False	False	RTHNPRKLWNHGRNGLMDLSCHL		Ratnapura	LK-91	6.586826	80.566158	Kalawana	PS-910110	6.530738	80.390719	6.535423	80.401004	GCP2+5C6, Kalawana, Sri Lanka	1.25034	
Rathnapura	Kalawana	Kalawana National College	False	False	RTHNPRKLWNKLWNNTNLCLLG		Ratnapura	LK-91	6.586826	80.566158	Kalawana	PS-910110	6.530738	80.390719	6.535423	80.401004	GCP2+5C6, Kalawana, Sri Lanka	1.25034	
Rathnapura	Kuruwita	Savon Reception Hall	False	False	RTHNPRKRWTSVNRCPTNHLL		Ratnapura	LK-91	6.586826	80.566158	Kuruwita	PS-910112	6.778839	80.364712	6.765939	80.371764	Q98C+9PC, Kuruwita, Sri Lanka	1.632554	
Rathnapura	Kuruwita	Gangarama Viharaya	False	False	RTHNPRKRWTGNGRMVHRY		Ratnapura	LK-91	6.586826	80.566158	Kuruwita	PS-910112	6.778839	80.364712	6.77558	80.35651	Q9G4+6JJ, Kuruwita, Sri Lanka	0.975765	
Rathnapura	Ayagama	Pallekada Vidyalaya	False	False	RTHNPRYGMPLLKDVDYLY		Ratnapura	LK-91	6.586826	80.566158	Ayagama	PS-910109	6.637727	80.312554	6.652164	80.295693	Gavaragiriya Road, Pallekada, Sri Lanka	2.459446	
Rathnapura	Ayagama	Dumbara Vidyalaya	False	False	RTHNPRYGMDMBRVDYLY		Ratnapura	LK-91	6.586826	80.566158	Ayagama	PS-910109	6.637727	80.312554	6.739418	80.382045	A4, Kuruwita, Sri Lanka	13.670209	
Rathnapura	Wewelwatta	Banagoda Vidyalaya	False	False	RTHNPRWWLWTTBNGDVDYLY		Ratnapura	LK-91	6.586826	80.566158	Wewalwatta	PS-910102	6.707202	80.555569	6.708183	80.541656	PG5R+7MC, Ratnapura, Sri Lanka	1.540816	
Rathnapura	Siripagama	Rathganga Viharaya	False	False	RTHNPRSRPGMRTHGNGVHRY		Ratnapura	LK-91	6.586826	80.566158	Siripagama	PS-910116	6.783587	80.4322	6.739427	80.482769	PFQM+Q4C, Nilwala, Sri Lanka	7.438102	
Rathnapura	Siripagama	Induruwa Viharaya	False	False	RTHNPRSRPGMNDRWVHRY		Ratnapura	LK-91	6.586826	80.566158	Siripagama	PS-910116	6.783587	80.4322	6.386489	80.022706	galagama, Induruwa,, Sri Lanka	63.231615	#CenterFarFromPolice
Rathnapura	Siripagama	Gilimale Vidyalaya	False	False	RTHNPRSRPGMGLMLVDYLY		Ratnapura	LK-91	6.586826	80.566158	Siripagama	PS-910116	6.783587	80.4322	6.751871	80.426648	Malwala - Siripagama Rd, Sri Lanka	3.58067	
Rathnapura	Rathnapura	Convent National College	False	False	RTHNPRRTHNPRCNVNTNTNLCLLG		Ratnapura	LK-91	6.586826	80.566158	Ratnapura	PS-910101	6.679456	80.40223	6.681597	80.40321	St.Aloysius' College , Church Road , Ratnapura , Srilanka, Cathedral Road, Ratnapura 70000, Sri Lanka	0.261598	
Rathnapura	Rathnapura	Mudduwa Pirivena	False	False	RTHNPRRTHNPRMDDWPRVN		Ratnapura	LK-91	6.586826	80.566158	Ratnapura	PS-910101	6.679456	80.40223	6.674151	80.401313	MCF2+MG8, Ratnapura, Sri Lanka	0.598707	
Rathnapura	Rathnapura	Diddeniya Vidyalaya	False	False	RTHNPRRTHNPRDDDNYVDYLY		Ratnapura	LK-91	6.586826	80.566158	Ratnapura	PS-910101	6.679456	80.40223	6.890574	80.104782	V4R3+6WF, Sri Lanka	40.382875	#CenterFarFromPolice
Rathnapura	Rathnapura	Godagama Vidyalaya	False	False	RTHNPRRTHNPRGDGMVDYLY		Ratnapura	LK-91	6.586826	80.566158	Ratnapura	PS-910101	6.679456	80.40223	6.602628	80.734181	JP3M+3M3, Ratnapura, Sri Lanka	37.657536	#CenterFarFromPolice
Rathnapura	Rathnapura	Dombagaswinna Vidyalaya	False	False	RTHNPRRTHNPRDMBGSWNNVDYLY		Ratnapura	LK-91	6.586826	80.566158	Ratnapura	PS-910101	6.679456	80.40223	6.681597	80.40321	St.Aloysius' College , Church Road , Ratnapura , Srilanka, Cathedral Road, Ratnapura 70000, Sri Lanka	0.261598	
Rathnapura	Rathnapura	Kiraweldeniya Vidyalaya	False	False	RTHNPRRTHNPRKRWLDNYVDYLY		Ratnapura	LK-91	6.586826	80.566158	Ratnapura	PS-910101	6.679456	80.40223	6.712526	80.378602	AB35, Ratnapura, Sri Lanka	4.51039	
Rathnapura	Rathnapura	Dippitigala Vidyalaya	False	False	RTHNPRRTHNPRDPPTGLVDYLY		Ratnapura	LK-91	6.586826	80.566158	Ratnapura	PS-910101	6.679456	80.40223	6.650772	80.492757	MF2V+842, Pelmadulla, Sri Lanka	10.497828	
Rathnapura	Rathnapura	Thunadahena Vidyalaya	False	False	RTHNPRRTHNPRTHNDHNVDYLY		Ratnapura	LK-91	6.586826	80.566158	Ratnapura	PS-910101	6.679456	80.40223	6.736502	80.301307	A8, Sri Lanka	12.827999	
Rathnapura	Eheliyagoda	Getaheththa  Anura Vidyalaya	False	False	RTHNPRHLYGDGTHTHTHNRVDYLY		Ratnapura	LK-91	6.586826	80.566158	Ehaliyagoda	PS-910113	6.854603	80.260446	6.90585	80.226631	anuramaha vidyalaya, gatahaththa, Getaheththa, Sri Lanka	6.814405	
Rathnapura	Kahawatta	Divisional Secretariat - Kahawatta	False	False	RTHNPRKHWTTDVSNLSCRTRTKHWTT		Ratnapura	LK-91	6.586826	80.566158	Kahawatta	PS-910107	6.591434	80.56893	6.533551	80.593332	Pelmadulla - Embilipitiya Hwy, Kavuduwawa 70294, Sri Lanka	6.980168	
Rathnapura	Kahawatta	Yayinna Vidyalaya	False	False	RTHNPRKHWTTYYNNVDYLY		Ratnapura	LK-91	6.586826	80.566158	Kahawatta	PS-910107	6.591434	80.56893	6.571516	80.553136	HHC3+J72, Allagewaththa, Sri Lanka	2.820285	
Rathnapura	Godakawela	Meddegama Viaharaya	False	False	RTHNPRGDKWLMDDGMVHRY		Ratnapura	LK-91	6.586826	80.566158	Godakawela	PS-910233	6.50224	80.655642	6.504061	80.651163	GM32+JFF, Godakawela, Sri Lanka	0.534831	
Rathnapura	Godakawela	Bibilegama Vidyalaya	False	False	RTHNPRGDKWLBBLGMVDYLY		Ratnapura	LK-91	6.586826	80.566158	Godakawela	PS-910233	6.50224	80.655642	6.474499	80.659186	FMF5+QMV, Pallebedda, Sri Lanka	3.110386	
Rathnapura	Godakawela	Balavinna Vidyalaya	False	False	RTHNPRGDKWLBLVNNVDYLY		Ratnapura	LK-91	6.586826	80.566158	Godakawela	PS-910233	6.50224	80.655642	6.482314	80.694414	Balawinna, Pallebedda, Sri Lanka	4.824215	
Rathnapura	Godakawela	Pinnakanada Vidyalaya	False	False	RTHNPRGDKWLPNNKNDVDYLY		Ratnapura	LK-91	6.586826	80.566158	Godakawela	PS-910233	6.50224	80.655642	6.505873	80.640843	GJ4R+88W, Ratnapura, Sri Lanka	1.684679	
Rathnapura	Godakawela	Mas Imbula Health Office	False	False	RTHNPRGDKWLMSMBLHLTHFFC		Ratnapura	LK-91	6.586826	80.566158	Godakawela	PS-910233	6.50224	80.655642	6.502044	80.657016	Pelmadulla - Embilipitiya Hwy, Godakawela, Sri Lanka	0.153404	
Rathnapura	Embilipitiya	Moraketiya Vidyalaya	False	False	RTHNPRMBLPTYMRKTYVDYLY		Ratnapura	LK-91	6.586826	80.566158	Embilipitiya	PS-910237	6.321993	80.844883	6.340635	80.880629	8VRJ+772, Embilipitiya, Sri Lanka	4.462745	
Rathnapura	Embilipitiya	Hinguraara Viaharaya	False	False	RTHNPRMBLPTYHNGRRVHRY		Ratnapura	LK-91	6.586826	80.566158	Embilipitiya	PS-910237	6.321993	80.844883	6.347362	80.84119	Sri Bodhiraja Mawatha, Embilipitiya, Sri Lanka	2.851171	
Rathnapura	Embilipitiya	Jandura Vidyalaya	False	False	RTHNPRMBLPTYJNDRVDYLY		Ratnapura	LK-91	6.586826	80.566158	Embilipitiya	PS-910237	6.321993	80.844883	6.344554	80.750166	Embilipitiya-Panamure-Bulutota Road, Sri Lanka	10.767565	
Rathnapura	Udawalawa	Gageyaya Vidyalaya	False	False	RTHNPRDWLWGGYYVDYLY		Ratnapura	LK-91	6.586826	80.566158	Udawalawa	PS-910234	6.422661	80.814293	6.682615	80.39899	Vinisuru Mw, රත්නපුර 70000, Sri Lanka	54.241657	#CenterFarFromPolice
Rathnapura	Udawalawa	Ketagalara Vidyalaya	False	False	RTHNPRDWLWKTGLRVDYLY		Ratnapura	LK-91	6.586826	80.566158	Udawalawa	PS-910234	6.422661	80.814293	6.602628	80.734181	JP3M+3M3, Ratnapura, Sri Lanka	21.888122	#CenterFarFromPolice
Rathnapura	Udawalawa	Panahanduwa Vidyalaya	False	False	RTHNPRDWLWPNHNDWVDYLY		Ratnapura	LK-91	6.586826	80.566158	Udawalawa	PS-910234	6.422661	80.814293	6.681023	80.397939	Bandaranaike Mawatha, Ratnapura, Sri Lanka	54.245999	#CenterFarFromPolice
Rathnapura	Udawalawa	Nindagama Vidyalaya	False	False	RTHNPRDWLWNNDGMVDYLY		Ratnapura	LK-91	6.586826	80.566158	Udawalawa	PS-910234	6.422661	80.814293	6.438113	80.888568	Udawalawe National Park, Udawalawa, Sri Lanka	8.387602	
Rathnapura	Kolonna	Omalpe Vidyalaya	False	False	RTHNPRKLNNMLPVDYLY		Ratnapura	LK-91	6.586826	80.566158	Kolonna	PS-910235	6.40194	80.687615	6.326763	80.69649	Omalpe, Sri Lanka	8.419282	
Rathnapura	Kolonna	Dorapane Vidyalaya	False	False	RTHNPRKLNNDRPNVDYLY		Ratnapura	LK-91	6.586826	80.566158	Kolonna	PS-910235	6.40194	80.687615					#CenterLocationUnknown
Rathnapura	Endana	Demuwatha Viharaya	False	False	RTHNPRNDNDMWTHVHRY		Ratnapura	LK-91	6.586826	80.566158									#PoliceLocationUnknown
Rathnapura	Endana	Madalagama Vidyalaya	False	False	RTHNPRNDNMDLGMVDYLY		Ratnapura	LK-91	6.586826	80.566158									#PoliceLocationUnknown
Kegalle	Pindeniya	Iddamalpatha Viharaya	False	False	KGLLPNDNYDDMLPTHVHRY		Kegalle	LK-92	7.104216	80.342866	Pindeniya	PS-920124	7.156486	80.295092	7.08313	80.429741	3CMH+7V5, Kegalle, Sri Lanka	16.954043	
Kegalle	Pindeniya	Yatalathissa Vidyalaya	False	False	KGLLPNDNYYTLTHSSVDYLY		Kegalle	LK-92	7.104216	80.342866	Pindeniya	PS-920124	7.156486	80.295092	7.248596	80.350635	Bandaranayaka Ave, Kegalle, Sri Lanka	11.938843	
Kegalle	Pindeniya	Malwana Vidyalaya	False	False	KGLLPNDNYMLWNVDYLY		Kegalle	LK-92	7.104216	80.342866	Pindeniya	PS-920124	7.156486	80.295092	7.156574	80.294509	87 Galigamuwa-Ruwanwella Rd, Atala, Sri Lanka	0.065082	
Kegalle	Warakapola	MOH Office - Warakapola	False	False	KGLLWRKPLMHFFCWRKPL		Kegalle	LK-92	7.104216	80.342866	Wrakapola	PS-920119	7.227488	80.199696	7.226501	80.197818	65GX+J44, Warakapola, Sri Lanka	0.234514	
Kegalle	Warakapola	Weragala Viharaya	False	False	KGLLWRKPLWRGLVHRY		Kegalle	LK-92	7.104216	80.342866	Wrakapola	PS-920119	7.227488	80.199696	7.13485	80.262777	Weragala Rd, Sri Lanka	12.435291	
Kegalle	Mawanella	Seneviratnarama Viharaya	False	False	KGLLMWNLLSNVRTNRMVHRY		Kegalle	LK-92	7.104216	80.342866	Mawanella	PS-920122	7.256966	80.445912	7.250057	80.454304	Colombo - Kandy Rd, Mawanella, Sri Lanka	1.203326	
Kegalle	Mawanella	Randiwala Maha Vidyalaya	False	False	KGLLMWNLLRNDWLMHVDYLY	Randiwala Maha Vidyalaya	Kegalle	LK-92	7.104216	80.342866	Mawanella	PS-920122	7.256966	80.445912	7.262182	80.456886	7F64+VQC, Mawanella, Sri Lanka	1.34267	
Kegalle	Mawanella	Mederigama Maha Vidyalaya	False	False	KGLLMWNLLMDRGMMHVDYLY		Kegalle	LK-92	7.104216	80.342866	Mawanella	PS-920122	7.256966	80.445912	7.248421	80.464111	Colombo - Kandy Rd, Mawanella, Sri Lanka	2.221652	
Kegalle	Mawanella	Manikkawa Maha Vidyalaya	False	False	KGLLMWNLLMNKKWMHVDYLY		Kegalle	LK-92	7.104216	80.342866	Mawanella	PS-920122	7.256966	80.445912	7.248421	80.464111	Colombo - Kandy Rd, Mawanella, Sri Lanka	2.221652	
Kegalle	Mawanella	Hinatipana Viharaya	False	False	KGLLMWNLLHNTPNVHRY		Kegalle	LK-92	7.104216	80.342866	Mawanella	PS-920122	7.256966	80.445912	7.250057	80.454304	Colombo - Kandy Rd, Mawanella, Sri Lanka	1.203326	
Kegalle	Mawanella	Welwathura Viharaya	False	False	KGLLMWNLLWLWTHRVHRY		Kegalle	LK-92	7.104216	80.342866	Mawanella	PS-920122	7.256966	80.445912	7.250057	80.454304	Colombo - Kandy Rd, Mawanella, Sri Lanka	1.203326	
Kegalle	Mawanella	Kotegoda Vidyalaya	False	False	KGLLMWNLLKTGDVDYLY		Kegalle	LK-92	7.104216	80.342866	Mawanella	PS-920122	7.256966	80.445912	7.165133	80.511442	5G86+3H4, Kegalle, Sri Lanka	12.51512	
Kegalle	Mawanella	Balathgamuwa Viharaya	False	False	KGLLMWNLLBLTHGMWVHRY		Kegalle	LK-92	7.104216	80.342866	Mawanella	PS-920122	7.256966	80.445912	7.250057	80.454304	Colombo - Kandy Rd, Mawanella, Sri Lanka	1.203326	
Kegalle	Kegalle	Ambanpitiya Viharaya	False	False	KGLLKGLLMBNPTYVHRY		Kegalle	LK-92	7.104216	80.342866	Kegalle	PS-920118	7.255928	80.353156	7.252449	80.323654	782F+XFC, Kegalle, Sri Lanka	3.278156	
Kegalle	Kegalle	Randeniya Viharaya	False	False	KGLLKGLLRNDNYVHRY		Kegalle	LK-92	7.104216	80.342866	Kegalle	PS-920118	7.255928	80.353156	7.251332	80.346375	782W+GHJ, Kegalle, Sri Lanka	0.906179	
Kegalle	Kegalle	Udumagama Viharaya	False	False	KGLLKGLLDMGMVHRY		Kegalle	LK-92	7.104216	80.342866	Kegalle	PS-920118	7.255928	80.353156					#CenterLocationUnknown
Kegalle	Awissawella	Dehiowita National College	False	False	KGLLWSSWLLDHWTNTNLCLLG		Kegalle	LK-92	7.104216	80.342866	Awissawella	PS-920226	6.947538	80.215422	6.964079	80.265062	Yatiyantota Road, Sri Lanka	5.781379	
Kegalle	Rambukkana	Kadigamuwa Primary School	False	False	KGLLRMBKKNKDGMWPRMRYSCHL		Kegalle	LK-92	7.104216	80.342866	Rambukkana	PS-920123	7.324319	80.387808					#CenterLocationUnknown
Kegalle	Rambukkana	Halagiriya Primary School	False	False	KGLLRMBKKNHLGRYPRMRYSCHL		Kegalle	LK-92	7.104216	80.342866	Rambukkana	PS-920123	7.324319	80.387808	7.294224	80.416972	Walikanda Rd, Rambukkana, Sri Lanka	4.643071	
Kegalle	Rambukkana	Uduhuruwa Maha Vidyalaya	False	False	KGLLRMBKKNDHRWMHVDYLY		Kegalle	LK-92	7.104216	80.342866	Rambukkana	PS-920123	7.324319	80.387808	7.290243	80.386481	Karandupona-Rambukkna Road, Rambukkana 71100, Sri Lanka	3.793094	
Kegalle	Rambukkana	Beddewela Primary School	False	False	KGLLRMBKKNBDDWLPRMRYSCHL		Kegalle	LK-92	7.104216	80.342866	Rambukkana	PS-920123	7.324319	80.387808	7.287744	80.451084	Rambukkana-Mawanella Rd, Sri Lanka	8.079936	
Kegalle	Deraniyagala	Dodawatte Sri Visuddharamaya	False	False	KGLLDRNYGLDDWTTSRVSDDHRMY		Kegalle	LK-92	7.104216	80.342866	Deraniyagala	PS-920228	6.935815	80.334998	7.362185	80.409296	9C65+VPF, Rambukkana, Sri Lanka	48.128732	#CenterFarFromPolice
Kegalle	Deraniyagala	Polgaswatta Community Hall	False	False	KGLLDRNYGLPLGSWTTCMMNTYHLL		Kegalle	LK-92	7.104216	80.342866	Deraniyagala	PS-920228	6.935815	80.334998	6.928375	80.336999	Deraniyagala Road, Deraniyagala, Sri Lanka	0.856537	
Kegalle	Yatiyantota	Malalpola Maha Vidyalaya	False	False	KGLLYTYNTTMLLPLMHVDYLY		Kegalle	LK-92	7.104216	80.342866	Yatiyantota	PS-920230	7.027207	80.290753	7.031041	80.295242	Old Rd, Yatiyanthota, Sri Lanka	0.65379	
Kegalle	Yatiyantota	Amanawala Maha Vidyalaya	False	False	KGLLYTYNTTMNWLMHVDYLY		Kegalle	LK-92	7.104216	80.342866	Yatiyantota	PS-920230	7.027207	80.290753	7.031041	80.295242	Old Rd, Yatiyanthota, Sri Lanka	0.65379	
Kegalle	Yatiyantota	Berannawa Abhayaraja Vidyalaya	False	False	KGLLYTYNTTBRNNWBHYRJVDYLY		Kegalle	LK-92	7.104216	80.342866	Yatiyantota	PS-920230	7.027207	80.290753	7.073317	80.411637	Yatiyanthota - Parussella - Punugala - Meenagala Rd, Berannawa, Sri Lanka	14.29582	
Kegalle	Yatiyantota	Dombepola Primary School	False	False	KGLLYTYNTTDMBPLPRMRYSCHL		Kegalle	LK-92	7.104216	80.342866	Yatiyantota	PS-920230	7.027207	80.290753	7.027852	80.292443	27HR+4XW, Kegalle, Sri Lanka	0.199885	
Kegalle	Ruwanwella	Hamdaswalam Vidyalaya	False	False	KGLLRWNWLLHMDSWLMVDYLY		Kegalle	LK-92	7.104216	80.342866	Ruwanwella	PS-920229	7.046189	80.254174	7.039832	80.255654	A21, Ruwanwella, Sri Lanka	0.725717	
Kegalle	Ruwanwella	Arapolamulla Maha Vidyalaya	False	False	KGLLRWNWLLRPLMLLMHVDYLY		Kegalle	LK-92	7.104216	80.342866	Ruwanwella	PS-920229	7.046189	80.254174	7.043054	80.255045	A21, Ruwanwella, Sri Lanka	0.361719	
Kegalle	Ruwanwella	Imbulana Sri Sena Vidyalaya	False	False	KGLLRWNWLLMBLNSRSNVDYLY		Kegalle	LK-92	7.104216	80.342866	Ruwanwella	PS-920229	7.046189	80.254174	7.071095	80.254427	Ruwanwella, Warakapola Road, Sri Lanka	2.770431	
Kegalle	Ruwanwella	Lewangama Primary School	False	False	KGLLRWNWLLLWNGMPRMRYSCHL		Kegalle	LK-92	7.104216	80.342866	Ruwanwella	PS-920229	7.046189	80.254174	7.043001	80.254684	27V3+6V3, Ruwanwella, Sri Lanka	0.359042	
Anuradhapura	Anuradhapura	Pradeshiya Shabha - Vijayapura	False	False	NRDHPRNRDHPRPRDSHYSHBHVJYPR		Anuradhapura	LK-71	8.39199	80.512958	Anuradapura	PS-710101	8.329752	80.407265	8.304729	80.417186	Nagasena Mawatha, Anuradhapura, Sri Lanka	2.989822	
Anuradhapura	Anuradhapura	Walisinghe Harischandra Ground	False	False	NRDHPRNRDHPRWLSNGHHRSCHNDRGRND		Anuradhapura	LK-71	8.39199	80.512958	Anuradapura	PS-710101	8.329752	80.407265	8.337404	80.405697	8CP4+X78, Anuradhapura, Sri Lanka	0.868448	
Anuradhapura	Kahatagasdigiliya	Rathmalgahawewa Vidyalaya	False	False	NRDHPRKHTGSDGLYRTHMLGHWWVDYLY		Anuradhapura	LK-71	8.39199	80.512958	Kahatagasdigiliya	PS-710118	8.427328	80.688349	8.531687	80.674104	Medawachchiya-Horowpotana Rd, Sri Lanka	11.713145	
Anuradhapura	Horowpothana	Ruwanveli Central College	False	False	NRDHPRHRWPTHNRWNVLCNTRLCLLG		Anuradhapura	LK-71	8.39199	80.512958	Horowpathana	PS-710117	8.553878	80.830734	8.552126	80.830957	A29, Horowupotana, Sri Lanka	0.196412	
Anuradhapura	Kallanchiya	Kallanchiya Vidyalaya	False	False	NRDHPRKLLNCHYKLLNCHYVDYLY		Anuradhapura	LK-71	8.39199	80.512958									#PoliceLocationUnknown
Anuradhapura	Mihintale	MOH Office - Mihintale	False	False	NRDHPRMHNTLMHFFCMHNTL		Anuradhapura	LK-71	8.39199	80.512958	Mihintale	PS-710104	8.360062	80.511889	8.357612	80.509049	Puttalam - Anuradhapura - Trincomalee Hwy, Mihintale, Sri Lanka	0.41466	
Anuradhapura	Mihintale	Katukeliyawa Muslim Vidyalaya	False	False	NRDHPRMHNTLKTKLYWMSLMVDYLY		Anuradhapura	LK-71	8.39199	80.512958	Mihintale	PS-710104	8.360062	80.511889	8.35	80.5	Katukeliyawa, Mihintale, Sri Lanka	1.721756	
Anuradhapura	Mahawilachchiya	MOH Office - Mahawilachchiya	False	False	NRDHPRMHWLCHCHYMHFFCMHWLCHCHY		Anuradhapura	LK-71	8.39199	80.512958	Mahawilachchiya	PS-710120	8.484987	80.193911	8.494303	80.186519	F5VP+PJC, Mahawilachchiya, Sri Lanka	1.317298	
Anuradhapura	Hidogama	Senamaha Vidyalaya	False	False	NRDHPRHDGMSNMHVDYLY		Anuradhapura	LK-71	8.39199	80.512958	Hidogama	PS-710102	8.31575	80.420358	8.252403	80.423959	Kaluwila, Sri Lanka	7.057216	
Anuradhapura	Polonnaruwa	Muslim Central College - Kaduruwela	False	False	NRDHPRPLNNRWMSLMCNTRLCLLGKDRWL		Anuradhapura	LK-71	8.39199	80.512958	Polonnaruwa	PS-720125	7.924307	81.036895	7.927202	81.038607	Kaduruwela, පොළොන්නරු, Sri Lanka	0.37318	
Anuradhapura	Polonnaruwa	Gallella Al Azhar Maha Vidyalaya	False	False	NRDHPRPLNNRWGLLLLLZHRMHVDYLY		Anuradhapura	LK-71	8.39199	80.512958	Polonnaruwa	PS-720125	7.924307	81.036895	7.908812	81.066664	221, Gallella, Sri Lanka	3.704934	
Anuradhapura	Polonnaruwa	Bediwewa Maha Vidyalaya	False	False	NRDHPRPLNNRWBDWWMHVDYLY		Anuradhapura	LK-71	8.39199	80.512958	Polonnaruwa	PS-720125	7.924307	81.036895	8.235692	80.747058	6PPW+7RF, Anuradhapura, Sri Lanka	47.099798	#CenterFarFromPolice
Jaffna	Nelliyady	MOH Office - Karaveddy	False	False	JFFNNLLYDYMHFFCKRVDDY		Jaffna	LK-41	9.691792	80.098594	Nelliadi	PS-410108	9.778397	80.113303	9.792126	80.201799	Q6R2+VP3, Point Pedro, Sri Lanka	9.819656	
Jaffna	Jaffna	Ariyale Tirappamkulam Mahamari Amman Hall	False	False	JFFNJFFNRYLTRPPMKLMMHMRMMNHLL		Jaffna	LK-41	9.691792	80.098594	Jaffna	PS-410209	9.659919	80.010965	9.664467	80.010483	AB16, Jaffna, Sri Lanka	0.508627	
Jaffna	Jaffna	Ilangavendan Hall Niraviadi	False	False	JFFNJFFNLNGVNDNHLLNRVD		Jaffna	LK-41	9.691792	80.098594	Jaffna	PS-410209	9.659919	80.010965	9.664467	80.010483	AB16, Jaffna, Sri Lanka	0.508627	
Jaffna	Jaffna	Vaitheeswara Vidyalaya	False	False	JFFNJFFNVTHSWRVDYLY		Jaffna	LK-41	9.691792	80.098594	Jaffna	PS-410209	9.659919	80.010965	9.672726	80.009234	M2F5+3MX, Jaffna, Sri Lanka	1.43711	
Jaffna	Point Pedro	Vadamarachchi Hindu Girls' College	False	False	JFFNPNTPDRVDMRCHCHHNDGRLSCLLG		Jaffna	LK-41	9.691792	80.098594	Point Pedro	PS-410106	9.827018	80.233187	9.817623	80.23136	Vinayaga Muthaliyaar Veethy, Point Pedro, Sri Lanka	1.064016	
Jaffna	Point Pedro	MOH Office - Maradankeni	False	False	JFFNPNTPDRMHFFCMRDNKN		Jaffna	LK-41	9.691792	80.098594	Point Pedro	PS-410106	9.827018	80.233187	9.660774	80.029846	M26H+8W5, Jaffna, Sri Lanka	28.962559	#CenterFarFromPolice
Jaffna	Point Pedro	Vada Hindu Girls' College	False	False	JFFNPNTPDRVDHNDGRLSCLLG		Jaffna	LK-41	9.691792	80.098594	Point Pedro	PS-410106	9.827018	80.233187	9.817623	80.23136	Vinayaga Muthaliyaar Veethy, Point Pedro, Sri Lanka	1.064016	
Jaffna	Kayts	MOH Office – Kayts	False	False	JFFNKYTSMHFFCKYTS		Jaffna	LK-41	9.691792	80.098594	Kayts	PS-410212	9.728654	79.94775	9.697759	79.866366	Sri Lanka, Kayts, Sri Lanka	9.561445	
Jaffna	Kayts	MOH Office – Velanai	False	False	JFFNKYTSMHFFCVLN		Jaffna	LK-41	9.691792	80.098594	Kayts	PS-410212	9.728654	79.94775	9.636317	79.903777	Chatty vangkalvady road, Velanai, Sri Lanka	11.346015	
Jaffna	Kayts	Analativu Hospital	False	False	JFFNKYTSNLTVHSPTL		Jaffna	LK-41	9.691792	80.098594	Kayts	PS-410212	9.728654	79.94775	9.67012	79.780212	Ward No-1, Analaitivu, Main Rd, Sri Lanka	19.488554	
Jaffna	Kayts	PMCU Eluvaithivu	False	False	JFFNKYTSPMCLVTHV		Jaffna	LK-41	9.691792	80.098594	Kayts	PS-410212	9.728654	79.94775	9.757134	79.938543	QW4Q+VC3, Jaffna, Sri Lanka	3.324733	
Jaffna	Kayts	Velanai Saraswathi  Vidyalaya	False	False	JFFNKYTSVLNSRSWTHVDYLY		Jaffna	LK-41	9.691792	80.098594	Kayts	PS-410212	9.728654	79.94775	9.63724	79.901078	JWP2+VCW, Velanai, Sri Lanka	11.383096	
Jaffna	Kayts	Velanai Maha Vidyalaya	False	False	JFFNKYTSVLNMHVDYLY		Jaffna	LK-41	9.691792	80.098594	Kayts	PS-410212	9.728654	79.94775	9.62768	79.902605	JWH3+32H, Kayts, Sri Lanka	12.273757	
Jaffna	Kayts	MOH Office - Karainagar	False	False	JFFNKYTSMHFFCKRNGR		Jaffna	LK-41	9.691792	80.098594	Kayts	PS-410212	9.728654	79.94775	9.725097	79.99772	Sri Lanka, Manipay, Sri Lanka	5.492521	
Jaffna	Kopay	MOH Office – Kopay	False	False	JFFNKPYMHFFCKPY		Jaffna	LK-41	9.691792	80.098594	Kopai	PS-410216	9.686887	80.03856	9.706729	80.065433	B268, Jaffna, Sri Lanka	3.681313	
Jaffna	Kopay	Urumpirai Hindu College	False	False	JFFNKPYRMPRHNDCLLG		Jaffna	LK-41	9.691792	80.098594	Kopai	PS-410216	9.686887	80.03856	9.72601	80.047054	P2GW+CR3, Jaffna, Sri Lanka	4.450175	
Jaffna	Kopay	MOH Office- Nallur	False	False	JFFNKPYMHFFCNLLR		Jaffna	LK-41	9.691792	80.098594	Kopai	PS-410216	9.686887	80.03856	9.673947	80.027736	M2FH+H3H, Jaffna, Sri Lanka	1.865513	
Jaffna	Kopay	Muthathuthambi Maha Vidyalaya - Nallur	False	False	JFFNKPYMTHTHTHMBMHVDYLYNLLR		Jaffna	LK-41	9.691792	80.098594	Kopai	PS-410216	9.686887	80.03856	9.681904	80.024552	Palali Rd, Jaffna, Sri Lanka	1.632851	
Jaffna	Kopay	Magnmanpathi Kovil	False	False	JFFNKPYMGNMNPTHKVL		Jaffna	LK-41	9.691792	80.098594	Kopai	PS-410216	9.686887	80.03856	9.674532	80.029444	M2FH+RQ8, Jaffna, Sri Lanka	1.699298	
Jaffna	Illawalai	St.Henry's College - Illawalai	False	False	JFFNLLWLSTHNRYSCLLGLLWL		Jaffna	LK-41	9.691792	80.098594	Ilavalai	PS-410102	9.775967	79.983146	9.795043	79.991203	College Lane, Ilavalai, Sri Lanka	2.298273	
Jaffna	Chunnakam	MOH Office – Uduvil	False	False	JFFNCHNNKMMHFFCDVL		Jaffna	LK-41	9.691792	80.098594	Chunnakam	PS-410211	9.745309	80.029151	9.742938	80.035132	P2VP+53C, Chunnakam, Sri Lanka	0.706719	
Jaffna	Chunnakam	Inuvil Arivalayam Community Hall	False	False	JFFNCHNNKMNVLRVLYMCMMNTYHLL		Jaffna	LK-41	9.691792	80.098594	Chunnakam	PS-410211	9.745309	80.029151	9.689313	80.031016	M2QJ+PCC, Jaffna, Sri Lanka	6.231781	
Jaffna	Chunnakam	Sitti Vinayagar Vidyalaya - Punnale Kattuwan	False	False	JFFNCHNNKMSTTVNYGRVDYLYPNNLKTTWN		Jaffna	LK-41	9.691792	80.098594	Chunnakam	PS-410211	9.745309	80.029151	9.744083	80.027248	P2VG+JVQ, Chunnakam, Sri Lanka	0.249233	
Jaffna	Kodikaman	DH – Varani	False	False	JFFNKDKMNDHVRN		Jaffna	LK-41	9.691792	80.098594	Kodikamam	PS-410217	9.666459	80.132384	9.681381	80.219829	Kodikamam, Kandy - Jaffna Hwy, Sri Lanka	9.73078	
Jaffna	Manippai	Manipay Memorial Vidyalaya	False	False	JFFNMNPPMNPYMMRLVDYLY		Jaffna	LK-41	9.691792	80.098594	Manippai	PS-410210	9.727151	79.996905	9.727933	79.999604	Memorial Lane, Manipay, Sri Lanka	0.308413	
Jaffna	Thelippalai	Kirimale Naguleswaram Maha Vidyalaya	False	False	JFFNTHLPPLKRMLNGLSWRMMHVDYLY		Jaffna	LK-41	9.691792	80.098594	Thelippalay	PS-410104	6.933075	79.857181	9.813444	80.012116	R276+9RH, Kankesanturai, Sri Lanka	320.836205	#CenterFarFromPolice
Jaffna	Wadukkotte	MOH Office – Chankanai	False	False	JFFNWDKKTTMHFFCCHNKN		Jaffna	LK-41	9.691792	80.098594	Vaddukoddai		9.728886	79.947771	9.753617	79.976004	QX3G+CCR, Sri Lanka	4.140836	
Jaffna	Wadukkotte	Jaffna Vidyalaya	False	False	JFFNWDKKTTJFFNVDYLY		Jaffna	LK-41	9.691792	80.098594	Vaddukoddai		9.728886	79.947771	9.689647	80.003829	M2Q3+VG4, Jaffna, Sri Lanka	7.538147	
Jaffna	Wadukkotte	Victoria Vidyalaya - Chulipuram	False	False	JFFNWDKKTTVCTRVDYLYCHLPRM		Jaffna	LK-41	9.691792	80.098594	Vaddukoddai		9.728886	79.947771	9.759993	79.942186	Paralai Rd, Sri Lanka	3.513779	
Jaffna	Achchuveli	Achchuveli Hospital	False	False	JFFNCHCHVLCHCHVLHSPTL		Jaffna	LK-41	9.691792	80.098594	Achchuweli	PS-410103	6.934132	79.856305	9.772721	80.115501	Avarankal-Tondaimanar Rd, Sri Lanka	317.021383	#CenterFarFromPolice
Jaffna	Achchuveli	Puttur Sri Somaskanda Vidyalaya	False	False	JFFNCHCHVLPTTRSRSMSKNDVDYLY		Jaffna	LK-41	9.691792	80.098594	Achchuweli	PS-410103	6.934132	79.856305	9.745655	80.104632	AB20 - Point Pedro Road Puttur west, Jaffna 40000, Sri Lanka	313.916871	#CenterFarFromPolice
Jaffna	Chavakachcheri	Town Hall - Chavakachcheri	False	False	JFFNCHVKCHCHRTWNHLLCHVKCHCHR		Jaffna	LK-41	9.691792	80.098594	Chawakachcheri	PS-410215	9.666459	80.132384	9.659136	80.160946	M556+M94, Chavakachcheri, Sri Lanka	3.236063	
Jaffna	Chavakachcheri	Nawakkuli Maha Vidyalaya	False	False	JFFNCHVKCHCHRNWKKLMHVDYLY		Jaffna	LK-41	9.691792	80.098594	Chawakachcheri	PS-410215	9.666459	80.132384	9.658598	80.097497	M35W+CXQ, Chavakachcheri, Sri Lanka	3.924081	
Jaffna	Chavakachcheri	UC Hall	False	False	JFFNCHVKCHCHRCHLL		Jaffna	LK-41	9.691792	80.098594	Chawakachcheri	PS-410215	9.666459	80.132384	9.66646	80.132092	Chavakachcheri, Sri Lanka	0.032018	
Jaffna	Chavakachcheri	Kachchai Public Health Centre	False	False	JFFNCHVKCHCHRKCHCHPBLCHLTHCNTR		Jaffna	LK-41	9.691792	80.098594	Chawakachcheri	PS-410215	9.666459	80.132384	9.661539	80.166807	M568+JP7, Chavakachcheri, Sri Lanka	3.813979	
Jaffna	Chavakachcheri	Manduvil RCTM College	False	False	JFFNCHVKCHCHRMNDVLRCTMCLLG		Jaffna	LK-41	9.691792	80.098594	Chawakachcheri	PS-410215	9.666459	80.132384	9.659342	80.162349	Chavakachcheri, Sri Lanka	3.379732	
Jaffna	Pooneryn	MOH Office – Pooneryn	False	False	JFFNPNRYNMHFFCPNRYN		Jaffna	LK-41	9.691792	80.098594	Pooneryn		9.505717	80.21101	9.507968	80.208317	G655+58P, Pooneryn, Sri Lanka	0.387256	
Kilinochchi	Mulankavil	Mulankavil Hospital	False	False	KLNCHCHMLNKVLMLNKVLHSPTL		Kilinochchi	LK-45	9.415742	80.30358	Mulankavil	PS-450135	9.254463	80.141528	9.243423	80.143894	Base Hospital Mulankavil, A32 Road, Mulankavil, Kumulamunai, Sri Lanka	1.255148	
Mullaitivu	Mulliyawalai	Mulliyawalai Tamil Maha Vidyalaya	False	False	MLLTVMLLYWLMLLYWLTMLMHVDYLY		Mullaitivu	LK-44	9.167643	80.549091	Muliyaweli	PS-440150	6.915266	79.87829	9.216635	80.768422	6Q89+M93, Mulliyawalai, Sri Lanka	274.107051	#CenterFarFromPolice
Mullaitivu	Welioya	MOH Office - Sampathnuwa	False	False	MLLTVWLYMHFFCSMPTHNW		Mullaitivu	LK-44	9.167643	80.549091	Welioya	PS-440152	8.980582	80.773572	8.981105	80.771742	XQJC+CMX, Welioya, Sri Lanka	0.209302	
Mullaitivu	Puthukudiyiruppu	Sri Subramaniyam Vidyalaya	False	False	MLLTVPTHKDYRPPSRSBRMNYMVDYLY		Mullaitivu	LK-44	9.167643	80.549091	Pudukuduiruppu	PS-440149	7.00152	79.95003	9.314562	80.696594	8M7W+RJG, Puthukkudiyiruppu, Sri Lanka	270.089737	#CenterFarFromPolice
Mullaitivu	Puthukudiyiruppu	Devipuram Primary Clinic Centre	False	False	MLLTVPTHKDYRPPDVPRMPRMRYCLNCCNTR		Mullaitivu	LK-44	9.167643	80.549091	Pudukuduiruppu	PS-440149	7.00152	79.95003	9.313637	80.696168	Puthukudiyiruppu, Sri Lanka	269.977487	#CenterFarFromPolice
Mullaitivu	Puthukudiyiruppu	Mungilaru Hospital	False	False	MLLTVPTHKDYRPPMNGLRHSPTL		Mullaitivu	LK-44	9.167643	80.549091	Pudukuduiruppu	PS-440149	7.00152	79.95003	9.315321	80.704462	8P83+4QP Puthukkudiyiruppu Divisional Hospital, Parantan-Mullaitivu Hwy, Puthukkudiyiruppu, Sri Lanka	270.434821	#CenterFarFromPolice
Mullaitivu	Puthukudiyiruppu	Vishwamadu Bharathi Vidyalaya	False	False	MLLTVPTHKDYRPPVSHWMDBHRTHVDYLY		Mullaitivu	LK-44	9.167643	80.549091	Pudukuduiruppu	PS-440149	7.00152	79.95003	9.346216	80.738258	8PWQ+F8J, Ampalavanpokkanai, Sri Lanka	274.858191	#CenterFarFromPolice
Mullaitivu	Mankulam	MOH Office – Vannivilan	False	False	MLLTVMNKLMMHFFCVNNVLN		Mullaitivu	LK-44	9.167643	80.549091	Mankulam	PS-440147	9.124606	80.448404	9.224944	80.775953	6QFG+X9G, Tanniyutttu, Sri Lanka	37.658882	#CenterFarFromPolice
Mannar	Adampan	Pallemadu Hospital	False	False	MNNRDMPNPLLMDHSPTL		Mannar	LK-42	8.877429	80.088628	Adampan		8.939451	80.002055	8.981662	79.904574	Thalvupadu - Mannar Rd, Mannar 41000, Sri Lanka	11.69437	
Mannar	Uyilankulama	RCTMS College	False	False	MNNRYLNKLMRCTMSCLLG		Mannar	LK-42	8.877429	80.088628									#PoliceLocationUnknown
Trincomalee	Muttur	Kanguveli Maha Vidyalaya	False	False	TRNCMLMTTRKNGVLMHVDYLY		Trincomalee	LK-53	8.551241	81.092014	Mutur	PS-530138	8.461133	81.259371	8.395769	81.282165	Paddithidal, Sri Lanka	7.690846	
Trincomalee	Muttur	MOH Office – Muttur	False	False	TRNCMLMTTRMHFFCMTTR		Trincomalee	LK-53	8.551241	81.092014	Mutur	PS-530138	8.461133	81.259371	8.453916	81.264494	1 Old Batticaloa Rd, Mutur, Sri Lanka	0.980859	
Trincomalee	Kinniya	MOH Office - Kurungnakeni	False	False	TRNCMLKNNYMHFFCKRNGNKN		Trincomalee	LK-53	8.551241	81.092014	Kinnia	PS-530140	6.907289	79.863819	7.484932	80.353119	F9M3+X6H, Kurunegala 60000, Sri Lanka	83.927094	#CenterFarFromPolice
Trincomalee	Kinniya	Al Surangal Maha Vidyalaya	False	False	TRNCMLKNNYLSRNGLMHVDYLY		Trincomalee	LK-53	8.551241	81.092014	Kinnia	PS-530140	6.907289	79.863819	8.480347	81.185754	F5JP+48J, Kinniya, Sri Lanka	227.697731	#CenterFarFromPolice
Trincomalee	Kinniya	Iladi Puhari Maha Vidyalaya	False	False	TRNCMLKNNYLDPHRMHVDYLY		Trincomalee	LK-53	8.551241	81.092014	Kinnia	PS-530140	6.907289	79.863819	8.480347	81.185754	F5JP+48J, Kinniya, Sri Lanka	227.697731	#CenterFarFromPolice
Trincomalee	Kinniya	Al Hira Vidyalaya	False	False	TRNCMLKNNYLHRVDYLY		Trincomalee	LK-53	8.551241	81.092014	Kinnia	PS-530140	6.907289	79.863819	8.495277	81.185362	MEH Mahroof Rd, Kinniya, Sri Lanka	228.947124	#CenterFarFromPolice
Trincomalee	Kinniya	Majeeth Nagar Rural Hospital	False	False	TRNCMLKNNYMJTHNGRRRLHSPTL		Trincomalee	LK-53	8.551241	81.092014	Kinnia	PS-530140	6.907289	79.863819					#CenterLocationUnknown
Trincomalee	Kinniya	Base Hospital – Kinniya	False	False	TRNCMLKNNYBSHSPTLKNNY		Trincomalee	LK-53	8.551241	81.092014	Kinnia	PS-530140	6.907289	79.863819	8.501539	81.187539	Tampalakamam-Kinniya Rd, Kinniya 31100, Sri Lanka	229.636589	#CenterFarFromPolice
Trincomalee	Kinniya	MOH Office – Kinniya	False	False	TRNCMLKNNYMHFFCKNNY		Trincomalee	LK-53	8.551241	81.092014	Kinnia	PS-530140	6.907289	79.863819	8.498696	81.179644	F5XH+FVC, Kinniya 31100, Sri Lanka	228.840304	#CenterFarFromPolice
Trincomalee	Sripura	MOH Office – Sripura	False	False	TRNCMLSRPRMHFFCSRPR		Trincomalee	LK-53	8.551241	81.092014	Sripura	PS-530136	8.929617	80.81428	8.926697	80.814799	Padavi Sripura, Padaviya - Sripura Road, Welioya, Sri Lanka	0.329869	
Trincomalee	Kuchchaveli	MOH Office - Kuchchaveli	False	False	TRNCMLKCHCHVLMHFFCKCHCHVL		Trincomalee	LK-53	8.551241	81.092014	Kuchchaweli	PS-530133	8.81895	81.100438	8.740082	81.161616	P5R6+2JQ, Kumpurupiddi, Sri Lanka	11.053646	
Trincomalee	Kuchchaveli	Divisional Hospital - Kuchchaveli	False	False	TRNCMLKCHCHVLDVSNLHSPTLKCHCHVL		Trincomalee	LK-53	8.551241	81.092014	Kuchchaweli	PS-530133	8.81895	81.100438	8.814795	81.102358	R472+WW9, Kuchchaveli, Sri Lanka	0.508064	
Trincomalee	Kuchchaveli	Divisional Hospital - Nilaveli	False	False	TRNCMLKCHCHVLDVSNLHSPTLNLVL		Trincomalee	LK-53	8.551241	81.092014	Kuchchaweli	PS-530133	8.81895	81.100438	8.681035	81.193632	M5JV+CF6, Nilaveli, Sri Lanka	18.44695	
Trincomalee	Pulmoddai	Base Hospital - Pulmoddai	False	False	TRNCMLPLMDDBSHSPTLPLMDD		Trincomalee	LK-53	8.551241	81.092014	Pulmudai	PS-530135	6.915266	79.87829	8.941204	80.983139	WXRM+F7J, Pulmoddai, Sri Lanka	256.112801	#CenterFarFromPolice
Trincomalee	Serunuwara	MOH Office - Serunuwara	False	False	TRNCMLSRNWRMHFFCSRNWR		Trincomalee	LK-53	8.551241	81.092014	Serunuwara	PS-530244	8.321863	81.299322	8.323143	81.299894	B10, Sri Lanka	0.155671	
Trincomalee	Harbour Police	MOH Office - Trincomalee	False	False	TRNCMLHRBRPLCMHFFCTRNCML		Trincomalee	LK-53	8.551241	81.092014	Trinco Harbour Police	PS-530131	8.56705	81.231407	8.598974	81.216963	MOH Office, Farm Rd, Trincomalee, Sri Lanka	3.890062	
Trincomalee	Harbour Police	Base Hospital - Trincomalee	False	False	TRNCMLHRBRPLCBSHSPTLTRNCML		Trincomalee	LK-53	8.551241	81.092014	Trinco Harbour Police	PS-530131	8.56705	81.231407	8.56486	81.239445	Hospital Ln, Trincomalee, Sri Lanka	0.917037	
Trincomalee	Uppuveli	MOH Office - Uppuveli	False	False	TRNCMLPPVLMHFFCPPVL		Trincomalee	LK-53	8.551241	81.092014	Uppuweli	PS-530134	8.593614	81.21743	8.607961	81.216512	Nilaveli Rd, Trincomalee, Sri Lanka	1.599005	
Trincomalee	Kantale	MOH Office - Kantale	False	False	TRNCMLKNTLMHFFCKNTL		Trincomalee	LK-53	8.551241	81.092014	Kantale	PS-530241	8.356129	81.007739	8.349617	81.009107	අග්‍රබෝධි මාවත, Kantale, Sri Lanka	0.739809	
Trincomalee	Ichchalampattu	MOH Office - Ichchalampattu	False	False	TRNCMLCHCHLMPTTMHFFCCHCHLMPTT	Eachchilampattu Hospital	Trincomalee	LK-53	8.551241	81.092014	Ichchalampattu		8.289549	81.359002	8.289644	81.358983	Highway, Ichchalampattu, Trincomalee, Sri Lanka	0.010772	
Trincomalee	Thambalagamuwa	MOH Office - Thambalagamuwa	False	False	TRNCMLTHMBLGMWMHFFCTHMBLGMW		Trincomalee	LK-53	8.551241	81.092014	Thambalagamuva	PS-530243	6.907289	79.863819	8.563603	81.239584	Hospital Ln, Trincomalee, Sri Lanka	238.604889	#CenterFarFromPolice
Batticaloa	Batticaloa	Batticaloa Hindu College	False	False	BTTCLBTTCLBTTCLHNDCLLG		Batticaloa	LK-51	7.792772	81.486513	Batticaloa	PS-510101	7.717949	81.699294	7.720987	81.697673	PMCX+93V, Batticaloa, Sri Lanka	0.382244	
Batticaloa	Batticaloa	Pudur Wigneswara Vidyalaya	False	False	BTTCLBTTCLPDRWGNSWRVDYLY		Batticaloa	LK-51	7.792772	81.486513	Batticaloa	PS-510101	7.717949	81.699294	7.702421	81.680903	PM2J+X96, Batticaloa, Sri Lanka	2.663158	
Batticaloa	Batticaloa	Kulawadi Cultural Hall	False	False	BTTCLBTTCLKLWDCLTRLHLL		Batticaloa	LK-51	7.792772	81.486513	Batticaloa	PS-510101	7.717949	81.699294	7.719059	81.70279	Goldsmith road, Batticaloa, Sri Lanka	0.404633	
Batticaloa	Batticaloa	Kalladi Sivananda Vidyalaya	False	False	BTTCLBTTCLKLLDSVNNDVDYLY		Batticaloa	LK-51	7.792772	81.486513	Batticaloa	PS-510101	7.717949	81.699294	7.70372	81.716302	Batticaloa, Sri Lanka	2.453441	
Batticaloa	Kokkadicholai	Ramakrishna Maha Vidyalaya	False	False	BTTCLKKKDCHLRMKRSHNMHVDYLY		Batticaloa	LK-51	7.792772	81.486513	Kokkadicholai	PS-510112	7.715979	81.698757	7.412373	81.828629	Udyar Rd, Kalmunai 32300, Sri Lanka	36.68073	#CenterFarFromPolice
Batticaloa	Kokkadicholai	Pandariavali  Vidyalaya	False	False	BTTCLKKKDCHLPNDRVLVDYLY		Batticaloa	LK-51	7.792772	81.486513	Kokkadicholai	PS-510112	7.715979	81.698757	7.612375	81.709193	Kokkadicholai, Sri Lanka	11.581137	
Batticaloa	Vellawali	Mandur Vidyalaya	False	False	BTTCLVLLWLMNDRVDYLY		Batticaloa	LK-51	7.792772	81.486513	Vellavali	PS-510111	6.907289	79.863819	7.720143	81.700516	PPC2+362, Batticaloa, Sri Lanka	221.887623	#CenterFarFromPolice
Batticaloa	Vellawali	Thampalawatta Ganesha Vidyalaya	False	False	BTTCLVLLWLTHMPLWTTGNSHVDYLY		Batticaloa	LK-51	7.792772	81.486513	Vellavali	PS-510111	6.907289	79.863819	7.470733	81.808597	FRC5+7CX, Periyakallar, Sri Lanka	223.579216	#CenterFarFromPolice
Batticaloa	Valachchenai	Valachchenai Base Hospital	False	False	BTTCLVLCHCHNVLCHCHNBSHSPTL		Batticaloa	LK-51	7.792772	81.486513	Valachchanai	PS-510107	7.908015	81.533004	7.911315	81.533046	Valaichchenai-Nasuvantivu-Navaladi Road, Sri Lanka	0.367088	
Batticaloa	Valachchenai	MOH Office - Valachchenai	False	False	BTTCLVLCHCHNMHFFCVLCHCHN		Batticaloa	LK-51	7.792772	81.486513	Valachchanai	PS-510107	7.908015	81.533004	7.912281	81.532775	WG6M+W46, Batticaloa, Sri Lanka	0.475177	
Batticaloa	Valachchenai	MOH Office - Oddamavadi	False	False	BTTCLVLCHCHNMHFFCDDMVD		Batticaloa	LK-51	7.792772	81.486513	Valachchanai	PS-510107	7.908015	81.533004	7.912281	81.532775	WG6M+W46, Batticaloa, Sri Lanka	0.475177	
Batticaloa	Valachchenai	MOH Office - Kiran	False	False	BTTCLVLCHCHNMHFFCKRN		Batticaloa	LK-51	7.792772	81.486513	Valachchanai	PS-510107	7.908015	81.533004	7.502211	79.839254	GR2Q+VPJ, Madampe, Sri Lanka	192.073036	#CenterFarFromPolice
Batticaloa	Vakarai	Rural Development Office - Panichchankenai	False	False	BTTCLVKRRRLDVLPMNTFFCPNCHCHNKN		Batticaloa	LK-51	7.792772	81.486513	Wakarai	PS-510109	6.934132	79.856305	7.531513	80.43536	Bathalagoda, Ibbagamuwa, Sri Lanka	92.183337	#CenterFarFromPolice
Batticaloa	Vakarai	Puttur Pre School	False	False	BTTCLVKRPTTRPRSCHL		Batticaloa	LK-51	7.792772	81.486513	Wakarai	PS-510109	6.934132	79.856305	8.12458	81.43356	4CFM+RCM, Sri Lanka	218.591111	#CenterFarFromPolice
Batticaloa	Vakarai	Rural Development Office - Palchenai	False	False	BTTCLVKRRRLDVLPMNTFFCPLCHN		Batticaloa	LK-51	7.792772	81.486513	Wakarai	PS-510109	6.934132	79.856305	7.729967	81.690263	PMHR+X4J, Batticaloa, Sri Lanka	220.838594	#CenterFarFromPolice
Batticaloa	Kaluwanchikudy	Padirippu Maha Vidyalaya	False	False	BTTCLKLWNCHKDYPDRPPMHVDYLY		Batticaloa	LK-51	7.792772	81.486513	Kalawanchikudy	PS-510110	7.515908	81.787051	7.517234	81.786135	Paddiruppu M.M.V National School, Base Hospital Road Kaluwanchikudi - Vellaveli Rd, Kaluwanchikudy 038975, Sri Lanka	0.178765	
Batticaloa	Kaluwanchikudy	Eruvilkannaki Maha Vidyalaya	False	False	BTTCLKLWNCHKDYRVLKNNKMHVDYLY		Batticaloa	LK-51	7.792772	81.486513	Kalawanchikudy	PS-510110	7.515908	81.787051	7.506644	81.779511	GQ4H+MR2, Kaluwanchikudy, Sri Lanka	1.323995	
Batticaloa	Kaluwanchikudy	Mahilur Maha Vidyalaya	False	False	BTTCLKLWNCHKDYMHLRMHVDYLY		Batticaloa	LK-51	7.792772	81.486513	Kalawanchikudy	PS-510110	7.515908	81.787051	7.506644	81.779511	GQ4H+MR2, Kaluwanchikudy, Sri Lanka	1.323995	
Batticaloa	Kaluwanchikudy	Base Hospital - Kaluwanchikudy	False	False	BTTCLKLWNCHKDYBSHSPTLKLWNCHKDY		Batticaloa	LK-51	7.792772	81.486513	Kalawanchikudy	PS-510110	7.515908	81.787051	7.51724	81.785184	GQ8P+V3V, Kaluwanchikudy, Sri Lanka	0.25365	
Batticaloa	Kaluwanchikudy	Kurumanveli Maha Vidyalaya	False	False	BTTCLKLWNCHKDYKRMNVLMHVDYLY		Batticaloa	LK-51	7.792772	81.486513	Kalawanchikudy	PS-510110	7.515908	81.787051	7.491694	81.778475	FQRH+M9H, Kaluwanchikudy, Sri Lanka	2.854575	
Batticaloa	Vavunathivu	MOH Office - Vavunathivu	False	False	BTTCLVVNTHVMHFFCVVNTHV		Batticaloa	LK-51	7.792772	81.486513	Vavunathive	PS-510102	6.933075	79.857181	7.708253	81.691368	Hospital Rd, Batticaloa, Sri Lanka	219.95575	#CenterFarFromPolice
Batticaloa	Kattankudy	MOH Office - Arayampathy	False	False	BTTCLKTTNKDYMHFFCRYMPTHY		Batticaloa	LK-51	7.792772	81.486513	Kaththankudi	PS-510103	7.715979	81.698757	7.672862	81.735019	MPFP+42R, Sri Lanka	6.243191	
Batticaloa	Kattankudy	MOH Office - Kattankudy	False	False	BTTCLKTTNKDYMHFFCKTTNKDY		Batticaloa	LK-51	7.792772	81.486513	Kaththankudi	PS-510103	7.715979	81.698757	7.683586	81.730767	MPMJ+C8J, Kattankudy, Sri Lanka	5.042961	
Batticaloa	Eravur	Sandiveli Hospital	False	False	BTTCLRVRSNDVLHSPTL		Batticaloa	LK-51	7.792772	81.486513	Eravur	PS-510104	7.715979	81.698757	7.777289	81.602853	Trincomalee Hwy, Eravur, Sri Lanka	12.578998	
Batticaloa	Eravur	MOH Office – Eravur	False	False	BTTCLRVRMHFFCRVR		Batticaloa	LK-51	7.792772	81.486513	Eravur	PS-510104	7.715979	81.698757	7.783664	81.605626	QJM4+F76, Eravur, Sri Lanka	12.729342	
Batticaloa	Eravur	Al Askara Vidyalaya	False	False	BTTCLRVRLSKRVDYLY		Batticaloa	LK-51	7.792772	81.486513	Eravur	PS-510104	7.715979	81.698757	7.785947	81.590295	Trincomalee Road, Chenkaladi, Sri Lanka	14.264135	
Batticaloa	Eravur	Al Barkath Mosque	False	False	BTTCLRVRLBRKTHMSQ		Batticaloa	LK-51	7.792772	81.486513	Eravur	PS-510104	7.715979	81.698757	7.776897	81.604203	Eravur, Sri Lanka	12.430415	
Batticaloa	Eravur	Wigneswara Maha Vidyalaya	False	False	BTTCLRVRWGNSWRMHVDYLY		Batticaloa	LK-51	7.792772	81.486513	Eravur	PS-510104	7.715979	81.698757	7.781715	81.601743	Eravur - 04, Chenkaladi, Sri Lanka	12.953304	
Batticaloa	Eravur	Palayadithona Vidyalaya	False	False	BTTCLRVRPLYDTHNVDYLY		Batticaloa	LK-51	7.792772	81.486513	Eravur	PS-510104	7.715979	81.698757	7.785947	81.590295	Trincomalee Road, Chenkaladi, Sri Lanka	14.264135	
Batticaloa	Eravur	Mawadiwembu Hospital	False	False	BTTCLRVRMWDWMBHSPTL		Batticaloa	LK-51	7.792772	81.486513	Eravur	PS-510104	7.715979	81.698757	7.808545	81.566328	Mawadiwembu Hospital, Sri Lanka	17.861302	
Batticaloa	Eravur	Eravur Hospital	False	False	BTTCLRVRRVRHSPTL		Batticaloa	LK-51	7.792772	81.486513	Eravur	PS-510104	7.715979	81.698757	7.783168	81.605999	QJM4+799, Eravur 30300, Sri Lanka	12.663585	
Batticaloa	Eravur	Tamil Maha Vidyalaya	False	False	BTTCLRVRTMLMHVDYLY		Batticaloa	LK-51	7.792772	81.486513	Eravur	PS-510104	7.715979	81.698757	7.781715	81.601743	Eravur - 04, Chenkaladi, Sri Lanka	12.953304	
Batticaloa	Eravur	MOH Office - Chenkaladi	False	False	BTTCLRVRMHFFCCHNKLD		Batticaloa	LK-51	7.792772	81.486513	Eravur	PS-510104	7.715979	81.698757	7.783599	81.593367	Trincomalee Hwy, Chenkaladi 30350, Sri Lanka	13.837876	
Batticaloa	Eravur	Chenkaladi Hospital	False	False	BTTCLRVRCHNKLDHSPTL		Batticaloa	LK-51	7.792772	81.486513	Eravur	PS-510104	7.715979	81.698757	7.783546	81.589961	Batticaloa Rd, Chenkaladi, Sri Lanka	14.151406	
Batticaloa	Karadiyanaru	Kitula Sri Krishna Vidyalaya	False	False	BTTCLKRDYNRKTLSRKRSHNVDYLY		Batticaloa	LK-51	7.792772	81.486513	Karadiyanaru	PS-510105	7.701992	81.537252	7.700747	81.538387	Karadiyanaru, Sri Lanka	0.186625	
Batticaloa	Karadiyanaru	Karadiyanaru Hospital	False	False	BTTCLKRDYNRKRDYNRHSPTL		Batticaloa	LK-51	7.792772	81.486513	Karadiyanaru	PS-510105	7.701992	81.537252	7.700216	81.539779	PG2Q+3WJ, Karadiyanaru, Sri Lanka	0.341482	
Ampara	Chavalakade	MOH Office - Navidanveli	False	False	MPRCHVLKDMHFFCNVDNVL		Ampara	LK-52	7.23699	81.550391	Chawalakade	PS-520125	7.413559	81.776822	7.420081	81.788401	B77, Sri Lanka	1.468805	
Ampara	Karaitivu	MOH Office – Karaitivu	False	False	MPRKRTVMHFFCKRTV		Ampara	LK-52	7.23699	81.550391	Karaitivu		9.744059	79.870587	7.377712	81.838796	Colombo-Ratnapura-Wellawaya-Batticaloa Highway, Karativu 32250, Sri Lanka	340.788666	#CenterFarFromPolice
Ampara	Kalmunai	Ashraff Memorial Hospital	False	False	MPRKLMNSHRFFMMRLHSPTL		Ampara	LK-52	7.23699	81.550391	Kalmunai	PS-520123	7.414289	81.825006	7.403172	81.831146	A4, Ashraff Memorial Base Hospital, A4 A4, Kalmunai 32300, Sri Lanka	1.409859	
Ampara	Kalmunai	MOH Office - Kalmunai South	False	False	MPRKLMNMHFFCKLMNSTH		Ampara	LK-52	7.23699	81.550391	Kalmunai	PS-520123	7.414289	81.825006	7.411712	81.838462	CR6Q+M9P, Kalmunai 32300, Sri Lanka	1.511625	
Ampara	Kalmunai	Base Hospital - Kalmunai North	False	False	MPRKLMNBSHSPTLKLMNNRTH		Ampara	LK-52	7.23699	81.550391	Kalmunai	PS-520123	7.414289	81.825006	7.420034	81.82232	hospital near, Kalmunai 32300, Sri Lanka	0.704353	
Ampara	Kalmunai	Fathima National College	False	False	MPRKLMNFTHMNTNLCLLG		Ampara	LK-52	7.23699	81.550391	Kalmunai	PS-520123	7.414289	81.825006	7.419889	81.823933	Carmel Fatima College Rd, Kalmunai 32300, Sri Lanka	0.634031	
Ampara	Kalmunai	MOH Office - Kalmunai North	False	False	MPRKLMNMHFFCKLMNNRTH		Ampara	LK-52	7.23699	81.550391	Kalmunai	PS-520123	7.414289	81.825006	7.411712	81.838462	CR6Q+M9P, Kalmunai 32300, Sri Lanka	1.511625	
Ampara	Sainthamarthu	MOH Office – Sainthamarthu	False	False	MPRSNTHMRTHMHFFCSNTHMRTH		Ampara	LK-52	7.23699	81.550391									#PoliceLocationUnknown
Ampara	Sainthamarthu	Saindamarthu Hospital	False	False	MPRSNTHMRTHSNDMRTHHSPTL		Ampara	LK-52	7.23699	81.550391									#PoliceLocationUnknown
Ampara	Sammanthurai	Sammanthurai Base Hospital	False	False	MPRSMMNTHRSMMNTHRBSHSPTL		Ampara	LK-52	7.23699	81.550391	Samanthurai	PS-520124	7.365785	81.810859	7.368355	81.813042	9R96+MWM, Hospital Rd, Sammanthurai, Sri Lanka	0.373773	
Ampara	Sammanthurai	MOH Office – Nintavur	False	False	MPRSMMNTHRMHFFCNNTVR		Ampara	LK-52	7.23699	81.550391	Samanthurai	PS-520124	7.365785	81.810859	7.352821	81.856939	Hospital Rd, Nintavur 32340, Sri Lanka	5.283925	
Ampara	Sammanthurai	Nintavur Hospital	False	False	MPRSMMNTHRNNTVRHSPTL		Ampara	LK-52	7.23699	81.550391	Samanthurai	PS-520124	7.365785	81.810859	7.353372	81.856852	Hospital Rd, Nintavur, Sri Lanka	5.258159	
Ampara	Sammanthurai	MOH Office - Sammanthurai	False	False	MPRSMMNTHRMHFFCSMMNTHR		Ampara	LK-52	7.23699	81.550391	Samanthurai	PS-520124	7.365785	81.810859	7.369857	81.812264	9R96+WWR, Sammanthurai, Sri Lanka	0.478712	
Ampara	Thirukkovil	MOH Office – Thirukkovil	False	False	MPRTHRKKVLMHFFCTHRKKVL		Ampara	LK-52	7.23699	81.550391	Thirukkovil	PS-520127	7.113998	81.852219	7.111635	81.852892	Central Rd, Vinayagapuram, Sri Lanka	0.273131	
Ampara	Thirukkovil	Thirukkovil Hospital	False	False	MPRTHRKKVLTHRKKVLHSPTL		Ampara	LK-52	7.23699	81.550391	Thirukkovil	PS-520127	7.113998	81.852219	7.115713	81.851887	4V82+7QJ, Thirukkovil, Sri Lanka	0.194247	
Ampara	Akkaraipattu	MOH Office – Addalachenai	False	False	MPRKKRPTTMHFFCDDLCHN		Ampara	LK-52	7.23699	81.550391	Akkaraipattu	PS-520126	7.216084	81.853254	7.260916	81.853493	7V63+999, Addalaichenai, Sri Lanka	4.986726	
Ampara	Akkaraipattu	MOH Office - Akkaraipattu	False	False	MPRKKRPTTMHFFCKKRPTT		Ampara	LK-52	7.23699	81.550391	Akkaraipattu	PS-520126	7.216084	81.853254	7.228134	81.851123	6VH2+7C5, Akkaraipattu, Sri Lanka	1.360772	
Ampara	Ampara	MOH Office - Ampara	False	False	MPRMPRMHFFCMPR		Ampara	LK-52	7.23699	81.550391	Ampara	PS-520113	7.296771	81.677161	7.296412	81.689717	7MWQ+HV8, Ampara, Sri Lanka	1.385868	
Ampara	Pottuvil	Hulannuge Vidyalaya	False	False	MPRPTTVLHLNNGVDYLY		Ampara	LK-52	7.23699	81.550391	Pothuvil	PS-520128	6.878387	81.826859	6.954907	81.669253	Hulannuge, Sri Lanka	19.372753	
Ampara	Pottuvil	Pottuvil Central College	False	False	MPRPTTVLPTTVLCNTRLCLLG		Ampara	LK-52	7.23699	81.550391	Pothuvil	PS-520128	6.878387	81.826859	6.879508	81.835585	Pottuvil, Sri Lanka	0.971748	
Ampara	Pottuvil	Kalapukattu Vidyalaya	False	False	MPRPTTVLKLPKTTVDYLY		Ampara	LK-52	7.23699	81.550391	Pothuvil	PS-520128	6.878387	81.826859	6.868577	81.824091	VR9F+CJP, Pottuvil, Sri Lanka	1.13317	
Ampara	Pottuvil	MOH Office – Pottuvil	False	False	MPRPTTVLMHFFCPTTVL		Ampara	LK-52	7.23699	81.550391	Pothuvil	PS-520128	6.878387	81.826859	6.877076	81.828969	B374, Pottuvil, Sri Lanka	0.274874	
Ampara	Pottuvil	Pottuvil Hospital	False	False	MPRPTTVLPTTVLHSPTL		Ampara	LK-52	7.23699	81.550391	Pothuvil	PS-520128	6.878387	81.826859	6.876098	81.830463	Main Street Colombo - Batticaloa Hwy, Pottuvil 32500, Sri Lanka	0.47246	
