district	police	center	dose1	dose2	fuzzy_key	alt_name	district_name_norm	district_id	district_lat	district_lng	ps_name_norm	ps_id	ps_lat	ps_lng	lat	lng	formatted_address	dis_center_to_police	tags	district_si	police_si	center_si	district_ta	police_ta	center_ta	formatted_address_si	formatted_address_ta
Colombo	Cinnamon Gardens	Viharamahadevi Park	False	False	CLMBCNNMNGRDNSVHRMHDVPRK		Colombo	LK-11	6.869636	80.019598	Cinnamon Garden	PS-110324	6.907289	79.863819	6.913391	79.86174	Viharamahadevi Park, Colombo, Sri Lanka	0.716497		කොළඹ	කුරුඳු උද්‍යාන	විහාරමහාදේවි උද්‍යානය	கொழும்பு	இலவங்கப்பட்டை தோட்டங்கள்	விஹாரமஹாதேவி பூங்கா	විහාරමහාදේවි උද්‍යානය, කොළඹ, ශ්‍රී ලංකාව	விஹாரமஹாதேவி பூங்கா, கொழும்பு, இலங்கை
Colombo	Thalangama	Diyatha Uyana	False	False	CLMBTHLNGMDYTHYN		Colombo	LK-11	6.869636	80.019598	Thalangama	PS-110466	6.91089	79.929325	6.904575	79.909831	Diyatha Uyana, B240, Sri Jayawardenepura Kotte, Sri Lanka	2.264281		කොළඹ	තලංගම	දියත උයන	கொழும்பு	தலங்கம	தியாத உயனா	දියත උයන, බී 240, ශ්‍රී ජයවර්ධනපුර කෝට්ටේ, ශ්‍රී ලංකාව	தியாத உயனா, B240, ஸ்ரீ ஜெயவர்தனபுர கோட்டே, இலங்கை
Colombo	Thalangama	MOH Office - Battaramulla	False	False	CLMBTHLNGMMHFFCBTTRMLL		Colombo	LK-11	6.869636	80.019598	Thalangama	PS-110466	6.91089	79.929325	6.901538	79.919128	WW29+JM6, Battaramulla 10120, Sri Lanka	1.532936		කොළඹ	තලංගම	MOH කාර්යාලය - බත්තරමුල්ල	கொழும்பு	தலங்கம	MOH அலுவலகம் - பத்தரமுல்ல	WW29+JM6, බත්තරමුල්ල 10120, ශ්‍රී ලංකාව	WW29+JM6, பத்தரமுல்ல 10120, இலங்கை
Colombo	Grandpass	Sugathadasa Outdoor Stadium	False	False	CLMBGRNDPSSSGTHDSTDRSTDM		Colombo	LK-11	6.869636	80.019598	Grandpass	PS-110215	6.949052	79.872983	6.94806	79.868842	Prince of Wales Ave, Colombo 01400, Sri Lanka	0.470345		කොළඹ	ග්‍රෑන්ඩ්පාස්	සුගතදාස එළිමහන් ක්‍රීඩාංගනය	கொழும்பு	கிராண்ட்பாஸ்	சுகததாச வெளிப்புற அரங்கம்	වේල්ස් කුමර මාවත, කොළඹ 01400, ශ්‍රී ලංකාව	பிரின்ஸ் ஆஃப் வேல்ஸ் அவே, கொழும்பு 01400, இலங்கை
Colombo	Grandpass	Nawagampura Viharaya	False	False	CLMBGRNDPSSNWGMPRVHRY		Colombo	LK-11	6.869636	80.019598	Grandpass	PS-110215	6.949052	79.872983	6.943801	79.876504	Stace Rd, Colombo, Sri Lanka	0.701622		කොළඹ	ග්‍රෑන්ඩ්පාස්	නවගම්පුර විහාරය	கொழும்பு	கிராண்ட்பாஸ்	நவகம்புரா விஹாராயா	ස්ටේස් පාර, කොළඹ, ශ්‍රී ලංකාව	ஸ்டேஸ் சாலை, கொழும்பு, இலங்கை
Colombo	Narahenpita	Army Hospital Narahenpita	False	False	CLMBNRHNPTRMYHSPTLNRHNPT		Colombo	LK-11	6.869636	80.019598	Narahenpita	PS-110321	6.891832	79.876715	6.900252	79.87618	08 Elvitigala Mawatha, Colombo 00800, Sri Lanka	0.938417		කොළඹ	නාරාහේන්පිට	නාරාහේන්පිට හමුදා රෝහල	கொழும்பு	நரஹேன்பிட்ட	இராணுவ மருத்துவமனை நாரஹேன்பிட்ட	08 ඇල්විටිගල මාවත, කොළඹ 00800, ශ්‍රී ලංකාව	08 எல்விட்டிகல மாவத்தை, கொழும்பு 00800, இலங்கை
Colombo	Narahenpita	Army Headquarters Mobile Team	False	False	CLMBNRHNPTRMYHDQRTRSMBLTM		Colombo	LK-11	6.869636	80.019598	Narahenpita	PS-110321	6.891832	79.876715					#CenterLocationUnknown	කොළඹ	නාරාහේන්පිට	යුද හමුදා මූලස්ථානයේ ජංගම කණ්ඩායම	கொழும்பு	நரஹேன்பிட்ட	இராணுவ தலைமையகம் மொபைல் குழு		
Colombo	Boralesgamuwa	Kotelawala Defence Hospital	False	False	CLMBBRLSGMWKTLWLDFNCHSPTL		Colombo	LK-11	6.869636	80.019598	Boralesgamuwa	PS-110464	6.841331	79.901255	6.82518	79.907167	RWG4+3VF, Boralesgamuwa, Sri Lanka	1.911444		කොළඹ	බොරලැස්ගමුව	කොතලාවල ආරක්‍ෂක රෝහල	கொழும்பு	பொரலஸ்கமுவா	கொத்தலாவல பாதுகாப்பு மருத்துவமனை	RWG4+3VF, බොරලැස්ගමුව, ශ්‍රී ලංකාව	RWG4+3VF, பொரலஸ்கமுவா, இலங்கை
Colombo	Boralesgamuwa	MOH Office – Werahera	False	False	CLMBBRLSGMWMHFFCWRHR		Colombo	LK-11	6.869636	80.019598	Boralesgamuwa	PS-110464	6.841331	79.901255	6.833094	79.905583	RWM4+66P, Boralesgamuwa, Sri Lanka	1.033386		කොළඹ	බොරලැස්ගමුව	MOH කාර්යාලය - වේරහැර	கொழும்பு	பொரலஸ்கமுவா	MOH அலுவலகம் - வெரஹெரா	RWM4+66P, බොරලැස්ගමුව, ශ්‍රී ලංකාව	RWM4+66P, பொரலஸ்கமுவா, இலங்கை
Colombo	Homagama	Panagoda Bodhirajarama Viharaya	False	False	CLMBHMGMPNGDBDHRJRMVHRY		Colombo	LK-11	6.869636	80.019598	Homagama	PS-110470	6.836155	80.003474	6.929161	79.88265	Gnanawimala Rd, Colombo, Sri Lanka	16.883101		කොළඹ	හෝමාගම	පනාගොඩ බෝධිරාජාරාම විහාරය	கொழும்பு	ஹோமாகம	பனகொட போதிராஜாராம விஹாராயா	ඥානවිමල පාර, කොළඹ, ශ්‍රී ලංකාව	ஞானவிமல வீதி, கொழும்பு, இலங்கை
Colombo	Mount Lavinia	Park Road Maternity Clinic	False	False	CLMBMNTLVNPRKRDMTRNTYCLNC		Colombo	LK-11	6.869636	80.019598	Mount Lavinia	PS-110577	6.825006	79.87009	6.824371	79.872256	RVFC+PWR, Dehiwala-Mount Lavinia, Sri Lanka	0.249426		කොළඹ	ගල්කිස්ස	පාක් පාර මාතෘ සායනය	கொழும்பு	கல்கிசை	பார்க் சாலை மகப்பேறு மருத்துவமனை	RVFC+PWR, දෙහිවල-ගල්කිස්ස, ශ්‍රී ලංකාව	RVFC+PWR, தெஹிவளை-கல்கிசை, இலங்கை
Colombo	Maradana	National Hospital – Colombo	False	False	CLMBMRDNNTNLHSPTLCLMB		Colombo	LK-11	6.869636	80.019598	Maradana	PS-110107	6.927939	79.865471	6.918743	79.868992	Colombo 00700, Sri Lanka	1.094265		කොළඹ	මරදාන	ජාතික රෝහල - කොළඹ	கொழும்பு	மரதானா	தேசிய மருத்துவமனை - கொழும்பு	කොළඹ 00700, ශ්‍රී ලංකාව	கொழும்பு 00700, இலங்கை
Colombo	Maradana	Arnold Ratnayake Mawatha Community Hall	False	False	CLMBMRDNRNLDRTNYKMWTHCMMNTYHLL		Colombo	LK-11	6.869636	80.019598	Maradana	PS-110107	6.927939	79.865471	6.876704	79.879161	00600, Mugalan Rd, Colombo 00600, Sri Lanka	5.895952		කොළඹ	මරදාන	ආර්නෝල්ඩ් රත්නායක මාවත ප්‍රජා ශාලාව	கொழும்பு	மரதானா	அர்னால்ட் ரத்நாயக்க மாவத்தை சமூக மண்டபம்	00600, මුගලන් පාර, කොළඹ 00600, ශ්‍රී ලංකාව	00600, முகலான் சாலை, கொழும்பு 00600, இலங்கை
Colombo	Padukka	Siripiyarathana Primary School	False	False	CLMBPDKKSRPYRTHNPRMRYSCHL		Colombo	LK-11	6.869636	80.019598	Padukka	PS-110473	6.842195	80.09247					#CenterLocationUnknown	කොළඹ	පාදුක්ක	සිරිපියරතන ප්‍රාථමික විද්‍යාලය	கொழும்பு	பாதுக்கா	சிறிபியரதான ஆரம்பப் பள்ளி		
Colombo	Dehiwala	S. De. S. Jayasinghe Hall	False	False	CLMBDHWLSDSJYSNGHHLL		Colombo	LK-11	6.869636	80.019598	Dehiwala	PS-110580	6.850088	79.871696	6.861489	79.865045	B11, Dehiwala-Mount Lavinia, Sri Lanka	1.465485		කොළඹ	දෙහිවල	එස්. ද. එස්. ජයසිංහ ශාලාව	கொழும்பு	தெஹிவளை	எஸ். டி. எஸ். ஜெயசிங்க மண்டபம்	බී 11, දෙහිවල-ගල්කිස්ස, ශ්‍රී ලංකාව	பி 11, தெஹிவளை-கல்கிசை, இலங்கை
Colombo	Wellampitiya	MOH Office – Kolonnawa	False	False	CLMBWLLMPTYMHFFCKLNNW		Colombo	LK-11	6.869636	80.019598	Wellampitiya	PS-110465	6.937514	79.896298	6.922088	79.916237	Mandavila Rd, Kotikawatta, Sri Lanka	2.791266		කොළඹ	වැල්ලම්පිටිය	MOH කාර්යාලය - කොළොන්නාව	கொழும்பு	வெல்லம்பிட்டிய	MOH அலுவலகம் - கொலன்னாவா	මණ්ඩවිල පාර, කොටිකාවත්ත, ශ්‍රී ලංකාව	மண்டவில வீதி, கொட்டிகாவத்த, இலங்கை
Colombo	Mulleriyawa	MOH Office - Gothatuwa	False	False	CLMBMLLRYWMHFFCGTHTW		Colombo	LK-11	6.869636	80.019598	Mulleriyawa	PS-110469	6.927187	79.929108	6.922088	79.916237	Mandavila Rd, Kotikawatta, Sri Lanka	1.530186		කොළඹ	මුල්ලේරියාව	MOH කාර්යාලය - ගොතටුව	கொழும்பு	முல்லேரியாவா	MOH அலுவலகம் - கோததுவா	මණ්ඩවිල පාර, කොටිකාවත්ත, ශ්‍රී ලංකාව	மண்டவில வீதி, கொட்டிகாவத்த, இலங்கை
Colombo	Kaduwela	MOH Office – Kaduwela	False	False	CLMBKDWLMHFFCKDWL		Colombo	LK-11	6.869636	80.019598	Kaduwela		6.936234	79.970183	6.934127	79.984398	B263, Kaduwela, Sri Lanka	1.586964		කොළඹ	කඩුවෙල	MOH කාර්යාලය - කඩුවෙල	கொழும்பு	கடுவெல	MOH அலுவலகம் - கடுவெல	බී 263, කඩුවෙල, ශ්‍රී ලංකාව	பி 263, கடுவெல, இலங்கை
Colombo	Kosgama	Kosgama Hospital	False	False	CLMBKSGMKSGMHSPTL		Colombo	LK-11	6.869636	80.019598	Kosgama	PS-920227	6.946597	80.137869	6.940956	80.124888	Salawa-Akarawita, 10730, Sri Lanka	1.564606		කොළඹ	කොස්ගම	කොස්ගම රෝහල	கொழும்பு	கொஸ்கம	கொஸ்கம மருத்துவமனை	සාලාව-අකරවිට, 10730, ශ්‍රී ලංකාව	சலாவா-அகரவிட, 10730, இலங்கை
Gampaha	Minuwangoda	Naiwala Viharaya	False	False	GMPHMNWNGDNWLVHRY		Gampaha	LK-12	7.123598	80.018508	Minuwangoda	PS-120238	7.174215	79.957874	7.110015	79.989902	4X6Q+2X2, Gampaha, Sri Lanka	7.967951		ගම්පහ	මිනුවන්ගොඩ	නයිවල විහාරය	கம்பஹா	மினுவாங்கொட	நைவாலா விஹாராயா	4X6Q+2X2, ගම්පහ, ශ්‍රී ලංකාව	4X6Q+2X2, கம்பஹா, இலங்கை
Gampaha	Minuwangoda	Polwatta Viharaya	False	False	GMPHMNWNGDPLWTTVHRY		Gampaha	LK-12	7.123598	80.018508	Minuwangoda	PS-120238	7.174215	79.957874	7.110015	79.989902	4X6Q+2X2, Gampaha, Sri Lanka	7.967951		ගම්පහ	මිනුවන්ගොඩ	පොල්වත්ත විහාරය	கம்பஹா	மினுவாங்கொட	பொல்வத்த விஹாராயா	4X6Q+2X2, ගම්පහ, ශ්‍රී ලංකාව	4X6Q+2X2, கம்பஹா, இலங்கை
Gampaha	Minuwangoda	Katuwellegama Maha Vidyalaya	False	False	GMPHMNWNGDKTWLLGMMHVDYLY		Gampaha	LK-12	7.123598	80.018508	Minuwangoda	PS-120238	7.174215	79.957874	7.169788	79.951621	11550, Katunayake-Veyangoda Rd, Minuwangoda, Sri Lanka	0.84775		ගම්පහ	මිනුවන්ගොඩ	කටුවැල්ලේගම මහා විද්‍යාලය	கம்பஹா	மினுவாங்கொட	கட்டுவெல்லேகம மகா வித்தியாலயம்	11550, කටුනායක-වේයන්ගොඩ පාර, මිනුවන්ගොඩ, ශ්‍රී ලංකාව	11550, கட்டுநாயக்க-வெயங்கொட வீதி, மினுவாங்கொட, இலங்கை
Gampaha	Gampaha	MOH Office – Gampaha	False	False	GMPHGMPHMHFFCGMPH		Gampaha	LK-12	7.123598	80.018508	Gampaha	PS-120237	7.087765	80.01228	7.17227	79.956823	Katunayake-Veyangoda Rd, Minuwangoda, Sri Lanka	11.216745		ගම්පහ	ගම්පහ	MOH කාර්යාලය - ගම්පහ	கம்பஹா	கம்பஹா	MOH அலுவலகம் - கம்பஹா	කටුනායක-වේයන්ගොඩ පාර, මිනුවන්ගොඩ, ශ්‍රී ලංකාව	கட்டுநாயக்க-வெயங்கொட வீதி, மினுவாங்கொட, இலங்கை
Gampaha	Gampaha	Army Headquarters Mobile Team	False	False	GMPHGMPHRMYHDQRTRSMBLTM		Gampaha	LK-12	7.123598	80.018508	Gampaha	PS-120237	7.087765	80.01228					#CenterLocationUnknown	ගම්පහ	ගම්පහ	යුද හමුදා මූලස්ථානයේ ජංගම කණ්ඩායම	கம்பஹா	கம்பஹா	இராணுவ தலைமையகம் மொபைல் குழு		
Gampaha	Gampaha	Akarawita Viharaya	False	False	GMPHGMPHKRWTVHRY		Gampaha	LK-12	7.123598	80.018508	Gampaha	PS-120237	7.087765	80.01228	7.079663	80.05227	Yakkala - Radawana Rd, Sri Lanka	4.505205		ගම්පහ	ගම්පහ	අකාරවිට විහාරය	கம்பஹா	கம்பஹா	அகரவிதா விஹாராயா	යක්කල - රදාවාන පාර, ශ්‍රී ලංකාව	யக்கலா - ராதவானா சாலை, இலங்கை
Gampaha	Katana	MOH Office - Katana	False	False	GMPHKTNMHFFCKTN		Gampaha	LK-12	7.123598	80.018508	Katana	PS-120360	7.224796	79.880015	7.22436	79.88271	Katana, Negombo - Mirigama Rd, Negombo, Sri Lanka	0.301313		ගම්පහ	කටාන	MOH කාර්යාලය - කටාන	கம்பஹா	கட்டானா	MOH அலுவலகம் - கட்டானா	කටාන, මීගමුව - මීරිගම පාර, මීගමුව, ශ්‍රී ලංකාව	கட்டானா, நீர்கொழும்பு - மீரிகம வீதி, நீர்கொழும்பு, இலங்கை
Gampaha	Ganemulla	Mahena Community Hall	False	False	GMPHGNMLLMHNCMMNTYHLL		Gampaha	LK-12	7.123598	80.018508	Ganemulla	PS-120242	7.066804	79.959751	7.023526	79.956522	314 Kadawatha - Ganemulla Rd, Kadawatha, Sri Lanka	4.826984		ගම්පහ	ගනේමුල්ල	මහෙන ප්‍රජා ශාලාව	கம்பஹா	கணேமுல்லா	மஹேனா சமூக மண்டபம்	314 කඩවත - ගණේමුල්ල පාර, කඩවත, ශ්‍රී ලංකාව	314 கடவதா - கணேமுல்லா சாலை, கடவத்தை, இலங்கை
Gampaha	Ganemulla	Kossinna Raja Maha Viharaya	False	False	GMPHGNMLLKSSNNRJMHVHRY		Gampaha	LK-12	7.123598	80.018508	Ganemulla	PS-120242	7.066804	79.959751	7.047515	79.967886	Kossinna - Ganemulla Road, Parakandeniya, Sri Lanka	2.32586		ගම්පහ	ගනේමුල්ල	කොස්සින්න රජ මහා විහාරය	கம்பஹா	கணேமுல்லா	கோசின்னா ராஜா மகா விஹாராயா	කොස්සින්න - ගනේමුල්ල පාර, පරකන්දෙණිය, ශ්‍රී ලංකාව	கொசின்னா - கணேமுல்லா சாலை, பரகந்தெனியா, இலங்கை
Gampaha	Weeragula	Ogodapola Primary School	False	False	GMPHWRGLGDPLPRMRYSCHL		Gampaha	LK-12	7.123598	80.018508	Weeragula	PS-120243	7.097156	80.060399	7.126401	80.097085	43GW+HR8, Gampaha, Sri Lanka	5.193973		ගම්පහ	වීරගුල	ඔගොඩපොල ප්‍රාථමික විද්‍යාලය	கம்பஹா	வீரகுலா	ஓகடபொல ஆரம்பப் பள்ளி	43GW+HR8, ගම්පහ, ශ්‍රී ලංකාව	43GW+HR8, கம்பஹா, இலங்கை
Gampaha	Nittambuwa	Aththanagalla Viharaya	False	False	GMPHNTTMBWTHTHNGLLVHRY		Gampaha	LK-12	7.123598	80.018508	Nittambuwa	PS-120246	7.149726	80.10046	7.113799	80.135467	Nittambuwa - Ruwanwella Rd, Sri Lanka	5.558543		ගම්පහ	නිට්ටඹුව	අත්තනගල්ල විහාරය	கம்பஹா	நிட்டம்புவா	அத்தனகல்லா விஹாராயா	නිට්ටඹුව - රුවන්වැල්ල පාර, ශ්‍රී ලංකාව	நிட்டம்புவ - ருவன்வெல்ல வீதி, இலங்கை
Gampaha	Nittambuwa	Hakwadunna Viharaya	False	False	GMPHNTTMBWHKWDNNVHRY		Gampaha	LK-12	7.123598	80.018508	Nittambuwa	PS-120246	7.149726	80.10046	7.113799	80.135467	Nittambuwa - Ruwanwella Rd, Sri Lanka	5.558543		ගම්පහ	නිට්ටඹුව	හක්වඩුන්න විහාරය	கம்பஹா	நிட்டம்புவா	ஹக்வாடுன்னா விஹாராயா	නිට්ටඹුව - රුවන්වැල්ල පාර, ශ්‍රී ලංකාව	நிட்டம்புவ - ருவன்வெல்ல வீதி, இலங்கை
Gampaha	Pallewela	Uduulla Viharaya	False	False	GMPHPLLWLDLLVHRY		Gampaha	LK-12	7.123598	80.018508	Pallewela	PS-120249	7.197365	80.094856	7.19932	80.084773	53XM+PWC, Pallewela, Sri Lanka	1.13374		ගම්පහ	පල්ලෙවෙල	උඩුඋල්ල විහාරය	கம்பஹா	பல்லெவெல	உடுல்லா விஹாராயா	53XM+PWC, පල්ලෙවෙල, ශ්‍රී ලංකාව	53XM+PWC, பல்லெவெல, இலங்கை
Gampaha	Mirigama	Ambepussa Maternity Clinic	False	False	GMPHMRGMMBPSSMTRNTYCLNC		Gampaha	LK-12	7.123598	80.018508	Meerigama	PS-120248	7.245169	80.128647	7.286023	80.16379	Government Seed Production Farm, Sri Lanka	5.973701		ගම්පහ	මීරිගම	අඹේපුස්ස මාතෘ සායනය	கம்பஹா	மீரிகம	அம்பேபுஸ்ஸா மகப்பேறு மருத்துவமனை	රජයේ බීජ නිෂ්පාදන ගොවිපල, ශ්‍රී ලංකාව	அரசு விதை உற்பத்தி பண்ணை, இலங்கை
Gampaha	Negombo	Town Hall - Negombo	False	False	GMPHNGMBTWNHLLNGMB		Gampaha	LK-12	7.123598	80.018508	Negombo	PS-120351	7.224796	79.880015	7.206667	79.851863	Negombo, Sri Lanka	3.703623		ගම්පහ	මීගමුව	පුරහල - මීගමුව	கம்பஹா	நீர்கொழும்பு	டவுன் ஹால் - நீர்கொழும்பு	මීගමුව, ශ්‍රී ලංකාව	நீர்கொழும்பு, இலங்கை
Gampaha	Negombo	St.Francis De Sales Church – Kattuwa	False	False	GMPHNGMBSTFRNCSDSLSCHRCHKTTW		Gampaha	LK-12	7.123598	80.018508	Negombo	PS-120351	7.224796	79.880015	7.234667	79.849806	Negombo, Sri Lanka	3.509626		ගම්පහ	මීගමුව	ශාන්ත ෆ්‍රැන්සිස් ද විකුණුම් පල්ලිය - කටුව	கம்பஹா	நீர்கொழும்பு	செயின்ட் பிரான்சிஸ் டி விற்பனை தேவாலயம் - கட்டுவா	මීගමුව, ශ්‍රී ලංකාව	நீர்கொழும்பு, இலங்கை
Gampaha	Katunayaka	18th Mile Post Temple	False	False	GMPHKTNYKTHMLPSTTMPL		Gampaha	LK-12	7.123598	80.018508	Katunayaka	PS-120358	7.165898	79.882607	7.156574	79.871231	5V4C+JFH, Katunayake, Sri Lanka	1.628441		ගම්පහ	කටුනායක	18 වන සැතපුම් කණුව පන්සල	கம்பஹா	கட்டுநாயக்க	18 வது மைல் போஸ்ட் கோவில்	5V4C+JFH, කටුනායක, ශ්‍රී ලංකාව	5V4C+JFH, கட்டுநாயக்க, இலங்கை
Gampaha	Kochchikade	Vidyaloka Maha Vidyalaya - Kebellagashandiya	False	False	GMPHKCHCHKDVDYLKMHVDYLYKBLLGSHNDY		Gampaha	LK-12	7.123598	80.018508	Kochchikade	PS-120352	7.265049	79.857026	7.264913	79.898837	B228, Sri Lanka	4.613319		ගම්පහ	කොච්චිකඩේ	විද් යාලෝක මහා විද් යාලය - කැබැල්ලගස්හන්දිය	கம்பஹா	கொச்சிக்கடே	வித்யாலோக மஹா வித்யாலயா - கெபெல்லகசாந்தியா	බී 228, ශ්‍රී ලංකාව	பி 228, இலங்கை
Gampaha	Pamunugama	Pamunugama Hospital	False	False	GMPHPMNGMPMNGMHSPTL		Gampaha	LK-12	7.123598	80.018508	Pamunugama	PS-120353	7.078892	79.859696	7.093543	79.850191	3VV2+C38, Negombo, Sri Lanka	1.938152		ගම්පහ	පමුණුගම	පමුණුගම රෝහල	கம்பஹா	பமுனுகம	பமுனுகம மருத்துவமனை	3VV2+C38, මීගමුව, ශ්‍රී ලංකාව	3VV2+C38, நீர்கொழும்பு, இலங்கை
Gampaha	Kotadeniyawa	Kithulwala Kumarathunga Vidyalaya	False	False	GMPHKTDNYWKTHLWLKMRTHNGVDYLY		Gampaha	LK-12	7.123598	80.018508	Kotadeniyawa	PS-120354	7.283643	80.06649	7.238982	80.098248	11/1 Negombo - Mirigama Rd, Gurullagama, Sri Lanka	6.079159		ගම්පහ	කොටදෙනියාව	කිතුල්වල කුමාරතුංග විද්‍යාලය	கம்பஹா	கோடதெனியாவா	கித்துல்வாலா குமாரதுங்க வித்யாலயா	11/1 මීගමුව - මීරිගම පාර, ගුරුල්ලාගම, ශ්‍රී ලංකාව	11/1 நீர்கொழும்பு - மீரிகம வீதி, குருல்லாகம, இலங்கை
Gampaha	Kotadeniyawa	Fair Premises Badalgama	False	False	GMPHKTDNYWFRPRMSSBDLGM		Gampaha	LK-12	7.123598	80.018508	Kotadeniyawa	PS-120354	7.283643	80.06649	7.283881	80.066065	Kotadeniyawa, Sri Lanka	0.053848		ගම්පහ	කොටදෙනියාව	සාධාරණ පරිශ්‍රයක් බඩල්ගම	கம்பஹா	கோடதெனியாவா	சிகப்பு வளாகம் பதல்கம	කොටදෙනියාව, ශ්‍රී ලංකාව	கொட்டதெனியாவா, இலங்கை
Gampaha	Kotadeniyawa	Dorowwa Maha Vidyalaya	False	False	GMPHKTDNYWDRWWMHVDYLY		Gampaha	LK-12	7.123598	80.018508	Kotadeniyawa	PS-120354	7.283643	80.06649	7.302902	80.091685	833R+5M7, Kurunegala, Sri Lanka	3.509502		ගම්පහ	කොටදෙනියාව	දොරොව්ව මහා විද්‍යාලය	கம்பஹா	கோடதெனியாவா	டோரோவா மகா வித்தியாலயம்	833 ආර්+5 එම් 7, කුරුණෑගල, ශ්‍රී ලංකාව	833 ஆர்+5 எம் 7, குருநாகல், இலங்கை
Gampaha	Kotadeniyawa	Madithiyawa Maha Vidyaplaya	False	False	GMPHKTDNYWMDTHYWMHVDYPLY		Gampaha	LK-12	7.123598	80.018508	Kotadeniyawa	PS-120354	7.283643	80.06649	7.132516	80.106428	44M4+2H3, Nittambuwa, Sri Lanka	17.377967		ගම්පහ	කොටදෙනියාව	මදිටියාව මහා විද්‍යාලය	கம்பஹா	கோடதெனியாவா	மதிதியாவா மகா வித்யாப்ளயா	44 එම් 4+2 එච් 3, නිට්ටඹුව, ශ්‍රී ලංකාව	44M4+2H3, நிட்டம்புவா, இலங்கை
Gampaha	Divulapitiya	MOH Office – Divulapitiya	False	False	GMPHDVLPTYMHFFCDVLPTY		Gampaha	LK-12	7.123598	80.018508	Diulapitiya	PS-120355	7.174215	79.957874	7.215486	80.013606	6287+5CX, Divulapitiya, Sri Lanka	7.67456		ගම්පහ	දිවුලපිටිය	එම්ඕඑච් කාර්යාලය - දිවුලපිටිය	கம்பஹா	திவுலபிட்டிய	MOH அலுவலகம் - திவுலபிட்டிய	6287+5CX, දිවුලපිටිය, ශ්‍රී ලංකාව	6287+5CX, திவுலபிட்டிய, இலங்கை
Gampaha	Ja Ela	MOH Office - Ja Ela	False	False	GMPHJLMHFFCJL		Gampaha	LK-12	7.123598	80.018508	Ja - Ela	PS-120133	7.081055	79.890504	7.075216	79.893879	60 Mount Kalvary Rd, Ja-Ela, Sri Lanka	0.748731		ගම්පහ	ජා ඇල	MOH කාර්යාලය - ජා ඇල	கம்பஹா	ஜா எல	MOH அலுவலகம் - ஜா எல	60 කල්වාරි පාර, ජා-ඇල, ශ්‍රී ලංකාව	60 மவுண்ட் கல்வாரி சாலை, ஜா-எல, இலங்கை
Gampaha	Wattala	MOH Office – Wattala	False	False	GMPHWTTLMHFFCWTTL		Gampaha	LK-12	7.123598	80.018508	Wattala	PS-120128	6.993713	79.894506	6.995817	79.885793	301 Hendala Rd, Wattala, Sri Lanka	0.989991		ගම්පහ	වත්තල	MOH කාර්යාලය - වත්තල	கம்பஹா	வத்தளை	MOH அலுவலகம் - வத்தளை	301 හැඳල පාර, වත්තල, ශ්‍රී ලංකාව	301 ஹெந்தலா சாலை, வத்தளை, இலங்கை
Gampaha	Ragama	MOH Office – Ragama	False	False	GMPHRGMMHFFCRGM		Gampaha	LK-12	7.123598	80.018508	Ragama	PS-120134	7.034975	79.924148	7.027386	79.920232	2WGC+X35, Ragama, Sri Lanka	0.948382		ගම්පහ	රාගම	MOH කාර්යාලය - රාගම	கம்பஹா	ராகம	MOH அலுவலகம் - ராகம	2WGC+X35, රාගම, ශ්‍රී ලංකාව	2WGC+X35, ராகம, இலங்கை
Kalutara	Ingiriya	Ingiriya Hospital	False	False	KLTRNGRYNGRYHSPTL		Kalutara	LK-13	6.577316	80.127363	Ingiriya	PS-130193	6.743614	80.175077	6.741133	80.162046	Panadura-Nambapana-Ratnapura Hwy, Ingiriya, Sri Lanka	1.465626		කළුතර	ඉංගිරිය	ඉංගිරිය රෝහල	களுத்துறை	இங்கிரிய	இங்கிரிய மருத்துவமனை	පානදුර-නාම්බපන-රත්නපුර හ්වි, ඉංගිරිය, ශ්‍රී ලංකාව	பாணாதுரா-நம்பபனா-ரத்னபுரா ஹ்வி, இங்கிரிய, இலங்கை
Kalutara	Anguruwatota	MOH Office – Madurawala	False	False	KLTRNGRWTTMHFFCMDRWL		Kalutara	LK-13	6.577316	80.127363	Anguruwatota	PS-130190	6.654997	80.058183	6.654814	80.057811	M335+W4F, Keselhenawa, Sri Lanka	0.045863		කළුතර	අඟුරුවාතොට	MOH කාර්යාලය - මදුරාවල	களுத்துறை	அங்குருவடோட்டா	MOH அலுவலகம் - மதுரவாலா	M335+W4F, කෙසෙල්හේනාව, ශ්‍රී ලංකාව	M335+W4F, கெசல்ஹேனாவா, இலங்கை
Kalutara	Horana	Base Hospital - Horana	False	False	KLTRHRNBSHSPTLHRN		Kalutara	LK-13	6.577316	80.127363	Horana	PS-130192	6.714613	80.069091	6.710644	80.066589	Hospital Ln, Horana, Sri Lanka	0.520853		කළුතර	හොරණ	මූලික රෝහල - හොරණ	களுத்துறை	ஹொரானா	அடிப்படை மருத்துவமனை - ஹொரணை	හොරණ රෝහල, ශ්‍රී ලංකාව	மருத்துவமனை Ln, ஹொரானா, இலங்கை
Kalutara	Baduraliya	Baduraliya Hospital	False	False	KLTRBDRLYBDRLYHSPTL		Kalutara	LK-13	6.577316	80.127363	Baduraliya	PS-1302106	6.516756	80.226716	6.514727	80.232731	Tiruwanaketiya-Agalawatte Rd, Baduraliya, Sri Lanka	0.702098		කළුතර	බදුරලිය	බදුරලිය රෝහල	களுத்துறை	பதுரலியா	பதுரலியா மருத்துவமனை	තිරුවානකැටිය-අගලවත්ත පාර, බදුරලිය, ශ්‍රී ලංකාව	திருவனகெட்டிய-அகலவத்தை சாலை, பதுரலியா, இலங்கை
Kalutara	Millaniya	MOH Office - Millaniya	False	False	KLTRMLLNYMHFFCMLLNY		Kalutara	LK-13	6.577316	80.127363	Millaniya	PS-130191	6.681692	80.020847	6.724224	79.907284	A2, Panadura, Sri Lanka	13.407612		කළුතර	මිල්ලනිය	MOH කාර්යාලය - මිල්ලනිය	களுத்துறை	மில்லனியா	MOH அலுவலகம் - மில்லனியா	ඒ 2, පානදුර, ශ්‍රී ලංකාව	ஏ 2, பாணந்துரா, இலங்கை
Kalutara	Panadura	Mahanama Vidyalaya	False	False	KLTRPNDRMHNMVDYLY		Kalutara	LK-13	6.577316	80.127363	Panadura North		6.756309	79.898939	6.725866	79.907901	PWG5+85R, Panadura, Sri Lanka	3.52791		කළුතර	පානදුර	මහානාම විද්‍යාලය	களுத்துறை	பாணந்துறை	மகாநாம வித்யாலயா	PWG5+85R, පානදුර, ශ්‍රී ලංකාව	PWG5+85R, பாணந்துரா, இலங்கை
Kalutara	Meegahathenna	MOH Office – Meegahathenna	False	False	KLTRMGHTHNNMHFFCMGHTHNN		Kalutara	LK-13	6.577316	80.127363	Meegahathenna	PS-1302107	6.436941	80.1943	6.435016	80.198501	B158, Meegahathenna, Sri Lanka	0.511322		කළුතර	මීගහතැන්න	MOH කාර්යාලය - මීගහතැන්න	களுத்துறை	மீகஹதென்ன	MOH அலுவலகம் - மீகஹதென்ன	බී 158, මීගහතැන්න, ශ්‍රී ලංකාව	பி 158, மீகஹதென்ன, இலங்கை
Kalutara	Matugama	Weththewa Hospital	False	False	KLTRMTGMWTHTHWHSPTL		Kalutara	LK-13	6.577316	80.127363	Mathugama	PS-1302103	6.520881	80.117908	6.523087	80.125192	District Hospital, Hospital Road,Weththewa,., Matugama, Sri Lanka	0.841523		කළුතර	මතුගම	වෙත්තෑව රෝහල	களுத்துறை	மத்துகம	வெத்தேவா மருத்துவமனை	දිසා රෝහල, රෝහල් පාර, වෙත්තෑව,., මතුගම, ශ්‍රී ලංකාව	மாவட்ட மருத்துவமனை, மருத்துவமனை சாலை, வெத்தேவா,., மத்துகம, இலங்கை
Kalutara	Matugama	MOH Office – Matugama	False	False	KLTRMTGMMHFFCMTGM		Kalutara	LK-13	6.577316	80.127363	Mathugama	PS-1302103	6.520881	80.117908	6.523544	80.126443	G4FG+CH8, Matugama, Sri Lanka	0.988725		කළුතර	මතුගම	MOH කාර්යාලය - මතුගම	களுத்துறை	மத்துகம	MOH அலுவலகம் - மத்துகம	G4FG+CH8, මතුගම, ශ්‍රී ලංකාව	G4FG+CH8, மத்துகம, இலங்கை
Kalutara	Matugama	Katugahahena Hospital	False	False	KLTRMTGMKTGHHNHSPTL		Kalutara	LK-13	6.577316	80.127363	Mathugama	PS-1302103	6.520881	80.117908	6.489328	80.08471	F3QM+PVP, Bopitiya, Sri Lanka	5.077192		කළුතර	මතුගම	කටුගහහේන රෝහල	களுத்துறை	மத்துகம	கட்டுகஹஹேனா மருத்துவமனை	F3QM+PVP, බෝපිටිය, ශ්‍රී ලංකාව	F3QM+PVP, போபிடியா, இலங்கை
Kalutara	Agalawatta	Pimbura Hospital	False	False	KLTRGLWTTPMBRHSPTL		Kalutara	LK-13	6.577316	80.127363	Agalawatta		6.542566	80.157178	6.575949	80.158371	H5G5+98H, කළුතර, Sri Lanka	3.715525		කළුතර	අගලවත්ත	පිඹුර රෝහල	களுத்துறை	அகலவத்தை	பிம்புரா மருத்துவமனை	H5G5+98H, කළුතර, ශ්‍රී ලංකාව	H5G5+98H, கருப்புதர, இலங்கை
Kalutara	Bandragama	MOH Office  - Bandaragama	False	False	KLTRBNDRGMMHFFCBNDRGM		Kalutara	LK-13	6.577316	80.127363	Bandaragama	PS-130189	6.715179	79.987674	6.713351	79.991671	Library Path, Bandaragama, Sri Lanka	0.486104		කළුතර	බණ්ඩාරගම	MOH කාර්යාලය - බණ්ඩාරගම	களுத்துறை	பந்த்ரகம	MOH அலுவலகம் - பண்டாரகம	පුස්තකාල මාවත, බණ්ඩාරගම, ශ්‍රී ලංකාව	நூலகப் பாதை, பண்டாரகம, இலங்கை
Kalutara	Bandragama	Kuda Arukgoda Viharaya	False	False	KLTRBNDRGMKDRKGDVHRY		Kalutara	LK-13	6.577316	80.127363	Bandaragama	PS-130189	6.715179	79.987674	6.7075	79.991389	Kalutara Rd., Bandaragama., Waskaduwa - Bandaragama Rd, Bandaragama, Sri Lanka	0.947609		කළුතර	බණ්ඩාරගම	කුඩා අරුක්ගොඩ විහාරය	களுத்துறை	பந்த்ரகம	குட ஆறுகொட விஹாராயா	කළුතර පාර, බණ්ඩාරගම., වස්කඩුව - බණ්ඩාරගම පාර, බණ්ඩාරගම, ශ්‍රී ලංකාව	களுத்துறை வீதி, பண்டாரகம., வாஸ்கடுவ - பண்டாரகம வீதி, பண்டாரகம, இலங்கை
Kalutara	Bandragama	District Hospital Bandaragama	False	False	KLTRBNDRGMDSTRCTHSPTLBNDRGM		Kalutara	LK-13	6.577316	80.127363	Bandaragama	PS-130189	6.715179	79.987674	6.716162	79.991484	Horana Rd, Bandaragama, Sri Lanka	0.434849		කළුතර	බණ්ඩාරගම	බණ්ඩාරගම දිසා රෝහල	களுத்துறை	பந்த்ரகம	மாவட்ட மருத்துவமனை பண்டாரகம	හොරණ පාර, බණ්ඩාරගම, ශ්‍රී ලංකාව	ஹொரானா வீதி, பண்டாரகம, இலங்கை
Kalutara	Kalutara North	Waskaduwa Sri Shubuthi Viharaya	False	False	KLTRKLTRNRTHWSKDWSRSHBTHVHRY		Kalutara	LK-13	6.577316	80.127363	Kalutara North	PS-130297	6.602049	79.956042	6.621483	79.947024	A2, Wadduwa, Sri Lanka	2.380231		කළුතර	කළුතර උතුර	වස්කඩුව ශ්‍රී ශුබුති විහාරය	களுத்துறை	களுத்துறை வடக்கு	வஸ்கடுவா ஸ்ரீ சுபுதி விஹாராயா	ඒ 2, වාද්දුව, ශ්‍රී ලංකාව	ஏ 2, வாட்டுவா, இலங்கை
Kalutara	Pinwatta	Pinwatta Meda Viharaya	False	False	KLTRPNWTTPNWTTMDVHRY		Kalutara	LK-13	6.577316	80.127363									#PoliceLocationUnknown	කළුතර	පින්වත්ත	පින්වත්ත මැද විහාරය	களுத்துறை	பின்வத்தா	பின்வத்த மேட விகாரை		
Kurunegala	Kurunegala	Mobile Medical Team	False	False	KRNGLKRNGLMBLMDCLTM		Kurunegala	LK-61	7.66477	80.23677	Kurunegala	PS-610101	7.485852	80.364137					#CenterLocationUnknown	කුරුණෑගල	කුරුණෑගල	ජංගම වෛද්‍ය කණ්ඩායම	குருநாகல்	குருநாகல்	மொபைல் மருத்துவ குழு		
Kurunegala	Nikaweratiya	MOH Office – Nikaweratiya	False	False	KRNGLNKWRTYMHFFCNKWRTY		Kurunegala	LK-61	7.66477	80.23677	Nikaweratiya	PS-610320	7.742612	80.121177	7.748302	80.113107	MoH office, Nikaweratiya, Sri Lanka	1.091629		කුරුණෑගල	නිකවැරටිය	MOH කාර්යාලය - නිකවැරටිය	குருநாகல்	நிகவெரட்டியா	MOH அலுவலகம் - நிகவெரட்டிய	MoH කාර්යාලය, නිකවැරටිය, ශ්‍රී ලංකාව	MoH அலுவலகம், நிகவெரட்டிய, இலங்கை
Kurunegala	Rasnayakapura	MOH Office – Rasnayakapura	False	False	KRNGLRSNYKPRMHFFCRSNYKPR		Kurunegala	LK-61	7.66477	80.23677	Rasnayakapura	PS-610323	7.776658	80.012692	7.812336	80.080579	R36J+W6P, Sri Lanka	8.468673		කුරුණෑගල	රස්නායකපුර	MOH කාර්යාලය - රස්නායකපුර	குருநாகல்	ரஸ்நாயகாபுரா	MOH அலுவலகம் - ரஸ்நாயகாபுரா	R36J+W6P, ශ්‍රී ලංකාව	R36J+W6P, இலங்கை
Kurunegala	Kobeigane	Vithikuliya Vidyalaya	False	False	KRNGLKBGNVTHKLYVDYLY		Kurunegala	LK-61	7.66477	80.23677	Kobeigane	PS-610321	7.656934	80.126283	7.711982	80.151232	Vithikuliya, Sri Lanka	6.712244		කුරුණෑගල	කොබෙයිගනේ	විතිකුලිය විද්‍යාලය	குருநாகல்	கோபிகனே	வித்திக்குளிய வித்தியாலயம்	විතිකුලිය, ශ්‍රී ලංකාව	வித்திக்குளியா, இலங்கை
Kurunegala	Polgahawela	MOH Office – Polgahawela	False	False	KRNGLPLGHWLMHFFCPLGHWL		Kurunegala	LK-61	7.66477	80.23677	Polgahawela	PS-610102	7.333281	80.300363	7.330938	80.29484	06 A6, Polgahawela, Sri Lanka	0.662694		කුරුණෑගල	පොල්ගහවෙල	MOH කාර්යාලය - පොල්ගහවෙල	குருநாகல்	பொல்கஹவெல	MOH அலுவலகம் - பொல்கஹவெல	06 ඒ 6, පොල්ගහවෙල, ශ්‍රී ලංකාව	06 A6, பொல்கஹவெல, இலங்கை
Puttalam	Wennappuwa	MOH Office – Wennappuwa	False	False	PTTLMWNNPPWMHFFCWNNPPW		Puttalam	LK-62	7.973531	79.913833	Wennappuwa	PS-620245	7.339623	79.843017	7.318737	79.845723	Unnamed Road, Nainamadama, Sri Lanka	2.342249		පුත්තලම	වෙන්නප්පුව	MOH කාර්යාලය - වෙන්නප්පුව	புத்தளம்	வென்னப்புவா	MOH அலுவலகம் - வென்னப்புவ	නම් නොකළ පාර, නයිනමඩම, ශ්‍රී ලංකාව	பெயரிடப்படாத சாலை, நைனமடாமா, இலங்கை
Puttalam	Chilaw	MOH Office – Chilaw	False	False	PTTLMCHLWMHFFCCHLW		Puttalam	LK-62	7.973531	79.913833	Chilaw	PS-620241	7.576197	79.788003	7.579361	79.800968	MOH Office, Chilaw, Sri Lanka	1.472185		පුත්තලම	භලාවත	MOH කාර්යාලය - හලාවත	புத்தளம்	சிலாபம்	MOH அலுவலகம் - சிலாபம்	එම්ඕඑච් කාර්යාලය, හලාවත, ශ්‍රී ලංකාව	MOH அலுவலகம், சிலாபம், இலங்கை
Puttalam	Marawila	MOH Office – Nattandiya	False	False	PTTLMMRWLMHFFCNTTNDY		Puttalam	LK-62	7.973531	79.913833	Marawila	PS-620243	7.415075	79.839776	7.423943	79.835277	M.O.H. Office, Marawila, Sri Lanka	1.104176		පුත්තලම	මාරවිල	MOH කාර්යාලය - නාත්තන්ඩිය	புத்தளம்	மாரவில	MOH அலுவலகம் - நாட்டாண்டியா	එම්.ඕ.එච්. කාර්යාලය, මාරවිල, ශ්‍රී ලංකාව	எம்.ஓ.எச். அலுவலகம், மாரவில, இலங்கை
Puttalam	Mundalama	Vilpatha Bandaranayaka Vidyalaya	False	False	PTTLMMNDLMVLPTHBNDRNYKVDYLY		Puttalam	LK-62	7.973531	79.913833	Mundal	PS-620138	7.808859	79.825729	7.79154	79.82809	Puttlam Road, mundalama, Sri Lanka	1.943881		පුත්තලම	මුන්දලම	විල්පත බණ්ඩාරනායක විද්‍යාලය	புத்தளம்	முண்டாலமா	வில்பத பண்டாரநாயக்க வித்தியாலயம்	පුත්තලම් පාර, මුන්දලම, ශ්‍රී ලංකාව	புத்தளம் சாலை, முண்டாலமா, இலங்கை
Puttalam	Wanathavilluwa	Bandaranayakapura Vidyalaya	False	False	PTTLMWNTHVLLWBNDRNYKPRVDYLY		Puttalam	LK-62	7.973531	79.913833	Wanathawilluwa	PS-620134	8.188137	79.858447	8.20616	79.859043	Mannar Rd, Wanathavillu, Sri Lanka	2.005769		පුත්තලම	වනාතවිල්ලුව	බණ්ඩාරනායකපුර විද්‍යාලය	புத்தளம்	வனதவில்லுவா	பண்டாரநாயக்கபுரா வித்யாலயா	මන්නාරම පාර, වනාතවිලු, ශ්‍රී ලංකාව	மன்னார் சாலை, வனதவில்லு, இலங்கை
Puttalam	Dankotuwa	MOH Office – Dankotuwa	False	False	PTTLMDNKTWMHFFCDNKTW		Puttalam	LK-62	7.973531	79.913833	Dankotuwa	PS-620246	7.300337	79.882595	7.29759	79.888187	146 Negombo-Kurunegala Rd, Dankotuwa, Sri Lanka	0.688474		පුත්තලම	දන්කොටුව	MOH කාර්යාලය - දංකොටුව	புத்தளம்	டாங்கொட்டுவா	MOH அலுவலகம் - டாங்கொட்டுவா	146 මීගමුව-කුරුණෑගල පාර, දංකොටුව, ශ්‍රී ලංකාව	146 நீர்கொழும்பு-குருநாகல் வீதி, தங்கொட்டுவ, இலங்கை
Puttalam	Katugastota	St. Anthony's College	False	False	PTTLMKTGSTTSTNTHNYSCLLG		Puttalam	LK-62	7.973531	79.913833	Katugastota	PS-210103	7.332014	80.623006	7.322313	80.626495	Katugastota Rd, Kandy 20000, Sri Lanka	1.145638		පුත්තලම	කටුගස්තොට	ශාන්ත අන්තෝනි විද්‍යාලය	புத்தளம்	கட்டுகஸ்தோட்டா	செயின்ட் அந்தோணி கல்லூரி	කටුගස්තොට පාර, මහනුවර 20000, ශ්‍රී ලංකාව	கட்டுகஸ்தோட்டா சாலை, கண்டி 20000, இலங்கை
Puttalam	Kandy	Pushpadana Girls' College	False	False	PTTLMKNDYPSHPDNGRLSCLLG		Puttalam	LK-62	7.973531	79.913833	Kandy	PS-210101	7.292948	80.642368	7.293989	80.633	16 Kandy Rd, Kandy 20000, Sri Lanka	1.040036		පුත්තලම	මහනුවර	පුෂ්පදාන බාලිකා විද්‍යාලය	புத்தளம்	கண்டி	புஷ்படனா பெண்கள் கல்லூரி	16 මහනුවර පාර, මහනුවර 20000, ශ්‍රී ලංකාව	16 கண்டி வீதி, கண்டி 20000, இலங்கை
Puttalam	Peradeniya	Teaching Hospital – Peradeniya	False	False	PTTLMPRDNYTCHNGHSPTLPRDNY		Puttalam	LK-62	7.973531	79.913833	Peradeniya	PS-210110	7.267283	80.601901	7.266279	80.597654	7H8X+G36, Peradeniya 20400, Sri Lanka	0.481722		පුත්තලම	පේරාදෙණිය	ශික්ෂණ රෝහල - පේරාදෙණිය	புத்தளம்	பேராதனை	போதனா மருத்துவமனை - பேராதனை	7 එච් 8 එක්ස්+ජී 36, පේරාදෙණිය 20400, ශ්‍රී ලංකාව	7H8X+G36, பேராதனை 20400, இலங்கை
Puttalam	Kothmale	MOH Office – Kothmale	False	False	PTTLMKTHMLMHFFCKTHML		Puttalam	LK-62	7.973531	79.913833	Kotmale	PS-230134	7.063602	80.685054	7.062013	80.685533	3M6P+R63, Kothmale New Town, Sri Lanka	0.184484		පුත්තලම	කොත්මලේ	MOH කාර්යාලය - කොත්මලේ	புத்தளம்	கோத்மலே	MOH அலுவலகம் - கொத்மலை	3 එම් 6 පී+ආර් 63, කොත්මලේ නව නගරය, ශ්‍රී ලංකාව	3M6P+R63, கொத்தமலை புதிய நகரம், இலங்கை
Badulla	Hali Ela	MOH Office - Hali Ela	False	False	BDLLHLLMHFFCHLL		Badulla	LK-81	7.074529	81.04486	Haliela	PS-810108	6.958216	81.034447	6.962439	81.036061	Peradeniya-Badulla-Chenkaladi Hwy, Hali-ela, Sri Lanka	0.50239		බදුල්ල	හාලි ඇල	MOH කාර්යාලය - හාලි ඇල	பதுளை	ஹாலி எல	MOH அலுவலகம் - ஹாலி எல	පේරාදෙණිය-බදුල්ල-චෙන්කලාඩි හ්වි, හාලි ඇල, ශ්‍රී ලංකාව	பேராதனை-பதுளை-செங்கலடி ஹ்வி, ஹாலி-எல, இலங்கை
Badulla	Lunugala	MOH Office – Lunugala	False	False	BDLLLNGLMHFFCLNGL		Badulla	LK-81	7.074529	81.04486	Lunugala	PS-810104	7.047691	81.20339	7.030729	81.198808	Peradeniya-Badulla-Chenkaladi Hwy, Lunugala, Sri Lanka	1.953308		බදුල්ල	ලුණුගල	MOH කාර්යාලය - ලුණුගල	பதுளை	லுனுகலா	MOH அலுவலகம் - லுனுகலா	පේරාදෙණිය-බදුල්ල-චෙන්කලාඩි හ්වි, ලුණුගල, ශ්‍රී ලංකාව	பேராதனை-பதுளை-செங்கலடி ஹ்யூ, லுனுகலா, இலங்கை
Badulla	Lunugala	District Hospital – Lunugala	False	False	BDLLLNGLDSTRCTHSPTLLNGL		Badulla	LK-81	7.074529	81.04486	Lunugala	PS-810104	7.047691	81.20339	7.037666	81.20078	Peradeniya-Badulla-Chenkaladi Hwy, Lunugala, Sri Lanka	1.151701		බදුල්ල	ලුණුගල	දිසා රෝහල - ලුණුගල	பதுளை	லுனுகலா	மாவட்ட மருத்துவமனை - லுனுகலா	පේරාදෙණිය-බදුල්ල-චෙන්කලාඩි හ්වි, ලුණුගල, ශ්‍රී ලංකාව	பேராதனை-பதுளை-செங்கலடி ஹ்யூ, லுனுகலா, இலங்கை
Badulla	Lunugala	District Hospital – Hopton	False	False	BDLLLNGLDSTRCTHSPTLHPTN		Badulla	LK-81	7.074529	81.04486	Lunugala	PS-810104	7.047691	81.20339	7.037666	81.20078	Peradeniya-Badulla-Chenkaladi Hwy, Lunugala, Sri Lanka	1.151701		බදුල්ල	ලුණුගල	දිසා රෝහල - හොප්ටන්	பதுளை	லுனுகலா	மாவட்ட மருத்துவமனை - ஹாப்டன்	පේරාදෙණිය-බදුල්ල-චෙන්කලාඩි හ්වි, ලුණුගල, ශ්‍රී ලංකාව	பேராதனை-பதுளை-செங்கலடி ஹ்யூ, லுனுகலா, இலங்கை
Badulla	Lunugala	District Hospital – Metigahthenna	False	False	BDLLLNGLDSTRCTHSPTLMTGHTHNN		Badulla	LK-81	7.074529	81.04486	Lunugala	PS-810104	7.047691	81.20339	7.077204	81.154076	35G3+VJP, Metigahatenna, Sri Lanka	6.356788		බදුල්ල	ලුණුගල	දිසා රෝහල - මෙටිගහතැන්න	பதுளை	லுனுகலா	மாவட்ட மருத்துவமனை - மேட்டிக்தென்னா	35G3+VJP, මෙටිගහතැන්න, ශ්‍රී ලංකාව	35G3+VJP, மேதிகஹதென்ன, இலங்கை
Badulla	Lunugala	District Hospital – Mahadowa	False	False	BDLLLNGLDSTRCTHSPTLMHDW		Badulla	LK-81	7.074529	81.04486	Lunugala	PS-810104	7.047691	81.20339	7.015288	81.167786	2589+447, Badulla, Sri Lanka	5.332775		බදුල්ල	ලුණුගල	දිසා රෝහල - මහදෝව	பதுளை	லுனுகலா	மாவட்ட மருத்துவமனை - மஹதோவா	2589+447, බදුල්ල, ශ්‍රී ලංකාව	2589+447, பதுளை, இலங்கை
Badulla	Passara	Passara National College	False	False	BDLLPSSRPSSRNTNLCLLG		Badulla	LK-81	7.074529	81.04486	Passara	PS-810102	6.934481	81.154796	6.940355	81.167392	Peradeniya-Badulla-Chenkaladi Hwy, Passara, Sri Lanka	1.536617		බදුල්ල	පස්සර	පස්සර ජාතික විද්‍යාලය	பதுளை	பசர	பசாரா தேசிய கல்லூரி	පේරාදෙණිය-බදුල්ල-චෙන්කලාඩි හ්වි, පස්සර, ශ්‍රී ලංකාව	பேராதனை-பதுளை-செங்கலடி ஹ்வி, பசர, இலங்கை
Badulla	Passara	Bibilegama Hospital	False	False	BDLLPSSRBBLGMHSPTL		Badulla	LK-81	7.074529	81.04486	Passara	PS-810102	6.934481	81.154796	6.895098	81.14174	Bibilegama Rd, Passara, Sri Lanka	4.611693		බදුල්ල	පස්සර	බිබිලේගම රෝහල	பதுளை	பசர	பிபிலேகம மருத்துவமனை	බිබිලේගම පාර, පස්සර, ශ්‍රී ලංකාව	பிபிலேகம வீதி, பசர, இலங்கை
Badulla	Passara	Uri Hospital	False	False	BDLLPSSRRHSPTL		Badulla	LK-81	7.074529	81.04486	Passara	PS-810102	6.934481	81.154796	6.933517	81.152592	Demodera - Spring Valley - Badulla Road, Passara, Sri Lanka	0.265888		බදුල්ල	පස්සර	යූරි රෝහල	பதுளை	பசர	யூரி மருத்துவமனை	දෙමෝදර - වසන්ත නිම්නය - බදුල්ල පාර, පස්සර, ශ්‍රී ලංකාව	டெமோடெரா - வசந்த பள்ளத்தாக்கு - பதுல்லா சாலை, பசாரா, இலங்கை
Badulla	Passara	Kahataruppa Hospital	False	False	BDLLPSSRKHTRPPHSPTL		Badulla	LK-81	7.074529	81.04486	Passara	PS-810102	6.934481	81.154796	7.02379	81.116022	Muthumala - Kahataruppa Rd, Sri Lanka	10.816965		බදුල්ල	පස්සර	කහටරුප්ප රෝහල	பதுளை	பசர	கஹடருப்பா மருத்துவமனை	මුතුමල - කහටරුප්ප පාර, ශ්‍රී ලංකාව	முத்துமாலா - கஹதருப்பா வீதி, இலங்கை
Badulla	Passara	Kanawerella Hospital	False	False	BDLLPSSRKNWRLLHSPTL		Badulla	LK-81	7.074529	81.04486	Passara	PS-810102	6.934481	81.154796	6.933517	81.152592	Demodera - Spring Valley - Badulla Road, Passara, Sri Lanka	0.265888		බදුල්ල	පස්සර	කනවැරැල්ල රෝහල	பதுளை	பசர	கானவெரெல்லா மருத்துவமனை	දෙමෝදර - වසන්ත නිම්නය - බදුල්ල පාර, පස්සර, ශ්‍රී ලංකාව	டெமோடெரா - வசந்த பள்ளத்தாக்கு - பதுல்லா சாலை, பசாரா, இலங்கை
Badulla	Passara	Meedumpitiya Hospital	False	False	BDLLPSSRMDMPTYHSPTL		Badulla	LK-81	7.074529	81.04486	Passara	PS-810102	6.934481	81.154796	6.945576	81.190338	Peradeniya-Badulla-Chenkaladi Hwy, Sri Lanka	4.113834		බදුල්ල	පස්සර	මීදුම්පිටිය රෝහල	பதுளை	பசர	மீடும்பிட்டிய மருத்துவமனை	පේරාදෙණිය-බදුල්ල-චෙන්කලාඩි හ්වි, ශ්‍රී ලංකාව	பேராதனை-பதுளை-செங்கலடி ஹ்வி, இலங்கை
Badulla	Kandaketiya	Galauda Hospital	False	False	BDLLKNDKTYGLDHSPTL		Badulla	LK-81	7.074529	81.04486	Kandaketiya	PS-810107	7.195551	81.01958	7.04502	80.982575	Galauda-kandaketiya Rd, Sri Lanka	17.234492		බදුල්ල	කන්දකැටිය	ගලඋදා රෝහල	பதுளை	கந்தகெட்டிய	கலாவுடா மருத்துவமனை	ගලඋඩ-කන්දකැටිය පාර, ශ්‍රී ලංකාව	கலாவுடா-கண்டகெட்டிய சாலை, இலங்கை
Badulla	Kandaketiya	Kandaketiya Hospital	False	False	BDLLKNDKTYKNDKTYHSPTL		Badulla	LK-81	7.074529	81.04486	Kandaketiya	PS-810107	7.195551	81.01958	7.171564	81.005534	Karamettiya Kandakettiya Road, Kandakettiya Town, Sri Lanka	3.085663		බදුල්ල	කන්දකැටිය	කන්දකැටිය රෝහල	பதுளை	கந்தகெட்டிய	கண்டகெட்டிய மருத்துவமனை	කරමැටිය කන්දකැටිය පාර, කන්දකැටිය නගරය, ශ්‍රී ලංකාව	காரமெட்டிய கண்டகெட்டிய சாலை, கண்டகெட்டியா டவுன், இலங்கை
Badulla	Bandarawela	MOH Office – Bandarawela	False	False	BDLLBNDRWLMHFFCBNDRWL		Badulla	LK-81	7.074529	81.04486	Bandarawela	PS-810210	6.831526	80.986784	6.841272	80.98482	Hospital Junction Helamuduna Bus Stop, Etampitiya Rd, Bandarawela, Sri Lanka	1.105533		බදුල්ල	බණ්ඩාරවෙල	MOH කාර්යාලය - බණ්ඩාරවෙල	பதுளை	பண்டாரவளை	MOH அலுவலகம் - பண்டாரவளை	රෝහල් හන්දිය හෙළමුදුන බස් නැවතුම, ඇටම්පිටිය පාර, බණ්ඩාරවෙල, ශ්‍රී ලංකාව	மருத்துவமனை சந்திப்பு ஹெலமுதுனா பேருந்து நிறுத்தம், இடம்பிட்டிய சாலை, பண்டாரவளை, இலங்கை
Badulla	Haldummulla	MOH Office – Haldummulla	False	False	BDLLHLDMMLLMHFFCHLDMMLL		Badulla	LK-81	7.074529	81.04486	Haldummulla		6.762216	80.885856	6.761089	80.876292	QV6G+CGM, Badulla, Sri Lanka	1.063814		බදුල්ල	හල්දුම්මුල්ල	MOH කාර්යාලය - හල්දුම්මුල්ල	பதுளை	ஹல்தும்முல்லா	MOH அலுவலகம் - ஹல்தும்முல்லா	QV6G+CGM, බදුල්ල, ශ්‍රී ලංකාව	QV6G+CGM, பதுளை, இலங்கை
Badulla	Uva Paranagama	District Hospital - Uva Paranagama	False	False	BDLLVPRNGMDSTRCTHSPTLVPRNGM		Badulla	LK-81	7.074529	81.04486	Uvaparanagama	PS-810213	6.958341	80.930364	6.938076	80.890525	Rendapola-Galahagama-Ambagasdowa Rd, Himbiliyagahamadiththa, Sri Lanka	4.942648		බදුල්ල	Vaව පරණගම	දිසා රෝහල - vaව පරණගම	பதுளை	ஊவ பரணகம	மாவட்ட மருத்துவமனை - ஊவா பரணகம	රෙන්ඳපොල-ගලහගම-අඹගස්දෝව පාර, හිම්බිලියගහමදිත්ත, ශ්‍රී ලංකාව	ரெண்டபொல-கலஹகம-அம்பகஸ்தோவ வீதி, ஹிம்பிலியகஹமாதித்த, இலங்கை
Badulla	Haputale	Base Hospital - Diyatalawa	False	False	BDLLHPTLBSHSPTLDYTLW		Badulla	LK-81	7.074529	81.04486	Haputale	PS-810215	6.767653	80.957218	6.80555	80.956366	12 Fair Rd, Diyatalawa, Sri Lanka	4.216327		බදුල්ල	හපුතලේ	මූලික රෝහල - දියතලාව	பதுளை	ஹப்புதலே	அடிப்படை மருத்துவமனை - தியத்தலாவ	12 සාධාරණ පාර, දියතලාව, ශ්‍රී ලංකාව	12 சிகப்பு சாலை, தியத்தலாவா, இலங்கை
Badulla	Badulla	Kandegedara Hospital	False	False	BDLLBDLLKNDGDRHSPTL		Badulla	LK-81	7.074529	81.04486	Badulla	PS-810101	6.991337	81.055246	7.016761	81.016368	Unnamed Rd,, Sri Lanka	5.139978		බදුල්ල	බදුල්ල	කන්දේගෙදර රෝහල	பதுளை	பதுளை	கண்டேகெதரா மருத்துவமனை	නම් නොකල පාර, ශ්‍රී ලංකාව	பெயரிடப்படாத சாலை, இலங்கை
Badulla	Badulla	MOH Office – Soranatota	False	False	BDLLBDLLMHFFCSRNTT		Badulla	LK-81	7.074529	81.04486	Badulla	PS-810101	6.991337	81.055246	7.013876	81.05556	Rideepana, Mahiyangana Rd, Sri Lanka	2.507249		බදුල්ල	බදුල්ල	MOH කාර්යාලය - සොරනාතොට	பதுளை	பதுளை	MOH அலுவலகம் - சொரனடோட்டா	රිදීපාන, මහියංගන පාර, ශ්‍රී ලංකාව	ரிதீபனா, மஹியங்கனா சாலை, இலங்கை
Badulla	Siyambalanduwa	Mahakalugolla Maha Vidyalaya	False	False	BDLLSYMBLNDWMHKLGLLMHVDYLY		Badulla	LK-81	7.074529	81.04486	Siyambalanduwa	PS-820122	6.906851	81.547598	6.995949	81.078145	Sirimalgoda Rd, Kendagolla, Sri Lanka	52.772241	#CenterFarFromPolice	බදුල්ල	සියඹලාණ්ඩුව	මහකළුගොල්ල මහා විද්‍යාලය	பதுளை	சியம்பலாண்டுவா	மககாலுகொல்ல மகா வித்தியாலயம்	සිරිමල්ගොඩ පාර, කෙන්දගොල්ල, ශ්‍රී ලංකාව	சிறிமல்கொட வீதி, கெண்டகொல்லா, இலங்கை
Badulla	Siyambalanduwa	Dombagahawela Maha Vidyalaya	False	False	BDLLSYMBLNDWDMBGHWLMHVDYLY		Badulla	LK-81	7.074529	81.04486	Siyambalanduwa	PS-820122	6.906851	81.547598	7.069793	81.075476	339G+W59, Badulla, Sri Lanka	55.184971	#CenterFarFromPolice	බදුල්ල	සියඹලාණ්ඩුව	දොඹගහවෙල මහා විද්‍යාලය	பதுளை	சியம்பலாண்டுவா	டோம்பகஹவெல மகா வித்தியாலயம்	339 ජී+ඩබ්ලිව් 59, බදුල්ල, ශ්‍රී ලංකාව	339G+W59, பதுளை, இலங்கை
Moneragala	Monaragala	Monaragala Community Hall	False	False	MNRGLMNRGLMNRGLCMMNTYHLL		Moneragala	LK-82	6.787517	81.303744	Monaragala	PS-820121	6.869866	81.348106	6.872778	81.350683	Moneragala, Sri Lanka	0.431159		මොණරාගල	මොනරාගල	මොනරාගල ප්‍රජා ශාලාව	மொனராகலை	மொனராகலை	மொனராகலை சமூக மண்டபம்	මොනරාගල, ශ්‍රී ලංකාව	மொனராகலை, இலங்கை
Moneragala	Nagoda	Mapalagama Central College	False	False	MNRGLNGDMPLGMCNTRLCLLG		Moneragala	LK-82	6.787517	81.303744	Nagoda	PS-310130	6.197616	80.274707	6.876196	81.348352	Potuvile Road Colombo - Batticaloa Hwy, Monaragala, Sri Lanka	140.618032	#CenterFarFromPolice	මොණරාගල	නාගොඩ	මාපලගම මධ්‍ය විද්‍යාලය	மொனராகலை	நாகோடா	மாபலகம மத்திய கல்லூரி	පොතුවිලේ පාර කොළඹ - මඩකලපුව හ්වි, මොනරාගල, ශ්‍රී ලංකාව	பொட்டுவிலே சாலை கொழும்பு - மட்டக்களப்பு எச்வி, மொனராகலை, இலங்கை
Matara	Gandara	Thalalla Mandalara Viharaya	False	False	MTRGNDRTHLLLMNDLRVHRY		Matara	LK-32	6.142734	80.539994	Gandara	PS-320102	5.941629	80.614037	5.943268	80.620179	Tangalle Road, Sampaya House, Talalla 81170, Sri Lanka	0.703533		මාතර	ගන්දර	තල්ලල්ල මණ්ඩලාරා විහාරය	மாத்தறை	கந்தரா	தலல்ல மண்டலரா விஹாராயா	තංගල්ල පාර, සම්පාය නිවස, තලල්ල 81170, ශ්‍රී ලංකාව	தங்காலை சாலை, சம்பயா ஹவுஸ், தலல்லா 81170, இலங்கை
Matara	Gandara	Aparekka Viharaya	False	False	MTRGNDRPRKKVHRY		Matara	LK-32	6.142734	80.539994	Gandara	PS-320102	5.941629	80.614037	6.008382	80.626763	Uda Aparekka Rd, Aparekka, Sri Lanka	7.557213		මාතර	ගන්දර	අපරැක්ක විහාරය	மாத்தறை	கந்தரா	அபரெக்க விஹாராயா	උඩ අපරැක්ක පාර, අපරැක්ක, ශ්‍රී ලංකාව	உட அபரேக்கா சாலை, அபரேக்கா, இலங்கை
Matara	Dikwella	Pradeshiya Sabha – Dikwella	False	False	MTRDKWLLPRDSHYSBHDKWLL		Matara	LK-32	6.142734	80.539994	Dikwella	PS-320103	5.964296	80.693198	5.966083	80.701774	XP82+CPJ, Matara, Sri Lanka	0.969363		මාතර	දික්වැල්ල	ප්‍රාදේශීය සභාව - දික්වැල්ල	மாத்தறை	திக்வெல்ல	பிரதேச சபை - திக்வெல்ல	XP82+CPJ, මාතර, ශ්‍රී ලංකාව	XP82+CPJ, மாத்தறை, இலங்கை
Matara	Matara	Uyanwatta Ground	False	False	MTRMTRYNWTTGRND		Matara	LK-32	6.142734	80.539994	Matara	PS-320101	5.94904	80.533659	5.949299	80.549097	WGXX+PJ9, Matara, Sri Lanka	1.708161		මාතර	මාතර	උයන්වත්ත පිටිය	மாத்தறை	மாத்தறை	உயன்வத்தை மைதானம்	WGXX+PJ9, මාතර, ශ්‍රී ලංකාව	WGXX+PJ9, மாத்தறை, இலங்கை
Hambantota	Ambalantota	MOH Office – Ambalantota	False	False	HMBNTTMBLNTTMHFFCMBLNTT		Hambantota	LK-33	6.259779	81.098619	Ambalantota	PS-330157	6.12516	81.023981	6.122767	81.005973	Walawa watta Road, Malpeththawa, Ambalantota, Sri Lanka	2.009195		හම්බන්තොට	අම්බලන්තොට	MOH කාර්යාලය - අම්බලන්තොට	அம்பாந்தோட்டை	அம்பலாந்தோட்டை	MOH அலுவலகம் - அம்பலாந்தோட்டை	වලව වත්ත පාර, මල්පෙත්තාව, අම්බලන්තොට, ශ්‍රී ලංකාව	வலவா வாட்டா சாலை, மால்பெத்தவா, அம்பலாந்தோட்டை, இலங்கை
Hambantota	Hambantota	MOH Office – Hambantota	False	False	HMBNTTHMBNTTMHFFCHMBNTT		Hambantota	LK-33	6.259779	81.098619	Hambantota	PS-330156	6.125872	81.12521	6.171162	81.127	54CG+FQ9, Hambantota, Sri Lanka	5.041487		හම්බන්තොට	හම්බන්තොට	MOH කාර්යාලය - හම්බන්තොට	அம்பாந்தோட்டை	அம்பாந்தோட்டை	MOH அலுவலகம் - அம்பாந்தோட்டை	54CG+FQ9, හම්බන්තොට, ශ්‍රී ලංකාව	54CG+FQ9, ஹம்பாந்தோட்டை, இலங்கை
Hambantota	Sooriyawewa	MOH Office – Sooriyawewa	False	False	HMBNTTSRYWWMHFFCSRYWW		Hambantota	LK-33	6.259779	81.098619	Sooriyawewa	PS-330155	6.306022	81.003873	6.304862	81.004768	8233+WWR, Sooriyawewa, Sri Lanka	0.1626		හම්බන්තොට	සූරියවැව	MOH කාර්යාලය - සූරියවැව	அம்பாந்தோட்டை	சூரியவெவ	MOH அலுவலகம் - சூரியவெவ	8233+ඩබ්ලිව්ඩබ්ලිව්ආර්, සූරියවැව, ශ්‍රී ලංකාව	8233+WWR, சூரியவெவ, இலங்கை
Hambantota	Walasmulla	OMOH Office – Walasmulla	False	False	HMBNTTWLSMLLMHFFCWLSMLL		Hambantota	LK-33	6.259779	81.098619	Walasmulla	PS-330151	6.154102	80.698256	6.150889	80.693718	Walasmulla, Sri Lanka	0.616099		හම්බන්තොට	වලස්මුල්ල	OMOH කාර්යාලය - වලස්මුල්ල	அம்பாந்தோட்டை	வலஸ்முல்லா	ஓமோ அலுவலகம் - வலஸ்முல்லா	වලස්මුල්ල, ශ්‍රී ලංකාව	வலஸ்முல்லா, இலங்கை
Hambantota	Tissamaharama	Kanda Viharaya	False	False	HMBNTTTSSMHRMKNDVHRY		Hambantota	LK-33	6.259779	81.098619	Tissamaharamaya	PS-330158	6.26109	81.236724	6.28018	81.290077	Rubberwatte Rd, Tissamaharama, Sri Lanka	6.269468		හම්බන්තොට	තිස්සමහාරාම	කන්ද විහාරය	அம்பாந்தோட்டை	திஸ்ஸமஹாராம	கந்த விஹாராயா	රබර්වත්ත පාර, තිස්සමහාරාම, ශ්‍රී ලංකාව	ரப்பர்வாட் சாலை, திஸ்ஸமஹாராமா, இலங்கை
Hambantota	Agunukolapelessa	Mahanaga National College	False	False	HMBNTTGNKLPLSSMHNGNTNLCLLG		Hambantota	LK-33	6.259779	81.098619	Angunakolapelessa	PS-330150	6.321993	80.844883	6.164902	80.895901	5V7W+X96, Agunukolapelessa, Sri Lanka	18.361223		හම්බන්තොට	අගුණුකොලපැලැස්ස	මහානාග ජාතික විද්‍යාලය	அம்பாந்தோட்டை	அகுணுகோலாபெலெஸ்ஸா	மகாநாகா தேசிய கல்லூரி	5V7W+X96, අගුණුකොලපැලැස්ස, ශ්‍රී ලංකාව	5V7W+X96, அகுனுகோலபெலஸ்ஸா, இலங்கை
Hambantota	Agunukolapelessa	Talawa Hospital	False	False	HMBNTTGNKLPLSSTLWHSPTL		Hambantota	LK-33	6.259779	81.098619	Angunakolapelessa	PS-330150	6.321993	80.844883	8.233797	80.348381	68MX+G96, Talawa, Sri Lanka	219.591722	#CenterFarFromPolice	හම්බන්තොට	අගුණුකොලපැලැස්ස	තලාව රෝහල	அம்பாந்தோட்டை	அகுணுகோலாபெலெஸ்ஸா	தலைவா மருத்துவமனை	68 එම්එක්ස්+ජී 96, තලාව, ශ්‍රී ලංකාව	68MX+G96, தலைவா, இலங்கை
Hambantota	Beliatta	MOH Office – Beliatta	False	False	HMBNTTBLTTMHFFCBLTT		Hambantota	LK-33	6.259779	81.098619	Beliatta	PS-330152	6.046936	80.735408	6.051828	80.741735	3P2R+PMQ, Hambantota, Sri Lanka	0.886482		හම්බන්තොට	බෙලිඅත්ත	MOH කාර්යාලය - බෙලිඅත්ත	அம்பாந்தோட்டை	பெலியாட்டா	MOH அலுவலகம் - பெலியாட்ட	3P2R+PMQ, හම්බන්තොට, ශ්‍රී ලංකාව	3P2R+PMQ, ஹம்பாந்தோட்டை, இலங்கை
Hambantota	Katuwana	Walgammulla Maha Vidyalaya	False	False	HMBNTTKTWNWLGMMLLMHVDYLY		Hambantota	LK-33	6.259779	81.098619	Katuwana	PS-330153	6.269722	80.690963	6.238257	80.675865	6MQG+885, Galpotukanda, Sri Lanka	3.877585		හම්බන්තොට	කටුවන	වල්ගම්මුල්ල මහා විද්‍යාලය	அம்பாந்தோட்டை	கட்டுவானா	வல்கம்முல்ல மகா வித்தியாலயம்	6MQG+885, ගල්පොටුකන්ද, ශ්‍රී ලංකාව	6MQG+885, கல்போடுகந்தா, இலங்கை
Hambantota	Katuwana	Udagomadiya Maha Vidyalaya	False	False	HMBNTTKTWNDGMDYMHVDYLY		Hambantota	LK-33	6.259779	81.098619	Katuwana	PS-330153	6.269722	80.690963	6.249382	80.70948	Julampitiya Rd, Katuwana, Sri Lanka	3.051265		හම්බන්තොට	කටුවන	උඩගොමදිය මහා විද්‍යාලය	அம்பாந்தோட்டை	கட்டுவானா	உடகோமதிய மகா வித்தியாலயம்	ජුලම්පිටිය පාර, කටුවාන, ශ්‍රී ලංකාව	ஜுலாம்பிட்டிய சாலை, கட்டுவானா, இலங்கை
Hambantota	Katuwana	Ritigahayaya Maha Vidyalaya	False	False	HMBNTTKTWNRTGHYYMHVDYLY		Hambantota	LK-33	6.259779	81.098619	Katuwana	PS-330153	6.269722	80.690963	6.26863	80.726983	B485, Sri Lanka	3.984391		හම්බන්තොට	කටුවන	රිටිගහයාය මහා විද්‍යාලය	அம்பாந்தோட்டை	கட்டுவானா	ரிதிகஹாய மகா வித்தியாலயம்	බී 485, ශ්‍රී ලංකාව	பி 485, இலங்கை
Hambantota	Katuwana	Middeniya Primary School	False	False	HMBNTTKTWNMDDNYPRMRYSCHL		Hambantota	LK-33	6.259779	81.098619	Katuwana	PS-330153	6.269722	80.690963	6.25259	80.764518	Panamura Rd, Middeniya, Sri Lanka	8.352977		හම්බන්තොට	කටුවන	මිද්දෙණිය ප්‍රාථමික විද්‍යාලය	அம்பாந்தோட்டை	கட்டுவானா	மித்தெனிய ஆரம்பப் பள்ளி	පනාමුර පාර, මිද්දෙණිය, ශ්‍රී ලංකාව	பனமுரா சாலை, மித்தெனியா, இலங்கை
Hambantota	Tangalla	MOH Office – Tangalla	False	False	HMBNTTTNGLLMHFFCTNGLL		Hambantota	LK-33	6.259779	81.098619	Tangalle	PS-330147	6.023954	80.797255	6.02363	80.795742	2QFW+F75, Tangalle, Sri Lanka	0.171198		හම්බන්තොට	තංගල්ල	MOH කාර්යාලය - තංගල්ල	அம்பாந்தோட்டை	தங்கல்லா	MOH அலுவலகம் - தங்கல்லா	2QFW+F75, තංගල්ල, ශ්‍රී ලංකාව	2QFW+F75, தங்காலை, இலங்கை
Rathnapura	Weligepola	Madawala Landa Community Hall	False	False	RTHNPRWLGPLMDWLLNDCMMNTYHLL		Ratnapura	LK-91	6.586826	80.566158	Weligepola	PS-910106	6.596426	80.723695	6.684628	80.401386	86/10, Inner Circular Road. Rathnapura, Rathnapura 70000, Sri Lanka	36.936592	#CenterFarFromPolice	රත්නපුර	වැලිගෙපොළ	මඩවල ලන්ද ප්‍රජා ශාලාව	இரத்தினபுரி	வெலிகெபொல	மடவாலா லந்தா சமுதாயக் கூடம்	86/10, අභ්යන්තර වටරවුම් මාර්ගය. රත්නපුර, රත්නපුර 70000, ශ්‍රී ලංකාව	86/10, உள் வட்ட சாலை. இரத்தினபுரா, இரத்தினபுரா 70000, இலங்கை
Rathnapura	Weligepola	Pusnatota Community Hall	False	False	RTHNPRWLGPLPSNTTCMMNTYHLL		Ratnapura	LK-91	6.586826	80.566158	Weligepola	PS-910106	6.596426	80.723695	6.583202	80.711558	Galgoda - Weligepola Rd, Weligepola, Sri Lanka	1.990489		රත්නපුර	වැලිගෙපොළ	පුස්නතොට ප්‍රජා ශාලාව	இரத்தினபுரி	வெலிகெபொல	புஸ்னடோட்டா சமூக மண்டபம்	ගල්ගොඩ - වැලිගෙපොල පාර, වැලිගෙපොල, ශ්‍රී ලංකාව	கல்கொட - வெலிகெபொல வீதி, வெலிகெபொல, இலங்கை
Rathnapura	Weligepola	Ambewila Vidyalaya	False	False	RTHNPRWLGPLMBWLVDYLY		Ratnapura	LK-91	6.586826	80.566158	Weligepola	PS-910106	6.596426	80.723695	6.574518	80.706607	HPF4+RJ5, Weligepola, Sri Lanka	3.082732		රත්නපුර	වැලිගෙපොළ	අඹේවිල විද්‍යාලය	இரத்தினபுரி	வெலிகெபொல	அம்பேவில வித்யாலயா	HPF4+RJ5, වැලිගෙපොල, ශ්‍රී ලංකාව	HPF4+RJ5, வெலிகெபொல, இலங்கை
Rathnapura	Weligepola	Mahameunawa Vidyalaya	False	False	RTHNPRWLGPLMHMNWVDYLY		Ratnapura	LK-91	6.586826	80.566158	Weligepola	PS-910106	6.596426	80.723695	6.778121	80.405737	Mandagala, Kanegalla, North, Gilimale, Ratnapura, Sri Lanka	40.52482	#CenterFarFromPolice	රත්නපුර	වැලිගෙපොළ	මහමෞනාව විද්‍යාලය	இரத்தினபுரி	வெலிகெபொல	மகாமேனாவா வித்யாலயா	මණ්ඩගල, කනැගල්ල, උතුර, ගිලීමලේ, රත්නපුර, ශ්‍රී ලංකාව	மண்டகலா, கனேகல்ல, வடக்கு, கிலிமலை, இரத்தினபுரி, இலங்கை
Rathnapura	Weligepola	Thennehena Viharaya	False	False	RTHNPRWLGPLTHNNHNVHRY		Ratnapura	LK-91	6.586826	80.566158	Weligepola	PS-910106	6.596426	80.723695	6.440955	80.759711	Pelmadulla - Embilipitiya Hwy, Ratnapura, Sri Lanka	17.745163		රත්නපුර	වැලිගෙපොළ	තෙන්නැහේන විහාරය	இரத்தினபுரி	வெலிகெபொல	தென்னேஹேன விஹாராயா	පැල්මඩුල්ල - ඇඹිලිපිටිය හ්වි, රත්නපුර, ශ්‍රී ලංකාව	பெல்மதுல்லா - எம்பிலிப்பிட்டிய ஹ்வி, இரத்தினபுரி, இலங்கை
Rathnapura	Weligepola	Udawela Ranwala Vidyalaya	False	False	RTHNPRWLGPLDWLRNWLVDYLY		Ratnapura	LK-91	6.586826	80.566158	Weligepola	PS-910106	6.596426	80.723695	6.606694	80.637221	Kahawatta Opanayake Rd, Udawela, Sri Lanka	9.622732		රත්නපුර	වැලිගෙපොළ	උඩවෙල රන්වල විද්‍යාලය	இரத்தினபுரி	வெலிகெபொல	உடவெல ரன்வாலா வித்தியாலயம்	කහවත්ත ඕපනායක පාර, උඩවෙල, ශ්‍රී ලංකාව	கஹவத்த ஓபநாயக்க வீதி, உடவெல, இலங்கை
Rathnapura	Rathnapura	Karangoda Viharaya	False	False	RTHNPRRTHNPRKRNGDVHRY		Ratnapura	LK-91	6.586826	80.566158	Ratnapura	PS-910101	6.679456	80.40223	6.678994	80.374216	Karangoda, Sri Lanka	3.095271		රත්නපුර	රත්නපුර	කරන්ගොඩ විහාරය	இரத்தினபுரி	இரத்தினபுரி	கரங்கொட விஹாராயா	කරන්ගොඩ, ශ්‍රී ලංකාව	கரங்கொடை, இலங்கை
Rathnapura	Rathnapura	Kehelowitigala Vidyalaya	False	False	RTHNPRRTHNPRKHLWTGLVDYLY		Ratnapura	LK-91	6.586826	80.566158	Ratnapura	PS-910101	6.679456	80.40223	6.695088	80.382654	M9WM+23J, Ratnapura, Sri Lanka	2.774917		රත්නපුර	රත්නපුර	කෙහෙලොවිටිගල විද්‍යාලය	இரத்தினபுரி	இரத்தினபுரி	கெஹெலோவிடிகலா வித்யாலயா	M9WM+23J, රත්නපුර, ශ්‍රී ලංකාව	M9WM+23J, இரத்தினபுரா, இலங்கை
Rathnapura	Opanayaka	Kandaketiya Vidyalaya	False	False	RTHNPRPNYKKNDKTYVDYLY		Ratnapura	LK-91	6.586826	80.566158	Opanayaka	PS-910104	6.608519	80.619285	6.618238	80.62379	Galhira Rd, Opanayake,, Sri Lanka	1.190132		රත්නපුර	ඕපනායක	කන්දකැටිය විද්‍යාලය	இரத்தினபுரி	ஓபநாயக்கா	கந்தகெட்டிய வித்தியாலயம்	ගල්හිර පාර, ඕපනායක, ශ්‍රී ලංකාව	கால்ஹிரா வீதி, ஓபநாயக்க ,, இலங்கை
Rathnapura	Opanayaka	Madola Viharaya	False	False	RTHNPRPNYKMDLVHRY		Ratnapura	LK-91	6.586826	80.566158	Opanayaka	PS-910104	6.608519	80.619285	6.621938	80.652802	Colombo - Batticaloa Hwy, Sri Lanka	3.992748		රත්නපුර	ඕපනායක	මාදොල විහාරය	இரத்தினபுரி	ஓபநாயக்கா	மடோலா விஹாராயா	කොළඹ - මඩකලපුව හ්වි, ශ්‍රී ලංකාව	கொழும்பு - மட்டக்களப்பு Hwy, இலங்கை
Rathnapura	Opanayaka	Wallaketiya Vidyalaya	False	False	RTHNPRPNYKWLLKTYVDYLY		Ratnapura	LK-91	6.586826	80.566158	Opanayaka	PS-910104	6.608519	80.619285	6.590889	80.634619	HJRM+9R5, Ratnapura, Sri Lanka	2.591542		රත්නපුර	ඕපනායක	වල්ලකැටිය විද්‍යාලය	இரத்தினபுரி	ஓபநாயக்கா	வல்லகெட்டிய வித்யாலயா	එච්ජේආර්එම්+9 ආර් 5, රත්නපුර, ශ්‍රී ලංකාව	HJRM+9R5, இரத்தினபுரி, இலங்கை
Rathnapura	Opanayaka	Udawela Vidyalaya	False	False	RTHNPRPNYKDWLVDYLY		Ratnapura	LK-91	6.586826	80.566158	Opanayaka	PS-910104	6.608519	80.619285	6.606694	80.637221	Kahawatta Opanayake Rd, Udawela, Sri Lanka	1.992136		රත්නපුර	ඕපනායක	උඩවෙල විද්‍යාලය	இரத்தினபுரி	ஓபநாயக்கா	உடவெல வித்யாலயா	කහවත්ත ඕපනායක පාර, උඩවෙල, ශ්‍රී ලංකාව	கஹவத்த ஓபநாயக்க வீதி, உடவெல, இலங்கை
Rathnapura	Opanayaka	Opanayaka Vidyalaya	False	False	RTHNPRPNYKPNYKVDYLY		Ratnapura	LK-91	6.586826	80.566158	Opanayaka	PS-910104	6.608519	80.619285					#CenterLocationUnknown	රත්නපුර	ඕපනායක	ඕපනායක විද්‍යාලය	இரத்தினபுரி	ஓபநாயக்கா	ஓபநாயக்க வித்யாலயா		
Rathnapura	Opanayaka	Galhira Vidyalaya	False	False	RTHNPRPNYKGLHRVDYLY		Ratnapura	LK-91	6.586826	80.566158	Opanayaka	PS-910104	6.608519	80.619285	6.618238	80.62379	Galhira Rd, Opanayake,, Sri Lanka	1.190132		රත්නපුර	ඕපනායක	ගල්හිරා විද්‍යාලය	இரத்தினபுரி	ஓபநாயக்கா	கல்ஹிரா வித்யாலயா	ගල්හිර පාර, ඕපනායක, ශ්‍රී ලංකාව	கால்ஹிரா வீதி, ஓபநாயக்க ,, இலங்கை
Kegalle	Kegalle	MOH Office – Kegalle	False	False	KGLLKGLLMHFFCKGLL		Kegalle	LK-92	7.104216	80.342866	Kegalle	PS-920118	7.255928	80.353156	7.24797	80.343583	Kegalle-Bulathkohupitiya-Karawanella Hwy, Kegalle, Sri Lanka	1.378052		කෑගල්ල	කෑගල්ල	MOH කාර්යාලය - කෑගල්ල	கேகாலை	கேகாலை	MOH அலுவலகம் - கேகாலை	කෑගල්ල-බුලත්කොහුපිටිය-කරවනැල්ල හ්වි, කෑගල්ල, ශ්‍රී ලංකාව	கேகாலை-புலத்கோஹுபிட்டிய-கரவனெல்லா ஹ்வி, கேகாலை, இலங்கை
Kegalle	Warakapola	MOH Office – Algama	False	False	KGLLWRKPLMHFFCLGM		Kegalle	LK-92	7.104216	80.342866	Wrakapola	PS-920119	7.227488	80.199696	7.226501	80.197818	65GX+J44, Warakapola, Sri Lanka	0.234514		කෑගල්ල	වරකාපොල	MOH කාර්යාලය - අල්ගම	கேகாலை	வாரகபொல	MOH அலுவலகம் - அல்கமா	65GX+J44, වරකාපොල, ශ්‍රී ලංකාව	65GX+J44, வராகபொல, இலங்கை
Kegalle	Rambukkana	MOH Office – Rambukkana	False	False	KGLLRMBKKNMHFFCRMBKKN		Kegalle	LK-92	7.104216	80.342866	Rambukkana	PS-920123	7.324319	80.387808	7.327307	80.394886	89GV+WXC, Rambukkana, Sri Lanka	0.848646		කෑගල්ල	රඹුක්කන	MOH කාර්යාලය - රඹුක්කන	கேகாலை	ரம்புக்கானா	MOH அலுவலகம் - ரம்புக்கானா	89GV+WXC, රඹුක්කන, ශ්‍රී ලංකාව	89GV+WXC, ரம்புக்கானா, இலங்கை
Kegalle	Ruwanwella	Maththegoda Rathnawali Vidyalaya	False	False	KGLLRWNWLLMTHTHGDRTHNWLVDYLY		Kegalle	LK-92	7.104216	80.342866	Ruwanwella	PS-920229	7.046189	80.254174	7.090247	80.002023	Medagama, Gampaha, Sri Lanka	28.261688	#CenterFarFromPolice	කෑගල්ල	රුවන්වැල්ල	මතෙගොඩ රත්නාවලී විද්‍යාලය	கேகாலை	ருவன்வெல்ல	மத்தேகொட ரத்னாவலி வித்தியாலயம்	මැදගම, ගම්පහ, ශ්‍රී ලංකාව	மேடகம, கம்பஹா, இலங்கை
Kegalle	Ruwanwella	Galpatha Viharaya	False	False	KGLLRWNWLLGLPTHVHRY		Kegalle	LK-92	7.104216	80.342866	Ruwanwella	PS-920229	7.046189	80.254174	7.104497	80.243037	Ruwanwella Rd, Sri Lanka	6.60107		කෑගල්ල	රුවන්වැල්ල	ගල්පාත විහාරය	கேகாலை	ருவன்வெல்ல	கல்பத விஹாராயா	රුවන්වැල්ල පාර, ශ්‍රී ලංකාව	ருவன்வெல்லா சாலை, இலங்கை
Kegalle	Bulathkohupitiya	Maliboda College, Deraniyagala	False	False	KGLLBLTHKHPTYMLBDCLLGDRNYGL		Kegalle	LK-92	7.104216	80.342866	Bulathkohupitiya	PS-920232	7.106684	80.3347	6.891575	80.439431	Uda Maliboda Rd, Maliboda, Sri Lanka	26.573825	#CenterFarFromPolice	කෑගල්ල	බුලත්කොහුපිටිය	මාලිබොඩ විද්‍යාලය, දැරණියගල	கேகாலை	புலத்கோஹுபிடியா	மாலிபோடா கல்லூரி, தெரணியாகலா	උඩ මාලිබොඩ පාර, මාලිබොඩ, ශ්‍රී ලංකාව	உட மாலிபோடா சாலை, மாலிபோடா, இலங்கை
Kegalle	Bulathkohupitiya	Dickella Kanda Primary School	False	False	KGLLBLTHKHPTYDCKLLKNDPRMRYSCHL		Kegalle	LK-92	7.104216	80.342866	Bulathkohupitiya	PS-920232	7.106684	80.3347	7.104528	80.336047	Bulathkohupitiya, Sri Lanka	0.28216		කෑගල්ල	බුලත්කොහුපිටිය	දික්ඇල්ල කන්ද ප්‍රාථමික විද්‍යාලය	கேகாலை	புலத்கோஹுபிடியா	டிக்கெல்லா கந்தா ஆரம்பப் பள்ளி	බුලත්කොහුපිටිය, ශ්‍රී ලංකාව	புலத்கோஹுபிட்டிய, இலங்கை
Kegalle	Bulathkohupitiya	Deraniyagala South Purana Viharaya	False	False	KGLLBLTHKHPTYDRNYGLSTHPRNVHRY		Kegalle	LK-92	7.104216	80.342866	Bulathkohupitiya	PS-920232	7.106684	80.3347	6.934076	80.336205	Deraniyagala Road, Deraniyagala, Sri Lanka	19.199878		කෑගල්ල	බුලත්කොහුපිටිය	දැරණියගල දකුණු පුරාණ විහාරය	கேகாலை	புலத்கோஹுபிடியா	தெரணியாகல தெற்கு புராண விகாரை	දැරණියගල පාර, දැරණියගල, ශ්‍රී ලංකාව	தரனியகலா சாலை, தெரணியகலா, இலங்கை
Kegalle	Bulathkohupitiya	Rasnak Kanada Sewa Piyasa	False	False	KGLLBLTHKHPTYRSNKKNDSWPYS		Kegalle	LK-92	7.104216	80.342866	Bulathkohupitiya	PS-920232	7.106684	80.3347	6.886789	79.918684	Parliament Approach Rd, Sri Jayawardenepura Kotte, Sri Lanka	52.035455	#CenterFarFromPolice	කෑගල්ල	බුලත්කොහුපිටිය	රස්නක් කැනඩ සේවා පියස	கேகாலை	புலத்கோஹுபிடியா	ரஸ்னக் கனடா சேவா பியசா	පාර්ලිමේන්තු ප්‍රවේශය පාර, ශ්‍රී ජයවර්ධනපුර කෝට්ටේ, ශ්‍රී ලංකාව	பாராளுமன்ற அணுகுமுறை வீதி, ஸ்ரீ ஜெயவர்தனபுர கோட்டே, இலங்கை
Kegalle	Aranayaka	Dippitiya Rajagiri Maha Vidyalaya	False	False	KGLLRNYKDPPTYRJGRMHVDYLY		Kegalle	LK-92	7.104216	80.342866	Aranayaka	PS-920120	7.186505	80.455273	7.176938	80.456814	B44, Dippitiya, Sri Lanka	1.077639		කෑගල්ල	අරණායක	දිප්පිටිය රාජගිරි මහා විද්‍යාලය	கேகாலை	அரநாயகம்	திப்பிட்டிய ராஜகிரி மகா வித்தியாலயம்	බී 44, දිප්පිටිය, ශ්‍රී ලංකාව	பி 44, திப்பிட்டிய, இலங்கை
Anuradhapura	Anuradhapura	Army Hospital Anuradhapura	False	False	NRDHPRNRDHPRRMYHSPTLNRDHPR		Anuradhapura	LK-71	8.39199	80.512958	Anuradapura	PS-710101	8.329752	80.407265	8.338302	80.407646	AB02, Anuradhapura, Sri Lanka	0.951939		අනුරාධපුර	අනුරාධපුර	අනුරාධපුර හමුදා රෝහල	அனுராதபுரம்	அனுராதபுரம்	அனுராதபுரம் இராணுவ மருத்துவமனை	ඒබී 02, අනුරාධපුර, ශ්‍රී ලංකාව	ஏபி 02, அனுராதபுரம், இலங்கை
Anuradhapura	Anuradhapura	MOH Office - Nuwaragam Palatha Central	False	False	NRDHPRNRDHPRMHFFCNWRGMPLTHCNTRL		Anuradhapura	LK-71	8.39199	80.512958	Anuradapura	PS-710101	8.329752	80.407265	8.341215	80.374096	Unnamed Road, Anuradhapura, Sri Lanka	3.866675		අනුරාධපුර	අනුරාධපුර	එම්ඕඑච් කාර්යාලය - නුවරගම් පලාත මධ්‍යම	அனுராதபுரம்	அனுராதபுரம்	MOH அலுவலகம் - நுவரகம் பலத மத்திய	නම් නොකළ පාර, අනුරාධපුර, ශ්‍රී ලංකාව	பெயரிடப்படாத சாலை, அனுராதபுரம், இலங்கை
Anuradhapura	Anuradhapura	MOH Office - Nuwaragam Palatha East	False	False	NRDHPRNRDHPRMHFFCNWRGMPLTHST		Anuradhapura	LK-71	8.39199	80.512958	Anuradapura	PS-710101	8.329752	80.407265	8.341215	80.374096	Unnamed Road, Anuradhapura, Sri Lanka	3.866675		අනුරාධපුර	අනුරාධපුර	එම්ඕඑච් කාර්යාලය - නුවරගම් පැලත නැගෙනහිර	அனுராதபுரம்	அனுராதபுரம்	MOH அலுவலகம் - நுவரகம் பலத கிழக்கு	නම් නොකළ පාර, අනුරාධපුර, ශ්‍රී ලංකාව	பெயரிடப்படாத சாலை, அனுராதபுரம், இலங்கை
Anuradhapura	Tirappanai	MOH Office – Tirappanai	False	False	NRDHPRTRPPNMHFFCTRPPN		Anuradhapura	LK-71	8.39199	80.512958									#PoliceLocationUnknown	අනුරාධපුර	තිරප්පනායි	MOH කාර්යාලය - තිරප්පනයි	அனுராதபுரம்	திறப்பனை	MOH அலுவலகம் - திறப்பனை		
Anuradhapura	Horowpothana	MOH Office – Horowpothana	False	False	NRDHPRHRWPTHNMHFFCHRWPTHN		Anuradhapura	LK-71	8.39199	80.512958	Horowpathana	PS-710117	8.553878	80.830734	8.553538	80.830507	HR3J+C66, Horowupotana, Sri Lanka	0.045317		අනුරාධපුර	හොරොව්පොතාන	MOH කාර්යාලය - හොරොව්පොතාන	அனுராதபுரம்	ஹோரோபோதனா	MOH அலுவலகம் - ஹோரோவ்போதனா	HR3J+C66, හොරොවුපොතාන, ශ්‍රී ලංකාව	HR3J+C66, ஹோரவுபோதனா, இலங்கை
Anuradhapura	Mihintale	MOH Office – Mihintale	False	False	NRDHPRMHNTLMHFFCMHNTL		Anuradhapura	LK-71	8.39199	80.512958	Mihintale	PS-710104	8.360062	80.511889	8.357612	80.509049	Puttalam - Anuradhapura - Trincomalee Hwy, Mihintale, Sri Lanka	0.41466		අනුරාධපුර	මිහින්තලය	MOH කාර්යාලය - මිහින්තලය	அனுராதபுரம்	மிஹிந்தலை	MOH அலுவலகம் - மிஹிந்தலை	පුත්තලම - අනුරාධපුර - ත්‍රිකුණාමලය හ්වි, මිහින්තලය, ශ්‍රී ලංකාව	புத்தளம் - அனுராதபுரம் - திருகோணமலை Hwy, மிஹிந்தலை, இலங்கை
Anuradhapura	Hingurakgoda	MOH Office – Hingurakgoda	False	False	NRDHPRHNGRKGDMHFFCHNGRKGD		Anuradhapura	LK-71	8.39199	80.512958	Hingurakgoda	PS-720129	8.048819	80.965751	8.046007	80.96576	2XW8+C82, Hingurakgoda, Sri Lanka	0.31278		අනුරාධපුර	හිඟුරක්ගොඩ	MOH කාර්යාලය - හිඟුරක්ගොඩ	அனுராதபுரம்	ஹிங்குரகொட	MOH அலுவலகம் - ஹிங்குரகொட	2XW8+C82, හිඟුරක්ගොඩ, ශ්‍රී ලංකාව	2XW8+C82, ஹிங்குரகொட, இலங்கை
Polonnaruwa	Medirigiriya	MOH Office – Medirigiriya	False	False	PLNNRWMDRGRYMHFFCMDRGRY		Polonnaruwa	LK-72	7.993659	81.026061	Medirigiriya	PS-720130	8.150847	80.984493	8.144647	80.965725	In front of DS office, Hospital Road, Medirigiriya, Sri Lanka	2.178523		පොළොන්නරුව	මැදිරිගිරිය	MOH කාර්යාලය - මැදිරිගිරිය	பொலன்னறுவை	மெதிரிகிரியா	MOH அலுவலகம் - மெதிரிகிரியா	ඩීඑස් කාර්යාලය ඉදිරිපිට, රෝහල් පාර, මැදිරිගිරිය, ශ්‍රී ලංකාව	டிஎஸ் அலுவலகத்தின் முன், மருத்துவமனை சாலை, மெதிரிகிரியா, இலங்கை
Jaffna	Jaffna	Mobile Medical Team	False	False	JFFNJFFNMBLMDCLTM		Jaffna	LK-41	9.691792	80.098594	Jaffna	PS-410209	9.659919	80.010965					#CenterLocationUnknown	යාපනය	යාපනය	ජංගම වෛද්‍ය කණ්ඩායම	யாழ்	யாழ்	மொபைல் மருத்துவ குழு		
Jaffna	Jaffna	MOH Office- Nallur	False	False	JFFNJFFNMHFFCNLLR		Jaffna	LK-41	9.691792	80.098594	Jaffna	PS-410209	9.659919	80.010965	9.673947	80.027736	M2FH+H3H, Jaffna, Sri Lanka	2.411714		යාපනය	යාපනය	එම්ඕඑච් කාර්යාලය- නල්ලූර්	யாழ்	யாழ்	MOH அலுவலகம்- நல்லூர்	M2FH+H3H, යාපනය, ශ්‍රී ලංකාව	M2FH+H3H, யாழ்ப்பாணம், இலங்கை
Jaffna	Jaffna	MOH Office – Jaffna	False	False	JFFNJFFNMHFFCJFFN		Jaffna	LK-41	9.691792	80.098594	Jaffna	PS-410209	9.659919	80.010965	9.673947	80.027736	M2FH+H3H, Jaffna, Sri Lanka	2.411714		යාපනය	යාපනය	MOH කාර්යාලය - යාපනය	யாழ்	யாழ்	MOH அலுவலகம் - யாழ்	M2FH+H3H, යාපනය, ශ්‍රී ලංකාව	M2FH+H3H, யாழ்ப்பாணம், இலங்கை
Jaffna	Tellippalai	MOH Office – Tellippalai	False	False	JFFNTLLPPLMHFFCTLLPPL		Jaffna	LK-41	9.691792	80.098594	Thelippalay	PS-410104	6.933075	79.857181	9.785978	80.038383	Q2PQ+99R, Tellippalai, Sri Lanka	317.953715	#CenterFarFromPolice	යාපනය	තෙලිප්පලෙයි	එම්ඕඑච් කාර්යාලය - තෙලිප්පලෙයි	யாழ்	தெல்லிப்பழை	MOH அலுவலகம் - தெல்லிப்பழை	Q2PQ+99R, තෙලිප්පලෙයි, ශ්‍රී ලංකාව	Q2PQ+99R, தெல்லிப்பழை, இலங்கை
Jaffna	Point Pedro	Thunnale Reading Hall	False	False	JFFNPNTPDRTHNNLRDNGHLL		Jaffna	LK-41	9.691792	80.098594	Point Pedro	PS-410106	9.827018	80.233187	9.83583	80.2119	R6P6+8QJ, Point Pedro, Sri Lanka	2.530512		යාපනය	පේදුරුතුඩුව	තුන්නලේ කියවීමේ ශාලාව	யாழ்	பருத்தித்துறை	துன்னாலை வாசிப்பு மண்டபம்	R6P6+8QJ, පේදුරුතුඩුව, ශ්‍රී ලංකාව	R6P6+8QJ, பருத்தித்துறை, இலங்கை
Jaffna	Point Pedro	Puloli Wigneswara Pre School	False	False	JFFNPNTPDRPLLWGNSWRPRSCHL		Jaffna	LK-41	9.691792	80.098594	Point Pedro	PS-410106	9.827018	80.233187	9.816357	80.233841	R68M+GGW, Point Pedro, Sri Lanka	1.187986		යාපනය	පේදුරුතුඩුව	පුලෝලි විග්නේෂ්වර පෙර පාසල	யாழ்	பருத்தித்துறை	பூலோலி விக்னேஸ்வரா முன்பள்ளி	ආර් 68 එම්+ජීජීඩබ්ලිව්, පේදුරුතුඩුව, ශ්‍රී ලංකාව	R68M+GGW, பருத்தித்துறை, இலங்கை
Jaffna	Point Pedro	Puloli Puttale Reading Hall	False	False	JFFNPNTPDRPLLPTTLRDNGHLL		Jaffna	LK-41	9.691792	80.098594	Point Pedro	PS-410106	9.827018	80.233187	9.816357	80.233841	R68M+GGW, Point Pedro, Sri Lanka	1.187986		යාපනය	පේදුරුතුඩුව	පුලෝලි පුත්තලේ කියවීමේ ශාලාව	யாழ்	பருத்தித்துறை	புலோலி புத்தலே வாசிப்பு மண்டபம்	ආර් 68 එම්+ජීජීඩබ්ලිව්, පේදුරුතුඩුව, ශ්‍රී ලංකාව	R68M+GGW, பருத்தித்துறை, இலங்கை
Jaffna	Point Pedro	Puloli Kandiyur Reading Hall	False	False	JFFNPNTPDRPLLKNDYRRDNGHLL		Jaffna	LK-41	9.691792	80.098594	Point Pedro	PS-410106	9.827018	80.233187	9.816357	80.233841	R68M+GGW, Point Pedro, Sri Lanka	1.187986		යාපනය	පේදුරුතුඩුව	පුලෝලි කඳියූර් කියවීමේ ශාලාව	யாழ்	பருத்தித்துறை	புலோலி கண்டியூர் வாசிப்பு மண்டபம்	ආර් 68 එම්+ජීජීඩබ්ලිව්, පේදුරුතුඩුව, ශ්‍රී ලංකාව	R68M+GGW, பருத்தித்துறை, இலங்கை
Jaffna	Nelliyady	Thunnale South Sivan Kovil	False	False	JFFNNLLYDYTHNNLSTHSVNKVL		Jaffna	LK-41	9.691792	80.098594	Nelliadi	PS-410108	9.778397	80.113303	9.784384	80.215746	Q6M8+Q75, Point Pedro, Sri Lanka	11.248803		යාපනය	නෙල්ලියාඩි	තුන්නාලේ දකුණු සිවාන් කෝවිල	யாழ்	நெல்லியடி	துன்னலே தெற்கு சிவன் கோவில்	Q6M8+Q75, පේදුරුතුඩුව, ශ්‍රී ලංකාව	Q6M8+Q75, பருத்தித்துறை, இலங்கை
Jaffna	Manippai	MOH Office – Sandilippai	False	False	JFFNMNPPMHFFCSNDLPP		Jaffna	LK-41	9.691792	80.098594	Manippai	PS-410210	9.727151	79.996905	9.749336	79.987383	Sandilipay, Sri Lanka	2.679343		යාපනය	මනිප්පායි	MOH කාර්යාලය - සඳිලිප්පෙයි	யாழ்	மணிப்பை	MOH அலுவலகம் - சண்டிலிப்பாய்	සඳිලිපේ, ශ්‍රී ලංකාව	சண்டிலிபே, இலங்கை
Jaffna	Velvettithurai	Udupiddi South Cultural Hall	False	False	JFFNVLVTTTHRDPDDSTHCLTRLHLL		Jaffna	LK-41	9.691792	80.098594	Valvettiththurai	PS-410107	9.823216	80.169633	9.812041	80.132842	sannithi kovil,thondaimanaru, Valvettithurai, Sri Lanka	4.219561		යාපනය	වෙල්වට්ටිතුරේ	උඩුපිඩි දකුණු සංස්කෘතික ශාලාව	யாழ்	வெல்வெட்டித்துறை	உடுப்பிட்டி தெற்கு கலாச்சார மண்டபம்	සන්නිති කෝවිල, තොණ්ඩයිමානරු, වැල්වැටිතුරෙයි, ශ්‍රී ලංකාව	சன்னிதி கோவில், தொண்டைமானாறு, வல்வெட்டித்துறை, இலங்கை
Jaffna	Kopay	MOH Office – Kopay	False	False	JFFNKPYMHFFCKPY		Jaffna	LK-41	9.691792	80.098594	Kopai	PS-410216	9.686887	80.03856	9.706729	80.065433	B268, Jaffna, Sri Lanka	3.681313		යාපනය	කෝපායි	MOH කාර්යාලය - කෝපායි	யாழ்	கோப்பாய்	MOH அலுவலகம் - கோப்பாய்	බී 268, යාපනය, ශ්‍රී ලංකාව	பி 268, யாழ்ப்பாணம், இலங்கை
Jaffna	Chunnagam	MOH Office - Uduvil	False	False	JFFNCHNNGMMHFFCDVL		Jaffna	LK-41	9.691792	80.098594	Chunnakam	PS-410211	9.745309	80.029151	9.742938	80.035132	P2VP+53C, Chunnakam, Sri Lanka	0.706719		යාපනය	චුන්නාගම්	MOH කාර්යාලය - උඩුවිල්	யாழ்	சுன்னாகம்	MOH அலுவலகம் - உடுவில்	පී 2 වීපී+53 සී, චුන්නාකම්, ශ්‍රී ලංකාව	P2VP+53C, சுன்னாகம், இலங்கை
Jaffna	Wadukkotte	MOH Office – Chankanai	False	False	JFFNWDKKTTMHFFCCHNKN		Jaffna	LK-41	9.691792	80.098594	Vaddukoddai		9.728886	79.947771	9.753617	79.976004	QX3G+CCR, Sri Lanka	4.140836		යාපනය	වඩුක්කෝට්ටේ	MOH කාර්යාලය - චංකනායි	யாழ்	வட்டுக்கோட்டை	MOH அலுவலகம் - சங்கனை	QX3G+CCR, ශ්‍රී ලංකාව	QX3G+CCR, இலங்கை
Jaffna	Kayts	MOH Office – Karainagar	False	False	JFFNKYTSMHFFCKRNGR		Jaffna	LK-41	9.691792	80.098594	Kayts	PS-410212	9.728654	79.94775	9.725097	79.99772	Sri Lanka, Manipay, Sri Lanka	5.492521		යාපනය	කයිට්ස්	MOH කාර්යාලය - කරෙයිනගර්	யாழ்	ஊர்காவற்துறையினர்	MOH அலுவலகம் - காரைநகர்	ශ්‍රී ලංකාව, මනිපායි, ශ්‍රී ලංකාව	இலங்கை, மானிப்பாய், இலங்கை
Jaffna	Kayts	MOH Office – Valanai	False	False	JFFNKYTSMHFFCVLN		Jaffna	LK-41	9.691792	80.098594	Kayts	PS-410212	9.728654	79.94775	9.636317	79.903777	Chatty vangkalvady road, Velanai, Sri Lanka	11.346015		යාපනය	කයිට්ස්	MOH කාර්යාලය - වලනායි	யாழ்	ஊர்காவற்துறையினர்	MOH அலுவலகம் - வளணை	චැටි වංගල්වඩි පාර, වෙලනායි, ශ්‍රී ලංකාව	சட்டி வாங்கல்வாடி சாலை, வேலணை, இலங்கை
Jaffna	Kayts	MOH Office – Kayts	False	False	JFFNKYTSMHFFCKYTS		Jaffna	LK-41	9.691792	80.098594	Kayts	PS-410212	9.728654	79.94775	9.697759	79.866366	Sri Lanka, Kayts, Sri Lanka	9.561445		යාපනය	කයිට්ස්	MOH කාර්යාලය - කයිට්ස්	யாழ்	ஊர்காவற்துறையினர்	MOH அலுவலகம் - ஊர்காவற்துறை	ශ්‍රී ලංකාව, කයිට්ස්, ශ්‍රී ලංකාව	இலங்கை, ஊர்காவற்துறை, இலங்கை
Jaffna	Chavakachcheri	Town Hall – Chavakachcheri	False	False	JFFNCHVKCHCHRTWNHLLCHVKCHCHR		Jaffna	LK-41	9.691792	80.098594	Chawakachcheri	PS-410215	9.666459	80.132384	9.659136	80.160946	M556+M94, Chavakachcheri, Sri Lanka	3.236063		යාපනය	චාවකච්චේරි	නගර ශාලාව - චාවකච්චේරි	யாழ்	சாவகச்சேரி	டவுன் ஹால் - சாவகச்சேரி	එම් 556+එම් 94, චාවකච්චේරි, ශ්‍රී ලංකාව	M556+M94, சாவகச்சேரி, இலங்கை
Jaffna	Atchchuveli	Puthur East Community Hall	False	False	JFFNTCHCHVLPTHRSTCMMNTYHLL		Jaffna	LK-41	9.691792	80.098594	Achchuweli	PS-410103	6.934132	79.856305	9.693047	80.165185	Jaffna, Sri Lanka	308.750556	#CenterFarFromPolice	යාපනය	අච්චුවේලි	පුතූර් නැගෙනහිර ප්‍රජා ශාලාව	யாழ்	அச்சுவேலி	புதூர் கிழக்கு சமுதாயக் கூடம்	යාපනය, ශ්‍රී ලංකාව	யாழ்ப்பாணம், இலங்கை
Kilinochchi	Kilinochchi	MOH Office - Karachchi	False	False	KLNCHCHKLNCHCHMHFFCKRCHCH		Kilinochchi	LK-45	9.415742	80.30358	Kilinochchi	PS-450131	9.392265	80.407846	9.396965	80.407782	Kandy - Jaffna Hwy, Kilinochchi, Sri Lanka	0.522827		කිලිනොච්චි	කිලිනොච්චි	MOH කාර්යාලය - කරච්චි	கிளிநொச்சி	கிளிநொச்சி	MOH அலுவலகம் - கராச்சி	මහනුවර - යාපනය හ්වි, කිලිනොච්චි, ශ්‍රී ලංකාව	கண்டி - யாழ்ப்பாணம், கிளிநொச்சி, இலங்கை
Kilinochchi	Kilinochchi	MOH Office – Palai	False	False	KLNCHCHKLNCHCHMHFFCPL		Kilinochchi	LK-45	9.415742	80.30358	Kilinochchi	PS-450131	9.392265	80.407846	7.330938	80.29484	06 A6, Polgahawela, Sri Lanka	229.618032	#CenterFarFromPolice	කිලිනොච්චි	කිලිනොච්චි	MOH කාර්යාලය - පලෙයි	கிளிநொச்சி	கிளிநொச்சி	MOH அலுவலகம் - பாளை	06 ඒ 6, පොල්ගහවෙල, ශ්‍රී ලංකාව	06 A6, பொல்கஹவெல, இலங்கை
Kilinochchi	Dharmapuram	MOH Office – Kandawalai	False	False	KLNCHCHDHRMPRMMHFFCKNDWL		Kilinochchi	LK-45	9.415742	80.30358	Dharmapuram	PS-450136	6.873107	79.86167	9.417165	80.504182	CG83+VM7, Velikkandal, Sri Lanka	291.682933	#CenterFarFromPolice	කිලිනොච්චි	ධර්මපුරම්	MOH කාර්යාලය - කඳවලයි	கிளிநொச்சி	தர்மபுரம்	MOH அலுவலகம் - கண்டாவளை	සීජී 83+වීඑම් 7, වැලිකන්දල්, ශ්‍රී ලංකාව	CG83+VM7, வேலிக்கண்டல், இலங்கை
Kilinochchi	Pooneryn	MOH Office – Pooneryn	False	False	KLNCHCHPNRYNMHFFCPNRYN		Kilinochchi	LK-45	9.415742	80.30358	Pooneryn		9.505717	80.21101	9.507968	80.208317	G655+58P, Pooneryn, Sri Lanka	0.387256		කිලිනොච්චි	පුනරීන්	MOH කාර්යාලය - පුනරීන්	கிளிநொச்சி	பூனெரின்	MOH அலுவலகம் - பூனெரின்	ජී 655+58 පී, පූනරීන්, ශ්‍රී ලංකාව	G655+58P, பூனெரின், இலங்கை
Kilinochchi	Mulankavil	Mulankavil Hospital	False	False	KLNCHCHMLNKVLMLNKVLHSPTL		Kilinochchi	LK-45	9.415742	80.30358	Mulankavil	PS-450135	9.254463	80.141528	9.243423	80.143894	Base Hospital Mulankavil, A32 Road, Mulankavil, Kumulamunai, Sri Lanka	1.255148		කිලිනොච්චි	මුලංකාවිල්	මුලංකාවිල් රෝහල	கிளிநொச்சி	முழங்காவில்	முழங்காவில் மருத்துவமனை	මුලික රෝහල මුලංකාවිල්, ඒ 32 පාර, මුලංකාවිල්, කුමුලමුනෙයි, ශ්‍රී ලංකාව	அடிப்படை மருத்துவமனை முழங்காவில், A32 சாலை, முழங்காவில், குமுலமுனை, இலங்கை
Mullaitivu	Mallavi	MOH Office – Palinagar	False	False	MLLTVMLLVMHFFCPLNGR		Mullaitivu	LK-44	9.167643	80.549091	Mallavi	PS-440153	9.137878	80.307257	9.105356	80.323155	Palinagar, Sri Lanka	4.016729		මුලතිව්	මල්ලාවි	MOH කාර්යාලය - පාලිනගර්	முல்லைத்தீவு	மல்லவி	MOH அலுவலகம் - பாலிநகர்	පාලිනාගර්, ශ්‍රී ලංකාව	பாலிநகர், இலங்கை
Mullaitivu	Mankulam	Mankulam Hospital	False	False	MLLTVMNKLMMNKLMHSPTL		Mullaitivu	LK-44	9.167643	80.549091	Mankulam	PS-440147	9.124606	80.448404	9.12782	80.447093	A9, Mankulam, Sri Lanka	0.385396		මුලතිව්	මාන්කුලම්	මාන්කුලම් රෝහල	முல்லைத்தீவு	மாங்குளம்	மாங்குளம் மருத்துவமனை	ඒ 9, මාන්කුලම්, ශ්‍රී ලංකාව	ஏ 9, மாங்குளம், இலங்கை
Mullaitivu	Oddusuddan	MOH Office – Oddusuddan	False	False	MLLTVDDSDDNMHFFCDDSDDN		Mullaitivu	LK-44	9.167643	80.549091	Oddusudan	PS-440151	9.160983	80.652821	9.162816	80.661584	5M76+4JG, Oddusuddan, Sri Lanka	0.983634		මුලතිව්	ඔඩ්ඩුසුඩාන්	MOH කාර්යාලය - ඔඩ්ඩුසුඩාන්	முல்லைத்தீவு	ஒட்டுசுட்டான்	MOH அலுவலகம் - ஒட்டுசுட்டான்	5 එම් 76+4 ජේජී, ඔඩ්ඩුසුඩාන්, ශ්‍රී ලංකාව	5M76+4JG, ஒட்டுசுட்டான், இலங்கை
Mullaitivu	Mullaitivu	Kumalamunai Maha Vidyalaya	False	False	MLLTVMLLTVKMLMNMHVDYLY		Mullaitivu	LK-44	9.167643	80.549091	Mullativu	PS-440148	9.212825	80.760159	9.265783	80.809789	7R85+8W7, Mullaitivu, Sri Lanka	8.024128		මුලතිව්	මුලතිව්	කුමලමුනෙයි මහා විද්‍යාලය	முல்லைத்தீவு	முல்லைத்தீவு	குமலமுனை மகா வித்தியாலயம்	7R85+8W7, මුලතිව්, ශ්‍රී ලංකාව	7R85+8W7, முல்லைத்தீவு, இலங்கை
Mullaitivu	Puthukudiyiruppu	MOH Office – Puthukudiyiruppu	False	False	MLLTVPTHKDYRPPMHFFCPTHKDYRPP		Mullaitivu	LK-44	9.167643	80.549091	Pudukuduiruppu	PS-440149	7.00152	79.95003	9.320965	80.683013	Parantan-Mullaitivu Hwy, Velikkandal, Sri Lanka	270.317914	#CenterFarFromPolice	මුලතිව්	පුදුකුඩියිරුප්පු	MOH කාර්යාලය - පුදුකුඩියිරුප්පු	முல்லைத்தீவு	புதுக்குடியிருப்பு	MOH அலுவலகம் - புதுக்குடியிருப்பு	පරන්තන්-මුලතිව් හ්වි, වේලිකන්දල්, ශ්‍රී ලංකාව	பரந்தன்-முல்லைத்தீவு Hwy, வேலிக்கண்டல், இலங்கை
Mannar	Mannar	Sitti Vinayagar National College - Mannar	False	False	MNNRMNNRSTTVNYGRNTNLCLLGMNNR		Mannar	LK-42	8.877429	80.088628	Mannar	PS-420138	8.978123	79.911642	8.97968	79.919795	Pallimunai Rd, Mannar, Sri Lanka	0.912332		මන්නාරම	මන්නාරම	සිත්ති විනයාගර් ජාතික විද්‍යාලය - මන්නාරම	மன்னார்	மன்னார்	சிட்டி விநாயகர் தேசிய கல்லூரி - மன்னார்	පල්ලිමුනෙයි පාර, මන්නාරම, ශ්‍රී ලංකාව	பள்ளிமுனை வீதி, மன்னார், இலங்கை
Mannar	Silawathura	MOH Office – Musali	False	False	MNNRSLWTHRMHFFCMSL		Mannar	LK-42	8.877429	80.088628	Silawathura	PS-420139	6.891461	79.856199	8.771972	79.940143	QWCR+Q3J, Methanvely, Sri Lanka	209.373335	#CenterFarFromPolice	මන්නාරම	සිලාවතුර	MOH කාර්යාලය - මුසාලි	மன்னார்	சிலவத்துரா	MOH அலுவலகம் - முசலி	QWCR+Q3J, මෙතන්වැලි, ශ්‍රී ලංකාව	QWCR+Q3J, மெத்தன்வேலி, இலங்கை
Mannar	Pesalai	St. Mary's College, Pesalai	False	False	MNNRPSLSTMRYSCLLGPSL		Mannar	LK-42	8.877429	80.088628									#PoliceLocationUnknown	මන්නාරම	පෙසලෙයි	පේසාලෙයි ශාන්ත මරියා විද්‍යාලය	மன்னார்	பேசாலை	செயின்ட் மேரீஸ் கல்லூரி, பேசாலை		
Vavuniya	Vavuniya	Sri Rama Puram Thirignana Maha Vidyalaya	False	False	VVNYVVNYSRRMPRMTHRGNNMHVDYLY		Vavuniya	LK-43	8.852071	80.467404	Vavuniya	PS-430119	8.754431	80.498604	8.758539	80.501239	QG52+CF9, Vavuniya, Sri Lanka	0.541016		වවුනියාව	වවුනියාව	ශ්රී රාම පුරම් තරිඥාන මහා විද්යාලය	வவுனியா	வவுனியா	ஸ்ரீ ராம புரம் திரிக்ஞான மகா வித்தியாலயம்	QG52+CF9, වවුනියාව, ශ්‍රී ලංකාව	QG52+CF9, வவுனியா, இலங்கை
Vavuniya	Vavuniya	Shiwaprakash Girls' College	False	False	VVNYVVNYSHWPRKSHGRLSCLLG		Vavuniya	LK-43	8.852071	80.467404	Vavuniya	PS-430119	8.754431	80.498604	8.751173	80.503888	QG23+FH6, Vavuniya, Sri Lanka	0.684662		වවුනියාව	වවුනියාව	ශිවප්‍රකාශ් බාලිකා විද්‍යාලය	வவுனியா	வவுனியா	சிவபிரகாஷ் பெண்கள் கல்லூரி	QG23+FH6, වවුනියාව, ශ්‍රී ලංකාව	QG23+FH6, வவுனியா, இலங்கை
Vavuniya	Vavuniya	Kovil Kulam Hindu Maha Vidyalaya	False	False	VVNYVVNYKVLKLMHNDMHVDYLY		Vavuniya	LK-43	8.852071	80.467404	Vavuniya	PS-430119	8.754431	80.498604	8.738542	80.509374	PGQ5+CQF, Kovilputhukulam 6th Ln, Vavuniya 43000, Sri Lanka	2.127286		වවුනියාව	වවුනියාව	කෝවිල් කුලම් හින්දු මහා විද්‍යාලය	வவுனியா	வவுனியா	கோவில் குளம் இந்து மகா வித்தியாலயம்	PGQ5+CQF, කෝවිල්පුතුකුලම් 6 වන මාර්ගය, වව්නියාව 43000, ශ්‍රී ලංකාව	PGQ5+CQF, கோவில்புதுகுளம் 6 வது LN, வவுனியா 43000, இலங்கை
Vavuniya	Vavuniya	Maharambakulam Vidyalaya	False	False	VVNYVVNYMHRMBKLMVDYLY		Vavuniya	LK-43	8.852071	80.467404	Vavuniya	PS-430119	8.754431	80.498604	8.7794	80.507694	23 kutty nagar maaharambikulam, Vavuniya, Sri Lanka	2.951595		වවුනියාව	වවුනියාව	මහරම්බකුලම් විද්‍යාලය	வவுனியா	வவுனியா	மகரம்பகுளம் வித்யாலயா	23 කුට්ටි නගර් මහාරම්බිකුලම්, වවුනියාව, ශ්‍රී ලංකාව	23 குட்டி நகர் மகரம்பிக்குளம், வவுனியா, இலங்கை
Vavuniya	Sidambarapuram	Sidambarapuram hospital	False	False	VVNYSDMBRPRMSDMBRPRMHSPTL		Vavuniya	LK-43	8.852071	80.467404									#PoliceLocationUnknown	වවුනියාව	සිදම්බරපුරම්	සිදම්බරපුරම් රෝහල	வவுனியா	சிதம்பரபுரம்	சிதம்பரபுரம் மருத்துவமனை		
Vavuniya	Puvarissankulam	Puvarissankulam Hospital	False	False	VVNYPVRSSNKLMPVRSSNKLMHSPTL		Vavuniya	LK-43	8.852071	80.467404									#PoliceLocationUnknown	වවුනියාව	පුවරිස්සන්කුලම	පුවරිස්සන්කුලම රෝහල	வவுனியா	புவாரிசன்குளம்	புவாரிசன்குளம் மருத்துவமனை		
Vavuniya	Omanthai	Omanthai Hospital	False	False	VVNYMNTHMNTHHSPTL		Vavuniya	LK-43	8.852071	80.467404	Omantha	PS-430123	8.84719	80.497841	8.864234	80.502119	VG72+MRX, Omanthai, Sri Lanka	1.953234		වවුනියාව	ඕමන්තේ	ඕමන්ත රෝහල	வவுனியா	ஓமந்தை	ஓமந்தை மருத்துவமனை	VG72+MRX, ඕමන්තේ, ශ්‍රී ලංකාව	VG72+MRX, ஓமந்தை, இலங்கை
Vavuniya	Omanthai	Nauvi Hospital	False	False	VVNYMNTHNVHSPTL		Vavuniya	LK-43	8.852071	80.467404	Omantha	PS-430123	8.84719	80.497841	8.864234	80.502119	VG72+MRX, Omanthai, Sri Lanka	1.953234		වවුනියාව	ඕමන්තේ	නෞවි රෝහල	வவுனியா	ஓமந்தை	நauவி மருத்துவமனை	VG72+MRX, ඕමන්තේ, ශ්‍රී ලංකාව	VG72+MRX, ஓமந்தை, இலங்கை
Trincomalee	Muttur	MOH Office – Muttur	False	False	TRNCMLMTTRMHFFCMTTR		Trincomalee	LK-53	8.551241	81.092014	Mutur	PS-530138	8.461133	81.259371	8.453916	81.264494	1 Old Batticaloa Rd, Mutur, Sri Lanka	0.980859		ත්රිකුණාමලය	මුතූර්	MOH කාර්යාලය - මුතූර්	திருகோணமலை	மூதூர்	MOH அலுவலகம் - மூதூர்	1 පරණ මඩකලපුව පාර, මුතූර්, ශ්‍රී ලංකාව	1 பழைய மட்டக்களப்பு வீதி, மூதூர், இலங்கை
Trincomalee	Kinniya	MOH Office – Kurungnakeni	False	False	TRNCMLKNNYMHFFCKRNGNKN		Trincomalee	LK-53	8.551241	81.092014	Kinnia	PS-530140	6.907289	79.863819	7.484932	80.353119	F9M3+X6H, Kurunegala 60000, Sri Lanka	83.927094	#CenterFarFromPolice	ත්රිකුණාමලය	කින්නියා	එම්ඕඑච් කාර්යාලය - කුරුංග්ණකේනි	திருகோணமலை	கிண்ணியா	MOH அலுவலகம் - குருங்நகேணி	F9M3+X6H, කුරුණෑගල 60000, ශ්‍රී ලංකාව	F9M3+X6H, குருநாகல் 60000, இலங்கை
Trincomalee	Kinniya	MOH Office – Kinniya	False	False	TRNCMLKNNYMHFFCKNNY		Trincomalee	LK-53	8.551241	81.092014	Kinnia	PS-530140	6.907289	79.863819	8.498696	81.179644	F5XH+FVC, Kinniya 31100, Sri Lanka	228.840304	#CenterFarFromPolice	ත්රිකුණාමලය	කින්නියා	MOH කාර්යාලය - කින්නියා	திருகோணமலை	கிண்ணியா	MOH அலுவலகம் - கிண்ணியா	F5XH+FVC, කින්නියා 31100, ශ්‍රී ලංකාව	F5XH+FVC, கிண்ணியா 31100, இலங்கை
Trincomalee	Sripura	MOH Office – Sripura	False	False	TRNCMLSRPRMHFFCSRPR		Trincomalee	LK-53	8.551241	81.092014	Sripura	PS-530136	8.929617	80.81428	8.926697	80.814799	Padavi Sripura, Padaviya - Sripura Road, Welioya, Sri Lanka	0.329869		ත්රිකුණාමලය	ශ්‍රීපුර	MOH කාර්යාලය - ශ්‍රීපුර	திருகோணமலை	ஸ்ரீபுரா	MOH அலுவலகம் - ஸ்ரீபுரா	පදවි ශ්‍රීපුර, පදවිය - ශ්‍රීපුර පාර, වැලිඔය, ශ්‍රී ලංකාව	படவி ஸ்ரீபுரா, படாவியா - ஸ்ரீபுரா சாலை, வெலிஓயா, இலங்கை
Trincomalee	Kuchchaveli	MOH Office – Kuchchaveli	False	False	TRNCMLKCHCHVLMHFFCKCHCHVL		Trincomalee	LK-53	8.551241	81.092014	Kuchchaweli	PS-530133	8.81895	81.100438	8.740082	81.161616	P5R6+2JQ, Kumpurupiddi, Sri Lanka	11.053646		ත්රිකුණාමලය	කුච්චවේලි	MOH කාර්යාලය - කුච්චවේලි	திருகோணமலை	குச்சவெளி	MOH அலுவலகம் - குச்சவெளி	P5R6+2JQ, කුඹුරුපිඩි, ශ්‍රී ලංකාව	P5R6+2JQ, கும்புறுப்பிடி, இலங்கை
Trincomalee	Kuchchaveli	Divisional Hospital – Kuchchaveli	False	False	TRNCMLKCHCHVLDVSNLHSPTLKCHCHVL		Trincomalee	LK-53	8.551241	81.092014	Kuchchaweli	PS-530133	8.81895	81.100438	8.814795	81.102358	R472+WW9, Kuchchaveli, Sri Lanka	0.508064		ත්රිකුණාමලය	කුච්චවේලි	ප්‍රාදේශීය රෝහල - කුච්චවේලි	திருகோணமலை	குச்சவெளி	பிரதேச மருத்துவமனை - குச்சவெளி	ආර් 472+WW9, කුච්චවේලි, ශ්‍රී ලංකාව	R472+WW9, குச்சவெளி, இலங்கை
Trincomalee	Kuchchaveli	Divisional Hospital – Nilaveli	False	False	TRNCMLKCHCHVLDVSNLHSPTLNLVL		Trincomalee	LK-53	8.551241	81.092014	Kuchchaweli	PS-530133	8.81895	81.100438	8.681035	81.193632	M5JV+CF6, Nilaveli, Sri Lanka	18.44695		ත්රිකුණාමලය	කුච්චවේලි	ප්‍රාදේශීය රෝහල - නිලාවේලි	திருகோணமலை	குச்சவெளி	பிரதேச மருத்துவமனை - நிலாவெளி	M5JV+CF6, නිලාවේලි, ශ්‍රී ලංකාව	M5JV+CF6, நிலவேலி, இலங்கை
Trincomalee	Pulmoddai	Base Hospital -Pulmoddai	False	False	TRNCMLPLMDDBSHSPTLPLMDD		Trincomalee	LK-53	8.551241	81.092014	Pulmudai	PS-530135	6.915266	79.87829	8.941204	80.983139	WXRM+F7J, Pulmoddai, Sri Lanka	256.112801	#CenterFarFromPolice	ත්රිකුණාමලය	පුල්මොඩෙයි	මූලික රෝහල -පුල්මොඩෙයි	திருகோணமலை	புல்மோட்டை	அடிப்படை மருத்துவமனை -புல்மோடை	ඩබ්ලිව්එක්ස්ආර්එම්+එෆ් 7 ජේ, පුල්මොඩෙයි, ශ්‍රී ලංකාව	WXRM+F7J, புல்மோடை, இலங்கை
Trincomalee	Serunuwara	MOH Office – Serunuwara	False	False	TRNCMLSRNWRMHFFCSRNWR		Trincomalee	LK-53	8.551241	81.092014	Serunuwara	PS-530244	8.321863	81.299322	8.323143	81.299894	B10, Sri Lanka	0.155671		ත්රිකුණාමලය	සේරුනුවර	MOH කාර්යාලය - සේරුනුවර	திருகோணமலை	சேருநுவரா	MOH அலுவலகம் - சேருநுவரா	බී 10, ශ්‍රී ලංකාව	பி 10, இலங்கை
Trincomalee	Harbour Police	MOH Office – Trincomalee	False	False	TRNCMLHRBRPLCMHFFCTRNCML		Trincomalee	LK-53	8.551241	81.092014	Trinco Harbour Police	PS-530131	8.56705	81.231407	8.598974	81.216963	MOH Office, Farm Rd, Trincomalee, Sri Lanka	3.890062		ත්රිකුණාමලය	වරාය පොලිසිය	එම්ඕඑච් කාර්යාලය - ත්‍රිකුණාමලය	திருகோணமலை	துறைமுக காவல்துறை	MOH அலுவலகம் - திருகோணமலை	එම්ඕඑච් කාර්යාලය, ගොවිපල පාර, ත්‍රිකුණාමලය, ශ්‍රී ලංකාව	MOH அலுவலகம், பண்ணை சாலை, திருகோணமலை, இலங்கை
Trincomalee	Harbour Police	Base Hospital – Trincomalee	False	False	TRNCMLHRBRPLCBSHSPTLTRNCML		Trincomalee	LK-53	8.551241	81.092014	Trinco Harbour Police	PS-530131	8.56705	81.231407	8.56486	81.239445	Hospital Ln, Trincomalee, Sri Lanka	0.917037		ත්රිකුණාමලය	වරාය පොලිසිය	මූලික රෝහල - ත්‍රිකුණාමලය	திருகோணமலை	துறைமுக காவல்துறை	அடிப்படை மருத்துவமனை - திருகோணமலை	රෝහල, ත්‍රිකුණාමලය, ශ්‍රී ලංකාව	மருத்துவமனை Ln, திருகோணமலை, இலங்கை
Trincomalee	Uppuveli	MOH Office - Uppuveli	False	False	TRNCMLPPVLMHFFCPPVL		Trincomalee	LK-53	8.551241	81.092014	Uppuweli	PS-530134	8.593614	81.21743	8.607961	81.216512	Nilaveli Rd, Trincomalee, Sri Lanka	1.599005		ත්රිකුණාමලය	උප්පුවේලි	MOH කාර්යාලය - උප්පුවේලි	திருகோணமலை	உப்புவேலி	MOH அலுவலகம் - உப்புவேலி	නිලාවේලි පාර, ත්‍රිකුණාමලය, ශ්‍රී ලංකාව	நிலவேலி வீதி, திருகோணமலை, இலங்கை
Trincomalee	Kantale	MOH Office - Kantale	False	False	TRNCMLKNTLMHFFCKNTL		Trincomalee	LK-53	8.551241	81.092014	Kantale	PS-530241	8.356129	81.007739	8.349617	81.009107	අග්‍රබෝධි මාවත, Kantale, Sri Lanka	0.739809		ත්රිකුණාමලය	කන්තලේ	MOH කාර්යාලය - කන්තලේ	திருகோணமலை	கந்தலே	MOH அலுவலகம் - கந்தலே	වැඩි දියුණු කිරීම මාවත, කන්තලේ, ශ්‍රී ලංකාව	தீவிரப்படுத்தி மாவத்த, கந்தலே, இலங்கை
Trincomalee	Ichchalampattu	MOH Office – Ichchalampattu	False	False	TRNCMLCHCHLMPTTMHFFCCHCHLMPTT	Eachchilampattu Hospital	Trincomalee	LK-53	8.551241	81.092014	Ichchalampattu		8.289549	81.359002	8.289644	81.358983	Highway, Ichchalampattu, Trincomalee, Sri Lanka	0.010772		ත්රිකුණාමලය	ඉච්චලම්පත්තු	එක්ර්චිලම්පත්තු රෝහල	திருகோணமலை	இச்சலம்பட்டு	ஒவ்வொருசிலம்பட்டு மருத்துவமனை	අධිවේගී මාර්ගය, ඉච්චලම්පත්තු, ත්‍රිකුණාමලය, ශ්‍රී ලංකාව	நெடுஞ்சாலை, ஈச்சலாம்பட்டு, திருகோணமலை, இலங்கை
Trincomalee	Thambalagamuwa	MOH Office - Thambalagamuwa	False	False	TRNCMLTHMBLGMWMHFFCTHMBLGMW		Trincomalee	LK-53	8.551241	81.092014	Thambalagamuva	PS-530243	6.907289	79.863819	8.563603	81.239584	Hospital Ln, Trincomalee, Sri Lanka	238.604889	#CenterFarFromPolice	ත්රිකුණාමලය	තඹලගමුව	MOH කාර්යාලය - තඹලගමුව	திருகோணமலை	தம்பலகாமுவா	MOH அலுவலகம் - தம்பலகமுவ	රෝහල, ත්‍රිකුණාමලය, ශ්‍රී ලංකාව	மருத்துவமனை Ln, திருகோணமலை, இலங்கை
Batticaloa	Batticaloa	Mobile Medical Team	False	False	BTTCLBTTCLMBLMDCLTM		Batticaloa	LK-51	7.792772	81.486513	Batticaloa	PS-510101	7.717949	81.699294					#CenterLocationUnknown	මඩකලපුව	මඩකලපුව	ජංගම වෛද්‍ය කණ්ඩායම	மட்டக்களப்பு	மட்டக்களப்பு	மொபைல் மருத்துவ குழு		
Batticaloa	Batticaloa	Town Hall – Batticaloa	False	False	BTTCLBTTCLTWNHLLBTTCL		Batticaloa	LK-51	7.792772	81.486513	Batticaloa	PS-510101	7.717949	81.699294	7.710065	81.700802	PP62+28F, Batticaloa, Sri Lanka	0.89255		මඩකලපුව	මඩකලපුව	පුරහල - මඩකලපුව	மட்டக்களப்பு	மட்டக்களப்பு	டவுன் ஹால் - மட்டக்களப்பு	පීපී 62+28 එෆ්, මඩකලපුව, ශ්‍රී ලංකාව	PP62+28F, மட்டக்களப்பு, இலங்கை
Batticaloa	Batticaloa	Kokuvil Vigneshwara Vidyalaya	False	False	BTTCLBTTCLKKVLVGNSHWRVDYLY		Batticaloa	LK-51	7.792772	81.486513	Batticaloa	PS-510101	7.717949	81.699294	7.740271	81.668393	PMR9+492, Batticaloa, Sri Lanka	4.214732		මඩකලපුව	මඩකලපුව	කොකුවිල් විග්නේෂ්වර විද්‍යාලය	மட்டக்களப்பு	மட்டக்களப்பு	கொக்குவில் விக்னேஷ்வரா வித்தியாலயம்	PMR9+492, මඩකලපුව, ශ්‍රී ලංකාව	PMR9+492, மட்டக்களப்பு, இலங்கை
Batticaloa	Kokkadicholai	MOH Office – Pattipala	False	False	BTTCLKKKDCHLMHFFCPTTPL		Batticaloa	LK-51	7.792772	81.486513	Kokkadicholai	PS-510112	7.715979	81.698757	7.023407	80.262082	A7, Karawanella, Sri Lanka	176.210764	#CenterFarFromPolice	මඩකලපුව	කොක්කඩිචෝලේ	MOH කාර්යාලය - පට්ටිපාල	மட்டக்களப்பு	கொக்கடிச்சோலை	MOH அலுவலகம் - பட்டிபால	ඒ 7, කරවනැල්ල, ශ්‍රී ලංකාව	A7, கரவனெல்லா, இலங்கை
Batticaloa	Valachchenai	Valachchenai Base Hospital	False	False	BTTCLVLCHCHNVLCHCHNBSHSPTL		Batticaloa	LK-51	7.792772	81.486513	Valachchanai	PS-510107	7.908015	81.533004	7.911315	81.533046	Valaichchenai-Nasuvantivu-Navaladi Road, Sri Lanka	0.367088		මඩකලපුව	වාලච්චේන	වාලච්චේන මූලික රෝහල	மட்டக்களப்பு	வாலாச்சேனை	வாலாச்சேனை ஆதார மருத்துவமனை	වාලච්චේනයි-නසුවන්ටිව්-නවාලාඩි පාර, ශ්‍රී ලංකාව	வாழைச்சேனை-நசுவந்திவு-நாவலடி சாலை, இலங்கை
Batticaloa	Valachchenai	MOH Office – Oddamavadi	False	False	BTTCLVLCHCHNMHFFCDDMVD		Batticaloa	LK-51	7.792772	81.486513	Valachchanai	PS-510107	7.908015	81.533004	7.912281	81.532775	WG6M+W46, Batticaloa, Sri Lanka	0.475177		මඩකලපුව	වාලච්චේන	එම්ඕඑච් කාර්යාලය - ඔද්දමවඩි	மட்டக்களப்பு	வாலாச்சேனை	MOH அலுவலகம் - ஓட்டமாவடி	WG6M+W46, මඩකලපුව, ශ්‍රී ලංකාව	WG6M+W46, மட்டக்களப்பு, இலங்கை
Batticaloa	Valachchenai	MOH Office – Nawaladi	False	False	BTTCLVLCHCHNMHFFCNWLD	Primary Medical Care Unit, Navalady	Batticaloa	LK-51	7.792772	81.486513	Valachchanai	PS-510107	7.908015	81.533004	7.735244	81.709126	PPP5+3MR, Kallady, Sri Lanka	27.312365	#CenterFarFromPolice	මඩකලපුව	වාලච්චේන	ප්‍රාථමික වෛද්‍ය සේවා ඒකකය, නාවලඩි	மட்டக்களப்பு	வாலாச்சேனை	ஆரம்ப மருத்துவ பராமரிப்பு பிரிவு, நாவலடி	පීපීපී 5+3 එම්ආර්, කල්ලඩි, ශ්‍රී ලංකාව	PPP5+3MR, கல்லடி, இலங்கை
Batticaloa	Valachchenai	MOH Office – Kiran	False	False	BTTCLVLCHCHNMHFFCKRN		Batticaloa	LK-51	7.792772	81.486513	Valachchanai	PS-510107	7.908015	81.533004	7.623441	81.717877	Muthalaikudah Kanchirankudah Rd, Sri Lanka	37.64378	#CenterFarFromPolice	මඩකලපුව	වාලච්චේන	MOH කාර්යාලය - කිරාන්	மட்டக்களப்பு	வாலாச்சேனை	MOH அலுவலகம் - கிரண்	මුතලෙයිකුඩා කාංචිරන්කුඩා පාර, ශ්‍රී ලංකාව	முத்தலைக்கூடா காஞ்சிரங்குடா சாலை, இலங்கை
Batticaloa	Valachchenai	MOH Office – Valachchenai	False	False	BTTCLVLCHCHNMHFFCVLCHCHN		Batticaloa	LK-51	7.792772	81.486513	Valachchanai	PS-510107	7.908015	81.533004	7.912281	81.532775	WG6M+W46, Batticaloa, Sri Lanka	0.475177		මඩකලපුව	වාලච්චේන	MOH කාර්යාලය - වාලච්චේන	மட்டக்களப்பு	வாலாச்சேனை	MOH அலுவலகம் - வாலாச்சேனை	WG6M+W46, මඩකලපුව, ශ්‍රී ලංකාව	WG6M+W46, மட்டக்களப்பு, இலங்கை
Batticaloa	Vakarai	MOH Office – Vakarai	False	False	BTTCLVKRMHFFCVKR	Divisional Hospital Vakarai	Batticaloa	LK-51	7.792772	81.486513	Wakarai	PS-510109	6.934132	79.856305	8.134552	81.435328	Trincomalee Hwy, Vakarai, Sri Lanka	219.417822	#CenterFarFromPolice	මඩකලපුව	වාකරේ	වාකරේ ප්‍රාදේශීය රෝහල	மட்டக்களப்பு	வாகரை	வாகரை பிரதேச மருத்துவமனை	ත්‍රිකුණාමලය හ්වි, වාකරේ, ශ්‍රී ලංකාව	திருகோணமலை Hwy, வாகரை, இலங்கை
Batticaloa	Vavunathivu	MOH Office – Vavunathivu	False	False	BTTCLVVNTHVMHFFCVVNTHV		Batticaloa	LK-51	7.792772	81.486513	Vavunathive	PS-510102	6.933075	79.857181	7.708253	81.691368	Hospital Rd, Batticaloa, Sri Lanka	219.95575	#CenterFarFromPolice	මඩකලපුව	වවුනතිව්	MOH කාර්යාලය - වවුනතිව්	மட்டக்களப்பு	வவுணதீவு	MOH அலுவலகம் - வவுணதீவு	රෝහල පාර, මඩකලපුව, ශ්‍රී ලංකාව	மருத்துவமனை சாலை, மட்டக்களப்பு, இலங்கை
Batticaloa	Kaluwanchikudy	Kottakallar Maha Vidyalaya	False	False	BTTCLKLWNCHKDYKTTKLLRMHVDYLY		Batticaloa	LK-51	7.792772	81.486513	Kalawanchikudy	PS-510110	7.515908	81.787051	7.487461	81.807055	FRP4+XRM, Kaluwanchikudy, Sri Lanka	3.85724		මඩකලපුව	කළුවන්චිකුඩි	කොට්ටකල්ලර් මහා විද්‍යාලය	மட்டக்களப்பு	களுவாஞ்சிக்குடி	கோட்டக்கல்லர் மகா வித்தியாலயம்	FRP4+XRM, කළුවාංචිකුඩි, ශ්‍රී ලංකාව	FRP4+XRM, களுவாஞ்சிக்குடி, இலங்கை
Batticaloa	Kaluwanchikudy	Base Hospital – Kaluwanchikudy	False	False	BTTCLKLWNCHKDYBSHSPTLKLWNCHKDY		Batticaloa	LK-51	7.792772	81.486513	Kalawanchikudy	PS-510110	7.515908	81.787051	7.51724	81.785184	GQ8P+V3V, Kaluwanchikudy, Sri Lanka	0.25365		මඩකලපුව	කළුවන්චිකුඩි	මූලික රෝහල - කළුවන්චිකුඩි	மட்டக்களப்பு	களுவாஞ்சிக்குடி	அடிப்படை மருத்துவமனை - களுவாஞ்சிக்குடி	GQ8P+V3V, කළුවාංචිකුඩි, ශ්‍රී ලංකාව	GQ8P+V3V, களுவாஞ்சிக்குடி, இலங்கை
Batticaloa	Kattankudy	MOH Office – Kattankudy	False	False	BTTCLKTTNKDYMHFFCKTTNKDY		Batticaloa	LK-51	7.792772	81.486513	Kaththankudi	PS-510103	7.715979	81.698757	7.683586	81.730767	MPMJ+C8J, Kattankudy, Sri Lanka	5.042961		මඩකලපුව	කාත්තන්කුඩි	MOH කාර්යාලය - කාත්තන්කුඩි	மட்டக்களப்பு	காத்தான்குடி	MOH அலுவலகம் - காத்தான்குடி	එම්පීඑම්ජේ+සී 8 ජේ, කාත්තන්කුඩි, ශ්‍රී ලංකාව	MPMJ+C8J, காத்தான்குடி, இலங்கை
Batticaloa	Kattankudy	MOH Office – Arayampathy	False	False	BTTCLKTTNKDYMHFFCRYMPTHY		Batticaloa	LK-51	7.792772	81.486513	Kaththankudi	PS-510103	7.715979	81.698757	7.672862	81.735019	MPFP+42R, Sri Lanka	6.243191		මඩකලපුව	කාත්තන්කුඩි	MOH කාර්යාලය - අරයම්පති	மட்டக்களப்பு	காத்தான்குடி	MOH அலுவலகம் - ஆரையம்பதி	එම්පීඑෆ්පී+42 ආර්, ශ්‍රී ලංකාව	MPFP+42R, இலங்கை
Batticaloa	Kattankudy	Technical College	False	False	BTTCLKTTNKDYTCHNCLCLLG		Batticaloa	LK-51	7.792772	81.486513	Kaththankudi	PS-510103	7.715979	81.698757	7.691284	81.722096	Manchanthuduwai, Batticaloa, Sri Lanka	3.76339		මඩකලපුව	කාත්තන්කුඩි	කාර්මික විද්‍යාලය	மட்டக்களப்பு	காத்தான்குடி	தொழில்நுட்ப கல்லூரி	මංචන්තුඩුවෙයි, මඩකලපුව, ශ්‍රී ලංකාව	மஞ்சந்துடுவாய், மட்டக்களப்பு, இலங்கை
Batticaloa	Kattankudy	Kalladi Sivananda Viaharaya	False	False	BTTCLKTTNKDYKLLDSVNNDVHRY		Batticaloa	LK-51	7.792772	81.486513	Kaththankudi	PS-510103	7.715979	81.698757	7.68537	81.726012	Kattankudy, Sri Lanka	4.540586		මඩකලපුව	කාත්තන්කුඩි	කල්ලඩි සිවානන්ද වියහාරය	மட்டக்களப்பு	காத்தான்குடி	கல்லடி சிவானந்த வியாஹராய	කාත්තන්කුඩි, ශ්‍රී ලංකාව	காத்தான்குடி, இலங்கை
Batticaloa	Eravur	Sandiveli Hospital	False	False	BTTCLRVRSNDVLHSPTL		Batticaloa	LK-51	7.792772	81.486513	Eravur	PS-510104	7.715979	81.698757	7.777289	81.602853	Trincomalee Hwy, Eravur, Sri Lanka	12.578998		මඩකලපුව	එරාවුර්	සඳිවේලි රෝහල	மட்டக்களப்பு	ஏறாவூர்	சண்டிவேலி மருத்துவமனை	ත්‍රිකුණාමලය හ්වි, එරාවුර්, ශ්‍රී ලංකාව	திருகோணமலை Hwy, ஏறாவூர், இலங்கை
Batticaloa	Eravur	MOH Office – Eravur	False	False	BTTCLRVRMHFFCRVR		Batticaloa	LK-51	7.792772	81.486513	Eravur	PS-510104	7.715979	81.698757	7.783664	81.605626	QJM4+F76, Eravur, Sri Lanka	12.729342		මඩකලපුව	එරාවුර්	MOH කාර්යාලය - එරාවුර්	மட்டக்களப்பு	ஏறாவூர்	MOH அலுவலகம் - ஏறாவூர்	QJM4+F76, එරාවුර්, ශ්‍රී ලංකාව	QJM4+F76, ஏறாவூர், இலங்கை
Batticaloa	Eravur	MOH Office - Eravur	False	False	BTTCLRVRMHFFCRVR		Batticaloa	LK-51	7.792772	81.486513	Eravur	PS-510104	7.715979	81.698757	7.783664	81.605626	QJM4+F76, Eravur, Sri Lanka	12.729342		මඩකලපුව	එරාවුර්	MOH කාර්යාලය - එරාවුර්	மட்டக்களப்பு	ஏறாவூர்	MOH அலுவலகம் - ஏறாவூர்	QJM4+F76, එරාවුර්, ශ්‍රී ලංකාව	QJM4+F76, ஏறாவூர், இலங்கை
Batticaloa	Eravur	Eravur Hospital	False	False	BTTCLRVRRVRHSPTL		Batticaloa	LK-51	7.792772	81.486513	Eravur	PS-510104	7.715979	81.698757	7.783168	81.605999	QJM4+799, Eravur 30300, Sri Lanka	12.663585		මඩකලපුව	එරාවුර්	එරාවුර් රෝහල	மட்டக்களப்பு	ஏறாவூர்	ஏறாவூர் மருத்துவமனை	QJM4+799, එරාවුර් 30300, ශ්‍රී ලංකාව	QJM4+799, ஏறாவூர் 30300, இலங்கை
Batticaloa	Eravur	Aisa Mosque	False	False	BTTCLRVRSMSQ		Batticaloa	LK-51	7.792772	81.486513	Eravur	PS-510104	7.715979	81.698757	7.776897	81.604203	Eravur, Sri Lanka	12.430415		මඩකලපුව	එරාවුර්	අයිසා පල්ලිය	மட்டக்களப்பு	ஏறாவூர்	ஐசா மசூதி	එරාවුර්, ශ්‍රී ලංකාව	ஏறாவூர், இலங்கை
Batticaloa	Eravur	Mawadiwembuwa Hospital	False	False	BTTCLRVRMWDWMBWHSPTL		Batticaloa	LK-51	7.792772	81.486513	Eravur	PS-510104	7.715979	81.698757	7.708032	81.690622	Hospital Ln, Batticaloa 30000, Sri Lanka	1.259116		මඩකලපුව	එරාවුර්	මාවඩිවැඹුව රෝහල	மட்டக்களப்பு	ஏறாவூர்	மாவடிவெம்புவ மருத்துவமனை	රෝහල, මඩකලපුව 30000, ශ්‍රී ලංකාව	மருத்துவமனை Ln, மட்டக்களப்பு 30000, இலங்கை
Batticaloa	Eravur	Tamil Central College	False	False	BTTCLRVRTMLCNTRLCLLG		Batticaloa	LK-51	7.792772	81.486513	Eravur	PS-510104	7.715979	81.698757	7.785947	81.590295	Trincomalee Road, Chenkaladi, Sri Lanka	14.264135		මඩකලපුව	එරාවුර්	දෙමළ මධ්‍ය විද්‍යාලය	மட்டக்களப்பு	ஏறாவூர்	தமிழ் மத்திய கல்லூரி	ත්‍රිකුණාමලය පාර, චෙන්කලාඩි, ශ්‍රී ලංකාව	திருகோணமலை சாலை, செங்கலடி, இலங்கை
Batticaloa	Eravur	Chenkaladi Hospital	False	False	BTTCLRVRCHNKLDHSPTL		Batticaloa	LK-51	7.792772	81.486513	Eravur	PS-510104	7.715979	81.698757	7.783546	81.589961	Batticaloa Rd, Chenkaladi, Sri Lanka	14.151406		මඩකලපුව	එරාවුර්	චෙන්කලාඩි රෝහල	மட்டக்களப்பு	ஏறாவூர்	செங்கலடி மருத்துவமனை	මඩකලපුව පාර, චෙන්කලාඩි, ශ්‍රී ලංකාව	மட்டக்களப்பு வீதி, செங்கலடி, இலங்கை
Batticaloa	Eravur	MOH Office – Chenkaladi	False	False	BTTCLRVRMHFFCCHNKLD		Batticaloa	LK-51	7.792772	81.486513	Eravur	PS-510104	7.715979	81.698757	7.783599	81.593367	Trincomalee Hwy, Chenkaladi 30350, Sri Lanka	13.837876		මඩකලපුව	එරාවුර්	MOH කාර්යාලය - චෙන්කලාඩි	மட்டக்களப்பு	ஏறாவூர்	MOH அலுவலகம் - செங்கலடி	ත්‍රිකුණාමලය හ්වි, චෙන්කලාඩි 30350, ශ්‍රී ලංකාව	திருகோணமலை Hwy, செங்கலடி 30350, இலங்கை
Batticaloa	Karadiyanaru	Karadiyanaru Hospital	False	False	BTTCLKRDYNRKRDYNRHSPTL		Batticaloa	LK-51	7.792772	81.486513	Karadiyanaru	PS-510105	7.701992	81.537252	7.700216	81.539779	PG2Q+3WJ, Karadiyanaru, Sri Lanka	0.341482		මඩකලපුව	කරදියනාරු	කරදියනාරු රෝහල	மட்டக்களப்பு	கரடியனாறு	கரடியனாறு மருத்துவமனை	PG2Q+3WJ, කරදියනාරු, ශ්‍රී ලංකාව	PG2Q+3WJ, கரடியனாறு, இலங்கை
Ampara	Chavalakade	MOH Office – Navidanveli	False	False	MPRCHVLKDMHFFCNVDNVL		Ampara	LK-52	7.23699	81.550391	Chawalakade	PS-520125	7.413559	81.776822	7.420081	81.788401	B77, Sri Lanka	1.468805		අම්පාර	චවලකඩේ	MOH කාර්යාලය - නාවිදන්වේලි	அம்பாறை	சவளகடே	MOH அலுவலகம் - நாவிதன்வெளி	බී 77, ශ්‍රී ලංකාව	பி 77, இலங்கை
Ampara	Chavalakade	5th Colony Health Centre	False	False	MPRCHVLKDTHCLNYHLTHCNTR		Ampara	LK-52	7.23699	81.550391	Chawalakade	PS-520125	7.413559	81.776822	7.418836	81.781436	Chavalakade, Sri Lanka	0.776867		අම්පාර	චවලකඩේ	5 වන ජනපද සෞඛ්‍ය මධ්‍යස්ථානය	அம்பாறை	சவளகடே	5 வது காலனி சுகாதார மையம்	චවලකඩේ, ශ්‍රී ලංකාව	சவளகடே, இலங்கை
Ampara	Karaitivu	MOH Office – Karaitivu	False	False	MPRKRTVMHFFCKRTV		Ampara	LK-52	7.23699	81.550391	Karaitivu		9.744059	79.870587	7.377712	81.838796	Colombo-Ratnapura-Wellawaya-Batticaloa Highway, Karativu 32250, Sri Lanka	340.788666	#CenterFarFromPolice	අම්පාර	කාරතිව්	MOH කාර්යාලය - කරෙයිතිව්	அம்பாறை	காரைதீவு	MOH அலுவலகம் - காரைதீவு	කොළඹ-රත්නපුර-වැල්ලවාය-මඩකලපුව අධිවේගී මාර්ගය, කරතිවු 32250, ශ්‍රී ලංකාව	கொழும்பு-இரத்தினபுரி-வெள்ளவாயா-மட்டக்களப்பு நெடுஞ்சாலை, காரடிவு 32250, இலங்கை
Ampara	Kalmunai	Ashraff Memorial Hospital	False	False	MPRKLMNSHRFFMMRLHSPTL		Ampara	LK-52	7.23699	81.550391	Kalmunai	PS-520123	7.414289	81.825006	7.403172	81.831146	A4, Ashraff Memorial Base Hospital, A4 A4, Kalmunai 32300, Sri Lanka	1.409859		අම්පාර	කල්මුණේ	අෂ්රොෆ් අනුස්මරණ රෝහල	அம்பாறை	கல்முனை	அஷ்ரஃப் நினைவு மருத்துவமனை	ඒ 4, අෂ්රොෆ් අනුස්මරණ මූලික රෝහල, ඒ 4 ඒ 4, කල්මුණේ 32300, ශ්‍රී ලංකාව	A4, அஷ்ரஃப் மெமோரியல் பேஸ் ஹாஸ்பிடல், A4 A4, கல்முனை 32300, இலங்கை
Ampara	Kalmunai	MOH Office - Kalmunai North	False	False	MPRKLMNMHFFCKLMNNRTH		Ampara	LK-52	7.23699	81.550391	Kalmunai	PS-520123	7.414289	81.825006	7.411712	81.838462	CR6Q+M9P, Kalmunai 32300, Sri Lanka	1.511625		අම්පාර	කල්මුණේ	MOH කාර්යාලය - කල්මුණේ උතුර	அம்பாறை	கல்முனை	MOH அலுவலகம் - கல்முனை வடக்கு	CR6Q+M9P, කල්මුණේ 32300, ශ්‍රී ලංකාව	CR6Q+M9P, கல்முனை 32300, இலங்கை
Ampara	Kalmunai	MOH Office - Kalmunai South	False	False	MPRKLMNMHFFCKLMNSTH		Ampara	LK-52	7.23699	81.550391	Kalmunai	PS-520123	7.414289	81.825006	7.411712	81.838462	CR6Q+M9P, Kalmunai 32300, Sri Lanka	1.511625		අම්පාර	කල්මුණේ	MOH කාර්යාලය - කල්මුණේ දකුණ	அம்பாறை	கல்முனை	MOH அலுவலகம் - கல்முனை தெற்கு	CR6Q+M9P, කල්මුණේ 32300, ශ්‍රී ලංකාව	CR6Q+M9P, கல்முனை 32300, இலங்கை
Ampara	Kalmunai	Base Hospital - Kalmunai North	False	False	MPRKLMNBSHSPTLKLMNNRTH		Ampara	LK-52	7.23699	81.550391	Kalmunai	PS-520123	7.414289	81.825006	7.420034	81.82232	hospital near, Kalmunai 32300, Sri Lanka	0.704353		අම්පාර	කල්මුණේ	මූලික රෝහල - කල්මුණේ උතුර	அம்பாறை	கல்முனை	அடிப்படை மருத்துவமனை - கல்முனை வடக்கு	රෝහල අසල, කල්මුණේ 32300, ශ්‍රී ලංකාව	மருத்துவமனை அருகில், கல்முனை 32300, இலங்கை
Ampara	Sainthamarthu	MOH Office – Sainthamarthu	False	False	MPRSNTHMRTHMHFFCSNTHMRTH		Ampara	LK-52	7.23699	81.550391									#PoliceLocationUnknown	අම්පාර	සයින්දමර්තු	MOH කාර්යාලය - සයින්දමර්තු	அம்பாறை	சாய்ந்தமருது	MOH அலுவலகம் - சாய்ந்தமருது		
Ampara	Sainthamarthu	Saindamarudu Hospital	False	False	MPRSNTHMRTHSNDMRDHSPTL		Ampara	LK-52	7.23699	81.550391									#PoliceLocationUnknown	අම්පාර	සයින්දමර්තු	සයින්දමරුදු රෝහල	அம்பாறை	சாய்ந்தமருது	சைந்தமருது மருத்துவமனை		
Ampara	Sammanthurai	Sammanthurai Base Hospital	False	False	MPRSMMNTHRSMMNTHRBSHSPTL		Ampara	LK-52	7.23699	81.550391	Samanthurai	PS-520124	7.365785	81.810859	7.368355	81.813042	9R96+MWM, Hospital Rd, Sammanthurai, Sri Lanka	0.373773		අම්පාර	සමන්තුරේ	සමන්තුරේ මූලික රෝහල	அம்பாறை	சம்மாந்துறை	சம்மாந்துறை அடிப்படை மருத்துவமனை	9R96+MWM, රෝහල් පාර, සමන්තුරේ, ශ්‍රී ලංකාව	9R96+MWM, மருத்துவமனை சாலை, சம்மாந்துறை, இலங்கை
Ampara	Sammanthurai	MOH Office – Nintavur	False	False	MPRSMMNTHRMHFFCNNTVR		Ampara	LK-52	7.23699	81.550391	Samanthurai	PS-520124	7.365785	81.810859	7.352821	81.856939	Hospital Rd, Nintavur 32340, Sri Lanka	5.283925		අම්පාර	සමන්තුරේ	එම්ඕඑච් කාර්යාලය - නින්දවූර්	அம்பாறை	சம்மாந்துறை	MOH அலுவலகம் - நிந்தவூர்	රෝහල පාර, නින්දවූර් 32340, ශ්‍රී ලංකාව	மருத்துவமனை Rd, நிந்தவூர் 32340, இலங்கை
Ampara	Sammanthurai	MOH Office – Sammanthurai	False	False	MPRSMMNTHRMHFFCSMMNTHR		Ampara	LK-52	7.23699	81.550391	Samanthurai	PS-520124	7.365785	81.810859	7.369857	81.812264	9R96+WWR, Sammanthurai, Sri Lanka	0.478712		අම්පාර	සමන්තුරේ	MOH කාර්යාලය - සම්මන්තුරේ	அம்பாறை	சம்மாந்துறை	MOH அலுவலகம் - சம்மாந்துறை	9R96+ඩබ්ලිව්ඩබ්ලිව්ආර්, සම්මන්තුරේ, ශ්‍රී ලංකාව	9R96+WWR, சம்மாந்துறை, இலங்கை
Ampara	Sammanthurai	Nintavur Hospital	False	False	MPRSMMNTHRNNTVRHSPTL		Ampara	LK-52	7.23699	81.550391	Samanthurai	PS-520124	7.365785	81.810859	7.353372	81.856852	Hospital Rd, Nintavur, Sri Lanka	5.258159		අම්පාර	සමන්තුරේ	නින්දවූර් රෝහල	அம்பாறை	சம்மாந்துறை	நிந்தவூர் மருத்துவமனை	රෝහල පාර, නින්දවූර්, ශ්‍රී ලංකාව	மருத்துவமனை Rd, நிந்தவூர், இலங்கை
Ampara	Sammanthurai	Darususalam Maha Vidyalaya	False	False	MPRSMMNTHRDRSSLMMHVDYLY		Ampara	LK-52	7.23699	81.550391	Samanthurai	PS-520124	7.365785	81.810859	7.370617	81.808855	AB33, Sammanthurai 32200, Sri Lanka	0.58115		අම්පාර	සමන්තුරේ	දරුසුසලම් මහා විද්‍යාලය	அம்பாறை	சம்மாந்துறை	தருசுசாலம் மகா வித்தியாலயம்	ඒබී 33, සම්මන්තුරේ 32200, ශ්‍රී ලංකාව	ஏபி 33, சம்மாந்துறை 32200, இலங்கை
Ampara	Sammanthurai	Kannahi Vidyalaya	False	False	MPRSMMNTHRKNNHVDYLY		Ampara	LK-52	7.23699	81.550391	Samanthurai	PS-520124	7.365785	81.810859	7.35018	81.80359	Kallarichchel 02, Sammanthurai, Sri Lanka	1.912014		අම්පාර	සමන්තුරේ	කන්නහි විද්‍යාලය	அம்பாறை	சம்மாந்துறை	கண்ணாஹி வித்யாலயா	කල්ලරිචෙල් 02, සම්මන්තුරේ, ශ්‍රී ලංකාව	கல்லறிச்செல் 02, சம்மாந்துறை, இலங்கை
Ampara	Thirukkovil	MOH Office – Thirukkovil	False	False	MPRTHRKKVLMHFFCTHRKKVL		Ampara	LK-52	7.23699	81.550391	Thirukkovil	PS-520127	7.113998	81.852219	7.111635	81.852892	Central Rd, Vinayagapuram, Sri Lanka	0.273131		අම්පාර	තිරුක්කෝවිල්	MOH කාර්යාලය - තිරුක්කෝවිල්	அம்பாறை	திருக்கோவில்	MOH அலுவலகம் - திருக்கோவில்	මධ්‍යම පාර, විනයාගපුරම්, ශ්‍රී ලංකාව	மத்திய வீதி, விநாயகபுரம், இலங்கை
Ampara	Akkaraipattu	MOH Office – Addalachenai	False	False	MPRKKRPTTMHFFCDDLCHN		Ampara	LK-52	7.23699	81.550391	Akkaraipattu	PS-520126	7.216084	81.853254	7.260916	81.853493	7V63+999, Addalaichenai, Sri Lanka	4.986726		අම්පාර	අක්කරපත්තුව	MOH කාර්යාලය - අද්දලචේනයි	அம்பாறை	அக்கரைப்பற்று	MOH அலுவலகம் - ஆடலச்சேனை	7V63+999, අද්දලෙයිචේනෙයි, ශ්‍රී ලංකාව	7V63+999, அடிலைச்சேனை, இலங்கை
Ampara	Akkaraipattu	MOH Office – Akkaraipattu	False	False	MPRKKRPTTMHFFCKKRPTT		Ampara	LK-52	7.23699	81.550391	Akkaraipattu	PS-520126	7.216084	81.853254	7.228134	81.851123	6VH2+7C5, Akkaraipattu, Sri Lanka	1.360772		අම්පාර	අක්කරපත්තුව	MOH කාර්යාලය - අක්කරපත්තුව	அம்பாறை	அக்கரைப்பற்று	MOH அலுவலகம் - அக்கரைப்பற்று	6VH2+7C5, අක්කරපත්තුව, ශ්‍රී ලංකාව	6VH2+7C5, அக்கரைப்பற்று, இலங்கை
Ampara	Akkaraipattu	MOH Office - Alayadivembu	False	False	MPRKKRPTTMHFFCLYDVMB		Ampara	LK-52	7.23699	81.550391	Akkaraipattu	PS-520126	7.216084	81.853254	7.228134	81.851123	6VH2+7C5, Akkaraipattu, Sri Lanka	1.360772		අම්පාර	අක්කරපත්තුව	එම්ඕඑච් කාර්යාලය - අලයාදිවෙම්බු	அம்பாறை	அக்கரைப்பற்று	MOH அலுவலகம் - ஆலையடிவேம்பு	6VH2+7C5, අක්කරපත්තුව, ශ්‍රී ලංකාව	6VH2+7C5, அக்கரைப்பற்று, இலங்கை
Ampara	Pottuvil	MOH Office – Lahugala	False	False	MPRPTTVLMHFFCLHGL		Ampara	LK-52	7.23699	81.550391	Pothuvil	PS-520128	6.878387	81.826859	6.880658	81.765015	VQJ8+726, Sangamuwa, Sri Lanka	6.834041		අම්පාර	පොතුවිල්	MOH කාර්යාලය - ලාහුගල	அம்பாறை	பொட்டுவில்	MOH அலுவலகம் - லஹுகலா	VQJ8+726, සංගමුව, ශ්‍රී ලංකාව	VQJ8+726, சங்கமுவா, இலங்கை
Ampara	Pottuvil	MOH Office – Pottuvil	False	False	MPRPTTVLMHFFCPTTVL		Ampara	LK-52	7.23699	81.550391	Pothuvil	PS-520128	6.878387	81.826859	6.877076	81.828969	B374, Pottuvil, Sri Lanka	0.274874		අම්පාර	පොතුවිල්	එම්ඕඑච් කාර්යාලය - පොතුවිල්	அம்பாறை	பொட்டுவில்	MOH அலுவலகம் - பொத்துவில்	බී 374, පොතුවිල්, ශ්‍රී ලංකාව	B374, பொத்துவில், இலங்கை
