district	police	center	dose1	dose2	fuzzy_key	alt_name	district_name_norm	district_id	district_lat	district_lng	ps_name_norm	ps_id	ps_lat	ps_lng	lat	lng	formatted_address	dis_center_to_police	tags	district_si	police_si	center_si	district_ta	police_ta	center_ta	formatted_address_si	formatted_address_ta
Colombo	Cinnamon Gardens	Viharamahadevi Park	False	False	CLMBCNNMNGRDNSVHRMHDVPRK		Colombo	LK-11	6.869636	80.019598	Cinnamon Garden	PS-110324	6.907289	79.863819	6.913391	79.86174	Viharamahadevi Park, Colombo, Sri Lanka	0.716497		කොළඹ	කුරුඳු උද්‍යාන	විහාරමහාදේවි උද්‍යානය	கொழும்பு	இலவங்கப்பட்டை தோட்டங்கள்	விஹாரமஹாதேவி பூங்கா	විහාරමහාදේවි උද්‍යානය, කොළඹ, ශ්‍රී ලංකාව	விஹாரமஹாதேவி பூங்கா, கொழும்பு, இலங்கை
Colombo	Thalangama	Diyatha Uyana	False	False	CLMBTHLNGMDYTHYN		Colombo	LK-11	6.869636	80.019598	Thalangama	PS-110466	6.91089	79.929325	6.904575	79.909831	Diyatha Uyana, B240, Sri Jayawardenepura Kotte, Sri Lanka	2.264281		කොළඹ	තලංගම	දියත උයන	கொழும்பு	தலங்கம	தியாத உயனா	දියත උයන, බී 240, ශ්‍රී ජයවර්ධනපුර කෝට්ටේ, ශ්‍රී ලංකාව	தியாத உயனா, B240, ஸ்ரீ ஜெயவர்தனபுர கோட்டே, இலங்கை
Colombo	Grandpass	Sugathadasa Outdoor Stadium	False	False	CLMBGRNDPSSSGTHDSTDRSTDM		Colombo	LK-11	6.869636	80.019598	Grandpass	PS-110215	6.949052	79.872983	6.94806	79.868842	Prince of Wales Ave, Colombo 01400, Sri Lanka	0.470345		කොළඹ	ග්‍රෑන්ඩ්පාස්	සුගතදාස එළිමහන් ක්‍රීඩාංගනය	கொழும்பு	கிராண்ட்பாஸ்	சுகததாச வெளிப்புற அரங்கம்	වේල්ස් කුමර මාවත, කොළඹ 01400, ශ්‍රී ලංකාව	பிரின்ஸ் ஆஃப் வேல்ஸ் அவே, கொழும்பு 01400, இலங்கை
Colombo	Narahenpita	Army Hospital Narahenpita	False	False	CLMBNRHNPTRMYHSPTLNRHNPT		Colombo	LK-11	6.869636	80.019598	Narahenpita	PS-110321	6.891832	79.876715	6.900252	79.87618	08 Elvitigala Mawatha, Colombo 00800, Sri Lanka	0.938417		කොළඹ	නාරාහේන්පිට	නාරාහේන්පිට හමුදා රෝහල	கொழும்பு	நரஹேன்பிட்ட	இராணுவ மருத்துவமனை நாரஹேன்பிட்ட	08 ඇල්විටිගල මාවත, කොළඹ 00800, ශ්‍රී ලංකාව	08 எல்விட்டிகல மாவத்தை, கொழும்பு 00800, இலங்கை
Colombo	Narahenpita	Army Headquarters Mobile Team	False	False	CLMBNRHNPTRMYHDQRTRSMBLTM		Colombo	LK-11	6.869636	80.019598	Narahenpita	PS-110321	6.891832	79.876715					#CenterLocationUnknown	කොළඹ	නාරාහේන්පිට	යුද හමුදා මූලස්ථානයේ ජංගම කණ්ඩායම	கொழும்பு	நரஹேன்பிட்ட	இராணுவ தலைமையகம் மொபைல் குழு		
Colombo	Homagama	Panagoda Bodhirajarama Viharaya	False	False	CLMBHMGMPNGDBDHRJRMVHRY		Colombo	LK-11	6.869636	80.019598	Homagama	PS-110470	6.836155	80.003474	6.929161	79.88265	Gnanawimala Rd, Colombo, Sri Lanka	16.883101		කොළඹ	හෝමාගම	පනාගොඩ බෝධිරාජාරාම විහාරය	கொழும்பு	ஹோமாகம	பனகொட போதிராஜாராம விஹாராயா	ඥානවිමල පාර, කොළඹ, ශ්‍රී ලංකාව	ஞானவிமல வீதி, கொழும்பு, இலங்கை
Colombo	Boralesgamuwa	MOH Office – Werahera	False	False	CLMBBRLSGMWMHFFCWRHR		Colombo	LK-11	6.869636	80.019598	Boralesgamuwa	PS-110464	6.841331	79.901255	6.833094	79.905583	RWM4+66P, Boralesgamuwa, Sri Lanka	1.033386		කොළඹ	බොරලැස්ගමුව	MOH කාර්යාලය - වේරහැර	கொழும்பு	பொரலஸ்கமுவா	MOH அலுவலகம் - வெரஹெரா	RWM4+66P, බොරලැස්ගමුව, ශ්‍රී ලංකාව	RWM4+66P, பொரலஸ்கமுவா, இலங்கை
Colombo	Mount Lavinia	Park Road Maternity Clinic	False	False	CLMBMNTLVNPRKRDMTRNTYCLNC		Colombo	LK-11	6.869636	80.019598	Mount Lavinia	PS-110577	6.825006	79.87009	6.824371	79.872256	RVFC+PWR, Dehiwala-Mount Lavinia, Sri Lanka	0.249426		කොළඹ	ගල්කිස්ස	පාක් පාර මාතෘ සායනය	கொழும்பு	கல்கிசை	பார்க் சாலை மகப்பேறு மருத்துவமனை	RVFC+PWR, දෙහිවල-ගල්කිස්ස, ශ්‍රී ලංකාව	RVFC+PWR, தெஹிவளை-கல்கிசை, இலங்கை
Colombo	Maradana	National Hospital – Colombo	False	False	CLMBMRDNNTNLHSPTLCLMB		Colombo	LK-11	6.869636	80.019598	Maradana	PS-110107	6.927939	79.865471	6.918743	79.868992	Colombo 00700, Sri Lanka	1.094265		කොළඹ	මරදාන	ජාතික රෝහල - කොළඹ	கொழும்பு	மரதானா	தேசிய மருத்துவமனை - கொழும்பு	කොළඹ 00700, ශ්‍රී ලංකාව	கொழும்பு 00700, இலங்கை
Colombo	Wellawatta	Mobile Vaccination	False	False	CLMBWLLWTTMBLVCCNTN		Colombo	LK-11	6.869636	80.019598	Wellawatta	PS-110320	6.873107	79.86167					#CenterLocationUnknown	කොළඹ	වැල්ලවත්ත	ජංගම එන්නත	கொழும்பு	வெள்ளவத்தை	மொபைல் தடுப்பூசி		
Colombo	Padukka	Siripiyarathana Primary School	False	False	CLMBPDKKSRPYRTHNPRMRYSCHL		Colombo	LK-11	6.869636	80.019598	Padukka	PS-110473	6.842195	80.09247					#CenterLocationUnknown	කොළඹ	පාදුක්ක	සිරිපියරතන ප්‍රාථමික විද්‍යාලය	கொழும்பு	பாதுக்கா	சிறிபியரதான ஆரம்பப் பள்ளி		
Colombo	Dehiwala	S. De. S. Jayasinghe Hall	False	False	CLMBDHWLSDSJYSNGHHLL		Colombo	LK-11	6.869636	80.019598	Dehiwala	PS-110580	6.850088	79.871696	6.861489	79.865045	B11, Dehiwala-Mount Lavinia, Sri Lanka	1.465485		කොළඹ	දෙහිවල	එස්. ද. එස්. ජයසිංහ ශාලාව	கொழும்பு	தெஹிவளை	எஸ். டி. எஸ். ஜெயசிங்க மண்டபம்	බී 11, දෙහිවල-ගල්කිස්ස, ශ්‍රී ලංකාව	பி 11, தெஹிவளை-கல்கிசை, இலங்கை
Colombo	Kosgama	Kosgama Hospital	False	False	CLMBKSGMKSGMHSPTL		Colombo	LK-11	6.869636	80.019598	Kosgama	PS-920227	6.946597	80.137869	6.940956	80.124888	Salawa-Akarawita, 10730, Sri Lanka	1.564606		කොළඹ	කොස්ගම	කොස්ගම රෝහල	கொழும்பு	கொஸ்கம	கொஸ்கம மருத்துவமனை	සාලාව-අකරවිට, 10730, ශ්‍රී ලංකාව	சலாவா-அகரவிட, 10730, இலங்கை
Gampaha	Gampaha	Army Headquarters Mobile Team	False	False	GMPHGMPHRMYHDQRTRSMBLTM		Gampaha	LK-12	7.123598	80.018508	Gampaha	PS-120237	7.087765	80.01228					#CenterLocationUnknown	ගම්පහ	ගම්පහ	යුද හමුදා මූලස්ථානයේ ජංගම කණ්ඩායම	கம்பஹா	கம்பஹா	இராணுவ தலைமையகம் மொபைல் குழு		
Gampaha	Minuwangoda	MOH Office – Minuwangoda	False	False	GMPHMNWNGDMHFFCMNWNGD		Gampaha	LK-12	7.123598	80.018508	Minuwangoda	PS-120238	7.174215	79.957874	7.17227	79.956823	Katunayake-Veyangoda Rd, Minuwangoda, Sri Lanka	0.245525		ගම්පහ	මිනුවන්ගොඩ	MOH කාර්යාලය - මිනුවන්ගොඩ	கம்பஹா	மினுவாங்கொட	MOH அலுவலகம் - மினுவாங்கொட	කටුනායක-වේයන්ගොඩ පාර, මිනුවන්ගොඩ, ශ්‍රී ලංකාව	கட்டுநாயக்க-வெயங்கொட வீதி, மினுவாங்கொட, இலங்கை
Gampaha	Veyangoda	Wandurawa Viharaya	False	False	GMPHVYNGDWNDRWVHRY		Gampaha	LK-12	7.123598	80.018508	Weyangoda	PS-120247	7.144053	80.095511	7.135805	80.060931	Dadagamuwa, Veyangoda, Sri Lanka	3.92522		ගම්පහ	වේයන්ගොඩ	වඳුරාව විහාරය	கம்பஹா	வேயங்கொட	வந்துராவ விஹாராயா	දඩගමුව, වේයන්ගොඩ, ශ්‍රී ලංකාව	தடகமுவ, வெயங்கொட, இலங்கை
Gampaha	Kotadeniyawa	Godigamuwa Viharaya	False	False	GMPHKTDNYWGDGMWVHRY		Gampaha	LK-12	7.123598	80.018508	Kotadeniyawa	PS-120354	7.283643	80.06649	7.280255	79.959013	7XJ5+4J2, Sri Lanka	11.864214		ගම්පහ	කොටදෙනියාව	ගොඩිගමුව විහාරය	கம்பஹா	கோடதெனியாவா	கொடிகமுவா விஹாராயா	7XJ5+4J2, ශ්‍රී ලංකාව	7XJ5+4J2, இலங்கை
Gampaha	Kotadeniyawa	Nawana Maha Vidyalaya	False	False	GMPHKTDNYWNWNMHVDYLY		Gampaha	LK-12	7.123598	80.018508	Kotadeniyawa	PS-120354	7.283643	80.06649	7.271952	80.095399	Nawana,Mirigama., Kotadeniyawa - Mirigama Rd, Sri Lanka	3.444531		ගම්පහ	කොටදෙනියාව	නවන මහා විද්යාලය	கம்பஹா	கோடதெனியாவா	நவனா மகா வித்யாலயா	නවාන, මීරිගම., කොටදෙනියාව - මීරිගම පාර, ශ්‍රී ලංකාව	நவனா, மீரிகம., கோடதெனியாவா - மீரிகம வீதி, இலங்கை
Gampaha	Kadawata	Kirillawala Central College	False	False	GMPHKDWTKRLLWLCNTRLCLLG		Gampaha	LK-12	7.123598	80.018508	Kadawatha	PS-120136	7.00152	79.95003	7.015981	79.969223	2X89+9MX, Eldeniya, Sri Lanka	2.660247		ගම්පහ	කඩවත	කිරිල්ලවල මධ්‍ය මහා විද්‍යාලය	கம்பஹா	கடவாடா	கிரில்லாவாலா மத்திய கல்லூரி	2X89+9MX, ඇල්දෙනිය, ශ්‍රී ලංකාව	2X89+9MX, எல்டெனியா, இலங்கை
Gampaha	Biyagama	MOH Office – Biyagama	False	False	GMPHBYGMMHFFCBYGM		Gampaha	LK-12	7.123598	80.018508	Biyagama	PS-120131	6.962284	80.009037	6.946824	79.994052	Hospital Rd, Sri Lanka	2.386313		ගම්පහ	බියගම	MOH කාර්යාලය - බියගම	கம்பஹா	பியகம	MOH அலுவலகம் - பியாகம	රෝහල පාර, ශ්‍රී ලංකාව	மருத்துவமனை Rd, இலங்கை
Gampaha	Negombo	Town Hall - Negombo	False	False	GMPHNGMBTWNHLLNGMB		Gampaha	LK-12	7.123598	80.018508	Negombo	PS-120351	7.224796	79.880015	7.206667	79.851863	Negombo, Sri Lanka	3.703623		ගම්පහ	මීගමුව	පුරහල - මීගමුව	கம்பஹா	நீர்கொழும்பு	டவுன் ஹால் - நீர்கொழும்பு	මීගමුව, ශ්‍රී ලංකාව	நீர்கொழும்பு, இலங்கை
Gampaha	Pamunugama	Pamunugama Hospital	False	False	GMPHPMNGMPMNGMHSPTL		Gampaha	LK-12	7.123598	80.018508	Pamunugama	PS-120353	7.078892	79.859696	7.093543	79.850191	3VV2+C38, Negombo, Sri Lanka	1.938152		ගම්පහ	පමුණුගම	පමුණුගම රෝහල	கம்பஹா	பமுனுகம	பமுனுகம மருத்துவமனை	3VV2+C38, මීගමුව, ශ්‍රී ලංකාව	3VV2+C38, நீர்கொழும்பு, இலங்கை
Gampaha	Divulapitiya	MOH Office – Divulapitiya	False	False	GMPHDVLPTYMHFFCDVLPTY		Gampaha	LK-12	7.123598	80.018508	Diulapitiya	PS-120355	7.174215	79.957874	7.215486	80.013606	6287+5CX, Divulapitiya, Sri Lanka	7.67456		ගම්පහ	දිවුලපිටිය	එම්ඕඑච් කාර්යාලය - දිවුලපිටිය	கம்பஹா	திவுலபிட்டிய	MOH அலுவலகம் - திவுலபிட்டிய	6287+5CX, දිවුලපිටිය, ශ්‍රී ලංකාව	6287+5CX, திவுலபிட்டிய, இலங்கை
Gampaha	Divulapitiya	Palliyapitiya Jayathilakaramaya	False	False	GMPHDVLPTYPLLYPTYJYTHLKRMY		Gampaha	LK-12	7.123598	80.018508	Diulapitiya	PS-120355	7.174215	79.957874	7.226566	80.003548	Sri Lanka Police, B15, Divulapitiya 11250, Sri Lanka	7.701385		ගම්පහ	දිවුලපිටිය	පල්ලියාපිටිය ජයතිලකාරාමය	கம்பஹா	திவுலபிட்டிய	பள்ளியாபிட்டிய ஜெயதிலகாராமையா	ශ්‍රී ලංකා පොලිසිය, බී 15, දිවුලපිටිය 11250, ශ්‍රී ලංකාව	இலங்கை காவல்துறை, பி 15, திவுலபிட்டிய 11250, இலங்கை
Gampaha	Divulapitiya	Ganewatta Purana Viharaya	False	False	GMPHDVLPTYGNWTTPRNVHRY		Gampaha	LK-12	7.123598	80.018508	Diulapitiya	PS-120355	7.174215	79.957874	7.258971	79.995973	7X5W+H9Q, Gampaha, Sri Lanka	10.322349		ගම්පහ	දිවුලපිටිය	ගනේවත්ත පුරාණ විහාරය	கம்பஹா	திவுலபிட்டிய	கணேவத்த புராண விகாரை	7X5W+H9Q, ගම්පහ, ශ්‍රී ලංකාව	7X5W+H9Q, கம்பஹா, இலங்கை
Kalutara	Anguruwatota	MOH Office – Madurawala	False	False	KLTRNGRWTTMHFFCMDRWL		Kalutara	LK-13	6.577316	80.127363	Anguruwatota	PS-130190	6.654997	80.058183	6.654814	80.057811	M335+W4F, Keselhenawa, Sri Lanka	0.045863		කළුතර	අඟුරුවාතොට	MOH කාර්යාලය - මදුරාවල	களுத்துறை	அங்குருவடோட்டா	MOH அலுவலகம் - மதுரவாலா	M335+W4F, කෙසෙල්හේනාව, ශ්‍රී ලංකාව	M335+W4F, கெசல்ஹேனாவா, இலங்கை
Kalutara	Baduraliya	Baduraliya Hospital	False	False	KLTRBDRLYBDRLYHSPTL		Kalutara	LK-13	6.577316	80.127363	Baduraliya	PS-1302106	6.516756	80.226716	6.514727	80.232731	Tiruwanaketiya-Agalawatte Rd, Baduraliya, Sri Lanka	0.702098		කළුතර	බදුරලිය	බදුරලිය රෝහල	களுத்துறை	பதுரலியா	பதுரலியா மருத்துவமனை	තිරුවානකැටිය-අගලවත්ත පාර, බදුරලිය, ශ්‍රී ලංකාව	திருவனகெட்டிய-அகலவத்தை சாலை, பதுரலியா, இலங்கை
Kalutara	Meegahathenna	MOH Office – Meegahathenna	False	False	KLTRMGHTHNNMHFFCMGHTHNN		Kalutara	LK-13	6.577316	80.127363	Meegahathenna	PS-1302107	6.436941	80.1943	6.435016	80.198501	B158, Meegahathenna, Sri Lanka	0.511322		කළුතර	මීගහතැන්න	MOH කාර්යාලය - මීගහතැන්න	களுத்துறை	மீகஹதென்ன	MOH அலுவலகம் - மீகஹதென்ன	බී 158, මීගහතැන්න, ශ්‍රී ලංකාව	பி 158, மீகஹதென்ன, இலங்கை
Kalutara	Matugama	Weththewa Hospital	False	False	KLTRMTGMWTHTHWHSPTL		Kalutara	LK-13	6.577316	80.127363	Mathugama	PS-1302103	6.520881	80.117908	6.523087	80.125192	District Hospital, Hospital Road,Weththewa,., Matugama, Sri Lanka	0.841523		කළුතර	මතුගම	වෙත්තෑව රෝහල	களுத்துறை	மத்துகம	வெத்தேவா மருத்துவமனை	දිසා රෝහල, රෝහල් පාර, වෙත්තෑව,., මතුගම, ශ්‍රී ලංකාව	மாவட்ட மருத்துவமனை, மருத்துவமனை சாலை, வெத்தேவா,., மத்துகம, இலங்கை
Kalutara	Matugama	MOH Office – Matugama	False	False	KLTRMTGMMHFFCMTGM		Kalutara	LK-13	6.577316	80.127363	Mathugama	PS-1302103	6.520881	80.117908	6.523544	80.126443	G4FG+CH8, Matugama, Sri Lanka	0.988725		කළුතර	මතුගම	MOH කාර්යාලය - මතුගම	களுத்துறை	மத்துகம	MOH அலுவலகம் - மத்துகம	G4FG+CH8, මතුගම, ශ්‍රී ලංකාව	G4FG+CH8, மத்துகம, இலங்கை
Kalutara	Dodangoda	Bombuwala Viharaya	False	False	KLTRDDNGDBMBWLVHRY		Kalutara	LK-13	6.577316	80.127363	Dodangoda	PS-130299	6.553375	80.023569	6.575407	80.01428	Bombuwala, Sri Lanka	2.656896		කළුතර	දොඩන්ගොඩ	බෝම්බුවල විහාරය	களுத்துறை	தொடங்கொட	பொம்புவல விஹாராயா	බෝම්බුවල, ශ්‍රී ලංකාව	பம்புவாலா, இலங்கை
Kalutara	Aluthgama	Al Hamra Vidyalaya	False	False	KLTRLTHGMLHMRVDYLY		Kalutara	LK-13	6.577316	80.127363	Aluthgama	PS-1302100	6.432842	79.998032	6.434573	80.000388	Aluthgama, Sri Lanka	0.323857		කළුතර	අලුත්ගම	අල් හම්රා විද්‍යාලය	களுத்துறை	அளுத்கம	அல் ஹம்ரா வித்யாலயா	අලුත්ගම, ශ්‍රී ලංකාව	அளுத்கம, இலங்கை
Kalutara	Kalutara South	NIHS	False	False	KLTRKLTRSTHNHS		Kalutara	LK-13	6.577316	80.127363	Kalutara South	PS-130296	6.58486	79.961043	6.55864	79.977416	HX5G+FX3, Katukurunda, Sri Lanka	3.432035		කළුතර	කළුතර දකුණ	NIHS	களுத்துறை	களுத்துறை தெற்கு	என்ஐஎச்எஸ்	HX5G+FX3, කටුකුරුන්ද, ශ්‍රී ලංකාව	HX5G+FX3, கட்டுக்குருந்தா, இலங்கை
Kalutara	Kalutara South	Rajawatta Viharaya	False	False	KLTRKLTRSTHRJWTTVHRY		Kalutara	LK-13	6.577316	80.127363	Kalutara South	PS-130296	6.58486	79.961043	6.586943	79.960167	Galle Rd, Kalutara, Sri Lanka	0.251098		කළුතර	කළුතර දකුණ	රජවත්ත විහාරය	களுத்துறை	களுத்துறை தெற்கு	ராஜவத்த விஹாராயா	ගාල්ල පාර, කළුතර, ශ්‍රී ලංකාව	காலி வீதி, களுத்துறை, இலங்கை
Kalutara	Beruwala	D.S. Senanayake Vidyalaya	False	False	KLTRBRWLDSSNNYKVDYLY		Kalutara	LK-13	6.577316	80.127363	Beruwala	PS-1302102	6.480329	79.983498	6.468742	79.986711	kiranthidiya Road, Massala, Beruwala., Beruwala, Sri Lanka	1.336845		කළුතර	බේරුවල	ඩීඑස් සේනානායක විද්‍යාලය	களுத்துறை	பேருவளை	டி.எஸ். சேனாநாயக்க வித்யாலயா	කිරන්තිදිය පාර, මසාලා, බේරුවල., බේරුවල, ශ්‍රී ලංකාව	கிரந்திதியா சாலை, மசாலா, பேருவளை., பேருவளை, இலங்கை
Kalutara	Kandy	Pushpadana Girls' College	False	False	KLTRKNDYPSHPDNGRLSCLLG		Kalutara	LK-13	6.577316	80.127363	Kandy	PS-210101	7.292948	80.642368	7.293989	80.633	16 Kandy Rd, Kandy 20000, Sri Lanka	1.040036		කළුතර	මහනුවර	පුෂ්පදාන බාලිකා විද්‍යාලය	களுத்துறை	கண்டி	புஷ்படனா பெண்கள் கல்லூரி	16 මහනුවර පාර, මහනුවර 20000, ශ්‍රී ලංකාව	16 கண்டி வீதி, கண்டி 20000, இலங்கை
Hambantota	Ambalantota	MOH Office – Ambalantota	False	False	HMBNTTMBLNTTMHFFCMBLNTT		Hambantota	LK-33	6.259779	81.098619	Ambalantota	PS-330157	6.12516	81.023981	6.122767	81.005973	Walawa watta Road, Malpeththawa, Ambalantota, Sri Lanka	2.009195		හම්බන්තොට	අම්බලන්තොට	MOH කාර්යාලය - අම්බලන්තොට	அம்பாந்தோட்டை	அம்பலாந்தோட்டை	MOH அலுவலகம் - அம்பலாந்தோட்டை	වලව වත්ත පාර, මල්පෙත්තාව, අම්බලන්තොට, ශ්‍රී ලංකාව	வலவா வாட்டா சாலை, மால்பெத்தவா, அம்பலாந்தோட்டை, இலங்கை
Hambantota	Hambantota	MOH Office – Hambantota	False	False	HMBNTTHMBNTTMHFFCHMBNTT		Hambantota	LK-33	6.259779	81.098619	Hambantota	PS-330156	6.125872	81.12521	6.171162	81.127	54CG+FQ9, Hambantota, Sri Lanka	5.041487		හම්බන්තොට	හම්බන්තොට	MOH කාර්යාලය - හම්බන්තොට	அம்பாந்தோட்டை	அம்பாந்தோட்டை	MOH அலுவலகம் - அம்பாந்தோட்டை	54CG+FQ9, හම්බන්තොට, ශ්‍රී ලංකාව	54CG+FQ9, ஹம்பாந்தோட்டை, இலங்கை
Hambantota	Sooriyawewa	MOH Office – Sooriyawewa	False	False	HMBNTTSRYWWMHFFCSRYWW		Hambantota	LK-33	6.259779	81.098619	Sooriyawewa	PS-330155	6.306022	81.003873	6.304862	81.004768	8233+WWR, Sooriyawewa, Sri Lanka	0.1626		හම්බන්තොට	සූරියවැව	MOH කාර්යාලය - සූරියවැව	அம்பாந்தோட்டை	சூரியவெவ	MOH அலுவலகம் - சூரியவெவ	8233+ඩබ්ලිව්ඩබ්ලිව්ආර්, සූරියවැව, ශ්‍රී ලංකාව	8233+WWR, சூரியவெவ, இலங்கை
Hambantota	Walasmulla	MOH Office – Walasmulla	False	False	HMBNTTWLSMLLMHFFCWLSMLL		Hambantota	LK-33	6.259779	81.098619	Walasmulla	PS-330151	6.154102	80.698256	6.150889	80.693718	Walasmulla, Sri Lanka	0.616099		හම්බන්තොට	වලස්මුල්ල	MOH කාර්යාලය - වලස්මුල්ල	அம்பாந்தோட்டை	வலஸ்முல்லா	MOH அலுவலகம் - வலஸ்முல்லா	වලස්මුල්ල, ශ්‍රී ලංකාව	வலஸ்முல்லா, இலங்கை
Hambantota	Weeraketiya	MOH Office – Weeraketiya	False	False	HMBNTTWRKTYMHFFCWRKTY		Hambantota	LK-33	6.259779	81.098619	Weeraketiya	PS-330149	6.153899	80.76737	6.144703	80.765287	4QV8+V4M, Weeraketiya, Sri Lanka	1.048488		හම්බන්තොට	වීරකැටිය	MOH කාර්යාලය - වීරකැටිය	அம்பாந்தோட்டை	வீரகெட்டிய	MOH அலுவலகம் - வீரகெட்டிய	4QV8+V4M, වීරකැටිය, ශ්‍රී ලංකාව	4QV8+V4M, வீரகெட்டிய, இலங்கை
Hambantota	Agunukolapelessa	MOH Office – Agunukolapelessa	False	False	HMBNTTGNKLPLSSMHFFCGNKLPLSS		Hambantota	LK-33	6.259779	81.098619	Angunakolapelessa	PS-330150	6.321993	80.844883	6.164691	80.898963	Unnamed Road, Agunukolapelessa, Sri Lanka	18.490258		හම්බන්තොට	අගුණුකොලපැලැස්ස	MOH කාර්යාලය - අගුණුකොලපැලැස්ස	அம்பாந்தோட்டை	அகுணுகோலாபெலெஸ்ஸா	MOH அலுவலகம் - அகுணுகோலபெலஸ்ஸா	නම් නොකළ පාර, අගුණුකොලපැලැස්ස, ශ්‍රී ලංකාව	பெயரிடப்படாத சாலை, அகுனுகோலபெலஸ்ஸா, இலங்கை
Hambantota	Beliatta	MOH Office – Beliatta	False	False	HMBNTTBLTTMHFFCBLTT		Hambantota	LK-33	6.259779	81.098619	Beliatta	PS-330152	6.046936	80.735408	6.051828	80.741735	3P2R+PMQ, Hambantota, Sri Lanka	0.886482		හම්බන්තොට	බෙලිඅත්ත	MOH කාර්යාලය - බෙලිඅත්ත	அம்பாந்தோட்டை	பெலியாட்டா	MOH அலுவலகம் - பெலியாட்ட	3P2R+PMQ, හම්බන්තොට, ශ්‍රී ලංකාව	3P2R+PMQ, ஹம்பாந்தோட்டை, இலங்கை
Hambantota	Katuwana	MOH Office – Katuwana	False	False	HMBNTTKTWNMHFFCKTWN		Hambantota	LK-33	6.259779	81.098619	Katuwana	PS-330153	6.269722	80.690963	6.26627	80.693035	7M8V+G63, Katuwana, Sri Lanka	0.447115		හම්බන්තොට	කටුවන	MOH කාර්යාලය - කටුවන	அம்பாந்தோட்டை	கட்டுவானா	MOH அலுவலகம் - கட்டுவானா	7 එම් 8 වී+ජී 63, කටුවන, ශ්‍රී ලංකාව	7M8V+G63, கட்டுவானா, இலங்கை
Hambantota	Tangalla	MOH Office – Tangalla	False	False	HMBNTTTNGLLMHFFCTNGLL		Hambantota	LK-33	6.259779	81.098619	Tangalle	PS-330147	6.023954	80.797255	6.02363	80.795742	2QFW+F75, Tangalle, Sri Lanka	0.171198		හම්බන්තොට	තංගල්ල	MOH කාර්යාලය - තංගල්ල	அம்பாந்தோட்டை	தங்கல்லா	MOH அலுவலகம் - தங்கல்லா	2QFW+F75, තංගල්ල, ශ්‍රී ලංකාව	2QFW+F75, தங்காலை, இலங்கை
Kegalle	Yatiyantota	Nawata Viharaya	False	False	KGLLYTYNTTNWTVHRY		Kegalle	LK-92	7.104216	80.342866	Yatiyantota	PS-920230	7.027207	80.290753	7.016596	80.315933	Ginigathena Road, Nawata, Sri Lanka	3.019947		කෑගල්ල	යටියන්තොට	නවත විහාරය	கேகாலை	யடியந்தோட்டா	நவதா விஹாராயா	ගිනිගත්හේන පාර, නවත, ශ්‍රී ලංකාව	கினிகத்தேனா சாலை, நவடா, இலங்கை
Kegalle	Yatiyantota	Pelellegama Hakbellawa Vidyalaya	False	False	KGLLYTYNTTPLLLGMHKBLLWVDYLY		Kegalle	LK-92	7.104216	80.342866	Yatiyantota	PS-920230	7.027207	80.290753	7.031041	80.295242	Old Rd, Yatiyanthota, Sri Lanka	0.65379		කෑගල්ල	යටියන්තොට	පැලේලේගම හක්බෙල්ලව විද්‍යාලය	கேகாலை	யடியந்தோட்டா	பெலெல்லேகம ஹக்பெல்லாவா வித்தியாலயம்	පැරණි පාර, යටියන්තොට, ශ්‍රී ලංකාව	பழைய சாலை, யட்டியந்தோட்டை, இலங்கை
Kegalle	Yatiyantota	Lavant Tamil College	False	False	KGLLYTYNTTLVNTTMLCLLG		Kegalle	LK-92	7.104216	80.342866	Yatiyantota	PS-920230	7.027207	80.290753	7.033228	80.289098	Gomaduwa, Yatiyanthota, Sri Lanka	0.694189		කෑගල්ල	යටියන්තොට	ලාවන්ට් දෙමළ විද්‍යාලය	கேகாலை	யடியந்தோட்டா	லாவந்த் தமிழ் கல்லூரி	ගොමඩුව, යටියන්තොට, ශ්‍රී ලංකාව	கோமடுவா, யடியந்தோட்டை, இலங்கை
Kegalle	Warakapola	Tholangamuwa Central College	False	False	KGLLWRKPLTHLNGMWCNTRLCLLG		Kegalle	LK-92	7.104216	80.342866	Wrakapola	PS-920119	7.227488	80.199696	7.237811	80.235547	Colombo - Kandy Rd, 71619, Sri Lanka	4.119239		කෑගල්ල	වරකාපොල	තෝලංගමුව මධ්‍ය මහා විද්‍යාලය	கேகாலை	வாரகபொல	தொலங்கமுவ மத்திய கல்லூரி	කොළඹ - නුවර පාර, 71619, ශ්‍රී ලංකාව	கொழும்பு - கண்டி வீதி, 71619, இலங்கை
Kegalle	Warakapola	Othnapitiya Primary School	False	False	KGLLWRKPLTHNPTYPRMRYSCHL		Kegalle	LK-92	7.104216	80.342866	Wrakapola	PS-920119	7.227488	80.199696	7.198527	80.214362	6th Lane, Giriulla, Sri Lanka	3.605014		කෑගල්ල	වරකාපොල	ඔත්නපිටිය ප්‍රාථමික විද්‍යාලය	கேகாலை	வாரகபொல	ஒட்னாபிட்டிய ஆரம்பப் பள்ளி	6 වන පටුමග, ගිරිඋල්ල, ශ්‍රී ලංකාව	6 வது பாதை, கிரியுல்லா, இலங்கை
Kegalle	Warakapola	Morawaka Primary School	False	False	KGLLWRKPLMRWKPRMRYSCHL		Kegalle	LK-92	7.104216	80.342866	Wrakapola	PS-920119	7.227488	80.199696	7.088921	80.251446	37Q2+HH8, Galamuna, Sri Lanka	16.436929		කෑගල්ල	වරකාපොල	මොරවක ප්‍රාථමික විද්‍යාලය	கேகாலை	வாரகபொல	மொரவாகா ஆரம்பப் பள்ளி	37Q2+එච්එච් 8, ගලමුණ, ශ්‍රී ලංකාව	37Q2+HH8, கலாமுனா, இலங்கை
Kegalle	Mawanella	Balawathgama Maha Vidyalaya	False	False	KGLLMWNLLBLWTHGMMHVDYLY		Kegalle	LK-92	7.104216	80.342866	Mawanella	PS-920122	7.256966	80.445912	7.20502	80.494198	Mawanella - Hemmaththagama - Singhapitiya, Sri Lanka	7.859618		කෑගල්ල	මාවනැල්ල	බලවත්ගම මහා විද්‍යාලය	கேகாலை	மாவனெல்லா	பாலவத்கம மகா வித்தியாலயம்	මාවනැල්ල - හෙම්මත්තාගම - සිංගපිටිය, ශ්‍රී ලංකාව	மாவனெல்லா - ஹெம்மத்தாகம - சிங்கப்பிட்டிய, இலங்கை
Kegalle	Kegalle	MOH Office – Kegalle	False	False	KGLLKGLLMHFFCKGLL		Kegalle	LK-92	7.104216	80.342866	Kegalle	PS-920118	7.255928	80.353156	7.24797	80.343583	Kegalle-Bulathkohupitiya-Karawanella Hwy, Kegalle, Sri Lanka	1.378052		කෑගල්ල	කෑගල්ල	MOH කාර්යාලය - කෑගල්ල	கேகாலை	கேகாலை	MOH அலுவலகம் - கேகாலை	කෑගල්ල-බුලත්කොහුපිටිය-කරවනැල්ල හ්වි, කෑගල්ල, ශ්‍රී ලංකාව	கேகாலை-புலத்கோஹுபிட்டிய-கரவனெல்லா ஹ்வி, கேகாலை, இலங்கை
Kegalle	Kegalle	MOH Office - Galigamuwa	False	False	KGLLKGLLMHFFCGLGMW		Kegalle	LK-92	7.104216	80.342866	Kegalle	PS-920118	7.255928	80.353156	7.240448	80.300505	ballapana, galigamuwa town, Sri Lanka	6.059352		කෑගල්ල	කෑගල්ල	MOH කාර්යාලය - ගලිගමුව	கேகாலை	கேகாலை	MOH அலுவலகம் - கலிகமுவா	බැල්ලපන, ගලිගමුව නගරය, ශ්‍රී ලංකාව	பலபனா, கலிகமுவா நகரம், இலங்கை
Kegalle	Aranayaka	Deewela Primary School	False	False	KGLLRNYKDWLPRMRYSCHL		Kegalle	LK-92	7.104216	80.342866	Aranayaka	PS-920120	7.186505	80.455273	7.255561	80.386837	Colombo - Kandy Rd, Molagoda, Sri Lanka	10.771631		කෑගල්ල	අරණායක	දීවල ප්‍රාථමික විද්‍යාලය	கேகாலை	அரநாயகம்	தீவேலா தொடக்கப்பள்ளி	කොළඹ - නුවර පාර, මොලගොඩ, ශ්‍රී ලංකාව	கொழும்பு - கண்டி வீதி, மொலகொட, இலங்கை
Kegalle	Aranayaka	Galathara Maha Vidyalaya	False	False	KGLLRNYKGLTHRMHVDYLY		Kegalle	LK-92	7.104216	80.342866	Aranayaka	PS-920120	7.186505	80.455273	7.216543	80.417263	6C88+JW6, Kegalle, Sri Lanka	5.362544		කෑගල්ල	අරණායක	ගලතර මහා විද්‍යාලය	கேகாலை	அரநாயகம்	கலாத்தர மகா வித்தியாலயம்	6C88+JW6, කෑගල්ල, ශ්‍රී ලංකාව	6C88+JW6, கேகாலை, இலங்கை
Kegalle	Aranayaka	Thammitiya Primary School	False	False	KGLLRNYKTHMMTYPRMRYSCHL		Kegalle	LK-92	7.104216	80.342866	Aranayaka	PS-920120	7.186505	80.455273	7.148267	80.464363	Horewala Deiyanwala Rd, Horewala, Sri Lanka	4.369912		කෑගල්ල	අරණායක	තම්මිටිය ප්‍රාථමික විද්‍යාලය	கேகாலை	அரநாயகம்	தம்மிதியா தொடக்கப்பள்ளி	හොරේවල දෙයියන්වල පාර, හොරේවල, ශ්‍රී ලංකාව	ஹோர்வாலா தேயன்வாலா சாலை, ஹோர்வாலா, இலங்கை
Kegalle	Rambukkana	Meeduma Vidyalaya	False	False	KGLLRMBKKNMDMVDYLY		Kegalle	LK-92	7.104216	80.342866	Rambukkana	PS-920123	7.324319	80.387808	7.310807	80.389261	Karandupona-Rambukkna Road, Rambukkana 71100, Sri Lanka	1.511462		කෑගල්ල	රඹුක්කන	මීදුම විද්යාලය	கேகாலை	ரம்புக்கானா	மீடுமா வித்யாலயா	කරndුපොන-රඹුක්කන පාර, රඹුක්කන 71100, ශ්‍රී ලංකාව	கரண்டுபோனா-ரம்புக்னா சாலை, ரம்புக்கனா 71100, இலங்கை
Kegalle	Rambukkana	Weligama Maha Vidyalaya	False	False	KGLLRMBKKNWLGMMHVDYLY		Kegalle	LK-92	7.104216	80.342866	Rambukkana	PS-920123	7.324319	80.387808	7.339818	80.413198	8CQ7+W7G, Rambukkana, Sri Lanka	3.289041		කෑගල්ල	රඹුක්කන	වැලිගම මහා විද්‍යාලය	கேகாலை	ரம்புக்கானா	வெலிகம மகா வித்தியாலயம்	8CQ7+W7G, රඹුක්කන, ශ්‍රී ලංකාව	8CQ7+W7G, ரம்புக்கானா, இலங்கை
Kegalle	Rambukkana	Walalgoda Maha Vidyalaya	False	False	KGLLRMBKKNWLLGDMHVDYLY		Kegalle	LK-92	7.104216	80.342866	Rambukkana	PS-920123	7.324319	80.387808	7.339818	80.413198	8CQ7+W7G, Rambukkana, Sri Lanka	3.289041		කෑගල්ල	රඹුක්කන	වලල්ගොඩ මහා විද්‍යාලය	கேகாலை	ரம்புக்கானா	வலல்கொட மகா வித்தியாலயம்	8CQ7+W7G, රඹුක්කන, ශ්‍රී ලංකාව	8CQ7+W7G, ரம்புக்கானா, இலங்கை
Kegalle	Avissawella	Dehiowita National College	False	False	KGLLVSSWLLDHWTNTNLCLLG		Kegalle	LK-92	7.104216	80.342866	Awissawella	PS-920226	6.947538	80.215422	6.964079	80.265062	Yatiyantota Road, Sri Lanka	5.781379		කෑගල්ල	අවිස්සාවේල්ල	දෙහිඕවිට ජාතික විද්‍යාලය	கேகாலை	அவிசாவெல்லா	தெஹியோவிட தேசிய கல்லூரி	යටියන්තොට පාර, ශ්‍රී ලංකාව	யடியந்தோட்டை சாலை, இலங்கை
Kegalle	Bulathkohupitiya	Ambuwakka Vidyalaya	False	False	KGLLBLTHKHPTYMBWKKVDYLY		Kegalle	LK-92	7.104216	80.342866	Bulathkohupitiya	PS-920232	7.106684	80.3347	7.147714	80.366009	Kegalle-Bulathkohupitiya-Karawanella Hwy, Undugoda, Sri Lanka	5.72442		කෑගල්ල	බුලත්කොහුපිටිය	අඹුවක්ක විද්‍යාලය	கேகாலை	புலத்கோஹுபிடியா	அம்புவாக்க வித்யாலயா	කෑගල්ල-බුලත්කොහුපිටිය-කරවනැල්ල හ්වි, උඳුගොඩ, ශ්‍රී ලංකාව	கேகாலை-புலத்கோஹுபிட்டிய-கரவனெல்லா ஹ்வை, உண்டுகொட, இலங்கை
Kegalle	Bulathkohupitiya	Kendawa Viharaya	False	False	KGLLBLTHKHPTYKNDWVHRY		Kegalle	LK-92	7.104216	80.342866	Bulathkohupitiya	PS-920232	7.106684	80.3347	7.166603	80.519245	5G89+JMX, Kegalla, Sri Lanka	21.430582	#CenterFarFromPolice	කෑගල්ල	බුලත්කොහුපිටිය	කෙන්දාව විහාරය	கேகாலை	புலத்கோஹுபிடியா	கெண்டவா விஹாராயா	5G89+JMX, කෑගල්ල, ශ්‍රී ලංකාව	5G89+JMX, கேகல்லா, இலங்கை
Kegalle	Bulathkohupitiya	Urumwala Community Hall	False	False	KGLLBLTHKHPTYRMWLCMMNTYHLL		Kegalle	LK-92	7.104216	80.342866	Bulathkohupitiya	PS-920232	7.106684	80.3347	7.254688	80.352612	7933+V2H, Kegalle, Sri Lanka	16.580712		කෑගල්ල	බුලත්කොහුපිටිය	Rumරම්වල ප්‍රජා ශාලාව	கேகாலை	புலத்கோஹுபிடியா	ஊரும்வாலா சமுதாயக் கூடம்	7933+වී 2 එච්, කෑගල්ල, ශ්‍රී ලංකාව	7933+V2H, கேகாலை, இலங்கை
Kegalle	Bulathkohupitiya	Pelempitiya Maha Vidyalaya	False	False	KGLLBLTHKHPTYPLMPTYMHVDYLY		Kegalle	LK-92	7.104216	80.342866	Bulathkohupitiya	PS-920232	7.106684	80.3347	7.219906	80.355946	Hettimulla Evunugalle Rd, Kaudugama, Sri Lanka	12.810082		කෑගල්ල	බුලත්කොහුපිටිය	පැලෙම්පිටිය මහා විද්‍යාලය	கேகாலை	புலத்கோஹுபிடியா	பேலம்பிட்டிய மகா வித்தியாலயம்	හෙට්ටිමුල්ල එවුනුගල්ල පාර, කවුඩුගම, ශ්‍රී ලංකාව	ஹெட்டிமுல்ல இவுனுகல்லே வீதி, கudடுகம, இலங்கை
Kegalle	Bulathkohupitiya	Narangoda Primary School	False	False	KGLLBLTHKHPTYNRNGDPRMRYSCHL		Kegalle	LK-92	7.104216	80.342866	Bulathkohupitiya	PS-920232	7.106684	80.3347	7.198527	80.214362	6th Lane, Giriulla, Sri Lanka	16.755459		කෑගල්ල	බුලත්කොහුපිටිය	නාරංගොඩ ප්‍රාථමික විද්‍යාලය	கேகாலை	புலத்கோஹுபிடியா	நாரங்கொட தொடக்கப்பள்ளி	6 වන පටුමග, ගිරිඋල්ල, ශ්‍රී ලංකාව	6 வது பாதை, கிரியுல்லா, இலங்கை
Kegalle	Bulathkohupitiya	Neluwakkana Viharaya	False	False	KGLLBLTHKHPTYNLWKKNVHRY		Kegalle	LK-92	7.104216	80.342866	Bulathkohupitiya	PS-920232	7.106684	80.3347	7.08313	80.429741	3CMH+7V5, Kegalle, Sri Lanka	10.812651		කෑගල්ල	බුලත්කොහුපිටිය	නෙළුවක්කන විහාරය	கேகாலை	புலத்கோஹுபிடியா	நெலுவக்கன விஹாராயா	3CMH+7V5, කෑගල්ල, ශ්‍රී ලංකාව	3CMH+7V5, கேகாலை, இலங்கை
Kegalle	Ruwanwella	Walgampatha Viharaya	False	False	KGLLRWNWLLWLGMPTHVHRY		Kegalle	LK-92	7.104216	80.342866	Ruwanwella	PS-920229	7.046189	80.254174	7.0599	80.234	Humbaswalana, Ruwanwella, Rattagala - Ruwanwella Rd, Sri Lanka	2.699119		කෑගල්ල	රුවන්වැල්ල	වල්ගම්පත විහාරය	கேகாலை	ருவன்வெல்ல	வல்கம்பத விஹாராயா	හුඹස්වාලන, රුවන්වැල්ල, රත්තගල - රුවන්වැල්ල පාර, ශ්‍රී ලංකාව	ஹம்பஸ்வலானா, ருவான்வெல்லா, ரட்டகலா - ருவன்வெல்லா சாலை, இலங்கை
Kegalle	Ruwanwella	Moratota Community Hall	False	False	KGLLRWNWLLMRTTCMMNTYHLL		Kegalle	LK-92	7.104216	80.342866	Ruwanwella	PS-920229	7.046189	80.254174	7.046199	80.253943	Bus Stop, Kegalle-Bulathkohupitiya-Karawanella Hwy, Ruwanwella, Sri Lanka	0.025524		කෑගල්ල	රුවන්වැල්ල	මොරතොට ප්‍රජා ශාලාව	கேகாலை	ருவன்வெல்ல	மொரட்டோட்டா சமுதாயக் கூடம்	බස් නැවතුම, කෑගල්ල-බුලත්කොහුපිටිය-කරවනැල්ල හ්වි, රුවන්වැල්ල, ශ්‍රී ලංකාව	பேருந்து நிறுத்தம், கேகாலை-புலத்கோஹுபிட்டிய-கரவனெல்லா Hwy, ருவன்வெல்ல, இலங்கை
Kegalle	Ruwanwella	Mahakanda Maha Vidyalaya	False	False	KGLLRWNWLLMHKNDMHVDYLY		Kegalle	LK-92	7.104216	80.342866	Ruwanwella	PS-920229	7.046189	80.254174	7.088921	80.251446	37Q2+HH8, Galamuna, Sri Lanka	4.762603		කෑගල්ල	රුවන්වැල්ල	මහකන්ද මහා විද්‍යාලය	கேகாலை	ருவன்வெல்ல	மஹாகந்த மகா வித்தியாலயம்	37Q2+එච්එච් 8, ගලමුණ, ශ්‍රී ලංකාව	37Q2+HH8, கலாமுனா, இலங்கை
Kegalle	Ruwanwella	Lenagala Viharaya	False	False	KGLLRWNWLLLNGLVHRY		Kegalle	LK-92	7.104216	80.342866	Ruwanwella	PS-920229	7.046189	80.254174	7.116044	80.264017	Sri Lanka	7.845555		කෑගල්ල	රුවන්වැල්ල	ලෙනගල විහාරය	கேகாலை	ருவன்வெல்ல	லெனகல விஹாராயா	ශ්රී ලංකාව	இலங்கை
Kegalle	Ruwanwella	Waharaka Maha Vidyalaya	False	False	KGLLRWNWLLWHRKMHVDYLY		Kegalle	LK-92	7.104216	80.342866	Ruwanwella	PS-920229	7.046189	80.254174	7.074499	80.199537	B445, Sri Lanka	6.803737		කෑගල්ල	රුවන්වැල්ල	වහරක මහා විද්‍යාලය	கேகாலை	ருவன்வெல்ல	வஹரக மகா வித்தியாலயம்	බී 445, ශ්‍රී ලංකාව	பி 445, இலங்கை
Kegalle	Ruwanwella	Waharaka Viharaya	False	False	KGLLRWNWLLWHRKVHRY		Kegalle	LK-92	7.104216	80.342866	Ruwanwella	PS-920229	7.046189	80.254174	7.079464	80.198839	Walgampatha - Gonagaldeniya Rd, Kegalle, Sri Lanka	7.142043		කෑගල්ල	රුවන්වැල්ල	වහරක විහාරය	கேகாலை	ருவன்வெல்ல	வஹரக விஹாராயா	වල්ගම්පත - ගොනගල්දෙණිය පාර, කෑගල්ල, ශ්‍රී ලංකාව	வல்கம்பத - கோணகல்டெனிய வீதி, கேகாலை, இலங்கை
Kegalle	Ruwanwella	Indurana Primary School	False	False	KGLLRWNWLLNDRNPRMRYSCHL		Kegalle	LK-92	7.104216	80.342866	Ruwanwella	PS-920229	7.046189	80.254174					#CenterLocationUnknown	කෑගල්ල	රුවන්වැල්ල	ඉඳුරණ ප්‍රාථමික විද්‍යාලය	கேகாலை	ருவன்வெல்ல	இந்துரானா தொடக்கப்பள்ளி		
Kegalle	Anuradhapura	Army Hospital Anuradhapura	False	False	KGLLNRDHPRRMYHSPTLNRDHPR		Kegalle	LK-92	7.104216	80.342866	Anuradapura	PS-710101	8.329752	80.407265	8.338302	80.407646	AB02, Anuradhapura, Sri Lanka	0.951939		කෑගල්ල	අනුරාධපුර	අනුරාධපුර හමුදා රෝහල	கேகாலை	அனுராதபுரம்	அனுராதபுரம் இராணுவ மருத்துவமனை	ඒබී 02, අනුරාධපුර, ශ්‍රී ලංකාව	ஏபி 02, அனுராதபுரம், இலங்கை
Kegalle	Jaffna	Mobile Medical Team	False	False	KGLLJFFNMBLMDCLTM		Kegalle	LK-92	7.104216	80.342866	Jaffna	PS-410209	9.659919	80.010965					#CenterLocationUnknown	කෑගල්ල	යාපනය	ජංගම වෛද්‍ය කණ්ඩායම	கேகாலை	யாழ்	மொபைல் மருத்துவ குழு		
Jaffna	Chavakachcheri	Town Hall – Chavakachcheri	False	False	JFFNCHVKCHCHRTWNHLLCHVKCHCHR		Jaffna	LK-41	9.691792	80.098594	Chawakachcheri	PS-410215	9.666459	80.132384	9.659136	80.160946	M556+M94, Chavakachcheri, Sri Lanka	3.236063		යාපනය	චාවකච්චේරි	නගර ශාලාව - චාවකච්චේරි	யாழ்	சாவகச்சேரி	டவுன் ஹால் - சாவகச்சேரி	එම් 556+එම් 94, චාවකච්චේරි, ශ්‍රී ලංකාව	M556+M94, சாவகச்சேரி, இலங்கை
Kilinochchi	Kilinochchi	MOH Office - Karachchi	False	False	KLNCHCHKLNCHCHMHFFCKRCHCH		Kilinochchi	LK-45	9.415742	80.30358	Kilinochchi	PS-450131	9.392265	80.407846	9.396965	80.407782	Kandy - Jaffna Hwy, Kilinochchi, Sri Lanka	0.522827		කිලිනොච්චි	කිලිනොච්චි	MOH කාර්යාලය - කරච්චි	கிளிநொச்சி	கிளிநொச்சி	MOH அலுவலகம் - கராச்சி	මහනුවර - යාපනය හ්වි, කිලිනොච්චි, ශ්‍රී ලංකාව	கண்டி - யாழ்ப்பாணம், கிளிநொச்சி, இலங்கை
Kilinochchi	Mulankavil	Mulankavil Hospital	False	False	KLNCHCHMLNKVLMLNKVLHSPTL		Kilinochchi	LK-45	9.415742	80.30358	Mulankavil	PS-450135	9.254463	80.141528	9.243423	80.143894	Base Hospital Mulankavil, A32 Road, Mulankavil, Kumulamunai, Sri Lanka	1.255148		කිලිනොච්චි	මුලංකාවිල්	මුලංකාවිල් රෝහල	கிளிநொச்சி	முழங்காவில்	முழங்காவில் மருத்துவமனை	මුලික රෝහල මුලංකාවිල්, ඒ 32 පාර, මුලංකාවිල්, කුමුලමුනෙයි, ශ්‍රී ලංකාව	அடிப்படை மருத்துவமனை முழங்காவில், A32 சாலை, முழங்காவில், குமுலமுனை, இலங்கை
Trincomalee	Muttur	MOH Office – Muttur	False	False	TRNCMLMTTRMHFFCMTTR		Trincomalee	LK-53	8.551241	81.092014	Mutur	PS-530138	8.461133	81.259371	8.453916	81.264494	1 Old Batticaloa Rd, Mutur, Sri Lanka	0.980859		ත්රිකුණාමලය	මුතූර්	MOH කාර්යාලය - මුතූර්	திருகோணமலை	மூதூர்	MOH அலுவலகம் - மூதூர்	1 පරණ මඩකලපුව පාර, මුතූර්, ශ්‍රී ලංකාව	1 பழைய மட்டக்களப்பு வீதி, மூதூர், இலங்கை
Trincomalee	Kinniya	MOH Office – Kurungnakeni	False	False	TRNCMLKNNYMHFFCKRNGNKN		Trincomalee	LK-53	8.551241	81.092014	Kinnia	PS-530140	6.907289	79.863819	7.484932	80.353119	F9M3+X6H, Kurunegala 60000, Sri Lanka	83.927094	#CenterFarFromPolice	ත්රිකුණාමලය	කින්නියා	එම්ඕඑච් කාර්යාලය - කුරුංග්ණකේනි	திருகோணமலை	கிண்ணியா	MOH அலுவலகம் - குருங்நகேணி	F9M3+X6H, කුරුණෑගල 60000, ශ්‍රී ලංකාව	F9M3+X6H, குருநாகல் 60000, இலங்கை
Trincomalee	Kinniya	MOH Office – Kinniya	False	False	TRNCMLKNNYMHFFCKNNY		Trincomalee	LK-53	8.551241	81.092014	Kinnia	PS-530140	6.907289	79.863819	8.498696	81.179644	F5XH+FVC, Kinniya 31100, Sri Lanka	228.840304	#CenterFarFromPolice	ත්රිකුණාමලය	කින්නියා	MOH කාර්යාලය - කින්නියා	திருகோணமலை	கிண்ணியா	MOH அலுவலகம் - கிண்ணியா	F5XH+FVC, කින්නියා 31100, ශ්‍රී ලංකාව	F5XH+FVC, கிண்ணியா 31100, இலங்கை
Trincomalee	Sripura	MOH Office – Sripura	False	False	TRNCMLSRPRMHFFCSRPR		Trincomalee	LK-53	8.551241	81.092014	Sripura	PS-530136	8.929617	80.81428	8.926697	80.814799	Padavi Sripura, Padaviya - Sripura Road, Welioya, Sri Lanka	0.329869		ත්රිකුණාමලය	ශ්‍රීපුර	MOH කාර්යාලය - ශ්‍රීපුර	திருகோணமலை	ஸ்ரீபுரா	MOH அலுவலகம் - ஸ்ரீபுரா	පදවි ශ්‍රීපුර, පදවිය - ශ්‍රීපුර පාර, වැලිඔය, ශ්‍රී ලංකාව	படவி ஸ்ரீபுரா, படாவியா - ஸ்ரீபுரா சாலை, வெலிஓயா, இலங்கை
Trincomalee	Sripura	Palugahawanguwa Maha Vidyalaya	False	False	TRNCMLSRPRPLGHWNGWMHVDYLY		Trincomalee	LK-53	8.551241	81.092014	Sripura	PS-530136	8.929617	80.81428	8.924566	80.806472	Padavi Sripura, Welioya, Sri Lanka	1.025545		ත්රිකුණාමලය	ශ්‍රීපුර	පලුගහවංගුව මහා විද්‍යාලය	திருகோணமலை	ஸ்ரீபுரா	பலுகஹவாங்குவா மகா வித்தியாலயம்	පදවි ශ්‍රීපුර, වැලිඔය, ශ්‍රී ලංකාව	பதவி ஸ்ரீபுரா, வெலிஓயா, இலங்கை
Trincomalee	Kuchchaveli	MOH Office – Kuchchaveli	False	False	TRNCMLKCHCHVLMHFFCKCHCHVL		Trincomalee	LK-53	8.551241	81.092014	Kuchchaweli	PS-530133	8.81895	81.100438	8.740082	81.161616	P5R6+2JQ, Kumpurupiddi, Sri Lanka	11.053646		ත්රිකුණාමලය	කුච්චවේලි	MOH කාර්යාලය - කුච්චවේලි	திருகோணமலை	குச்சவெளி	MOH அலுவலகம் - குச்சவெளி	P5R6+2JQ, කුඹුරුපිඩි, ශ්‍රී ලංකාව	P5R6+2JQ, கும்புறுப்பிடி, இலங்கை
Trincomalee	Kuchchaveli	Divisional Hospital – Kuchchaveli	False	False	TRNCMLKCHCHVLDVSNLHSPTLKCHCHVL		Trincomalee	LK-53	8.551241	81.092014	Kuchchaweli	PS-530133	8.81895	81.100438	8.814795	81.102358	R472+WW9, Kuchchaveli, Sri Lanka	0.508064		ත්රිකුණාමලය	කුච්චවේලි	ප්‍රාදේශීය රෝහල - කුච්චවේලි	திருகோணமலை	குச்சவெளி	பிரதேச மருத்துவமனை - குச்சவெளி	ආර් 472+WW9, කුච්චවේලි, ශ්‍රී ලංකාව	R472+WW9, குச்சவெளி, இலங்கை
Trincomalee	Kuchchaveli	Divisional Hospital – Nilaveli	False	False	TRNCMLKCHCHVLDVSNLHSPTLNLVL		Trincomalee	LK-53	8.551241	81.092014	Kuchchaweli	PS-530133	8.81895	81.100438	8.681035	81.193632	M5JV+CF6, Nilaveli, Sri Lanka	18.44695		ත්රිකුණාමලය	කුච්චවේලි	ප්‍රාදේශීය රෝහල - නිලාවේලි	திருகோணமலை	குச்சவெளி	பிரதேச மருத்துவமனை - நிலாவெளி	M5JV+CF6, නිලාවේලි, ශ්‍රී ලංකාව	M5JV+CF6, நிலவேலி, இலங்கை
Trincomalee	Pulmoddai	Base Hospital -Pulmoddai	False	False	TRNCMLPLMDDBSHSPTLPLMDD		Trincomalee	LK-53	8.551241	81.092014	Pulmudai	PS-530135	6.915266	79.87829	8.941204	80.983139	WXRM+F7J, Pulmoddai, Sri Lanka	256.112801	#CenterFarFromPolice	ත්රිකුණාමලය	පුල්මොඩෙයි	මූලික රෝහල -පුල්මොඩෙයි	திருகோணமலை	புல்மோட்டை	அடிப்படை மருத்துவமனை -புல்மோடை	ඩබ්ලිව්එක්ස්ආර්එම්+එෆ් 7 ජේ, පුල්මොඩෙයි, ශ්‍රී ලංකාව	WXRM+F7J, புல்மோடை, இலங்கை
Trincomalee	Serunuwara	MOH Office – Serunuwara	False	False	TRNCMLSRNWRMHFFCSRNWR		Trincomalee	LK-53	8.551241	81.092014	Serunuwara	PS-530244	8.321863	81.299322	8.323143	81.299894	B10, Sri Lanka	0.155671		ත්රිකුණාමලය	සේරුනුවර	MOH කාර්යාලය - සේරුනුවර	திருகோணமலை	சேருநுவரா	MOH அலுவலகம் - சேருநுவரா	බී 10, ශ්‍රී ලංකාව	பி 10, இலங்கை
Trincomalee	Serunuwara	Serunuwara Hospital	False	False	TRNCMLSRNWRSRNWRHSPTL		Trincomalee	LK-53	8.551241	81.092014	Serunuwara	PS-530244	8.321863	81.299322	8.322964	81.299734	Allai-Kantalai Rd, Sri Lanka	0.130589		ත්රිකුණාමලය	සේරුනුවර	සේරුනුවර රෝහල	திருகோணமலை	சேருநுவரா	சேருநுவரா மருத்துவமனை	අල්ලෙයි-කන්තලායි පාර, ශ්‍රී ලංකාව	அல்லை-கந்தளாய் சாலை, இலங்கை
Trincomalee	Serunuwara	Seruwila Hospital	False	False	TRNCMLSRNWRSRWLHSPTL		Trincomalee	LK-53	8.551241	81.092014	Serunuwara	PS-530244	8.321863	81.299322	8.37193	81.317244	Palatoppu-Seruwawila Rd, Seruwawila, Sri Lanka	5.9079		ත්රිකුණාමලය	සේරුනුවර	සේරුවිල රෝහල	திருகோணமலை	சேருநுவரா	சேருவில மருத்துவமனை	පලතොප්පු-සේරුවාවිල පාර, සේරුවාවිල, ශ්‍රී ලංකාව	பாலதோப்பு-சேருவவில சாலை, சேருவவில, இலங்கை
Trincomalee	Serunuwara	Serunuwara Somadevi Vidyalaya	False	False	TRNCMLSRNWRSRNWRSMDVVDYLY		Trincomalee	LK-53	8.551241	81.092014	Serunuwara	PS-530244	8.321863	81.299322	8.324973	81.300741	Serunuwara, Sri Lanka	0.379499		ත්රිකුණාමලය	සේරුනුවර	සේරුනුවර සෝමදේවි විද්‍යාලය	திருகோணமலை	சேருநுவரா	சேருநுவர சோமாதேவி வித்தியாலயம்	සේරුනුවර, ශ්‍රී ලංකාව	சேருநுவரா, இலங்கை
Trincomalee	Kantale	MOH Office - Kantale	False	False	TRNCMLKNTLMHFFCKNTL		Trincomalee	LK-53	8.551241	81.092014	Kantale	PS-530241	8.356129	81.007739	8.349617	81.009107	අග්‍රබෝධි මාවත, Kantale, Sri Lanka	0.739809		ත්රිකුණාමලය	කන්තලේ	MOH කාර්යාලය - කන්තලේ	திருகோணமலை	கந்தலே	MOH அலுவலகம் - கந்தலே	වැඩි දියුණු කිරීම මාවත, කන්තලේ, ශ්‍රී ලංකාව	தீவிரப்படுத்தி மாவத்த, கந்தலே, இலங்கை
Trincomalee	Kantale	Altaric Vidyalaya	False	False	TRNCMLKNTLLTRCVDYLY		Trincomalee	LK-53	8.551241	81.092014	Kantale	PS-530241	8.356129	81.007739	8.365205	81.031496	928J+3HQ, Kantale, Sri Lanka	2.802542		ත්රිකුණාමලය	කන්තලේ	අල්තාරික් විද්‍යාලය	திருகோணமலை	கந்தலே	அல்தாரிக் வித்யாலயா	928J+3HQ, කන්තලේ, ශ්‍රී ලංකාව	928J+3HQ, கந்தலே, இலங்கை
Trincomalee	Kantale	Base Hospital Kantale	False	False	TRNCMLKNTLBSHSPTLKNTL		Trincomalee	LK-53	8.551241	81.092014	Kantale	PS-530241	8.356129	81.007739	8.366638	81.004746	Ambepussa - Kurunegala - Trincomalee Hwy, Kantale, Sri Lanka	1.214433		ත්රිකුණාමලය	කන්තලේ	කන්තලේ මූලික රෝහල	திருகோணமலை	கந்தலே	கந்தலே அடிப்படை மருத்துவமனை	අඹේපුස්ස - කුරුණෑගල - ත්‍රිකුණාමලය හ්වි, කන්තලේ, ශ්‍රී ලංකාව	அம்பேபுஸ்ஸா - குருநாகல் - திருகோணமலை ஹ்வி, கந்தலே, இலங்கை
Trincomalee	Kantale	Unit 14 Jayarajarama Viharaya	False	False	TRNCMLKNTLNTJYRJRMVHRY		Trincomalee	LK-53	8.551241	81.092014	Kantale	PS-530241	8.356129	81.007739	8.351263	81.006993	Kantale, Sri Lanka	0.547435		ත්රිකුණාමලය	කන්තලේ	ඒකකය 14 ජයරාජාරාම විහාරය	திருகோணமலை	கந்தலே	அலகு 14 ஜெயராஜராம விகாரை	කන්තලේ, ශ්‍රී ලංකාව	கந்தலே, இலங்கை
Trincomalee	Kantale	Vanela Central Dispensary	False	False	TRNCMLKNTLVNLCNTRLDSPNSRY		Trincomalee	LK-53	8.551241	81.092014	Kantale	PS-530241	8.356129	81.007739	8.456635	81.160349	F546+M45, Kinniya, Sri Lanka	20.173272	#CenterFarFromPolice	ත්රිකුණාමලය	කන්තලේ	වනේලා මධ්‍යම බෙහෙත් ශාලාව	திருகோணமலை	கந்தலே	வனேலா மத்திய மருந்தகம்	F546+M45, කින්නියා, ශ්‍රී ලංකාව	F546+M45, கிண்ணியா, இலங்கை
Trincomalee	Kantale	Jayanthipura Vidyalaya	False	False	TRNCMLKNTLJYNTHPRVDYLY		Trincomalee	LK-53	8.551241	81.092014	Kantale	PS-530241	8.356129	81.007739	8.369017	81.071671	939C+JM3, Kantale, Sri Lanka	7.180097		ත්රිකුණාමලය	කන්තලේ	ජයන්තිපුර විද්‍යාලය	திருகோணமலை	கந்தலே	ஜெயந்திபுரா வித்யாலயா	939 සී+ජේඑම් 3, කන්තලේ, ශ්‍රී ලංකාව	939C+JM3, கந்தலே, இலங்கை
Trincomalee	Kantale	Batukachchiya Central Dispensary	False	False	TRNCMLKNTLBTKCHCHYCNTRLDSPNSRY		Trincomalee	LK-53	8.551241	81.092014	Kantale	PS-530241	8.356129	81.007739	8.351263	81.006993	Kantale, Sri Lanka	0.547435		ත්රිකුණාමලය	කන්තලේ	බටුකච්චිය මධ්‍යම බෙහෙත් ශාලාව	திருகோணமலை	கந்தலே	பதுகச்சியா மத்திய மருந்தகம்	කන්තලේ, ශ්‍රී ලංකාව	கந்தலே, இலங்கை
Trincomalee	Ichchalampattu	MOH Office – Ichchalampattu	False	False	TRNCMLCHCHLMPTTMHFFCCHCHLMPTT	Eachchilampattu Hospital	Trincomalee	LK-53	8.551241	81.092014	Ichchalampattu		8.289549	81.359002	8.289644	81.358983	Highway, Ichchalampattu, Trincomalee, Sri Lanka	0.010772		ත්රිකුණාමලය	ඉච්චලම්පත්තු	එක්ර්චිලම්පත්තු රෝහල	திருகோணமலை	இச்சலம்பட்டு	ஒவ்வொருசிலம்பட்டு மருத்துவமனை	අධිවේගී මාර්ගය, ඉච්චලම්පත්තු, ත්‍රිකුණාමලය, ශ්‍රී ලංකාව	நெடுஞ்சாலை, ஈச்சலாம்பட்டு, திருகோணமலை, இலங்கை
Trincomalee	Ichchalampattu	Ilangathurai  Vidyalaya	False	False	TRNCMLCHCHLMPTTLNGTHRVDYLY		Trincomalee	LK-53	8.551241	81.092014	Ichchalampattu		8.289549	81.359002	8.574433	81.234967	Dockyard Rd, Trincomalee, Sri Lanka	34.501425	#CenterFarFromPolice	ත්රිකුණාමලය	ඉච්චලම්පත්තු	ඉලංගතුරෙයි විද්‍යාලය	திருகோணமலை	இச்சலம்பட்டு	இளங்காதுரை வித்யாலயா	ඩොක්යාඩ් පාර, ත්‍රිකුණාමලය, ශ්‍රී ලංකාව	கப்பல்துறை சாலை, திருகோணமலை, இலங்கை
Trincomalee	Ichchalampattu	Uppural Vidyalaya	False	False	TRNCMLCHCHLMPTTPPRLVDYLY		Trincomalee	LK-53	8.551241	81.092014	Ichchalampattu		8.289549	81.359002	8.365205	81.031496	928J+3HQ, Kantale, Sri Lanka	37.013665	#CenterFarFromPolice	ත්රිකුණාමලය	ඉච්චලම්පත්තු	උප්පුරල් විද්‍යාලය	திருகோணமலை	இச்சலம்பட்டு	உப்புரல் வித்யாலயா	928J+3HQ, කන්තලේ, ශ්‍රී ලංකාව	928J+3HQ, கந்தலே, இலங்கை
Trincomalee	Thambalagamuwa	Kulakotan Vidyalaya	False	False	TRNCMLTHMBLGMWKLKTNVDYLY		Trincomalee	LK-53	8.551241	81.092014	Thambalagamuva	PS-530243	6.907289	79.863819	8.499625	81.094502	Kandy Road, Sri Lanka	223.092723	#CenterFarFromPolice	ත්රිකුණාමලය	තඹලගමුව	කුලකොටන් විද්‍යාලය	திருகோணமலை	தம்பலகாமுவா	குலகோட்டன் வித்யாலயா	නුවර පාර, ශ්‍රී ලංකාව	கண்டி சாலை, இலங்கை
Trincomalee	Thambalagamuwa	Mollipathana Sinhala Maha Vidyalaya	False	False	TRNCMLTHMBLGMWMLLPTHNSNHLMHVDYLY		Trincomalee	LK-53	8.551241	81.092014	Thambalagamuva	PS-530243	6.907289	79.863819	8.491061	81.104748	potkerney Thampalagamam, Sri Lanka	223.028906	#CenterFarFromPolice	ත්රිකුණාමලය	තඹලගමුව	මොල්ලිපතන සිංහල මහා විද්‍යාලය	திருகோணமலை	தம்பலகாமுவா	மொல்லிபத்தான சிங்கள மகா வித்தியாலயம்	පොට්කර්නි තම්පලාගමම්, ශ්‍රී ලංකාව	பாட்கர்னி தம்பலகாமம், இலங்கை
Trincomalee	Thambalagamuwa	Mollipathana Central Dispensary	False	False	TRNCMLTHMBLGMWMLLPTHNCNTRLDSPNSRY		Trincomalee	LK-53	8.551241	81.092014	Thambalagamuva	PS-530243	6.907289	79.863819	8.454476	81.062722	96 A6, Mullipotana, Sri Lanka	216.98052	#CenterFarFromPolice	ත්රිකුණාමලය	තඹලගමුව	මොල්ලිපතන මධ්‍යම බෙහෙත් ශාලාව	திருகோணமலை	தம்பலகாமுவா	மொல்லிபத்தான மத்திய மருந்தகம்	96 ඒ 6, මුලිපොතාන, ශ්‍රී ලංකාව	96 ஏ 6, முள்ளிபோதனா, இலங்கை
Trincomalee	Thambalagamuwa	Siraj Nagar Muslim College	False	False	TRNCMLTHMBLGMWSRJNGRMSLMCLLG		Trincomalee	LK-53	8.551241	81.092014	Thambalagamuva	PS-530243	6.907289	79.863819	8.465601	81.082906	Siraj Nagar,, Trincomalee, Sri Lanka	219.318228	#CenterFarFromPolice	ත්රිකුණාමලය	තඹලගමුව	සිරාජ් නගර් මුස්ලිම් විද්‍යාලය	திருகோணமலை	தம்பலகாமுவா	சிராஜ் நகர் முஸ்லிம் கல்லூரி	සිරාජ් නගර් ,, ත්‍රිකුණාමලය, ශ්‍රී ලංකාව	சிராஜ் நகர் ,, திருகோணமலை, இலங்கை
Trincomalee	Thambalagamuwa	Gantalawa Central Dispensary	False	False	TRNCMLTHMBLGMWGNTLWCNTRLDSPNSRY		Trincomalee	LK-53	8.551241	81.092014	Thambalagamuva	PS-530243	6.907289	79.863819	8.454476	81.062722	96 A6, Mullipotana, Sri Lanka	216.98052	#CenterFarFromPolice	ත්රිකුණාමලය	තඹලගමුව	ගන්තලාව මධ්‍යම බෙහෙත් ශාලාව	திருகோணமலை	தம்பலகாமுவா	கந்தலாவா மத்திய மருந்தகம்	96 ඒ 6, මුලිපොතාන, ශ්‍රී ලංකාව	96 ஏ 6, முள்ளிபோதனா, இலங்கை
Trincomalee	Batticaloa	Mobile Medical Team	False	False	TRNCMLBTTCLMBLMDCLTM		Trincomalee	LK-53	8.551241	81.092014	Batticaloa	PS-510101	7.717949	81.699294					#CenterLocationUnknown	ත්රිකුණාමලය	මඩකලපුව	ජංගම වෛද්‍ය කණ්ඩායම	திருகோணமலை	மட்டக்களப்பு	மொபைல் மருத்துவ குழு		
Trincomalee	Vavunathivu	MOH Office – Vavunathivu	False	False	TRNCMLVVNTHVMHFFCVVNTHV		Trincomalee	LK-53	8.551241	81.092014	Vavunathive	PS-510102	6.933075	79.857181	7.708253	81.691368	Hospital Rd, Batticaloa, Sri Lanka	219.95575	#CenterFarFromPolice	ත්රිකුණාමලය	වවුනතිව්	MOH කාර්යාලය - වවුනතිව්	திருகோணமலை	வவுணதீவு	MOH அலுவலகம் - வவுணதீவு	රෝහල පාර, මඩකලපුව, ශ්‍රී ලංකාව	மருத்துவமனை சாலை, மட்டக்களப்பு, இலங்கை
Trincomalee	Kattankudy	MOH Office – Kattankudy	False	False	TRNCMLKTTNKDYMHFFCKTTNKDY		Trincomalee	LK-53	8.551241	81.092014	Kaththankudi	PS-510103	7.715979	81.698757	7.683586	81.730767	MPMJ+C8J, Kattankudy, Sri Lanka	5.042961		ත්රිකුණාමලය	කාත්තන්කුඩි	MOH කාර්යාලය - කාත්තන්කුඩි	திருகோணமலை	காத்தான்குடி	MOH அலுவலகம் - காத்தான்குடி	එම්පීඑම්ජේ+සී 8 ජේ, කාත්තන්කුඩි, ශ්‍රී ලංකාව	MPMJ+C8J, காத்தான்குடி, இலங்கை
Ampara	Chavalakade	MOH Office – Navidanveli	False	False	MPRCHVLKDMHFFCNVDNVL		Ampara	LK-52	7.23699	81.550391	Chawalakade	PS-520125	7.413559	81.776822	7.420081	81.788401	B77, Sri Lanka	1.468805		අම්පාර	චවලකඩේ	MOH කාර්යාලය - නාවිදන්වේලි	அம்பாறை	சவளகடே	MOH அலுவலகம் - நாவிதன்வெளி	බී 77, ශ්‍රී ලංකාව	பி 77, இலங்கை
Ampara	Chavalakade	5th Colony Health Centre	False	False	MPRCHVLKDTHCLNYHLTHCNTR		Ampara	LK-52	7.23699	81.550391	Chawalakade	PS-520125	7.413559	81.776822	7.418836	81.781436	Chavalakade, Sri Lanka	0.776867		අම්පාර	චවලකඩේ	5 වන ජනපද සෞඛ්‍ය මධ්‍යස්ථානය	அம்பாறை	சவளகடே	5 வது காலனி சுகாதார மையம்	චවලකඩේ, ශ්‍රී ලංකාව	சவளகடே, இலங்கை
Ampara	Karaitivu	MOH Office – Karaitivu	False	False	MPRKRTVMHFFCKRTV		Ampara	LK-52	7.23699	81.550391	Karaitivu		9.744059	79.870587	7.377712	81.838796	Colombo-Ratnapura-Wellawaya-Batticaloa Highway, Karativu 32250, Sri Lanka	340.788666	#CenterFarFromPolice	අම්පාර	කාරතිව්	MOH කාර්යාලය - කරෙයිතිව්	அம்பாறை	காரைதீவு	MOH அலுவலகம் - காரைதீவு	කොළඹ-රත්නපුර-වැල්ලවාය-මඩකලපුව අධිවේගී මාර්ගය, කරතිවු 32250, ශ්‍රී ලංකාව	கொழும்பு-இரத்தினபுரி-வெள்ளவாயா-மட்டக்களப்பு நெடுஞ்சாலை, காரடிவு 32250, இலங்கை
Ampara	Kalmunai	Ashraff Memorial Hospital	False	False	MPRKLMNSHRFFMMRLHSPTL		Ampara	LK-52	7.23699	81.550391	Kalmunai	PS-520123	7.414289	81.825006	7.403172	81.831146	A4, Ashraff Memorial Base Hospital, A4 A4, Kalmunai 32300, Sri Lanka	1.409859		අම්පාර	කල්මුණේ	අෂ්රොෆ් අනුස්මරණ රෝහල	அம்பாறை	கல்முனை	அஷ்ரஃப் நினைவு மருத்துவமனை	ඒ 4, අෂ්රොෆ් අනුස්මරණ මූලික රෝහල, ඒ 4 ඒ 4, කල්මුණේ 32300, ශ්‍රී ලංකාව	A4, அஷ்ரஃப் மெமோரியல் பேஸ் ஹாஸ்பிடல், A4 A4, கல்முனை 32300, இலங்கை
Ampara	Kalmunai	MOH Office - Kalmunai North	False	False	MPRKLMNMHFFCKLMNNRTH		Ampara	LK-52	7.23699	81.550391	Kalmunai	PS-520123	7.414289	81.825006	7.411712	81.838462	CR6Q+M9P, Kalmunai 32300, Sri Lanka	1.511625		අම්පාර	කල්මුණේ	MOH කාර්යාලය - කල්මුණේ උතුර	அம்பாறை	கல்முனை	MOH அலுவலகம் - கல்முனை வடக்கு	CR6Q+M9P, කල්මුණේ 32300, ශ්‍රී ලංකාව	CR6Q+M9P, கல்முனை 32300, இலங்கை
Ampara	Kalmunai	MOH Office - Kalmunai South	False	False	MPRKLMNMHFFCKLMNSTH		Ampara	LK-52	7.23699	81.550391	Kalmunai	PS-520123	7.414289	81.825006	7.411712	81.838462	CR6Q+M9P, Kalmunai 32300, Sri Lanka	1.511625		අම්පාර	කල්මුණේ	MOH කාර්යාලය - කල්මුණේ දකුණ	அம்பாறை	கல்முனை	MOH அலுவலகம் - கல்முனை தெற்கு	CR6Q+M9P, කල්මුණේ 32300, ශ්‍රී ලංකාව	CR6Q+M9P, கல்முனை 32300, இலங்கை
Ampara	Kalmunai	Carmal Fatima Vidyalaya - Kalmunai	False	False	MPRKLMNCRMLFTMVDYLYKLMN		Ampara	LK-52	7.23699	81.550391	Kalmunai	PS-520123	7.414289	81.825006	7.419889	81.823933	Carmel Fatima College Rd, Kalmunai 32300, Sri Lanka	0.634031		අම්පාර	කල්මුණේ	කර්මල් ෆාතිමා විද්‍යාලය - කල්මුණේ	அம்பாறை	கல்முனை	கார்மல் பாத்திமா வித்தியாலயம் - கல்முனை	කර්මෙල් ෆාතිමා විද්‍යාලය පාර, කල්මුණේ 32300, ශ්‍රී ලංකාව	கார்மல் பாத்திமா கல்லூரி சாலை, கல்முனை 32300, இலங்கை
Ampara	Kalmunai	Base Hospital - Kalmunai North	False	False	MPRKLMNBSHSPTLKLMNNRTH		Ampara	LK-52	7.23699	81.550391	Kalmunai	PS-520123	7.414289	81.825006	7.420034	81.82232	hospital near, Kalmunai 32300, Sri Lanka	0.704353		අම්පාර	කල්මුණේ	මූලික රෝහල - කල්මුණේ උතුර	அம்பாறை	கல்முனை	அடிப்படை மருத்துவமனை - கல்முனை வடக்கு	රෝහල අසල, කල්මුණේ 32300, ශ්‍රී ලංකාව	மருத்துவமனை அருகில், கல்முனை 32300, இலங்கை
Ampara	Sainthamarthu	MOH Office – Sainthamarthu	False	False	MPRSNTHMRTHMHFFCSNTHMRTH		Ampara	LK-52	7.23699	81.550391									#PoliceLocationUnknown	අම්පාර	සයින්දමර්තු	MOH කාර්යාලය - සයින්දමර්තු	அம்பாறை	சாய்ந்தமருது	MOH அலுவலகம் - சாய்ந்தமருது		
Ampara	Sainthamarthu	Saindamarudu Hospital	False	False	MPRSNTHMRTHSNDMRDHSPTL		Ampara	LK-52	7.23699	81.550391									#PoliceLocationUnknown	අම්පාර	සයින්දමර්තු	සයින්දමරුදු රෝහල	அம்பாறை	சாய்ந்தமருது	சைந்தமருது மருத்துவமனை		
Ampara	Sammanthurai	Sammanthurai Base Hospital	False	False	MPRSMMNTHRSMMNTHRBSHSPTL		Ampara	LK-52	7.23699	81.550391	Samanthurai	PS-520124	7.365785	81.810859	7.368355	81.813042	9R96+MWM, Hospital Rd, Sammanthurai, Sri Lanka	0.373773		අම්පාර	සමන්තුරේ	සමන්තුරේ මූලික රෝහල	அம்பாறை	சம்மாந்துறை	சம்மாந்துறை அடிப்படை மருத்துவமனை	9R96+MWM, රෝහල් පාර, සමන්තුරේ, ශ්‍රී ලංකාව	9R96+MWM, மருத்துவமனை சாலை, சம்மாந்துறை, இலங்கை
Ampara	Sammanthurai	MOH Office – Nintavur	False	False	MPRSMMNTHRMHFFCNNTVR		Ampara	LK-52	7.23699	81.550391	Samanthurai	PS-520124	7.365785	81.810859	7.352821	81.856939	Hospital Rd, Nintavur 32340, Sri Lanka	5.283925		අම්පාර	සමන්තුරේ	එම්ඕඑච් කාර්යාලය - නින්දවූර්	அம்பாறை	சம்மாந்துறை	MOH அலுவலகம் - நிந்தவூர்	රෝහල පාර, නින්දවූර් 32340, ශ්‍රී ලංකාව	மருத்துவமனை Rd, நிந்தவூர் 32340, இலங்கை
Ampara	Sammanthurai	MOH Office - Sammanthurai	False	False	MPRSMMNTHRMHFFCSMMNTHR		Ampara	LK-52	7.23699	81.550391	Samanthurai	PS-520124	7.365785	81.810859	7.369857	81.812264	9R96+WWR, Sammanthurai, Sri Lanka	0.478712		අම්පාර	සමන්තුරේ	MOH කාර්යාලය - සම්මන්තුරේ	அம்பாறை	சம்மாந்துறை	MOH அலுவலகம் - சம்மாந்துறை	9R96+ඩබ්ලිව්ඩබ්ලිව්ආර්, සම්මන්තුරේ, ශ්‍රී ලංකාව	9R96+WWR, சம்மாந்துறை, இலங்கை
Ampara	Sammanthurai	Nintavur Hospital	False	False	MPRSMMNTHRNNTVRHSPTL		Ampara	LK-52	7.23699	81.550391	Samanthurai	PS-520124	7.365785	81.810859	7.353372	81.856852	Hospital Rd, Nintavur, Sri Lanka	5.258159		අම්පාර	සමන්තුරේ	නින්දවූර් රෝහල	அம்பாறை	சம்மாந்துறை	நிந்தவூர் மருத்துவமனை	රෝහල පාර, නින්දවූර්, ශ්‍රී ලංකාව	மருத்துவமனை Rd, நிந்தவூர், இலங்கை
Ampara	Sammanthurai	Darususalam Maha Vidyalaya	False	False	MPRSMMNTHRDRSSLMMHVDYLY		Ampara	LK-52	7.23699	81.550391	Samanthurai	PS-520124	7.365785	81.810859	7.370617	81.808855	AB33, Sammanthurai 32200, Sri Lanka	0.58115		අම්පාර	සමන්තුරේ	දරුසුසලම් මහා විද්‍යාලය	அம்பாறை	சம்மாந்துறை	தருசுசாலம் மகா வித்தியாலயம்	ඒබී 33, සම්මන්තුරේ 32200, ශ්‍රී ලංකාව	ஏபி 33, சம்மாந்துறை 32200, இலங்கை
Ampara	Sammanthurai	Kannahi Vidyalaya	False	False	MPRSMMNTHRKNNHVDYLY		Ampara	LK-52	7.23699	81.550391	Samanthurai	PS-520124	7.365785	81.810859	7.35018	81.80359	Kallarichchel 02, Sammanthurai, Sri Lanka	1.912014		අම්පාර	සමන්තුරේ	කන්නහි විද්‍යාලය	அம்பாறை	சம்மாந்துறை	கண்ணாஹி வித்யாலயா	කල්ලරිචෙල් 02, සම්මන්තුරේ, ශ්‍රී ලංකාව	கல்லறிச்செல் 02, சம்மாந்துறை, இலங்கை
Ampara	Thirukkovil	MOH Office – Thirukkovil	False	False	MPRTHRKKVLMHFFCTHRKKVL		Ampara	LK-52	7.23699	81.550391	Thirukkovil	PS-520127	7.113998	81.852219	7.111635	81.852892	Central Rd, Vinayagapuram, Sri Lanka	0.273131		අම්පාර	තිරුක්කෝවිල්	MOH කාර්යාලය - තිරුක්කෝවිල්	அம்பாறை	திருக்கோவில்	MOH அலுவலகம் - திருக்கோவில்	මධ්‍යම පාර, විනයාගපුරම්, ශ්‍රී ලංකාව	மத்திய வீதி, விநாயகபுரம், இலங்கை
Ampara	Akkaraipattu	MOH Office – Addalachenai	False	False	MPRKKRPTTMHFFCDDLCHN		Ampara	LK-52	7.23699	81.550391	Akkaraipattu	PS-520126	7.216084	81.853254	7.260916	81.853493	7V63+999, Addalaichenai, Sri Lanka	4.986726		අම්පාර	අක්කරපත්තුව	MOH කාර්යාලය - අද්දලචේනයි	அம்பாறை	அக்கரைப்பற்று	MOH அலுவலகம் - ஆடலச்சேனை	7V63+999, අද්දලෙයිචේනෙයි, ශ්‍රී ලංකාව	7V63+999, அடிலைச்சேனை, இலங்கை
Ampara	Akkaraipattu	MOH Office - Akkaraipattu	False	False	MPRKKRPTTMHFFCKKRPTT		Ampara	LK-52	7.23699	81.550391	Akkaraipattu	PS-520126	7.216084	81.853254	7.228134	81.851123	6VH2+7C5, Akkaraipattu, Sri Lanka	1.360772		අම්පාර	අක්කරපත්තුව	MOH කාර්යාලය - අක්කරපත්තුව	அம்பாறை	அக்கரைப்பற்று	MOH அலுவலகம் - அக்கரைப்பற்று	6VH2+7C5, අක්කරපත්තුව, ශ්‍රී ලංකාව	6VH2+7C5, அக்கரைப்பற்று, இலங்கை
Ampara	Akkaraipattu	MOH Office - Alayadivembu	False	False	MPRKKRPTTMHFFCLYDVMB		Ampara	LK-52	7.23699	81.550391	Akkaraipattu	PS-520126	7.216084	81.853254	7.228134	81.851123	6VH2+7C5, Akkaraipattu, Sri Lanka	1.360772		අම්පාර	අක්කරපත්තුව	එම්ඕඑච් කාර්යාලය - අලයාදිවෙම්බු	அம்பாறை	அக்கரைப்பற்று	MOH அலுவலகம் - ஆலையடிவேம்பு	6VH2+7C5, අක්කරපත්තුව, ශ්‍රී ලංකාව	6VH2+7C5, அக்கரைப்பற்று, இலங்கை
Ampara	Pottuvil	MOH Office – Pottuvil	False	False	MPRPTTVLMHFFCPTTVL		Ampara	LK-52	7.23699	81.550391	Pothuvil	PS-520128	6.878387	81.826859	6.877076	81.828969	B374, Pottuvil, Sri Lanka	0.274874		අම්පාර	පොතුවිල්	එම්ඕඑච් කාර්යාලය - පොතුවිල්	அம்பாறை	பொட்டுவில்	MOH அலுவலகம் - பொத்துவில்	බී 374, පොතුවිල්, ශ්‍රී ලංකාව	B374, பொத்துவில், இலங்கை
Ampara	Ampara	Ampara Hospital	False	False	MPRMPRMPRHSPTL		Ampara	LK-52	7.23699	81.550391	Ampara	PS-520113	7.296771	81.677161	7.298334	81.690841	Dharmapala Mawatha, Ampara, Sri Lanka	1.519279		අම්පාර	අම්පාර	අම්පාර රෝහල	அம்பாறை	அம்பாறை	அம்பாறை மருத்துவமனை	ධර්මපාල මාවත, අම්පාර, ශ්‍රී ලංකාව	தர்மபால மாவத்தை, அம்பாறை, இலங்கை
