district	police	center	dose1	dose2	fuzzy_key	alt_name	district_name_norm	district_id	district_lat	district_lng	ps_name_norm	ps_id	ps_lat	ps_lng	lat	lng	formatted_address	dis_center_to_police	tags
Colombo	Cinnamon Gardens	Viharamahadevi Park	False	True	CLMBCNNMNGRDNSVHRMHDVPRK		Colombo	LK-11	6.869636	80.019598	Cinnamon Garden	PS-110324	6.907289	79.863819	6.913391	79.86174	Viharamahadevi Park, Colombo, Sri Lanka	0.716497	
Colombo	Grandpass	Sugathadasa Outdoor Stadium	False	True	CLMBGRNDPSSSGTHDSTDRSTDM		Colombo	LK-11	6.869636	80.019598	Grandpass	PS-110215	6.949052	79.872983	6.94806	79.868842	Prince of Wales Ave, Colombo 01400, Sri Lanka	0.470345	
Colombo	Colombo	Mobile Medical Team - Colombo	True	True	CLMBCLMBMBLMDCLTMCLMB		Colombo	LK-11	6.869636	80.019598									#CenterLocationUnknown
Colombo	Narahenpita	Army Hospital Narahenpita	False	False	CLMBNRHNPTRMYHSPTLNRHNPT		Colombo	LK-11	6.869636	80.019598	Narahenpita	PS-110321	6.891832	79.876715	6.900252	79.87618	08 Elvitigala Mawatha, Colombo 00800, Sri Lanka	0.938417	
Colombo	Boralesgamuwa	Kotelawala Defence Hospital	False	True	CLMBBRLSGMWKTLWLDFNCHSPTL		Colombo	LK-11	6.869636	80.019598	Boralesgamuwa	PS-110464	6.841331	79.901255	6.82518	79.907167	RWG4+3VF, Boralesgamuwa, Sri Lanka	1.911444	
Colombo	Boralesgamuwa	MOH Office - Werahera	False	False	CLMBBRLSGMWMHFFCWRHR		Colombo	LK-11	6.869636	80.019598	Boralesgamuwa	PS-110464	6.841331	79.901255	6.833094	79.905583	RWM4+66P, Boralesgamuwa, Sri Lanka	1.033386	
Gampaha	Gampaha	MOH Office – Gampaha	False	False	GMPHGMPHMHFFCGMPH		Gampaha	LK-12	7.123598	80.018508	Gampaha	PS-120237	7.087765	80.01228	7.17227	79.956823	Katunayake-Veyangoda Rd, Minuwangoda, Sri Lanka	11.216745	
Gampaha	Nittambuwa	Urapola Centarl College	False	False	GMPHNTTMBWRPLCNTRLCLLG		Gampaha	LK-12	7.123598	80.018508	Nittambuwa	PS-120246	7.149726	80.10046	7.098949	80.144672	No. 280, Nittambuwa - Ruwanwella Rd, Urapola, Sri Lanka	7.463959	
Gampaha	Nittambuwa	Vidyananda Pirivena	False	False	GMPHNTTMBWVDYNNDPRVN		Gampaha	LK-12	7.123598	80.018508	Nittambuwa	PS-120246	7.149726	80.10046	7.144907	80.092391	Negambo road, Nittambuwa, Sri Lanka	1.039411	
Gampaha	Minuwangoda	MOH Office – Minuwangoda	False	False	GMPHMNWNGDMHFFCMNWNGD		Gampaha	LK-12	7.123598	80.018508	Minuwangoda	PS-120238	7.174215	79.957874	7.17227	79.956823	Katunayake-Veyangoda Rd, Minuwangoda, Sri Lanka	0.245525	
Gampaha	Bemmulla	Bandarabatawala Pirivena	False	False	GMPHBMMLLBNDRBTWLPRVN		Gampaha	LK-12	7.123598	80.018508	Bemmulla		7.120846	80.026097	7.103522	80.007116	4234+CR5, Gampaha, Sri Lanka	2.846433	
Gampaha	Divulapitiya	MOH Office – Divulapitiya	False	False	GMPHDVLPTYMHFFCDVLPTY		Gampaha	LK-12	7.123598	80.018508	Diulapitiya	PS-120355	7.174215	79.957874	7.215486	80.013606	6287+5CX, Divulapitiya, Sri Lanka	7.67456	
Gampaha	Katana	MOH Office – Katana	False	False	GMPHKTNMHFFCKTN		Gampaha	LK-12	7.123598	80.018508	Katana	PS-120360	7.224796	79.880015	7.22436	79.88271	Katana, Negombo - Mirigama Rd, Negombo, Sri Lanka	0.301313	
Gampaha	Biyagama	MOH Office – Biyagama	False	False	GMPHBYGMMHFFCBYGM		Gampaha	LK-12	7.123598	80.018508	Biyagama	PS-120131	6.962284	80.009037	6.946824	79.994052	Hospital Rd, Sri Lanka	2.386313	
Kalutara	Beruwala	Al Pathiatul Nasria Balika Maha Vidyalaya - Beruwala	True	False	KLTRBRWLLPTHTLNSRBLKMHVDYLYBRWL		Kalutara	LK-13	6.577316	80.127363	Beruwala	PS-1302102	6.480329	79.983498	6.465274	79.975427	12/7 Maradana Rd, Beruwala, Sri Lanka	1.897329	
Kalutara	Millaniya	MOH Office – Millaniya	False	False	KLTRMLLNYMHFFCMLLNY		Kalutara	LK-13	6.577316	80.127363	Millaniya	PS-130191	6.681692	80.020847	6.724224	79.907284	A2, Panadura, Sri Lanka	13.407612	
Kalutara	Dodangoda	MOH Office – Dodangoda	False	False	KLTRDDNGDMHFFCDDNGD	6.540366199937832,80.03661033076219	Kalutara	LK-13	6.577316	80.127363	Dodangoda	PS-130299	6.553375	80.023569	6.541731	80.04335	Dodangoda, Sri Lanka	2.540775	
Kalutara	Dodangoda	Dodangoda Hospital	False	False	KLTRDDNGDDDNGDHSPTL		Kalutara	LK-13	6.577316	80.127363	Dodangoda	PS-130299	6.553375	80.023569	6.540961	80.036553	Wilpatha Rd, Sri Lanka	1.991373	
Kalutara	Thebuwana	Nebada Hospital	False	False	KLTRTHBWNNBDHSPTL		Kalutara	LK-13	6.577316	80.127363	Thebuwana	PS-1302105	6.654997	80.058183	6.563228	79.985261	Kalutara-Matugama Rd, Sri Lanka	13.004249	
Kalutara	Matugama	Katugahahena Hospital	False	False	KLTRMTGMKTGHHNHSPTL		Kalutara	LK-13	6.577316	80.127363	Mathugama	PS-1302103	6.520881	80.117908	6.489328	80.08471	F3QM+PVP, Bopitiya, Sri Lanka	5.077192	
Kalutara	Matugama	Ananda Shashthralaya	False	False	KLTRMTGMNNDSHSHTHRLY		Kalutara	LK-13	6.577316	80.127363	Mathugama	PS-1302103	6.520881	80.117908	6.524298	80.116714	Ananda Sasthralaya Rd, Matugama, Sri Lanka	0.402325	
Kalutara	Welipenna	Rahumaniya Maha Vidyalaya	False	False	KLTRWLPNNRHMNYMHVDYLY		Kalutara	LK-13	6.577316	80.127363	Welipanna	PS-1302101	6.467428	80.108313	6.465024	80.101427	Aluthgama - Mathugama Rd, Welipenna, Sri Lanka	0.806664	
Kalutara	Anguruwatota	MOH Office – Madurawala	False	False	KLTRNGRWTTMHFFCMDRWL		Kalutara	LK-13	6.577316	80.127363	Anguruwatota	PS-130190	6.654997	80.058183	6.654814	80.057811	M335+W4F, Keselhenawa, Sri Lanka	0.045863	
Kalutara	Agalawatta	Pimbura Hospital	False	False	KLTRGLWTTPMBRHSPTL		Kalutara	LK-13	6.577316	80.127363	Agalawatta		6.542566	80.157178	6.575949	80.158371	H5G5+98H, කළුතර, Sri Lanka	3.715525	
Kurunegala	Rasnayakapura	MOH Office – Rasnayakapura	False	False	KRNGLRSNYKPRMHFFCRSNYKPR		Kurunegala	LK-61	7.66477	80.23677	Rasnayakapura	PS-610323	7.776658	80.012692	7.812336	80.080579	R36J+W6P, Sri Lanka	8.468673	
Kurunegala	Weerambugedara	Uhumiya DS Senanayake College	False	False	KRNGLWRMBGDRHMYDSSNNYKCLLG		Kurunegala	LK-61	7.66477	80.23677	Weerambugedara	PS-610106	7.476107	80.242797	7.476521	80.242587	Weerambugedara, Sri Lanka	0.051545	
Kurunegala	Kurunegala	Udabadalawa Maha Vidyalaya	False	False	KRNGLKRNGLDBDLWMHVDYLY		Kurunegala	LK-61	7.66477	80.23677	Kurunegala	PS-610101	7.485852	80.364137	7.521432	80.331581	Katugastota-Kurunegala-Puttalam Hwy, Kurunegala, Sri Lanka	5.34338	
Kurunegala	Kurunegala	Wilbawa Viharaya	False	False	KRNGLKRNGLWLBWVHRY		Kurunegala	LK-61	7.66477	80.23677	Kurunegala	PS-610101	7.485852	80.364137	7.464194	80.357021	F974+MRC, Kurunegala, Sri Lanka	2.533623	
Puttalam	Chilaw	Ambakadawila Church	False	False	PTTLMCHLWMBKDWLCHRCH		Puttalam	LK-62	7.973531	79.913833	Chilaw	PS-620241	7.576197	79.788003	7.561989	79.801657	HR62+QMV, Chilaw, Sri Lanka	2.182669	
Puttalam	Chilaw	Aluthwatta Church	False	False	PTTLMCHLWLTHWTTCHRCH		Puttalam	LK-62	7.973531	79.913833	Chilaw	PS-620241	7.576197	79.788003	7.561989	79.801657	HR62+QMV, Chilaw, Sri Lanka	2.182669	
Puttalam	Chilaw	Medawatta Churach	False	False	PTTLMCHLWMDWTTCHRCH		Puttalam	LK-62	7.973531	79.913833	Chilaw	PS-620241	7.576197	79.788003	7.55716	79.789132	Ambakandawila Rd, Chilaw, Sri Lanka	2.121138	
Puttalam	Chilaw	Weralabada South College	False	False	PTTLMCHLWWRLBDSTHCLLG		Puttalam	LK-62	7.973531	79.913833	Chilaw	PS-620241	7.576197	79.788003	7.571297	79.799123	Puttalam - Colombo Rd, Chilaw, Sri Lanka	1.341767	
Puttalam	Chilaw	Kurusapaduwa Church	False	False	PTTLMCHLWKRSPDWCHRCH		Puttalam	LK-62	7.973531	79.913833	Chilaw	PS-620241	7.576197	79.788003	8.1255	79.726198	4PGG+5FW, Puttalam, Sri Lanka	61.477237	#CenterFarFromPolice
Puttalam	Chilaw	Iranawila Catholic Church	False	False	PTTLMCHLWRNWLCTHLCCHRCH		Puttalam	LK-62	7.973531	79.913833	Chilaw	PS-620241	7.576197	79.788003	7.495154	79.807481	Iranawila Rd, Sri Lanka	9.266744	
Puttalam	Puttalam	Veppamadu Muslim Vidyalaya	False	False	PTTLMPTTLMVPPMDMSLMVDYLY		Puttalam	LK-62	7.973531	79.913833	Puttalam	PS-620130	8.029904	79.834396	8.074579	79.837711	Mannar Rd, Puttalam 61300, Sri Lanka	4.982587	
Puttalam	Puttalam	Attavilluwa Primary School	False	False	PTTLMPTTLMTTVLLWPRMRYSCHL		Puttalam	LK-62	7.973531	79.913833	Puttalam	PS-620130	8.029904	79.834396	7.986103	79.880264	Palaviya - Kalladiya Rd, Kalladiya, Sri Lanka	7.018567	
Puttalam	Puttalam	Thilladi Muslim Maha Vidyalaya	False	False	PTTLMPTTLMTHLLDMSLMMHVDYLY		Puttalam	LK-62	7.973531	79.913833	Puttalam	PS-620130	8.029904	79.834396	8.004413	79.844478	2R3V+QQ9, Puttalam, Sri Lanka	3.045059	
Puttalam	Puttalam	Ananda National College	False	False	PTTLMPTTLMNNDNTNLCLLG		Puttalam	LK-62	7.973531	79.913833	Puttalam	PS-620130	8.029904	79.834396	7.571297	79.799123	Puttalam - Colombo Rd, Chilaw, Sri Lanka	51.158667	#CenterFarFromPolice
Puttalam	Puttalam	Fathima National School	False	False	PTTLMPTTLMFTHMNTNLSCHL		Puttalam	LK-62	7.973531	79.913833	Puttalam	PS-620130	8.029904	79.834396	8.032756	79.832857	37 Poles Rd, Puttalam 61300, Sri Lanka	0.359673	
Puttalam	Puttalam	Visadarrama Viharaya	False	False	PTTLMPTTLMVSDRRMVHRY		Puttalam	LK-62	7.973531	79.913833	Puttalam	PS-620130	8.029904	79.834396	8.028546	79.853854	2VH3+CG9, Puttalam, Sri Lanka	2.14841	
Puttalam	Puttalam	Manalgundu Muslim Vidyalaya	False	False	PTTLMPTTLMMNLGNDMSLMVDYLY		Puttalam	LK-62	7.973531	79.913833	Puttalam	PS-620130	8.029904	79.834396	7.951082	79.806461	Puluthivayal Rd, Puluthivayal, Sri Lanka	9.291648	
Puttalam	Puttalam	Palavi Sinhala Vidyalaya	False	False	PTTLMPTTLMPLVSNHLVDYLY		Puttalam	LK-62	7.973531	79.913833	Puttalam	PS-620130	8.029904	79.834396	8.02676	79.838078	Puttalam South, Sri Lanka	0.535493	
Puttalam	Puttalam	Divisional Secretariat Office - Puttalam	False	False	PTTLMPTTLMDVSNLSCRTRTFFCPTTLM		Puttalam	LK-62	7.973531	79.913833	Puttalam	PS-620130	8.029904	79.834396	8.030562	79.835452	2RJP+65G, Puttalam, Sri Lanka	0.137419	
Puttalam	Udappu	Udappuwa Hospital	False	False	PTTLMDPPDPPWHSPTL		Puttalam	LK-62	7.973531	79.913833	Udappuwa	PS-620140	7.759695	79.788518	7.75967	79.789379	QQ5Q+VQ6, Udappu, Sri Lanka	0.094933	
Puttalam	Mundalama	Andimunai Vidyalaya	False	False	PTTLMMNDLMNDMNVDYLY		Puttalam	LK-62	7.973531	79.913833	Mundal	PS-620138	7.808859	79.825729	7.760994	79.790111	QQ6R+92X, Udappu, Sri Lanka	6.614597	
Puttalam	Mundalama	Pandalaya Community Hall	False	False	PTTLMMNDLMPNDLYCMMNTYHLL		Puttalam	LK-62	7.973531	79.913833	Mundal	PS-620138	7.808859	79.825729	7.577257	79.798877	Sinhapura Rd, Chilaw, Sri Lanka	25.930533	#CenterFarFromPolice
Puttalam	Mundalama	Kandathoduwawa Community Hall	False	False	PTTLMMNDLMKNDTHDWWCMMNTYHLL		Puttalam	LK-62	7.973531	79.913833	Mundal	PS-620138	7.808859	79.825729	8.036153	79.829536	2RPH+FR7, Puttalam, Sri Lanka	25.285352	#CenterFarFromPolice
Puttalam	Mundalama	Mukku Thoduwawa Community Hall	False	False	PTTLMMNDLMMKKTHDWWCMMNTYHLL		Puttalam	LK-62	7.973531	79.913833	Mundal	PS-620138	7.808859	79.825729	7.485903	79.803058	Thoduwawa, Sri Lanka	36.009179	#CenterFarFromPolice
Puttalam	Arachchikattuwa	Karukapanai Churach	False	False	PTTLMRCHCHKTTWKRKPNCHRCH		Puttalam	LK-62	7.973531	79.913833	Arachchikattuwa	PS-620247	7.65944	79.837772	7.591399	79.827877	Chilaw-Munneswarama-Tissogama, Sri Lanka	7.646406	
Puttalam	Arachchikattuwa	Muthupalliya Churach	False	False	PTTLMRCHCHKTTWMTHPLLYCHRCH		Puttalam	LK-62	7.973531	79.913833	Arachchikattuwa	PS-620247	7.65944	79.837772	7.591399	79.827877	Chilaw-Munneswarama-Tissogama, Sri Lanka	7.646406	
Puttalam	Arachchikattuwa	Arachchikattuwa Viharaya	False	False	PTTLMRCHCHKTTWRCHCHKTTWVHRY		Puttalam	LK-62	7.973531	79.913833	Arachchikattuwa	PS-620247	7.65944	79.837772	7.461124	79.842169	FR6R+CVV, Madampe, Sri Lanka	22.063983	#CenterFarFromPolice
Puttalam	Arachchikattuwa	Kottapitiya Churach	False	False	PTTLMRCHCHKTTWKTTPTYCHRCH		Puttalam	LK-62	7.973531	79.913833	Arachchikattuwa	PS-620247	7.65944	79.837772	7.656449	79.838078	Rajakadaluwa, Sri Lanka	0.334394	
Puttalam	Arachchikattuwa	Nalladarankattuwa Viharaya	False	False	PTTLMRCHCHKTTWNLLDRNKTTWVHRY		Puttalam	LK-62	7.973531	79.913833	Arachchikattuwa	PS-620247	7.65944	79.837772	7.669298	79.835761	Puttalam - Colombo Rd, Nalladarankattuwa, Sri Lanka	1.118689	
Puttalam	Arachchikattuwa	Anavilundawa Churach	False	False	PTTLMRCHCHKTTWNVLNDWCHRCH		Puttalam	LK-62	7.973531	79.913833	Arachchikattuwa	PS-620247	7.65944	79.837772	7.663717	79.839303	Nalladarankattuwa, Sri Lanka	0.50478	
Puttalam	Kalpitiya	District Hospital – Kalpitiya	False	False	PTTLMKLPTYDSTRCTHSPTLKLPTY		Puttalam	LK-62	7.973531	79.913833	Kalpitiya	PS-620137	8.235145	79.764567	8.235596	79.766951	6QP8+6QP, Kalpitiya, Sri Lanka	0.267189	
Puttalam	Kalpitiya	Al Aksha National School - Kalpitiya	False	False	PTTLMKLPTYLKSHNTNLSCHLKLPTY		Puttalam	LK-62	7.973531	79.913833	Kalpitiya	PS-620137	8.235145	79.764567	8.231092	79.76204	Al Aqsa School Rd, Kalpitiya, Sri Lanka	0.529734	
Puttalam	Kalpitiya	Kandakkuliya Sinhala Vidyalaya	False	False	PTTLMKLPTYKNDKKLYSNHLVDYLY		Puttalam	LK-62	7.973531	79.913833	Kalpitiya	PS-620137	8.235145	79.764567	8.237069	79.760536	6QP6+R6F, Kalpitiya, Sri Lanka	0.492653	
Puttalam	Kalpitiya	St. Peter's College – Palakudawa	False	False	PTTLMKLPTYSTPTRSCLLGPLKDW		Puttalam	LK-62	7.973531	79.913833	Kalpitiya	PS-620137	8.235145	79.764567					#CenterLocationUnknown
Puttalam	Kalpitiya	Musalpitiya Muslim Maha Vidyalaya	False	False	PTTLMKLPTYMSLPTYMSLMMHVDYLY		Puttalam	LK-62	7.973531	79.913833	Kalpitiya	PS-620137	8.235145	79.764567	8.102367	79.73026	Etalai, Sri Lanka	15.244252	
Puttalam	Norochcholai	Daluwa St. Anthony's College	False	False	PTTLMNRCHCHLDLWSTNTHNYSCLLG		Puttalam	LK-62	7.973531	79.913833	Norochcholey	PS-620139	6.900777	79.872638	7.979176	79.755536	XQH4+M6F, Puttalam, Sri Lanka	120.643455	#CenterFarFromPolice
Puttalam	Norochcholai	Ulukkapallama Muslim College	False	False	PTTLMNRCHCHLLKKPLLMMSLMCLLG		Puttalam	LK-62	7.973531	79.913833	Norochcholey	PS-620139	6.900777	79.872638	8.050195	79.736044	3P2P+3CF, Norochcholai, Sri Lanka	128.73397	#CenterFarFromPolice
Puttalam	Norochcholai	Norochcholai Muslim Maha Vidyalaya	False	False	PTTLMNRCHCHLNRCHCHLMSLMMHVDYLY		Puttalam	LK-62	7.973531	79.913833	Norochcholey	PS-620139	6.900777	79.872638	8.050195	79.736044	3P2P+3CF, Norochcholai, Sri Lanka	128.73397	#CenterFarFromPolice
Puttalam	Norochcholai	Narakkalliya Roman Catholic College	False	False	PTTLMNRCHCHLNRKKLLYRMNCTHLCCLLG		Puttalam	LK-62	7.973531	79.913833	Norochcholey	PS-620139	6.900777	79.872638	8.018727	79.731575	Narakkalliya, Sri Lanka	125.318804	#CenterFarFromPolice
Puttalam	Wennappuwa	Ulhitiyawa St. Xavier Catholic Church	False	False	PTTLMWNNPPWLHTYWSTXVRCTHLCCHRCH		Puttalam	LK-62	7.973531	79.913833	Wennappuwa	PS-620245	7.339623	79.843017	7.345648	79.831869	8RWJ+7P5, Wennappuwa, Sri Lanka	1.400563	
Puttalam	Marawila	St.Sebastian Primary College - Katuneriya	False	False	PTTLMMRWLSTSBSTNPRMRYCLLGKTNRY		Puttalam	LK-62	7.973531	79.913833	Marawila	PS-620243	7.415075	79.839776	7.364706	79.832758	9R7M+V4J, Katuneriya, Sri Lanka	5.655765	
Puttalam	Marawila	At St. Anthony's Church, Thoduwawa	False	False	PTTLMMRWLTSTNTHNYSCHRCHTHDWW		Puttalam	LK-62	7.973531	79.913833	Marawila	PS-620243	7.415075	79.839776	7.476679	79.804902	FRG3+MXC, Thoduwawa, Sri Lanka	7.857917	
Kandy	Theldeniya	Theldeniya National College	False	False	KNDYTHLDNYTHLDNYNTNLCLLG		Kandy	LK-21	7.27337	80.709602	Theldeniya	PS-210356	7.309853	80.76426	7.308862	80.762491	8Q56+GXX, Karalliyadda, Sri Lanka	0.224144	
Kandy	Thalathuoya	Gurudeniya Central College	False	False	KNDYTHLTHYGRDNYCNTRLCLLG		Kandy	LK-21	7.27337	80.709602	Thalathuoya	PS-210107	7.25166	80.689528	7.252506	80.690643	Talatuoya-Gurudeniya, Thalathuoya, Sri Lanka	0.15489	
Kandy	Kandy	Ampitiya Berevets Vidyalaya	False	False	KNDYKNDYMPTYBRVTSVDYLY		Kandy	LK-21	7.27337	80.709602	Kandy	PS-210101	7.292948	80.642368	7.2812	80.655203	7MJ4+F3P, Ampitiya, Sri Lanka	1.926967	
Kandy	Kandy	Mahamaya Usas Balika Vidyalaya	False	False	KNDYKNDYMHMYSSBLKVDYLY		Kandy	LK-21	7.27337	80.709602	Kandy	PS-210101	7.292948	80.642368	7.286638	80.64566	Sangaraja Mawatha, Kandy, Sri Lanka	0.790271	
Kandy	Kandy	Mahamaya Girls College	False	False	KNDYKNDYMHMYGRLSCLLG		Kandy	LK-21	7.27337	80.709602	Kandy	PS-210101	7.292948	80.642368	7.286638	80.64566	Sangaraja Mawatha, Kandy, Sri Lanka	0.790271	
Kandy	Poojapitiya	Poojapitiya Primary School	False	False	KNDYPJPTYPJPTYPRMRYSCHL		Kandy	LK-21	7.27337	80.709602	Poojapitiya	PS-210115	7.372938	80.587619	7.365084	80.601755	Ahalagashinna, Poojapitiya Road, Pujapitiya, Sri Lanka	1.787489	
Kandy	Wattegama	Walala A.Rathnayake Central College	False	False	KNDYWTTGMWLLRTHNYKCNTRLCLLG		Kandy	LK-21	7.27337	80.709602	Wattegama	PS-210357	7.350603	80.68335	7.318909	80.693359	8M9V+H89, Menikhinna, Sri Lanka	3.694199	
Kandy	Katugastota	Nugawela Maha Vidyalaya	False	False	KNDYKTGSTTNGWLMHVDYLY		Kandy	LK-21	7.27337	80.709602	Katugastota	PS-210103	7.332014	80.623006	7.326749	80.586953	8HGP+MQW, Nugawela, Sri Lanka	4.020285	
Kandy	Katugastota	Kandy Ananda College - Gonigoda	False	False	KNDYKTGSTTKNDYNNDCLLGGNGD		Kandy	LK-21	7.27337	80.709602	Katugastota	PS-210103	7.332014	80.623006	7.346769	80.580787	B206, Medawala, Sri Lanka	4.938236	
Kandy	Ankumbura	Gilihinna Primary School	False	False	KNDYNKMBRGLHNNPRMRYSCHL		Kandy	LK-21	7.27337	80.709602	Ankumbura	PS-210104	7.438826	80.571939	7.380409	80.543718	Henegama, Harankahawa, Kandy, Galagedara, Sri Lanka	7.204848	
Kandy	Hatharaliyadda	Hatharaliyadda Maha Vidyalaya	False	False	KNDYHTHRLYDDHTHRLYDDMHVDYLY		Kandy	LK-21	7.27337	80.709602	Hatharaliyadda	PS-210106	7.336886	80.471814	7.33578	80.471154	Hatharaliyadda, Sri Lanka	0.142952	
Matale	Mahawela	Pallepola Hospital	False	False	MTLMHWLPLLPLHSPTL		Matale	LK-22	7.667587	80.731008	Mahawela	PS-220123	7.589247	80.61027	7.627907	80.606017	Pallepola 21000, Sri Lanka	4.325634	
Matale	Matale	Kavudupelella Tea Factory	False	False	MTLMTLKVDPLLLTFCTRY		Matale	LK-22	7.667587	80.731008	Matale	PS-220121	7.462789	80.626211	7.46103	80.649559	Matale, Sri Lanka	2.582424	
Matale	Matale	Kuriwela Mahinda Rajapaksa Vidyalaya	False	False	MTLMTLKRWLMHNDRJPKSVDYLY		Matale	LK-22	7.667587	80.731008	Matale	PS-220121	7.462789	80.626211	7.4096	80.648257	Mahinda Rajapaksha Navodya Vidyalaya, Kuriwela, Ukuwela, Sri Lanka	6.396397	
Matale	Raththota	Raththota Hindu Vidyalaya	False	False	MTLRTHTHTRTHTHTHNDVDYLY		Matale	LK-22	7.667587	80.731008	Rattota	PS-220122	7.520684	80.678809	7.520682	80.676395	B274, Rattota, Sri Lanka	0.266199	
Matale	Raththota	Pussella Navodya Vidyalaya	False	False	MTLRTHTHTPSSLLNVDYVDYLY		Matale	LK-22	7.667587	80.731008	Rattota	PS-220122	7.520684	80.678809	7.558063	80.680425	HM5J+65F, Matale, Sri Lanka	4.161477	
Matale	Yatawatta	Udasgiriya Vidyalaya	False	False	MTLYTWTTDSGRYVDYLY		Matale	LK-22	7.667587	80.731008	Yatawatta	PS-220124	7.563527	80.567967	7.539384	80.578578	GHQH+QC4, Matale, Sri Lanka	2.92924	
Matale	Wilgamuwa	Medakanda Primary School	False	False	MTLWLGMWMDKNDPRMRYSCHL		Matale	LK-22	7.667587	80.731008	Wilgamuwa	PS-220127	7.542012	80.916496	7.514605	80.925906	GW7G+R9R, Matale, Sri Lanka	3.220237	
Badulla	Rideemaliyadda	MOH Office – Rideemaliyadda	False	False	BDLLRDMLYDDMHFFCRDMLYDD		Badulla	LK-81	7.074529	81.04486	Rideemaliyadda		7.214807	81.124613	7.236705	81.107802	B57, Uraniya, Sri Lanka	3.061673	
Badulla	Kandaketiya	MOH Office – Kandaketiya	False	False	BDLLKNDKTYMHFFCKNDKTY		Badulla	LK-81	7.074529	81.04486	Kandaketiya	PS-810107	7.195551	81.01958	7.138814	81.050128	Mahiyangane Road, Meegahakivula, Sri Lanka	7.15489	
Badulla	Kandaketiya	MOH Office – Meegahakivula	False	False	BDLLKNDKTYMHFFCMGHKVL		Badulla	LK-81	7.074529	81.04486	Kandaketiya	PS-810107	7.195551	81.01958	7.138672	81.049956	MOH, Meegahakivula, Sri Lanka	7.159918	
Badulla	Bandarawela	MOH Office – Bandarawela	False	False	BDLLBNDRWLMHFFCBNDRWL		Badulla	LK-81	7.074529	81.04486	Bandarawela	PS-810210	6.831526	80.986784	6.841272	80.98482	Hospital Junction Helamuduna Bus Stop, Etampitiya Rd, Bandarawela, Sri Lanka	1.105533	
Badulla	Uva Paranagama	MOH Office - Uva Paranagama	False	False	BDLLVPRNGMMHFFCVPRNGM		Badulla	LK-81	7.074529	81.04486	Uvaparanagama	PS-810213	6.958341	80.930364	6.927934	80.896475	Udapussellawa-Welimada Road, Ambagasdowa, Sri Lanka	5.043837	
Badulla	Haputale	MOH Office – Haputale	False	False	BDLLHPTLMHFFCHPTL		Badulla	LK-81	7.074529	81.04486	Haputale	PS-810215	6.767653	80.957218	6.779645	80.964114	QXH7+WC4, Badulla, Sri Lanka	1.536024	
Galle	Elpitiya	MOH Office – Elpitiya	False	False	GLLLPTYMHFFCLPTY		Galle	LK-31	6.222805	80.251977	Elpitiya	PS-310235	6.279163	80.142917	6.295308	80.164521	75W7+4RC, Elpitiya, Sri Lanka	2.98833	
Galle	Morawaka	MOH Office – Morawaka	False	False	GLLMRWKMHFFCMRWK		Galle	LK-31	6.222805	80.251977	Morawaka	PS-320107	6.256777	80.493654	6.243466	80.493022	Deniyaya Road, Kosnilgoda, Morawaka., Sri Lanka	1.482228	
Matara	Deniyaya	MOH Office – Kotapola	False	False	MTRDNYYMHFFCKTPL		Matara	LK-32	6.142734	80.539994	Deniyaya	PS-320110	6.341435	80.558719	6.327334	80.556547	Deniyaya - Galle Main Rd, Deniyaya, Sri Lanka	1.586725	
Hambantota	Walasmulla	MOH Office – Walasmulla	False	False	HMBNTTWLSMLLMHFFCWLSMLL		Hambantota	LK-33	6.259779	81.098619	Walasmulla	PS-330151	6.154102	80.698256	6.150889	80.693718	Walasmulla, Sri Lanka	0.616099	
Hambantota	Tangalle	MOH Office – Tangalle	False	False	HMBNTTTNGLLMHFFCTNGLL		Hambantota	LK-33	6.259779	81.098619	Tangalle	PS-330147	6.023954	80.797255	6.02363	80.795742	2QFW+F75, Tangalle, Sri Lanka	0.171198	
Hambantota	Katuwana	MOH Office – Katuwana	False	False	HMBNTTKTWNMHFFCKTWN		Hambantota	LK-33	6.259779	81.098619	Katuwana	PS-330153	6.269722	80.690963	6.26627	80.693035	7M8V+G63, Katuwana, Sri Lanka	0.447115	
Hambantota	Angunakolapelessa	MH Office – Angunakolapelessa	False	False	HMBNTTNGNKLPLSSMHFFCNGNKLPLSS		Hambantota	LK-33	6.259779	81.098619	Angunakolapelessa	PS-330150	6.321993	80.844883	6.146942	80.896312	Ranna - Ebilipitiya Rd, Agunukolapelessa, Sri Lanka	20.284309	#CenterFarFromPolice
Hambantota	Beliatta	MOH Office – Beliatta	False	False	HMBNTTBLTTMHFFCBLTT		Hambantota	LK-33	6.259779	81.098619	Beliatta	PS-330152	6.046936	80.735408	6.051828	80.741735	3P2R+PMQ, Hambantota, Sri Lanka	0.886482	
Rathnapura	Balangoda	Buddha Jayanthi Vidyalaya	False	False	RTHNPRBLNGDBDDHJYNTHVDYLY		Ratnapura	LK-91	6.586826	80.566158	Balangoda	PS-910103	6.649474	80.700276	6.655127	80.700689	MP42+374, Balangoda, Sri Lanka	0.630436	
Rathnapura	Opanayaka	MOH Office – Opanayaka	False	False	RTHNPRPNYKMHFFCPNYK		Ratnapura	LK-91	6.586826	80.566158	Opanayaka	PS-910104	6.608519	80.619285	6.609517	80.620516	Colombo - Ratnapura - Wellawaya - Batticaloa Rd, Opanayake, Sri Lanka	0.175563	
Rathnapura	Kolonna	MOH Office - Kolonna	False	False	RTHNPRKLNNMHFFCKLNN		Ratnapura	LK-91	6.586826	80.566158	Kolonna	PS-910235	6.40194	80.687615	6.406211	80.691442	Main St, Sri Lanka	0.636106	
Rathnapura	Kuruwita	Kuruwita Central College	False	False	RTHNPRKRWTKRWTCNTRLCLLG		Ratnapura	LK-91	6.586826	80.566158	Kuruwita	PS-910112	6.778839	80.364712	6.781492	80.362037	A4, Ratnapura 70500, Sri Lanka	0.417583	
Rathnapura	Kuruwita	Gangarama Viharaya	False	False	RTHNPRKRWTGNGRMVHRY		Ratnapura	LK-91	6.586826	80.566158	Kuruwita	PS-910112	6.778839	80.364712	6.77558	80.35651	Q9G4+6JJ, Kuruwita, Sri Lanka	0.975765	
Rathnapura	Kuruwita	Pahalagama Buddhist College	False	False	RTHNPRKRWTPHLGMBDDHSTCLLG		Ratnapura	LK-91	6.586826	80.566158	Kuruwita	PS-910112	6.778839	80.364712	6.763389	80.308389	E, Mudunkotuwa E Rd, Sri Lanka	6.454095	
Rathnapura	Kiriella	Rahula Vidyalaya	False	False	RTHNPRKRLLRHLVDYLY		Ratnapura	LK-91	6.586826	80.566158	Kiriella	PS-910114	6.735338	80.276481	6.726152	80.332768	Millakade Dodampe, Ratnapura - Horana - Panadura Hwy, Millakade, Sri Lanka	6.301038	
Rathnapura	Kiriella	Handunkanda Community Hall	False	False	RTHNPRKRLLHNDNKNDCMMNTYHLL		Ratnapura	LK-91	6.586826	80.566158	Kiriella	PS-910114	6.735338	80.276481	6.74486	80.248221	Kiriella, Hadunkanda Rd, Sri Lanka	3.296412	
Rathnapura	Kiriella	Dethabadakanda Viharaya	False	False	RTHNPRKRLLDTHBDKNDVHRY		Ratnapura	LK-91	6.586826	80.566158	Kiriella	PS-910114	6.735338	80.276481	6.749772	80.26278	Rajamaha Wihara Mawatha, Kiriella, Ratnapura, Sri Lanka	2.206364	
Rathnapura	Kiriella	Pahala Galathura Vidyalaya	False	False	RTHNPRKRLLPHLGLTHRVDYLY		Ratnapura	LK-91	6.586826	80.566158	Kiriella	PS-910114	6.735338	80.276481	6.714894	80.288574	Mada galathura, Sri Lanka	2.637325	
Rathnapura	Kahawatta	Weladura Tea Factory	False	False	RTHNPRKHWTTWLDRTFCTRY		Ratnapura	LK-91	6.586826	80.566158	Kahawatta	PS-910107	6.591434	80.56893	6.582051	80.567744	Watapotha - Kahawatta Road, Kahawatta, Sri Lanka	1.051865	
Rathnapura	Kahawatta	Nawalakanda Tea Factory	False	False	RTHNPRKHWTTNWLKNDTFCTRY		Ratnapura	LK-91	6.586826	80.566158	Kahawatta	PS-910107	6.591434	80.56893	6.536555	80.537092	Manandola - Endana Rd, Sri Lanka	7.045439	
Rathnapura	Kahawatta	Endawa Tea Factory	False	False	RTHNPRKHWTTNDWTFCTRY		Ratnapura	LK-91	6.586826	80.566158	Kahawatta	PS-910107	6.591434	80.56893	6.523796	80.534012	Kahawatta - Samarkanda Rd, Sri Lanka	8.455124	
Rathnapura	Kahawatta	Doralawitiya Tea Factory	False	False	RTHNPRKHWTTDRLWTYTFCTRY		Ratnapura	LK-91	6.586826	80.566158	Kahawatta	PS-910107	6.591434	80.56893	6.733511	80.383412	Hidellana, Ratnapura 70012, Sri Lanka	25.880844	#CenterFarFromPolice
Rathnapura	Kahawatta	Coperative Tea Factory	False	False	RTHNPRKHWTTCPRTVTFCTRY		Ratnapura	LK-91	6.586826	80.566158	Kahawatta	PS-910107	6.591434	80.56893	6.523796	80.534012	Kahawatta - Samarkanda Rd, Sri Lanka	8.455124	
Jaffna	Wadukkotte	MOH Office – Karainagar	False	False	JFFNWDKKTTMHFFCKRNGR		Jaffna	LK-41	9.691792	80.098594	Vaddukoddai		9.728886	79.947771	9.725097	79.99772	Sri Lanka, Manipay, Sri Lanka	5.492143	
Jaffna	Kayts	MOH Office – Kayts	False	False	JFFNKYTSMHFFCKYTS		Jaffna	LK-41	9.691792	80.098594	Kayts	PS-410212	9.728654	79.94775	9.697759	79.866366	Sri Lanka, Kayts, Sri Lanka	9.561445	
Jaffna	Kayts	MOH Office – Velanai	False	False	JFFNKYTSMHFFCVLN		Jaffna	LK-41	9.691792	80.098594	Kayts	PS-410212	9.728654	79.94775	9.636317	79.903777	Chatty vangkalvady road, Velanai, Sri Lanka	11.346015	
Jaffna	Thelippalai	MOH Office – Thelippalai	False	False	JFFNTHLPPLMHFFCTHLPPL		Jaffna	LK-41	9.691792	80.098594	Thelippalay	PS-410104	6.933075	79.857181	9.785272	80.032899	Q2PM+452, Tellippalai, Sri Lanka	317.838063	#CenterFarFromPolice
Jaffna	Chavakachcheri	Town Hall – Chavakachcheri	False	False	JFFNCHVKCHCHRTWNHLLCHVKCHCHR		Jaffna	LK-41	9.691792	80.098594	Chawakachcheri	PS-410215	9.666459	80.132384	9.659136	80.160946	M556+M94, Chavakachcheri, Sri Lanka	3.236063	
Jaffna	Manippai	MOH Office – Chankanai	False	False	JFFNMNPPMHFFCCHNKN		Jaffna	LK-41	9.691792	80.098594	Manippai	PS-410210	9.727151	79.996905	9.753617	79.976004	QX3G+CCR, Sri Lanka	3.730425	
Jaffna	Nelliadi	MOH Office – Karaveddy	False	False	JFFNNLLDMHFFCKRVDDY		Jaffna	LK-41	9.691792	80.098594	Nelliadi	PS-410108	9.778397	80.113303	9.792126	80.201799	Q6R2+VP3, Point Pedro, Sri Lanka	9.819656	
Jaffna	Kopay	MOH Office – Kopay	False	False	JFFNKPYMHFFCKPY		Jaffna	LK-41	9.691792	80.098594	Kopai	PS-410216	9.686887	80.03856	9.706729	80.065433	B268, Jaffna, Sri Lanka	3.681313	
Jaffna	Kopay	MOH Office- Nallur	False	False	JFFNKPYMHFFCNLLR		Jaffna	LK-41	9.691792	80.098594	Kopai	PS-410216	9.686887	80.03856	9.673947	80.027736	M2FH+H3H, Jaffna, Sri Lanka	1.865513	
Jaffna	Chunnakam	MOH Office - Uduvil	False	False	JFFNCHNNKMMHFFCDVL		Jaffna	LK-41	9.691792	80.098594	Chunnakam	PS-410211	9.745309	80.029151	9.742938	80.035132	P2VP+53C, Chunnakam, Sri Lanka	0.706719	
Jaffna	Point Pedro	MOH Office - Point Pedro	False	False	JFFNPNTPDRMHFFCPNTPDR		Jaffna	LK-41	9.691792	80.098594	Point Pedro	PS-410106	9.827018	80.233187	9.805763	80.222952	R64F+854, Point Pedro, Sri Lanka	2.616722	
Kilinochchi	Kilinochchi	Army Base Hospital - Kilinochchi	False	False	KLNCHCHKLNCHCHRMYBSHSPTLKLNCHCH		Kilinochchi	LK-45	9.415742	80.30358	Kilinochchi	PS-450131	9.392265	80.407846	9.372728	80.411786	Ananthapuram, A9, Kilinochchi, Sri Lanka	2.215695	
Kilinochchi	Pooneryn	MOH Office - Pooneryn	False	False	KLNCHCHPNRYNMHFFCPNRYN		Kilinochchi	LK-45	9.415742	80.30358	Pooneryn		9.505717	80.21101	9.507968	80.208317	G655+58P, Pooneryn, Sri Lanka	0.387256	
Kilinochchi	Dharmapuram	MOH Office – Dharmapuram	False	False	KLNCHCHDHRMPRMMHFFCDHRMPRM		Kilinochchi	LK-45	9.415742	80.30358	Dharmapuram	PS-450136	6.873107	79.86167	9.410652	80.523364	CG6F+789, Kilinochchi, Sri Lanka	291.501054	#CenterFarFromPolice
Mullaitivu	Oddusuddan	MO Office – Oddusuddan	False	False	MLLTVDDSDDNMFFCDDSDDN		Mullaitivu	LK-44	9.167643	80.549091	Oddusudan	PS-440151	9.160983	80.652821	9.153738	80.646338	Mankulam-Mullaitivu Hwy, Oddusuddan, Sri Lanka	1.075281	
Mannar	Adampan	Mobile Vaccination	False	False	MNNRDMPNMBLVCCNTN		Mannar	LK-42	8.877429	80.088628	Adampan		8.939451	80.002055					#CenterLocationUnknown
Mannar	Madu	Kattayadappan Maha Vidyalaya	False	False	MNNRMDKTTYDPPNMHVDYLY		Mannar	LK-42	8.877429	80.088628	Madu	PS-420144	6.914115	79.849048	8.85502	80.202842	Puliyadi Irakkamam, Madhu Road, Madu, Sri Lanka	219.377113	#CenterFarFromPolice
Trincomalee	Muttur	MOH Office – Muttur	False	False	TRNCMLMTTRMHFFCMTTR		Trincomalee	LK-53	8.551241	81.092014	Mutur	PS-530138	8.461133	81.259371	8.453916	81.264494	1 Old Batticaloa Rd, Mutur, Sri Lanka	0.980859	
Trincomalee	Kinniya	MOH Office – Kuruggankeni	False	False	TRNCMLKNNYMHFFCKRGGNKN		Trincomalee	LK-53	8.551241	81.092014	Kinnia	PS-530140	6.907289	79.863819	8.498696	81.179644	F5XH+FVC, Kinniya 31100, Sri Lanka	228.840304	#CenterFarFromPolice
Trincomalee	Kinniya	MOH Office – Kinniya	False	False	TRNCMLKNNYMHFFCKNNY		Trincomalee	LK-53	8.551241	81.092014	Kinnia	PS-530140	6.907289	79.863819	8.498696	81.179644	F5XH+FVC, Kinniya 31100, Sri Lanka	228.840304	#CenterFarFromPolice
Trincomalee	Sripura	MOH Office – Sripura	False	False	TRNCMLSRPRMHFFCSRPR		Trincomalee	LK-53	8.551241	81.092014	Sripura	PS-530136	8.929617	80.81428	8.926697	80.814799	Padavi Sripura, Padaviya - Sripura Road, Welioya, Sri Lanka	0.329869	
Trincomalee	Kuchchaveli	MOH Office – Kuchchaveli	False	False	TRNCMLKCHCHVLMHFFCKCHCHVL		Trincomalee	LK-53	8.551241	81.092014	Kuchchaweli	PS-530133	8.81895	81.100438	8.740082	81.161616	P5R6+2JQ, Kumpurupiddi, Sri Lanka	11.053646	
Trincomalee	Kuchchaveli	Divisional Hospital – Kuchchaveli	False	False	TRNCMLKCHCHVLDVSNLHSPTLKCHCHVL		Trincomalee	LK-53	8.551241	81.092014	Kuchchaweli	PS-530133	8.81895	81.100438	8.814795	81.102358	R472+WW9, Kuchchaveli, Sri Lanka	0.508064	
Trincomalee	Kuchchaveli	Divisional Hospital – Nilaveli	False	False	TRNCMLKCHCHVLDVSNLHSPTLNLVL		Trincomalee	LK-53	8.551241	81.092014	Kuchchaweli	PS-530133	8.81895	81.100438	8.681035	81.193632	M5JV+CF6, Nilaveli, Sri Lanka	18.44695	
Trincomalee	Pulmoddai	Pulmoddai Base Hospital	False	False	TRNCMLPLMDDPLMDDBSHSPTL	Base Hospital - Pulmoddai	Trincomalee	LK-53	8.551241	81.092014	Pulmudai	PS-530135	6.915266	79.87829	8.941204	80.983139	WXRM+F7J, Pulmoddai, Sri Lanka	256.112801	#CenterFarFromPolice
Trincomalee	Ichchalampattu	MOH Office – Ichchalampattu	False	False	TRNCMLCHCHLMPTTMHFFCCHCHLMPTT		Trincomalee	LK-53	8.551241	81.092014	Ichchalampattu		8.289549	81.359002	6.788131	79.883651	Station Road, Rawathawaththa, Moratuwa, Lunawa Station Rd, Moratuwa 10400, Sri Lanka	233.14046	#CenterFarFromPolice
Trincomalee	Serunuwara	MOH Office – Serunuwara	False	False	TRNCMLSRNWRMHFFCSRNWR		Trincomalee	LK-53	8.551241	81.092014	Serunuwara	PS-530244	8.321863	81.299322	8.323143	81.299894	B10, Sri Lanka	0.155671	
Batticaloa	Kokkadichcholai	Mahaladithivu Hospital	False	False	BTTCLKKKDCHCHLMHLDTHVHSPTL		Batticaloa	LK-51	7.792772	81.486513	Kokkadicholai	PS-510112	7.715979	81.698757	7.623207	81.718327	Muthalaikudah Kanchirankudah Rd, Sri Lanka	10.542105	
Batticaloa	Kaluwanchikudy	MOH Office - Kaluwanchikudy	False	False	BTTCLKLWNCHKDYMHFFCKLWNCHKDY	Medical Officer of Health Kaluwanchikudy	Batticaloa	LK-51	7.792772	81.486513	Kalawanchikudy	PS-510110	7.515908	81.787051	7.509333	81.79204	Colombo - Batticaloa Hwy, Kaluwanchikudy, Sri Lanka	0.915167	
Batticaloa	Valachchenai	MOH Office - Valachchenai	False	False	BTTCLVLCHCHNMHFFCVLCHCHN		Batticaloa	LK-51	7.792772	81.486513	Valachchanai	PS-510107	7.908015	81.533004	7.912281	81.532775	WG6M+W46, Batticaloa, Sri Lanka	0.475177	
Batticaloa	Valachchenai	MOH Office – Oddamavadi	False	False	BTTCLVLCHCHNMHFFCDDMVD		Batticaloa	LK-51	7.792772	81.486513	Valachchanai	PS-510107	7.908015	81.533004	7.912281	81.532775	WG6M+W46, Batticaloa, Sri Lanka	0.475177	
Batticaloa	Valachchenai	MOH Office – Nawaladi	False	False	BTTCLVLCHCHNMHFFCNWLD		Batticaloa	LK-51	7.792772	81.486513	Valachchanai	PS-510107	7.908015	81.533004	6.862775	79.901065	Delakada Plaza, Delkada, Nugegoda, Sri Lanka	214.291922	#CenterFarFromPolice
Batticaloa	Valachchenai	Valachchenai Base Hospital	False	False	BTTCLVLCHCHNVLCHCHNBSHSPTL		Batticaloa	LK-51	7.792772	81.486513	Valachchanai	PS-510107	7.908015	81.533004	7.911315	81.533046	Valaichchenai-Nasuvantivu-Navaladi Road, Sri Lanka	0.367088	
Batticaloa	Vakarai	MOH Office – Vakarai	False	False	BTTCLVKRMHFFCVKR		Batticaloa	LK-51	7.792772	81.486513	Wakarai	PS-510109	6.934132	79.856305	7.215486	80.013606	6287+5CX, Divulapitiya, Sri Lanka	35.7891	#CenterFarFromPolice
Batticaloa	Kaluwanchikudy	MOH Office – Kaluwanchikudy	False	False	BTTCLKLWNCHKDYMHFFCKLWNCHKDY	Medical Officer of Health Kaluwanchikudy	Batticaloa	LK-51	7.792772	81.486513	Kalawanchikudy	PS-510110	7.515908	81.787051	7.509333	81.79204	Colombo - Batticaloa Hwy, Kaluwanchikudy, Sri Lanka	0.915167	
Batticaloa	Vavunathivu	MOH Office – Vavunathivu	False	False	BTTCLVVNTHVMHFFCVVNTHV		Batticaloa	LK-51	7.792772	81.486513	Vavunathive	PS-510102	6.933075	79.857181	7.708253	81.691368	Hospital Rd, Batticaloa, Sri Lanka	219.95575	#CenterFarFromPolice
Batticaloa	Eravur	Sandiveli Hospital	False	False	BTTCLRVRSNDVLHSPTL		Batticaloa	LK-51	7.792772	81.486513	Eravur	PS-510104	7.715979	81.698757	7.777289	81.602853	Trincomalee Hwy, Eravur, Sri Lanka	12.578998	
Batticaloa	Eravur	MOH Office – Eravur	False	False	BTTCLRVRMHFFCRVR		Batticaloa	LK-51	7.792772	81.486513	Eravur	PS-510104	7.715979	81.698757	7.783664	81.605626	QJM4+F76, Eravur, Sri Lanka	12.729342	
Batticaloa	Eravur	MOH Office – Chenkaladi	False	False	BTTCLRVRMHFFCCHNKLD		Batticaloa	LK-51	7.792772	81.486513	Eravur	PS-510104	7.715979	81.698757	7.783599	81.593367	Trincomalee Hwy, Chenkaladi 30350, Sri Lanka	13.837876	
Ampara	Kalmunai	MOH Office - Kalmunai North	False	False	MPRKLMNMHFFCKLMNNRTH		Ampara	LK-52	7.23699	81.550391	Kalmunai	PS-520123	7.414289	81.825006	7.411712	81.838462	CR6Q+M9P, Kalmunai 32300, Sri Lanka	1.511625	
Ampara	Karaitivu	MOH Office – Karaitivu	False	False	MPRKRTVMHFFCKRTV		Ampara	LK-52	7.23699	81.550391	Karaitivu		9.744059	79.870587	7.377712	81.838796	Colombo-Ratnapura-Wellawaya-Batticaloa Highway, Karativu 32250, Sri Lanka	340.788666	#CenterFarFromPolice
