district	police	center	dose1	dose2	fuzzy_key	alt_name	district_name_norm	district_id	district_lat	district_lng	ps_name_norm	ps_id	ps_lat	ps_lng	lat	lng	formatted_address	dis_center_to_police	tags
Colombo	Cinnamon Gardens	Viharamahadevi Park	False	False	CLMBCNNMNGRDNSVHRMHDVPRK		Colombo	LK-11	6.869636	80.019598	Cinnamon Garden	PS-110324	6.907289	79.863819	6.913391	79.86174	Viharamahadevi Park, Colombo, Sri Lanka	0.716497	
Colombo	Thalangama	Diyatha Uyana	False	False	CLMBTHLNGMDYTHYN		Colombo	LK-11	6.869636	80.019598	Thalangama	PS-110466	6.91089	79.929325	6.904575	79.909831	Diyatha Uyana, B240, Sri Jayawardenepura Kotte, Sri Lanka	2.264281	
Colombo	Thalangama	MOH Office - Battaramulla	False	False	CLMBTHLNGMMHFFCBTTRMLL		Colombo	LK-11	6.869636	80.019598	Thalangama	PS-110466	6.91089	79.929325	6.901538	79.919128	WW29+JM6, Battaramulla 10120, Sri Lanka	1.532936	
Colombo	Grandpass	Sugathadasa Outdoor Stadium	False	False	CLMBGRNDPSSSGTHDSTDRSTDM		Colombo	LK-11	6.869636	80.019598	Grandpass	PS-110215	6.949052	79.872983	6.94806	79.868842	Prince of Wales Ave, Colombo 01400, Sri Lanka	0.470345	
Colombo	Narahenpita	Army Hospital Narahenpita	False	False	CLMBNRHNPTRMYHSPTLNRHNPT		Colombo	LK-11	6.869636	80.019598	Narahenpita	PS-110321	6.891832	79.876715	6.900252	79.87618	08 Elvitigala Mawatha, Colombo 00800, Sri Lanka	0.938417	
Colombo	Narahenpita	Army Headquarters Mobile Team	False	False	CLMBNRHNPTRMYHDQRTRSMBLTM		Colombo	LK-11	6.869636	80.019598	Narahenpita	PS-110321	6.891832	79.876715					#CenterLocationUnknown
Colombo	Narahenpita	MOH Office – Narahenpita	False	False	CLMBNRHNPTMHFFCNRHNPT		Colombo	LK-11	6.869636	80.019598	Narahenpita	PS-110321	6.891832	79.876715	6.891268	79.878754	75 Narahenpita Rd, Colombo 00500, Sri Lanka	0.233735	
Colombo	Boralesgamuwa	Kotelawala Defence Hospital	False	False	CLMBBRLSGMWKTLWLDFNCHSPTL		Colombo	LK-11	6.869636	80.019598	Boralesgamuwa	PS-110464	6.841331	79.901255	6.82518	79.907167	RWG4+3VF, Boralesgamuwa, Sri Lanka	1.911444	
Colombo	Boralesgamuwa	MOH Office – Werahera	False	False	CLMBBRLSGMWMHFFCWRHR		Colombo	LK-11	6.869636	80.019598	Boralesgamuwa	PS-110464	6.841331	79.901255	6.833094	79.905583	RWM4+66P, Boralesgamuwa, Sri Lanka	1.033386	
Colombo	Homagama	Panagoda Bodhirajarama Viharaya	False	False	CLMBHMGMPNGDBDHRJRMVHRY		Colombo	LK-11	6.869636	80.019598	Homagama	PS-110470	6.836155	80.003474	6.929161	79.88265	Gnanawimala Rd, Colombo, Sri Lanka	16.883101	
Colombo	Homagama	Sri Vardhanarama Viharaya - Dipangoda	False	False	CLMBHMGMSRVRDHNRMVHRYDPNGD		Colombo	LK-11	6.869636	80.019598	Homagama	PS-110470	6.836155	80.003474	6.854503	80.004271	Purana Viharaya, Athurugiriya road, Homagama, Homagama, Sri Lanka	2.042742	
Colombo	Homagama	Uduwana Sri Supeksharama Viharaya	False	False	CLMBHMGMDWNSRSPKSHRMVHRY		Colombo	LK-11	6.869636	80.019598	Homagama	PS-110470	6.836155	80.003474	6.823529	80.007377	Uduwana, Homagama, Sri Lanka	1.46905	
Colombo	Kotahena	Wiwekananda Vidyalaya	False	False	CLMBKTHNWWKNNDVDYLY		Colombo	LK-11	6.869636	80.019598	Kotahena	PS-110212	6.950879	79.862496	6.943047	79.860046	55-57, Colombo 01300, Sri Lanka	0.912186	
Colombo	Mount Lavinia	Mihindu Mawatha Maternity Clinic	False	False	CLMBMNTLVNMHNDMWTHMTRNTYCLNC		Colombo	LK-11	6.869636	80.019598	Mount Lavinia	PS-110577	6.825006	79.87009	6.849978	79.866137	73 Galle Rd, Dehiwala-Mount Lavinia, Sri Lanka	2.81173	
Colombo	Dehiwala	S. De. S. Jayasinghe Hall	False	False	CLMBDHWLSDSJYSNGHHLL		Colombo	LK-11	6.869636	80.019598	Dehiwala	PS-110580	6.850088	79.871696	6.861489	79.865045	B11, Dehiwala-Mount Lavinia, Sri Lanka	1.465485	
Colombo	Mirihana	MOH Office - Beddagana	False	False	CLMBMRHNMHFFCBDDGN		Colombo	LK-11	6.869636	80.019598	Mirihana	PS-110462	6.873714	79.901724	6.885731	79.908328	Baddagana Rd, Sri Jayawardenepura Kotte 10100, Sri Lanka	1.522652	
Colombo	Maharagama	Ranmal Deniya Viharaya – Arawwala	False	False	CLMBMHRGMRNMLDNYVHRYRWWL		Colombo	LK-11	6.869636	80.019598	Maharagama	PS-110463	6.845422	79.928928	6.818648	79.998854	Magammana Vidyalaya Bus Stop, B452, Sri Lanka	8.276948	
Colombo	Maharagama	Godigamuwa Bhikku Centre	False	False	CLMBMHRGMGDGMWBHKKCNTR		Colombo	LK-11	6.869636	80.019598	Maharagama	PS-110463	6.845422	79.928928	6.851095	79.921201	Maharagama, Sri Lanka	1.061301	
Colombo	Maradana	National Hospital – Colombo	False	False	CLMBMRDNNTNLHSPTLCLMB		Colombo	LK-11	6.869636	80.019598	Maradana	PS-110107	6.927939	79.865471	6.918743	79.868992	Colombo 00700, Sri Lanka	1.094265	
Colombo	Maradana	Forbes Road Community Hall	False	False	CLMBMRDNFRBSRDCMMNTYHLL		Colombo	LK-11	6.869636	80.019598	Maradana	PS-110107	6.927939	79.865471	6.876704	79.879161	00600, Mugalan Rd, Colombo 00600, Sri Lanka	5.895952	
Colombo	Fort	Navy Headquarters	False	False	CLMBFRTNVYHDQRTRS		Colombo	LK-11	6.869636	80.019598	Fort	PS-110105	6.9334	79.842895	6.936952	79.842104	WRPR+QRQ, Colombo, Sri Lanka	0.404627	
Colombo	Dematagoda	Vidyalankara Pirivena	False	False	CLMBDMTGDVDYLNKRPRVN		Colombo	LK-11	6.869636	80.019598	Dematagoda	PS-110216	6.930385	79.877161	6.931633	79.879104	AC27, Colombo, Sri Lanka	0.255533	
Colombo	Wellawatta	Roxy Gardens Premises	False	False	CLMBWLLWTTRXYGRDNSPRMSS		Colombo	LK-11	6.869636	80.019598	Wellawatta	PS-110320	6.873107	79.86167	6.863747	79.862088	Dehiwala Canal, Colombo, Sri Lanka	1.042134	
Colombo	Wellawatta	MOH Office – Wellawatta	False	False	CLMBWLLWTTMHFFCWLLWTT		Colombo	LK-11	6.869636	80.019598	Wellawatta	PS-110320	6.873107	79.86167	6.861346	79.865943	VV68+G9P, Dehiwala-Mount Lavinia, Sri Lanka	1.390678	
Colombo	Wellampitiya	MOH Office – Kolonnawa	False	False	CLMBWLLMPTYMHFFCKLNNW		Colombo	LK-11	6.869636	80.019598	Wellampitiya	PS-110465	6.937514	79.896298	6.922088	79.916237	Mandavila Rd, Kotikawatta, Sri Lanka	2.791266	
Colombo	Kaduwela	MOH Office – Kaduwela	False	False	CLMBKDWLMHFFCKDWL		Colombo	LK-11	6.869636	80.019598	Kaduwela		6.936234	79.970183	6.934127	79.984398	B263, Kaduwela, Sri Lanka	1.586964	
Colombo	Mulleriyawa	MOH Office - Gothatuwa	False	False	CLMBMLLRYWMHFFCGTHTW		Colombo	LK-11	6.869636	80.019598	Mulleriyawa	PS-110469	6.927187	79.929108	6.922088	79.916237	Mandavila Rd, Kotikawatta, Sri Lanka	1.530186	
Colombo	Kottawa	Rukmale Community Hall	False	False	CLMBKTTWRKMLCMMNTYHLL		Colombo	LK-11	6.869636	80.019598	Kottawa	PS-110471	6.841333	79.963553	6.855958	79.986274	Athurugiriya Rd, Pannipitiya, Sri Lanka	2.990394	
Colombo	Fore shore	MOH Office - Jinthupitiya	False	False	CLMBFRSHRMHFFCJNTHPTY		Colombo	LK-11	6.869636	80.019598	Fore shore	PS-110210	6.949589	79.857355	6.943258	79.859238	No.27 Vivekananda Hill, Colombo 01300, Sri Lanka	0.734247	
Colombo	Avissawella	Avissawella Hospital	False	False	CLMBVSSWLLVSSWLLHSPTL		Colombo	LK-11	6.869636	80.019598	Awissawella	PS-920226	6.947538	80.215422	6.957085	80.207381	Avissawella Rd, Avissawella, Sri Lanka	1.384155	
Colombo	Avissawella	Kiriwandala Tamil College	False	False	CLMBVSSWLLKRWNDLTMLCLLG		Colombo	LK-11	6.869636	80.019598	Awissawella	PS-920226	6.947538	80.215422	6.956526	80.204418	43 Kudagama Road, Avissawella, Sri Lanka	1.573413	
Colombo	Kosgama	Kosgama Hospital	False	False	CLMBKSGMKSGMHSPTL		Colombo	LK-11	6.869636	80.019598	Kosgama	PS-920227	6.946597	80.137869	6.940956	80.124888	Salawa-Akarawita, 10730, Sri Lanka	1.564606	
Gampaha	Minuwangoda	MOH Office - Minuwangoda	False	False	GMPHMNWNGDMHFFCMNWNGD		Gampaha	LK-12	7.123598	80.018508	Minuwangoda	PS-120238	7.174215	79.957874	7.17227	79.956823	Katunayake-Veyangoda Rd, Minuwangoda, Sri Lanka	0.245525	
Gampaha	Minuwangoda	Paththaduwana Viharaya	False	False	GMPHMNWNGDPTHTHDWNVHRY		Gampaha	LK-12	7.123598	80.018508	Minuwangoda	PS-120238	7.174215	79.957874	7.148114	79.940256	Paththanduwana, Sri Lanka	3.494162	
Gampaha	Katana	MOH Office - Katana	False	False	GMPHKTNMHFFCKTN		Gampaha	LK-12	7.123598	80.018508	Katana	PS-120360	7.224796	79.880015	7.22436	79.88271	Katana, Negombo - Mirigama Rd, Negombo, Sri Lanka	0.301313	
Gampaha	Katana	St. Joseph's Primary School - Katuwapitiya	False	False	GMPHKTNSTJSPHSPRMRYSCHLKTWPTY		Gampaha	LK-12	7.123598	80.018508	Katana	PS-120360	7.224796	79.880015	7.211355	79.843639	6R6V+GFR, Negombo, Sri Lanka	4.283306	
Gampaha	Nittambuwa	Ellakkala Maha Vidyalaya	False	False	GMPHNTTMBWLLKKLMHVDYLY		Gampaha	LK-12	7.123598	80.018508	Nittambuwa	PS-120246	7.149726	80.10046	7.132287	80.137212	Pasyala - Attanagalla Rd, Allalamulla, Sri Lanka	4.496156	
Gampaha	Nittambuwa	Al Azhar Central College	False	False	GMPHNTTMBWLZHRCNTRLCLLG		Gampaha	LK-12	7.123598	80.018508	Nittambuwa	PS-120246	7.149726	80.10046	7.121335	80.072386	43CC+GXJ, Kalagedihena, Sri Lanka	4.424148	
Gampaha	Nittambuwa	Alawala Maha Vidyalaya	False	False	GMPHNTTMBWLWLMHVDYLY		Gampaha	LK-12	7.123598	80.018508	Nittambuwa	PS-120246	7.149726	80.10046	7.119872	80.188904	Alawala-Polgahakumbura Rd, Sri Lanka	10.310789	
Gampaha	Nittambuwa	Maligathenna Viharaya –Pasyalaya	False	False	GMPHNTTMBWMLGTHNNVHRYPSYLY		Gampaha	LK-12	7.123598	80.018508	Nittambuwa	PS-120246	7.149726	80.10046	7.174494	80.060652	Veyangoda, Sri Lanka	5.185622	
Gampaha	Veyangoda	Kubaloluwa Delgahamedilla Viharaya	False	False	GMPHVYNGDKBLLWDLGHMDLLVHRY		Gampaha	LK-12	7.123598	80.018508	Weyangoda	PS-120247	7.144053	80.095511	7.176157	80.085338	Kottala Rd, Veyangoda, Sri Lanka	3.743258	
Gampaha	Ganemulla	Parakandeniya Siriperakum Vidyalaya	False	False	GMPHGNMLLPRKNDNYSRPRKMVDYLY		Gampaha	LK-12	7.123598	80.018508	Ganemulla	PS-120242	7.066804	79.959751	7.031485	79.978508	2XJH+HCR, Parakandeniya, Sri Lanka	4.440785	
Gampaha	Pallewela	Bataliya Bubula Viharaya	False	False	GMPHPLLWLBTLYBBLVHRY		Gampaha	LK-12	7.123598	80.018508	Pallewela	PS-120249	7.197365	80.094856	7.186784	80.127642	54PH+P36, Bataliya, Sri Lanka	3.804696	
Gampaha	Kadawata	Mahara Cultural Centre	False	False	GMPHKDWTMHRCLTRLCNTR		Gampaha	LK-12	7.123598	80.018508	Kadawatha	PS-120136	7.00152	79.95003	7.073592	80.017024	32F8+CRJ, Gampaha, Sri Lanka	10.906875	
Gampaha	Kadawata	Kirillawala Central College	False	False	GMPHKDWTKRLLWLCNTRLCLLG		Gampaha	LK-12	7.123598	80.018508	Kadawatha	PS-120136	7.00152	79.95003	7.015981	79.969223	2X89+9MX, Eldeniya, Sri Lanka	2.660247	
Gampaha	Biyagama	MOH Office – Biyagama	False	False	GMPHBYGMMHFFCBYGM		Gampaha	LK-12	7.123598	80.018508	Biyagama	PS-120131	6.962284	80.009037	6.946824	79.994052	Hospital Rd, Sri Lanka	2.386313	
Gampaha	Gampaha	MOH Office – Gampaha	False	False	GMPHGMPHMHFFCGMPH		Gampaha	LK-12	7.123598	80.018508	Gampaha	PS-120237	7.087765	80.01228	7.17227	79.956823	Katunayake-Veyangoda Rd, Minuwangoda, Sri Lanka	11.216745	
Gampaha	Gampaha	Asgiriya Purana Viharaya	False	False	GMPHGMPHSGRYPRNVHRY		Gampaha	LK-12	7.123598	80.018508	Gampaha	PS-120237	7.087765	80.01228	7.110015	79.989902	4X6Q+2X2, Gampaha, Sri Lanka	3.496563	
Gampaha	Kirindiwela	Putupagala Clinic	False	False	GMPHKRNDWLPTPGLCLNC		Gampaha	LK-12	7.123598	80.018508	Kirindiwela	PS-120239	7.043011	80.120449	7.03481	80.108246	Weliweriya - Kirindiwela Rd, 11725, Sri Lanka	1.626899	
Gampaha	Pugoda	MOH Office – Dompe	False	False	GMPHPGDMHFFCDMP		Gampaha	LK-12	7.123598	80.018508	Pugoda	PS-120241	6.98283	80.111189	6.976767	80.117422	Dompe, Pugoda-Mandawala Rd, Pugoda, Sri Lanka	0.963513	
Gampaha	Pamunugama	Pamunugama Hospital	False	False	GMPHPMNGMPMNGMHSPTL		Gampaha	LK-12	7.123598	80.018508	Pamunugama	PS-120353	7.078892	79.859696	7.093543	79.850191	3VV2+C38, Negombo, Sri Lanka	1.938152	
Gampaha	Pamunugama	St. Anthoney's Church – Pubudugama	False	False	GMPHPMNGMSTNTHNYSCHRCHPBDGM		Gampaha	LK-12	7.123598	80.018508	Pamunugama	PS-120353	7.078892	79.859696	7.04803	79.873948	Bopitiya Kandana Rd, Bopitiya, Sri Lanka	3.776103	
Gampaha	Negombo	Periyamulla Mosque	False	False	GMPHNGMBPRYMLLMSQ		Gampaha	LK-12	7.123598	80.018508	Negombo	PS-120351	7.224796	79.880015	7.222194	79.847618	Mosque Rd, Negombo, Sri Lanka	3.586609	
Gampaha	Negombo	Lewis Place Maternity Clinic	False	False	GMPHNGMBLWSPLCMTRNTYCLNC		Gampaha	LK-12	7.123598	80.018508	Negombo	PS-120351	7.224796	79.880015	7.209309	79.849748	169 Colombo Rd, Negombo, Sri Lanka	3.757989	
Gampaha	Kochchikade	Al Falal Muslim College	False	False	GMPHKCHCHKDLFLLMSLMCLLG		Gampaha	LK-12	7.123598	80.018508	Kochchikade	PS-120352	7.265049	79.857026	7.259185	79.845987	Thakkiya Rd, Poruthota, Negombo, Sri Lanka	1.381664	
Gampaha	Seeduwa	MOH Office – Seeduwa	False	False	GMPHSDWMHFFCSDW		Gampaha	LK-12	7.123598	80.018508	Seeduwa	PS-120356	7.128721	79.877371	7.131527	79.879964	24 Kotugoda Rd, Katunayake 11410, Sri Lanka	0.423459	
Gampaha	Divulapitiya	MOH Office – Divulapitiya	False	False	GMPHDVLPTYMHFFCDVLPTY		Gampaha	LK-12	7.123598	80.018508	Diulapitiya	PS-120355	7.174215	79.957874	7.215486	80.013606	6287+5CX, Divulapitiya, Sri Lanka	7.67456	
Gampaha	Divulapitiya	Kehelella Maha Vidyalaya	False	False	GMPHDVLPTYKHLLLMHVDYLY		Gampaha	LK-12	7.123598	80.018508	Diulapitiya	PS-120355	7.174215	79.957874	7.224837	80.015468	B22, Divulapitiya, Sri Lanka	8.491111	
Gampaha	Divulapitiya	Kehelella Community Hall	False	False	GMPHDVLPTYKHLLLCMMNTYHLL		Gampaha	LK-12	7.123598	80.018508	Diulapitiya	PS-120355	7.174215	79.957874	7.286371	79.98504	B503, Badalgama, Sri Lanka	12.830299	
Gampaha	Divulapitiya	Gnanodaya Maha Vidyalaya	False	False	GMPHDVLPTYGNNDYMHVDYLY		Gampaha	LK-12	7.123598	80.018508	Diulapitiya	PS-120355	7.174215	79.957874	7.222331	80.019709	62C9+WVP, Divulapitiya 11250, Sri Lanka	8.672135	
Gampaha	Ja Ela	MOH Office - Ja Ela	False	False	GMPHJLMHFFCJL		Gampaha	LK-12	7.123598	80.018508	Ja - Ela	PS-120133	7.081055	79.890504	7.075216	79.893879	60 Mount Kalvary Rd, Ja-Ela, Sri Lanka	0.748731	
Gampaha	Wattala	MOH Office – Wattala	False	False	GMPHWTTLMHFFCWTTL		Gampaha	LK-12	7.123598	80.018508	Wattala	PS-120128	6.993713	79.894506	6.995817	79.885793	301 Hendala Rd, Wattala, Sri Lanka	0.989991	
Gampaha	Ragama	MOH Office – Ragama	False	False	GMPHRGMMHFFCRGM		Gampaha	LK-12	7.123598	80.018508	Ragama	PS-120134	7.034975	79.924148	7.027386	79.920232	2WGC+X35, Ragama, Sri Lanka	0.948382	
Kalutara	Ingiriya	Ingiriya Hospital	False	False	KLTRNGRYNGRYHSPTL		Kalutara	LK-13	6.577316	80.127363	Ingiriya	PS-130193	6.743614	80.175077	6.741133	80.162046	Panadura-Nambapana-Ratnapura Hwy, Ingiriya, Sri Lanka	1.465626	
Kalutara	Ingiriya	Hadapangoda Vidyalaya	False	False	KLTRNGRYHDPNGDVDYLY		Kalutara	LK-13	6.577316	80.127363	Ingiriya	PS-130193	6.743614	80.175077	6.792142	80.14164	Poruwadanda-Handapangoda Road, Handapangoda, Sri Lanka	6.540345	
Kalutara	Anguruwatota	MOH Office – Madurawala	False	False	KLTRNGRWTTMHFFCMDRWL		Kalutara	LK-13	6.577316	80.127363	Anguruwatota	PS-130190	6.654997	80.058183	6.654814	80.057811	M335+W4F, Keselhenawa, Sri Lanka	0.045863	
Kalutara	Horana	Base Hospital - Horana	False	False	KLTRHRNBSHSPTLHRN		Kalutara	LK-13	6.577316	80.127363	Horana	PS-130192	6.714613	80.069091	6.710644	80.066589	Hospital Ln, Horana, Sri Lanka	0.520853	
Kalutara	Horana	Kananwila Subhadraramaya	False	False	KLTRHRNKNNWLSBHDRRMY		Kalutara	LK-13	6.577316	80.127363	Horana	PS-130192	6.714613	80.069091	6.756612	80.057254	No 25 Kahatagahalanda, Kananwila Rd, Horana, Sri Lanka	4.851079	
Kalutara	Horana	Kananwila Kande Viharaya	False	False	KLTRHRNKNNWLKNDVHRY		Kalutara	LK-13	6.577316	80.127363	Horana	PS-130192	6.714613	80.069091	6.756366	80.053445	Kananwila Rd, Horana, Sri Lanka	4.955301	
Kalutara	Thebuwana	Divisional Hospital – Neboda	False	False	KLTRTHBWNDVSNLHSPTLNBD		Kalutara	LK-13	6.577316	80.127363	Thebuwana	PS-1302105	6.654997	80.058183	6.570354	80.073048	wellatha Neboda ., Neboda - Wellatha Rd, Sri Lanka	9.557015	
Kalutara	Dodangoda	Dodangoda Hospital	False	False	KLTRDDNGDDDNGDHSPTL		Kalutara	LK-13	6.577316	80.127363	Dodangoda	PS-130299	6.553375	80.023569	6.540961	80.036553	Wilpatha Rd, Sri Lanka	1.991373	
Kalutara	Dodangoda	Dodangoda Eladuwa Vidyalaya	False	False	KLTRDDNGDDDNGDLDWVDYLY		Kalutara	LK-13	6.577316	80.127363	Dodangoda	PS-130299	6.553375	80.023569	6.505918	80.038034	G24Q+967, Maggona, Sri Lanka	5.515359	
Kalutara	Katutara	Nagoda District General Hospital	False	False	KLTRKTTRNGDDSTRCTGNRLHSPTL		Kalutara	LK-13	6.577316	80.127363									#PoliceLocationUnknown
Kalutara	Katutara	NIHS	False	False	KLTRKTTRNHS		Kalutara	LK-13	6.577316	80.127363									#PoliceLocationUnknown
Kalutara	Wadduwa	Gonaduwa Primary School	False	False	KLTRWDDWGNDWPRMRYSCHL		Kalutara	LK-13	6.577316	80.127363	Wadduwa	PS-130188	6.664403	79.929851	6.650788	79.935438	MW2P+858, Wadduwa, Sri Lanka	1.635356	
Kalutara	Wadduwa	Prime Minister's College – Panapitiya	False	False	KLTRWDDWPRMMNSTRSCLLGPNPTY		Kalutara	LK-13	6.577316	80.127363	Wadduwa	PS-130188	6.664403	79.929851	6.629266	79.978548	B224, Wadduwa, Sri Lanka	6.649865	
Kalutara	Millaniya	Dobagoda Seelarathana Vidyalaya	False	False	KLTRMLLNYDBGDSLRTHNVDYLY		Kalutara	LK-13	6.577316	80.127363	Millaniya	PS-130191	6.681692	80.020847	6.655961	80.044536	Seelarathana Vidyalaya Rd, Sri Lanka	3.878214	
Kalutara	Beruwala	Alhadi Paniya Muslim Girls' College	False	False	KLTRBRWLLHDPNYMSLMGRLSCLLG		Kalutara	LK-13	6.577316	80.127363	Beruwala	PS-1302102	6.480329	79.983498	6.442537	80.018445	C2V9+298, Dharga Town, Sri Lanka	5.708661	
Kalutara	Beruwala	Beruwala Bubulalanda Viharaya	False	False	KLTRBRWLBRWLBBLLNDVHRY		Kalutara	LK-13	6.577316	80.127363	Beruwala	PS-1302102	6.480329	79.983498	6.449296	80.000796	Kandavihara Yati Rd, Beruwala, Sri Lanka	3.945877	
Kalutara	Bandragama	Maithri Hall - Bandaragama	False	False	KLTRBNDRGMMTHRHLLBNDRGM		Kalutara	LK-13	6.577316	80.127363	Bandaragama	PS-130189	6.715179	79.987674	6.713508	79.990766	PX7R+C82, Bandaragama, Sri Lanka	0.388859	
Kalutara	Bandragama	District Hospital Bandaragama	False	False	KLTRBNDRGMDSTRCTHSPTLBNDRGM		Kalutara	LK-13	6.577316	80.127363	Bandaragama	PS-130189	6.715179	79.987674	6.716162	79.991484	Horana Rd, Bandaragama, Sri Lanka	0.434849	
Kalutara	Bandragama	Atulugama Algasali	False	False	KLTRBNDRGMTLGMLGSL		Kalutara	LK-13	6.577316	80.127363	Bandaragama	PS-130189	6.715179	79.987674	6.713096	79.995265	Atulugama Rd, Bandaragama, Sri Lanka	0.869974	
Kalutara	Panadura South	Mahanama Vidyalaya	False	False	KLTRPNDRSTHMHNMVDYLY		Kalutara	LK-13	6.577316	80.127363	Panadura South	PS-130186	6.720941	79.907315	6.725866	79.907901	PWG5+85R, Panadura, Sri Lanka	0.551618	
Kalutara	Panadura South	Sumangala Boy's College	False	False	KLTRPNDRSTHSMNGLBYSCLLG		Kalutara	LK-13	6.577316	80.127363	Panadura South	PS-130186	6.720941	79.907315	6.710155	79.914215	Sri Sumangala College, Panadura 12500, Sri Lanka	1.421379	
Kurunegala	Kurunegala	Mobile Medical Team	False	False	KRNGLKRNGLMBLMDCLTM		Kurunegala	LK-61	7.66477	80.23677	Kurunegala	PS-610101	7.485852	80.364137					#CenterLocationUnknown
Kurunegala	Kurunegala	Thorayaya Muslim Vidyalaya	False	False	KRNGLKRNGLTHRYYMSLMVDYLY		Kurunegala	LK-61	7.66477	80.23677	Kurunegala	PS-610101	7.485852	80.364137	7.511024	80.413707	Ambepussa - Kurunegala - Trincomalee Hwy, Thorayaya, Sri Lanka	6.141829	
Kurunegala	Kobeigane	Welewewa Viharaya	False	False	KRNGLKBGNWLWWVHRY		Kurunegala	LK-61	7.66477	80.23677	Kobeigane	PS-610321	7.656934	80.126283	7.969458	80.074921	Galgamuwa Rd, Miyallawa, Sri Lanka	35.219754	#CenterFarFromPolice
Kurunegala	Rasnayakapura	Rasnayakapura Vidyalaya	False	False	KRNGLRSNYKPRRSNYKPRVDYLY		Kurunegala	LK-61	7.66477	80.23677	Rasnayakapura	PS-610323	7.776658	80.012692	7.777734	80.016779	Adigama Road, Rasnayakapura,l, Nikaweratiya, Sri Lanka	0.466045	
Kurunegala	Polpithigama	GN – Thalpathwewa	False	False	KRNGLPLPTHGMGNTHLPTHWW		Kurunegala	LK-61	7.66477	80.23677	Polpithigama	PS-610326	7.835529	80.400637	7.468605	80.366996	Henamulla Road, Kurunegala, Sri Lanka	40.980931	#CenterFarFromPolice
Kurunegala	Polpithigama	Galtangwewa Vidyalaya	False	False	KRNGLPLPTHGMGLTNGWWVDYLY		Kurunegala	LK-61	7.66477	80.23677	Polpithigama	PS-610326	7.835529	80.400637	7.7831	80.398343	Polpithigama road Galtenwewa, Polpithigama, Sri Lanka	5.837141	
Kurunegala	Polpithigama	Borawewa Vidyalaya	False	False	KRNGLPLPTHGMBRWWVDYLY		Kurunegala	LK-61	7.66477	80.23677	Polpithigama	PS-610326	7.835529	80.400637	7.906808	80.422529	WC4F+P2C, Kurunegala, Sri Lanka	8.287158	
Kurunegala	Maho	Daladagama Vidyalaya	False	False	KRNGLMHDLDGMVDYLY		Kurunegala	LK-61	7.66477	80.23677	Maho	PS-610324	7.824001	80.28038	7.472981	80.354729	F9F3+5VX, Kurunegala, Sri Lanka	39.894914	#CenterFarFromPolice
Kurunegala	Maho	Ihalagama Vidyalaya	False	False	KRNGLMHHLGMVDYLY		Kurunegala	LK-61	7.66477	80.23677	Maho	PS-610324	7.824001	80.28038	8.331086	80.579419	Ihalagama,Mihintale, Sri Lanka	65.313162	#CenterFarFromPolice
Kurunegala	Maho	Kekunawa Viharaya	False	False	KRNGLMHKKNWVHRY		Kurunegala	LK-61	7.66477	80.23677	Maho	PS-610324	7.824001	80.28038	7.817871	80.31162	R896+4JX, Maho, Sri Lanka	3.509373	
Kurunegala	Kumbukgete	Gassandalupotha Maha Vidyalaya	False	False	KRNGLKMBKGTGSSNDLPTHMHVDYLY		Kurunegala	LK-61	7.66477	80.23677	Kumbukgatey	PS-610111	6.934132	79.856305	7.688405	80.397086	kubukgate, northwestern province, Waduwawa, Sri Lanka	102.948082	#CenterFarFromPolice
Kurunegala	Kumbukgete	Welgala Vidyalaya	False	False	KRNGLKMBKGTWLGLVDYLY		Kurunegala	LK-61	7.66477	80.23677	Kumbukgatey	PS-610111	6.934132	79.856305	7.686387	80.440997	Welgala, Sri Lanka	105.651493	#CenterFarFromPolice
Kurunegala	Polgahawela	Nungamuwa Damseth Maha Vidyalaya	False	False	KRNGLPLGHWLNNGMWDMSTHMHVDYLY		Kurunegala	LK-61	7.66477	80.23677	Polgahawela	PS-610102	7.333281	80.300363	7.33121	80.29554	A6, Polgahawela, Sri Lanka	0.5798	
Kurunegala	Rideegama	Kelemulla Primary School	False	False	KRNGLRDGMKLMLLPRMRYSCHL		Kurunegala	LK-61	7.66477	80.23677	Rideegama	PS-610110	7.589247	80.61027	7.557805	80.473098	HF5F+46H, Kurunegala, Sri Lanka	15.523598	
Kurunegala	Rideegama	Dodangaslanada Maha Vidyalaya	False	False	KRNGLRDGMDDNGSLNDMHVDYLY		Kurunegala	LK-61	7.66477	80.23677	Rideegama	PS-610110	7.589247	80.61027	7.537105	80.490915	Ridee Vihara Rd, Ridigama, Sri Lanka	14.381743	
Kurunegala	Rideegama	Delwita Maha Vidyalaya	False	False	KRNGLRDGMDLWTMHVDYLY		Kurunegala	LK-61	7.66477	80.23677	Rideegama	PS-610110	7.589247	80.61027	7.536358	80.465316	GFP8+G4W, Kurunegala, Sri Lanka	17.031225	
Kurunegala	Alawwa	Walakumbura Maha Vidyalaya	False	False	KRNGLLWWWLKMBRMHVDYLY		Kurunegala	LK-61	7.66477	80.23677	Alawwa	PS-610103	7.295909	80.24277	7.316048	80.26541	Sri Lanka	3.355124	
Kurunegala	Alawwa	Maramadala Maha Vidyalaya	False	False	KRNGLLWWMRMDLMHVDYLY		Kurunegala	LK-61	7.66477	80.23677	Alawwa	PS-610103	7.295909	80.24277	7.301775	80.237185	Alawwa-Dampelessa Rd, Alawwa 60280, Sri Lanka	0.897444	
Puttalam	Chilaw	St. Mary's Boys' College	False	False	PTTLMCHLWSTMRYSBYSCLLG		Puttalam	LK-62	7.973531	79.913833	Chilaw	PS-620241	7.576197	79.788003	7.581823	79.795774	HQJW+P8C, Chilaw, Sri Lanka	1.061006	
Puttalam	Wennappuwa	Lunugala Primary Vidyalaya	False	False	PTTLMWNNPPWLNGLPRMRYVDYLY		Puttalam	LK-62	7.973531	79.913833	Wennappuwa	PS-620245	7.339623	79.843017	7.041862	81.206524	26R4+PJR, Lunugala, Sri Lanka	154.071493	#CenterFarFromPolice
Puttalam	Wennappuwa	St. Anne's College	False	False	PTTLMWNNPPWSTNNSCLLG		Puttalam	LK-62	7.973531	79.913833	Wennappuwa	PS-620245	7.339623	79.843017	7.314871	79.861441	8V86+5PV, Puttalam, Sri Lanka	3.422164	
Puttalam	Dankotuwa	BOM - Bujjampola	False	False	PTTLMDNKTWBMBJJMPL		Puttalam	LK-62	7.973531	79.913833	Dankotuwa	PS-620246	7.300337	79.882595	7.320595	79.916598	Dankotuwa-Hettirrippuwa Rd, Sri Lanka	4.376113	
Puttalam	Dankotuwa	Dankotuwa Porcelain PLC	False	False	PTTLMDNKTWDNKTWPRCLNPLC		Puttalam	LK-62	7.973531	79.913833	Dankotuwa	PS-620246	7.300337	79.882595	7.298093	79.89761	Kurunegala Rd, Dankotuwa, Sri Lanka	1.67528	
Puttalam	Marawila	Thummodara Muslim Vidyalaya	False	False	PTTLMMRWLTHMMDRMSLMVDYLY		Puttalam	LK-62	7.973531	79.913833	Marawila	PS-620243	7.415075	79.839776	7.391416	79.858623	9VR5+HC9, Marawila, Sri Lanka	3.353717	
Puttalam	Pallama	Adigama Vidyalaya	False	False	PTTLMPLLMDGMVDYLY		Puttalam	LK-62	7.973531	79.913833	Pallama	PS-620132	7.691904	79.922555	7.779019	79.948628	B45, Andigama, Sri Lanka	10.106936	
Puttalam	Pallama	Medawakkulama Vidyalaya	False	False	PTTLMPLLMMDWKKLMVDYLY		Puttalam	LK-62	7.973531	79.913833	Pallama	PS-620132	7.691904	79.922555	7.684519	79.918904	Puttalam, Pallama, Sri Lanka	0.914722	
Puttalam	Anamaduwa	MOH Office - Anamaduwa	False	False	PTTLMNMDWMHFFCNMDW		Puttalam	LK-62	7.973531	79.913833	Anamaduwa	PS-620131	7.874852	80.01316	7.889992	80.010421	V2Q6+X5V, Anamaduwa, Sri Lanka	1.710846	
Puttalam	Anamaduwa	Kannangara Vidyalaya	False	False	PTTLMNMDWKNNNGRVDYLY		Puttalam	LK-62	7.973531	79.913833	Anamaduwa	PS-620131	7.874852	80.01316	7.873454	80.015251	V2F8+94J, Anamaduwa, Sri Lanka	0.277955	
Puttalam	Karuwalagaswewa	Karuwalagaswewa – Kubukwewa	False	False	PTTLMKRWLGSWWKRWLGSWWKBKWW		Puttalam	LK-62	7.973531	79.913833	Karuwalagaswewa	PS-620135	8.055066	79.955817	8.057613	79.961308	Karuwalagaswewa, Sri Lanka	0.667806	
Puttalam	Karuwalagaswewa	Aluthgama Dutugemunu Vidyalaya	False	False	PTTLMKRWLGSWWLTHGMDTGMNVDYLY		Puttalam	LK-62	7.973531	79.913833	Karuwalagaswewa	PS-620135	8.055066	79.955817	8.126194	80.047904	Aluthgama, Sri Lanka	12.861958	
Nuwara Eliya	Kotmale	MOH Office - Kotmale	False	False	NWRLYKTMLMHFFCKTML		Nuwara Eliya	LK-23	6.97423	80.711222	Kotmale	PS-230134	7.063602	80.685054	7.062013	80.685533	3M6P+R63, Kothmale New Town, Sri Lanka	0.184484	
Nuwara Eliya	Ragala	TBM Herath Maha Vidyalaya	False	False	NWRLYRGLTBMHRTHMHVDYLY		Nuwara Eliya	LK-23	6.97423	80.711222	Ragala	PS-230142	7.012347	80.858498	7.008783	80.855595	Ragala, Sri Lanka	0.509698	
Nuwara Eliya	Lindula	Meraya Tamil College	False	False	NWRLYLNDLMRYTMLCLLG		Nuwara Eliya	LK-23	6.97423	80.711222	Lindula	PS-230138	6.927027	80.686744	6.908287	80.680199	WM5J+838, Nagasena Watagoda, Sri Lanka	2.206176	
Nuwara Eliya	Lindula	Lipa Kele Tami College	False	False	NWRLYLNDLLPKLTMCLLG		Nuwara Eliya	LK-23	6.97423	80.711222	Lindula	PS-230138	6.927027	80.686744	6.908287	80.680199	WM5J+838, Nagasena Watagoda, Sri Lanka	2.206176	
Nuwara Eliya	Lindula	Thangakelle Tamil College	False	False	NWRLYLNDLTHNGKLLTMLCLLG		Nuwara Eliya	LK-23	6.97423	80.711222	Lindula	PS-230138	6.927027	80.686744	6.908287	80.680199	WM5J+838, Nagasena Watagoda, Sri Lanka	2.206176	
Nuwara Eliya	Nuwara Eliya	Kudaoya Vidyalaya	False	False	NWRLYNWRLYKDYVDYLY		Nuwara Eliya	LK-23	6.97423	80.711222	Nuwaraeliya	PS-230131	6.974148	80.767627	6.96	80.770172	Gamini College, PBC Hwy, Nuwara Eliya 22200, Sri Lanka	1.598569	
Nuwara Eliya	Hanguranketha	Diyathilaka Vidyalaya	False	False	NWRLYHNGRNKTHDYTHLKVDYLY		Nuwara Eliya	LK-23	6.97423	80.711222	Hanguranketha	PS-210108	7.176511	80.777388	7.140571	80.774587	Poramadulla central college, Poramadulla - Palle Bowala Rd, Rikillagaskada, Sri Lanka	4.009534	
Nuwara Eliya	Hanguranketha	MOH Office – Rikillagaskada	False	False	NWRLYHNGRNKTHMHFFCRKLLGSKD		Nuwara Eliya	LK-23	6.97423	80.711222	Hanguranketha	PS-210108	7.176511	80.777388	7.144287	80.781529	4QVJ+PJ6, Rikillagaskada, Sri Lanka	3.613288	
Nuwara Eliya	Rattota	Divisional Medical Centre - Kande Nuwara	False	False	NWRLYRTTTDVSNLMDCLCNTRKNDNWR		Nuwara Eliya	LK-23	6.97423	80.711222	Rattota	PS-220122	7.520684	80.678809	6.97225	80.780644	B332, Nuwara Eliya 22200, Sri Lanka	62.028475	#CenterFarFromPolice
Nuwara Eliya	Rattota	Divisional Medical Centre - Bandarapola	False	False	NWRLYRTTTDVSNLMDCLCNTRBNDRPL		Nuwara Eliya	LK-23	6.97423	80.711222	Rattota	PS-220122	7.520684	80.678809	6.97225	80.780644	B332, Nuwara Eliya 22200, Sri Lanka	62.028475	#CenterFarFromPolice
Nuwara Eliya	Rattota	Divisional Hospital – Rattota	False	False	NWRLYRTTTDVSNLHSPTLRTTT		Nuwara Eliya	LK-23	6.97423	80.711222	Rattota	PS-220122	7.520684	80.678809	7.518413	80.676557	GM9G+9J7, Rattota, Sri Lanka	0.35423	
Badulla	Passara	Passara National College	False	False	BDLLPSSRPSSRNTNLCLLG		Badulla	LK-81	7.074529	81.04486	Passara	PS-810102	6.934481	81.154796	6.940355	81.167392	Peradeniya-Badulla-Chenkaladi Hwy, Passara, Sri Lanka	1.536617	
Badulla	Passara	Bibilegama Hospital	False	False	BDLLPSSRBBLGMHSPTL		Badulla	LK-81	7.074529	81.04486	Passara	PS-810102	6.934481	81.154796	6.895098	81.14174	Bibilegama Rd, Passara, Sri Lanka	4.611693	
Badulla	Passara	Ury Hospital	False	False	BDLLPSSRRYHSPTL		Badulla	LK-81	7.074529	81.04486	Passara	PS-810102	6.934481	81.154796	6.94256	81.126231	W4VG+2FH, Pelgahatenna, Sri Lanka	3.279529	
Badulla	Passara	Meedumpitiya Hospital	False	False	BDLLPSSRMDMPTYHSPTL		Badulla	LK-81	7.074529	81.04486	Passara	PS-810102	6.934481	81.154796	6.945576	81.190338	Peradeniya-Badulla-Chenkaladi Hwy, Sri Lanka	4.113834	
Badulla	Passara	Kanawerella Hospital	False	False	BDLLPSSRKNWRLLHSPTL		Badulla	LK-81	7.074529	81.04486	Passara	PS-810102	6.934481	81.154796	6.933517	81.152592	Demodera - Spring Valley - Badulla Road, Passara, Sri Lanka	0.265888	
Badulla	Kahataruppa	Kahataruppa Hospital	False	False	BDLLKHTRPPKHTRPPHSPTL		Badulla	LK-81	7.074529	81.04486									#PoliceLocationUnknown
Badulla	Badulla	Base Hospital - Badulla	False	False	BDLLBDLLBSHSPTLBDLL		Badulla	LK-81	7.074529	81.04486	Badulla	PS-810101	6.991337	81.055246	6.991808	81.05235	Daya Gunasekara Mawatha, Badulla, Sri Lanka	0.32399	
Badulla	Haliela	Neluwa Tamil Vidyalaya	False	False	BDLLHLLNLWTMLVDYLY		Badulla	LK-81	7.074529	81.04486	Haliela	PS-810108	6.958216	81.034447	6.951162	81.03182	Bandarawela - Badulla Rd, Hali-ela, Sri Lanka	0.836511	
Badulla	Haliela	Mahaththegama Kovil	False	False	BDLLHLLMHTHTHGMKVL		Badulla	LK-81	7.074529	81.04486	Haliela	PS-810108	6.958216	81.034447	6.954858	81.040098	X23R+W2X, Hali-ela, Sri Lanka	0.727187	
Badulla	Haliela	Kandegolla Community Hall	False	False	BDLLHLLKNDGLLCMMNTYHLL		Badulla	LK-81	7.074529	81.04486	Haliela	PS-810108	6.958216	81.034447	6.956535	81.035933	No-36 ,Ekanayaka Mw, Egodagama Rd, Hali-ela 90060, Sri Lanka	0.248756	
Badulla	Haliela	Kirinda Viharaya	False	False	BDLLHLLKRNDVHRY		Badulla	LK-81	7.074529	81.04486	Haliela	PS-810108	6.958216	81.034447	6.984218	81.061356	Muthiyangana Temple, Station Rd, Badulla, Sri Lanka	4.14625	
Badulla	Haldummulla	Kirawanagama Vidyalaya	False	False	BDLLHLDMMLLKRWNGMVDYLY		Badulla	LK-81	7.074529	81.04486	Haldummulla		6.762216	80.885856	6.968079	80.911923	XW96+6QM, Badulla, Sri Lanka	23.078328	#CenterFarFromPolice
Badulla	Haldummulla	Gampaha Vidyalaya	False	False	BDLLHLDMMLLGMPHVDYLY		Badulla	LK-81	7.074529	81.04486	Haldummulla		6.762216	80.885856	6.761391	80.886057	QV6P+HC3, Badulla, Sri Lanka	0.094412	
Badulla	Haldummulla	District Hospital Koslanada	False	False	BDLLHLDMMLLDSTRCTHSPTLKSLND		Badulla	LK-81	7.074529	81.04486	Haldummulla		6.762216	80.885856	6.772723	80.956317	Haputale -Bandarawela, Diyatalawa, Sri Lanka	7.870127	
Badulla	Welimada	Diyamuthugama Viharaya	False	False	BDLLWLMDDYMTHGMVHRY		Badulla	LK-81	7.074529	81.04486	Welimada	PS-810212	6.900481	80.905809	6.953504	80.858534	Sri wijayarama maha viharaya uva paranagama Uduhawara, Welimada 90226, Sri Lanka	7.876027	
Badulla	Welimada	Hinnarangolla Vidyalaya	False	False	BDLLWLMDHNNRNGLLVDYLY		Badulla	LK-81	7.074529	81.04486	Welimada	PS-810212	6.900481	80.905809	6.900188	80.906947	Peradeniya-Badulla-Chenkaladi Hwy, Welimada, Sri Lanka	0.12982	
Badulla	Welimada	Rathkarawwa Viharaya	False	False	BDLLWLMDRTHKRWWVHRY		Badulla	LK-81	7.074529	81.04486	Welimada	PS-810212	6.900481	80.905809	6.806914	80.905564	Rathkarawwa, Sri Lanka	10.407477	
Badulla	Welimada	Dambawinna Viharaya	False	False	BDLLWLMDDMBWNNVHRY		Badulla	LK-81	7.074529	81.04486	Welimada	PS-810212	6.900481	80.905809	6.893891	80.921983	Dambawinna Purana Raja Maha Viharaya, Dambawinna, Welimada, Bandarawela - Welimada Rd, Dambawinna 90200, Sri Lanka	1.930579	
Badulla	Welimada	Hewanakumbura Viharaya	False	False	BDLLWLMDHWNKMBRVHRY		Badulla	LK-81	7.074529	81.04486	Welimada	PS-810212	6.900481	80.905809	6.953504	80.858534	Sri wijayarama maha viharaya uva paranagama Uduhawara, Welimada 90226, Sri Lanka	7.876027	
Badulla	Welimada	Nawela Viharaya	False	False	BDLLWLMDNWLVHRY		Badulla	LK-81	7.074529	81.04486	Welimada	PS-810212	6.900481	80.905809	6.953504	80.858534	Sri wijayarama maha viharaya uva paranagama Uduhawara, Welimada 90226, Sri Lanka	7.876027	
Badulla	Welimada	Bogahkumbura Hospital	False	False	BDLLWLMDBGHKMBRHSPTL		Badulla	LK-81	7.074529	81.04486	Welimada	PS-810212	6.900481	80.905809	6.862306	80.875527	B48, Sri Lanka	5.404861	
Badulla	Haputale	Panketiya Hospital	False	False	BDLLHPTLPNKTYHSPTL		Badulla	LK-81	7.074529	81.04486	Haputale	PS-810215	6.767653	80.957218	6.782692	80.96483	Beragala-Hali Ela Highway, Sri Lanka	1.872192	
Badulla	Haputale	Bingethenna Community Hall	False	False	BDLLHPTLBNGTHNNCMMNTYHLL		Badulla	LK-81	7.074529	81.04486	Haputale	PS-810215	6.767653	80.957218	6.772444	80.930934	Adisham Bungalow, Adisham Rd, Haputale 90160, Sri Lanka	2.951684	
Badulla	Haputale	Pitarathmale Vidyalaya	False	False	BDLLHPTLPTRTHMLVDYLY		Badulla	LK-81	7.074529	81.04486	Haputale	PS-810215	6.767653	80.957218	6.78509	80.996105	QXPW+2CQ, Bandarawela, Sri Lanka	4.712778	
Badulla	Haputale	Diyatalawa Cultural Centre	False	False	BDLLHPTLDYTLWCLTRLCNTR		Badulla	LK-81	7.074529	81.04486	Haputale	PS-810215	6.767653	80.957218	6.807134	80.956348	Fair Rd, Diyatalawa, Sri Lanka	4.392516	
Badulla	Haputale	Dodanwatta Viayalaya	False	False	BDLLHPTLDDNWTTVYLY		Badulla	LK-81	7.074529	81.04486	Haputale	PS-810215	6.767653	80.957218	7.28447	80.550963	Dodanwala Natha Dewale Rd, Dodamwala, Sri Lanka	72.910484	#CenterFarFromPolice
Badulla	Ella	Pupula Vidyalaya	False	False	BDLLLLPPLVDYLY		Badulla	LK-81	7.074529	81.04486	Ella	PS-810211	6.876609	81.048276	7.152473	81.106571	5424+XJP, Badulla, Sri Lanka	31.351933	#CenterFarFromPolice
Badulla	Ella	Piyarapandowa Vidyalaya	False	False	BDLLLLPYRPNDWVDYLY		Badulla	LK-81	7.074529	81.04486	Ella	PS-810211	6.876609	81.048276	6.873531	81.052607	Passara Rd, Bandarawela, Sri Lanka	0.588183	
Badulla	Ella	Halpe Vidyalaya	False	False	BDLLLLHLPVDYLY		Badulla	LK-81	7.074529	81.04486	Ella	PS-810211	6.876609	81.048276	6.888923	81.045671	Helahalpe, Bandarawela - Badulla Rd, Bandarawela, Sri Lanka	1.399566	
Badulla	Bandarawela	MOH Office - Bandarawela	False	False	BDLLBNDRWLMHFFCBNDRWL		Badulla	LK-81	7.074529	81.04486	Bandarawela	PS-810210	6.831526	80.986784	6.841272	80.98482	Hospital Junction Helamuduna Bus Stop, Etampitiya Rd, Bandarawela, Sri Lanka	1.105533	
Badulla	Bandarawela	Municipal Council - Bandarawela	False	False	BDLLBNDRWLMNCPLCNCLBNDRWL		Badulla	LK-81	7.074529	81.04486	Bandarawela	PS-810210	6.831526	80.986784	6.832052	80.987194	Esplanade Road Beragala-Hali Ela Highway, Bandarawela 90100, Sri Lanka	0.073982	
Badulla	Uva Paranagama	Kendagolla Vidyalaya	False	False	BDLLVPRNGMKNDGLLVDYLY		Badulla	LK-81	7.074529	81.04486	Uvaparanagama	PS-810213	6.958341	80.930364	6.992757	81.108477	Kendagolla, Sri Lanka	20.033971	#CenterFarFromPolice
Badulla	Uva Paranagama	Maspanna Viharaya	False	False	BDLLVPRNGMMSPNNVHRY		Badulla	LK-81	7.074529	81.04486	Uvaparanagama	PS-810213	6.958341	80.930364	6.953504	80.858534	Sri wijayarama maha viharaya uva paranagama Uduhawara, Welimada 90226, Sri Lanka	7.94906	
Badulla	Uva Paranagama	Wethalawa Viharaya	False	False	BDLLVPRNGMWTHLWVHRY		Badulla	LK-81	7.074529	81.04486	Uvaparanagama	PS-810213	6.958341	80.930364	6.953504	80.858534	Sri wijayarama maha viharaya uva paranagama Uduhawara, Welimada 90226, Sri Lanka	7.94906	
Badulla	Siyambalanduwa	Buddama Maha Vidyalaya	False	False	BDLLSYMBLNDWBDDMMHVDYLY		Badulla	LK-81	7.074529	81.04486	Siyambalanduwa	PS-820122	6.906851	81.547598	7.043494	81.485724	Buddama, Sri Lanka	16.663417	
Monaragala	Ethimale	Ethimale Maha Vidyalaya	False	False	MNRGLTHMLTHMLMHVDYLY		Moneragala	LK-82	6.787517	81.303744	Athimale	PS-820124	6.907289	79.863819	6.811151	81.502033	Ethimale, Sri Lanka	181.229707	#CenterFarFromPolice
Galle	Uragasmanhandiya	Kobbekaduwa Maha Vidyalaya	False	False	GLLRGSMNHNDYKBBKDWMHVDYLY		Galle	LK-31	6.222805	80.251977	Uragasmanhandiya	PS-310236	6.343756	80.080679	6.344654	80.090004	83VR+V26, Uragasmanhandiya, Sri Lanka	1.035694	
Galle	Uragasmanhandiya	Uragaha Maha Vidyalaya	False	False	GLLRGSMNHNDYRGHMHVDYLY		Galle	LK-31	6.222805	80.251977	Uragasmanhandiya	PS-310236	6.343756	80.080679	6.342973	80.101407	84V2+5HM, Uragasmanhandiya, Sri Lanka	2.293115	
Galle	Kosgoda	Hegalla Vidyalaya	False	False	GLLKSGDHGLLVDYLY		Galle	LK-31	6.222805	80.251977	Kosgoda	PS-310245	6.335782	80.030182	6.325095	80.033058	A2, Ahungalla, Sri Lanka	1.2305	
Galle	Habaraduw	Unawatuna Maha Vidyalaya	False	False	GLLHBRDWNWTNMHVDYLY		Galle	LK-31	6.222805	80.251977	Habaraduwa	PS-310127	5.9871	80.327098	6.020558	80.249382	Maharamba Rd, Unawatuna, Sri Lanka	9.367862	
Galle	Habaraduw	Hinatigala Shariputhra Maha Vidyalaya	False	False	GLLHBRDWHNTGLSHRPTHRMHVDYLY		Galle	LK-31	6.222805	80.251977	Habaraduwa	PS-310127	5.9871	80.327098	6.016251	80.277486	278G+GX5, Heenatigala, Sri Lanka	6.374375	
Galle	Rathgama	Mahahegoda Nigrodharama Viharaya	False	False	GLLRTHGMMHHGDNGRDHRMVHRY		Galle	LK-31	6.222805	80.251977	Ratgama	PS-310121	6.145115	80.099693	6.027007	80.215356	Parawa St, Galle 80000, Sri Lanka	18.336752	
Galle	Galle	Sanghamitta Balika Vidyalaya	False	False	GLLGLLSNGHMTTBLKVDYLY		Galle	LK-31	6.222805	80.251977	Galle	PS-310120	6.032983	80.21714	6.047235	80.212517	Wakwella Rd, Galle 80000, Sri Lanka	1.665683	
Galle	Poddala	Hapugala Viharaya	False	False	GLLPDDLHPGLVHRY		Galle	LK-31	6.222805	80.251977	Poddala	PS-310126	6.121449	80.210629	6.076585	80.195875	Hapugala, Sri Lanka	5.250204	
Galle	Akmeemana	Hiyare Maha Vidyalaya	False	False	GLLKMMNHYRMHVDYLY		Galle	LK-31	6.222805	80.251977	Akmeemana	PS-310123	6.073453	80.276627	6.069303	80.297763	Hiyare, Sri Lanka	2.382904	
Galle	Akmeemana	Ketandola Mahindarama Viharaya	False	False	GLLKMMNKTNDLMHNDRMVHRY		Galle	LK-31	6.222805	80.251977	Akmeemana	PS-310123	6.073453	80.276627	6.027007	80.215356	Parawa St, Galle 80000, Sri Lanka	8.52173	
Galle	Nagoda	Mapalagama Central College	False	False	GLLNGDMPLGMCNTRLCLLG		Galle	LK-31	6.222805	80.251977	Nagoda	PS-310130	6.197616	80.274707	6.227123	80.29788	67GX+R5R, Paranathanayamgoda, Sri Lanka	4.163864	
Galle	Nagoda	Thalagaswala Tamil College	False	False	GLLNGDTHLGSWLTMLCLLG		Galle	LK-31	6.222805	80.251977	Nagoda	PS-310130	6.197616	80.274707	6.193905	80.276953	B454, Nagoda, Sri Lanka	0.481733	
Galle	Nagoda	Waduluwita Sanasa Hall	False	False	GLLNGDWDLWTSNSHLL		Galle	LK-31	6.222805	80.251977	Nagoda	PS-310130	6.197616	80.274707	6.227031	80.184735	Miriswaththa Tea Factory, Yakkatuwa-Kahaduwa Road, Dikkubura, Sri Lanka	10.47299	
Galle	Yakkalamulla	Uduwelwala Primary Scholl	False	False	GLLYKKLMLLDWLWLPRMRYSCHLL		Galle	LK-31	6.222805	80.251977	Yakkalamulla	PS-310125	6.106186	80.348152	6.108656	80.354664	4953+FV7, Yakkalamulla, Sri Lanka	0.77084	
Galle	Pitigala	Maligathenna Purana Viharaya - Haththaka	False	False	GLLPTGLMLGTHNNPRNVHRYHTHTHK		Galle	LK-31	6.222805	80.251977	Pitigala	PS-310237	6.335202	80.221149	6.360052	80.240225	B158, Hattaka, Sri Lanka	3.476654	
Galle	Baddegama	National Vocational Training Institute	False	False	GLLBDDGMNTNLVCTNLTRNNGNSTTT		Galle	LK-31	6.222805	80.251977	Baddegama	PS-310239	6.172566	80.174966	6.163263	80.1754	Gothatuwa Road, Baddegama, Sri Lanka	1.035884	
Galle	Elpitiya	Kahaduwa Maha Vidyalaya	False	False	GLLLPTYKHDWMHVDYLY		Galle	LK-31	6.222805	80.251977	Elpitiya	PS-310235	6.279163	80.142917	6.220777	80.212991	112 Yakkatuwa-Kahaduwa Road, Kahaduwa, Sri Lanka	10.109741	
Galle	Elpitiya	Waturawila Dhamma School Building	False	False	GLLLPTYWTRWLDHMMSCHLBLDNG		Galle	LK-31	6.222805	80.251977	Elpitiya	PS-310235	6.279163	80.142917	6.228271	80.229604	66HH+8R5, Kahaduwa, Sri Lanka	11.131579	
Matara	Dickwella	Radampala Maha Vidyalaya	False	False	MTRDCKWLLRDMPLMHVDYLY		Matara	LK-32	6.142734	80.539994	Dikwella	PS-320103	5.964296	80.693198	5.97916	80.699701	XMHX+MV8, Dikwella, Sri Lanka	1.803055	
Matara	Mawarala	Gombadla Shailaramaya	False	False	MTRMWRLGMBDLSHLRMY		Matara	LK-32	6.142734	80.539994	Mawarala	PS-320109	6.198061	80.587045	6.203807	80.5886	Mawarala, Sri Lanka	0.661961	
Matara	Pasgoda	Bengamuwa Central College	False	False	MTRPSGDBNGMWCNTRLCLLG		Matara	LK-32	6.142734	80.539994									#PoliceLocationUnknown
Matara	Matara	Godagama Pantharamaya	False	False	MTRMTRGDGMPNTHRMY		Matara	LK-32	6.142734	80.539994	Matara	PS-320101	5.94904	80.533659	5.96977	80.520275	Matara - Akuressa Hwy, Godagama 81000, Sri Lanka	2.74026	
Matara	Hakmana	Henry Ariyaratne College	False	False	MTRHKMNHNRYRYRTNCLLG		Matara	LK-32	6.142734	80.539994	Hakmana	PS-320106	6.084824	80.643227	6.079554	80.657662	Hakmana, Sri Lanka	1.700772	
Matara	Kosmodara	Kotapola National College	False	False	MTRKSMDRKTPLNTNLCLLG		Matara	LK-32	6.142734	80.539994	Kosmodara	PS-320116	6.290019	80.560337	6.295409	80.542109	A17, Kotapola, Sri Lanka	2.102569	
Matara	Kamburupitiya	Narandeniya Maha Vidyalaya	False	False	MTRKMBRPTYNRNDNYMHVDYLY		Matara	LK-32	6.142734	80.539994	Kamburupitiya	PS-320105	6.073875	80.564579	6.080974	80.566708	School Road, Kamburupitiya, Sri Lanka	0.823984	
Matara	Akuressa	Godapitiya National College	False	False	MTRKRSSGDPTYNTNLCLLG		Matara	LK-32	6.142734	80.539994	Akuressa	PS-320112	6.099044	80.4776	6.088827	80.479639	Sri Vardhanaramaya Paraduwa, Matara-Akuressa Highway, Akuressa, Sri Lanka	1.158595	
Matara	Akuressa	Wilpita Maha Vidyalaya	False	False	MTRKRSSWLPTMHVDYLY		Matara	LK-32	6.142734	80.539994	Akuressa	PS-320112	6.099044	80.4776	6.100691	80.512979	4G27+75H, Matara, Sri Lanka	3.917206	
Matara	Akuressa	Sadath Muslim College	False	False	MTRKRSSSDTHMSLMCLLG		Matara	LK-32	6.142734	80.539994	Akuressa	PS-320112	6.099044	80.4776	6.088827	80.479639	Sri Vardhanaramaya Paraduwa, Matara-Akuressa Highway, Akuressa, Sri Lanka	1.158595	
Matara	Morawaka	Paragala Viharaya	False	False	MTRMRWKPRGLVHRY		Matara	LK-32	6.142734	80.539994	Morawaka	PS-320107	6.256777	80.493654	6.287425	80.539557	A17, Kotapola, Sri Lanka	6.113833	
Matara	Malimbada	Sri Sumedha Maha Vidyalaya	False	False	MTRMLMBDSRSMDHMHVDYLY		Matara	LK-32	6.142734	80.539994	Malimbada	PS-320117	6.010503	80.517438	6.00944	80.51813	Malimbada, Matara 81000, Sri Lanka	0.140853	
Matara	Malimbada	Akurugoda Nagarukkaramaya	False	False	MTRMLMBDKRGDNGRKKRMY		Matara	LK-32	6.142734	80.539994	Malimbada	PS-320117	6.010503	80.517438	6.014169	80.493823	Akurugoda Rd, Sri Lanka	2.643879	
Hambantota	Hambantota	Mobile Medical Team	False	False	HMBNTTHMBNTTMBLMDCLTM		Hambantota	LK-33	6.259779	81.098619	Hambantota	PS-330156	6.125872	81.12521					#CenterLocationUnknown
Hambantota	Hambantota	MOH Office – Hambantota	False	False	HMBNTTHMBNTTMHFFCHMBNTT		Hambantota	LK-33	6.259779	81.098619	Hambantota	PS-330156	6.125872	81.12521	6.171162	81.127	54CG+FQ9, Hambantota, Sri Lanka	5.041487	
Hambantota	Ambalantota	MOH Office – Ambalantota	False	False	HMBNTTMBLNTTMHFFCMBLNTT		Hambantota	LK-33	6.259779	81.098619	Ambalantota	PS-330157	6.12516	81.023981	6.122767	81.005973	Walawa watta Road, Malpeththawa, Ambalantota, Sri Lanka	2.009195	
Hambantota	Walasmulla	Muruthawela Maha Vidyalaya	False	False	HMBNTTWLSMLLMRTHWLMHVDYLY		Hambantota	LK-33	6.259779	81.098619	Walasmulla	PS-330151	6.154102	80.698256	6.184092	80.683769	Walasmulla - Katuwana - Middeniya Road, Ethpitiya, Sri Lanka	3.700544	
Hambantota	Walasmulla	Dhammananda Maha Vidyalaya	False	False	HMBNTTWLSMLLDHMMNNDMHVDYLY		Hambantota	LK-33	6.259779	81.098619	Walasmulla	PS-330151	6.154102	80.698256	6.218377	80.636298	6J9P+9G3, Hambantota, Sri Lanka	9.902261	
Hambantota	Walasmulla	MOH Office – Okewela	False	False	HMBNTTWLSMLLMHFFCKWL		Hambantota	LK-33	6.259779	81.098619	Walasmulla	PS-330151	6.154102	80.698256	6.098886	80.715898	Okewela, Sri Lanka	6.444136	
Hambantota	Weeraketiya	MOH Office – Weeraketiya	False	False	HMBNTTWRKTYMHFFCWRKTY		Hambantota	LK-33	6.259779	81.098619	Weeraketiya	PS-330149	6.153899	80.76737	6.144703	80.765287	4QV8+V4M, Weeraketiya, Sri Lanka	1.048488	
Hambantota	Weeraketiya	Hakuruwela Hospital	False	False	HMBNTTWRKTYHKRWLHSPTL		Hambantota	LK-33	6.259779	81.098619	Weeraketiya	PS-330149	6.153899	80.76737	6.143782	80.833594	4RVM+GC8, Agrahara, Sri Lanka	7.409657	
Hambantota	Weeraketiya	Aththanayaya Vidyalaya	False	False	HMBNTTWRKTYTHTHNYYVDYLY		Hambantota	LK-33	6.259779	81.098619	Weeraketiya	PS-330149	6.153899	80.76737	6.135024	80.77105	Tangalle - Weeraketiya Rd, Weeraketiya, Sri Lanka	2.138545	
Hambantota	Hungama	Hungama Vijayaba National College	False	False	HMBNTTHNGMHNGMVJYBNTNLCLLG		Hambantota	LK-33	6.259779	81.098619	Hungama	PS-330148	6.111262	80.932642	6.111747	80.930389	B622, Hungama, Sri Lanka	0.254949	
Hambantota	Angunukolapelessa	National Youth Service Centre	False	False	HMBNTTNGNKLPLSSNTNLYTHSRVCCNTR		Hambantota	LK-33	6.259779	81.098619	Angunakolapelessa	PS-330150	6.321993	80.844883	6.155856	80.905564	Eraminiyaya, Sri Lanka	19.659758	
Hambantota	Weerawila	Nedigamwila Maha Vidyalaya	False	False	HMBNTTWRWLNDGMWLMHVDYLY		Hambantota	LK-33	6.259779	81.098619	Weeravila	PS-330161	6.26109	81.236724	6.267019	81.228933	Randunu Kele Watte, Weerawila, Hambantota District, Sri Lanka., A2, Wirawila, Sri Lanka	1.084876	
Hambantota	Beliatta	MOH Office – Beliatta	False	False	HMBNTTBLTTMHFFCBLTT		Hambantota	LK-33	6.259779	81.098619	Beliatta	PS-330152	6.046936	80.735408	6.051828	80.741735	3P2R+PMQ, Hambantota, Sri Lanka	0.886482	
Hambantota	Tangalla	MOH Office – Tangalla	False	False	HMBNTTTNGLLMHFFCTNGLL		Hambantota	LK-33	6.259779	81.098619	Tangalle	PS-330147	6.023954	80.797255	6.02363	80.795742	2QFW+F75, Tangalle, Sri Lanka	0.171198	
Hambantota	Sooriyawewa	MOH Office – Sooriyawewa	False	False	HMBNTTSRYWWMHFFCSRYWW		Hambantota	LK-33	6.259779	81.098619	Sooriyawewa	PS-330155	6.306022	81.003873	6.304862	81.004768	8233+WWR, Sooriyawewa, Sri Lanka	0.1626	
Hambantota	Katuwana	Rukmalpitiya Maha Vidyalaya	False	False	HMBNTTKTWNRKMLPTYMHVDYLY		Hambantota	LK-33	6.259779	81.098619	Katuwana	PS-330153	6.269722	80.690963	6.249382	80.70948	Julampitiya Rd, Katuwana, Sri Lanka	3.051265	
Rathnapura	Opanayaka	Hunuwala Tamil College	False	False	RTHNPRPNYKHNWLTMLCLLG		Ratnapura	LK-91	6.586826	80.566158	Opanayaka	PS-910104	6.608519	80.619285	6.611693	80.591317	JH6R+MGG, රත්නපුර, Sri Lanka	3.110298	
Rathnapura	Opanayaka	Vidyakara Vidyalaya	False	False	RTHNPRPNYKVDYKRVDYLY		Ratnapura	LK-91	6.586826	80.566158	Opanayaka	PS-910104	6.608519	80.619285	6.610286	80.620812	JJ6C+487, Opanayake, Sri Lanka	0.259028	
Rathnapura	Opanayaka	Dharamaraja Vidyalaya	False	False	RTHNPRPNYKDHRMRJVDYLY		Ratnapura	LK-91	6.586826	80.566158	Opanayaka	PS-910104	6.608519	80.619285	6.611693	80.591317	JH6R+MGG, රත්නපුර, Sri Lanka	3.110298	
Rathnapura	Pinnawala	Gurubewila Vidyalaya	False	False	RTHNPRPNNWLGRBWLVDYLY		Ratnapura	LK-91	6.586826	80.566158	Pinnawala	PS-910115	7.299943	80.386604	6.703086	80.664111	PM37+6JQ, Sri Lanka	73.116458	#CenterFarFromPolice
Rathnapura	Pinnawala	Sumanadewa Vidyalaya	False	False	RTHNPRPNNWLSMNDWVDYLY		Ratnapura	LK-91	6.586826	80.566158	Pinnawala	PS-910115	7.299943	80.386604	6.726907	80.663883	Pahala Waleboda Rd, Sri Lanka	70.708149	#CenterFarFromPolice
Rathnapura	Balangoda	Thalangama Vidyalaya	False	False	RTHNPRBLNGDTHLNGMVDYLY		Ratnapura	LK-91	6.586826	80.566158	Balangoda	PS-910103	6.649474	80.700276	6.641498	80.714138	JPR7+HMR, Balangoda, Sri Lanka	1.769912	
Rathnapura	Balangoda	Guwaranhena Vidyalaya	False	False	RTHNPRBLNGDGWRNHNVDYLY		Ratnapura	LK-91	6.586826	80.566158	Balangoda	PS-910103	6.649474	80.700276	6.641498	80.714138	JPR7+HMR, Balangoda, Sri Lanka	1.769912	
Rathnapura	Balangoda	Ellepola Vidyalaya	False	False	RTHNPRBLNGDLLPLVDYLY		Ratnapura	LK-91	6.586826	80.566158	Balangoda	PS-910103	6.649474	80.700276	6.630783	80.686023	JMJP+8C6, Balangoda, Sri Lanka	2.607973	
Rathnapura	Balangoda	Egoda Waleboda Vidyalaya	False	False	RTHNPRBLNGDGDWLBDVDYLY		Ratnapura	LK-91	6.586826	80.566158	Balangoda	PS-910103	6.649474	80.700276	6.720519	80.607713	Egoda Waleboda, Sri Lanka	12.923352	
Rathnapura	Samanalawewa	Pambahina Hospital	False	False	RTHNPRSMNLWWPMBHNHSPTL		Ratnapura	LK-91	6.586826	80.566158									#PoliceLocationUnknown
Rathnapura	Panamura	Mulediyawala Vidyalaya	False	False	RTHNPRPNMRMLDYWLVDYLY		Ratnapura	LK-91	6.586826	80.566158	Panamure	PS-910236	6.40194	80.687615	6.681597	80.40321	St.Aloysius' College , Church Road , Ratnapura , Srilanka, Cathedral Road, Ratnapura 70000, Sri Lanka	44.21917	#CenterFarFromPolice
Rathnapura	Panamura	Walalgoda Vidyalaya	False	False	RTHNPRPNMRWLLGDVDYLY		Ratnapura	LK-91	6.586826	80.566158	Panamure	PS-910236	6.40194	80.687615	6.32955	80.757703	Embilipitiya-Panamure-Urubokka Rd, Sri Lanka	11.174171	
Rathnapura	Panamura	Panamura Vidyalaya	False	False	RTHNPRPNMRPNMRVDYLY		Ratnapura	LK-91	6.586826	80.566158	Panamure	PS-910236	6.40194	80.687615	6.342085	80.776645	B115, Panamure, Sri Lanka	11.881996	
Rathnapura	Wewelwatta	Rathagama Vidyalaya	False	False	RTHNPRWWLWTTRTHGMVDYLY		Ratnapura	LK-91	6.586826	80.566158	Wewalwatta	PS-910102	6.707202	80.555569	6.683533	80.399526	A4, Ratnapura, Sri Lanka	17.438145	
Rathnapura	Wewelwatta	Dehenakanda Vidyalaya	False	False	RTHNPRWWLWTTDHNKNDVDYLY		Ratnapura	LK-91	6.586826	80.566158	Wewalwatta	PS-910102	6.707202	80.555569	6.728651	80.532736	Hapugasthenna, Sri Lanka	3.471852	
Rathnapura	Wewelwatta	Kompanawatta Vidyalaya	False	False	RTHNPRWWLWTTKMPNWTTVDYLY		Ratnapura	LK-91	6.586826	80.566158	Wewalwatta	PS-910102	6.707202	80.555569	6.683533	80.399526	A4, Ratnapura, Sri Lanka	17.438145	
Rathnapura	Rathnapura	Mudduwa Pirivena	False	False	RTHNPRRTHNPRMDDWPRVN		Ratnapura	LK-91	6.586826	80.566158	Ratnapura	PS-910101	6.679456	80.40223	6.674151	80.401313	MCF2+MG8, Ratnapura, Sri Lanka	0.598707	
Rathnapura	Rathnapura	Gagulwitiya Vidyalaya	False	False	RTHNPRRTHNPRGGLWTYVDYLY		Ratnapura	LK-91	6.586826	80.566158	Ratnapura	PS-910101	6.679456	80.40223	6.681597	80.40321	St.Aloysius' College , Church Road , Ratnapura , Srilanka, Cathedral Road, Ratnapura 70000, Sri Lanka	0.261598	
Rathnapura	Eheliyagoda	Mitipola Vidyalaya	False	False	RTHNPRHLYGDMTPLVDYLY		Ratnapura	LK-91	6.586826	80.566158	Ehaliyagoda	PS-910113	6.854603	80.260446	6.852911	80.26275	A4 Ratnapura Road, Eheliyagoda 10600, Sri Lanka	0.316481	
Rathnapura	Endana	Howpa Vidyalaya	False	False	RTHNPRNDNHWPVDYLY		Ratnapura	LK-91	6.586826	80.566158									#CenterLocationUnknown
Rathnapura	Endana	Gabbela Vidyalaya	False	False	RTHNPRNDNGBBLVDYLY		Ratnapura	LK-91	6.586826	80.566158									#PoliceLocationUnknown
Rathnapura	Kolonna	Eggbirth Tamil College	False	False	RTHNPRKLNNGGBRTHTMLCLLG		Ratnapura	LK-91	6.586826	80.566158	Kolonna	PS-910235	6.40194	80.687615	6.44173	80.635519	Embilipitiya - Panamure - Bulutota Rd, Suriyakanda, Sri Lanka	7.262623	
Rathnapura	Ayagama	Ellahena Community Hall	False	False	RTHNPRYGMLLHNCMMNTYHLL		Ratnapura	LK-91	6.586826	80.566158	Ayagama	PS-910109	6.637727	80.312554	6.63556	80.312954	Ayagama, Sri Lanka	0.245053	
Rathnapura	Ayagama	Pallekada Vidyalaya	False	False	RTHNPRYGMPLLKDVDYLY		Ratnapura	LK-91	6.586826	80.566158	Ayagama	PS-910109	6.637727	80.312554	6.652164	80.295693	Gavaragiriya Road, Pallekada, Sri Lanka	2.459446	
Rathnapura	Godakawela	Ranwala Vidyalaya	False	False	RTHNPRGDKWLRNWLVDYLY		Ratnapura	LK-91	6.586826	80.566158	Godakawela	PS-910233	6.50224	80.655642	6.548117	80.671963	Ranwala Rd, Godakawela, Sri Lanka	5.412259	
Rathnapura	Godakawela	Udaranawala Vidyalaya	False	False	RTHNPRGDKWLDRNWLVDYLY		Ratnapura	LK-91	6.586826	80.566158	Godakawela	PS-910233	6.50224	80.655642	6.505873	80.640843	GJ4R+88W, Ratnapura, Sri Lanka	1.684679	
Rathnapura	Godakawela	Mahaomara Vidyalaya	False	False	RTHNPRGDKWLMHMRVDYLY		Ratnapura	LK-91	6.586826	80.566158	Godakawela	PS-910233	6.50224	80.655642	6.541417	80.698329	GMRX+H88, Ratnapura, Sri Lanka	6.422027	
Rathnapura	Godakawela	Elamalpe Vidyalaya	False	False	RTHNPRGDKWLLMLPVDYLY		Ratnapura	LK-91	6.586826	80.566158	Godakawela	PS-910233	6.50224	80.655642	6.505873	80.640843	GJ4R+88W, Ratnapura, Sri Lanka	1.684679	
Rathnapura	Godakawela	Panawela Vidyalaya	False	False	RTHNPRGDKWLPNWLVDYLY		Ratnapura	LK-91	6.586826	80.566158	Godakawela	PS-910233	6.50224	80.655642	6.505873	80.640843	GJ4R+88W, Ratnapura, Sri Lanka	1.684679	
Rathnapura	Godakawela	Makandura Vidyalaya	False	False	RTHNPRGDKWLMKNDRVDYLY		Ratnapura	LK-91	6.586826	80.566158	Godakawela	PS-910233	6.50224	80.655642	6.553101	80.63009	Makandura, Sri Lanka	6.322815	
Rathnapura	Godakawela	Agaregama Vidyalaya	False	False	RTHNPRGDKWLGRGMVDYLY		Ratnapura	LK-91	6.586826	80.566158	Godakawela	PS-910233	6.50224	80.655642	6.505873	80.640843	GJ4R+88W, Ratnapura, Sri Lanka	1.684679	
Rathnapura	Godakawela	Kotakethana Vidyalaya	False	False	RTHNPRGDKWLKTKTHNVDYLY		Ratnapura	LK-91	6.586826	80.566158	Godakawela	PS-910233	6.50224	80.655642	6.572314	80.591057	Kotakethana, Sri Lanka	10.56831	
Rathnapura	Godakawela	Dimbulwala Vidyalaya.	False	False	RTHNPRGDKWLDMBLWLVDYLY		Ratnapura	LK-91	6.586826	80.566158	Godakawela	PS-910233	6.50224	80.655642	6.505873	80.640843	GJ4R+88W, Ratnapura, Sri Lanka	1.684679	
Rathnapura	Godakawela	Hiramadagama Vidyalaya	False	False	RTHNPRGDKWLHRMDGMVDYLY		Ratnapura	LK-91	6.586826	80.566158	Godakawela	PS-910233	6.50224	80.655642	6.53071	80.615995	GJJ8+79Q, Ratnapura, Sri Lanka	5.406022	
Rathnapura	Pelmadulla	Kamarangapititya Vidyalaya	False	False	RTHNPRPLMDLLKMRNGPTTYVDYLY		Ratnapura	LK-91	6.586826	80.566158	Pelmadulla	PS-910117	6.632692	80.521315	6.634485	80.529954	Pelmadulla, Sri Lanka	0.975094	
Rathnapura	Pelmadulla	Sri Khettarama Viharaya	False	False	RTHNPRPLMDLLSRKHTTRMVHRY		Ratnapura	LK-91	6.586826	80.566158	Pelmadulla	PS-910117	6.632692	80.521315	6.632226	80.547508	JGJX+V2R, Pelmadulla, Sri Lanka	2.894409	
Rathnapura	Pelmadulla	Meegahagoda Rajamaha Viharaya	False	False	RTHNPRPLMDLLMGHGDRJMHVHRY		Ratnapura	LK-91	6.586826	80.566158	Pelmadulla	PS-910117	6.632692	80.521315	6.61745	80.560453	JH86+X5P, Pelmadulla, Sri Lanka	4.644711	
Rathnapura	Kuruwita	Waladura Viharaya	False	False	RTHNPRKRWTWLDRVHRY		Ratnapura	LK-91	6.586826	80.566158	Kuruwita	PS-910112	6.778839	80.364712	6.77558	80.35651	Q9G4+6JJ, Kuruwita, Sri Lanka	0.975765	
Rathnapura	Kuruwita	Sudagala Maha Vidyalaya	False	False	RTHNPRKRWTSDGLMHVDYLY		Ratnapura	LK-91	6.586826	80.566158	Kuruwita	PS-910112	6.778839	80.364712	6.80349	80.379989	Kuruwita Erathna Rd, Kuruwita, Sri Lanka	3.219513	
Rathnapura	Kuruwita	Sugatha Naga Bodhi Viharaya	False	False	RTHNPRKRWTSGTHNGBDHVHRY		Ratnapura	LK-91	6.586826	80.566158	Kuruwita	PS-910112	6.778839	80.364712	6.468211	80.607487	FJ94+7XQ, Rakwana, Sri Lanka	43.741073	#CenterFarFromPolice
Rathnapura	Kahawatta	Atakalanpanna Vidyalaya	False	False	RTHNPRKHWTTTKLNPNNVDYLY		Ratnapura	LK-91	6.586826	80.566158	Kahawatta	PS-910107	6.591434	80.56893	6.54009	80.588877	GHRQ+2HJ, Atakalanpanna, Sri Lanka	6.12157	
Rathnapura	Kahawatta	Yayinna Vidyalaya	False	False	RTHNPRKHWTTYYNNVDYLY		Ratnapura	LK-91	6.586826	80.566158	Kahawatta	PS-910107	6.591434	80.56893	6.571516	80.553136	HHC3+J72, Allagewaththa, Sri Lanka	2.820285	
Rathnapura	Kahawatta	MoratotaVidyalaya	False	False	RTHNPRKHWTTMRTTVDYLY		Ratnapura	LK-91	6.586826	80.566158	Kahawatta	PS-910107	6.591434	80.56893	6.602533	80.584906	JH3M+2X6, Pelmadulla, Sri Lanka	2.154105	
Rathnapura	Bulathkohupitiya	MOH Office – Bulathkohupitiya	False	False	RTHNPRBLTHKHPTYMHFFCBLTHKHPTY		Ratnapura	LK-91	6.586826	80.566158	Bulathkohupitiya	PS-920232	7.106684	80.3347	7.109127	80.334565	485M+MR4, Bulathkohupitiya, Sri Lanka	0.272143	
Rathnapura	Warakapola	MOH Office – Warakapola	False	False	RTHNPRWRKPLMHFFCWRKPL		Ratnapura	LK-91	6.586826	80.566158	Wrakapola	PS-920119	7.227488	80.199696	7.226501	80.197818	65GX+J44, Warakapola, Sri Lanka	0.234514	
Rathnapura	Mawanella	MOH Office – Mawanella	False	False	RTHNPRMWNLLMHFFCMWNLL		Ratnapura	LK-91	6.586826	80.566158	Mawanella	PS-920122	7.256966	80.445912	7.253248	80.44561	Rambukkana-Mawanella Rd, Mawanella, Sri Lanka	0.414893	
Anuradhapura	Anuradhapura	Army Hospital Anuradhapura	False	False	NRDHPRNRDHPRRMYHSPTLNRDHPR		Anuradhapura	LK-71	8.39199	80.512958	Anuradapura	PS-710101	8.329752	80.407265	8.338302	80.407646	AB02, Anuradhapura, Sri Lanka	0.951939	
Anuradhapura	Anuradhapura	MOH Office – Anuradhapura	False	False	NRDHPRNRDHPRMHFFCNRDHPR		Anuradhapura	LK-71	8.39199	80.512958	Anuradapura	PS-710101	8.329752	80.407265	8.324809	80.412262	Kandy Rd, Anuradhapura, Sri Lanka	0.777651	
Anuradhapura	Anuradhapura	Teaching Hospital – Anuradhapura	False	False	NRDHPRNRDHPRTCHNGHSPTLNRDHPR		Anuradhapura	LK-71	8.39199	80.512958	Anuradapura	PS-710101	8.329752	80.407265	8.324765	80.413968	Harischandra Mawatha, Anuradhapura, Sri Lanka	0.922993	
Anuradhapura	Galenbindunuwewa	Dutuwewa Vidyalaya	False	False	NRDHPRGLNBNDNWWDTWWVDYLY		Anuradhapura	LK-71	8.39199	80.512958	Galenbidunuwewa	PS-710121	8.29037	80.71501	8.329143	80.761406	Dutuwewa Central collage, dutuwewa, galenbindunuwewa, Sri Lanka	6.683953	
Anuradhapura	Galenbindunuwewa	Yakalla Hospital	False	False	NRDHPRGLNBNDNWWYKLLHSPTL		Anuradhapura	LK-71	8.39199	80.512958	Galenbidunuwewa	PS-710121	8.29037	80.71501	8.2193	80.70284	6P93+P4G, Yakalla, Sri Lanka	8.017812	
Anuradhapura	Galenbindunuwewa	Getalawa Mahagaswewa Vidyalaya	False	False	NRDHPRGLNBNDNWWGTLWMHGSWWVDYLY		Anuradhapura	LK-71	8.39199	80.512958	Galenbidunuwewa	PS-710121	8.29037	80.71501	8.301571	80.747087	8P2W+JRG, Anuradhapura, Sri Lanka	3.743963	
Anuradhapura	Horowpothana	Walahawiddawewa Vidyalaya	False	False	NRDHPRHRWPTHNWLHWDDWWVDYLY		Anuradhapura	LK-71	8.39199	80.512958	Horowpathana	PS-710117	8.553878	80.830734	8.540103	80.726091	GPRG+2CW, Anuradhapura, Sri Lanka	11.611692	
Anuradhapura	Horowpothana	Rasnayakawewa Vidyalaya	False	False	NRDHPRHRWPTHNRSNYKWWVDYLY		Anuradhapura	LK-71	8.39199	80.512958	Horowpathana	PS-710117	8.553878	80.830734	8.552126	80.830957	A29, Horowupotana, Sri Lanka	0.196412	
Anuradhapura	Kahatagasdigiliya	MOH Office – Kahatagasdigiliya	False	False	NRDHPRKHTGSDGLYMHFFCKHTGSDGLY		Anuradhapura	LK-71	8.39199	80.512958	Kahatagasdigiliya	PS-710118	8.427328	80.688349	8.427329	80.689909	Puttalam - Anuradhapura - Trincomalee Hwy, Kahatagasdigiliya, Sri Lanka	0.171645	
Anuradhapura	Thirappane	Kuttikulama Sirisilawansa Vidyalaya	False	False	NRDHPRTHRPPNKTTKLMSRSLWNSVDYLY		Anuradhapura	LK-71	8.39199	80.512958	Thirappone	PS-710106	6.907289	79.863819	8.213268	80.527191	Vocational Training Center, Pradesiya sabawa, Thirappane, Tirappane, Sri Lanka	162.639397	#CenterFarFromPolice
Anuradhapura	Mihintale	Mihintale Hospital	False	False	NRDHPRMHNTLMHNTLHSPTL		Anuradhapura	LK-71	8.39199	80.512958	Mihintale	PS-710104	8.360062	80.511889	8.35505	80.509287	Kandy Rd, Mihintale, Sri Lanka	0.626724	
Anuradhapura	Hidogama	Nachchaduwa Muslim Maha Vidyalaya	False	False	NRDHPRHDGMNCHCHDWMSLMMHVDYLY		Anuradhapura	LK-71	8.39199	80.512958	Hidogama	PS-710102	8.31575	80.420358	8.246907	80.463426	6FW7+Q97, Nachchaduwa, Sri Lanka	9.005998	
Anuradhapura	Hingurakgoda	MOH Office – Hingurakgoda	False	False	NRDHPRHNGRKGDMHFFCHNGRKGD		Anuradhapura	LK-71	8.39199	80.512958	Hingurakgoda	PS-720129	8.048819	80.965751	8.046007	80.96576	2XW8+C82, Hingurakgoda, Sri Lanka	0.31278	
Jaffna	Jaffna	Mobile Medical Team	False	False	JFFNJFFNMBLMDCLTM		Jaffna	LK-41	9.691792	80.098594	Jaffna	PS-410209	9.659919	80.010965					#CenterLocationUnknown
Jaffna	Kopay	MOH Office – Nallur	False	False	JFFNKPYMHFFCNLLR		Jaffna	LK-41	9.691792	80.098594	Kopai	PS-410216	9.686887	80.03856	9.673947	80.027736	M2FH+H3H, Jaffna, Sri Lanka	1.865513	
Jaffna	Kopay	Mobile Vaccination	False	False	JFFNKPYMBLVCCNTN		Jaffna	LK-41	9.691792	80.098594	Kopai	PS-410216	9.686887	80.03856					#CenterLocationUnknown
Jaffna	Kopay	Sirupiddy Tamil College	False	False	JFFNKPYSRPDDYTMLCLLG		Jaffna	LK-41	9.691792	80.098594	Kopai	PS-410216	9.686887	80.03856	9.701425	80.066057	Kopay Christian College, B71, Jaffna, Sri Lanka	3.421108	
Jaffna	Kopay	Karanthan Ramapillai Vidyalaya	False	False	JFFNKPYKRNTHNRMPLLVDYLY		Jaffna	LK-41	9.691792	80.098594	Kopai	PS-410216	9.686887	80.03856	9.711206	80.059962	Kopay Base Hospital, Jaffna, Sri Lanka	3.580942	
Jaffna	Kopay	MOH Office - Kopay	False	False	JFFNKPYMHFFCKPY		Jaffna	LK-41	9.691792	80.098594	Kopai	PS-410216	9.686887	80.03856	9.706729	80.065433	B268, Jaffna, Sri Lanka	3.681313	
Jaffna	Chunnagam	MOH Office - Uduvil	False	False	JFFNCHNNGMMHFFCDVL		Jaffna	LK-41	9.691792	80.098594	Chunnakam	PS-410211	9.745309	80.029151	9.742938	80.035132	P2VP+53C, Chunnakam, Sri Lanka	0.706719	
Jaffna	Chunnagam	Selvapuram Comman Hall – Urumpirai	False	False	JFFNCHNNGMSLVPRMCMMNHLLRMPR		Jaffna	LK-41	9.691792	80.098594	Chunnakam	PS-410211	9.745309	80.029151	9.702664	80.036018	Kondavil Junction, Palali Rd, Kondavil, Sri Lanka	4.802768	
Jaffna	Chunnagam	Kuppilan Wigneswara Hall	False	False	JFFNCHNNGMKPPLNWGNSWRHLL		Jaffna	LK-41	9.691792	80.098594	Chunnakam	PS-410211	9.745309	80.029151	9.664467	80.010483	AB16, Jaffna, Sri Lanka	9.222033	
Jaffna	Chunnagam	Mylankadu Community Hall	False	False	JFFNCHNNGMMYLNKDCMMNTYHLL		Jaffna	LK-41	9.691792	80.098594	Chunnakam	PS-410211	9.745309	80.029151	9.689313	80.031016	M2QJ+PCC, Jaffna, Sri Lanka	6.231781	
Jaffna	Kodikaman	Eludumattuval Health Centre	False	False	JFFNKDKMNLDMTTVLHLTHCNTR		Jaffna	LK-41	9.691792	80.098594	Kodikamam	PS-410217	9.666459	80.132384	9.677952	80.236663	M6HP+5MM, Jaffna, Sri Lanka	11.505299	
Jaffna	Kodikaman	PHC – Kodikaman	False	False	JFFNKDKMNPHCKDKMN		Jaffna	LK-41	9.691792	80.098594	Kodikamam	PS-410217	9.666459	80.132384	9.652561	80.065318	Semmani-Ariyalai Rd, Jaffna, Sri Lanka	7.5147	
Jaffna	Thelippalai	MOH Office – Thelippalai	False	False	JFFNTHLPPLMHFFCTHLPPL		Jaffna	LK-41	9.691792	80.098594	Thelippalay	PS-410104	6.933075	79.857181	9.785272	80.032899	Q2PM+452, Tellippalai, Sri Lanka	317.838063	#CenterFarFromPolice
Jaffna	Thelippalai	Mobile Vaccination	False	False	JFFNTHLPPLMBLVCCNTN		Jaffna	LK-41	9.691792	80.098594	Thelippalay	PS-410104	6.933075	79.857181					#CenterLocationUnknown
Jaffna	Valvettithurai	Vettilaikerny Parameshwara Vidyalayam	False	False	JFFNVLVTTTHRVTTLKRNYPRMSHWRVDYLYM		Jaffna	LK-41	9.691792	80.098594	Valvettiththurai	PS-410107	9.823216	80.169633	9.573938	80.472629	HFFF+H3C, Jaffna, Sri Lanka	43.271183	#CenterFarFromPolice
Jaffna	Wadukkotte	MOH Office – Chankanai	False	False	JFFNWDKKTTMHFFCCHNKN		Jaffna	LK-41	9.691792	80.098594	Vaddukoddai		9.728886	79.947771	9.753617	79.976004	QX3G+CCR, Sri Lanka	4.140836	
Jaffna	Achchuveli	Achchuveli Hospital	False	False	JFFNCHCHVLCHCHVLHSPTL		Jaffna	LK-41	9.691792	80.098594	Achchuweli	PS-410103	6.934132	79.856305	9.772721	80.115501	Avarankal-Tondaimanar Rd, Sri Lanka	317.021383	#CenterFarFromPolice
Jaffna	Kayts	MOH Office – Karainagar	False	False	JFFNKYTSMHFFCKRNGR		Jaffna	LK-41	9.691792	80.098594	Kayts	PS-410212	9.728654	79.94775	9.725097	79.99772	Sri Lanka, Manipay, Sri Lanka	5.492521	
Jaffna	Kayts	MOH Office – Valanai	False	False	JFFNKYTSMHFFCVLN		Jaffna	LK-41	9.691792	80.098594	Kayts	PS-410212	9.728654	79.94775	9.636317	79.903777	Chatty vangkalvady road, Velanai, Sri Lanka	11.346015	
Jaffna	Kayts	Thampadi Community Hall	False	False	JFFNKYTSTHMPDCMMNTYHLL		Jaffna	LK-41	9.691792	80.098594	Kayts	PS-410212	9.728654	79.94775	9.692334	79.870598	MVRC+W6Q, Kayts, Sri Lanka	9.373864	
Jaffna	Kayts	MOH Office – Kayts	False	False	JFFNKYTSMHFFCKYTS		Jaffna	LK-41	9.691792	80.098594	Kayts	PS-410212	9.728654	79.94775	9.697759	79.866366	Sri Lanka, Kayts, Sri Lanka	9.561445	
Jaffna	Chavakachcheri	Golden Jubilee Hall	False	False	JFFNCHVKCHCHRGLDNJBLHLL		Jaffna	LK-41	9.691792	80.098594	Chawakachcheri	PS-410215	9.666459	80.132384	9.659136	80.160946	M556+M94, Chavakachcheri, Sri Lanka	3.236063	
Kilinochchi	Kilinochchi	MOH Office – Kanadawala	False	False	KLNCHCHKLNCHCHMHFFCKNDWL		Kilinochchi	LK-45	9.415742	80.30358	Kilinochchi	PS-450131	9.392265	80.407846	9.396965	80.407782	Kandy - Jaffna Hwy, Kilinochchi, Sri Lanka	0.522827	
Kilinochchi	Kilinochchi	MOH Office - Karachchi	False	False	KLNCHCHKLNCHCHMHFFCKRCHCH		Kilinochchi	LK-45	9.415742	80.30358	Kilinochchi	PS-450131	9.392265	80.407846	9.396965	80.407782	Kandy - Jaffna Hwy, Kilinochchi, Sri Lanka	0.522827	
Kilinochchi	Kilinochchi	MOH Office - Punakar	False	False	KLNCHCHKLNCHCHMHFFCPNKR		Kilinochchi	LK-45	9.415742	80.30358	Kilinochchi	PS-450131	9.392265	80.407846	9.396965	80.407782	Kandy - Jaffna Hwy, Kilinochchi, Sri Lanka	0.522827	
Kilinochchi	Kilinochchi	MOH Office – Palai	False	False	KLNCHCHKLNCHCHMHFFCPL		Kilinochchi	LK-45	9.415742	80.30358	Kilinochchi	PS-450131	9.392265	80.407846	7.330938	80.29484	06 A6, Polgahawela, Sri Lanka	229.618032	#CenterFarFromPolice
Kilinochchi	Pooneryn	MOH Office – Pooneryn	False	False	KLNCHCHPNRYNMHFFCPNRYN		Kilinochchi	LK-45	9.415742	80.30358	Pooneryn		9.505717	80.21101	9.507968	80.208317	G655+58P, Pooneryn, Sri Lanka	0.387256	
Kilinochchi	Pooneryn	Mukkampan Family Health Services Office	False	False	KLNCHCHPNRYNMKKMPNFMLYHLTHSRVCSFFC		Kilinochchi	LK-45	9.415742	80.30358	Pooneryn		9.505717	80.21101	9.396965	80.407782	Kandy - Jaffna Hwy, Kilinochchi, Sri Lanka	24.747612	#CenterFarFromPolice
Kilinochchi	Jayapuram	Jayapuram Hospital	False	False	KLNCHCHJYPRMJYPRMHSPTL		Kilinochchi	LK-45	9.415742	80.30358	Jayapuram		9.312838	80.159865	9.372728	80.411786	Ananthapuram, A9, Kilinochchi, Sri Lanka	28.440585	#CenterFarFromPolice
Kilinochchi	Mulankavil	Mulankavil Hospital	False	False	KLNCHCHMLNKVLMLNKVLHSPTL		Kilinochchi	LK-45	9.415742	80.30358	Mulankavil	PS-450135	9.254463	80.141528	9.243423	80.143894	Base Hospital Mulankavil, A32 Road, Mulankavil, Kumulamunai, Sri Lanka	1.255148	
Mullaitivu	Welioya	Sri Mayuravapi Viharaya	False	False	MLLTVWLYSRMYRVPVHRY		Mullaitivu	LK-44	9.167643	80.549091	Welioya	PS-440152	8.980582	80.773572	8.9862	80.824066	XRPF+FJP, Welioya, Sri Lanka	5.58263	
Mullaitivu	Mullaitivu	Unnapilavu Hospital	False	False	MLLTVMLLTVNNPLVHSPTL		Mullaitivu	LK-44	9.167643	80.549091	Mullativu	PS-440148	9.212825	80.760159	9.26205	80.81366	Unnappulavu, Mullaitivu, Sri Lanka	8.029915	
Mullaitivu	Puthukudiyiruppu	Puthukudiyiruppu Bharathi Vidyalaya	False	False	MLLTVPTHKDYRPPPTHKDYRPPBHRTHVDYLY		Mullaitivu	LK-44	9.167643	80.549091	Pudukuduiruppu	PS-440149	7.00152	79.95003	9.31067	80.699589	8M6X+7R8, Puthukkudiyiruppu, Sri Lanka	269.778207	#CenterFarFromPolice
Mullaitivu	Puthukudiyiruppu	Mungilaru Primary School	False	False	MLLTVPTHKDYRPPMNGLRPRMRYSCHL		Mullaitivu	LK-44	9.167643	80.549091	Pudukuduiruppu	PS-440149	7.00152	79.95003	9.322944	80.702342	Puthukkudiyiruppu-Mathalan Rd, Puthukkudiyiruppu, Sri Lanka	271.170338	#CenterFarFromPolice
Mullaitivu	Puthukudiyiruppu	Devipuram Treatment Centre	False	False	MLLTVPTHKDYRPPDVPRMTRTMNTCNTR		Mullaitivu	LK-44	9.167643	80.549091	Pudukuduiruppu	PS-440149	7.00152	79.95003	9.313637	80.696168	Puthukudiyiruppu, Sri Lanka	269.977487	#CenterFarFromPolice
Mullaitivu	Puthukudiyiruppu	Sri Subramaniyam Vidyalaya	False	False	MLLTVPTHKDYRPPSRSBRMNYMVDYLY		Mullaitivu	LK-44	9.167643	80.549091	Pudukuduiruppu	PS-440149	7.00152	79.95003	9.314562	80.696594	8M7W+RJG, Puthukkudiyiruppu, Sri Lanka	270.089737	#CenterFarFromPolice
Mullaitivu	Mulliyawalai	Mulliyawalai Vidyananda Vidyalaya	False	False	MLLTVMLLYWLMLLYWLVDYNNDVDYLY		Mullaitivu	LK-44	9.167643	80.549091	Muliyaweli	PS-440150	6.915266	79.87829	9.224239	80.774541	6QFF+MRV, Tanniyutttu, Sri Lanka	275.137621	#CenterFarFromPolice
Mullaitivu	Oddusuddan	MOH Office – Oddusuddan	False	False	MLLTVDDSDDNMHFFCDDSDDN		Mullaitivu	LK-44	9.167643	80.549091	Oddusudan	PS-440151	9.160983	80.652821	9.162816	80.661584	5M76+4JG, Oddusuddan, Sri Lanka	0.983634	
Mullaitivu	Mallavi	Anichchankulam Tamil Maha Vidyalaya	False	False	MLLTVMLLVNCHCHNKLMTMLMHVDYLY		Mullaitivu	LK-44	9.167643	80.549091	Mallavi	PS-440153	9.137878	80.307257	9.130417	80.307209	Hospital road mallavi mullaitivu, 42000, Sri Lanka	0.829903	
Mullaitivu	Mankulam	Nattankandal Hospital	False	False	MLLTVMNKLMNTTNKNDLHSPTL		Mullaitivu	LK-44	9.167643	80.549091	Mankulam	PS-440147	9.124606	80.448404	9.12782	80.447093	A9, Mankulam, Sri Lanka	0.385396	
Mullaitivu	Mankulam	Mankulam Hospital	False	False	MLLTVMNKLMMNKLMHSPTL		Mullaitivu	LK-44	9.167643	80.549091	Mankulam	PS-440147	9.124606	80.448404	9.12782	80.447093	A9, Mankulam, Sri Lanka	0.385396	
Mannar	Adampan	MOH Office – Adampan	False	False	MNNRDMPNMHFFCDMPN		Mannar	LK-42	8.877429	80.088628	Adampan		8.939451	80.002055	8.944842	79.996862	WXVW+WPQ, Adampan, Sri Lanka	0.827737	
Mannar	Mannar	Siththi Vinayakar Hindu College	False	False	MNNRMNNRSTHTHVNYKRHNDCLLG		Mannar	LK-42	8.877429	80.088628	Mannar	PS-420138	8.978123	79.911642	8.97968	79.919795	Pallimunai Rd, Mannar, Sri Lanka	0.912332	
Mannar	Mannar	RDHS Office	False	False	MNNRMNNRRDHSFFC		Mannar	LK-42	8.877429	80.088628	Mannar	PS-420138	8.978123	79.911642	8.983382	79.902565	Thalvupadu - Mannar Rd, Mannar 41000, Sri Lanka	1.156155	
Mannar	Mannar	J J Mills	False	False	MNNRMNNRJJMLLS		Mannar	LK-42	8.877429	80.088628	Mannar	PS-420138	8.978123	79.911642	8.992898	79.902285	Sinnakadai, Sri Lanka	1.93846	
Mannar	Murunkan	De La Salle School - Nanatton MOH	False	False	MNNRMRNKNDLSLLSCHLNNTTNMH		Mannar	LK-42	8.877429	80.088628	Murunkan	PS-420143	8.838186	80.038298	6.962404	79.86236	De La Salle St, Colombo, Sri Lanka	209.541319	#CenterFarFromPolice
Mannar	Silawathura	Marichchukaddy Al Jazeer School	False	False	MNNRSLWTHRMRCHCHKDDYLJZRSCHL		Mannar	LK-42	8.877429	80.088628	Silawathura	PS-420139	6.891461	79.856199	8.756592	79.947031	South-Coast Rd, Silavathurai, Sri Lanka	207.699502	#CenterFarFromPolice
Mannar	Vavunia	Mobile Medical Team	False	False	MNNRVVNMBLMDCLTM		Mannar	LK-42	8.877429	80.088628	Vavuniya	PS-430119	8.754431	80.498604					#CenterLocationUnknown
Trincomalee	Muttur	MOH Office – Muttur	False	False	TRNCMLMTTRMHFFCMTTR		Trincomalee	LK-53	8.551241	81.092014	Mutur	PS-530138	8.461133	81.259371	8.453916	81.264494	1 Old Batticaloa Rd, Mutur, Sri Lanka	0.980859	
Trincomalee	Kinniya	MOH Office – Kurungnakeni	False	False	TRNCMLKNNYMHFFCKRNGNKN		Trincomalee	LK-53	8.551241	81.092014	Kinnia	PS-530140	6.907289	79.863819	7.484932	80.353119	F9M3+X6H, Kurunegala 60000, Sri Lanka	83.927094	#CenterFarFromPolice
Trincomalee	Kinniya	MOH Office – Kinniya	False	False	TRNCMLKNNYMHFFCKNNY		Trincomalee	LK-53	8.551241	81.092014	Kinnia	PS-530140	6.907289	79.863819	8.498696	81.179644	F5XH+FVC, Kinniya 31100, Sri Lanka	228.840304	#CenterFarFromPolice
Trincomalee	Sripura	MOH Office – Sripura	False	False	TRNCMLSRPRMHFFCSRPR		Trincomalee	LK-53	8.551241	81.092014	Sripura	PS-530136	8.929617	80.81428	8.926697	80.814799	Padavi Sripura, Padaviya - Sripura Road, Welioya, Sri Lanka	0.329869	
Trincomalee	Kuchchaveli	MOH Office – Kuchchaveli	False	False	TRNCMLKCHCHVLMHFFCKCHCHVL		Trincomalee	LK-53	8.551241	81.092014	Kuchchaweli	PS-530133	8.81895	81.100438	8.740082	81.161616	P5R6+2JQ, Kumpurupiddi, Sri Lanka	11.053646	
Trincomalee	Kuchchaveli	Divisional Hospital – Kuchchaveli	False	False	TRNCMLKCHCHVLDVSNLHSPTLKCHCHVL		Trincomalee	LK-53	8.551241	81.092014	Kuchchaweli	PS-530133	8.81895	81.100438	8.814795	81.102358	R472+WW9, Kuchchaveli, Sri Lanka	0.508064	
Trincomalee	Kuchchaveli	Divisional Hospital – Nilaveli	False	False	TRNCMLKCHCHVLDVSNLHSPTLNLVL		Trincomalee	LK-53	8.551241	81.092014	Kuchchaweli	PS-530133	8.81895	81.100438	8.681035	81.193632	M5JV+CF6, Nilaveli, Sri Lanka	18.44695	
Trincomalee	Pulmoddai	Base Hospital -Pulmoddai	False	False	TRNCMLPLMDDBSHSPTLPLMDD		Trincomalee	LK-53	8.551241	81.092014	Pulmudai	PS-530135	6.915266	79.87829	8.941204	80.983139	WXRM+F7J, Pulmoddai, Sri Lanka	256.112801	#CenterFarFromPolice
Trincomalee	Serunuwara	MOH Office – Serunuwara	False	False	TRNCMLSRNWRMHFFCSRNWR		Trincomalee	LK-53	8.551241	81.092014	Serunuwara	PS-530244	8.321863	81.299322	8.323143	81.299894	B10, Sri Lanka	0.155671	
Trincomalee	Harbour Police	MOH Office – Trincomalee	False	False	TRNCMLHRBRPLCMHFFCTRNCML		Trincomalee	LK-53	8.551241	81.092014	Trinco Harbour Police	PS-530131	8.56705	81.231407	8.598974	81.216963	MOH Office, Farm Rd, Trincomalee, Sri Lanka	3.890062	
Trincomalee	Harbour Police	Base Hospital – Trincomalee	False	False	TRNCMLHRBRPLCBSHSPTLTRNCML		Trincomalee	LK-53	8.551241	81.092014	Trinco Harbour Police	PS-530131	8.56705	81.231407	8.56486	81.239445	Hospital Ln, Trincomalee, Sri Lanka	0.917037	
Trincomalee	Uppuveli	MOH Office - Uppuveli	False	False	TRNCMLPPVLMHFFCPPVL		Trincomalee	LK-53	8.551241	81.092014	Uppuweli	PS-530134	8.593614	81.21743	8.607961	81.216512	Nilaveli Rd, Trincomalee, Sri Lanka	1.599005	
Trincomalee	Kantale	MOH Office - Kantale	False	False	TRNCMLKNTLMHFFCKNTL		Trincomalee	LK-53	8.551241	81.092014	Kantale	PS-530241	8.356129	81.007739	8.349617	81.009107	අග්‍රබෝධි මාවත, Kantale, Sri Lanka	0.739809	
Trincomalee	Ichchalampattu	MOH Office – Ichchalampattu	False	False	TRNCMLCHCHLMPTTMHFFCCHCHLMPTT	Eachchilampattu Hospital	Trincomalee	LK-53	8.551241	81.092014	Ichchalampattu		8.289549	81.359002	8.289644	81.358983	Highway, Ichchalampattu, Trincomalee, Sri Lanka	0.010772	
Trincomalee	Ichchalampattu	Sanpaha Vidyalaya	False	False	TRNCMLCHCHLMPTTSNPHVDYLY		Trincomalee	LK-53	8.551241	81.092014	Ichchalampattu		8.289549	81.359002	8.653949	81.21274	M637+H3H, Trincomalee, Sri Lanka	43.609409	#CenterFarFromPolice
Trincomalee	Thambalagamuwa	MOH Office - Thambalagamuwa	False	False	TRNCMLTHMBLGMWMHFFCTHMBLGMW		Trincomalee	LK-53	8.551241	81.092014	Thambalagamuva	PS-530243	6.907289	79.863819	8.563603	81.239584	Hospital Ln, Trincomalee, Sri Lanka	238.604889	#CenterFarFromPolice
Trincomalee	Gomarankadawala	MOH Office – Gomarankadawala	False	False	TRNCMLGMRNKDWLMHFFCGMRNKDWL		Trincomalee	LK-53	8.551241	81.092014	Gomarankadawala	PS-530248	8.674487	80.967555	8.674726	80.955691	Unnamed Road, Gomarankadawala, Sri Lanka	1.304806	
Batticaloa	Batticaloa	Mobile Medical Team	False	False	BTTCLBTTCLMBLMDCLTM		Batticaloa	LK-51	7.792772	81.486513	Batticaloa	PS-510101	7.717949	81.699294					#CenterLocationUnknown
Batticaloa	Kokkadicholai	MOH Office – Kokkadicholai	False	False	BTTCLKKKDCHLMHFFCKKKDCHL		Batticaloa	LK-51	7.792772	81.486513	Kokkadicholai	PS-510112	7.715979	81.698757	7.607311	81.712525	Kokkaddicholai, Batticaloa, Sri Lanka	12.18204	
Batticaloa	Vellawali	Kalaimagal Vidyalaya	False	False	BTTCLVLLWLKLMGLVDYLY		Batticaloa	LK-51	7.792772	81.486513	Vellavali	PS-510111	6.907289	79.863819	7.503251	81.730235	Ampilanturai-Veeramunai Rd, Sri Lanka	216.365388	#CenterFarFromPolice
Batticaloa	Valachchenai	Valachchenai Base Hospital	False	False	BTTCLVLCHCHNVLCHCHNBSHSPTL		Batticaloa	LK-51	7.792772	81.486513	Valachchanai	PS-510107	7.908015	81.533004	7.911315	81.533046	Valaichchenai-Nasuvantivu-Navaladi Road, Sri Lanka	0.367088	
Batticaloa	Valachchenai	MOH Office – Oddamavadi	False	False	BTTCLVLCHCHNMHFFCDDMVD		Batticaloa	LK-51	7.792772	81.486513	Valachchanai	PS-510107	7.908015	81.533004	7.912281	81.532775	WG6M+W46, Batticaloa, Sri Lanka	0.475177	
Batticaloa	Valachchenai	MOH Office - Koralepattu Central	False	False	BTTCLVLCHCHNMHFFCKRLPTTCNTRL		Batticaloa	LK-51	7.792772	81.486513	Valachchanai	PS-510107	7.908015	81.533004	7.922593	81.530022	Batticaloa, Sri Lanka	1.654455	
Batticaloa	Valachchenai	MOH Office - Koralepattu	False	False	BTTCLVLCHCHNMHFFCKRLPTT		Batticaloa	LK-51	7.792772	81.486513	Valachchanai	PS-510107	7.908015	81.533004	7.922593	81.530022	WGFJ+22J, Sri Lanka	1.654455	
Batticaloa	Valachchenai	MOH Office – Kiran	False	False	BTTCLVLCHCHNMHFFCKRN		Batticaloa	LK-51	7.792772	81.486513	Valachchanai	PS-510107	7.908015	81.533004	7.623441	81.717877	Muthalaikudah Kanchirankudah Rd, Sri Lanka	37.64378	#CenterFarFromPolice
Batticaloa	Vakarai	MOH Office - Vakarai	False	False	BTTCLVKRMHFFCVKR	Divisional Hospital Vakarai	Batticaloa	LK-51	7.792772	81.486513	Wakarai	PS-510109	6.934132	79.856305	8.134552	81.435328	Trincomalee Hwy, Vakarai, Sri Lanka	219.417822	#CenterFarFromPolice
Batticaloa	Kaluwanchikudy	MOH Office – Kaluwanchikudy	False	False	BTTCLKLWNCHKDYMHFFCKLWNCHKDY	Medical Officer of Health Kaluwanchikudy	Batticaloa	LK-51	7.792772	81.486513	Kalawanchikudy	PS-510110	7.515908	81.787051	7.509333	81.79204	Colombo - Batticaloa Hwy, Kaluwanchikudy, Sri Lanka	0.915167	
Batticaloa	Vavunathivu	MOH Office - Vavunathivu	False	False	BTTCLVVNTHVMHFFCVVNTHV		Batticaloa	LK-51	7.792772	81.486513	Vavunathive	PS-510102	6.933075	79.857181	7.708253	81.691368	Hospital Rd, Batticaloa, Sri Lanka	219.95575	#CenterFarFromPolice
Batticaloa	Vavunathivu	Pudumandapattadi Hospital	False	False	BTTCLVVNTHVPDMNDPTTDHSPTL		Batticaloa	LK-51	7.792772	81.486513	Vavunathive	PS-510102	6.933075	79.857181	7.708032	81.690622	Hospital Ln, Batticaloa 30000, Sri Lanka	219.870447	#CenterFarFromPolice
Batticaloa	Kattankudy	Kattankudy Base Hospital	False	False	BTTCLKTTNKDYKTTNKDYBSHSPTL		Batticaloa	LK-51	7.792772	81.486513	Kaththankudi	PS-510103	7.715979	81.698757	7.685147	81.739078	Dr Badhiudeen Mahmood Mawatha, Kattankudy, Sri Lanka	5.613752	
Batticaloa	Kattankudy	MOH Office – Kattankudy	False	False	BTTCLKTTNKDYMHFFCKTTNKDY		Batticaloa	LK-51	7.792772	81.486513	Kaththankudi	PS-510103	7.715979	81.698757	7.683586	81.730767	MPMJ+C8J, Kattankudy, Sri Lanka	5.042961	
Batticaloa	Eravur	Sandiveli Hospital	False	False	BTTCLRVRSNDVLHSPTL		Batticaloa	LK-51	7.792772	81.486513	Eravur	PS-510104	7.715979	81.698757	7.777289	81.602853	Trincomalee Hwy, Eravur, Sri Lanka	12.578998	
Batticaloa	Eravur	MOH Office – Eravur	False	False	BTTCLRVRMHFFCRVR		Batticaloa	LK-51	7.792772	81.486513	Eravur	PS-510104	7.715979	81.698757	7.783664	81.605626	QJM4+F76, Eravur, Sri Lanka	12.729342	
Batticaloa	Eravur	MOH Office - Chenkaladi	False	False	BTTCLRVRMHFFCCHNKLD		Batticaloa	LK-51	7.792772	81.486513	Eravur	PS-510104	7.715979	81.698757	7.783599	81.593367	Trincomalee Hwy, Chenkaladi 30350, Sri Lanka	13.837876	
Batticaloa	Eravur	Eravur Hospital	False	False	BTTCLRVRRVRHSPTL		Batticaloa	LK-51	7.792772	81.486513	Eravur	PS-510104	7.715979	81.698757	7.783168	81.605999	QJM4+799, Eravur 30300, Sri Lanka	12.663585	
Batticaloa	Eravur	Maiyawadi Mosque	False	False	BTTCLRVRMYWDMSQ		Batticaloa	LK-51	7.792772	81.486513	Eravur	PS-510104	7.715979	81.698757	7.662027	81.739072	Old Kalmunai Road, Batticaloa, Sri Lanka	7.467344	
Batticaloa	Eravur	Public Library	False	False	BTTCLRVRPBLCLBRRY		Batticaloa	LK-51	7.792772	81.486513	Eravur	PS-510104	7.715979	81.698757	7.770608	81.608183	QJC5+67V, Eravur, Sri Lanka	11.686573	
Batticaloa	Eravur	Mawadiwembu Hospital	False	False	BTTCLRVRMWDWMBHSPTL		Batticaloa	LK-51	7.792772	81.486513	Eravur	PS-510104	7.715979	81.698757	7.808545	81.566328	Mawadiwembu Hospital, Sri Lanka	17.861302	
Batticaloa	Eravur	MOH Office – Chenkaladi	False	False	BTTCLRVRMHFFCCHNKLD		Batticaloa	LK-51	7.792772	81.486513	Eravur	PS-510104	7.715979	81.698757	7.783599	81.593367	Trincomalee Hwy, Chenkaladi 30350, Sri Lanka	13.837876	
Batticaloa	Eravur	Chenkaladi Hospital	False	False	BTTCLRVRCHNKLDHSPTL		Batticaloa	LK-51	7.792772	81.486513	Eravur	PS-510104	7.715979	81.698757	7.783546	81.589961	Batticaloa Rd, Chenkaladi, Sri Lanka	14.151406	
Batticaloa	Karadiyanaru	Karadiyanaru Hospital	False	False	BTTCLKRDYNRKRDYNRHSPTL		Batticaloa	LK-51	7.792772	81.486513	Karadiyanaru	PS-510105	7.701992	81.537252	7.700216	81.539779	PG2Q+3WJ, Karadiyanaru, Sri Lanka	0.341482	
Batticaloa	Ampara	Ds Senanayaka Vidyalaya	False	False	BTTCLMPRDSSNNYKVDYLY		Batticaloa	LK-51	7.792772	81.486513	Ampara	PS-520113	7.296771	81.677161	7.303531	81.671966	Dharmapala Mawatha, Ampara, Sri Lanka	0.945453	
Batticaloa	Ampara	Uhana Maha Vidyalaya	False	False	BTTCLMPRHNMHVDYLY		Batticaloa	LK-51	7.792772	81.486513	Ampara	PS-520113	7.296771	81.677161	7.367509	81.640912	9J9R+293, Uhana, Sri Lanka	8.826109	
Batticaloa	Ampara	MOH Office - Damana	False	False	BTTCLMPRMHFFCDMN		Batticaloa	LK-51	7.792772	81.486513	Ampara	PS-520113	7.296771	81.677161	7.197982	81.65538	5MX4+55R, Damana, Sri Lanka	11.248041	
Ampara	Chavalakade	MOH Office – Navidanveli	False	False	MPRCHVLKDMHFFCNVDNVL		Ampara	LK-52	7.23699	81.550391	Chawalakade	PS-520125	7.413559	81.776822	7.420081	81.788401	B77, Sri Lanka	1.468805	
Ampara	Karaitivu	MOH Office – Karaitivu	False	False	MPRKRTVMHFFCKRTV		Ampara	LK-52	7.23699	81.550391	Karaitivu		9.744059	79.870587	7.377712	81.838796	Colombo-Ratnapura-Wellawaya-Batticaloa Highway, Karativu 32250, Sri Lanka	340.788666	#CenterFarFromPolice
Ampara	Karaitivu	Sanmuha Vidyalaya	False	False	MPRKRTVSNMHVDYLY		Ampara	LK-52	7.23699	81.550391	Karaitivu		9.744059	79.870587	7.368576	81.84344	Shanmuga Maha Vidyalaya, Karaitivu 32250, Sri Lanka	341.89962	#CenterFarFromPolice
Ampara	Karaitivu	RKM Vidyalaya	False	False	MPRKRTVRKMVDYLY		Ampara	LK-52	7.23699	81.550391	Karaitivu		9.744059	79.870587	7.382042	81.843013	Central Rd, Karaitivu 32250, Sri Lanka	340.711182	#CenterFarFromPolice
Ampara	Karaitivu	Al Husen Vidyalaya	False	False	MPRKRTVLHSNVDYLY		Ampara	LK-52	7.23699	81.550391	Karaitivu		9.744059	79.870587	7.388044	81.841647	Maligaroad, Karaitivu, Kalmunai 32250, Sri Lanka	340.099835	#CenterFarFromPolice
Ampara	Kalmunai	Ashraff Memorial Hospital	False	False	MPRKLMNSHRFFMMRLHSPTL		Ampara	LK-52	7.23699	81.550391	Kalmunai	PS-520123	7.414289	81.825006	7.403172	81.831146	A4, Ashraff Memorial Base Hospital, A4 A4, Kalmunai 32300, Sri Lanka	1.409859	
Ampara	Kalmunai	Ramakrishna Mission College	False	False	MPRKLMNRMKRSHNMSSNCLLG		Ampara	LK-52	7.23699	81.550391	Kalmunai	PS-520123	7.414289	81.825006	7.412373	81.828629	Udyar Rd, Kalmunai 32300, Sri Lanka	0.452893	
Ampara	Kalmunai	Base Hospital - Kalmunai North	False	False	MPRKLMNBSHSPTLKLMNNRTH		Ampara	LK-52	7.23699	81.550391	Kalmunai	PS-520123	7.414289	81.825006	7.420034	81.82232	hospital near, Kalmunai 32300, Sri Lanka	0.704353	
Ampara	Kalmunai	MOH Office - Kalmunai South	False	False	MPRKLMNMHFFCKLMNSTH		Ampara	LK-52	7.23699	81.550391	Kalmunai	PS-520123	7.414289	81.825006	7.411712	81.838462	CR6Q+M9P, Kalmunai 32300, Sri Lanka	1.511625	
Ampara	Kalmunai	Al Bahariya National College	False	False	MPRKLMNLBHRYNTNLCLLG		Ampara	LK-52	7.23699	81.550391	Kalmunai	PS-520123	7.414289	81.825006	7.399481	81.839854	Zahira College Rd, Sainthamaruthu 32280, Sri Lanka	2.32275	
Ampara	Kalmunai	Al Manar Central College	False	False	MPRKLMNLMNRCNTRLCLLG		Ampara	LK-52	7.23699	81.550391	Kalmunai	PS-520123	7.414289	81.825006	7.436331	81.812701	Maruthamunai, Sri Lanka	2.802316	
Ampara	Kalmunai	Al Madina Vidyalaya	False	False	MPRKLMNLMDNVDYLY		Ampara	LK-52	7.23699	81.550391	Kalmunai	PS-520123	7.414289	81.825006	7.434363	81.817655	03 Mashoor Moulana Rd, Maruthamunai 32314, Sri Lanka	2.375481	
Ampara	Kalmunai	MOH Office - Kalmunai North	False	False	MPRKLMNMHFFCKLMNNRTH		Ampara	LK-52	7.23699	81.550391	Kalmunai	PS-520123	7.414289	81.825006	7.411712	81.838462	CR6Q+M9P, Kalmunai 32300, Sri Lanka	1.511625	
Ampara	Sainthamarthu	MOH Office – Sainthamarthu	False	False	MPRSNTHMRTHMHFFCSNTHMRTH		Ampara	LK-52	7.23699	81.550391									#PoliceLocationUnknown
Ampara	Sainthamarthu	Saindamarudu Hospital	False	False	MPRSNTHMRTHSNDMRDHSPTL		Ampara	LK-52	7.23699	81.550391									#PoliceLocationUnknown
Ampara	Sammanthurai	Sammanthurai Base Hospital	False	False	MPRSMMNTHRSMMNTHRBSHSPTL		Ampara	LK-52	7.23699	81.550391	Samanthurai	PS-520124	7.365785	81.810859	7.368355	81.813042	9R96+MWM, Hospital Rd, Sammanthurai, Sri Lanka	0.373773	
Ampara	Sammanthurai	MOH Office – Nintavur	False	False	MPRSMMNTHRMHFFCNNTVR		Ampara	LK-52	7.23699	81.550391	Samanthurai	PS-520124	7.365785	81.810859	7.352821	81.856939	Hospital Rd, Nintavur 32340, Sri Lanka	5.283925	
Ampara	Sammanthurai	Nintavur Hospital	False	False	MPRSMMNTHRNNTVRHSPTL		Ampara	LK-52	7.23699	81.550391	Samanthurai	PS-520124	7.365785	81.810859	7.353372	81.856852	Hospital Rd, Nintavur, Sri Lanka	5.258159	
Ampara	Sammanthurai	Al Maskar Balika Vidyalaya	False	False	MPRSMMNTHRLMSKRBLKVDYLY		Ampara	LK-52	7.23699	81.550391	Samanthurai	PS-520124	7.365785	81.810859	7.357484	81.795105	Sammanthurai, Sri Lanka	1.967921	
Ampara	Sammanthurai	Darussalam Vidyalaya	False	False	MPRSMMNTHRDRSSLMVDYLY		Ampara	LK-52	7.23699	81.550391	Samanthurai	PS-520124	7.365785	81.810859	7.357562	81.802725	9R53+23H, Sammanthurai, Sri Lanka	1.281286	
Ampara	Sammanthurai	Madina Vidyalaya	False	False	MPRSMMNTHRMDNVDYLY		Ampara	LK-52	7.23699	81.550391	Samanthurai	PS-520124	7.365785	81.810859	7.35018	81.80359	Kallarichchel 02, Sammanthurai, Sri Lanka	1.912014	
Ampara	Sammanthurai	Kannahi Vidyalaya	False	False	MPRSMMNTHRKNNHVDYLY		Ampara	LK-52	7.23699	81.550391	Samanthurai	PS-520124	7.365785	81.810859	7.35018	81.80359	Kallarichchel 02, Sammanthurai, Sri Lanka	1.912014	
Ampara	Sammanthurai	Al Marjan Vidyalaya	False	False	MPRSMMNTHRLMRJNVDYLY		Ampara	LK-52	7.23699	81.550391	Samanthurai	PS-520124	7.365785	81.810859	7.363356	81.799869	9Q7X+8WX, Sammanthurai, Sri Lanka	1.242072	
Ampara	Thirukkovil	MOH Office – Thirukkovil	False	False	MPRTHRKKVLMHFFCTHRKKVL		Ampara	LK-52	7.23699	81.550391	Thirukkovil	PS-520127	7.113998	81.852219	7.111635	81.852892	Central Rd, Vinayagapuram, Sri Lanka	0.273131	
Ampara	Akkaraipattu	Akkaraipattu Nuraniya Church	False	False	MPRKKRPTTKKRPTTNRNYCHRCH		Ampara	LK-52	7.23699	81.550391	Akkaraipattu	PS-520126	7.216084	81.853254	7.217154	81.849717	Sagama Rd, Akkaraipattu, Sri Lanka	0.408046	
Ampara	Akkaraipattu	MOH Office – Akkaraipattu	False	False	MPRKKRPTTMHFFCKKRPTT		Ampara	LK-52	7.23699	81.550391	Akkaraipattu	PS-520126	7.216084	81.853254	7.228134	81.851123	6VH2+7C5, Akkaraipattu, Sri Lanka	1.360772	
Ampara	Akkaraipattu	Kovil Vinayagar Vidayalaya	False	False	MPRKKRPTTKVLVNYGRVDYLY		Ampara	LK-52	7.23699	81.550391	Akkaraipattu	PS-520126	7.216084	81.853254	7.198526	81.849358	Akkaraipattu-Sagamam Rd, Sri Lanka	1.999736	
Ampara	Akkaraipattu	Palamuna Muslim Vidyalaya	False	False	MPRKKRPTTPLMNMSLMVDYLY		Ampara	LK-52	7.23699	81.550391	Akkaraipattu	PS-520126	7.216084	81.853254	7.225665	81.838179	MCC Road, Akkaraipattu-06, Akkaraipattu 32400, Sri Lanka	1.975577	
Ampara	Akkaraipattu	Oluwil Hamra Vidyalaya	False	False	MPRKKRPTTLWLHMRVDYLY		Ampara	LK-52	7.23699	81.550391	Akkaraipattu	PS-520126	7.216084	81.853254	7.290277	81.857414	7VR4+4X7, Oluvil, Sri Lanka	8.265231	
Ampara	Akkaraipattu	Badur Mosque	False	False	MPRKKRPTTBDRMSQ		Ampara	LK-52	7.23699	81.550391	Akkaraipattu	PS-520126	7.216084	81.853254	7.21798	81.859573	Deens Road, Akkaraipattu, Sri Lanka	0.728487	
Ampara	Akkaraipattu	Alsiraj Vidyalaya	False	False	MPRKKRPTTLSRJVDYLY		Ampara	LK-52	7.23699	81.550391	Akkaraipattu	PS-520126	7.216084	81.853254	7.219333	81.85313	Akkaraipattu, Sri Lanka	0.361645	
Ampara	Akkaraipattu	MOH Office – Addalachenai	False	False	MPRKKRPTTMHFFCDDLCHN		Ampara	LK-52	7.23699	81.550391	Akkaraipattu	PS-520126	7.216084	81.853254	7.260916	81.853493	7V63+999, Addalaichenai, Sri Lanka	4.986726	
Ampara	Akkaraipattu	Addalachenai Hospital	False	False	MPRKKRPTTDDLCHNHSPTL		Ampara	LK-52	7.23699	81.550391	Akkaraipattu	PS-520126	7.216084	81.853254	7.253287	81.853598	Colombo - Batticaloa Hwy, Addalachchena, Sri Lanka	4.138258	
Ampara	Akkaraipattu	Addalachenai National College	False	False	MPRKKRPTTDDLCHNNTNLCLLG		Ampara	LK-52	7.23699	81.550391	Akkaraipattu	PS-520126	7.216084	81.853254	7.248937	81.857951	Addalaichenai, Sri Lanka	3.690806	
Ampara	Akkaraipattu	MOH Office - Alayadivembu	False	False	MPRKKRPTTMHFFCLYDVMB		Ampara	LK-52	7.23699	81.550391	Akkaraipattu	PS-520126	7.216084	81.853254	7.228134	81.851123	6VH2+7C5, Akkaraipattu, Sri Lanka	1.360772	
Ampara	Pottuvil	Sinnapudikudi Iruppu Health Centre	False	False	MPRPTTVLSNNPDKDRPPHLTHCNTR		Ampara	LK-52	7.23699	81.550391	Pothuvil	PS-520128	6.878387	81.826859	6.867891	81.839008	Muhudu Maha Vihara Mawatha, Pottuvil, Sri Lanka	1.778462	
Ampara	Pottuvil	Pottuvil Hospital	False	False	MPRPTTVLPTTVLHSPTL		Ampara	LK-52	7.23699	81.550391	Pothuvil	PS-520128	6.878387	81.826859	6.876098	81.830463	Main Street Colombo - Batticaloa Hwy, Pottuvil 32500, Sri Lanka	0.47246	
Ampara	Pottuvil	Komari Hospital	False	False	MPRPTTVLKMRHSPTL		Ampara	LK-52	7.23699	81.550391	Pothuvil	PS-520128	6.878387	81.826859	6.876098	81.830463	Main Street,, Base Hospital, Main Street Colombo - Batticaloa Hwy, Pottuvil 32500, Sri Lanka	0.47246	
Ampara	Pottuvil	Pottuvil Cultural Centre	False	False	MPRPTTVLPTTVLCLTRLCNTR		Ampara	LK-52	7.23699	81.550391	Pothuvil	PS-520128	6.878387	81.826859	6.867891	81.839008	Muhudu Maha Vihara Mawatha, Pottuvil, Sri Lanka	1.778462	
Ampara	Pottuvil	Al Aksha Vidyalaya - Ulla	False	False	MPRPTTVLLKSHVDYLYLL		Ampara	LK-52	7.23699	81.550391	Pothuvil	PS-520128	6.878387	81.826859	6.867891	81.839008	Muhudu Maha Vihara Mawatha, Pottuvil, Sri Lanka	1.778462	
